LINESTRING (-92.750000 39.010000, -92.754217 39.009674, -92.758434 39.009348, -92.762651 39.009022, -92.766868 39.008696, -92.771085 39.008370, -92.775302 39.008043, -92.779519 39.007717, -92.783735 39.007390, -92.787952 39.007063, -92.792169 39.006736, -92.796385 39.006409, -92.800602 39.006081, -92.804819 39.005754, -92.809035 39.005426, -92.813252 39.005098, -92.817468 39.004770, -92.821685 39.004442, -92.825901 39.004114, -92.830117 39.003785, -92.834334 39.003457, -92.838550 39.003128, -92.842766 39.002799, -92.846982 39.002470, -92.851198 39.002141, -92.855415 39.001811, -92.859631 39.001482, -92.863847 39.001152, -92.868063 39.000822, -92.872279 39.000493, -92.876495 39.000162, -92.880710 38.999832, -92.884926 38.999502, -92.889142 38.999171, -92.893358 38.998840, -92.897574 38.998510, -92.901789 38.998178, -92.906005 38.997847, -92.910221 38.997516, -92.914436 38.997184, -92.918652 38.996853, -92.922867 38.996521, -92.927083 38.996189, -92.931298 38.995857, -92.935513 38.995525, -92.939729 38.995192, -92.943944 38.994860, -92.948159 38.994527, -92.952374 38.994194, -92.956590 38.993861, -92.960805 38.993528, -92.965020 38.993195, -92.969235 38.992861, -92.973450 38.992528, -92.977665 38.992194, -92.981880 38.991860, -92.986095 38.991526, -92.990309 38.991192, -92.994524 38.990857, -92.998739 38.990523, -93.002954 38.990188, -93.007168 38.989853, -93.011383 38.989518, -93.015598 38.989183, -93.019812 38.988848, -93.024027 38.988513, -93.028241 38.988177, -93.032456 38.987841, -93.036670 38.987505, -93.040885 38.987169, -93.045099 38.986833, -93.049313 38.986497, -93.053527 38.986160, -93.057742 38.985824, -93.061956 38.985487, -93.066170 38.985150, -93.070384 38.984813, -93.074598 38.984476, -93.078812 38.984138, -93.083026 38.983801, -93.087240 38.983463, -93.091454 38.983125, -93.095668 38.982787, -93.099882 38.982449, -93.104095 38.982111, -93.108309 38.981772, -93.112523 38.981434, -93.116736 38.981095, -93.120950 38.980756, -93.125164 38.980417, -93.129377 38.980078, -93.133591 38.979738, -93.137804 38.979399, -93.142017 38.979059, -93.146231 38.978719, -93.150444 38.978379, -93.154657 38.978039, -93.158871 38.977699, -93.163084 38.977358, -93.167297 38.977018, -93.171510 38.976677, -93.175723 38.976336, -93.179936 38.975995, -93.184149 38.975654, -93.188362 38.975313, -93.192575 38.974971, -93.196788 38.974630, -93.201001 38.974288, -93.205214 38.973946, -93.209426 38.973604, -93.213639 38.973261, -93.217852 38.972919, -93.222064 38.972577, -93.226277 38.972234, -93.230490 38.971891, -93.234702 38.971548, -93.238915 38.971205, -93.243127 38.970861, -93.247339 38.970518, -93.251552 38.970174, -93.255764 38.969831, -93.259976 38.969487, -93.264189 38.969143, -93.268401 38.968798, -93.272613 38.968454, -93.276825 38.968110, -93.281037 38.967765, -93.285249 38.967420, -93.289461 38.967075, -93.293673 38.966730, -93.297885 38.966385, -93.302097 38.966039, -93.306309 38.965694, -93.310520 38.965348, -93.314732 38.965002, -93.318944 38.964656, -93.323155 38.964310, -93.327367 38.963964, -93.331579 38.963617, -93.335790 38.963270, -93.340002 38.962924, -93.344213 38.962577, -93.348424 38.962230, -93.352636 38.961882, -93.356847 38.961535, -93.361058 38.961187, -93.365270 38.960840, -93.369481 38.960492, -93.373692 38.960144, -93.377903 38.959796, -93.382114 38.959447, -93.386325 38.959099, -93.390536 38.958750, -93.394747 38.958402, -93.398958 38.958053, -93.403169 38.957704, -93.407380 38.957354, -93.411591 38.957005, -93.415801 38.956656, -93.420012 38.956306, -93.424223 38.955956, -93.428433 38.955606, -93.432644 38.955256, -93.436854 38.954906, -93.441065 38.954555, -93.445275 38.954205, -93.449486 38.953854, -93.453696 38.953503, -93.457906 38.953152, -93.462117 38.952801, -93.466327 38.952450, -93.470537 38.952098, -93.474747 38.951746, -93.478957 38.951395, -93.483168 38.951043, -93.487378 38.950691, -93.491588 38.950338, -93.495797 38.949986, -93.500007 38.949633, -93.504217 38.949281, -93.508427 38.948928, -93.512637 38.948575, -93.516847 38.948222, -93.521056 38.947868, -93.525266 38.947515, -93.529476 38.947161, -93.533685 38.946808, -93.537895 38.946454, -93.542104 38.946100, -93.546314 38.945746, -93.550523 38.945391, -93.554732 38.945037, -93.558942 38.944682, -93.563151 38.944327, -93.567360 38.943972, -93.571569 38.943617, -93.575779 38.943262, -93.579988 38.942906, -93.584197 38.942551, -93.588406 38.942195, -93.592615 38.941839, -93.596824 38.941483, -93.601033 38.941127, -93.605241 38.940771, -93.609450 38.940414, -93.613659 38.940058, -93.617868 38.939701, -93.622076 38.939344, -93.626285 38.938987, -93.630494 38.938630, -93.634702 38.938272, -93.638911 38.937915, -93.643119 38.937557, -93.647328 38.937199, -93.651536 38.936841, -93.655744 38.936483, -93.659953 38.936125, -93.664161 38.935767, -93.668369 38.935408, -93.672577 38.935049, -93.676785 38.934690, -93.680994 38.934331, -93.685202 38.933972, -93.689410 38.933613, -93.693618 38.933253, -93.697826 38.932894, -93.702033 38.932534, -93.706241 38.932174, -93.710449 38.931814, -93.714657 38.931454, -93.718864 38.931093, -93.723072 38.930733, -93.727280 38.930372, -93.731487 38.930011, -93.735695 38.929650, -93.739902 38.929289, -93.744110 38.928928, -93.748317 38.928566, -93.752525 38.928204, -93.756732 38.927843, -93.760939 38.927481, -93.765146 38.927119, -93.769354 38.926757, -93.773561 38.926394, -93.777768 38.926032, -93.781975 38.925669, -93.786182 38.925306, -93.790389 38.924943, -93.794596 38.924580, -93.798803 38.924217, -93.803010 38.923853, -93.807216 38.923490, -93.811423 38.923126, -93.815630 38.922762, -93.819837 38.922398, -93.824043 38.922034, -93.828250 38.921670, -93.832456 38.921305, -93.836663 38.920941, -93.840869 38.920576, -93.845076 38.920211, -93.849282 38.919846, -93.853488 38.919481, -93.857695 38.919115, -93.861901 38.918750, -93.866107 38.918384, -93.870313 38.918018, -93.874519 38.917652, -93.878726 38.917286, -93.882932 38.916920, -93.887138 38.916553, -93.891343 38.916187, -93.895549 38.915820, -93.899755 38.915453, -93.903961 38.915086, -93.908167 38.914719, -93.912373 38.914352, -93.916578 38.913984, -93.920784 38.913616, -93.924989 38.913249, -93.929195 38.912881, -93.933400 38.912513, -93.937606 38.912144, -93.941811 38.911776, -93.946017 38.911407, -93.950222 38.911039, -93.954427 38.910670, -93.958633 38.910301, -93.962838 38.909932, -93.967043 38.909562, -93.971248 38.909193, -93.975453 38.908823, -93.979658 38.908454, -93.983863 38.908084, -93.988068 38.907714, -93.992273 38.907343, -93.996478 38.906973, -94.000683 38.906603, -94.004887 38.906232, -94.009092 38.905861, -94.013297 38.905490, -94.017501 38.905119, -94.021706 38.904748, -94.025911 38.904376, -94.030115 38.904005, -94.034319 38.903633, -94.038524 38.903261, -94.042728 38.902889, -94.046933 38.902517, -94.051137 38.902145, -94.055341 38.901772, -94.059545 38.901400, -94.063749 38.901027, -94.067953 38.900654, -94.072158 38.900281, -94.076362 38.899908, -94.080566 38.899534, -94.084769 38.899161, -94.088973 38.898787, -94.093177 38.898413, -94.097381 38.898039, -94.101585 38.897665, -94.105788 38.897291, -94.109992 38.896916, -94.114196 38.896542, -94.118399 38.896167, -94.122603 38.895792, -94.126806 38.895417, -94.131010 38.895042, -94.135213 38.894667, -94.139416 38.894291, -94.143620 38.893915, -94.147823 38.893540, -94.152026 38.893164, -94.156229 38.892788, -94.160432 38.892411, -94.164636 38.892035, -94.168839 38.891658, -94.173042 38.891282, -94.177245 38.890905, -94.181447 38.890528, -94.185650 38.890151, -94.189853 38.889773, -94.194056 38.889396, -94.198259 38.889018, -94.202461 38.888641, -94.206664 38.888263, -94.210867 38.887885, -94.215069 38.887507, -94.219272 38.887128, -94.223474 38.886750, -94.227676 38.886371, -94.231879 38.885992, -94.236081 38.885613, -94.240283 38.885234, -94.244486 38.884855, -94.248688 38.884476, -94.252890 38.884096, -94.257092 38.883716, -94.261294 38.883336, -94.265496 38.882956, -94.269698 38.882576, -94.273900 38.882196, -94.278102 38.881816, -94.282304 38.881435, -94.286505 38.881054, -94.290707 38.880673, -94.294909 38.880292, -94.299111 38.879911, -94.303312 38.879530, -94.307514 38.879148, -94.311715 38.878766, -94.315917 38.878385, -94.320118 38.878003, -94.324319 38.877621, -94.328521 38.877238, -94.332722 38.876856, -94.336923 38.876473, -94.341124 38.876091, -94.345326 38.875708, -94.349527 38.875325, -94.353728 38.874942, -94.357929 38.874558, -94.362130 38.874175, -94.366331 38.873791, -94.370532 38.873407, -94.374732 38.873023, -94.378933 38.872639, -94.383134 38.872255, -94.387335 38.871871, -94.391535 38.871486, -94.395736 38.871102, -94.399936 38.870717, -94.404137 38.870332, -94.408337 38.869947, -94.412538 38.869561, -94.416738 38.869176, -94.420939 38.868790, -94.425139 38.868405, -94.429339 38.868019, -94.433539 38.867633, -94.437739 38.867247, -94.441940 38.866860, -94.446140 38.866474, -94.450340 38.866087, -94.454540 38.865700, -94.458740 38.865313, -94.462939 38.864926, -94.467139 38.864539, -94.471339 38.864152, -94.475539 38.863764, -94.479738 38.863377, -94.483938 38.862989, -94.488138 38.862601, -94.492337 38.862213, -94.496537 38.861824, -94.500736 38.861436, -94.504936 38.861047, -94.509135 38.860659, -94.513334 38.860270, -94.517534 38.859881, -94.521733 38.859492, -94.525932 38.859102, -94.530131 38.858713, -94.534330 38.858323, -94.538529 38.857933, -94.542728 38.857543, -94.546927 38.857153, -94.551126 38.856763, -94.555325 38.856373, -94.559524 38.855982, -94.563723 38.855591, -94.567921 38.855201, -94.572120 38.854810, -94.576319 38.854418, -94.580517 38.854027, -94.584716 38.853636, -94.588914 38.853244, -94.593113 38.852852, -94.597311 38.852461, -94.601509 38.852068, -94.605708 38.851676, -94.609906 38.851284, -94.614104 38.850891, -94.618302 38.850499, -94.622501 38.850106, -94.626699 38.849713, -94.630897 38.849320, -94.635095 38.848927, -94.639293 38.848533, -94.643491 38.848140, -94.647688 38.847746, -94.651886 38.847352, -94.656084 38.846958, -94.660282 38.846564, -94.664479 38.846170, -94.668677 38.845775, -94.672874 38.845381, -94.677072 38.844986, -94.681269 38.844591, -94.685467 38.844196, -94.689664 38.843801, -94.693862 38.843406, -94.698059 38.843010, -94.702256 38.842614, -94.706453 38.842219, -94.710650 38.841823, -94.714848 38.841427, -94.719045 38.841030, -94.723242 38.840634, -94.727439 38.840237, -94.731636 38.839841, -94.735832 38.839444, -94.740029 38.839047, -94.744226 38.838650, -94.748423 38.838252, -94.752619 38.837855, -94.756816 38.837457, -94.761013 38.837060, -94.765209 38.836662, -94.769406 38.836264, -94.773602 38.835865, -94.777798 38.835467, -94.781995 38.835069, -94.786191 38.834670, -94.790387 38.834271, -94.794584 38.833872, -94.798780 38.833473, -94.802976 38.833074, -94.807172 38.832674, -94.811368 38.832275, -94.815564 38.831875, -94.819760 38.831475, -94.823956 38.831075, -94.828152 38.830675, -94.832347 38.830275, -94.836543 38.829874, -94.840739 38.829474, -94.844934 38.829073, -94.849130 38.828672, -94.853326 38.828271, -94.857521 38.827870, -94.861717 38.827469, -94.865912 38.827067, -94.870107 38.826665, -94.874303 38.826264, -94.878498 38.825862, -94.882693 38.825460, -94.886888 38.825057, -94.891083 38.824655, -94.895279 38.824252, -94.899474 38.823850, -94.903669 38.823447, -94.907863 38.823044, -94.912058 38.822641, -94.916253 38.822237, -94.920448 38.821834, -94.924643 38.821430, -94.928837 38.821027, -94.933032 38.820623, -94.937227 38.820219, -94.941421 38.819814, -94.945616 38.819410, -94.949810 38.819006, -94.954005 38.818601, -94.958199 38.818196, -94.962393 38.817791, -94.966588 38.817386, -94.970782 38.816981, -94.974976 38.816575, -94.979170 38.816170, -94.983364 38.815764, -94.987558 38.815358, -94.991752 38.814952, -94.995946 38.814546, -95.000140 38.814140, -95.004334 38.813733, -95.008528 38.813327, -95.012721 38.812920, -95.016915 38.812513, -95.021109 38.812106, -95.025302 38.811699, -95.029496 38.811292, -95.033689 38.810884, -95.037883 38.810476, -95.042076 38.810069, -95.046270 38.809661, -95.050463 38.809253, -95.054656 38.808844, -95.058849 38.808436, -95.063042 38.808027, -95.067236 38.807619, -95.071429 38.807210, -95.075622 38.806801, -95.079815 38.806392, -95.084008 38.805982, -95.088200 38.805573, -95.092393 38.805163, -95.096586 38.804754, -95.100779 38.804344, -95.104972 38.803934, -95.109164 38.803523, -95.113357 38.803113, -95.117549 38.802703, -95.121742 38.802292, -95.125934 38.801881, -95.130127 38.801470, -95.134319 38.801059, -95.138511 38.800648, -95.142703 38.800237, -95.146896 38.799825, -95.151088 38.799413, -95.155280 38.799001, -95.159472 38.798589, -95.163664 38.798177, -95.167856 38.797765, -95.172048 38.797353, -95.176240 38.796940, -95.180432 38.796527, -95.184623 38.796114, -95.188815 38.795701, -95.193007 38.795288, -95.197198 38.794875, -95.201390 38.794461, -95.205581 38.794048, -95.209773 38.793634, -95.213964 38.793220, -95.218156 38.792806, -95.222347 38.792392, -95.226538 38.791977, -95.230730 38.791563, -95.234921 38.791148, -95.239112 38.790733, -95.243303 38.790318, -95.247494 38.789903, -95.251685 38.789488, -95.255876 38.789072, -95.260067 38.788657, -95.264258 38.788241, -95.268448 38.787825, -95.272639 38.787409, -95.276830 38.786993, -95.281020 38.786576, -95.285211 38.786160, -95.289402 38.785743, -95.293592 38.785327, -95.297783 38.784910, -95.301973 38.784493, -95.306163 38.784075, -95.310354 38.783658, -95.314544 38.783240, -95.318734 38.782823, -95.322924 38.782405, -95.327114 38.781987, -95.331304 38.781569, -95.335494 38.781150, -95.339684 38.780732, -95.343874 38.780313, -95.348064 38.779895, -95.352254 38.779476, -95.356444 38.779057, -95.360633 38.778638, -95.364823 38.778218, -95.369013 38.777799, -95.373202 38.777379, -95.377392 38.776959, -95.381581 38.776539, -95.385771 38.776119, -95.389960 38.775699, -95.394149 38.775279, -95.398339 38.774858, -95.402528 38.774438, -95.406717 38.774017, -95.410906 38.773596, -95.415095 38.773175, -95.419284 38.772753, -95.423473 38.772332, -95.427662 38.771910, -95.431851 38.771489, -95.436040 38.771067, -95.440228 38.770645, -95.444417 38.770223, -95.448606 38.769800, -95.452794 38.769378, -95.456983 38.768955, -95.461172 38.768532, -95.465360 38.768110, -95.469548 38.767686, -95.473737 38.767263, -95.477925 38.766840, -95.482113 38.766416, -95.486302 38.765993, -95.490490 38.765569, -95.494678 38.765145, -95.498866 38.764721, -95.503054 38.764297, -95.507242 38.763872, -95.511430 38.763448, -95.515618 38.763023, -95.519806 38.762598, -95.523993 38.762173, -95.528181 38.761748, -95.532369 38.761323, -95.536557 38.760897, -95.540744 38.760471, -95.544932 38.760046, -95.549119 38.759620, -95.553307 38.759194, -95.557494 38.758768, -95.561681 38.758341, -95.565869 38.757915, -95.570056 38.757488, -95.574243 38.757061, -95.578430 38.756634, -95.582617 38.756207, -95.586804 38.755780, -95.590991 38.755352, -95.595178 38.754925, -95.599365 38.754497, -95.603552 38.754069, -95.607739 38.753641, -95.611925 38.753213, -95.616112 38.752785, -95.620299 38.752357, -95.624485 38.751928, -95.628672 38.751499, -95.632858 38.751070, -95.637045 38.750641, -95.641231 38.750212, -95.645417 38.749783, -95.649604 38.749353, -95.653790 38.748924, -95.657976 38.748494, -95.662162 38.748064, -95.666348 38.747634, -95.670534 38.747204, -95.674720 38.746773, -95.678906 38.746343, -95.683092 38.745912, -95.687278 38.745481, -95.691463 38.745050, -95.695649 38.744619, -95.699835 38.744188, -95.704020 38.743756, -95.708206 38.743325, -95.712392 38.742893, -95.716577 38.742461, -95.720762 38.742029, -95.724948 38.741597, -95.729133 38.741165, -95.733318 38.740732, -95.737504 38.740299, -95.741689 38.739867, -95.745874 38.739434, -95.750059 38.739001, -95.754244 38.738567, -95.758429 38.738134, -95.762614 38.737701, -95.766799 38.737267, -95.770983 38.736833, -95.775168 38.736399, -95.779353 38.735965, -95.783538 38.735531, -95.787722 38.735096, -95.791907 38.734662, -95.796091 38.734227, -95.800276 38.733792, -95.804460 38.733357, -95.808644 38.732922, -95.812829 38.732487, -95.817013 38.732051, -95.821197 38.731616, -95.825381 38.731180, -95.829565 38.730744, -95.833749 38.730308, -95.837933 38.729872, -95.842117 38.729435, -95.846301 38.728999, -95.850485 38.728562, -95.854669 38.728125, -95.858853 38.727688, -95.863036 38.727251, -95.867220 38.726814, -95.871404 38.726377, -95.875587 38.725939, -95.879771 38.725501, -95.883954 38.725064, -95.888137 38.724626, -95.892321 38.724187, -95.896504 38.723749, -95.900687 38.723311, -95.904870 38.722872, -95.909053 38.722433, -95.913236 38.721994, -95.917420 38.721555, -95.921602 38.721116, -95.925785 38.720677, -95.929968 38.720237, -95.934151 38.719798, -95.938334 38.719358, -95.942517 38.718918, -95.946699 38.718478, -95.950882 38.718038, -95.955064 38.717597, -95.959247 38.717157, -95.963429 38.716716, -95.967612 38.716275, -95.971794 38.715834, -95.975976 38.715393, -95.980159 38.714952, -95.984341 38.714510, -95.988523 38.714069, -95.992705 38.713627, -95.996887 38.713185, -96.001069 38.712743, -96.005251 38.712301, -96.009433 38.711859, -96.013615 38.711416, -96.017796 38.710974, -96.021978 38.710531, -96.026160 38.710088, -96.030341 38.709645, -96.034523 38.709202, -96.038705 38.708758, -96.042886 38.708315, -96.047067 38.707871, -96.051249 38.707427, -96.055430 38.706984, -96.059611 38.706539, -96.063793 38.706095, -96.067974 38.705651, -96.072155 38.705206, -96.076336 38.704762, -96.080517 38.704317, -96.084698 38.703872, -96.088879 38.703427, -96.093060 38.702981, -96.097240 38.702536, -96.101421 38.702090, -96.105602 38.701644, -96.109782 38.701199, -96.113963 38.700753, -96.118144 38.700306, -96.122324 38.699860, -96.126504 38.699414, -96.130685 38.698967, -96.134865 38.698520, -96.139045 38.698073, -96.143226 38.697626, -96.147406 38.697179, -96.151586 38.696731, -96.155766 38.696284, -96.159946 38.695836, -96.164126 38.695388, -96.168306 38.694940, -96.172486 38.694492, -96.176666 38.694044, -96.180845 38.693596, -96.185025 38.693147, -96.189205 38.692698, -96.193384 38.692249, -96.197564 38.691800, -96.201743 38.691351, -96.205923 38.690902, -96.210102 38.690453, -96.214281 38.690003, -96.218461 38.689553, -96.222640 38.689103, -96.226819 38.688653, -96.230998 38.688203, -96.235177 38.687753, -96.239356 38.687302, -96.243535 38.686851, -96.247714 38.686401, -96.251893 38.685950, -96.256072 38.685499, -96.260250 38.685047, -96.264429 38.684596, -96.268608 38.684144, -96.272786 38.683693, -96.276965 38.683241, -96.281143 38.682789, -96.285322 38.682337, -96.289500 38.681885, -96.293679 38.681432, -96.297857 38.680980, -96.302035 38.680527, -96.306213 38.680074, -96.310391 38.679621, -96.314569 38.679168, -96.318747 38.678714, -96.322925 38.678261, -96.327103 38.677807, -96.331281 38.677353, -96.335459 38.676900, -96.339637 38.676445, -96.343814 38.675991, -96.347992 38.675537, -96.352170 38.675082, -96.356347 38.674628, -96.360525 38.674173, -96.364702 38.673718, -96.368879 38.673263, -96.373057 38.672808, -96.377234 38.672352, -96.381411 38.671897, -96.385588 38.671441, -96.389765 38.670985, -96.393942 38.670529, -96.398119 38.670073, -96.402296 38.669617, -96.406473 38.669160, -96.410650 38.668704, -96.414827 38.668247, -96.419004 38.667790, -96.423180 38.667333, -96.427357 38.666876, -96.431534 38.666418, -96.435710 38.665961, -96.439887 38.665503, -96.444063 38.665045, -96.448239 38.664587, -96.452416 38.664129, -96.456592 38.663671, -96.460768 38.663213, -96.464944 38.662754, -96.469120 38.662296, -96.473296 38.661837, -96.477472 38.661378, -96.481648 38.660919, -96.485824 38.660459, -96.490000 38.660000, -96.494126 38.659327, -96.498252 38.658654, -96.502377 38.657981, -96.506503 38.657307, -96.510628 38.656634, -96.514754 38.655960, -96.518879 38.655286, -96.523004 38.654612, -96.527130 38.653938, -96.531255 38.653263, -96.535380 38.652589, -96.539505 38.651914, -96.543630 38.651240, -96.547755 38.650565, -96.551879 38.649890, -96.556004 38.649215, -96.560129 38.648539, -96.564253 38.647864, -96.568378 38.647188, -96.572502 38.646512, -96.576626 38.645837, -96.580750 38.645160, -96.584875 38.644484, -96.588999 38.643808, -96.593123 38.643131, -96.597246 38.642455, -96.601370 38.641778, -96.605494 38.641101, -96.609618 38.640424, -96.613741 38.639747, -96.617865 38.639070, -96.621988 38.638392, -96.626112 38.637714, -96.630235 38.637037, -96.634358 38.636359, -96.638481 38.635681, -96.642604 38.635002, -96.646727 38.634324, -96.650850 38.633646, -96.654973 38.632967, -96.659095 38.632288, -96.663218 38.631609, -96.667341 38.630930, -96.671463 38.630251, -96.675586 38.629571, -96.679708 38.628892, -96.683830 38.628212, -96.687952 38.627532, -96.692074 38.626853, -96.696196 38.626172, -96.700318 38.625492, -96.704440 38.624812, -96.708562 38.624131, -96.712684 38.623451, -96.716805 38.622770, -96.720927 38.622089, -96.725048 38.621408, -96.729170 38.620726, -96.733291 38.620045, -96.737412 38.619364, -96.741533 38.618682, -96.745655 38.618000, -96.749776 38.617318, -96.753896 38.616636, -96.758017 38.615954, -96.762138 38.615271, -96.766259 38.614589, -96.770379 38.613906, -96.774500 38.613223, -96.778620 38.612540, -96.782741 38.611857, -96.786861 38.611174, -96.790981 38.610490, -96.795101 38.609807, -96.799221 38.609123, -96.803341 38.608439, -96.807461 38.607755, -96.811581 38.607071, -96.815701 38.606387, -96.819821 38.605702, -96.823940 38.605018, -96.828060 38.604333, -96.832179 38.603648, -96.836298 38.602963, -96.840418 38.602278, -96.844537 38.601593, -96.848656 38.600907, -96.852775 38.600222, -96.856894 38.599536, -96.861013 38.598850, -96.865132 38.598164, -96.869250 38.597478, -96.873369 38.596792, -96.877488 38.596105, -96.881606 38.595418, -96.885725 38.594732, -96.889843 38.594045, -96.893961 38.593358, -96.898079 38.592671, -96.902197 38.591983, -96.906315 38.591296, -96.910433 38.590608, -96.914551 38.589920, -96.918669 38.589233, -96.922787 38.588545, -96.926904 38.587856, -96.931022 38.587168, -96.935139 38.586480, -96.939257 38.585791, -96.943374 38.585102, -96.947491 38.584413, -96.951608 38.583724, -96.955725 38.583035, -96.959842 38.582346, -96.963959 38.581656, -96.968076 38.580967, -96.972193 38.580277, -96.976310 38.579587, -96.980426 38.578897, -96.984543 38.578207, -96.988659 38.577516, -96.992775 38.576826, -96.996892 38.576135, -97.001008 38.575444, -97.005124 38.574753, -97.009240 38.574062, -97.013356 38.573371, -97.017472 38.572680, -97.021588 38.571988, -97.025703 38.571297, -97.029819 38.570605, -97.033935 38.569913, -97.038050 38.569221, -97.042166 38.568529, -97.046281 38.567836, -97.050396 38.567144, -97.054511 38.566451, -97.058626 38.565758, -97.062741 38.565065, -97.066856 38.564372, -97.070971 38.563679, -97.075086 38.562986, -97.079201 38.562292, -97.083315 38.561598, -97.087430 38.560905, -97.091544 38.560211, -97.095659 38.559517, -97.099773 38.558822, -97.103887 38.558128, -97.108001 38.557433, -97.112115 38.556739, -97.116229 38.556044, -97.120343 38.555349, -97.124457 38.554654, -97.128571 38.553959, -97.132684 38.553263, -97.136798 38.552568, -97.140911 38.551872, -97.145025 38.551176, -97.149138 38.550480, -97.153251 38.549784, -97.157365 38.549088, -97.161478 38.548391, -97.165591 38.547695, -97.169704 38.546998, -97.173817 38.546301, -97.177929 38.545604, -97.182042 38.544907, -97.186155 38.544210, -97.190267 38.543513, -97.194380 38.542815, -97.198492 38.542117, -97.202604 38.541420, -97.206717 38.540722, -97.210829 38.540023, -97.214941 38.539325, -97.219053 38.538627, -97.223165 38.537928, -97.227276 38.537230, -97.231388 38.536531, -97.235500 38.535832, -97.239611 38.535133, -97.243723 38.534433, -97.247834 38.533734, -97.251946 38.533034, -97.256057 38.532335, -97.260168 38.531635, -97.264279 38.530935, -97.268390 38.530235, -97.272501 38.529534, -97.276612 38.528834, -97.280723 38.528133, -97.284834 38.527433, -97.288944 38.526732, -97.293055 38.526031, -97.297165 38.525330, -97.301276 38.524628, -97.305386 38.523927, -97.309496 38.523225, -97.313606 38.522524, -97.317716 38.521822, -97.321826 38.521120, -97.325936 38.520418, -97.330046 38.519715, -97.334156 38.519013, -97.338265 38.518310, -97.342375 38.517608, -97.346484 38.516905, -97.350594 38.516202, -97.354703 38.515499, -97.358813 38.514795, -97.362922 38.514092, -97.367031 38.513388, -97.371140 38.512684, -97.375249 38.511981, -97.379358 38.511277, -97.383466 38.510572, -97.387575 38.509868, -97.391684 38.509164, -97.395792 38.508459, -97.399901 38.507754, -97.404009 38.507049, -97.408117 38.506344, -97.412226 38.505639, -97.416334 38.504934, -97.420442 38.504228, -97.424550 38.503523, -97.428658 38.502817, -97.432765 38.502111, -97.436873 38.501405, -97.440981 38.500699, -97.445088 38.499993, -97.449196 38.499286, -97.453303 38.498580, -97.457411 38.497873, -97.461518 38.497166, -97.465625 38.496459, -97.469732 38.495752, -97.473839 38.495045, -97.477946 38.494337, -97.482053 38.493629, -97.486160 38.492922, -97.490266 38.492214, -97.494373 38.491506, -97.498479 38.490798, -97.502586 38.490089, -97.506692 38.489381, -97.510799 38.488672, -97.514905 38.487963, -97.519011 38.487255, -97.523117 38.486546, -97.527223 38.485836, -97.531329 38.485127, -97.535435 38.484418, -97.539540 38.483708, -97.543646 38.482998, -97.547751 38.482288, -97.551857 38.481578, -97.555962 38.480868, -97.560068 38.480158, -97.564173 38.479447, -97.568278 38.478737, -97.572383 38.478026, -97.576488 38.477315, -97.580593 38.476604, -97.584698 38.475893, -97.588803 38.475181, -97.592907 38.474470, -97.597012 38.473758, -97.601116 38.473047, -97.605221 38.472335, -97.609325 38.471623, -97.613429 38.470910, -97.617533 38.470198, -97.621638 38.469486, -97.625742 38.468773, -97.629846 38.468060, -97.633949 38.467347, -97.638053 38.466634, -97.642157 38.465921, -97.646260 38.465208, -97.650364 38.464494, -97.654467 38.463781, -97.658571 38.463067, -97.662674 38.462353, -97.666777 38.461639, -97.670880 38.460925, -97.674983 38.460210, -97.679086 38.459496, -97.683189 38.458781, -97.687292 38.458067, -97.691395 38.457352, -97.695497 38.456637, -97.699600 38.455921, -97.703702 38.455206, -97.707805 38.454491, -97.711907 38.453775, -97.716009 38.453059, -97.720112 38.452343, -97.724214 38.451627, -97.728316 38.450911, -97.732417 38.450195, -97.736519 38.449478, -97.740621 38.448762, -97.744723 38.448045, -97.748824 38.447328, -97.752926 38.446611, -97.757027 38.445894, -97.761128 38.445176, -97.765230 38.444459, -97.769331 38.443741, -97.773432 38.443023, -97.777533 38.442306, -97.781634 38.441587, -97.785735 38.440869, -97.789836 38.440151, -97.793936 38.439432, -97.798037 38.438714, -97.802137 38.437995, -97.806238 38.437276, -97.810338 38.436557, -97.814438 38.435838, -97.818539 38.435119, -97.822639 38.434399, -97.826739 38.433679, -97.830839 38.432960, -97.834938 38.432240, -97.839038 38.431520, -97.843138 38.430799, -97.847238 38.430079, -97.851337 38.429359, -97.855437 38.428638, -97.859536 38.427917, -97.863635 38.427196, -97.867734 38.426475, -97.871834 38.425754, -97.875933 38.425033, -97.880032 38.424311, -97.884130 38.423590, -97.888229 38.422868, -97.892328 38.422146, -97.896427 38.421424, -97.900525 38.420702, -97.904624 38.419979, -97.908722 38.419257, -97.912820 38.418534, -97.916919 38.417811, -97.921017 38.417089, -97.925115 38.416366, -97.929213 38.415642, -97.933311 38.414919, -97.937408 38.414196, -97.941506 38.413472, -97.945604 38.412748, -97.949701 38.412024, -97.953799 38.411300, -97.957896 38.410576, -97.961994 38.409852, -97.966091 38.409127, -97.970188 38.408403, -97.974285 38.407678, -97.978382 38.406953, -97.982479 38.406228, -97.986576 38.405503, -97.990673 38.404777, -97.994769 38.404052, -97.998866 38.403326, -98.002962 38.402600, -98.007059 38.401874, -98.011155 38.401148, -98.015251 38.400422, -98.019347 38.399696, -98.023444 38.398969, -98.027540 38.398243, -98.031635 38.397516, -98.035731 38.396789, -98.039827 38.396062, -98.043923 38.395335, -98.048018 38.394608, -98.052114 38.393880, -98.056209 38.393152, -98.060305 38.392425, -98.064400 38.391697, -98.068495 38.390969, -98.072590 38.390241, -98.076685 38.389512, -98.080780 38.388784, -98.084875 38.388055, -98.088970 38.387326, -98.093064 38.386598, -98.097159 38.385868, -98.101254 38.385139, -98.105348 38.384410, -98.109442 38.383680, -98.113537 38.382951, -98.117631 38.382221, -98.121725 38.381491, -98.125819 38.380761, -98.129913 38.380031, -98.134007 38.379301, -98.138100 38.378570, -98.142194 38.377840, -98.146288 38.377109, -98.150381 38.376378, -98.154475 38.375647, -98.158568 38.374916, -98.162661 38.374184, -98.166755 38.373453, -98.170848 38.372721, -98.174941 38.371990, -98.179034 38.371258, -98.183127 38.370526, -98.187219 38.369794, -98.191312 38.369061, -98.195405 38.368329, -98.199497 38.367596, -98.203590 38.366863, -98.207682 38.366131, -98.211774 38.365397, -98.215867 38.364664, -98.219959 38.363931, -98.224051 38.363198, -98.228143 38.362464, -98.232235 38.361730, -98.236326 38.360996, -98.240418 38.360262, -98.244510 38.359528, -98.248601 38.358794, -98.252693 38.358059, -98.256784 38.357325, -98.260875 38.356590, -98.264967 38.355855, -98.269058 38.355120, -98.273149 38.354385, -98.277240 38.353650, -98.281331 38.352914, -98.285421 38.352179, -98.289512 38.351443, -98.293603 38.350707, -98.297693 38.349971, -98.301784 38.349235, -98.305874 38.348499, -98.309964 38.347762, -98.314055 38.347026, -98.318145 38.346289, -98.322235 38.345552, -98.326325 38.344815, -98.330415 38.344078, -98.334504 38.343341, -98.338594 38.342603, -98.342684 38.341866, -98.346773 38.341128, -98.350863 38.340390, -98.354952 38.339652, -98.359041 38.338914, -98.363131 38.338176, -98.367220 38.337437, -98.371309 38.336699, -98.375398 38.335960, -98.379487 38.335221, -98.383575 38.334482, -98.387664 38.333743, -98.391753 38.333004, -98.395841 38.332264, -98.399930 38.331525, -98.404018 38.330785, -98.408106 38.330045, -98.412195 38.329305, -98.416283 38.328565, -98.420371 38.327825, -98.424459 38.327084, -98.428547 38.326344, -98.432634 38.325603, -98.436722 38.324862, -98.440810 38.324121, -98.444897 38.323380, -98.448985 38.322639, -98.453072 38.321897, -98.457159 38.321156, -98.461247 38.320414, -98.465334 38.319672, -98.469421 38.318930, -98.473508 38.318188, -98.477595 38.317446, -98.481681 38.316704, -98.485768 38.315961, -98.489855 38.315218, -98.493941 38.314475, -98.498028 38.313732, -98.502114 38.312989, -98.506200 38.312246, -98.510287 38.311503, -98.514373 38.310759, -98.518459 38.310016, -98.522545 38.309272, -98.526631 38.308528, -98.530716 38.307784, -98.534802 38.307039, -98.538888 38.306295, -98.542973 38.305550, -98.547059 38.304806, -98.551144 38.304061, -98.555229 38.303316, -98.559314 38.302571, -98.563400 38.301826, -98.567485 38.301080, -98.571570 38.300335, -98.575654 38.299589, -98.579739 38.298843, -98.583824 38.298097, -98.587909 38.297351, -98.591993 38.296605, -98.596077 38.295859, -98.600162 38.295112, -98.604246 38.294366, -98.608330 38.293619, -98.612414 38.292872, -98.616498 38.292125, -98.620582 38.291378, -98.624666 38.290630, -98.628750 38.289883, -98.632834 38.289135, -98.636917 38.288387, -98.641001 38.287639, -98.645084 38.286891, -98.649168 38.286143, -98.653251 38.285395, -98.657334 38.284646, -98.661417 38.283898, -98.665500 38.283149, -98.669583 38.282400, -98.673666 38.281651, -98.677749 38.280902, -98.681831 38.280152, -98.685914 38.279403, -98.689996 38.278653, -98.694079 38.277903, -98.698161 38.277154, -98.702243 38.276403, -98.706326 38.275653, -98.710408 38.274903, -98.714490 38.274152, -98.718572 38.273402, -98.722653 38.272651, -98.726735 38.271900, -98.730817 38.271149, -98.734898 38.270398, -98.738980 38.269647, -98.743061 38.268895, -98.747143 38.268144, -98.751224 38.267392, -98.755305 38.266640, -98.759386 38.265888, -98.763467 38.265136, -98.767548 38.264383, -98.771629 38.263631, -98.775710 38.262878, -98.779790 38.262126, -98.783871 38.261373, -98.787951 38.260620, -98.792032 38.259867, -98.796112 38.259113, -98.800192 38.258360, -98.804272 38.257606, -98.808352 38.256853, -98.812432 38.256099, -98.816512 38.255345, -98.820592 38.254591, -98.824672 38.253836, -98.828751 38.253082, -98.832831 38.252327, -98.836910 38.251573, -98.840990 38.250818, -98.845069 38.250063, -98.849148 38.249308, -98.853227 38.248552, -98.857306 38.247797, -98.861385 38.247041, -98.865464 38.246286, -98.869543 38.245530, -98.873622 38.244774, -98.877700 38.244018, -98.881779 38.243261, -98.885857 38.242505, -98.889936 38.241748, -98.894014 38.240992, -98.898092 38.240235, -98.902170 38.239478, -98.906248 38.238721, -98.910326 38.237964, -98.914404 38.237206, -98.918482 38.236449, -98.922560 38.235691, -98.926637 38.234933, -98.930715 38.234175, -98.934792 38.233417, -98.938869 38.232659, -98.942947 38.231900, -98.947024 38.231142, -98.951101 38.230383, -98.955178 38.229624, -98.959255 38.228866, -98.963332 38.228106, -98.967408 38.227347, -98.971485 38.226588, -98.975562 38.225828, -98.979638 38.225069, -98.983715 38.224309, -98.987791 38.223549, -98.991867 38.222789, -98.995943 38.222029, -99.000019 38.221268, -99.004095 38.220508, -99.008171 38.219747, -99.012247 38.218986, -99.016323 38.218226, -99.020398 38.217464, -99.024474 38.216703, -99.028549 38.215942, -99.032625 38.215180, -99.036700 38.214419, -99.040775 38.213657, -99.044850 38.212895, -99.048925 38.212133, -99.053000 38.211371, -99.057075 38.210609, -99.061150 38.209846, -99.065225 38.209083, -99.069299 38.208321, -99.073374 38.207558, -99.077448 38.206795, -99.081523 38.206032, -99.085597 38.205268, -99.089671 38.204505, -99.093745 38.203741, -99.097819 38.202978, -99.101893 38.202214, -99.105967 38.201450, -99.110041 38.200685, -99.114115 38.199921, -99.118188 38.199157, -99.122262 38.198392, -99.126335 38.197627, -99.130408 38.196863, -99.134482 38.196098, -99.138555 38.195332, -99.142628 38.194567, -99.146701 38.193802, -99.150774 38.193036, -99.154847 38.192270, -99.158919 38.191505, -99.162992 38.190739, -99.167064 38.189972, -99.171137 38.189206, -99.175209 38.188440, -99.179282 38.187673, -99.183354 38.186907, -99.187426 38.186140, -99.191498 38.185373, -99.195570 38.184606, -99.199642 38.183838, -99.203714 38.183071, -99.207785 38.182303, -99.211857 38.181536, -99.215929 38.180768, -99.220000 38.180000, -99.224187 38.179936, -99.228375 38.179871, -99.232562 38.179806, -99.236749 38.179742, -99.240937 38.179677, -99.245124 38.179611, -99.249311 38.179546, -99.253498 38.179481, -99.257686 38.179415, -99.261873 38.179349, -99.266060 38.179283, -99.270247 38.179217, -99.274435 38.179151, -99.278622 38.179085, -99.282809 38.179018, -99.286996 38.178952, -99.291183 38.178885, -99.295371 38.178818, -99.299558 38.178751, -99.303745 38.178684, -99.307932 38.178616, -99.312119 38.178549, -99.316306 38.178481, -99.320494 38.178413, -99.324681 38.178346, -99.328868 38.178277, -99.333055 38.178209, -99.337242 38.178141, -99.341429 38.178072, -99.345616 38.178003, -99.349803 38.177935, -99.353990 38.177866, -99.358178 38.177796, -99.362365 38.177727, -99.366552 38.177658, -99.370739 38.177588, -99.374926 38.177518, -99.379113 38.177448, -99.383300 38.177378, -99.387487 38.177308, -99.391674 38.177238, -99.395861 38.177167, -99.400048 38.177097, -99.404235 38.177026, -99.408422 38.176955, -99.412609 38.176884, -99.416796 38.176813, -99.420983 38.176741, -99.425170 38.176670, -99.429357 38.176598, -99.433543 38.176526, -99.437730 38.176454, -99.441917 38.176382, -99.446104 38.176310, -99.450291 38.176237, -99.454478 38.176165, -99.458665 38.176092, -99.462852 38.176019, -99.467039 38.175946, -99.471225 38.175873, -99.475412 38.175800, -99.479599 38.175726, -99.483786 38.175653, -99.487973 38.175579, -99.492160 38.175505, -99.496346 38.175431, -99.500533 38.175357, -99.504720 38.175282, -99.508907 38.175208, -99.513094 38.175133, -99.517280 38.175058, -99.521467 38.174984, -99.525654 38.174908, -99.529841 38.174833, -99.534027 38.174758, -99.538214 38.174682, -99.542401 38.174607, -99.546587 38.174531, -99.550774 38.174455, -99.554961 38.174379, -99.559147 38.174302, -99.563334 38.174226, -99.567521 38.174149, -99.571707 38.174073, -99.575894 38.173996, -99.580081 38.173919, -99.584267 38.173841, -99.588454 38.173764, -99.592640 38.173687, -99.596827 38.173609, -99.601014 38.173531, -99.605200 38.173453, -99.609387 38.173375, -99.613573 38.173297, -99.617760 38.173219, -99.621946 38.173140, -99.626133 38.173061, -99.630320 38.172983, -99.634506 38.172904, -99.638693 38.172825, -99.642879 38.172745, -99.647065 38.172666, -99.651252 38.172586, -99.655438 38.172507, -99.659625 38.172427, -99.663811 38.172347, -99.667998 38.172267, -99.672184 38.172186, -99.676371 38.172106, -99.680557 38.172025, -99.684743 38.171945, -99.688930 38.171864, -99.693116 38.171783, -99.697303 38.171701, -99.701489 38.171620, -99.705675 38.171539, -99.709862 38.171457, -99.714048 38.171375, -99.718234 38.171293, -99.722421 38.171211, -99.726607 38.171129, -99.730793 38.171046, -99.734980 38.170964, -99.739166 38.170881, -99.743352 38.170798, -99.747538 38.170715, -99.751725 38.170632, -99.755911 38.170549, -99.760097 38.170466, -99.764283 38.170382, -99.768470 38.170298, -99.772656 38.170215, -99.776842 38.170130, -99.781028 38.170046, -99.785214 38.169962, -99.789400 38.169878, -99.793587 38.169793, -99.797773 38.169708, -99.801959 38.169623, -99.806145 38.169538, -99.810331 38.169453, -99.814517 38.169368, -99.818703 38.169282, -99.822889 38.169196, -99.827075 38.169111, -99.831262 38.169025, -99.835448 38.168939, -99.839634 38.168852, -99.843820 38.168766, -99.848006 38.168679, -99.852192 38.168593, -99.856378 38.168506, -99.860564 38.168419, -99.864750 38.168332, -99.868936 38.168245, -99.873122 38.168157, -99.877308 38.168070, -99.881494 38.167982, -99.885680 38.167894, -99.889865 38.167806, -99.894051 38.167718, -99.898237 38.167629, -99.902423 38.167541, -99.906609 38.167452, -99.910795 38.167363, -99.914981 38.167275, -99.919167 38.167186, -99.923353 38.167096, -99.927538 38.167007, -99.931724 38.166917, -99.935910 38.166828, -99.940096 38.166738, -99.944282 38.166648, -99.948467 38.166558, -99.952653 38.166468, -99.956839 38.166377, -99.961025 38.166287, -99.965210 38.166196, -99.969396 38.166105, -99.973582 38.166014, -99.977768 38.165923, -99.981953 38.165832, -99.986139 38.165740, -99.990325 38.165649, -99.994510 38.165557, -99.998696 38.165465, -100.002882 38.165373, -100.007067 38.165281, -100.011253 38.165188, -100.015438 38.165096, -100.019624 38.165003, -100.023810 38.164910, -100.027995 38.164818, -100.032181 38.164724, -100.036366 38.164631, -100.040552 38.164538, -100.044738 38.164444, -100.048923 38.164351, -100.053109 38.164257, -100.057294 38.164163, -100.061480 38.164069, -100.065665 38.163974, -100.069851 38.163880, -100.074036 38.163786, -100.078221 38.163691, -100.082407 38.163596, -100.086592 38.163501, -100.090778 38.163406, -100.094963 38.163310, -100.099149 38.163215, -100.103334 38.163119, -100.107519 38.163024, -100.111705 38.162928, -100.115890 38.162832, -100.120075 38.162735, -100.124261 38.162639, -100.128446 38.162543, -100.132631 38.162446, -100.136817 38.162349, -100.141002 38.162252, -100.145187 38.162155, -100.149373 38.162058, -100.153558 38.161961, -100.157743 38.161863, -100.161928 38.161765, -100.166113 38.161667, -100.170299 38.161570, -100.174484 38.161471, -100.178669 38.161373, -100.182854 38.161275, -100.187039 38.161176, -100.191225 38.161077, -100.195410 38.160979, -100.199595 38.160879, -100.203780 38.160780, -100.207965 38.160681, -100.212150 38.160582, -100.216335 38.160482, -100.220520 38.160382, -100.224705 38.160282, -100.228890 38.160182, -100.233075 38.160082, -100.237261 38.159982, -100.241446 38.159881, -100.245631 38.159780, -100.249816 38.159680, -100.254001 38.159579, -100.258185 38.159478, -100.262370 38.159376, -100.266555 38.159275, -100.270740 38.159173, -100.274925 38.159072, -100.279110 38.158970, -100.283295 38.158868, -100.287480 38.158766, -100.291665 38.158663, -100.295850 38.158561, -100.300035 38.158458, -100.304219 38.158356, -100.308404 38.158253, -100.312589 38.158150, -100.316774 38.158047, -100.320959 38.157943, -100.325143 38.157840, -100.329328 38.157736, -100.333513 38.157632, -100.337698 38.157528, -100.341882 38.157424, -100.346067 38.157320, -100.350252 38.157216, -100.354437 38.157111, -100.358621 38.157007, -100.362806 38.156902, -100.366991 38.156797, -100.371175 38.156692, -100.375360 38.156586, -100.379545 38.156481, -100.383729 38.156376, -100.387914 38.156270, -100.392098 38.156164, -100.396283 38.156058, -100.400468 38.155952, -100.404652 38.155846, -100.408837 38.155739, -100.413021 38.155632, -100.417206 38.155526, -100.421390 38.155419, -100.425575 38.155312, -100.429759 38.155205, -100.433944 38.155097, -100.438128 38.154990, -100.442313 38.154882, -100.446497 38.154774, -100.450681 38.154666, -100.454866 38.154558, -100.459050 38.154450, -100.463235 38.154342, -100.467419 38.154233, -100.471603 38.154125, -100.475788 38.154016, -100.479972 38.153907, -100.484156 38.153798, -100.488341 38.153688, -100.492525 38.153579, -100.496709 38.153469, -100.500893 38.153360, -100.505078 38.153250, -100.509262 38.153140, -100.513446 38.153030, -100.517630 38.152919, -100.521815 38.152809, -100.525999 38.152698, -100.530183 38.152588, -100.534367 38.152477, -100.538551 38.152366, -100.542735 38.152254, -100.546920 38.152143, -100.551104 38.152032, -100.555288 38.151920, -100.559472 38.151808, -100.563656 38.151696, -100.567840 38.151584, -100.572024 38.151472, -100.576208 38.151360, -100.580392 38.151247, -100.584576 38.151134, -100.588760 38.151021, -100.592944 38.150908, -100.597128 38.150795, -100.601312 38.150682, -100.605496 38.150569, -100.609680 38.150455, -100.613864 38.150341, -100.618048 38.150228, -100.622232 38.150113, -100.626416 38.149999, -100.630599 38.149885, -100.634783 38.149771, -100.638967 38.149656, -100.643151 38.149541, -100.647335 38.149426, -100.651519 38.149311, -100.655702 38.149196, -100.659886 38.149081, -100.664070 38.148965, -100.668254 38.148850, -100.672437 38.148734, -100.676621 38.148618, -100.680805 38.148502, -100.684989 38.148385, -100.689172 38.148269, -100.693356 38.148153, -100.697540 38.148036, -100.701723 38.147919, -100.705907 38.147802, -100.710091 38.147685, -100.714274 38.147568, -100.718458 38.147450, -100.722641 38.147333, -100.726825 38.147215, -100.731008 38.147097, -100.735192 38.146979, -100.739375 38.146861, -100.743559 38.146742, -100.747743 38.146624, -100.751926 38.146505, -100.756109 38.146387, -100.760293 38.146268, -100.764476 38.146149, -100.768660 38.146029, -100.772843 38.145910, -100.777027 38.145791, -100.781210 38.145671, -100.785393 38.145551, -100.789577 38.145431, -100.793760 38.145311, -100.797943 38.145191, -100.802127 38.145070, -100.806310 38.144950, -100.810493 38.144829, -100.814677 38.144708, -100.818860 38.144587, -100.823043 38.144466, -100.827226 38.144345, -100.831410 38.144223, -100.835593 38.144102, -100.839776 38.143980, -100.843959 38.143858, -100.848142 38.143736, -100.852325 38.143614, -100.856509 38.143492, -100.860692 38.143369, -100.864875 38.143247, -100.869058 38.143124, -100.873241 38.143001, -100.877424 38.142878, -100.881607 38.142755, -100.885790 38.142631, -100.889973 38.142508, -100.894156 38.142384, -100.898339 38.142260, -100.902522 38.142136, -100.906705 38.142012, -100.910888 38.141888, -100.915071 38.141764, -100.919254 38.141639, -100.923437 38.141514, -100.927620 38.141390, -100.931803 38.141265, -100.935986 38.141139, -100.940168 38.141014, -100.944351 38.140889, -100.948534 38.140763, -100.952717 38.140637, -100.956900 38.140511, -100.961082 38.140385, -100.965265 38.140259, -100.969448 38.140133, -100.973631 38.140006, -100.977813 38.139880, -100.981996 38.139753, -100.986179 38.139626, -100.990362 38.139499, -100.994544 38.139372, -100.998727 38.139244, -101.002910 38.139117, -101.007092 38.138989, -101.011275 38.138861, -101.015457 38.138733, -101.019640 38.138605, -101.023822 38.138477, -101.028005 38.138349, -101.032188 38.138220, -101.036370 38.138091, -101.040553 38.137963, -101.044735 38.137834, -101.048918 38.137704, -101.053100 38.137575, -101.057282 38.137446, -101.061465 38.137316, -101.065647 38.137186, -101.069830 38.137056, -101.074012 38.136926, -101.078194 38.136796, -101.082377 38.136666, -101.086559 38.136535, -101.090742 38.136405, -101.094924 38.136274, -101.099106 38.136143, -101.103288 38.136012, -101.107471 38.135881, -101.111653 38.135749, -101.115835 38.135618, -101.120017 38.135486, -101.124200 38.135354, -101.128382 38.135222, -101.132564 38.135090, -101.136746 38.134958, -101.140928 38.134826, -101.145110 38.134693, -101.149293 38.134560, -101.153475 38.134427, -101.157657 38.134294, -101.161839 38.134161, -101.166021 38.134028, -101.170203 38.133895, -101.174385 38.133761, -101.178567 38.133627, -101.182749 38.133493, -101.186931 38.133359, -101.191113 38.133225, -101.195295 38.133091, -101.199477 38.132956, -101.203659 38.132822, -101.207841 38.132687, -101.212022 38.132552, -101.216204 38.132417, -101.220386 38.132282, -101.224568 38.132146, -101.228750 38.132011, -101.232932 38.131875, -101.237113 38.131739, -101.241295 38.131603, -101.245477 38.131467, -101.249659 38.131331, -101.253840 38.131194, -101.258022 38.131058, -101.262204 38.130921, -101.266386 38.130784, -101.270567 38.130647, -101.274749 38.130510, -101.278930 38.130373, -101.283112 38.130235, -101.287294 38.130098, -101.291475 38.129960, -101.295657 38.129822, -101.299838 38.129684, -101.304020 38.129546, -101.308201 38.129408, -101.312383 38.129269, -101.316564 38.129130, -101.320746 38.128992, -101.324927 38.128853, -101.329109 38.128714, -101.333290 38.128574, -101.337472 38.128435, -101.341653 38.128296, -101.345834 38.128156, -101.350016 38.128016, -101.354197 38.127876, -101.358379 38.127736, -101.362560 38.127596, -101.366741 38.127455, -101.370922 38.127315, -101.375104 38.127174, -101.379285 38.127033, -101.383466 38.126892, -101.387647 38.126751, -101.391829 38.126610, -101.396010 38.126468, -101.400191 38.126327, -101.404372 38.126185, -101.408553 38.126043, -101.412734 38.125901, -101.416916 38.125759, -101.421097 38.125616, -101.425278 38.125474, -101.429459 38.125331, -101.433640 38.125188, -101.437821 38.125046, -101.442002 38.124902, -101.446183 38.124759, -101.450364 38.124616, -101.454545 38.124472, -101.458726 38.124329, -101.462907 38.124185, -101.467088 38.124041, -101.471268 38.123897, -101.475449 38.123752, -101.479630 38.123608, -101.483811 38.123463, -101.487992 38.123319, -101.492173 38.123174, -101.496353 38.123029, -101.500534 38.122884, -101.504715 38.122738, -101.508896 38.122593, -101.513076 38.122447, -101.517257 38.122302, -101.521438 38.122156, -101.525619 38.122010, -101.529799 38.121863, -101.533980 38.121717, -101.538160 38.121571, -101.542341 38.121424, -101.546522 38.121277, -101.550702 38.121130, -101.554883 38.120983, -101.559063 38.120836, -101.563244 38.120689, -101.567424 38.120541, -101.571605 38.120393, -101.575785 38.120246, -101.579966 38.120098, -101.584146 38.119949, -101.588327 38.119801, -101.592507 38.119653, -101.596688 38.119504, -101.600868 38.119355, -101.605048 38.119207, -101.609229 38.119058, -101.613409 38.118908, -101.617589 38.118759, -101.621770 38.118610, -101.625950 38.118460, -101.630130 38.118310, -101.634310 38.118160, -101.638490 38.118010, -101.642671 38.117860, -101.646851 38.117710, -101.651031 38.117559, -101.655211 38.117409, -101.659391 38.117258, -101.663571 38.117107, -101.667752 38.116956, -101.671932 38.116805, -101.676112 38.116653, -101.680292 38.116502, -101.684472 38.116350, -101.688652 38.116198, -101.692832 38.116046, -101.697012 38.115894, -101.701192 38.115742, -101.705372 38.115590, -101.709552 38.115437, -101.713732 38.115284, -101.717911 38.115131, -101.722091 38.114978, -101.726271 38.114825, -101.730451 38.114672, -101.734631 38.114518, -101.738811 38.114365, -101.742990 38.114211, -101.747170 38.114057, -101.751350 38.113903, -101.755530 38.113749, -101.759709 38.113595, -101.763889 38.113440, -101.768069 38.113286, -101.772248 38.113131, -101.776428 38.112976, -101.780608 38.112821, -101.784787 38.112665, -101.788967 38.112510, -101.793146 38.112355, -101.797326 38.112199, -101.801506 38.112043, -101.805685 38.111887, -101.809865 38.111731, -101.814044 38.111575, -101.818224 38.111418, -101.822403 38.111262, -101.826582 38.111105, -101.830762 38.110948, -101.834941 38.110791, -101.839121 38.110634, -101.843300 38.110477, -101.847479 38.110319, -101.851659 38.110162, -101.855838 38.110004, -101.860017 38.109846, -101.864196 38.109688, -101.868376 38.109530, -101.872555 38.109371, -101.876734 38.109213, -101.880913 38.109054, -101.885093 38.108896, -101.889272 38.108737, -101.893451 38.108578, -101.897630 38.108418, -101.901809 38.108259, -101.905988 38.108099, -101.910167 38.107940, -101.914346 38.107780, -101.918525 38.107620, -101.922704 38.107460, -101.926883 38.107300, -101.931062 38.107139, -101.935241 38.106979, -101.939420 38.106818, -101.943599 38.106657, -101.947778 38.106496, -101.951957 38.106335, -101.956136 38.106174, -101.960315 38.106012, -101.964493 38.105851, -101.968672 38.105689, -101.972851 38.105527, -101.977030 38.105365, -101.981209 38.105203, -101.985387 38.105040, -101.989566 38.104878, -101.993745 38.104715, -101.997923 38.104553, -102.002102 38.104390, -102.006281 38.104227, -102.010459 38.104063, -102.014638 38.103900, -102.018817 38.103736, -102.022995 38.103573, -102.027174 38.103409, -102.031352 38.103245, -102.035531 38.103081, -102.039709 38.102917, -102.043888 38.102752, -102.048066 38.102588, -102.052245 38.102423, -102.056423 38.102258, -102.060601 38.102093, -102.064780 38.101928, -102.068958 38.101763, -102.073136 38.101597, -102.077315 38.101432, -102.081493 38.101266, -102.085671 38.101100, -102.089850 38.100934, -102.094028 38.100768, -102.098206 38.100601, -102.102384 38.100435, -102.106563 38.100268, -102.110741 38.100102, -102.114919 38.099935, -102.119097 38.099768, -102.123275 38.099600, -102.127453 38.099433, -102.131631 38.099265, -102.135809 38.099098, -102.139987 38.098930, -102.144165 38.098762, -102.148343 38.098594, -102.152521 38.098426, -102.156699 38.098257, -102.160877 38.098089, -102.165055 38.097920, -102.169233 38.097751, -102.173411 38.097582, -102.177589 38.097413, -102.181767 38.097244, -102.185945 38.097074, -102.190122 38.096905, -102.194300 38.096735, -102.198478 38.096565, -102.202656 38.096395, -102.206833 38.096225, -102.211011 38.096055, -102.215189 38.095884, -102.219366 38.095714, -102.223544 38.095543, -102.227722 38.095372, -102.231899 38.095201, -102.236077 38.095030, -102.240255 38.094858, -102.244432 38.094687, -102.248610 38.094515, -102.252787 38.094343, -102.256965 38.094171, -102.261142 38.093999, -102.265320 38.093827, -102.269497 38.093655, -102.273674 38.093482, -102.277852 38.093309, -102.282029 38.093136, -102.286207 38.092964, -102.290384 38.092790, -102.294561 38.092617, -102.298738 38.092444, -102.302916 38.092270, -102.307093 38.092096, -102.311270 38.091922, -102.315447 38.091748, -102.319625 38.091574, -102.323802 38.091400, -102.327979 38.091226, -102.332156 38.091051, -102.336333 38.090876, -102.340510 38.090701, -102.344687 38.090526, -102.348864 38.090351, -102.353042 38.090176, -102.357219 38.090000, -102.361396 38.089824, -102.365573 38.089649, -102.369749 38.089473, -102.373926 38.089297, -102.378103 38.089120, -102.382280 38.088944, -102.386457 38.088767, -102.390634 38.088591, -102.394811 38.088414, -102.398988 38.088237, -102.403164 38.088060, -102.407341 38.087883, -102.411518 38.087705, -102.415695 38.087528, -102.419871 38.087350, -102.424048 38.087172, -102.428225 38.086994, -102.432401 38.086816, -102.436578 38.086638, -102.440755 38.086459, -102.444931 38.086280, -102.449108 38.086102, -102.453284 38.085923, -102.457461 38.085744, -102.461637 38.085565, -102.465814 38.085385, -102.469990 38.085206, -102.474167 38.085026, -102.478343 38.084846, -102.482520 38.084666, -102.486696 38.084486, -102.490872 38.084306, -102.495049 38.084126, -102.499225 38.083945, -102.503401 38.083765, -102.507578 38.083584, -102.511754 38.083403, -102.515930 38.083222, -102.520106 38.083040, -102.524283 38.082859, -102.528459 38.082677, -102.532635 38.082496, -102.536811 38.082314, -102.540987 38.082132, -102.545163 38.081950, -102.549339 38.081767, -102.553515 38.081585, -102.557692 38.081402, -102.561868 38.081220, -102.566044 38.081037, -102.570220 38.080854, -102.574395 38.080670, -102.578571 38.080487, -102.582747 38.080304, -102.586923 38.080120, -102.591099 38.079936, -102.595275 38.079752, -102.599451 38.079568, -102.603627 38.079384, -102.607802 38.079200, -102.611978 38.079015, -102.616154 38.078830, -102.620330 38.078646, -102.624505 38.078461, -102.628681 38.078276, -102.632857 38.078090, -102.637032 38.077905, -102.641208 38.077719, -102.645383 38.077534, -102.649559 38.077348, -102.653735 38.077162, -102.657910 38.076976, -102.662086 38.076789, -102.666261 38.076603, -102.670437 38.076416, -102.674612 38.076230, -102.678787 38.076043, -102.682963 38.075856, -102.687138 38.075669, -102.691314 38.075481, -102.695489 38.075294, -102.699664 38.075106, -102.703840 38.074918, -102.708015 38.074731, -102.712190 38.074542, -102.716365 38.074354, -102.720541 38.074166, -102.724716 38.073977, -102.728891 38.073789, -102.733066 38.073600, -102.737241 38.073411, -102.741416 38.073222, -102.745591 38.073033, -102.749766 38.072843, -102.753941 38.072654, -102.758116 38.072464, -102.762291 38.072274, -102.766466 38.072084, -102.770641 38.071894, -102.774816 38.071704, -102.778991 38.071513, -102.783166 38.071323, -102.787341 38.071132, -102.791516 38.070941, -102.795691 38.070750, -102.799865 38.070559, -102.804040 38.070368, -102.808215 38.070176, -102.812390 38.069985, -102.816564 38.069793, -102.820739 38.069601, -102.824914 38.069409, -102.829088 38.069217, -102.833263 38.069024, -102.837438 38.068832, -102.841612 38.068639, -102.845787 38.068447, -102.849961 38.068254, -102.854136 38.068061, -102.858310 38.067867, -102.862485 38.067674, -102.866659 38.067480, -102.870834 38.067287, -102.875008 38.067093, -102.879182 38.066899, -102.883357 38.066705, -102.887531 38.066511, -102.891705 38.066316, -102.895880 38.066122, -102.900054 38.065927, -102.904228 38.065732, -102.908402 38.065537, -102.912577 38.065342, -102.916751 38.065147, -102.920925 38.064951, -102.925099 38.064756, -102.929273 38.064560, -102.933447 38.064364, -102.937621 38.064168, -102.941795 38.063972, -102.945969 38.063775, -102.950143 38.063579, -102.954317 38.063382, -102.958491 38.063185, -102.962665 38.062989, -102.966839 38.062792, -102.971013 38.062594, -102.975187 38.062397, -102.979361 38.062199, -102.983535 38.062002, -102.987708 38.061804, -102.991882 38.061606, -102.996056 38.061408, -103.000230 38.061210, -103.004403 38.061011, -103.008577 38.060813, -103.012751 38.060614, -103.016924 38.060415, -103.021098 38.060216, -103.025272 38.060017, -103.029445 38.059818, -103.033619 38.059618, -103.037792 38.059419, -103.041966 38.059219, -103.046139 38.059019, -103.050313 38.058819, -103.054486 38.058619, -103.058660 38.058419, -103.062833 38.058218, -103.067006 38.058018, -103.071180 38.057817, -103.075353 38.057616, -103.079526 38.057415, -103.083700 38.057214, -103.087873 38.057012, -103.092046 38.056811, -103.096219 38.056609, -103.100393 38.056407, -103.104566 38.056205, -103.108739 38.056003, -103.112912 38.055801, -103.117085 38.055599, -103.121258 38.055396, -103.125431 38.055194, -103.129604 38.054991, -103.133777 38.054788, -103.137950 38.054585, -103.142123 38.054381, -103.146296 38.054178, -103.150469 38.053974, -103.154642 38.053771, -103.158815 38.053567, -103.162988 38.053363, -103.167160 38.053159, -103.171333 38.052954, -103.175506 38.052750, -103.179679 38.052545, -103.183851 38.052341, -103.188024 38.052136, -103.192197 38.051931, -103.196369 38.051726, -103.200542 38.051520, -103.204715 38.051315, -103.208887 38.051109, -103.213060 38.050903, -103.217232 38.050697, -103.221405 38.050491, -103.225577 38.050285, -103.229750 38.050079, -103.233922 38.049872, -103.238095 38.049666, -103.242267 38.049459, -103.246439 38.049252, -103.250612 38.049045, -103.254784 38.048838, -103.258956 38.048630, -103.263129 38.048423, -103.267301 38.048215, -103.271473 38.048007, -103.275645 38.047799, -103.279817 38.047591, -103.283990 38.047383, -103.288162 38.047174, -103.292334 38.046966, -103.296506 38.046757, -103.300678 38.046548, -103.304850 38.046339, -103.309022 38.046130, -103.313194 38.045921, -103.317366 38.045711, -103.321538 38.045502, -103.325710 38.045292, -103.329882 38.045082, -103.334054 38.044872, -103.338225 38.044662, -103.342397 38.044451, -103.346569 38.044241, -103.350741 38.044030, -103.354913 38.043819, -103.359084 38.043608, -103.363256 38.043397, -103.367428 38.043186, -103.371599 38.042975, -103.375771 38.042763, -103.379943 38.042552, -103.384114 38.042340, -103.388286 38.042128, -103.392457 38.041916, -103.396629 38.041703, -103.400800 38.041491, -103.404972 38.041278, -103.409143 38.041066, -103.413315 38.040853, -103.417486 38.040640, -103.421657 38.040427, -103.425829 38.040213, -103.430000 38.040000, -103.432628 38.037444, -103.435257 38.034889, -103.437885 38.032333, -103.440513 38.029777, -103.443140 38.027222, -103.445768 38.024666, -103.448395 38.022110, -103.451022 38.019554, -103.453649 38.016998, -103.456276 38.014442, -103.458902 38.011886, -103.461529 38.009329, -103.464155 38.006773, -103.466781 38.004217, -103.469407 38.001660, -103.472033 37.999104, -103.474658 37.996548, -103.477283 37.993991, -103.479908 37.991434, -103.482533 37.988878, -103.485158 37.986321, -103.487783 37.983764, -103.490407 37.981207, -103.493031 37.978650, -103.495655 37.976094, -103.498279 37.973536, -103.500903 37.970979, -103.503526 37.968422, -103.506150 37.965865, -103.508773 37.963308, -103.511396 37.960751, -103.514018 37.958193, -103.516641 37.955636, -103.519263 37.953078, -103.521885 37.950521, -103.524507 37.947963, -103.527129 37.945405, -103.529751 37.942848, -103.532372 37.940290, -103.534994 37.937732, -103.537615 37.935174, -103.540236 37.932616, -103.542856 37.930058, -103.545477 37.927500, -103.548097 37.924942, -103.550717 37.922384, -103.553337 37.919826, -103.555957 37.917267, -103.558577 37.914709, -103.561196 37.912151, -103.563816 37.909592, -103.566435 37.907034, -103.569054 37.904475, -103.571672 37.901916, -103.574291 37.899358, -103.576909 37.896799, -103.579527 37.894240, -103.582145 37.891681, -103.584763 37.889122, -103.587381 37.886563, -103.589998 37.884004, -103.592616 37.881445, -103.595233 37.878886, -103.597850 37.876327, -103.600466 37.873767, -103.603083 37.871208, -103.605699 37.868649, -103.608315 37.866089, -103.610931 37.863530, -103.613547 37.860970, -103.616163 37.858411, -103.618778 37.855851, -103.621393 37.853291, -103.624009 37.850731, -103.626623 37.848171, -103.629238 37.845611, -103.631853 37.843052, -103.634467 37.840491, -103.637081 37.837931, -103.639695 37.835371, -103.642309 37.832811, -103.644923 37.830251, -103.647536 37.827690, -103.650149 37.825130, -103.652763 37.822570, -103.655375 37.820009, -103.657988 37.817449, -103.660601 37.814888, -103.663213 37.812327, -103.665825 37.809767, -103.668437 37.807206, -103.671049 37.804645, -103.673661 37.802084, -103.676272 37.799523, -103.678883 37.796962, -103.681495 37.794401, -103.684105 37.791840, -103.686716 37.789279, -103.689327 37.786717, -103.691937 37.784156, -103.694547 37.781595, -103.697157 37.779033, -103.699767 37.776472, -103.702377 37.773910, -103.704986 37.771349, -103.707596 37.768787, -103.710205 37.766225, -103.712814 37.763664, -103.715422 37.761102, -103.718031 37.758540, -103.720639 37.755978, -103.723248 37.753416, -103.725856 37.750854, -103.728463 37.748292, -103.731071 37.745730, -103.733679 37.743167, -103.736286 37.740605, -103.738893 37.738043, -103.741500 37.735480, -103.744107 37.732918, -103.746713 37.730355, -103.749320 37.727793, -103.751926 37.725230, -103.754532 37.722667, -103.757138 37.720105, -103.759743 37.717542, -103.762349 37.714979, -103.764954 37.712416, -103.767559 37.709853, -103.770164 37.707290, -103.772769 37.704727, -103.775374 37.702164, -103.777978 37.699601, -103.780582 37.697037, -103.783186 37.694474, -103.785790 37.691911, -103.788394 37.689347, -103.790998 37.686784, -103.793601 37.684220, -103.796204 37.681657, -103.798807 37.679093, -103.801410 37.676529, -103.804012 37.673966, -103.806615 37.671402, -103.809217 37.668838, -103.811819 37.666274, -103.814421 37.663710, -103.817023 37.661146, -103.819624 37.658582, -103.822226 37.656018, -103.824827 37.653453, -103.827428 37.650889, -103.830029 37.648325, -103.832629 37.645760, -103.835230 37.643196, -103.837830 37.640631, -103.840430 37.638067, -103.843030 37.635502, -103.845630 37.632937, -103.848229 37.630373, -103.850829 37.627808, -103.853428 37.625243, -103.856027 37.622678, -103.858626 37.620113, -103.861225 37.617548, -103.863823 37.614983, -103.866421 37.612418, -103.869019 37.609853, -103.871617 37.607287, -103.874215 37.604722, -103.876813 37.602157, -103.879410 37.599591, -103.882007 37.597026, -103.884604 37.594460, -103.887201 37.591895, -103.889798 37.589329, -103.892395 37.586763, -103.894991 37.584198, -103.897587 37.581632, -103.900183 37.579066, -103.902779 37.576500, -103.905374 37.573934, -103.907970 37.571368, -103.910565 37.568802, -103.913160 37.566236, -103.915755 37.563669, -103.918350 37.561103, -103.920944 37.558537, -103.923539 37.555970, -103.926133 37.553404, -103.928727 37.550837, -103.931321 37.548271, -103.933914 37.545704, -103.936508 37.543138, -103.939101 37.540571, -103.941694 37.538004, -103.944287 37.535437, -103.946880 37.532870, -103.949473 37.530303, -103.952065 37.527736, -103.954657 37.525169, -103.957249 37.522602, -103.959841 37.520035, -103.962433 37.517468, -103.965024 37.514900, -103.967616 37.512333, -103.970207 37.509766, -103.972798 37.507198, -103.975389 37.504631, -103.977979 37.502063, -103.980570 37.499495, -103.983160 37.496928, -103.985750 37.494360, -103.988340 37.491792, -103.990930 37.489224, -103.993519 37.486656, -103.996109 37.484088, -103.998698 37.481520, -104.001287 37.478952, -104.003876 37.476384, -104.006464 37.473816, -104.009053 37.471248, -104.011641 37.468679, -104.014229 37.466111, -104.016817 37.463542, -104.019405 37.460974, -104.021993 37.458405, -104.024580 37.455837, -104.027167 37.453268, -104.029754 37.450699, -104.032341 37.448131, -104.034928 37.445562, -104.037514 37.442993, -104.040101 37.440424, -104.042687 37.437855, -104.045273 37.435286, -104.047859 37.432717, -104.050444 37.430148, -104.053030 37.427579, -104.055615 37.425009, -104.058200 37.422440, -104.060785 37.419871, -104.063370 37.417301, -104.065955 37.414732, -104.068539 37.412162, -104.071123 37.409592, -104.073707 37.407023, -104.076291 37.404453, -104.078875 37.401883, -104.081458 37.399313, -104.084042 37.396743, -104.086625 37.394174, -104.089208 37.391604, -104.091791 37.389033, -104.094373 37.386463, -104.096956 37.383893, -104.099538 37.381323, -104.102120 37.378753, -104.104702 37.376182, -104.107284 37.373612, -104.109865 37.371041, -104.112447 37.368471, -104.115028 37.365900, -104.117609 37.363330, -104.120190 37.360759, -104.122771 37.358188, -104.125351 37.355618, -104.127931 37.353047, -104.130511 37.350476, -104.133091 37.347905, -104.135671 37.345334, -104.138251 37.342763, -104.140830 37.340192, -104.143410 37.337620, -104.145989 37.335049, -104.148568 37.332478, -104.151146 37.329906, -104.153725 37.327335, -104.156303 37.324764, -104.158882 37.322192, -104.161460 37.319621, -104.164037 37.317049, -104.166615 37.314477, -104.169193 37.311905, -104.171770 37.309334, -104.174347 37.306762, -104.176924 37.304190, -104.179501 37.301618, -104.182077 37.299046, -104.184654 37.296474, -104.187230 37.293902, -104.189806 37.291329, -104.192382 37.288757, -104.194958 37.286185, -104.197534 37.283613, -104.200109 37.281040, -104.202684 37.278468, -104.205259 37.275895, -104.207834 37.273323, -104.210409 37.270750, -104.212983 37.268177, -104.215558 37.265604, -104.218132 37.263032, -104.220706 37.260459, -104.223279 37.257886, -104.225853 37.255313, -104.228427 37.252740, -104.231000 37.250167, -104.233573 37.247594, -104.236146 37.245020, -104.238719 37.242447, -104.241291 37.239874, -104.243864 37.237301, -104.246436 37.234727, -104.249008 37.232154, -104.251580 37.229580, -104.254151 37.227007, -104.256723 37.224433, -104.259294 37.221859, -104.261866 37.219285, -104.264437 37.216712, -104.267007 37.214138, -104.269578 37.211564, -104.272148 37.208990, -104.274719 37.206416, -104.277289 37.203842, -104.279859 37.201268, -104.282429 37.198693, -104.284998 37.196119, -104.287568 37.193545, -104.290137 37.190971, -104.292706 37.188396, -104.295275 37.185822, -104.297844 37.183247, -104.300412 37.180673, -104.302980 37.178098, -104.305549 37.175523, -104.308117 37.172948, -104.310684 37.170374, -104.313252 37.167799, -104.315820 37.165224, -104.318387 37.162649, -104.320954 37.160074, -104.323521 37.157499, -104.326088 37.154924, -104.328654 37.152348, -104.331221 37.149773, -104.333787 37.147198, -104.336353 37.144623, -104.338919 37.142047, -104.341485 37.139472, -104.344051 37.136896, -104.346616 37.134321, -104.349181 37.131745, -104.351746 37.129169, -104.354311 37.126593, -104.356876 37.124018, -104.359440 37.121442, -104.362005 37.118866, -104.364569 37.116290, -104.367133 37.113714, -104.369697 37.111138, -104.372260 37.108562, -104.374824 37.105985, -104.377387 37.103409, -104.379950 37.100833, -104.382513 37.098257, -104.385076 37.095680, -104.387638 37.093104, -104.390201 37.090527, -104.392763 37.087951, -104.395325 37.085374, -104.397887 37.082797, -104.400449 37.080221, -104.403010 37.077644, -104.405572 37.075067, -104.408133 37.072490, -104.410694 37.069913, -104.413255 37.067336, -104.415816 37.064759, -104.418376 37.062182, -104.420936 37.059605, -104.423497 37.057027, -104.426057 37.054450, -104.428616 37.051873, -104.431176 37.049295, -104.433736 37.046718, -104.436295 37.044140, -104.438854 37.041563, -104.441413 37.038985, -104.443972 37.036408, -104.446530 37.033830, -104.449089 37.031252, -104.451647 37.028674, -104.454205 37.026096, -104.456763 37.023518, -104.459321 37.020940, -104.461878 37.018362, -104.464436 37.015784, -104.466993 37.013206, -104.469550 37.010628, -104.472107 37.008049, -104.474663 37.005471, -104.477220 37.002893, -104.479776 37.000314, -104.482333 36.997736, -104.484889 36.995157, -104.487444 36.992579, -104.490000 36.990000, -104.492777 36.987568, -104.495553 36.985137, -104.498330 36.982705, -104.501106 36.980274, -104.503882 36.977842, -104.506658 36.975410, -104.509433 36.972978, -104.512209 36.970546, -104.514984 36.968114, -104.517759 36.965682, -104.520534 36.963250, -104.523309 36.960817, -104.526083 36.958385, -104.528858 36.955953, -104.531632 36.953520, -104.534406 36.951088, -104.537180 36.948655, -104.539954 36.946223, -104.542727 36.943790, -104.545500 36.941357, -104.548274 36.938924, -104.551047 36.936492, -104.553819 36.934059, -104.556592 36.931626, -104.559364 36.929192, -104.562137 36.926759, -104.564909 36.924326, -104.567681 36.921893, -104.570453 36.919460, -104.573224 36.917026, -104.575995 36.914593, -104.578767 36.912159, -104.581538 36.909726, -104.584309 36.907292, -104.587079 36.904858, -104.589850 36.902424, -104.592620 36.899991, -104.595390 36.897557, -104.598160 36.895123, -104.600930 36.892689, -104.603700 36.890255, -104.606469 36.887820, -104.609238 36.885386, -104.612007 36.882952, -104.614776 36.880517, -104.617545 36.878083, -104.620314 36.875649, -104.623082 36.873214, -104.625850 36.870779, -104.628618 36.868345, -104.631386 36.865910, -104.634154 36.863475, -104.636921 36.861040, -104.639689 36.858605, -104.642456 36.856170, -104.645223 36.853735, -104.647990 36.851300, -104.650756 36.848865, -104.653523 36.846430, -104.656289 36.843994, -104.659055 36.841559, -104.661821 36.839123, -104.664587 36.836688, -104.667352 36.834252, -104.670118 36.831817, -104.672883 36.829381, -104.675648 36.826945, -104.678413 36.824509, -104.681177 36.822074, -104.683942 36.819638, -104.686706 36.817202, -104.689470 36.814765, -104.692234 36.812329, -104.694998 36.809893, -104.697762 36.807457, -104.700525 36.805020, -104.703289 36.802584, -104.706052 36.800148, -104.708815 36.797711, -104.711577 36.795274, -104.714340 36.792838, -104.717102 36.790401, -104.719865 36.787964, -104.722627 36.785527, -104.725389 36.783090, -104.728150 36.780653, -104.730912 36.778216, -104.733673 36.775779, -104.736434 36.773342, -104.739195 36.770905, -104.741956 36.768468, -104.744717 36.766030, -104.747477 36.763593, -104.750238 36.761155, -104.752998 36.758718, -104.755758 36.756280, -104.758517 36.753842, -104.761277 36.751405, -104.764036 36.748967, -104.766796 36.746529, -104.769555 36.744091, -104.772314 36.741653, -104.775072 36.739215, -104.777831 36.736777, -104.780589 36.734339, -104.783347 36.731900, -104.786105 36.729462, -104.788863 36.727024, -104.791621 36.724585, -104.794378 36.722147, -104.797136 36.719708, -104.799893 36.717269, -104.802650 36.714831, -104.805407 36.712392, -104.808163 36.709953, -104.810920 36.707514, -104.813676 36.705075, -104.816432 36.702636, -104.819188 36.700197, -104.821944 36.697758, -104.824699 36.695319, -104.827455 36.692879, -104.830210 36.690440, -104.832965 36.688001, -104.835720 36.685561, -104.838474 36.683122, -104.841229 36.680682, -104.843983 36.678242, -104.846737 36.675803, -104.849491 36.673363, -104.852245 36.670923, -104.854999 36.668483, -104.857752 36.666043, -104.860506 36.663603, -104.863259 36.661163, -104.866012 36.658723, -104.868764 36.656283, -104.871517 36.653842, -104.874269 36.651402, -104.877022 36.648962, -104.879774 36.646521, -104.882526 36.644081, -104.885277 36.641640, -104.888029 36.639199, -104.890780 36.636759, -104.893532 36.634318, -104.896283 36.631877, -104.899033 36.629436, -104.901784 36.626995, -104.904535 36.624554, -104.907285 36.622113, -104.910035 36.619672, -104.912785 36.617230, -104.915535 36.614789, -104.918284 36.612348, -104.921034 36.609906, -104.923783 36.607465, -104.926532 36.605023, -104.929281 36.602582, -104.932030 36.600140, -104.934779 36.597698, -104.937527 36.595256, -104.940275 36.592814, -104.943023 36.590373, -104.945771 36.587931, -104.948519 36.585488, -104.951266 36.583046, -104.954014 36.580604, -104.956761 36.578162, -104.959508 36.575720, -104.962255 36.573277, -104.965002 36.570835, -104.967748 36.568392, -104.970494 36.565950, -104.973241 36.563507, -104.975987 36.561064, -104.978732 36.558622, -104.981478 36.556179, -104.984223 36.553736, -104.986969 36.551293, -104.989714 36.548850, -104.992459 36.546407, -104.995204 36.543964, -104.997948 36.541521, -105.000693 36.539077, -105.003437 36.536634, -105.006181 36.534191, -105.008925 36.531747, -105.011669 36.529304, -105.014412 36.526860, -105.017155 36.524416, -105.019899 36.521973, -105.022642 36.519529, -105.025385 36.517085, -105.028127 36.514641, -105.030870 36.512197, -105.033612 36.509753, -105.036354 36.507309, -105.039096 36.504865, -105.041838 36.502421, -105.044580 36.499977, -105.047321 36.497532, -105.050062 36.495088, -105.052804 36.492643, -105.055545 36.490199, -105.058285 36.487754, -105.061026 36.485310, -105.063766 36.482865, -105.066507 36.480420, -105.069247 36.477975, -105.071987 36.475530, -105.074726 36.473086, -105.077466 36.470640, -105.080205 36.468195, -105.082945 36.465750, -105.085684 36.463305, -105.088422 36.460860, -105.091161 36.458414, -105.093900 36.455969, -105.096638 36.453524, -105.099376 36.451078, -105.102114 36.448633, -105.104852 36.446187, -105.107590 36.443741, -105.110327 36.441295, -105.113065 36.438850, -105.115802 36.436404, -105.118539 36.433958, -105.121276 36.431512, -105.124012 36.429066, -105.126749 36.426619, -105.129485 36.424173, -105.132221 36.421727, -105.134957 36.419281, -105.137693 36.416834, -105.140428 36.414388, -105.143164 36.411941, -105.145899 36.409495, -105.148634 36.407048, -105.151369 36.404601, -105.154104 36.402155, -105.156838 36.399708, -105.159573 36.397261, -105.162307 36.394814, -105.165041 36.392367, -105.167775 36.389920, -105.170509 36.387473, -105.173242 36.385026, -105.175976 36.382578, -105.178709 36.380131, -105.181442 36.377684, -105.184175 36.375236, -105.186907 36.372789, -105.189640 36.370341, -105.192372 36.367893, -105.195104 36.365446, -105.197836 36.362998, -105.200568 36.360550, -105.203300 36.358102, -105.206031 36.355654, -105.208762 36.353206, -105.211494 36.350758, -105.214225 36.348310, -105.216955 36.345862, -105.219686 36.343414, -105.222416 36.340965, -105.225147 36.338517, -105.227877 36.336068, -105.230607 36.333620, -105.233336 36.331171, -105.236066 36.328723, -105.238795 36.326274, -105.241525 36.323825, -105.244254 36.321376, -105.246983 36.318928, -105.249711 36.316479, -105.252440 36.314030, -105.255168 36.311581, -105.257897 36.309131, -105.260625 36.306682, -105.263352 36.304233, -105.266080 36.301784, -105.268808 36.299334, -105.271535 36.296885, -105.274262 36.294435, -105.276989 36.291986, -105.279716 36.289536, -105.282443 36.287086, -105.285169 36.284637, -105.287896 36.282187, -105.290622 36.279737, -105.293348 36.277287, -105.296073 36.274837, -105.298799 36.272387, -105.301525 36.269937, -105.304250 36.267487, -105.306975 36.265036, -105.309700 36.262586, -105.312425 36.260136, -105.315149 36.257685, -105.317874 36.255235, -105.320598 36.252784, -105.323322 36.250334, -105.326046 36.247883, -105.328770 36.245432, -105.331493 36.242982, -105.334217 36.240531, -105.336940 36.238080, -105.339663 36.235629, -105.342386 36.233178, -105.345109 36.230727, -105.347831 36.228275, -105.350554 36.225824, -105.353276 36.223373, -105.355998 36.220922, -105.358720 36.218470, -105.361442 36.216019, -105.364163 36.213567, -105.366885 36.211116, -105.369606 36.208664, -105.372327 36.206212, -105.375048 36.203760, -105.377768 36.201309, -105.380489 36.198857, -105.383209 36.196405, -105.385929 36.193953, -105.388649 36.191501, -105.391369 36.189048, -105.394089 36.186596, -105.396808 36.184144, -105.399528 36.181692, -105.402247 36.179239, -105.404966 36.176787, -105.407685 36.174334, -105.410403 36.171882, -105.413122 36.169429, -105.415840 36.166976, -105.418558 36.164523, -105.421276 36.162071, -105.423994 36.159618, -105.426712 36.157165, -105.429429 36.154712, -105.432146 36.152259, -105.434864 36.149806, -105.437581 36.147352, -105.440297 36.144899, -105.443014 36.142446, -105.445730 36.139992, -105.448447 36.137539, -105.451163 36.135085, -105.453879 36.132632, -105.456594 36.130178, -105.459310 36.127725, -105.462025 36.125271, -105.464741 36.122817, -105.467456 36.120363, -105.470171 36.117909, -105.472885 36.115455, -105.475600 36.113001, -105.478314 36.110547, -105.481029 36.108093, -105.483743 36.105639, -105.486457 36.103184, -105.489170 36.100730, -105.491884 36.098275, -105.494597 36.095821, -105.497310 36.093366, -105.500023 36.090912, -105.502736 36.088457, -105.505449 36.086002, -105.508162 36.083548, -105.510874 36.081093, -105.513586 36.078638, -105.516298 36.076183, -105.519010 36.073728, -105.521722 36.071273, -105.524433 36.068818, -105.527145 36.066362, -105.529856 36.063907, -105.532567 36.061452, -105.535278 36.058996, -105.537988 36.056541, -105.540699 36.054085, -105.543409 36.051630, -105.546119 36.049174, -105.548829 36.046718, -105.551539 36.044263, -105.554249 36.041807, -105.556958 36.039351, -105.559668 36.036895, -105.562377 36.034439, -105.565086 36.031983, -105.567794 36.029527, -105.570503 36.027071, -105.573212 36.024614, -105.575920 36.022158, -105.578628 36.019702, -105.581336 36.017245, -105.584044 36.014789, -105.586751 36.012332, -105.589459 36.009875, -105.592166 36.007419, -105.594873 36.004962, -105.597580 36.002505, -105.600287 36.000048, -105.602994 35.997591, -105.605700 35.995134, -105.608406 35.992677, -105.611113 35.990220, -105.613818 35.987763, -105.616524 35.985306, -105.619230 35.982849, -105.621935 35.980391, -105.624641 35.977934, -105.627346 35.975476, -105.630051 35.973019, -105.632755 35.970561, -105.635460 35.968104, -105.638164 35.965646, -105.640869 35.963188, -105.643573 35.960730, -105.646277 35.958272, -105.648980 35.955814, -105.651684 35.953356, -105.654387 35.950898, -105.657091 35.948440, -105.659794 35.945982, -105.662497 35.943524, -105.665199 35.941065, -105.667902 35.938607, -105.670604 35.936149, -105.673307 35.933690, -105.676009 35.931232, -105.678711 35.928773, -105.681412 35.926314, -105.684114 35.923855, -105.686815 35.921397, -105.689517 35.918938, -105.692218 35.916479, -105.694919 35.914020, -105.697619 35.911561, -105.700320 35.909102, -105.703020 35.906643, -105.705720 35.904183, -105.708420 35.901724, -105.711120 35.899265, -105.713820 35.896805, -105.716520 35.894346, -105.719219 35.891886, -105.721918 35.889427, -105.724617 35.886967, -105.727316 35.884507, -105.730015 35.882048, -105.732713 35.879588, -105.735412 35.877128, -105.738110 35.874668, -105.740808 35.872208, -105.743506 35.869748, -105.746204 35.867288, -105.748901 35.864827, -105.751599 35.862367, -105.754296 35.859907, -105.756993 35.857446, -105.759690 35.854986, -105.762386 35.852526, -105.765083 35.850065, -105.767779 35.847604, -105.770476 35.845144, -105.773172 35.842683, -105.775867 35.840222, -105.778563 35.837761, -105.781259 35.835300, -105.783954 35.832839, -105.786649 35.830378, -105.789344 35.827917, -105.792039 35.825456, -105.794734 35.822995, -105.797428 35.820534, -105.800123 35.818072, -105.802817 35.815611, -105.805511 35.813149, -105.808205 35.810688, -105.810899 35.808226, -105.813592 35.805765, -105.816285 35.803303, -105.818979 35.800841, -105.821672 35.798379, -105.824365 35.795918, -105.827057 35.793456, -105.829750 35.790994, -105.832442 35.788532, -105.835134 35.786069, -105.837826 35.783607, -105.840518 35.781145, -105.843210 35.778683, -105.845901 35.776220, -105.848593 35.773758, -105.851284 35.771295, -105.853975 35.768833, -105.856666 35.766370, -105.859357 35.763908, -105.862047 35.761445, -105.864737 35.758982, -105.867428 35.756519, -105.870118 35.754056, -105.872808 35.751593, -105.875497 35.749130, -105.878187 35.746667, -105.880876 35.744204, -105.883565 35.741741, -105.886254 35.739278, -105.888943 35.736814, -105.891632 35.734351, -105.894320 35.731888, -105.897009 35.729424, -105.899697 35.726961, -105.902385 35.724497, -105.905073 35.722033, -105.907761 35.719570, -105.910448 35.717106, -105.913135 35.714642, -105.915823 35.712178, -105.918510 35.709714, -105.921197 35.707250, -105.923883 35.704786, -105.926570 35.702322, -105.929256 35.699857, -105.931942 35.697393, -105.934628 35.694929, -105.937314 35.692464, -105.940000 35.690000)
