LINESTRING (-99.130000 19.430000, -99.134142 19.433856, -99.138284 19.437711, -99.142426 19.441566, -99.146569 19.445422, -99.150711 19.449277, -99.154854 19.453132, -99.158997 19.456987, -99.163141 19.460842, -99.167284 19.464697, -99.171428 19.468552, -99.175571 19.472406, -99.179716 19.476261, -99.183860 19.480115, -99.188004 19.483969, -99.192149 19.487824, -99.196294 19.491678, -99.200439 19.495532, -99.204584 19.499386, -99.208729 19.503240, -99.212875 19.507094, -99.217021 19.510947, -99.221167 19.514801, -99.225313 19.518654, -99.229459 19.522508, -99.233606 19.526361, -99.237753 19.530214, -99.241900 19.534067, -99.246047 19.537920, -99.250194 19.541773, -99.254342 19.545626, -99.258490 19.549479, -99.262638 19.553332, -99.266786 19.557184, -99.270934 19.561037, -99.275083 19.564889, -99.279232 19.568741, -99.283381 19.572593, -99.287530 19.576446, -99.291679 19.580298, -99.295829 19.584149, -99.299979 19.588001, -99.304129 19.591853, -99.308279 19.595705, -99.312429 19.599556, -99.316580 19.603407, -99.320731 19.607259, -99.324882 19.611110, -99.329033 19.614961, -99.333184 19.618812, -99.337336 19.622663, -99.341488 19.626514, -99.345640 19.630365, -99.349792 19.634215, -99.353944 19.638066, -99.358097 19.641916, -99.362249 19.645767, -99.366402 19.649617, -99.370556 19.653467, -99.374709 19.657317, -99.378862 19.661167, -99.383016 19.665017, -99.387170 19.668867, -99.391324 19.672717, -99.395479 19.676566, -99.399633 19.680416, -99.403788 19.684265, -99.407943 19.688115, -99.412098 19.691964, -99.416253 19.695813, -99.420409 19.699662, -99.424565 19.703511, -99.428721 19.707360, -99.432877 19.711208, -99.437033 19.715057, -99.441190 19.718906, -99.445347 19.722754, -99.449504 19.726602, -99.453661 19.730451, -99.457818 19.734299, -99.461976 19.738147, -99.466133 19.741995, -99.470291 19.745843, -99.474450 19.749691, -99.478608 19.753538, -99.482766 19.757386, -99.486925 19.761233, -99.491084 19.765081, -99.495243 19.768928, -99.499403 19.772775, -99.503562 19.776622, -99.507722 19.780469, -99.511882 19.784316, -99.516042 19.788163, -99.520203 19.792010, -99.524363 19.795857, -99.528524 19.799703, -99.532685 19.803550, -99.536846 19.807396, -99.541007 19.811242, -99.545169 19.815088, -99.549331 19.818934, -99.553493 19.822780, -99.557655 19.826626, -99.561817 19.830472, -99.565980 19.834318, -99.570143 19.838163, -99.574306 19.842009, -99.578469 19.845854, -99.582632 19.849699, -99.586796 19.853545, -99.590960 19.857390, -99.595124 19.861235, -99.599288 19.865079, -99.603452 19.868924, -99.607617 19.872769, -99.611782 19.876614, -99.615947 19.880458, -99.620112 19.884303, -99.624277 19.888147, -99.628443 19.891991, -99.632609 19.895835, -99.636775 19.899679, -99.640941 19.903523, -99.645107 19.907367, -99.649274 19.911211, -99.653441 19.915054, -99.657608 19.918898, -99.661775 19.922741, -99.665942 19.926585, -99.670110 19.930428, -99.674278 19.934271, -99.678446 19.938114, -99.682614 19.941957, -99.686783 19.945800, -99.690951 19.949643, -99.695120 19.953485, -99.699289 19.957328, -99.703458 19.961170, -99.707628 19.965013, -99.711798 19.968855, -99.715967 19.972697, -99.720138 19.976539, -99.724308 19.980381, -99.728478 19.984223, -99.732649 19.988065, -99.736820 19.991907, -99.740991 19.995748, -99.745162 19.999590, -99.749334 20.003431, -99.753505 20.007272, -99.757677 20.011114, -99.761849 20.014955, -99.766022 20.018796, -99.770194 20.022637, -99.774367 20.026478, -99.778540 20.030318, -99.782713 20.034159, -99.786886 20.037999, -99.791060 20.041840, -99.795234 20.045680, -99.799408 20.049520, -99.803582 20.053360, -99.807756 20.057200, -99.811931 20.061040, -99.816105 20.064880, -99.820280 20.068720, -99.824456 20.072560, -99.828631 20.076399, -99.832807 20.080239, -99.836982 20.084078, -99.841158 20.087917, -99.845334 20.091756, -99.849511 20.095595, -99.853687 20.099434, -99.857864 20.103273, -99.862041 20.107112, -99.866219 20.110951, -99.870396 20.114789, -99.874574 20.118628, -99.878751 20.122466, -99.882929 20.126304, -99.887108 20.130142, -99.891286 20.133980, -99.895465 20.137818, -99.899644 20.141656, -99.903823 20.145494, -99.908002 20.149332, -99.912181 20.153169, -99.916361 20.157007, -99.920541 20.160844, -99.924721 20.164681, -99.928901 20.168519, -99.933082 20.172356, -99.937263 20.176193, -99.941444 20.180030, -99.945625 20.183866, -99.949806 20.187703, -99.953987 20.191540, -99.958169 20.195376, -99.962351 20.199213, -99.966533 20.203049, -99.970716 20.206885, -99.974898 20.210721, -99.979081 20.214557, -99.983264 20.218393, -99.987447 20.222229, -99.991631 20.226064, -99.995814 20.229900, -99.999998 20.233736, -100.004182 20.237571, -100.008366 20.241406, -100.012551 20.245241, -100.016735 20.249077, -100.020920 20.252912, -100.025105 20.256746, -100.029290 20.260581, -100.033476 20.264416, -100.037661 20.268251, -100.041847 20.272085, -100.046033 20.275919, -100.050220 20.279754, -100.054406 20.283588, -100.058593 20.287422, -100.062780 20.291256, -100.066967 20.295090, -100.071154 20.298924, -100.075342 20.302758, -100.079529 20.306591, -100.083717 20.310425, -100.087905 20.314258, -100.092094 20.318091, -100.096282 20.321925, -100.100471 20.325758, -100.104660 20.329591, -100.108849 20.333424, -100.113039 20.337256, -100.117228 20.341089, -100.121418 20.344922, -100.125608 20.348754, -100.129798 20.352587, -100.133989 20.356419, -100.138179 20.360251, -100.142370 20.364083, -100.146561 20.367915, -100.150753 20.371747, -100.154944 20.375579, -100.159136 20.379411, -100.163328 20.383242, -100.167520 20.387074, -100.171712 20.390905, -100.175904 20.394737, -100.180097 20.398568, -100.184290 20.402399, -100.188483 20.406230, -100.192677 20.410061, -100.196870 20.413892, -100.201064 20.417722, -100.205258 20.421553, -100.209452 20.425383, -100.213646 20.429214, -100.217841 20.433044, -100.222036 20.436874, -100.226231 20.440704, -100.230426 20.444535, -100.234622 20.448364, -100.238817 20.452194, -100.243013 20.456024, -100.247209 20.459854, -100.251405 20.463683, -100.255602 20.467512, -100.259799 20.471342, -100.263995 20.475171, -100.268193 20.479000, -100.272390 20.482829, -100.276587 20.486658, -100.280785 20.490487, -100.284983 20.494315, -100.289181 20.498144, -100.293380 20.501973, -100.297578 20.505801, -100.301777 20.509629, -100.305976 20.513457, -100.310175 20.517285, -100.314375 20.521113, -100.318574 20.524941, -100.322774 20.528769, -100.326974 20.532597, -100.331174 20.536424, -100.335375 20.540252, -100.339575 20.544079, -100.343776 20.547907, -100.347977 20.551734, -100.352179 20.555561, -100.356380 20.559388, -100.360582 20.563215, -100.364784 20.567041, -100.368986 20.570868, -100.373188 20.574695, -100.377391 20.578521, -100.381594 20.582348, -100.385797 20.586174, -100.390000 20.590000, -100.391940 20.595186, -100.393879 20.600372, -100.395819 20.605558, -100.397759 20.610744, -100.399700 20.615930, -100.401640 20.621116, -100.403580 20.626302, -100.405521 20.631488, -100.407462 20.636674, -100.409403 20.641860, -100.411344 20.647046, -100.413285 20.652232, -100.415226 20.657417, -100.417167 20.662603, -100.419109 20.667789, -100.421050 20.672975, -100.422992 20.678160, -100.424934 20.683346, -100.426876 20.688532, -100.428818 20.693717, -100.430761 20.698903, -100.432703 20.704089, -100.434646 20.709274, -100.436588 20.714460, -100.438531 20.719646, -100.440474 20.724831, -100.442417 20.730017, -100.444361 20.735202, -100.446304 20.740388, -100.448247 20.745573, -100.450191 20.750758, -100.452135 20.755944, -100.454079 20.761129, -100.456023 20.766315, -100.457967 20.771500, -100.459911 20.776685, -100.461856 20.781871, -100.463800 20.787056, -100.465745 20.792241, -100.467690 20.797426, -100.469635 20.802611, -100.471580 20.807797, -100.473525 20.812982, -100.475470 20.818167, -100.477416 20.823352, -100.479362 20.828537, -100.481307 20.833722, -100.483253 20.838907, -100.485199 20.844092, -100.487146 20.849277, -100.489092 20.854462, -100.491038 20.859647, -100.492985 20.864832, -100.494932 20.870017, -100.496878 20.875202, -100.498825 20.880387, -100.500773 20.885572, -100.502720 20.890757, -100.504667 20.895942, -100.506615 20.901126, -100.508562 20.906311, -100.510510 20.911496, -100.512458 20.916681, -100.514406 20.921865, -100.516354 20.927050, -100.518303 20.932235, -100.520251 20.937419, -100.522200 20.942604, -100.524148 20.947788, -100.526097 20.952973, -100.528046 20.958158, -100.529996 20.963342, -100.531945 20.968527, -100.533894 20.973711, -100.535844 20.978896, -100.537793 20.984080, -100.539743 20.989264, -100.541693 20.994449, -100.543643 20.999633, -100.545594 21.004818, -100.547544 21.010002, -100.549494 21.015186, -100.551445 21.020370, -100.553396 21.025555, -100.555347 21.030739, -100.557298 21.035923, -100.559249 21.041107, -100.561200 21.046291, -100.563152 21.051476, -100.565103 21.056660, -100.567055 21.061844, -100.569007 21.067028, -100.570959 21.072212, -100.572911 21.077396, -100.574863 21.082580, -100.576816 21.087764, -100.578768 21.092948, -100.580721 21.098132, -100.582674 21.103316, -100.584626 21.108500, -100.586580 21.113684, -100.588533 21.118868, -100.590486 21.124051, -100.592440 21.129235, -100.594393 21.134419, -100.596347 21.139603, -100.598301 21.144787, -100.600255 21.149970, -100.602209 21.155154, -100.604163 21.160338, -100.606118 21.165521, -100.608072 21.170705, -100.610027 21.175889, -100.611982 21.181072, -100.613937 21.186256, -100.615892 21.191439, -100.617847 21.196623, -100.619803 21.201806, -100.621758 21.206990, -100.623714 21.212173, -100.625670 21.217357, -100.627626 21.222540, -100.629582 21.227723, -100.631538 21.232907, -100.633495 21.238090, -100.635451 21.243273, -100.637408 21.248457, -100.639364 21.253640, -100.641321 21.258823, -100.643278 21.264006, -100.645236 21.269190, -100.647193 21.274373, -100.649150 21.279556, -100.651108 21.284739, -100.653066 21.289922, -100.655024 21.295105, -100.656982 21.300288, -100.658940 21.305472, -100.660898 21.310655, -100.662857 21.315838, -100.664815 21.321021, -100.666774 21.326203, -100.668733 21.331386, -100.670692 21.336569, -100.672651 21.341752, -100.674610 21.346935, -100.676569 21.352118, -100.678529 21.357301, -100.680489 21.362484, -100.682448 21.367666, -100.684408 21.372849, -100.686369 21.378032, -100.688329 21.383215, -100.690289 21.388397, -100.692250 21.393580, -100.694210 21.398762, -100.696171 21.403945, -100.698132 21.409128, -100.700093 21.414310, -100.702054 21.419493, -100.704016 21.424675, -100.705977 21.429858, -100.707939 21.435040, -100.709901 21.440223, -100.711862 21.445405, -100.713825 21.450588, -100.715787 21.455770, -100.717749 21.460952, -100.719711 21.466135, -100.721674 21.471317, -100.723637 21.476499, -100.725600 21.481682, -100.727563 21.486864, -100.729526 21.492046, -100.731489 21.497228, -100.733453 21.502410, -100.735416 21.507593, -100.737380 21.512775, -100.739344 21.517957, -100.741308 21.523139, -100.743272 21.528321, -100.745236 21.533503, -100.747201 21.538685, -100.749165 21.543867, -100.751130 21.549049, -100.753095 21.554231, -100.755060 21.559413, -100.757025 21.564595, -100.758990 21.569777, -100.760956 21.574959, -100.762921 21.580140, -100.764887 21.585322, -100.766853 21.590504, -100.768819 21.595686, -100.770785 21.600868, -100.772751 21.606049, -100.774717 21.611231, -100.776684 21.616413, -100.778651 21.621594, -100.780617 21.626776, -100.782584 21.631958, -100.784551 21.637139, -100.786519 21.642321, -100.788486 21.647502, -100.790454 21.652684, -100.792421 21.657865, -100.794389 21.663047, -100.796357 21.668228, -100.798325 21.673410, -100.800293 21.678591, -100.802262 21.683772, -100.804230 21.688954, -100.806199 21.694135, -100.808168 21.699316, -100.810136 21.704498, -100.812106 21.709679, -100.814075 21.714860, -100.816044 21.720041, -100.818014 21.725223, -100.819983 21.730404, -100.821953 21.735585, -100.823923 21.740766, -100.825893 21.745947, -100.827863 21.751128, -100.829834 21.756309, -100.831804 21.761490, -100.833775 21.766671, -100.835746 21.771852, -100.837716 21.777033, -100.839688 21.782214, -100.841659 21.787395, -100.843630 21.792576, -100.845602 21.797757, -100.847573 21.802938, -100.849545 21.808118, -100.851517 21.813299, -100.853489 21.818480, -100.855461 21.823661, -100.857433 21.828841, -100.859406 21.834022, -100.861379 21.839203, -100.863351 21.844383, -100.865324 21.849564, -100.867297 21.854745, -100.869271 21.859925, -100.871244 21.865106, -100.873217 21.870286, -100.875191 21.875467, -100.877165 21.880647, -100.879139 21.885828, -100.881113 21.891008, -100.883087 21.896189, -100.885061 21.901369, -100.887036 21.906549, -100.889011 21.911730, -100.890985 21.916910, -100.892960 21.922090, -100.894935 21.927271, -100.896911 21.932451, -100.898886 21.937631, -100.900861 21.942811, -100.902837 21.947991, -100.904813 21.953172, -100.906789 21.958352, -100.908765 21.963532, -100.910741 21.968712, -100.912717 21.973892, -100.914694 21.979072, -100.916671 21.984252, -100.918647 21.989432, -100.920624 21.994612, -100.922601 21.999792, -100.924579 22.004972, -100.926556 22.010152, -100.928534 22.015332, -100.930511 22.020512, -100.932489 22.025691, -100.934467 22.030871, -100.936445 22.036051, -100.938423 22.041231, -100.940402 22.046410, -100.942380 22.051590, -100.944359 22.056770, -100.946338 22.061949, -100.948317 22.067129, -100.950296 22.072309, -100.952275 22.077488, -100.954255 22.082668, -100.956234 22.087847, -100.958214 22.093027, -100.960194 22.098206, -100.962174 22.103386, -100.964154 22.108565, -100.966134 22.113745, -100.968114 22.118924, -100.970095 22.124103, -100.972076 22.129283, -100.974057 22.134462, -100.976038 22.139641, -100.978019 22.144821, -100.980000 22.150000, -100.985455 22.152150, -100.990910 22.154300, -100.996366 22.156450, -101.001821 22.158599, -101.007277 22.160748, -101.012733 22.162897, -101.018189 22.165046, -101.023645 22.167195, -101.029102 22.169344, -101.034558 22.171492, -101.040015 22.173640, -101.045472 22.175788, -101.050929 22.177936, -101.056386 22.180084, -101.061844 22.182231, -101.067301 22.184379, -101.072759 22.186526, -101.078217 22.188673, -101.083675 22.190820, -101.089133 22.192966, -101.094592 22.195113, -101.100050 22.197259, -101.105509 22.199405, -101.110968 22.201551, -101.116427 22.203696, -101.121886 22.205842, -101.127346 22.207987, -101.132805 22.210132, -101.138265 22.212277, -101.143725 22.214422, -101.149185 22.216567, -101.154645 22.218711, -101.160106 22.220855, -101.165566 22.222999, -101.171027 22.225143, -101.176488 22.227287, -101.181949 22.229430, -101.187410 22.231573, -101.192872 22.233717, -101.198333 22.235860, -101.203795 22.238002, -101.209257 22.240145, -101.214719 22.242287, -101.220181 22.244429, -101.225644 22.246572, -101.231106 22.248713, -101.236569 22.250855, -101.242032 22.252997, -101.247495 22.255138, -101.252958 22.257279, -101.258422 22.259420, -101.263885 22.261561, -101.269349 22.263701, -101.274813 22.265842, -101.280277 22.267982, -101.285741 22.270122, -101.291206 22.272262, -101.296670 22.274401, -101.302135 22.276541, -101.307600 22.278680, -101.313065 22.280819, -101.318531 22.282958, -101.323996 22.285097, -101.329462 22.287235, -101.334927 22.289374, -101.340393 22.291512, -101.345859 22.293650, -101.351326 22.295788, -101.356792 22.297925, -101.362259 22.300063, -101.367725 22.302200, -101.373192 22.304337, -101.378659 22.306474, -101.384127 22.308611, -101.389594 22.310747, -101.395062 22.312884, -101.400530 22.315020, -101.405998 22.317156, -101.411466 22.319292, -101.416934 22.321427, -101.422402 22.323563, -101.427871 22.325698, -101.433340 22.327833, -101.438809 22.329968, -101.444278 22.332103, -101.449747 22.334237, -101.455217 22.336372, -101.460686 22.338506, -101.466156 22.340640, -101.471626 22.342773, -101.477096 22.344907, -101.482566 22.347041, -101.488037 22.349174, -101.493507 22.351307, -101.498978 22.353440, -101.504449 22.355572, -101.509920 22.357705, -101.515391 22.359837, -101.520863 22.361969, -101.526335 22.364101, -101.531806 22.366233, -101.537278 22.368365, -101.542750 22.370496, -101.548223 22.372627, -101.553695 22.374758, -101.559168 22.376889, -101.564641 22.379020, -101.570114 22.381150, -101.575587 22.383281, -101.581060 22.385411, -101.586533 22.387541, -101.592007 22.389670, -101.597481 22.391800, -101.602955 22.393929, -101.608429 22.396059, -101.613903 22.398188, -101.619378 22.400316, -101.624852 22.402445, -101.630327 22.404573, -101.635802 22.406702, -101.641277 22.408830, -101.646753 22.410958, -101.652228 22.413085, -101.657704 22.415213, -101.663180 22.417340, -101.668656 22.419467, -101.674132 22.421594, -101.679608 22.423721, -101.685085 22.425848, -101.690561 22.427974, -101.696038 22.430101, -101.701515 22.432227, -101.706992 22.434352, -101.712470 22.436478, -101.717947 22.438604, -101.723425 22.440729, -101.728903 22.442854, -101.734381 22.444979, -101.739859 22.447104, -101.745337 22.449228, -101.750815 22.451353, -101.756294 22.453477, -101.761773 22.455601, -101.767252 22.457725, -101.772731 22.459849, -101.778211 22.461972, -101.783690 22.464095, -101.789170 22.466218, -101.794650 22.468341, -101.800130 22.470464, -101.805610 22.472587, -101.811090 22.474709, -101.816571 22.476831, -101.822051 22.478953, -101.827532 22.481075, -101.833013 22.483196, -101.838494 22.485318, -101.843976 22.487439, -101.849457 22.489560, -101.854939 22.491681, -101.860421 22.493802, -101.865903 22.495922, -101.871385 22.498043, -101.876867 22.500163, -101.882350 22.502283, -101.887833 22.504402, -101.893315 22.506522, -101.898798 22.508641, -101.904282 22.510761, -101.909765 22.512880, -101.915249 22.514999, -101.920732 22.517117, -101.926216 22.519236, -101.931700 22.521354, -101.937184 22.523472, -101.942669 22.525590, -101.948153 22.527708, -101.953638 22.529825, -101.959123 22.531943, -101.964608 22.534060, -101.970093 22.536177, -101.975579 22.538293, -101.981064 22.540410, -101.986550 22.542526, -101.992036 22.544643, -101.997522 22.546759, -102.003008 22.548875, -102.008494 22.550990, -102.013981 22.553106, -102.019468 22.555221, -102.024955 22.557336, -102.030442 22.559451, -102.035929 22.561566, -102.041416 22.563680, -102.046904 22.565795, -102.052392 22.567909, -102.057880 22.570023, -102.063368 22.572137, -102.068856 22.574250, -102.074344 22.576364, -102.079833 22.578477, -102.085322 22.580590, -102.090811 22.582703, -102.096300 22.584816, -102.101789 22.586928, -102.107278 22.589041, -102.112768 22.591153, -102.118258 22.593265, -102.123748 22.595376, -102.129238 22.597488, -102.134728 22.599599, -102.140219 22.601711, -102.145709 22.603822, -102.151200 22.605933, -102.156691 22.608043, -102.162182 22.610154, -102.167673 22.612264, -102.173165 22.614374, -102.178656 22.616484, -102.184148 22.618594, -102.189640 22.620703, -102.195132 22.622812, -102.200624 22.624922, -102.206117 22.627031, -102.211610 22.629139, -102.217102 22.631248, -102.222595 22.633356, -102.228088 22.635465, -102.233582 22.637573, -102.239075 22.639680, -102.244569 22.641788, -102.250063 22.643896, -102.255557 22.646003, -102.261051 22.648110, -102.266545 22.650217, -102.272040 22.652323, -102.277534 22.654430, -102.283029 22.656536, -102.288524 22.658643, -102.294019 22.660748, -102.299515 22.662854, -102.305010 22.664960, -102.310506 22.667065, -102.316002 22.669170, -102.321498 22.671276, -102.326994 22.673380, -102.332490 22.675485, -102.337987 22.677589, -102.343483 22.679694, -102.348980 22.681798, -102.354477 22.683902, -102.359974 22.686005, -102.365472 22.688109, -102.370969 22.690212, -102.376467 22.692316, -102.381965 22.694418, -102.387463 22.696521, -102.392961 22.698624, -102.398459 22.700726, -102.403958 22.702828, -102.409457 22.704930, -102.414955 22.707032, -102.420454 22.709134, -102.425954 22.711235, -102.431453 22.713337, -102.436953 22.715438, -102.442452 22.717539, -102.447952 22.719639, -102.453452 22.721740, -102.458952 22.723840, -102.464453 22.725940, -102.469953 22.728040, -102.475454 22.730140, -102.480955 22.732240, -102.486456 22.734339, -102.491957 22.736438, -102.497459 22.738537, -102.502960 22.740636, -102.508462 22.742735, -102.513964 22.744833, -102.519466 22.746932, -102.524968 22.749030, -102.530471 22.751127, -102.535973 22.753225, -102.541476 22.755323, -102.546979 22.757420, -102.552482 22.759517, -102.557985 22.761614, -102.563489 22.763711, -102.568992 22.765807, -102.574496 22.767904, -102.580000 22.770000, -102.584941 22.773068, -102.589882 22.776137, -102.594824 22.779205, -102.599766 22.782273, -102.604707 22.785341, -102.609650 22.788409, -102.614592 22.791476, -102.619535 22.794544, -102.624477 22.797611, -102.629420 22.800678, -102.634364 22.803745, -102.639307 22.806812, -102.644251 22.809878, -102.649195 22.812945, -102.654139 22.816011, -102.659083 22.819077, -102.664028 22.822143, -102.668973 22.825209, -102.673918 22.828275, -102.678863 22.831341, -102.683809 22.834406, -102.688754 22.837471, -102.693700 22.840537, -102.698647 22.843601, -102.703593 22.846666, -102.708540 22.849731, -102.713486 22.852796, -102.718433 22.855860, -102.723381 22.858924, -102.728328 22.861988, -102.733276 22.865052, -102.738224 22.868116, -102.743172 22.871179, -102.748120 22.874243, -102.753069 22.877306, -102.758018 22.880369, -102.762967 22.883432, -102.767916 22.886495, -102.772866 22.889558, -102.777815 22.892620, -102.782765 22.895683, -102.787716 22.898745, -102.792666 22.901807, -102.797617 22.904869, -102.802568 22.907931, -102.807519 22.910992, -102.812470 22.914054, -102.817421 22.917115, -102.822373 22.920176, -102.827325 22.923237, -102.832277 22.926298, -102.837230 22.929359, -102.842182 22.932419, -102.847135 22.935480, -102.852088 22.938540, -102.857042 22.941600, -102.861995 22.944660, -102.866949 22.947720, -102.871903 22.950779, -102.876857 22.953839, -102.881812 22.956898, -102.886766 22.959957, -102.891721 22.963016, -102.896676 22.966075, -102.901632 22.969134, -102.906587 22.972192, -102.911543 22.975250, -102.916499 22.978309, -102.921455 22.981367, -102.926412 22.984425, -102.931368 22.987482, -102.936325 22.990540, -102.941282 22.993598, -102.946240 22.996655, -102.951197 22.999712, -102.956155 23.002769, -102.961113 23.005826, -102.966071 23.008882, -102.971030 23.011939, -102.975988 23.014995, -102.980947 23.018052, -102.985907 23.021108, -102.990866 23.024164, -102.995826 23.027219, -103.000785 23.030275, -103.005745 23.033330, -103.010706 23.036386, -103.015666 23.039441, -103.020627 23.042496, -103.025588 23.045551, -103.030549 23.048605, -103.035510 23.051660, -103.040472 23.054714, -103.045434 23.057768, -103.050396 23.060822, -103.055358 23.063876, -103.060321 23.066930, -103.065284 23.069984, -103.070246 23.073037, -103.075210 23.076090, -103.080173 23.079144, -103.085137 23.082196, -103.090101 23.085249, -103.095065 23.088302, -103.100029 23.091354, -103.104994 23.094407, -103.109958 23.097459, -103.114923 23.100511, -103.119889 23.103563, -103.124854 23.106615, -103.129820 23.109666, -103.134786 23.112718, -103.139752 23.115769, -103.144718 23.118820, -103.149685 23.121871, -103.154652 23.124922, -103.159619 23.127972, -103.164586 23.131023, -103.169553 23.134073, -103.174521 23.137123, -103.179489 23.140173, -103.184457 23.143223, -103.189426 23.146273, -103.194394 23.149323, -103.199363 23.152372, -103.204332 23.155421, -103.209301 23.158470, -103.214271 23.161519, -103.219241 23.164568, -103.224211 23.167617, -103.229181 23.170665, -103.234151 23.173713, -103.239122 23.176761, -103.244093 23.179809, -103.249064 23.182857, -103.254035 23.185905, -103.259007 23.188952, -103.263979 23.192000, -103.268951 23.195047, -103.273923 23.198094, -103.278895 23.201141, -103.283868 23.204188, -103.288841 23.207234, -103.293814 23.210281, -103.298787 23.213327, -103.303761 23.216373, -103.308735 23.219419, -103.313709 23.222465, -103.318683 23.225511, -103.323658 23.228556, -103.328632 23.231601, -103.333607 23.234647, -103.338583 23.237692, -103.343558 23.240736, -103.348534 23.243781, -103.353509 23.246826, -103.358486 23.249870, -103.363462 23.252914, -103.368438 23.255958, -103.373415 23.259002, -103.378392 23.262046, -103.383369 23.265090, -103.388347 23.268133, -103.393325 23.271177, -103.398303 23.274220, -103.403281 23.277263, -103.408259 23.280305, -103.413238 23.283348, -103.418216 23.286391, -103.423195 23.289433, -103.428175 23.292475, -103.433154 23.295517, -103.438134 23.298559, -103.443114 23.301601, -103.448094 23.304642, -103.453075 23.307684, -103.458055 23.310725, -103.463036 23.313766, -103.468017 23.316807, -103.472999 23.319848, -103.477980 23.322889, -103.482962 23.325929, -103.487944 23.328969, -103.492926 23.332009, -103.497909 23.335049, -103.502891 23.338089, -103.507874 23.341129, -103.512857 23.344168, -103.517841 23.347208, -103.522824 23.350247, -103.527808 23.353286, -103.532792 23.356325, -103.537777 23.359364, -103.542761 23.362402, -103.547746 23.365441, -103.552731 23.368479, -103.557716 23.371517, -103.562701 23.374555, -103.567687 23.377593, -103.572673 23.380630, -103.577659 23.383668, -103.582645 23.386705, -103.587632 23.389742, -103.592619 23.392779, -103.597606 23.395816, -103.602593 23.398853, -103.607581 23.401889, -103.612568 23.404926, -103.617556 23.407962, -103.622545 23.410998, -103.627533 23.414034, -103.632522 23.417070, -103.637510 23.420105, -103.642500 23.423141, -103.647489 23.426176, -103.652478 23.429211, -103.657468 23.432246, -103.662458 23.435281, -103.667448 23.438315, -103.672439 23.441350, -103.677430 23.444384, -103.682421 23.447418, -103.687412 23.450452, -103.692403 23.453486, -103.697395 23.456520, -103.702387 23.459553, -103.707379 23.462586, -103.712371 23.465620, -103.717364 23.468653, -103.722356 23.471686, -103.727349 23.474718, -103.732342 23.477751, -103.737336 23.480783, -103.742330 23.483815, -103.747324 23.486848, -103.752318 23.489879, -103.757312 23.492911, -103.762307 23.495943, -103.767301 23.498974, -103.772297 23.502006, -103.777292 23.505037, -103.782287 23.508068, -103.787283 23.511098, -103.792279 23.514129, -103.797275 23.517160, -103.802272 23.520190, -103.807268 23.523220, -103.812265 23.526250, -103.817262 23.529280, -103.822260 23.532310, -103.827257 23.535339, -103.832255 23.538369, -103.837253 23.541398, -103.842252 23.544427, -103.847250 23.547456, -103.852249 23.550484, -103.857248 23.553513, -103.862247 23.556541, -103.867246 23.559570, -103.872246 23.562598, -103.877246 23.565626, -103.882246 23.568653, -103.887246 23.571681, -103.892247 23.574708, -103.897248 23.577736, -103.902249 23.580763, -103.907250 23.583790, -103.912252 23.586817, -103.917253 23.589843, -103.922255 23.592870, -103.927258 23.595896, -103.932260 23.598922, -103.937263 23.601948, -103.942266 23.604974, -103.947269 23.608000, -103.952272 23.611025, -103.957276 23.614051, -103.962279 23.617076, -103.967284 23.620101, -103.972288 23.623126, -103.977292 23.626151, -103.982297 23.629175, -103.987302 23.632200, -103.992307 23.635224, -103.997313 23.638248, -104.002318 23.641272, -104.007324 23.644296, -104.012330 23.647319, -104.017337 23.650343, -104.022343 23.653366, -104.027350 23.656389, -104.032357 23.659412, -104.037364 23.662435, -104.042372 23.665457, -104.047380 23.668480, -104.052388 23.671502, -104.057396 23.674524, -104.062404 23.677546, -104.067413 23.680568, -104.072422 23.683590, -104.077431 23.686611, -104.082440 23.689633, -104.087450 23.692654, -104.092460 23.695675, -104.097470 23.698696, -104.102480 23.701717, -104.107491 23.704737, -104.112502 23.707757, -104.117513 23.710778, -104.122524 23.713798, -104.127535 23.716818, -104.132547 23.719837, -104.137559 23.722857, -104.142571 23.725876, -104.147583 23.728896, -104.152596 23.731915, -104.157609 23.734934, -104.162622 23.737952, -104.167635 23.740971, -104.172649 23.743989, -104.177663 23.747008, -104.182677 23.750026, -104.187691 23.753044, -104.192705 23.756062, -104.197720 23.759079, -104.202735 23.762097, -104.207750 23.765114, -104.212766 23.768131, -104.217781 23.771148, -104.222797 23.774165, -104.227813 23.777182, -104.232830 23.780198, -104.237846 23.783215, -104.242863 23.786231, -104.247880 23.789247, -104.252897 23.792263, -104.257915 23.795278, -104.262932 23.798294, -104.267950 23.801309, -104.272969 23.804324, -104.277987 23.807339, -104.283006 23.810354, -104.288025 23.813369, -104.293044 23.816384, -104.298063 23.819398, -104.303083 23.822412, -104.308103 23.825426, -104.313123 23.828440, -104.318143 23.831454, -104.323163 23.834468, -104.328184 23.837481, -104.333205 23.840494, -104.338226 23.843507, -104.343248 23.846520, -104.348270 23.849533, -104.353292 23.852546, -104.358314 23.855558, -104.363336 23.858570, -104.368359 23.861582, -104.373382 23.864594, -104.378405 23.867606, -104.383428 23.870618, -104.388452 23.873629, -104.393475 23.876641, -104.398499 23.879652, -104.403524 23.882663, -104.408548 23.885673, -104.413573 23.888684, -104.418598 23.891695, -104.423623 23.894705, -104.428649 23.897715, -104.433674 23.900725, -104.438700 23.903735, -104.443726 23.906745, -104.448753 23.909754, -104.453779 23.912763, -104.458806 23.915773, -104.463833 23.918782, -104.468861 23.921790, -104.473888 23.924799, -104.478916 23.927808, -104.483944 23.930816, -104.488972 23.933824, -104.494001 23.936832, -104.499029 23.939840, -104.504058 23.942848, -104.509087 23.945855, -104.514117 23.948863, -104.519147 23.951870, -104.524176 23.954877, -104.529207 23.957884, -104.534237 23.960891, -104.539268 23.963897, -104.544298 23.966904, -104.549329 23.969910, -104.554361 23.972916, -104.559392 23.975922, -104.564424 23.978928, -104.569456 23.981933, -104.574488 23.984939, -104.579521 23.987944, -104.584553 23.990949, -104.589586 23.993954, -104.594620 23.996959, -104.599653 23.999963, -104.604687 24.002968, -104.609720 24.005972, -104.614755 24.008976, -104.619789 24.011980, -104.624824 24.014984, -104.629858 24.017987, -104.634893 24.020991, -104.639929 24.023994, -104.644964 24.026997, -104.650000 24.030000, -104.651574 24.035307, -104.653148 24.040614, -104.654722 24.045922, -104.656296 24.051229, -104.657871 24.056536, -104.659445 24.061843, -104.661020 24.067150, -104.662595 24.072457, -104.664170 24.077764, -104.665745 24.083071, -104.667320 24.088379, -104.668895 24.093686, -104.670471 24.098993, -104.672046 24.104300, -104.673622 24.109607, -104.675198 24.114914, -104.676774 24.120221, -104.678350 24.125528, -104.679926 24.130834, -104.681503 24.136141, -104.683079 24.141448, -104.684656 24.146755, -104.686233 24.152062, -104.687810 24.157369, -104.689387 24.162676, -104.690964 24.167982, -104.692541 24.173289, -104.694119 24.178596, -104.695696 24.183903, -104.697274 24.189210, -104.698852 24.194516, -104.700430 24.199823, -104.702008 24.205130, -104.703586 24.210436, -104.705164 24.215743, -104.706743 24.221050, -104.708321 24.226356, -104.709900 24.231663, -104.711479 24.236970, -104.713058 24.242276, -104.714637 24.247583, -104.716216 24.252889, -104.717796 24.258196, -104.719375 24.263502, -104.720955 24.268809, -104.722535 24.274115, -104.724115 24.279422, -104.725695 24.284728, -104.727275 24.290035, -104.728855 24.295341, -104.730436 24.300648, -104.732016 24.305954, -104.733597 24.311260, -104.735178 24.316567, -104.736759 24.321873, -104.738340 24.327179, -104.739921 24.332486, -104.741503 24.337792, -104.743084 24.343098, -104.744666 24.348405, -104.746248 24.353711, -104.747829 24.359017, -104.749411 24.364323, -104.750994 24.369629, -104.752576 24.374936, -104.754158 24.380242, -104.755741 24.385548, -104.757324 24.390854, -104.758907 24.396160, -104.760490 24.401466, -104.762073 24.406772, -104.763656 24.412078, -104.765239 24.417385, -104.766823 24.422691, -104.768406 24.427997, -104.769990 24.433303, -104.771574 24.438609, -104.773158 24.443914, -104.774742 24.449220, -104.776327 24.454526, -104.777911 24.459832, -104.779496 24.465138, -104.781080 24.470444, -104.782665 24.475750, -104.784250 24.481056, -104.785835 24.486362, -104.787420 24.491667, -104.789006 24.496973, -104.790591 24.502279, -104.792177 24.507585, -104.793763 24.512891, -104.795349 24.518196, -104.796935 24.523502, -104.798521 24.528808, -104.800107 24.534113, -104.801694 24.539419, -104.803280 24.544725, -104.804867 24.550030, -104.806454 24.555336, -104.808041 24.560642, -104.809628 24.565947, -104.811215 24.571253, -104.812803 24.576558, -104.814390 24.581864, -104.815978 24.587169, -104.817566 24.592475, -104.819153 24.597780, -104.820742 24.603086, -104.822330 24.608391, -104.823918 24.613697, -104.825507 24.619002, -104.827095 24.624308, -104.828684 24.629613, -104.830273 24.634918, -104.831862 24.640224, -104.833451 24.645529, -104.835040 24.650834, -104.836630 24.656140, -104.838219 24.661445, -104.839809 24.666750, -104.841399 24.672055, -104.842989 24.677361, -104.844579 24.682666, -104.846169 24.687971, -104.847759 24.693276, -104.849350 24.698581, -104.850940 24.703887, -104.852531 24.709192, -104.854122 24.714497, -104.855713 24.719802, -104.857304 24.725107, -104.858896 24.730412, -104.860487 24.735717, -104.862079 24.741022, -104.863670 24.746327, -104.865262 24.751632, -104.866854 24.756937, -104.868446 24.762242, -104.870038 24.767547, -104.871631 24.772852, -104.873223 24.778157, -104.874816 24.783462, -104.876409 24.788767, -104.878002 24.794072, -104.879595 24.799376, -104.881188 24.804681, -104.882781 24.809986, -104.884375 24.815291, -104.885968 24.820596, -104.887562 24.825900, -104.889156 24.831205, -104.890750 24.836510, -104.892344 24.841815, -104.893939 24.847119, -104.895533 24.852424, -104.897128 24.857729, -104.898722 24.863033, -104.900317 24.868338, -104.901912 24.873643, -104.903507 24.878947, -104.905103 24.884252, -104.906698 24.889556, -104.908293 24.894861, -104.909889 24.900165, -104.911485 24.905470, -104.913081 24.910774, -104.914677 24.916079, -104.916273 24.921383, -104.917870 24.926688, -104.919466 24.931992, -104.921063 24.937297, -104.922659 24.942601, -104.924256 24.947905, -104.925853 24.953210, -104.927451 24.958514, -104.929048 24.963818, -104.930645 24.969123, -104.932243 24.974427, -104.933841 24.979731, -104.935439 24.985035, -104.937037 24.990340, -104.938635 24.995644, -104.940233 25.000948, -104.941831 25.006252, -104.943430 25.011556, -104.945029 25.016861, -104.946628 25.022165, -104.948227 25.027469, -104.949826 25.032773, -104.951425 25.038077, -104.953024 25.043381, -104.954624 25.048685, -104.956223 25.053989, -104.957823 25.059293, -104.959423 25.064597, -104.961023 25.069901, -104.962623 25.075205, -104.964224 25.080509, -104.965824 25.085813, -104.967425 25.091117, -104.969026 25.096421, -104.970627 25.101725, -104.972228 25.107029, -104.973829 25.112332, -104.975430 25.117636, -104.977032 25.122940, -104.978633 25.128244, -104.980235 25.133548, -104.981837 25.138851, -104.983439 25.144155, -104.985041 25.149459, -104.986643 25.154763, -104.988246 25.160066, -104.989848 25.165370, -104.991451 25.170674, -104.993054 25.175977, -104.994657 25.181281, -104.996260 25.186584, -104.997863 25.191888, -104.999467 25.197192, -105.001070 25.202495, -105.002674 25.207799, -105.004278 25.213102, -105.005882 25.218406, -105.007486 25.223709, -105.009090 25.229013, -105.010695 25.234316, -105.012299 25.239620, -105.013904 25.244923, -105.015509 25.250226, -105.017114 25.255530, -105.018719 25.260833, -105.020324 25.266136, -105.021929 25.271440, -105.023535 25.276743, -105.025141 25.282046, -105.026746 25.287350, -105.028352 25.292653, -105.029958 25.297956, -105.031565 25.303259, -105.033171 25.308563, -105.034778 25.313866, -105.036384 25.319169, -105.037991 25.324472, -105.039598 25.329775, -105.041205 25.335078, -105.042812 25.340381, -105.044420 25.345684, -105.046027 25.350988, -105.047635 25.356291, -105.049242 25.361594, -105.050850 25.366897, -105.052458 25.372200, -105.054067 25.377503, -105.055675 25.382806, -105.057283 25.388108, -105.058892 25.393411, -105.060501 25.398714, -105.062110 25.404017, -105.063719 25.409320, -105.065328 25.414623, -105.066937 25.419926, -105.068547 25.425229, -105.070156 25.430531, -105.071766 25.435834, -105.073376 25.441137, -105.074986 25.446440, -105.076596 25.451742, -105.078206 25.457045, -105.079817 25.462348, -105.081428 25.467651, -105.083038 25.472953, -105.084649 25.478256, -105.086260 25.483558, -105.087871 25.488861, -105.089483 25.494164, -105.091094 25.499466, -105.092706 25.504769, -105.094317 25.510071, -105.095929 25.515374, -105.097541 25.520676, -105.099154 25.525979, -105.100766 25.531281, -105.102378 25.536584, -105.103991 25.541886, -105.105604 25.547189, -105.107217 25.552491, -105.108830 25.557793, -105.110443 25.563096, -105.112056 25.568398, -105.113669 25.573700, -105.115283 25.579003, -105.116897 25.584305, -105.118511 25.589607, -105.120125 25.594910, -105.121739 25.600212, -105.123353 25.605514, -105.124968 25.610816, -105.126582 25.616118, -105.128197 25.621421, -105.129812 25.626723, -105.131427 25.632025, -105.133042 25.637327, -105.134657 25.642629, -105.136273 25.647931, -105.137888 25.653233, -105.139504 25.658535, -105.141120 25.663837, -105.142736 25.669139, -105.144352 25.674441, -105.145969 25.679743, -105.147585 25.685045, -105.149202 25.690347, -105.150818 25.695649, -105.152435 25.700951, -105.154052 25.706253, -105.155669 25.711555, -105.157287 25.716857, -105.158904 25.722158, -105.160522 25.727460, -105.162140 25.732762, -105.163758 25.738064, -105.165376 25.743366, -105.166994 25.748667, -105.168612 25.753969, -105.170231 25.759271, -105.171849 25.764572, -105.173468 25.769874, -105.175087 25.775176, -105.176706 25.780477, -105.178325 25.785779, -105.179944 25.791081, -105.181564 25.796382, -105.183184 25.801684, -105.184803 25.806985, -105.186423 25.812287, -105.188043 25.817588, -105.189664 25.822890, -105.191284 25.828191, -105.192904 25.833493, -105.194525 25.838794, -105.196146 25.844096, -105.197767 25.849397, -105.199388 25.854698, -105.201009 25.860000, -105.202631 25.865301, -105.204252 25.870602, -105.205874 25.875904, -105.207496 25.881205, -105.209118 25.886506, -105.210740 25.891807, -105.212362 25.897109, -105.213984 25.902410, -105.215607 25.907711, -105.217230 25.913012, -105.218852 25.918313, -105.220475 25.923615, -105.222098 25.928916, -105.223722 25.934217, -105.225345 25.939518, -105.226969 25.944819, -105.228592 25.950120, -105.230216 25.955421, -105.231840 25.960722, -105.233464 25.966023, -105.235089 25.971324, -105.236713 25.976625, -105.238338 25.981926, -105.239963 25.987227, -105.241587 25.992528, -105.243212 25.997829, -105.244838 26.003130, -105.246463 26.008430, -105.248088 26.013731, -105.249714 26.019032, -105.251340 26.024333, -105.252966 26.029634, -105.254592 26.034934, -105.256218 26.040235, -105.257844 26.045536, -105.259471 26.050837, -105.261097 26.056137, -105.262724 26.061438, -105.264351 26.066739, -105.265978 26.072039, -105.267606 26.077340, -105.269233 26.082641, -105.270860 26.087941, -105.272488 26.093242, -105.274116 26.098542, -105.275744 26.103843, -105.277372 26.109143, -105.279000 26.114444, -105.280629 26.119744, -105.282257 26.125045, -105.283886 26.130345, -105.285515 26.135646, -105.287144 26.140946, -105.288773 26.146246, -105.290402 26.151547, -105.292032 26.156847, -105.293661 26.162147, -105.295291 26.167448, -105.296921 26.172748, -105.298551 26.178048, -105.300181 26.183349, -105.301812 26.188649, -105.303442 26.193949, -105.305073 26.199249, -105.306703 26.204549, -105.308334 26.209850, -105.309965 26.215150, -105.311597 26.220450, -105.313228 26.225750, -105.314860 26.231050, -105.316491 26.236350, -105.318123 26.241650, -105.319755 26.246950, -105.321387 26.252250, -105.323019 26.257550, -105.324652 26.262850, -105.326284 26.268150, -105.327917 26.273450, -105.329550 26.278750, -105.331183 26.284050, -105.332816 26.289350, -105.334450 26.294650, -105.336083 26.299949, -105.337717 26.305249, -105.339350 26.310549, -105.340984 26.315849, -105.342618 26.321149, -105.344253 26.326448, -105.345887 26.331748, -105.347521 26.337048, -105.349156 26.342348, -105.350791 26.347647, -105.352426 26.352947, -105.354061 26.358247, -105.355696 26.363546, -105.357332 26.368846, -105.358967 26.374145, -105.360603 26.379445, -105.362239 26.384745, -105.363875 26.390044, -105.365511 26.395344, -105.367147 26.400643, -105.368784 26.405943, -105.370420 26.411242, -105.372057 26.416541, -105.373694 26.421841, -105.375331 26.427140, -105.376968 26.432440, -105.378606 26.437739, -105.380243 26.443038, -105.381881 26.448338, -105.383519 26.453637, -105.385157 26.458936, -105.386795 26.464236, -105.388433 26.469535, -105.390071 26.474834, -105.391710 26.480133, -105.393349 26.485432, -105.394988 26.490732, -105.396627 26.496031, -105.398266 26.501330, -105.399905 26.506629, -105.401545 26.511928, -105.403184 26.517227, -105.404824 26.522526, -105.406464 26.527825, -105.408104 26.533124, -105.409744 26.538423, -105.411385 26.543722, -105.413025 26.549021, -105.414666 26.554320, -105.416307 26.559619, -105.417948 26.564918, -105.419589 26.570217, -105.421230 26.575516, -105.422872 26.580815, -105.424513 26.586114, -105.426155 26.591412, -105.427797 26.596711, -105.429439 26.602010, -105.431081 26.607309, -105.432723 26.612608, -105.434366 26.617906, -105.436009 26.623205, -105.437651 26.628504, -105.439294 26.633802, -105.440938 26.639101, -105.442581 26.644400, -105.444224 26.649698, -105.445868 26.654997, -105.447512 26.660295, -105.449155 26.665594, -105.450799 26.670893, -105.452444 26.676191, -105.454088 26.681490, -105.455732 26.686788, -105.457377 26.692086, -105.459022 26.697385, -105.460667 26.702683, -105.462312 26.707982, -105.463957 26.713280, -105.465603 26.718579, -105.467248 26.723877, -105.468894 26.729175, -105.470540 26.734474, -105.472186 26.739772, -105.473832 26.745070, -105.475478 26.750368, -105.477125 26.755667, -105.478771 26.760965, -105.480418 26.766263, -105.482065 26.771561, -105.483712 26.776859, -105.485360 26.782157, -105.487007 26.787456, -105.488655 26.792754, -105.490302 26.798052, -105.491950 26.803350, -105.493598 26.808648, -105.495246 26.813946, -105.496895 26.819244, -105.498543 26.824542, -105.500192 26.829840, -105.501841 26.835138, -105.503490 26.840436, -105.505139 26.845734, -105.506788 26.851032, -105.508437 26.856329, -105.510087 26.861627, -105.511737 26.866925, -105.513386 26.872223, -105.515036 26.877521, -105.516687 26.882818, -105.518337 26.888116, -105.519987 26.893414, -105.521638 26.898712, -105.523289 26.904009, -105.524940 26.909307, -105.526591 26.914605, -105.528242 26.919902, -105.529894 26.925200, -105.531545 26.930498, -105.533197 26.935795, -105.534849 26.941093, -105.536501 26.946390, -105.538153 26.951688, -105.539806 26.956985, -105.541458 26.962283, -105.543111 26.967580, -105.544764 26.972878, -105.546416 26.978175, -105.548070 26.983473, -105.549723 26.988770, -105.551376 26.994067, -105.553030 26.999365, -105.554684 27.004662, -105.556338 27.009959, -105.557992 27.015257, -105.559646 27.020554, -105.561300 27.025851, -105.562955 27.031148, -105.564610 27.036446, -105.566264 27.041743, -105.567919 27.047040, -105.569575 27.052337, -105.571230 27.057634, -105.572885 27.062931, -105.574541 27.068229, -105.576197 27.073526, -105.577853 27.078823, -105.579509 27.084120, -105.581165 27.089417, -105.582821 27.094714, -105.584478 27.100011, -105.586135 27.105308, -105.587792 27.110605, -105.589449 27.115902, -105.591106 27.121199, -105.592763 27.126495, -105.594421 27.131792, -105.596078 27.137089, -105.597736 27.142386, -105.599394 27.147683, -105.601052 27.152980, -105.602711 27.158276, -105.604369 27.163573, -105.606028 27.168870, -105.607686 27.174167, -105.609345 27.179463, -105.611004 27.184760, -105.612664 27.190057, -105.614323 27.195353, -105.615983 27.200650, -105.617642 27.205946, -105.619302 27.211243, -105.620962 27.216540, -105.622622 27.221836, -105.624283 27.227133, -105.625943 27.232429, -105.627604 27.237726, -105.629265 27.243022, -105.630926 27.248318, -105.632587 27.253615, -105.634248 27.258911, -105.635910 27.264208, -105.637571 27.269504, -105.639233 27.274800, -105.640895 27.280097, -105.642557 27.285393, -105.644219 27.290689, -105.645882 27.295986, -105.647544 27.301282, -105.649207 27.306578, -105.650870 27.311874, -105.652533 27.317170, -105.654196 27.322467, -105.655859 27.327763, -105.657523 27.333059, -105.659187 27.338355, -105.660850 27.343651, -105.662514 27.348947, -105.664179 27.354243, -105.665843 27.359539, -105.667507 27.364835, -105.669172 27.370131, -105.670837 27.375427, -105.672502 27.380723, -105.674167 27.386019, -105.675832 27.391315, -105.677497 27.396611, -105.679163 27.401907, -105.680829 27.407203, -105.682495 27.412498, -105.684161 27.417794, -105.685827 27.423090, -105.687493 27.428386, -105.689160 27.433681, -105.690827 27.438977, -105.692493 27.444273, -105.694160 27.449569, -105.695828 27.454864, -105.697495 27.460160, -105.699162 27.465456, -105.700830 27.470751, -105.702498 27.476047, -105.704166 27.481342, -105.705834 27.486638, -105.707502 27.491933, -105.709171 27.497229, -105.710839 27.502524, -105.712508 27.507820, -105.714177 27.513115, -105.715846 27.518411, -105.717516 27.523706, -105.719185 27.529002, -105.720855 27.534297, -105.722524 27.539592, -105.724194 27.544888, -105.725864 27.550183, -105.727535 27.555478, -105.729205 27.560774, -105.730876 27.566069, -105.732546 27.571364, -105.734217 27.576659, -105.735888 27.581954, -105.737559 27.587250, -105.739231 27.592545, -105.740902 27.597840, -105.742574 27.603135, -105.744246 27.608430, -105.745918 27.613725, -105.747590 27.619020, -105.749262 27.624315, -105.750935 27.629610, -105.752607 27.634905, -105.754280 27.640200, -105.755953 27.645495, -105.757626 27.650790, -105.759300 27.656085, -105.760973 27.661380, -105.762647 27.666675, -105.764321 27.671970, -105.765994 27.677264, -105.767669 27.682559, -105.769343 27.687854, -105.771017 27.693149, -105.772692 27.698444, -105.774367 27.703738, -105.776042 27.709033, -105.777717 27.714328, -105.779392 27.719622, -105.781067 27.724917, -105.782743 27.730212, -105.784419 27.735506, -105.786095 27.740801, -105.787771 27.746095, -105.789447 27.751390, -105.791123 27.756685, -105.792800 27.761979, -105.794477 27.767273, -105.796153 27.772568, -105.797830 27.777862, -105.799508 27.783157, -105.801185 27.788451, -105.802863 27.793746, -105.804540 27.799040, -105.806218 27.804334, -105.807896 27.809629, -105.809574 27.814923, -105.811253 27.820217, -105.812931 27.825512, -105.814610 27.830806, -105.816289 27.836100, -105.817968 27.841394, -105.819647 27.846688, -105.821326 27.851983, -105.823006 27.857277, -105.824685 27.862571, -105.826365 27.867865, -105.828045 27.873159, -105.829725 27.878453, -105.831406 27.883747, -105.833086 27.889041, -105.834767 27.894335, -105.836448 27.899629, -105.838129 27.904923, -105.839810 27.910217, -105.841491 27.915511, -105.843172 27.920805, -105.844854 27.926099, -105.846536 27.931393, -105.848218 27.936686, -105.849900 27.941980, -105.851582 27.947274, -105.853265 27.952568, -105.854947 27.957862, -105.856630 27.963155, -105.858313 27.968449, -105.859996 27.973743, -105.861680 27.979036, -105.863363 27.984330, -105.865047 27.989624, -105.866730 27.994917, -105.868414 28.000211, -105.870098 28.005504, -105.871783 28.010798, -105.873467 28.016092, -105.875152 28.021385, -105.876837 28.026679, -105.878521 28.031972, -105.880207 28.037265, -105.881892 28.042559, -105.883577 28.047852, -105.885263 28.053146, -105.886949 28.058439, -105.888635 28.063732, -105.890321 28.069026, -105.892007 28.074319, -105.893693 28.079612, -105.895380 28.084906, -105.897067 28.090199, -105.898754 28.095492, -105.900441 28.100785, -105.902128 28.106078, -105.903815 28.111372, -105.905503 28.116665, -105.907191 28.121958, -105.908879 28.127251, -105.910567 28.132544, -105.912255 28.137837, -105.913944 28.143130, -105.915632 28.148423, -105.917321 28.153716, -105.919010 28.159009, -105.920699 28.164302, -105.922388 28.169595, -105.924078 28.174888, -105.925767 28.180181, -105.927457 28.185474, -105.929147 28.190766, -105.930837 28.196059, -105.932527 28.201352, -105.934218 28.206645, -105.935908 28.211938, -105.937599 28.217230, -105.939290 28.222523, -105.940981 28.227816, -105.942672 28.233109, -105.944364 28.238401, -105.946055 28.243694, -105.947747 28.248986, -105.949439 28.254279, -105.951131 28.259572, -105.952824 28.264864, -105.954516 28.270157, -105.956209 28.275449, -105.957901 28.280742, -105.959594 28.286034, -105.961288 28.291327, -105.962981 28.296619, -105.964674 28.301912, -105.966368 28.307204, -105.968062 28.312496, -105.969756 28.317789, -105.971450 28.323081, -105.973144 28.328373, -105.974839 28.333666, -105.976533 28.338958, -105.978228 28.344250, -105.979923 28.349542, -105.981618 28.354834, -105.983313 28.360127, -105.985009 28.365419, -105.986705 28.370711, -105.988400 28.376003, -105.990096 28.381295, -105.991793 28.386587, -105.993489 28.391879, -105.995185 28.397171, -105.996882 28.402463, -105.998579 28.407755, -106.000276 28.413047, -106.001973 28.418339, -106.003670 28.423631, -106.005368 28.428923, -106.007066 28.434215, -106.008764 28.439507, -106.010462 28.444799, -106.012160 28.450091, -106.013858 28.455382, -106.015557 28.460674, -106.017255 28.465966, -106.018954 28.471258, -106.020653 28.476549, -106.022353 28.481841, -106.024052 28.487133, -106.025751 28.492424, -106.027451 28.497716, -106.029151 28.503008, -106.030851 28.508299, -106.032551 28.513591, -106.034252 28.518882, -106.035952 28.524174, -106.037653 28.529465, -106.039354 28.534757, -106.041055 28.540048, -106.042756 28.545340, -106.044458 28.550631, -106.046160 28.555923, -106.047861 28.561214, -106.049563 28.566505, -106.051265 28.571797, -106.052968 28.577088, -106.054670 28.582379, -106.056373 28.587671, -106.058076 28.592962, -106.059779 28.598253, -106.061482 28.603544, -106.063185 28.608835, -106.064888 28.614127, -106.066592 28.619418, -106.068296 28.624709, -106.070000 28.630000, -106.070714 28.635457, -106.071429 28.640915, -106.072143 28.646372, -106.072858 28.651829, -106.073572 28.657286, -106.074287 28.662744, -106.075002 28.668201, -106.075717 28.673658, -106.076432 28.679115, -106.077147 28.684573, -106.077862 28.690030, -106.078577 28.695487, -106.079292 28.700944, -106.080007 28.706402, -106.080723 28.711859, -106.081438 28.717316, -106.082154 28.722773, -106.082869 28.728230, -106.083585 28.733688, -106.084301 28.739145, -106.085016 28.744602, -106.085732 28.750059, -106.086448 28.755516, -106.087164 28.760974, -106.087880 28.766431, -106.088597 28.771888, -106.089313 28.777345, -106.090029 28.782802, -106.090746 28.788259, -106.091462 28.793717, -106.092179 28.799174, -106.092895 28.804631, -106.093612 28.810088, -106.094329 28.815545, -106.095046 28.821002, -106.095763 28.826460, -106.096480 28.831917, -106.097197 28.837374, -106.097914 28.842831, -106.098631 28.848288, -106.099348 28.853745, -106.100066 28.859202, -106.100783 28.864659, -106.101501 28.870117, -106.102218 28.875574, -106.102936 28.881031, -106.103654 28.886488, -106.104372 28.891945, -106.105090 28.897402, -106.105808 28.902859, -106.106526 28.908316, -106.107244 28.913773, -106.107962 28.919230, -106.108680 28.924688, -106.109399 28.930145, -106.110117 28.935602, -106.110836 28.941059, -106.111554 28.946516, -106.112273 28.951973, -106.112992 28.957430, -106.113710 28.962887, -106.114429 28.968344, -106.115148 28.973801, -106.115867 28.979258, -106.116586 28.984715, -106.117306 28.990172, -106.118025 28.995629, -106.118744 29.001086, -106.119464 29.006543, -106.120183 29.012000, -106.120903 29.017457, -106.121622 29.022914, -106.122342 29.028371, -106.123062 29.033828, -106.123782 29.039285, -106.124502 29.044742, -106.125222 29.050199, -106.125942 29.055656, -106.126662 29.061113, -106.127382 29.066570, -106.128103 29.072027, -106.128823 29.077484, -106.129544 29.082941, -106.130264 29.088398, -106.130985 29.093855, -106.131706 29.099312, -106.132426 29.104769, -106.133147 29.110226, -106.133868 29.115683, -106.134589 29.121140, -106.135310 29.126597, -106.136032 29.132054, -106.136753 29.137510, -106.137474 29.142967, -106.138196 29.148424, -106.138917 29.153881, -106.139639 29.159338, -106.140360 29.164795, -106.141082 29.170252, -106.141804 29.175709, -106.142526 29.181166, -106.143248 29.186623, -106.143970 29.192080, -106.144692 29.197536, -106.145414 29.202993, -106.146136 29.208450, -106.146859 29.213907, -106.147581 29.219364, -106.148303 29.224821, -106.149026 29.230278, -106.149749 29.235734, -106.150471 29.241191, -106.151194 29.246648, -106.151917 29.252105, -106.152640 29.257562, -106.153363 29.263019, -106.154086 29.268476, -106.154809 29.273932, -106.155533 29.279389, -106.156256 29.284846, -106.156979 29.290303, -106.157703 29.295760, -106.158426 29.301216, -106.159150 29.306673, -106.159874 29.312130, -106.160598 29.317587, -106.161321 29.323044, -106.162045 29.328500, -106.162769 29.333957, -106.163494 29.339414, -106.164218 29.344871, -106.164942 29.350328, -106.165666 29.355784, -106.166391 29.361241, -106.167115 29.366698, -106.167840 29.372155, -106.168564 29.377611, -106.169289 29.383068, -106.170014 29.388525, -106.170739 29.393982, -106.171464 29.399438, -106.172189 29.404895, -106.172914 29.410352, -106.173639 29.415809, -106.174365 29.421265, -106.175090 29.426722, -106.175815 29.432179, -106.176541 29.437635, -106.177266 29.443092, -106.177992 29.448549, -106.178718 29.454006, -106.179444 29.459462, -106.180170 29.464919, -106.180896 29.470376, -106.181622 29.475832, -106.182348 29.481289, -106.183074 29.486746, -106.183800 29.492202, -106.184527 29.497659, -106.185253 29.503116, -106.185980 29.508572, -106.186706 29.514029, -106.187433 29.519486, -106.188160 29.524942, -106.188886 29.530399, -106.189613 29.535856, -106.190340 29.541312, -106.191067 29.546769, -106.191795 29.552225, -106.192522 29.557682, -106.193249 29.563139, -106.193977 29.568595, -106.194704 29.574052, -106.195432 29.579509, -106.196159 29.584965, -106.196887 29.590422, -106.197615 29.595878, -106.198342 29.601335, -106.199070 29.606792, -106.199798 29.612248, -106.200527 29.617705, -106.201255 29.623161, -106.201983 29.628618, -106.202711 29.634074, -106.203440 29.639531, -106.204168 29.644988, -106.204897 29.650444, -106.205625 29.655901, -106.206354 29.661357, -106.207083 29.666814, -106.207812 29.672270, -106.208541 29.677727, -106.209270 29.683183, -106.209999 29.688640, -106.210728 29.694096, -106.211457 29.699553, -106.212187 29.705009, -106.212916 29.710466, -106.213646 29.715922, -106.214375 29.721379, -106.215105 29.726836, -106.215835 29.732292, -106.216565 29.737748, -106.217295 29.743205, -106.218025 29.748661, -106.218755 29.754118, -106.219485 29.759574, -106.220215 29.765031, -106.220945 29.770487, -106.221676 29.775944, -106.222406 29.781400, -106.223137 29.786857, -106.223867 29.792313, -106.224598 29.797770, -106.225329 29.803226, -106.226060 29.808683, -106.226791 29.814139, -106.227522 29.819595, -106.228253 29.825052, -106.228984 29.830508, -106.229715 29.835965, -106.230447 29.841421, -106.231178 29.846878, -106.231910 29.852334, -106.232641 29.857790, -106.233373 29.863247, -106.234105 29.868703, -106.234837 29.874160, -106.235568 29.879616, -106.236300 29.885072, -106.237032 29.890529, -106.237765 29.895985, -106.238497 29.901441, -106.239229 29.906898, -106.239962 29.912354, -106.240694 29.917811, -106.241427 29.923267, -106.242159 29.928723, -106.242892 29.934180, -106.243625 29.939636, -106.244358 29.945092, -106.245091 29.950549, -106.245824 29.956005, -106.246557 29.961461, -106.247290 29.966918, -106.248023 29.972374, -106.248757 29.977830, -106.249490 29.983287, -106.250223 29.988743, -106.250957 29.994199, -106.251691 29.999655, -106.252425 30.005112, -106.253158 30.010568, -106.253892 30.016024, -106.254626 30.021481, -106.255360 30.026937, -106.256095 30.032393, -106.256829 30.037849, -106.257563 30.043306, -106.258298 30.048762, -106.259032 30.054218, -106.259767 30.059674, -106.260501 30.065131, -106.261236 30.070587, -106.261971 30.076043, -106.262706 30.081499, -106.263441 30.086956, -106.264176 30.092412, -106.264911 30.097868, -106.265646 30.103324, -106.266381 30.108781, -106.267117 30.114237, -106.267852 30.119693, -106.268588 30.125149, -106.269323 30.130605, -106.270059 30.136062, -106.270795 30.141518, -106.271531 30.146974, -106.272267 30.152430, -106.273003 30.157886, -106.273739 30.163343, -106.274475 30.168799, -106.275211 30.174255, -106.275948 30.179711, -106.276684 30.185167, -106.277421 30.190623, -106.278157 30.196080, -106.278894 30.201536, -106.279631 30.206992, -106.280367 30.212448, -106.281104 30.217904, -106.281841 30.223360, -106.282578 30.228816, -106.283316 30.234272, -106.284053 30.239729, -106.284790 30.245185, -106.285528 30.250641, -106.286265 30.256097, -106.287003 30.261553, -106.287740 30.267009, -106.288478 30.272465, -106.289216 30.277921, -106.289954 30.283377, -106.290692 30.288833, -106.291430 30.294290, -106.292168 30.299746, -106.292906 30.305202, -106.293645 30.310658, -106.294383 30.316114, -106.295122 30.321570, -106.295860 30.327026, -106.296599 30.332482, -106.297338 30.337938, -106.298076 30.343394, -106.298815 30.348850, -106.299554 30.354306, -106.300293 30.359762, -106.301032 30.365218, -106.301772 30.370674, -106.302511 30.376130, -106.303250 30.381586, -106.303990 30.387042, -106.304729 30.392498, -106.305469 30.397954, -106.306209 30.403410, -106.306949 30.408866, -106.307688 30.414322, -106.308428 30.419778, -106.309168 30.425234, -106.309909 30.430690, -106.310649 30.436146, -106.311389 30.441602, -106.312130 30.447058, -106.312870 30.452514, -106.313611 30.457970, -106.314351 30.463426, -106.315092 30.468882, -106.315833 30.474338, -106.316574 30.479794, -106.317315 30.485250, -106.318056 30.490706, -106.318797 30.496162, -106.319538 30.501617, -106.320279 30.507073, -106.321021 30.512529, -106.321762 30.517985, -106.322504 30.523441, -106.323245 30.528897, -106.323987 30.534353, -106.324729 30.539809, -106.325471 30.545265, -106.326213 30.550721, -106.326955 30.556176, -106.327697 30.561632, -106.328439 30.567088, -106.329181 30.572544, -106.329924 30.578000, -106.330666 30.583456, -106.331409 30.588912, -106.332151 30.594367, -106.332894 30.599823, -106.333637 30.605279, -106.334380 30.610735, -106.335123 30.616191, -106.335866 30.621647, -106.336609 30.627102, -106.337352 30.632558, -106.338095 30.638014, -106.338839 30.643470, -106.339582 30.648926, -106.340326 30.654382, -106.341069 30.659837, -106.341813 30.665293, -106.342557 30.670749, -106.343301 30.676205, -106.344045 30.681660, -106.344789 30.687116, -106.345533 30.692572, -106.346277 30.698028, -106.347022 30.703484, -106.347766 30.708939, -106.348510 30.714395, -106.349255 30.719851, -106.350000 30.725307, -106.350744 30.730762, -106.351489 30.736218, -106.352234 30.741674, -106.352979 30.747129, -106.353724 30.752585, -106.354469 30.758041, -106.355215 30.763497, -106.355960 30.768952, -106.356705 30.774408, -106.357451 30.779864, -106.358196 30.785319, -106.358942 30.790775, -106.359688 30.796231, -106.360434 30.801687, -106.361179 30.807142, -106.361925 30.812598, -106.362672 30.818054, -106.363418 30.823509, -106.364164 30.828965, -106.364910 30.834421, -106.365657 30.839876, -106.366403 30.845332, -106.367150 30.850788, -106.367896 30.856243, -106.368643 30.861699, -106.369390 30.867154, -106.370137 30.872610, -106.370884 30.878066, -106.371631 30.883521, -106.372378 30.888977, -106.373126 30.894433, -106.373873 30.899888, -106.374620 30.905344, -106.375368 30.910799, -106.376116 30.916255, -106.376863 30.921711, -106.377611 30.927166, -106.378359 30.932622, -106.379107 30.938077, -106.379855 30.943533, -106.380603 30.948988, -106.381351 30.954444, -106.382100 30.959900, -106.382848 30.965355, -106.383596 30.970811, -106.384345 30.976266, -106.385094 30.981722, -106.385842 30.987177, -106.386591 30.992633, -106.387340 30.998088, -106.388089 31.003544, -106.388838 31.008999, -106.389587 31.014455, -106.390336 31.019911, -106.391086 31.025366, -106.391835 31.030822, -106.392585 31.036277, -106.393334 31.041733, -106.394084 31.047188, -106.394834 31.052644, -106.395583 31.058099, -106.396333 31.063554, -106.397083 31.069010, -106.397834 31.074465, -106.398584 31.079921, -106.399334 31.085376, -106.400084 31.090832, -106.400835 31.096287, -106.401585 31.101743, -106.402336 31.107198, -106.403087 31.112654, -106.403837 31.118109, -106.404588 31.123564, -106.405339 31.129020, -106.406090 31.134475, -106.406841 31.139931, -106.407593 31.145386, -106.408344 31.150842, -106.409095 31.156297, -106.409847 31.161752, -106.410598 31.167208, -106.411350 31.172663, -106.412102 31.178119, -106.412854 31.183574, -106.413606 31.189029, -106.414358 31.194485, -106.415110 31.199940, -106.415862 31.205395, -106.416614 31.210851, -106.417366 31.216306, -106.418119 31.221762, -106.418871 31.227217, -106.419624 31.232672, -106.420377 31.238128, -106.421129 31.243583, -106.421882 31.249038, -106.422635 31.254494, -106.423388 31.259949, -106.424141 31.265404, -106.424895 31.270860, -106.425648 31.276315, -106.426401 31.281770, -106.427155 31.287225, -106.427908 31.292681, -106.428662 31.298136, -106.429416 31.303591, -106.430170 31.309047, -106.430923 31.314502, -106.431677 31.319957, -106.432432 31.325412, -106.433186 31.330868, -106.433940 31.336323, -106.434694 31.341778, -106.435449 31.347233, -106.436203 31.352689, -106.436958 31.358144, -106.437713 31.363599, -106.438467 31.369054, -106.439222 31.374510, -106.439977 31.379965, -106.440732 31.385420, -106.441487 31.390875, -106.442243 31.396331, -106.442998 31.401786, -106.443753 31.407241, -106.444509 31.412696, -106.445264 31.418151, -106.446020 31.423607, -106.446776 31.429062, -106.447532 31.434517, -106.448288 31.439972, -106.449044 31.445427, -106.449800 31.450882, -106.450556 31.456338, -106.451312 31.461793, -106.452069 31.467248, -106.452825 31.472703, -106.453582 31.478158, -106.454338 31.483613, -106.455095 31.489068, -106.455852 31.494524, -106.456609 31.499979, -106.457366 31.505434, -106.458123 31.510889, -106.458880 31.516344, -106.459637 31.521799, -106.460394 31.527254, -106.461152 31.532709, -106.461909 31.538165, -106.462667 31.543620, -106.463425 31.549075, -106.464182 31.554530, -106.464940 31.559985, -106.465698 31.565440, -106.466456 31.570895, -106.467214 31.576350, -106.467973 31.581805, -106.468731 31.587260, -106.469489 31.592715, -106.470248 31.598170, -106.471007 31.603625, -106.471765 31.609080, -106.472524 31.614535, -106.473283 31.619990, -106.474042 31.625445, -106.474801 31.630901, -106.475560 31.636356, -106.476319 31.641811, -106.477078 31.647266, -106.477838 31.652721, -106.478597 31.658176, -106.479357 31.663631, -106.480116 31.669086, -106.480876 31.674541, -106.481636 31.679996, -106.482396 31.685450, -106.483156 31.690905, -106.483916 31.696360, -106.484676 31.701815, -106.485436 31.707270, -106.486197 31.712725, -106.486957 31.718180, -106.487718 31.723635, -106.488478 31.729090, -106.489239 31.734545, -106.490000 31.740000, -106.491058 31.745418, -106.492116 31.750836, -106.493175 31.756254, -106.494233 31.761672, -106.495292 31.767090, -106.496350 31.772508, -106.497409 31.777926, -106.498468 31.783343, -106.499527 31.788761, -106.500586 31.794179, -106.501645 31.799597, -106.502705 31.805015, -106.503764 31.810433, -106.504824 31.815851, -106.505884 31.821269, -106.506944 31.826686, -106.508004 31.832104, -106.509064 31.837522, -106.510124 31.842940, -106.511185 31.848358, -106.512245 31.853775, -106.513306 31.859193, -106.514367 31.864611, -106.515428 31.870029, -106.516489 31.875446, -106.517550 31.880864, -106.518611 31.886282, -106.519672 31.891700, -106.520734 31.897117, -106.521796 31.902535, -106.522857 31.907953, -106.523919 31.913370, -106.524981 31.918788, -106.526044 31.924206, -106.527106 31.929623, -106.528168 31.935041, -106.529231 31.940459, -106.530293 31.945876, -106.531356 31.951294, -106.532419 31.956712, -106.533482 31.962129, -106.534545 31.967547, -106.535609 31.972964, -106.536672 31.978382, -106.537736 31.983800, -106.538799 31.989217, -106.539863 31.994635, -106.540927 32.000052, -106.541991 32.005470, -106.543055 32.010887, -106.544119 32.016305, -106.545184 32.021722, -106.546248 32.027140, -106.547313 32.032557, -106.548378 32.037975, -106.549443 32.043392, -106.550508 32.048810, -106.551573 32.054227, -106.552638 32.059645, -106.553704 32.065062, -106.554769 32.070480, -106.555835 32.075897, -106.556901 32.081314, -106.557967 32.086732, -106.559033 32.092149, -106.560099 32.097567, -106.561165 32.102984, -106.562232 32.108401, -106.563298 32.113819, -106.564365 32.119236, -106.565432 32.124653, -106.566499 32.130071, -106.567566 32.135488, -106.568633 32.140905, -106.569700 32.146323, -106.570768 32.151740, -106.571835 32.157157, -106.572903 32.162575, -106.573971 32.167992, -106.575039 32.173409, -106.576107 32.178826, -106.577175 32.184244, -106.578244 32.189661, -106.579312 32.195078, -106.580381 32.200495, -106.581449 32.205912, -106.582518 32.211330, -106.583587 32.216747, -106.584656 32.222164, -106.585726 32.227581, -106.586795 32.232998, -106.587864 32.238416, -106.588934 32.243833, -106.590004 32.249250, -106.591074 32.254667, -106.592144 32.260084, -106.593214 32.265501, -106.594284 32.270918, -106.595354 32.276335, -106.596425 32.281752, -106.597496 32.287169, -106.598566 32.292587, -106.599637 32.298004, -106.600708 32.303421, -106.601779 32.308838, -106.602851 32.314255, -106.603922 32.319672, -106.604994 32.325089, -106.606065 32.330506, -106.607137 32.335923, -106.608209 32.341340, -106.609281 32.346757, -106.610353 32.352174, -106.611426 32.357591, -106.612498 32.363008, -106.613571 32.368424, -106.614643 32.373841, -106.615716 32.379258, -106.616789 32.384675, -106.617862 32.390092, -106.618935 32.395509, -106.620009 32.400926, -106.621082 32.406343, -106.622156 32.411760, -106.623229 32.417177, -106.624303 32.422593, -106.625377 32.428010, -106.626451 32.433427, -106.627526 32.438844, -106.628600 32.444261, -106.629674 32.449677, -106.630749 32.455094, -106.631824 32.460511, -106.632899 32.465928, -106.633974 32.471345, -106.635049 32.476761, -106.636124 32.482178, -106.637199 32.487595, -106.638275 32.493012, -106.639351 32.498428, -106.640426 32.503845, -106.641502 32.509262, -106.642578 32.514678, -106.643655 32.520095, -106.644731 32.525512, -106.645807 32.530928, -106.646884 32.536345, -106.647961 32.541762, -106.649037 32.547178, -106.650114 32.552595, -106.651191 32.558012, -106.652269 32.563428, -106.653346 32.568845, -106.654424 32.574261, -106.655501 32.579678, -106.656579 32.585094, -106.657657 32.590511, -106.658735 32.595928, -106.659813 32.601344, -106.660891 32.606761, -106.661969 32.612177, -106.663048 32.617594, -106.664127 32.623010, -106.665205 32.628427, -106.666284 32.633843, -106.667363 32.639260, -106.668443 32.644676, -106.669522 32.650093, -106.670601 32.655509, -106.671681 32.660926, -106.672761 32.666342, -106.673840 32.671758, -106.674920 32.677175, -106.676000 32.682591, -106.677081 32.688008, -106.678161 32.693424, -106.679241 32.698840, -106.680322 32.704257, -106.681403 32.709673, -106.682484 32.715089, -106.683565 32.720506, -106.684646 32.725922, -106.685727 32.731338, -106.686809 32.736755, -106.687890 32.742171, -106.688972 32.747587, -106.690054 32.753004, -106.691135 32.758420, -106.692217 32.763836, -106.693300 32.769252, -106.694382 32.774669, -106.695464 32.780085, -106.696547 32.785501, -106.697630 32.790917, -106.698713 32.796334, -106.699796 32.801750, -106.700879 32.807166, -106.701962 32.812582, -106.703045 32.817998, -106.704129 32.823414, -106.705212 32.828831, -106.706296 32.834247, -106.707380 32.839663, -106.708464 32.845079, -106.709548 32.850495, -106.710633 32.855911, -106.711717 32.861327, -106.712802 32.866743, -106.713886 32.872160, -106.714971 32.877576, -106.716056 32.882992, -106.717141 32.888408, -106.718226 32.893824, -106.719312 32.899240, -106.720397 32.904656, -106.721483 32.910072, -106.722569 32.915488, -106.723655 32.920904, -106.724741 32.926320, -106.725827 32.931736, -106.726913 32.937152, -106.728000 32.942568, -106.729086 32.947984, -106.730173 32.953400, -106.731260 32.958816, -106.732347 32.964231, -106.733434 32.969647, -106.734521 32.975063, -106.735608 32.980479, -106.736696 32.985895, -106.737783 32.991311, -106.738871 32.996727, -106.739959 33.002143, -106.741047 33.007558, -106.742135 33.012974, -106.743223 33.018390, -106.744312 33.023806, -106.745400 33.029222, -106.746489 33.034638, -106.747578 33.040053, -106.748667 33.045469, -106.749756 33.050885, -106.750845 33.056301, -106.751935 33.061716, -106.753024 33.067132, -106.754114 33.072548, -106.755204 33.077964, -106.756293 33.083379, -106.757383 33.088795, -106.758474 33.094211, -106.759564 33.099626, -106.760654 33.105042, -106.761745 33.110458, -106.762836 33.115873, -106.763927 33.121289, -106.765017 33.126705, -106.766109 33.132120, -106.767200 33.137536, -106.768291 33.142952, -106.769383 33.148367, -106.770474 33.153783, -106.771566 33.159198, -106.772658 33.164614, -106.773750 33.170029, -106.774842 33.175445, -106.775935 33.180861, -106.777027 33.186276, -106.778120 33.191692, -106.779212 33.197107, -106.780305 33.202523, -106.781398 33.207938, -106.782491 33.213354, -106.783585 33.218769, -106.784678 33.224185, -106.785772 33.229600, -106.786865 33.235015, -106.787959 33.240431, -106.789053 33.245846, -106.790147 33.251262, -106.791241 33.256677, -106.792336 33.262092, -106.793430 33.267508, -106.794525 33.272923, -106.795620 33.278339, -106.796714 33.283754, -106.797810 33.289169, -106.798905 33.294585, -106.800000 33.300000, -106.800642 33.305468, -106.801284 33.310936, -106.801926 33.316404, -106.802568 33.321871, -106.803210 33.327339, -106.803852 33.332807, -106.804495 33.338275, -106.805137 33.343743, -106.805779 33.349211, -106.806422 33.354678, -106.807065 33.360146, -106.807707 33.365614, -106.808350 33.371082, -106.808993 33.376550, -106.809636 33.382018, -106.810279 33.387485, -106.810922 33.392953, -106.811566 33.398421, -106.812209 33.403889, -106.812852 33.409357, -106.813496 33.414824, -106.814139 33.420292, -106.814783 33.425760, -106.815426 33.431228, -106.816070 33.436695, -106.816714 33.442163, -106.817358 33.447631, -106.818002 33.453099, -106.818646 33.458567, -106.819290 33.464034, -106.819935 33.469502, -106.820579 33.474970, -106.821223 33.480438, -106.821868 33.485905, -106.822513 33.491373, -106.823157 33.496841, -106.823802 33.502309, -106.824447 33.507776, -106.825092 33.513244, -106.825737 33.518712, -106.826382 33.524179, -106.827027 33.529647, -106.827672 33.535115, -106.828318 33.540583, -106.828963 33.546050, -106.829608 33.551518, -106.830254 33.556986, -106.830900 33.562453, -106.831545 33.567921, -106.832191 33.573389, -106.832837 33.578856, -106.833483 33.584324, -106.834129 33.589792, -106.834775 33.595260, -106.835422 33.600727, -106.836068 33.606195, -106.836714 33.611663, -106.837361 33.617130, -106.838007 33.622598, -106.838654 33.628066, -106.839301 33.633533, -106.839947 33.639001, -106.840594 33.644469, -106.841241 33.649936, -106.841888 33.655404, -106.842535 33.660871, -106.843183 33.666339, -106.843830 33.671807, -106.844477 33.677274, -106.845125 33.682742, -106.845772 33.688210, -106.846420 33.693677, -106.847068 33.699145, -106.847716 33.704612, -106.848363 33.710080, -106.849011 33.715548, -106.849659 33.721015, -106.850307 33.726483, -106.850956 33.731950, -106.851604 33.737418, -106.852252 33.742886, -106.852901 33.748353, -106.853549 33.753821, -106.854198 33.759288, -106.854847 33.764756, -106.855495 33.770224, -106.856144 33.775691, -106.856793 33.781159, -106.857442 33.786626, -106.858091 33.792094, -106.858741 33.797561, -106.859390 33.803029, -106.860039 33.808496, -106.860689 33.813964, -106.861338 33.819432, -106.861988 33.824899, -106.862637 33.830367, -106.863287 33.835834, -106.863937 33.841302, -106.864587 33.846769, -106.865237 33.852237, -106.865887 33.857704, -106.866537 33.863172, -106.867188 33.868639, -106.867838 33.874107, -106.868488 33.879574, -106.869139 33.885042, -106.869790 33.890509, -106.870440 33.895977, -106.871091 33.901444, -106.871742 33.906912, -106.872393 33.912379, -106.873044 33.917847, -106.873695 33.923314, -106.874346 33.928782, -106.874997 33.934249, -106.875649 33.939717, -106.876300 33.945184, -106.876952 33.950652, -106.877603 33.956119, -106.878255 33.961586, -106.878907 33.967054, -106.879559 33.972521, -106.880211 33.977989, -106.880863 33.983456, -106.881515 33.988924, -106.882167 33.994391, -106.882819 33.999859, -106.883472 34.005326, -106.884124 34.010793, -106.884777 34.016261, -106.885429 34.021728, -106.886082 34.027196, -106.886735 34.032663, -106.887388 34.038130, -106.888041 34.043598, -106.888694 34.049065, -106.889347 34.054533, -106.890000 34.060000, -106.887169 34.064965, -106.884337 34.069931, -106.881505 34.074896, -106.878673 34.079861, -106.875840 34.084826, -106.873007 34.089792, -106.870174 34.094757, -106.867340 34.099722, -106.864506 34.104686, -106.861672 34.109651, -106.858837 34.114616, -106.856002 34.119581, -106.853167 34.124545, -106.850331 34.129510, -106.847495 34.134474, -106.844659 34.139439, -106.841822 34.144403, -106.838985 34.149368, -106.836148 34.154332, -106.833310 34.159296, -106.830472 34.164260, -106.827634 34.169224, -106.824795 34.174188, -106.821956 34.179152, -106.819117 34.184116, -106.816277 34.189080, -106.813437 34.194043, -106.810596 34.199007, -106.807756 34.203971, -106.804915 34.208934, -106.802073 34.213898, -106.799232 34.218861, -106.796390 34.223824, -106.793547 34.228788, -106.790705 34.233751, -106.787862 34.238714, -106.785018 34.243677, -106.782175 34.248640, -106.779331 34.253603, -106.776486 34.258566, -106.773642 34.263529, -106.770797 34.268491, -106.767951 34.273454, -106.765105 34.278417, -106.762259 34.283379, -106.759413 34.288342, -106.756566 34.293304, -106.753719 34.298266, -106.750872 34.303229, -106.748024 34.308191, -106.745176 34.313153, -106.742328 34.318115, -106.739479 34.323077, -106.736630 34.328039, -106.733781 34.333001, -106.730931 34.337963, -106.728081 34.342925, -106.725230 34.347886, -106.722380 34.352848, -106.719528 34.357809, -106.716677 34.362771, -106.713825 34.367732, -106.710973 34.372694, -106.708121 34.377655, -106.705268 34.382616, -106.702415 34.387577, -106.699561 34.392539, -106.696708 34.397500, -106.693853 34.402460, -106.690999 34.407421, -106.688144 34.412382, -106.685289 34.417343, -106.682433 34.422304, -106.679578 34.427264, -106.676721 34.432225, -106.673865 34.437185, -106.671008 34.442146, -106.668151 34.447106, -106.665293 34.452066, -106.662436 34.457027, -106.659577 34.461987, -106.656719 34.466947, -106.653860 34.471907, -106.651001 34.476867, -106.648141 34.481827, -106.645281 34.486787, -106.642421 34.491746, -106.639560 34.496706, -106.636699 34.501666, -106.633838 34.506625, -106.630977 34.511585, -106.628115 34.516544, -106.625252 34.521504, -106.622390 34.526463, -106.619527 34.531422, -106.616663 34.536381, -106.613800 34.541340, -106.610936 34.546299, -106.608072 34.551258, -106.605207 34.556217, -106.602342 34.561176, -106.599476 34.566135, -106.596611 34.571093, -106.593745 34.576052, -106.590878 34.581011, -106.588012 34.585969, -106.585145 34.590928, -106.582277 34.595886, -106.579409 34.600844, -106.576541 34.605802, -106.573673 34.610761, -106.570804 34.615719, -106.567935 34.620677, -106.565066 34.625635, -106.562196 34.630593, -106.559326 34.635550, -106.556455 34.640508, -106.553584 34.645466, -106.550713 34.650423, -106.547842 34.655381, -106.544970 34.660338, -106.542097 34.665296, -106.539225 34.670253, -106.536352 34.675211, -106.533479 34.680168, -106.530605 34.685125, -106.527731 34.690082, -106.524857 34.695039, -106.521982 34.699996, -106.519107 34.704953, -106.516232 34.709910, -106.513356 34.714866, -106.510480 34.719823, -106.507604 34.724780, -106.504727 34.729736, -106.501850 34.734693, -106.498973 34.739649, -106.496095 34.744605, -106.493217 34.749562, -106.490339 34.754518, -106.487460 34.759474, -106.484581 34.764430, -106.481701 34.769386, -106.478822 34.774342, -106.475942 34.779298, -106.473061 34.784254, -106.470180 34.789209, -106.467299 34.794165, -106.464418 34.799121, -106.461536 34.804076, -106.458653 34.809032, -106.455771 34.813987, -106.452888 34.818942, -106.450005 34.823898, -106.447121 34.828853, -106.444237 34.833808, -106.441353 34.838763, -106.438468 34.843718, -106.435583 34.848673, -106.432698 34.853628, -106.429812 34.858582, -106.426926 34.863537, -106.424040 34.868492, -106.421153 34.873446, -106.418266 34.878401, -106.415379 34.883355, -106.412491 34.888310, -106.409603 34.893264, -106.406714 34.898218, -106.403825 34.903172, -106.400936 34.908126, -106.398047 34.913080, -106.395157 34.918034, -106.392267 34.922988, -106.389376 34.927942, -106.386485 34.932896, -106.383594 34.937849, -106.380702 34.942803, -106.377810 34.947757, -106.374918 34.952710, -106.372025 34.957664, -106.369132 34.962617, -106.366239 34.967570, -106.363345 34.972523, -106.360451 34.977476, -106.357557 34.982430, -106.354662 34.987383, -106.351767 34.992335, -106.348871 34.997288, -106.345976 35.002241, -106.343079 35.007194, -106.340183 35.012146, -106.337286 35.017099, -106.334389 35.022052, -106.331491 35.027004, -106.328593 35.031956, -106.325695 35.036909, -106.322796 35.041861, -106.319897 35.046813, -106.316998 35.051765, -106.314098 35.056717, -106.311198 35.061669, -106.308298 35.066621, -106.305397 35.071573, -106.302496 35.076525, -106.299595 35.081476, -106.296693 35.086428, -106.293791 35.091379, -106.290888 35.096331, -106.287986 35.101282, -106.285082 35.106234, -106.282179 35.111185, -106.279275 35.116136, -106.276371 35.121087, -106.273466 35.126038, -106.270561 35.130989, -106.267656 35.135940, -106.264750 35.140891, -106.261844 35.145842, -106.258938 35.150793, -106.256031 35.155743, -106.253124 35.160694, -106.250216 35.165644, -106.247309 35.170595, -106.244400 35.175545, -106.241492 35.180496, -106.238583 35.185446, -106.235674 35.190396, -106.232764 35.195346, -106.229854 35.200296, -106.226944 35.205246, -106.224034 35.210196, -106.221123 35.215146, -106.218211 35.220095, -106.215300 35.225045, -106.212387 35.229995, -106.209475 35.234944, -106.206562 35.239894, -106.203649 35.244843, -106.200736 35.249792, -106.197822 35.254742, -106.194908 35.259691, -106.191993 35.264640, -106.189078 35.269589, -106.186163 35.274538, -106.183247 35.279487, -106.180331 35.284436, -106.177415 35.289384, -106.174498 35.294333, -106.171581 35.299282, -106.168664 35.304230, -106.165746 35.309179, -106.162828 35.314127, -106.159910 35.319076, -106.156991 35.324024, -106.154072 35.328972, -106.151152 35.333920, -106.148232 35.338868, -106.145312 35.343816, -106.142392 35.348764, -106.139471 35.353712, -106.136549 35.358660, -106.133628 35.363608, -106.130706 35.368555, -106.127783 35.373503, -106.124860 35.378450, -106.121937 35.383398, -106.119014 35.388345, -106.116090 35.393292, -106.113166 35.398240, -106.110241 35.403187, -106.107316 35.408134, -106.104391 35.413081, -106.101465 35.418028, -106.098539 35.422975, -106.095613 35.427921, -106.092686 35.432868, -106.089759 35.437815, -106.086832 35.442761, -106.083904 35.447708, -106.080976 35.452654, -106.078048 35.457601, -106.075119 35.462547, -106.072189 35.467493, -106.069260 35.472439, -106.066330 35.477385, -106.063400 35.482331, -106.060469 35.487277, -106.057538 35.492223, -106.054607 35.497169, -106.051675 35.502115, -106.048743 35.507060, -106.045810 35.512006, -106.042877 35.516952, -106.039944 35.521897, -106.037011 35.526842, -106.034077 35.531788, -106.031142 35.536733, -106.028208 35.541678, -106.025273 35.546623, -106.022337 35.551568, -106.019402 35.556513, -106.016466 35.561458, -106.013529 35.566403, -106.010592 35.571348, -106.007655 35.576292, -106.004718 35.581237, -106.001780 35.586181, -105.998842 35.591126, -105.995903 35.596070, -105.992964 35.601015, -105.990025 35.605959, -105.987085 35.610903, -105.984145 35.615847, -105.981204 35.620791, -105.978264 35.625735, -105.975322 35.630679, -105.972381 35.635623, -105.969439 35.640567, -105.966497 35.645510, -105.963554 35.650454, -105.960611 35.655397, -105.957668 35.660341, -105.954724 35.665284, -105.951780 35.670227, -105.948836 35.675171, -105.945891 35.680114, -105.942946 35.685057, -105.940000 35.690000)
