LINESTRING (-84.960000 34.990000, -84.957326 34.991712, -84.954652 34.993424, -84.951978 34.995136, -84.949304 34.996848, -84.946630 34.998560, -84.943956 35.000272, -84.941281 35.001984, -84.938607 35.003695, -84.935932 35.005407, -84.933257 35.007119, -84.930582 35.008830, -84.927907 35.010542, -84.925232 35.012253, -84.922557 35.013964, -84.919882 35.015676, -84.917206 35.017387, -84.914531 35.019098, -84.911855 35.020809, -84.909179 35.022520, -84.906503 35.024231, -84.903827 35.025942, -84.901151 35.027653, -84.898475 35.029364, -84.895798 35.031075, -84.893122 35.032785, -84.890445 35.034496, -84.887769 35.036207, -84.885092 35.037917, -84.882415 35.039628, -84.879738 35.041338, -84.877061 35.043048, -84.874384 35.044759, -84.871706 35.046469, -84.869029 35.048179, -84.866351 35.049889, -84.863674 35.051599, -84.860996 35.053309, -84.858318 35.055019, -84.855640 35.056729, -84.852962 35.058439, -84.850283 35.060149, -84.847605 35.061859, -84.844927 35.063568, -84.842248 35.065278, -84.839569 35.066987, -84.836890 35.068697, -84.834212 35.070406, -84.831532 35.072116, -84.828853 35.073825, -84.826174 35.075534, -84.823495 35.077243, -84.820815 35.078952, -84.818136 35.080662, -84.815456 35.082371, -84.812776 35.084079, -84.810096 35.085788, -84.807416 35.087497, -84.804736 35.089206, -84.802056 35.090915, -84.799375 35.092623, -84.796695 35.094332, -84.794014 35.096040, -84.791333 35.097749, -84.788653 35.099457, -84.785972 35.101166, -84.783291 35.102874, -84.780609 35.104582, -84.777928 35.106290, -84.775247 35.107999, -84.772565 35.109707, -84.769884 35.111415, -84.767202 35.113123, -84.764520 35.114830, -84.761838 35.116538, -84.759156 35.118246, -84.756474 35.119954, -84.753791 35.121661, -84.751109 35.123369, -84.748426 35.125077, -84.745744 35.126784, -84.743061 35.128491, -84.740378 35.130199, -84.737695 35.131906, -84.735012 35.133613, -84.732329 35.135320, -84.729646 35.137028, -84.726962 35.138735, -84.724279 35.140442, -84.721595 35.142149, -84.718911 35.143855, -84.716227 35.145562, -84.713543 35.147269, -84.710859 35.148976, -84.708175 35.150682, -84.705491 35.152389, -84.702806 35.154096, -84.700122 35.155802, -84.697437 35.157508, -84.694752 35.159215, -84.692067 35.160921, -84.689382 35.162627, -84.686697 35.164333, -84.684012 35.166040, -84.681327 35.167746, -84.678641 35.169452, -84.675956 35.171158, -84.673270 35.172863, -84.670584 35.174569, -84.667898 35.176275, -84.665212 35.177981, -84.662526 35.179686, -84.659840 35.181392, -84.657154 35.183097, -84.654467 35.184803, -84.651781 35.186508, -84.649094 35.188214, -84.646407 35.189919, -84.643720 35.191624, -84.641033 35.193329, -84.638346 35.195034, -84.635659 35.196739, -84.632971 35.198444, -84.630284 35.200149, -84.627596 35.201854, -84.624909 35.203559, -84.622221 35.205264, -84.619533 35.206968, -84.616845 35.208673, -84.614157 35.210378, -84.611468 35.212082, -84.608780 35.213787, -84.606092 35.215491, -84.603403 35.217195, -84.600714 35.218900, -84.598025 35.220604, -84.595336 35.222308, -84.592647 35.224012, -84.589958 35.225716, -84.587269 35.227420, -84.584580 35.229124, -84.581890 35.230828, -84.579200 35.232532, -84.576511 35.234235, -84.573821 35.235939, -84.571131 35.237643, -84.568441 35.239346, -84.565751 35.241050, -84.563060 35.242753, -84.560370 35.244456, -84.557679 35.246160, -84.554989 35.247863, -84.552298 35.249566, -84.549607 35.251269, -84.546916 35.252972, -84.544225 35.254675, -84.541534 35.256378, -84.538842 35.258081, -84.536151 35.259784, -84.533459 35.261487, -84.530768 35.263190, -84.528076 35.264892, -84.525384 35.266595, -84.522692 35.268298, -84.520000 35.270000, -84.522796 35.271589, -84.525592 35.273177, -84.528387 35.274766, -84.531183 35.276354, -84.533980 35.277943, -84.536776 35.279531, -84.539572 35.281119, -84.542369 35.282707, -84.545165 35.284295, -84.547962 35.285884, -84.550759 35.287472, -84.553556 35.289059, -84.556353 35.290647, -84.559150 35.292235, -84.561947 35.293823, -84.564744 35.295411, -84.567542 35.296998, -84.570339 35.298586, -84.573137 35.300173, -84.575935 35.301761, -84.578733 35.303348, -84.581531 35.304935, -84.584329 35.306523, -84.587127 35.308110, -84.589925 35.309697, -84.592724 35.311284, -84.595522 35.312871, -84.598321 35.314458, -84.601120 35.316045, -84.603919 35.317631, -84.606718 35.319218, -84.609517 35.320805, -84.612316 35.322391, -84.615115 35.323978, -84.617915 35.325564, -84.620714 35.327151, -84.623514 35.328737, -84.626314 35.330323, -84.629114 35.331909, -84.631914 35.333496, -84.634714 35.335082, -84.637514 35.336668, -84.640314 35.338254, -84.643115 35.339839, -84.645915 35.341425, -84.648716 35.343011, -84.651517 35.344597, -84.654317 35.346182, -84.657118 35.347768, -84.659919 35.349353, -84.662721 35.350939, -84.665522 35.352524, -84.668323 35.354109, -84.671125 35.355695, -84.673926 35.357280, -84.676728 35.358865, -84.679530 35.360450, -84.682332 35.362035, -84.685134 35.363620, -84.687936 35.365205, -84.690739 35.366789, -84.693541 35.368374, -84.696343 35.369959, -84.699146 35.371543, -84.701949 35.373128, -84.704752 35.374712, -84.707555 35.376297, -84.710358 35.377881, -84.713161 35.379465, -84.715964 35.381049, -84.718768 35.382634, -84.721571 35.384218, -84.724375 35.385802, -84.727178 35.387386, -84.729982 35.388969, -84.732786 35.390553, -84.735590 35.392137, -84.738394 35.393721, -84.741199 35.395304, -84.744003 35.396888, -84.746808 35.398471, -84.749612 35.400055, -84.752417 35.401638, -84.755222 35.403221, -84.758027 35.404804, -84.760832 35.406388, -84.763637 35.407971, -84.766442 35.409554, -84.769247 35.411137, -84.772053 35.412720, -84.774858 35.414302, -84.777664 35.415885, -84.780470 35.417468, -84.783276 35.419051, -84.786082 35.420633, -84.788888 35.422216, -84.791694 35.423798, -84.794501 35.425380, -84.797307 35.426963, -84.800114 35.428545, -84.802920 35.430127, -84.805727 35.431709, -84.808534 35.433291, -84.811341 35.434873, -84.814148 35.436455, -84.816956 35.438037, -84.819763 35.439619, -84.822570 35.441201, -84.825378 35.442782, -84.828186 35.444364, -84.830994 35.445945, -84.833801 35.447527, -84.836609 35.449108, -84.839418 35.450690, -84.842226 35.452271, -84.845034 35.453852, -84.847843 35.455433, -84.850651 35.457014, -84.853460 35.458595, -84.856269 35.460176, -84.859078 35.461757, -84.861887 35.463338, -84.864696 35.464919, -84.867505 35.466499, -84.870314 35.468080, -84.873124 35.469661, -84.875933 35.471241, -84.878743 35.472821, -84.881553 35.474402, -84.884363 35.475982, -84.887173 35.477562, -84.889983 35.479143, -84.892793 35.480723, -84.895603 35.482303, -84.898414 35.483883, -84.901224 35.485463, -84.904035 35.487042, -84.906846 35.488622, -84.909657 35.490202, -84.912468 35.491782, -84.915279 35.493361, -84.918090 35.494941, -84.920901 35.496520, -84.923713 35.498099, -84.926524 35.499679, -84.929336 35.501258, -84.932148 35.502837, -84.934960 35.504416, -84.937772 35.505995, -84.940584 35.507574, -84.943396 35.509153, -84.946208 35.510732, -84.949021 35.512311, -84.951833 35.513890, -84.954646 35.515468, -84.957459 35.517047, -84.960272 35.518625, -84.963085 35.520204, -84.965898 35.521782, -84.968711 35.523361, -84.971524 35.524939, -84.974338 35.526517, -84.977151 35.528095, -84.979965 35.529673, -84.982779 35.531251, -84.985593 35.532829, -84.988407 35.534407, -84.991221 35.535985, -84.994035 35.537563, -84.996849 35.539140, -84.999664 35.540718, -85.002478 35.542296, -85.005293 35.543873, -85.008108 35.545451, -85.010922 35.547028, -85.013737 35.548605, -85.016553 35.550182, -85.019368 35.551760, -85.022183 35.553337, -85.024999 35.554914, -85.027814 35.556491, -85.030630 35.558068, -85.033445 35.559644, -85.036261 35.561221, -85.039077 35.562798, -85.041893 35.564375, -85.044710 35.565951, -85.047526 35.567528, -85.050342 35.569104, -85.053159 35.570680, -85.055976 35.572257, -85.058792 35.573833, -85.061609 35.575409, -85.064426 35.576985, -85.067243 35.578561, -85.070060 35.580137, -85.072878 35.581713, -85.075695 35.583289, -85.078513 35.584865, -85.081330 35.586441, -85.084148 35.588016, -85.086966 35.589592, -85.089784 35.591167, -85.092602 35.592743, -85.095420 35.594318, -85.098239 35.595894, -85.101057 35.597469, -85.103875 35.599044, -85.106694 35.600619, -85.109513 35.602194, -85.112332 35.603769, -85.115151 35.605344, -85.117970 35.606919, -85.120789 35.608494, -85.123608 35.610069, -85.126428 35.611643, -85.129247 35.613218, -85.132067 35.614792, -85.134887 35.616367, -85.137707 35.617941, -85.140527 35.619516, -85.143347 35.621090, -85.146167 35.622664, -85.148987 35.624238, -85.151808 35.625812, -85.154628 35.627386, -85.157449 35.628960, -85.160269 35.630534, -85.163090 35.632108, -85.165911 35.633682, -85.168732 35.635255, -85.171554 35.636829, -85.174375 35.638403, -85.177196 35.639976, -85.180018 35.641549, -85.182839 35.643123, -85.185661 35.644696, -85.188483 35.646269, -85.191305 35.647842, -85.194127 35.649416, -85.196949 35.650989, -85.199772 35.652562, -85.202594 35.654134, -85.205417 35.655707, -85.208239 35.657280, -85.211062 35.658853, -85.213885 35.660425, -85.216708 35.661998, -85.219531 35.663570, -85.222354 35.665143, -85.225177 35.666715, -85.228001 35.668288, -85.230824 35.669860, -85.233648 35.671432, -85.236472 35.673004, -85.239296 35.674576, -85.242120 35.676148, -85.244944 35.677720, -85.247768 35.679292, -85.250592 35.680864, -85.253417 35.682435, -85.256241 35.684007, -85.259066 35.685578, -85.261891 35.687150, -85.264715 35.688721, -85.267540 35.690293, -85.270365 35.691864, -85.273191 35.693435, -85.276016 35.695007, -85.278841 35.696578, -85.281667 35.698149, -85.284493 35.699720, -85.287318 35.701291, -85.290144 35.702861, -85.292970 35.704432, -85.295796 35.706003, -85.298622 35.707574, -85.301449 35.709144, -85.304275 35.710715, -85.307102 35.712285, -85.309928 35.713856, -85.312755 35.715426, -85.315582 35.716996, -85.318409 35.718566, -85.321236 35.720136, -85.324063 35.721707, -85.326891 35.723277, -85.329718 35.724846, -85.332546 35.726416, -85.335373 35.727986, -85.338201 35.729556, -85.341029 35.731125, -85.343857 35.732695, -85.346685 35.734265, -85.349513 35.735834, -85.352341 35.737403, -85.355170 35.738973, -85.357998 35.740542, -85.360827 35.742111, -85.363656 35.743680, -85.366485 35.745249, -85.369314 35.746818, -85.372143 35.748387, -85.374972 35.749956, -85.377801 35.751525, -85.380631 35.753094, -85.383460 35.754662, -85.386290 35.756231, -85.389120 35.757800, -85.391950 35.759368, -85.394780 35.760936, -85.397610 35.762505, -85.400440 35.764073, -85.403270 35.765641, -85.406101 35.767209, -85.408931 35.768777, -85.411762 35.770345, -85.414593 35.771913, -85.417424 35.773481, -85.420255 35.775049, -85.423086 35.776617, -85.425917 35.778185, -85.428748 35.779752, -85.431580 35.781320, -85.434411 35.782887, -85.437243 35.784455, -85.440075 35.786022, -85.442907 35.787589, -85.445739 35.789156, -85.448571 35.790723, -85.451403 35.792291, -85.454235 35.793858, -85.457068 35.795425, -85.459900 35.796991, -85.462733 35.798558, -85.465566 35.800125, -85.468399 35.801692, -85.471232 35.803258, -85.474065 35.804825, -85.476898 35.806391, -85.479731 35.807958, -85.482565 35.809524, -85.485398 35.811090, -85.488232 35.812656, -85.491066 35.814223, -85.493900 35.815789, -85.496734 35.817355, -85.499568 35.818921, -85.502402 35.820487, -85.505236 35.822052, -85.508071 35.823618, -85.510905 35.825184, -85.513740 35.826749, -85.516575 35.828315, -85.519410 35.829880, -85.522245 35.831446, -85.525080 35.833011, -85.527915 35.834576, -85.530751 35.836142, -85.533586 35.837707, -85.536422 35.839272, -85.539257 35.840837, -85.542093 35.842402, -85.544929 35.843967, -85.547765 35.845532, -85.550601 35.847096, -85.553437 35.848661, -85.556274 35.850226, -85.559110 35.851790, -85.561947 35.853355, -85.564784 35.854919, -85.567620 35.856483, -85.570457 35.858048, -85.573294 35.859612, -85.576131 35.861176, -85.578969 35.862740, -85.581806 35.864304, -85.584644 35.865868, -85.587481 35.867432, -85.590319 35.868996, -85.593157 35.870560, -85.595995 35.872123, -85.598833 35.873687, -85.601671 35.875250, -85.604509 35.876814, -85.607347 35.878377, -85.610186 35.879941, -85.613025 35.881504, -85.615863 35.883067, -85.618702 35.884630, -85.621541 35.886193, -85.624380 35.887756, -85.627219 35.889319, -85.630059 35.890882, -85.632898 35.892445, -85.635737 35.894008, -85.638577 35.895570, -85.641417 35.897133, -85.644257 35.898696, -85.647097 35.900258, -85.649937 35.901820, -85.652777 35.903383, -85.655617 35.904945, -85.658457 35.906507, -85.661298 35.908069, -85.664139 35.909631, -85.666979 35.911193, -85.669820 35.912755, -85.672661 35.914317, -85.675502 35.915879, -85.678343 35.917441, -85.681185 35.919003, -85.684026 35.920564, -85.686868 35.922126, -85.689709 35.923687, -85.692551 35.925249, -85.695393 35.926810, -85.698235 35.928371, -85.701077 35.929932, -85.703919 35.931493, -85.706761 35.933055, -85.709604 35.934616, -85.712446 35.936177, -85.715289 35.937737, -85.718132 35.939298, -85.720975 35.940859, -85.723818 35.942420, -85.726661 35.943980, -85.729504 35.945541, -85.732347 35.947101, -85.735191 35.948662, -85.738034 35.950222, -85.740878 35.951782, -85.743721 35.953342, -85.746565 35.954903, -85.749409 35.956463, -85.752253 35.958023, -85.755098 35.959583, -85.757942 35.961142, -85.760786 35.962702, -85.763631 35.964262, -85.766476 35.965822, -85.769320 35.967381, -85.772165 35.968941, -85.775010 35.970500, -85.777855 35.972060, -85.780701 35.973619, -85.783546 35.975178, -85.786391 35.976737, -85.789237 35.978296, -85.792083 35.979856, -85.794928 35.981415, -85.797774 35.982973, -85.800620 35.984532, -85.803466 35.986091, -85.806313 35.987650, -85.809159 35.989208, -85.812006 35.990767, -85.814852 35.992326, -85.817699 35.993884, -85.820546 35.995442, -85.823392 35.997001, -85.826239 35.998559, -85.829087 36.000117, -85.831934 36.001675, -85.834781 36.003233, -85.837629 36.004791, -85.840476 36.006349, -85.843324 36.007907, -85.846172 36.009465, -85.849020 36.011023, -85.851868 36.012580, -85.854716 36.014138, -85.857564 36.015695, -85.860413 36.017253, -85.863261 36.018810, -85.866110 36.020367, -85.868958 36.021925, -85.871807 36.023482, -85.874656 36.025039, -85.877505 36.026596, -85.880354 36.028153, -85.883204 36.029710, -85.886053 36.031267, -85.888902 36.032823, -85.891752 36.034380, -85.894602 36.035937, -85.897452 36.037493, -85.900302 36.039050, -85.903152 36.040606, -85.906002 36.042163, -85.908852 36.043719, -85.911703 36.045275, -85.914553 36.046831, -85.917404 36.048387, -85.920254 36.049944, -85.923105 36.051499, -85.925956 36.053055, -85.928807 36.054611, -85.931658 36.056167, -85.934510 36.057723, -85.937361 36.059278, -85.940213 36.060834, -85.943064 36.062389, -85.945916 36.063945, -85.948768 36.065500, -85.951620 36.067055, -85.954472 36.068611, -85.957324 36.070166, -85.960177 36.071721, -85.963029 36.073276, -85.965882 36.074831, -85.968734 36.076386, -85.971587 36.077940, -85.974440 36.079495, -85.977293 36.081050, -85.980146 36.082605, -85.982999 36.084159, -85.985852 36.085714, -85.988706 36.087268, -85.991559 36.088822, -85.994413 36.090377, -85.997267 36.091931, -86.000121 36.093485, -86.002975 36.095039, -86.005829 36.096593, -86.008683 36.098147, -86.011538 36.099701, -86.014392 36.101255, -86.017247 36.102808, -86.020101 36.104362, -86.022956 36.105916, -86.025811 36.107469, -86.028666 36.109023, -86.031521 36.110576, -86.034376 36.112129, -86.037232 36.113683, -86.040087 36.115236, -86.042943 36.116789, -86.045799 36.118342, -86.048654 36.119895, -86.051510 36.121448, -86.054366 36.123001, -86.057222 36.124553, -86.060079 36.126106, -86.062935 36.127659, -86.065792 36.129211, -86.068648 36.130764, -86.071505 36.132316, -86.074362 36.133869, -86.077219 36.135421, -86.080076 36.136973, -86.082933 36.138525, -86.085790 36.140077, -86.088648 36.141630, -86.091505 36.143181, -86.094363 36.144733, -86.097220 36.146285, -86.100078 36.147837, -86.102936 36.149389, -86.105794 36.150940, -86.108653 36.152492, -86.111511 36.154043, -86.114369 36.155595, -86.117228 36.157146, -86.120086 36.158697, -86.122945 36.160249, -86.125804 36.161800, -86.128663 36.163351, -86.131522 36.164902, -86.134381 36.166453, -86.137241 36.168004, -86.140100 36.169555, -86.142960 36.171105, -86.145819 36.172656, -86.148679 36.174207, -86.151539 36.175757, -86.154399 36.177308, -86.157259 36.178858, -86.160119 36.180408, -86.162980 36.181959, -86.165840 36.183509, -86.168701 36.185059, -86.171561 36.186609, -86.174422 36.188159, -86.177283 36.189709, -86.180144 36.191259, -86.183005 36.192809, -86.185866 36.194358, -86.188728 36.195908, -86.191589 36.197458, -86.194451 36.199007, -86.197313 36.200557, -86.200174 36.202106, -86.203036 36.203655, -86.205898 36.205204, -86.208761 36.206754, -86.211623 36.208303, -86.214485 36.209852, -86.217348 36.211401, -86.220210 36.212950, -86.223073 36.214499, -86.225936 36.216047, -86.228799 36.217596, -86.231662 36.219145, -86.234525 36.220693, -86.237388 36.222242, -86.240252 36.223790, -86.243115 36.225338, -86.245979 36.226887, -86.248843 36.228435, -86.251706 36.229983, -86.254570 36.231531, -86.257434 36.233079, -86.260299 36.234627, -86.263163 36.236175, -86.266027 36.237723, -86.268892 36.239271, -86.271757 36.240818, -86.274621 36.242366, -86.277486 36.243913, -86.280351 36.245461, -86.283216 36.247008, -86.286081 36.248556, -86.288947 36.250103, -86.291812 36.251650, -86.294678 36.253197, -86.297543 36.254744, -86.300409 36.256291, -86.303275 36.257838, -86.306141 36.259385, -86.309007 36.260932, -86.311873 36.262479, -86.314740 36.264025, -86.317606 36.265572, -86.320473 36.267118, -86.323340 36.268665, -86.326206 36.270211, -86.329073 36.271758, -86.331940 36.273304, -86.334807 36.274850, -86.337675 36.276396, -86.340542 36.277942, -86.343410 36.279488, -86.346277 36.281034, -86.349145 36.282580, -86.352013 36.284126, -86.354881 36.285671, -86.357749 36.287217, -86.360617 36.288762, -86.363485 36.290308, -86.366353 36.291853, -86.369222 36.293399, -86.372091 36.294944, -86.374959 36.296489, -86.377828 36.298034, -86.380697 36.299579, -86.383566 36.301124, -86.386435 36.302669, -86.389305 36.304214, -86.392174 36.305759, -86.395044 36.307304, -86.397913 36.308848, -86.400783 36.310393, -86.403653 36.311938, -86.406523 36.313482, -86.409393 36.315026, -86.412263 36.316571, -86.415134 36.318115, -86.418004 36.319659, -86.420875 36.321203, -86.423745 36.322747, -86.426616 36.324291, -86.429487 36.325835, -86.432358 36.327379, -86.435229 36.328923, -86.438100 36.330467, -86.440972 36.332010, -86.443843 36.333554, -86.446715 36.335097, -86.449586 36.336641, -86.452458 36.338184, -86.455330 36.339727, -86.458202 36.341271, -86.461074 36.342814, -86.463946 36.344357, -86.466819 36.345900, -86.469691 36.347443, -86.472564 36.348986, -86.475437 36.350529, -86.478309 36.352071, -86.481182 36.353614, -86.484055 36.355157, -86.486929 36.356699, -86.489802 36.358242, -86.492675 36.359784, -86.495549 36.361326, -86.498422 36.362869, -86.501296 36.364411, -86.504170 36.365953, -86.507044 36.367495, -86.509918 36.369037, -86.512792 36.370579, -86.515667 36.372121, -86.518541 36.373662, -86.521416 36.375204, -86.524290 36.376746, -86.527165 36.378287, -86.530040 36.379829, -86.532915 36.381370, -86.535790 36.382912, -86.538665 36.384453, -86.541541 36.385994, -86.544416 36.387535, -86.547292 36.389076, -86.550167 36.390618, -86.553043 36.392158, -86.555919 36.393699, -86.558795 36.395240, -86.561671 36.396781, -86.564547 36.398322, -86.567424 36.399862, -86.570300 36.401403, -86.573177 36.402943, -86.576053 36.404484, -86.578930 36.406024, -86.581807 36.407564, -86.584684 36.409104, -86.587561 36.410645, -86.590439 36.412185, -86.593316 36.413725, -86.596194 36.415265, -86.599071 36.416804, -86.601949 36.418344, -86.604827 36.419884, -86.607705 36.421423, -86.610583 36.422963, -86.613461 36.424503, -86.616339 36.426042, -86.619218 36.427581, -86.622096 36.429121, -86.624975 36.430660, -86.627854 36.432199, -86.630732 36.433738, -86.633611 36.435277, -86.636491 36.436816, -86.639370 36.438355, -86.642249 36.439894, -86.645129 36.441433, -86.648008 36.442971, -86.650888 36.444510, -86.653768 36.446048, -86.656647 36.447587, -86.659527 36.449125, -86.662408 36.450664, -86.665288 36.452202, -86.668168 36.453740, -86.671049 36.455278, -86.673929 36.456816, -86.676810 36.458354, -86.679691 36.459892, -86.682572 36.461430, -86.685453 36.462968, -86.688334 36.464505, -86.691215 36.466043, -86.694097 36.467581, -86.696978 36.469118, -86.699860 36.470656, -86.702741 36.472193, -86.705623 36.473730, -86.708505 36.475267, -86.711387 36.476805, -86.714269 36.478342, -86.717152 36.479879, -86.720034 36.481416, -86.722917 36.482953, -86.725799 36.484489, -86.728682 36.486026, -86.731565 36.487563, -86.734448 36.489099, -86.737331 36.490636, -86.740214 36.492172, -86.743098 36.493709, -86.745981 36.495245, -86.748865 36.496781, -86.751748 36.498317, -86.754632 36.499854, -86.757516 36.501390, -86.760400 36.502926, -86.763284 36.504461, -86.766168 36.505997, -86.769053 36.507533, -86.771937 36.509069, -86.774822 36.510604, -86.777706 36.512140, -86.780591 36.513675, -86.783476 36.515211, -86.786361 36.516746, -86.789246 36.518282, -86.792132 36.519817, -86.795017 36.521352, -86.797902 36.522887, -86.800788 36.524422, -86.803674 36.525957, -86.806560 36.527492, -86.809446 36.529027, -86.812332 36.530561, -86.815218 36.532096, -86.818104 36.533630, -86.820991 36.535165, -86.823877 36.536699, -86.826764 36.538234, -86.829651 36.539768, -86.832537 36.541302, -86.835424 36.542837, -86.838312 36.544371, -86.841199 36.545905, -86.844086 36.547439, -86.846974 36.548972, -86.849861 36.550506, -86.852749 36.552040, -86.855637 36.553574, -86.858524 36.555107, -86.861413 36.556641, -86.864301 36.558174, -86.867189 36.559708, -86.870077 36.561241, -86.872966 36.562774, -86.875854 36.564308, -86.878743 36.565841, -86.881632 36.567374, -86.884521 36.568907, -86.887410 36.570440, -86.890299 36.571972, -86.893188 36.573505, -86.896078 36.575038, -86.898967 36.576571, -86.901857 36.578103, -86.904747 36.579636, -86.907636 36.581168, -86.910526 36.582700, -86.913417 36.584233, -86.916307 36.585765, -86.919197 36.587297, -86.922087 36.588829, -86.924978 36.590361, -86.927869 36.591893, -86.930759 36.593425, -86.933650 36.594957, -86.936541 36.596488, -86.939432 36.598020, -86.942324 36.599552, -86.945215 36.601083, -86.948107 36.602615, -86.950998 36.604146, -86.953890 36.605677, -86.956782 36.607209, -86.959674 36.608740, -86.962566 36.610271, -86.965458 36.611802, -86.968350 36.613333, -86.971242 36.614864, -86.974135 36.616395, -86.977027 36.617925, -86.979920 36.619456, -86.982813 36.620987, -86.985706 36.622517, -86.988599 36.624048, -86.991492 36.625578, -86.994386 36.627108, -86.997279 36.628639, -87.000173 36.630169, -87.003066 36.631699, -87.005960 36.633229, -87.008854 36.634759, -87.011748 36.636289, -87.014642 36.637819, -87.017536 36.639348, -87.020430 36.640878, -87.023325 36.642408, -87.026219 36.643937, -87.029114 36.645467, -87.032009 36.646996, -87.034904 36.648526, -87.037799 36.650055, -87.040694 36.651584, -87.043589 36.653113, -87.046485 36.654642, -87.049380 36.656171, -87.052276 36.657700, -87.055171 36.659229, -87.058067 36.660758, -87.060963 36.662287, -87.063859 36.663815, -87.066755 36.665344, -87.069652 36.666872, -87.072548 36.668401, -87.075445 36.669929, -87.078341 36.671457, -87.081238 36.672986, -87.084135 36.674514, -87.087032 36.676042, -87.089929 36.677570, -87.092826 36.679098, -87.095724 36.680626, -87.098621 36.682154, -87.101519 36.683681, -87.104416 36.685209, -87.107314 36.686737, -87.110212 36.688264, -87.113110 36.689792, -87.116008 36.691319, -87.118906 36.692846, -87.121805 36.694373, -87.124703 36.695901, -87.127602 36.697428, -87.130500 36.698955, -87.133399 36.700482, -87.136298 36.702009, -87.139197 36.703535, -87.142096 36.705062, -87.144996 36.706589, -87.147895 36.708115, -87.150795 36.709642, -87.153694 36.711169, -87.156594 36.712695, -87.159494 36.714221, -87.162394 36.715748, -87.165294 36.717274, -87.168194 36.718800, -87.171094 36.720326, -87.173995 36.721852, -87.176895 36.723378, -87.179796 36.724904, -87.182697 36.726429, -87.185598 36.727955, -87.188499 36.729481, -87.191400 36.731006, -87.194301 36.732532, -87.197203 36.734057, -87.200104 36.735582, -87.203006 36.737108, -87.205907 36.738633, -87.208809 36.740158, -87.211711 36.741683, -87.214613 36.743208, -87.217515 36.744733, -87.220418 36.746258, -87.223320 36.747783, -87.226222 36.749307, -87.229125 36.750832, -87.232028 36.752357, -87.234931 36.753881, -87.237834 36.755406, -87.240737 36.756930, -87.243640 36.758454, -87.246543 36.759978, -87.249447 36.761503, -87.252350 36.763027, -87.255254 36.764551, -87.258158 36.766075, -87.261062 36.767598, -87.263966 36.769122, -87.266870 36.770646, -87.269774 36.772170, -87.272678 36.773693, -87.275583 36.775217, -87.278487 36.776740, -87.281392 36.778264, -87.284297 36.779787, -87.287202 36.781310, -87.290107 36.782833, -87.293012 36.784356, -87.295917 36.785879, -87.298823 36.787402, -87.301728 36.788925, -87.304634 36.790448, -87.307540 36.791971, -87.310445 36.793493, -87.313351 36.795016, -87.316258 36.796538, -87.319164 36.798061, -87.322070 36.799583, -87.324977 36.801106, -87.327883 36.802628, -87.330790 36.804150, -87.333697 36.805672, -87.336603 36.807194, -87.339510 36.808716, -87.342418 36.810238, -87.345325 36.811760, -87.348232 36.813282, -87.351140 36.814803, -87.354047 36.816325, -87.356955 36.817846, -87.359863 36.819368, -87.362771 36.820889, -87.365679 36.822411, -87.368587 36.823932, -87.371495 36.825453, -87.374404 36.826974, -87.377312 36.828495, -87.380221 36.830016, -87.383130 36.831537, -87.386038 36.833058, -87.388947 36.834579, -87.391856 36.836099, -87.394766 36.837620, -87.397675 36.839140, -87.400584 36.840661, -87.403494 36.842181, -87.406404 36.843702, -87.409313 36.845222, -87.412223 36.846742, -87.415133 36.848262, -87.418044 36.849782, -87.420954 36.851302, -87.423864 36.852822, -87.426775 36.854342, -87.429685 36.855862, -87.432596 36.857381, -87.435507 36.858901, -87.438418 36.860421, -87.441329 36.861940, -87.444240 36.863459, -87.447151 36.864979, -87.450063 36.866498, -87.452974 36.868017, -87.455886 36.869536, -87.458798 36.871055, -87.461709 36.872574, -87.464621 36.874093, -87.467534 36.875612, -87.470446 36.877131, -87.473358 36.878650, -87.476271 36.880168, -87.479183 36.881687, -87.482096 36.883205, -87.485009 36.884724, -87.487922 36.886242, -87.490835 36.887760, -87.493748 36.889278, -87.496661 36.890797, -87.499574 36.892315, -87.502488 36.893833, -87.505401 36.895351, -87.508315 36.896868, -87.511229 36.898386, -87.514143 36.899904, -87.517057 36.901421, -87.519971 36.902939, -87.522886 36.904457, -87.525800 36.905974, -87.528715 36.907491, -87.531629 36.909009, -87.534544 36.910526, -87.537459 36.912043, -87.540374 36.913560, -87.543289 36.915077, -87.546204 36.916594, -87.549120 36.918111, -87.552035 36.919627, -87.554951 36.921144, -87.557866 36.922661, -87.560782 36.924177, -87.563698 36.925694, -87.566614 36.927210, -87.569530 36.928727, -87.572447 36.930243, -87.575363 36.931759, -87.578279 36.933275, -87.581196 36.934791, -87.584113 36.936307, -87.587030 36.937823, -87.589947 36.939339, -87.592864 36.940855, -87.595781 36.942371, -87.598698 36.943886, -87.601616 36.945402, -87.604533 36.946917, -87.607451 36.948433, -87.610369 36.949948, -87.613287 36.951463, -87.616205 36.952978, -87.619123 36.954494, -87.622041 36.956009, -87.624959 36.957524, -87.627878 36.959039, -87.630796 36.960553, -87.633715 36.962068, -87.636634 36.963583, -87.639553 36.965098, -87.642472 36.966612, -87.645391 36.968127, -87.648310 36.969641, -87.651230 36.971155, -87.654149 36.972670, -87.657069 36.974184, -87.659989 36.975698, -87.662909 36.977212, -87.665829 36.978726, -87.668749 36.980240, -87.671669 36.981754, -87.674589 36.983268, -87.677510 36.984781, -87.680430 36.986295, -87.683351 36.987808, -87.686272 36.989322, -87.689193 36.990835, -87.692114 36.992349, -87.695035 36.993862, -87.697956 36.995375, -87.700878 36.996888, -87.703799 36.998401, -87.706721 36.999914, -87.709643 37.001427, -87.712564 37.002940, -87.715486 37.004453, -87.718408 37.005966, -87.721331 37.007478, -87.724253 37.008991, -87.727175 37.010503, -87.730098 37.012016, -87.733021 37.013528, -87.735943 37.015040, -87.738866 37.016553, -87.741789 37.018065, -87.744712 37.019577, -87.747636 37.021089, -87.750559 37.022601, -87.753483 37.024112, -87.756406 37.025624, -87.759330 37.027136, -87.762254 37.028648, -87.765178 37.030159, -87.768102 37.031671, -87.771026 37.033182, -87.773950 37.034693, -87.776875 37.036205, -87.779799 37.037716, -87.782724 37.039227, -87.785649 37.040738, -87.788573 37.042249, -87.791498 37.043760, -87.794423 37.045271, -87.797349 37.046781, -87.800274 37.048292, -87.803200 37.049803, -87.806125 37.051313, -87.809051 37.052824, -87.811977 37.054334, -87.814903 37.055845, -87.817829 37.057355, -87.820755 37.058865, -87.823681 37.060375, -87.826607 37.061885, -87.829534 37.063395, -87.832461 37.064905, -87.835387 37.066415, -87.838314 37.067925, -87.841241 37.069434, -87.844168 37.070944, -87.847095 37.072454, -87.850023 37.073963, -87.852950 37.075472, -87.855878 37.076982, -87.858805 37.078491, -87.861733 37.080000, -87.864661 37.081509, -87.867589 37.083018, -87.870517 37.084527, -87.873446 37.086036, -87.876374 37.087545, -87.879302 37.089054, -87.882231 37.090562, -87.885160 37.092071, -87.888089 37.093580, -87.891018 37.095088, -87.893947 37.096596, -87.896876 37.098105, -87.899805 37.099613, -87.902734 37.101121, -87.905664 37.102629, -87.908594 37.104137, -87.911523 37.105645, -87.914453 37.107153, -87.917383 37.108661, -87.920313 37.110169, -87.923244 37.111676, -87.926174 37.113184, -87.929105 37.114692, -87.932035 37.116199, -87.934966 37.117706, -87.937897 37.119214, -87.940828 37.120721, -87.943759 37.122228, -87.946690 37.123735, -87.949621 37.125242, -87.952553 37.126749, -87.955484 37.128256, -87.958416 37.129763, -87.961347 37.131270, -87.964279 37.132776, -87.967211 37.134283, -87.970143 37.135789, -87.973076 37.137296, -87.976008 37.138802, -87.978940 37.140308, -87.981873 37.141815, -87.984806 37.143321, -87.987739 37.144827, -87.990671 37.146333, -87.993604 37.147839, -87.996538 37.149345, -87.999471 37.150851, -88.002404 37.152356, -88.005338 37.153862, -88.008271 37.155367, -88.011205 37.156873, -88.014139 37.158378, -88.017073 37.159884, -88.020007 37.161389, -88.022941 37.162894, -88.025876 37.164399, -88.028810 37.165904, -88.031745 37.167409, -88.034679 37.168914, -88.037614 37.170419, -88.040549 37.171924, -88.043484 37.173429, -88.046419 37.174933, -88.049354 37.176438, -88.052290 37.177942, -88.055225 37.179447, -88.058161 37.180951, -88.061097 37.182456, -88.064033 37.183960, -88.066968 37.185464, -88.069905 37.186968, -88.072841 37.188472, -88.075777 37.189976, -88.078714 37.191480, -88.081650 37.192983, -88.084587 37.194487, -88.087523 37.195991, -88.090460 37.197494, -88.093397 37.198998, -88.096335 37.200501, -88.099272 37.202004, -88.102209 37.203508, -88.105147 37.205011, -88.108084 37.206514, -88.111022 37.208017, -88.113960 37.209520, -88.116898 37.211023, -88.119836 37.212526, -88.122774 37.214029, -88.125712 37.215531, -88.128651 37.217034, -88.131589 37.218536, -88.134528 37.220039, -88.137467 37.221541, -88.140406 37.223044, -88.143345 37.224546, -88.146284 37.226048, -88.149223 37.227550, -88.152162 37.229052, -88.155102 37.230554, -88.158041 37.232056, -88.160981 37.233558, -88.163921 37.235059, -88.166861 37.236561, -88.169801 37.238063, -88.172741 37.239564, -88.175681 37.241066, -88.178622 37.242567, -88.181562 37.244068, -88.184503 37.245570, -88.187444 37.247071, -88.190385 37.248572, -88.193326 37.250073, -88.196267 37.251574, -88.199208 37.253075, -88.202149 37.254575, -88.205091 37.256076, -88.208032 37.257577, -88.210974 37.259077, -88.213916 37.260578, -88.216858 37.262078, -88.219800 37.263579, -88.222742 37.265079, -88.225684 37.266579, -88.228627 37.268079, -88.231569 37.269579, -88.234512 37.271079, -88.237455 37.272579, -88.240397 37.274079, -88.243340 37.275579, -88.246284 37.277079, -88.249227 37.278578, -88.252170 37.280078, -88.255114 37.281577, -88.258057 37.283077, -88.261001 37.284576, -88.263945 37.286075, -88.266889 37.287574, -88.269833 37.289074, -88.272777 37.290573, -88.275721 37.292072, -88.278665 37.293570, -88.281610 37.295069, -88.284555 37.296568, -88.287499 37.298067, -88.290444 37.299565, -88.293389 37.301064, -88.296334 37.302562, -88.299280 37.304061, -88.302225 37.305559, -88.305170 37.307057, -88.308116 37.308555, -88.311062 37.310053, -88.314007 37.311551, -88.316953 37.313049, -88.319899 37.314547, -88.322846 37.316045, -88.325792 37.317543, -88.328738 37.319040, -88.331685 37.320538, -88.334631 37.322036, -88.337578 37.323533, -88.340525 37.325030, -88.343472 37.326528, -88.346419 37.328025, -88.349366 37.329522, -88.352314 37.331019, -88.355261 37.332516, -88.358209 37.334013, -88.361156 37.335510, -88.364104 37.337007, -88.367052 37.338503, -88.370000 37.340000, -88.373332 37.340835, -88.376664 37.341670, -88.379996 37.342505, -88.383329 37.343339, -88.386661 37.344174, -88.389993 37.345008, -88.393326 37.345843, -88.396658 37.346677, -88.399991 37.347511, -88.403324 37.348345, -88.406656 37.349180, -88.409989 37.350013, -88.413322 37.350847, -88.416655 37.351681, -88.419988 37.352515, -88.423321 37.353348, -88.426655 37.354182, -88.429988 37.355015, -88.433321 37.355848, -88.436655 37.356682, -88.439988 37.357515, -88.443322 37.358348, -88.446656 37.359181, -88.449989 37.360013, -88.453323 37.360846, -88.456657 37.361679, -88.459991 37.362511, -88.463325 37.363344, -88.466659 37.364176, -88.469993 37.365008, -88.473328 37.365841, -88.476662 37.366673, -88.479996 37.367505, -88.483331 37.368337, -88.486665 37.369168, -88.490000 37.370000, -88.493482 37.369812, -88.496965 37.369625, -88.500447 37.369437, -88.503930 37.369249, -88.507412 37.369061, -88.510894 37.368873, -88.514377 37.368684, -88.517859 37.368496, -88.521341 37.368307, -88.524824 37.368119, -88.528306 37.367930, -88.531788 37.367741, -88.535270 37.367552, -88.538752 37.367363, -88.542235 37.367174, -88.545717 37.366985, -88.549199 37.366796, -88.552681 37.366606, -88.556163 37.366417, -88.559645 37.366227, -88.563127 37.366038, -88.566610 37.365848, -88.570092 37.365658, -88.573574 37.365468, -88.577056 37.365278, -88.580538 37.365088, -88.584020 37.364897, -88.587502 37.364707, -88.590983 37.364516, -88.594465 37.364326, -88.597947 37.364135, -88.601429 37.363944, -88.604911 37.363753, -88.608393 37.363562, -88.611875 37.363371, -88.615357 37.363180, -88.618838 37.362989, -88.622320 37.362797, -88.625802 37.362606, -88.629284 37.362414, -88.632765 37.362222, -88.636247 37.362030, -88.639729 37.361838, -88.643210 37.361646, -88.646692 37.361454, -88.650174 37.361262, -88.653655 37.361070, -88.657137 37.360877, -88.660619 37.360685, -88.664100 37.360492, -88.667582 37.360299, -88.671063 37.360106, -88.674545 37.359913, -88.678026 37.359720, -88.681508 37.359527, -88.684989 37.359334, -88.688471 37.359140, -88.691952 37.358947, -88.695433 37.358753, -88.698915 37.358560, -88.702396 37.358366, -88.705878 37.358172, -88.709359 37.357978, -88.712840 37.357784, -88.716322 37.357590, -88.719803 37.357395, -88.723284 37.357201, -88.726765 37.357007, -88.730247 37.356812, -88.733728 37.356617, -88.737209 37.356422, -88.740690 37.356228, -88.744171 37.356032, -88.747652 37.355837, -88.751134 37.355642, -88.754615 37.355447, -88.758096 37.355251, -88.761577 37.355056, -88.765058 37.354860, -88.768539 37.354665, -88.772020 37.354469, -88.775501 37.354273, -88.778982 37.354077, -88.782463 37.353881, -88.785944 37.353684, -88.789425 37.353488, -88.792906 37.353292, -88.796386 37.353095, -88.799867 37.352898, -88.803348 37.352702, -88.806829 37.352505, -88.810310 37.352308, -88.813791 37.352111, -88.817271 37.351914, -88.820752 37.351716, -88.824233 37.351519, -88.827714 37.351322, -88.831194 37.351124, -88.834675 37.350926, -88.838156 37.350729, -88.841636 37.350531, -88.845117 37.350333, -88.848597 37.350135, -88.852078 37.349937, -88.855559 37.349738, -88.859039 37.349540, -88.862520 37.349341, -88.866000 37.349143, -88.869481 37.348944, -88.872961 37.348745, -88.876442 37.348547, -88.879922 37.348348, -88.883403 37.348148, -88.886883 37.347949, -88.890363 37.347750, -88.893844 37.347551, -88.897324 37.347351, -88.900804 37.347152, -88.904285 37.346952, -88.907765 37.346752, -88.911245 37.346552, -88.914726 37.346352, -88.918206 37.346152, -88.921686 37.345952, -88.925166 37.345751, -88.928646 37.345551, -88.932127 37.345351, -88.935607 37.345150, -88.939087 37.344949, -88.942567 37.344748, -88.946047 37.344547, -88.949527 37.344346, -88.953007 37.344145, -88.956487 37.343944, -88.959967 37.343743, -88.963447 37.343541, -88.966927 37.343340, -88.970407 37.343138, -88.973887 37.342936, -88.977367 37.342735, -88.980847 37.342533, -88.984327 37.342331, -88.987807 37.342128, -88.991287 37.341926, -88.994766 37.341724, -88.998246 37.341521, -89.001726 37.341319, -89.005206 37.341116, -89.008685 37.340913, -89.012165 37.340711, -89.015645 37.340508, -89.019125 37.340305, -89.022604 37.340101, -89.026084 37.339898, -89.029564 37.339695, -89.033043 37.339491, -89.036523 37.339288, -89.040002 37.339084, -89.043482 37.338880, -89.046962 37.338676, -89.050441 37.338472, -89.053921 37.338268, -89.057400 37.338064, -89.060880 37.337860, -89.064359 37.337655, -89.067838 37.337451, -89.071318 37.337246, -89.074797 37.337042, -89.078277 37.336837, -89.081756 37.336632, -89.085235 37.336427, -89.088715 37.336222, -89.092194 37.336017, -89.095673 37.335811, -89.099152 37.335606, -89.102632 37.335400, -89.106111 37.335195, -89.109590 37.334989, -89.113069 37.334783, -89.116548 37.334577, -89.120028 37.334371, -89.123507 37.334165, -89.126986 37.333959, -89.130465 37.333753, -89.133944 37.333546, -89.137423 37.333340, -89.140902 37.333133, -89.144381 37.332926, -89.147860 37.332720, -89.151339 37.332513, -89.154818 37.332306, -89.158297 37.332098, -89.161776 37.331891, -89.165255 37.331684, -89.168734 37.331476, -89.172213 37.331269, -89.175691 37.331061, -89.179170 37.330853, -89.182649 37.330646, -89.186128 37.330438, -89.189607 37.330230, -89.193085 37.330021, -89.196564 37.329813, -89.200043 37.329605, -89.203521 37.329396, -89.207000 37.329188, -89.210479 37.328979, -89.213957 37.328770, -89.217436 37.328561, -89.220915 37.328352, -89.224393 37.328143, -89.227872 37.327934, -89.231350 37.327725, -89.234829 37.327516, -89.238307 37.327306, -89.241786 37.327096, -89.245264 37.326887, -89.248743 37.326677, -89.252221 37.326467, -89.255699 37.326257, -89.259178 37.326047, -89.262656 37.325837, -89.266134 37.325627, -89.269613 37.325416, -89.273091 37.325206, -89.276569 37.324995, -89.280048 37.324784, -89.283526 37.324574, -89.287004 37.324363, -89.290482 37.324152, -89.293960 37.323941, -89.297439 37.323729, -89.300917 37.323518, -89.304395 37.323307, -89.307873 37.323095, -89.311351 37.322883, -89.314829 37.322672, -89.318307 37.322460, -89.321785 37.322248, -89.325263 37.322036, -89.328741 37.321824, -89.332219 37.321612, -89.335697 37.321399, -89.339175 37.321187, -89.342653 37.320974, -89.346131 37.320762, -89.349609 37.320549, -89.353087 37.320336, -89.356564 37.320123, -89.360042 37.319910, -89.363520 37.319697, -89.366998 37.319484, -89.370476 37.319270, -89.373953 37.319057, -89.377431 37.318843, -89.380909 37.318630, -89.384386 37.318416, -89.387864 37.318202, -89.391342 37.317988, -89.394819 37.317774, -89.398297 37.317560, -89.401774 37.317346, -89.405252 37.317131, -89.408729 37.316917, -89.412207 37.316702, -89.415684 37.316488, -89.419162 37.316273, -89.422639 37.316058, -89.426117 37.315843, -89.429594 37.315628, -89.433072 37.315413, -89.436549 37.315197, -89.440026 37.314982, -89.443504 37.314766, -89.446981 37.314551, -89.450458 37.314335, -89.453936 37.314119, -89.457413 37.313903, -89.460890 37.313687, -89.464367 37.313471, -89.467845 37.313255, -89.471322 37.313039, -89.474799 37.312822, -89.478276 37.312606, -89.481753 37.312389, -89.485230 37.312173, -89.488707 37.311956, -89.492184 37.311739, -89.495661 37.311522, -89.499138 37.311305, -89.502615 37.311088, -89.506092 37.310870, -89.509569 37.310653, -89.513046 37.310435, -89.516523 37.310218, -89.520000 37.310000, -89.523420 37.309419, -89.526841 37.308838, -89.530261 37.308258, -89.533682 37.307677, -89.537102 37.307096, -89.540522 37.306514, -89.543942 37.305933, -89.547362 37.305352, -89.550783 37.304770, -89.554203 37.304189, -89.557623 37.303607, -89.561042 37.303025, -89.564462 37.302443, -89.567882 37.301861, -89.571302 37.301279, -89.574722 37.300697, -89.578141 37.300115, -89.581561 37.299532, -89.584980 37.298950, -89.588400 37.298367, -89.591819 37.297785, -89.595239 37.297202, -89.598658 37.296619, -89.602077 37.296036, -89.605496 37.295453, -89.608916 37.294870, -89.612335 37.294286, -89.615754 37.293703, -89.619173 37.293120, -89.622592 37.292536, -89.626011 37.291952, -89.629430 37.291369, -89.632848 37.290785, -89.636267 37.290201, -89.639686 37.289617, -89.643104 37.289033, -89.646523 37.288448, -89.649942 37.287864, -89.653360 37.287280, -89.656778 37.286695, -89.660197 37.286110, -89.663615 37.285526, -89.667033 37.284941, -89.670452 37.284356, -89.673870 37.283771, -89.677288 37.283186, -89.680706 37.282601, -89.684124 37.282015, -89.687542 37.281430, -89.690960 37.280844, -89.694378 37.280259, -89.697795 37.279673, -89.701213 37.279087, -89.704631 37.278501, -89.708048 37.277915, -89.711466 37.277329, -89.714884 37.276743, -89.718301 37.276157, -89.721718 37.275570, -89.725136 37.274984, -89.728553 37.274397, -89.731970 37.273810, -89.735388 37.273224, -89.738805 37.272637, -89.742222 37.272050, -89.745639 37.271463, -89.749056 37.270875, -89.752473 37.270288, -89.755890 37.269701, -89.759306 37.269113, -89.762723 37.268526, -89.766140 37.267938, -89.769557 37.267350, -89.772973 37.266762, -89.776390 37.266174, -89.779806 37.265586, -89.783223 37.264998, -89.786639 37.264410, -89.790056 37.263821, -89.793472 37.263233, -89.796888 37.262644, -89.800304 37.262056, -89.803720 37.261467, -89.807137 37.260878, -89.810553 37.260289, -89.813969 37.259700, -89.817384 37.259111, -89.820800 37.258522, -89.824216 37.257932, -89.827632 37.257343, -89.831048 37.256753, -89.834463 37.256164, -89.837879 37.255574, -89.841294 37.254984, -89.844710 37.254394, -89.848125 37.253804, -89.851541 37.253214, -89.854956 37.252624, -89.858371 37.252033, -89.861787 37.251443, -89.865202 37.250852, -89.868617 37.250262, -89.872032 37.249671, -89.875447 37.249080, -89.878862 37.248489, -89.882277 37.247898, -89.885692 37.247307, -89.889106 37.246716, -89.892521 37.246125, -89.895936 37.245533, -89.899351 37.244942, -89.902765 37.244350, -89.906180 37.243758, -89.909594 37.243167, -89.913009 37.242575, -89.916423 37.241983, -89.919837 37.241391, -89.923251 37.240798, -89.926666 37.240206, -89.930080 37.239614, -89.933494 37.239021, -89.936908 37.238429, -89.940322 37.237836, -89.943736 37.237243, -89.947150 37.236650, -89.950564 37.236057, -89.953977 37.235464, -89.957391 37.234871, -89.960805 37.234278, -89.964218 37.233684, -89.967632 37.233091, -89.971046 37.232497, -89.974459 37.231904, -89.977872 37.231310, -89.981286 37.230716, -89.984699 37.230122, -89.988112 37.229528, -89.991525 37.228934, -89.994939 37.228340, -89.998352 37.227745, -90.001765 37.227151, -90.005178 37.226556, -90.008591 37.225962, -90.012003 37.225367, -90.015416 37.224772, -90.018829 37.224177, -90.022242 37.223582, -90.025654 37.222987, -90.029067 37.222392, -90.032480 37.221796, -90.035892 37.221201, -90.039304 37.220606, -90.042717 37.220010, -90.046129 37.219414, -90.049541 37.218818, -90.052954 37.218222, -90.056366 37.217626, -90.059778 37.217030, -90.063190 37.216434, -90.066602 37.215838, -90.070014 37.215241, -90.073426 37.214645, -90.076838 37.214048, -90.080249 37.213452, -90.083661 37.212855, -90.087073 37.212258, -90.090485 37.211661, -90.093896 37.211064, -90.097308 37.210467, -90.100719 37.209869, -90.104130 37.209272, -90.107542 37.208674, -90.110953 37.208077, -90.114364 37.207479, -90.117776 37.206881, -90.121187 37.206284, -90.124598 37.205686, -90.128009 37.205087, -90.131420 37.204489, -90.134831 37.203891, -90.138242 37.203293, -90.141652 37.202694, -90.145063 37.202096, -90.148474 37.201497, -90.151885 37.200898, -90.155295 37.200299, -90.158706 37.199700, -90.162116 37.199101, -90.165527 37.198502, -90.168937 37.197903, -90.172347 37.197304, -90.175758 37.196704, -90.179168 37.196105, -90.182578 37.195505, -90.185988 37.194905, -90.189398 37.194305, -90.192808 37.193706, -90.196218 37.193106, -90.199628 37.192505, -90.203038 37.191905, -90.206448 37.191305, -90.209857 37.190704, -90.213267 37.190104, -90.216677 37.189503, -90.220086 37.188903, -90.223496 37.188302, -90.226905 37.187701, -90.230315 37.187100, -90.233724 37.186499, -90.237133 37.185898, -90.240542 37.185296, -90.243952 37.184695, -90.247361 37.184093, -90.250770 37.183492, -90.254179 37.182890, -90.257588 37.182288, -90.260997 37.181686, -90.264406 37.181084, -90.267814 37.180482, -90.271223 37.179880, -90.274632 37.179278, -90.278041 37.178676, -90.281449 37.178073, -90.284858 37.177471, -90.288266 37.176868, -90.291675 37.176265, -90.295083 37.175662, -90.298491 37.175059, -90.301900 37.174456, -90.305308 37.173853, -90.308716 37.173250, -90.312124 37.172647, -90.315532 37.172043, -90.318940 37.171440, -90.322348 37.170836, -90.325756 37.170232, -90.329164 37.169628, -90.332572 37.169024, -90.335979 37.168420, -90.339387 37.167816, -90.342795 37.167212, -90.346202 37.166608, -90.349610 37.166003, -90.353017 37.165399, -90.356424 37.164794, -90.359832 37.164189, -90.363239 37.163585, -90.366646 37.162980, -90.370053 37.162375, -90.373461 37.161770, -90.376868 37.161164, -90.380275 37.160559, -90.383682 37.159954, -90.387089 37.159348, -90.390495 37.158743, -90.393902 37.158137, -90.397309 37.157531, -90.400716 37.156925, -90.404122 37.156319, -90.407529 37.155713, -90.410935 37.155107, -90.414342 37.154501, -90.417748 37.153894, -90.421155 37.153288, -90.424561 37.152681, -90.427967 37.152075, -90.431373 37.151468, -90.434779 37.150861, -90.438186 37.150254, -90.441592 37.149647, -90.444998 37.149040, -90.448403 37.148433, -90.451809 37.147825, -90.455215 37.147218, -90.458621 37.146610, -90.462027 37.146003, -90.465432 37.145395, -90.468838 37.144787, -90.472243 37.144179, -90.475649 37.143571, -90.479054 37.142963, -90.482460 37.142355, -90.485865 37.141747, -90.489270 37.141138, -90.492675 37.140530, -90.496081 37.139921, -90.499486 37.139312, -90.502891 37.138703, -90.506296 37.138095, -90.509701 37.137486, -90.513106 37.136876, -90.516510 37.136267, -90.519915 37.135658, -90.523320 37.135049, -90.526724 37.134439, -90.530129 37.133829, -90.533534 37.133220, -90.536938 37.132610, -90.540343 37.132000, -90.543747 37.131390, -90.547151 37.130780, -90.550556 37.130170, -90.553960 37.129560, -90.557364 37.128949, -90.560768 37.128339, -90.564172 37.127728, -90.567576 37.127118, -90.570980 37.126507, -90.574384 37.125896, -90.577788 37.125285, -90.581192 37.124674, -90.584595 37.124063, -90.587999 37.123452, -90.591403 37.122840, -90.594806 37.122229, -90.598210 37.121617, -90.601613 37.121006, -90.605017 37.120394, -90.608420 37.119782, -90.611823 37.119170, -90.615226 37.118558, -90.618630 37.117946, -90.622033 37.117334, -90.625436 37.116722, -90.628839 37.116109, -90.632242 37.115497, -90.635645 37.114884, -90.639047 37.114271, -90.642450 37.113659, -90.645853 37.113046, -90.649256 37.112433, -90.652658 37.111820, -90.656061 37.111206, -90.659463 37.110593, -90.662866 37.109980, -90.666268 37.109366, -90.669671 37.108753, -90.673073 37.108139, -90.676475 37.107525, -90.679877 37.106911, -90.683279 37.106297, -90.686681 37.105683, -90.690084 37.105069, -90.693485 37.104455, -90.696887 37.103841, -90.700289 37.103226, -90.703691 37.102612, -90.707093 37.101997, -90.710494 37.101382, -90.713896 37.100767, -90.717298 37.100152, -90.720699 37.099537, -90.724101 37.098922, -90.727502 37.098307, -90.730903 37.097692, -90.734305 37.097076, -90.737706 37.096461, -90.741107 37.095845, -90.744508 37.095229, -90.747909 37.094614, -90.751310 37.093998, -90.754711 37.093382, -90.758112 37.092766, -90.761513 37.092149, -90.764914 37.091533, -90.768315 37.090917, -90.771715 37.090300, -90.775116 37.089684, -90.778517 37.089067, -90.781917 37.088450, -90.785318 37.087833, -90.788718 37.087216, -90.792118 37.086599, -90.795519 37.085982, -90.798919 37.085365, -90.802319 37.084748, -90.805719 37.084130, -90.809119 37.083513, -90.812519 37.082895, -90.815919 37.082277, -90.819319 37.081659, -90.822719 37.081041, -90.826119 37.080423, -90.829519 37.079805, -90.832918 37.079187, -90.836318 37.078569, -90.839718 37.077950, -90.843117 37.077332, -90.846517 37.076713, -90.849916 37.076094, -90.853315 37.075475, -90.856715 37.074857, -90.860114 37.074238, -90.863513 37.073618, -90.866912 37.072999, -90.870311 37.072380, -90.873710 37.071760, -90.877109 37.071141, -90.880508 37.070521, -90.883907 37.069902, -90.887306 37.069282, -90.890705 37.068662, -90.894103 37.068042, -90.897502 37.067422, -90.900901 37.066802, -90.904299 37.066182, -90.907698 37.065561, -90.911096 37.064941, -90.914494 37.064320, -90.917893 37.063699, -90.921291 37.063079, -90.924689 37.062458, -90.928087 37.061837, -90.931485 37.061216, -90.934884 37.060595, -90.938281 37.059973, -90.941679 37.059352, -90.945077 37.058731, -90.948475 37.058109, -90.951873 37.057488, -90.955271 37.056866, -90.958668 37.056244, -90.962066 37.055622, -90.965463 37.055000, -90.968861 37.054378, -90.972258 37.053756, -90.975656 37.053133, -90.979053 37.052511, -90.982450 37.051888, -90.985847 37.051266, -90.989244 37.050643, -90.992641 37.050020, -90.996039 37.049398, -90.999435 37.048775, -91.002832 37.048151, -91.006229 37.047528, -91.009626 37.046905, -91.013023 37.046282, -91.016420 37.045658, -91.019816 37.045035, -91.023213 37.044411, -91.026609 37.043787, -91.030006 37.043163, -91.033402 37.042539, -91.036799 37.041915, -91.040195 37.041291, -91.043591 37.040667, -91.046987 37.040043, -91.050383 37.039418, -91.053779 37.038794, -91.057175 37.038169, -91.060571 37.037544, -91.063967 37.036919, -91.067363 37.036294, -91.070759 37.035669, -91.074155 37.035044, -91.077550 37.034419, -91.080946 37.033794, -91.084342 37.033168, -91.087737 37.032543, -91.091133 37.031917, -91.094528 37.031292, -91.097923 37.030666, -91.101319 37.030040, -91.104714 37.029414, -91.108109 37.028788, -91.111504 37.028162, -91.114899 37.027535, -91.118294 37.026909, -91.121689 37.026283, -91.125084 37.025656, -91.128479 37.025029, -91.131874 37.024403, -91.135269 37.023776, -91.138663 37.023149, -91.142058 37.022522, -91.145452 37.021895, -91.148847 37.021267, -91.152241 37.020640, -91.155636 37.020013, -91.159030 37.019385, -91.162424 37.018757, -91.165819 37.018130, -91.169213 37.017502, -91.172607 37.016874, -91.176001 37.016246, -91.179395 37.015618, -91.182789 37.014990, -91.186183 37.014361, -91.189577 37.013733, -91.192970 37.013104, -91.196364 37.012476, -91.199758 37.011847, -91.203152 37.011218, -91.206545 37.010589, -91.209939 37.009960, -91.213332 37.009331, -91.216725 37.008702, -91.220119 37.008073, -91.223512 37.007444, -91.226905 37.006814, -91.230298 37.006184, -91.233692 37.005555, -91.237085 37.004925, -91.240478 37.004295, -91.243870 37.003665, -91.247263 37.003035, -91.250656 37.002405, -91.254049 37.001775, -91.257442 37.001144, -91.260834 37.000514, -91.264227 36.999884, -91.267619 36.999253, -91.271012 36.998622, -91.274404 36.997991, -91.277797 36.997360, -91.281189 36.996729, -91.284581 36.996098, -91.287974 36.995467, -91.291366 36.994836, -91.294758 36.994204, -91.298150 36.993573, -91.301542 36.992941, -91.304934 36.992310, -91.308326 36.991678, -91.311717 36.991046, -91.315109 36.990414, -91.318501 36.989782, -91.321893 36.989150, -91.325284 36.988518, -91.328676 36.987885, -91.332067 36.987253, -91.335459 36.986620, -91.338850 36.985987, -91.342241 36.985355, -91.345633 36.984722, -91.349024 36.984089, -91.352415 36.983456, -91.355806 36.982823, -91.359197 36.982190, -91.362588 36.981556, -91.365979 36.980923, -91.369370 36.980289, -91.372760 36.979656, -91.376151 36.979022, -91.379542 36.978388, -91.382933 36.977754, -91.386323 36.977120, -91.389714 36.976486, -91.393104 36.975852, -91.396494 36.975218, -91.399885 36.974583, -91.403275 36.973949, -91.406665 36.973314, -91.410056 36.972680, -91.413446 36.972045, -91.416836 36.971410, -91.420226 36.970775, -91.423616 36.970140, -91.427006 36.969505, -91.430395 36.968869, -91.433785 36.968234, -91.437175 36.967599, -91.440565 36.966963, -91.443954 36.966327, -91.447344 36.965692, -91.450733 36.965056, -91.454123 36.964420, -91.457512 36.963784, -91.460901 36.963148, -91.464291 36.962512, -91.467680 36.961875, -91.471069 36.961239, -91.474458 36.960602, -91.477847 36.959966, -91.481236 36.959329, -91.484625 36.958692, -91.488014 36.958055, -91.491403 36.957418, -91.494792 36.956781, -91.498180 36.956144, -91.501569 36.955507, -91.504958 36.954869, -91.508346 36.954232, -91.511735 36.953594, -91.515123 36.952957, -91.518511 36.952319, -91.521900 36.951681, -91.525288 36.951043, -91.528676 36.950405, -91.532064 36.949767, -91.535452 36.949129, -91.538840 36.948490, -91.542228 36.947852, -91.545616 36.947213, -91.549004 36.946575, -91.552392 36.945936, -91.555780 36.945297, -91.559167 36.944658, -91.562555 36.944019, -91.565942 36.943380, -91.569330 36.942741, -91.572717 36.942102, -91.576105 36.941462, -91.579492 36.940823, -91.582879 36.940183, -91.586267 36.939544, -91.589654 36.938904, -91.593041 36.938264, -91.596428 36.937624, -91.599815 36.936984, -91.603202 36.936344, -91.606589 36.935703, -91.609976 36.935063, -91.613362 36.934423, -91.616749 36.933782, -91.620136 36.933141, -91.623522 36.932501, -91.626909 36.931860, -91.630295 36.931219, -91.633682 36.930578, -91.637068 36.929937, -91.640455 36.929296, -91.643841 36.928654, -91.647227 36.928013, -91.650613 36.927371, -91.653999 36.926730, -91.657385 36.926088, -91.660771 36.925446, -91.664157 36.924804, -91.667543 36.924162, -91.670929 36.923520, -91.674315 36.922878, -91.677700 36.922236, -91.681086 36.921593, -91.684472 36.920951, -91.687857 36.920308, -91.691242 36.919666, -91.694628 36.919023, -91.698013 36.918380, -91.701399 36.917737, -91.704784 36.917094, -91.708169 36.916451, -91.711554 36.915808, -91.714939 36.915164, -91.718324 36.914521, -91.721709 36.913877, -91.725094 36.913234, -91.728479 36.912590, -91.731864 36.911946, -91.735248 36.911302, -91.738633 36.910658, -91.742018 36.910014, -91.745402 36.909370, -91.748787 36.908726, -91.752171 36.908081, -91.755555 36.907437, -91.758940 36.906792, -91.762324 36.906148, -91.765708 36.905503, -91.769092 36.904858, -91.772476 36.904213, -91.775860 36.903568, -91.779244 36.902923, -91.782628 36.902277, -91.786012 36.901632, -91.789396 36.900987, -91.792780 36.900341, -91.796163 36.899696, -91.799547 36.899050, -91.802931 36.898404, -91.806314 36.897758, -91.809698 36.897112, -91.813081 36.896466, -91.816464 36.895820, -91.819848 36.895173, -91.823231 36.894527, -91.826614 36.893880, -91.829997 36.893234, -91.833380 36.892587, -91.836763 36.891940, -91.840146 36.891293, -91.843529 36.890646, -91.846912 36.889999, -91.850295 36.889352, -91.853677 36.888705, -91.857060 36.888058, -91.860443 36.887410, -91.863825 36.886763, -91.867208 36.886115, -91.870590 36.885467, -91.873973 36.884819, -91.877355 36.884171, -91.880737 36.883523, -91.884119 36.882875, -91.887501 36.882227, -91.890884 36.881579, -91.894266 36.880930, -91.897648 36.880282, -91.901029 36.879633, -91.904411 36.878984, -91.907793 36.878336, -91.911175 36.877687, -91.914557 36.877038, -91.917938 36.876389, -91.921320 36.875739, -91.924701 36.875090, -91.928083 36.874441, -91.931464 36.873791, -91.934845 36.873142, -91.938227 36.872492, -91.941608 36.871842, -91.944989 36.871192, -91.948370 36.870542, -91.951751 36.869892, -91.955132 36.869242, -91.958513 36.868592, -91.961894 36.867942, -91.965275 36.867291, -91.968656 36.866641, -91.972036 36.865990, -91.975417 36.865339, -91.978798 36.864689, -91.982178 36.864038, -91.985559 36.863387, -91.988939 36.862736, -91.992319 36.862084, -91.995700 36.861433, -91.999080 36.860782, -92.002460 36.860130, -92.005840 36.859479, -92.009220 36.858827, -92.012600 36.858175, -92.015980 36.857523, -92.019360 36.856871, -92.022740 36.856219, -92.026120 36.855567, -92.029499 36.854915, -92.032879 36.854263, -92.036259 36.853610, -92.039638 36.852958, -92.043018 36.852305, -92.046397 36.851652, -92.049777 36.850999, -92.053156 36.850346, -92.056535 36.849693, -92.059914 36.849040, -92.063294 36.848387, -92.066673 36.847734, -92.070052 36.847080, -92.073431 36.846427, -92.076810 36.845773, -92.080188 36.845120, -92.083567 36.844466, -92.086946 36.843812, -92.090325 36.843158, -92.093703 36.842504, -92.097082 36.841850, -92.100460 36.841195, -92.103839 36.840541, -92.107217 36.839887, -92.110596 36.839232, -92.113974 36.838577, -92.117352 36.837923, -92.120730 36.837268, -92.124108 36.836613, -92.127486 36.835958, -92.130864 36.835303, -92.134242 36.834648, -92.137620 36.833992, -92.140998 36.833337, -92.144376 36.832681, -92.147753 36.832026, -92.151131 36.831370, -92.154509 36.830714, -92.157886 36.830058, -92.161264 36.829402, -92.164641 36.828746, -92.168018 36.828090, -92.171396 36.827434, -92.174773 36.826778, -92.178150 36.826121, -92.181527 36.825465, -92.184904 36.824808, -92.188281 36.824151, -92.191658 36.823494, -92.195035 36.822837, -92.198412 36.822180, -92.201789 36.821523, -92.205166 36.820866, -92.208542 36.820209, -92.211919 36.819551, -92.215295 36.818894, -92.218672 36.818236, -92.222048 36.817579, -92.225425 36.816921, -92.228801 36.816263, -92.232177 36.815605, -92.235553 36.814947, -92.238930 36.814289, -92.242306 36.813630, -92.245682 36.812972, -92.249058 36.812313, -92.252433 36.811655, -92.255809 36.810996, -92.259185 36.810338, -92.262561 36.809679, -92.265937 36.809020, -92.269312 36.808361, -92.272688 36.807702, -92.276063 36.807042, -92.279439 36.806383, -92.282814 36.805724, -92.286189 36.805064, -92.289565 36.804405, -92.292940 36.803745, -92.296315 36.803085, -92.299690 36.802425, -92.303065 36.801765, -92.306440 36.801105, -92.309815 36.800445, -92.313190 36.799785, -92.316565 36.799124, -92.319939 36.798464, -92.323314 36.797803, -92.326689 36.797143, -92.330063 36.796482, -92.333438 36.795821, -92.336812 36.795160, -92.340187 36.794499, -92.343561 36.793838, -92.346935 36.793177, -92.350309 36.792515, -92.353684 36.791854, -92.357058 36.791192, -92.360432 36.790531, -92.363806 36.789869, -92.367180 36.789207, -92.370554 36.788545, -92.373927 36.787883, -92.377301 36.787221, -92.380675 36.786559, -92.384048 36.785897, -92.387422 36.785234, -92.390796 36.784572, -92.394169 36.783909, -92.397542 36.783247, -92.400916 36.782584, -92.404289 36.781921, -92.407662 36.781258, -92.411035 36.780595, -92.414408 36.779932, -92.417782 36.779269, -92.421155 36.778605, -92.424527 36.777942, -92.427900 36.777279, -92.431273 36.776615, -92.434646 36.775951, -92.438019 36.775287, -92.441391 36.774624, -92.444764 36.773960, -92.448136 36.773295, -92.451509 36.772631, -92.454881 36.771967, -92.458254 36.771303, -92.461626 36.770638, -92.464998 36.769974, -92.468370 36.769309, -92.471742 36.768644, -92.475114 36.767979, -92.478486 36.767314, -92.481858 36.766649, -92.485230 36.765984, -92.488602 36.765319, -92.491974 36.764654, -92.495346 36.763988, -92.498717 36.763323, -92.502089 36.762657, -92.505460 36.761991, -92.508832 36.761326, -92.512203 36.760660, -92.515575 36.759994, -92.518946 36.759328, -92.522317 36.758662, -92.525688 36.757995, -92.529059 36.757329, -92.532431 36.756662, -92.535802 36.755996, -92.539172 36.755329, -92.542543 36.754662, -92.545914 36.753996, -92.549285 36.753329, -92.552656 36.752662, -92.556026 36.751995, -92.559397 36.751327, -92.562767 36.750660, -92.566138 36.749993, -92.569508 36.749325, -92.572879 36.748657, -92.576249 36.747990, -92.579619 36.747322, -92.582989 36.746654, -92.586360 36.745986, -92.589730 36.745318, -92.593100 36.744650, -92.596470 36.743982, -92.599839 36.743313, -92.603209 36.742645, -92.606579 36.741976, -92.609949 36.741308, -92.613318 36.740639, -92.616688 36.739970, -92.620058 36.739301, -92.623427 36.738632, -92.626796 36.737963, -92.630166 36.737294, -92.633535 36.736624, -92.636904 36.735955, -92.640274 36.735285, -92.643643 36.734616, -92.647012 36.733946, -92.650381 36.733276, -92.653750 36.732606, -92.657119 36.731936, -92.660487 36.731266, -92.663856 36.730596, -92.667225 36.729926, -92.670594 36.729256, -92.673962 36.728585, -92.677331 36.727915, -92.680699 36.727244, -92.684068 36.726573, -92.687436 36.725902, -92.690804 36.725231, -92.694173 36.724560, -92.697541 36.723889, -92.700909 36.723218, -92.704277 36.722547, -92.707645 36.721875, -92.711013 36.721204, -92.714381 36.720532, -92.717749 36.719861, -92.721116 36.719189, -92.724484 36.718517, -92.727852 36.717845, -92.731219 36.717173, -92.734587 36.716501, -92.737954 36.715828, -92.741322 36.715156, -92.744689 36.714484, -92.748056 36.713811, -92.751424 36.713138, -92.754791 36.712466, -92.758158 36.711793, -92.761525 36.711120, -92.764892 36.710447, -92.768259 36.709774, -92.771626 36.709101, -92.774993 36.708427, -92.778360 36.707754, -92.781726 36.707081, -92.785093 36.706407, -92.788459 36.705733, -92.791826 36.705059, -92.795193 36.704386, -92.798559 36.703712, -92.801925 36.703038, -92.805292 36.702363, -92.808658 36.701689, -92.812024 36.701015, -92.815390 36.700340, -92.818756 36.699666, -92.822122 36.698991, -92.825488 36.698317, -92.828854 36.697642, -92.832220 36.696967, -92.835586 36.696292, -92.838951 36.695617, -92.842317 36.694941, -92.845683 36.694266, -92.849048 36.693591, -92.852414 36.692915, -92.855779 36.692240, -92.859144 36.691564, -92.862510 36.690888, -92.865875 36.690212, -92.869240 36.689537, -92.872605 36.688860, -92.875970 36.688184, -92.879335 36.687508, -92.882700 36.686832, -92.886065 36.686155, -92.889430 36.685479, -92.892795 36.684802, -92.896159 36.684125, -92.899524 36.683449, -92.902889 36.682772, -92.906253 36.682095, -92.909618 36.681418, -92.912982 36.680741, -92.916346 36.680063, -92.919711 36.679386, -92.923075 36.678708, -92.926439 36.678031, -92.929803 36.677353, -92.933167 36.676675, -92.936531 36.675998, -92.939895 36.675320, -92.943259 36.674642, -92.946623 36.673963, -92.949986 36.673285, -92.953350 36.672607, -92.956714 36.671929, -92.960077 36.671250, -92.963441 36.670571, -92.966804 36.669893, -92.970168 36.669214, -92.973531 36.668535, -92.976894 36.667856, -92.980258 36.667177, -92.983621 36.666498, -92.986984 36.665819, -92.990347 36.665139, -92.993710 36.664460, -92.997073 36.663780, -93.000436 36.663101, -93.003799 36.662421, -93.007161 36.661741, -93.010524 36.661061, -93.013887 36.660381, -93.017249 36.659701, -93.020612 36.659021, -93.023974 36.658340, -93.027336 36.657660, -93.030699 36.656979, -93.034061 36.656299, -93.037423 36.655618, -93.040785 36.654937, -93.044148 36.654257, -93.047510 36.653576, -93.050872 36.652895, -93.054233 36.652213, -93.057595 36.651532, -93.060957 36.650851, -93.064319 36.650169, -93.067681 36.649488, -93.071042 36.648806, -93.074404 36.648124, -93.077765 36.647443, -93.081127 36.646761, -93.084488 36.646079, -93.087849 36.645397, -93.091211 36.644714, -93.094572 36.644032, -93.097933 36.643350, -93.101294 36.642667, -93.104655 36.641985, -93.108016 36.641302, -93.111377 36.640619, -93.114738 36.639936, -93.118098 36.639253, -93.121459 36.638570, -93.124820 36.637887, -93.128180 36.637204, -93.131541 36.636521, -93.134902 36.635837, -93.138262 36.635154, -93.141622 36.634470, -93.144983 36.633786, -93.148343 36.633103, -93.151703 36.632419, -93.155063 36.631735, -93.158423 36.631051, -93.161783 36.630367, -93.165143 36.629682, -93.168503 36.628998, -93.171863 36.628313, -93.175223 36.627629, -93.178582 36.626944, -93.181942 36.626260, -93.185302 36.625575, -93.188661 36.624890, -93.192021 36.624205, -93.195380 36.623520, -93.198739 36.622834, -93.202099 36.622149, -93.205458 36.621464, -93.208817 36.620778, -93.212176 36.620093, -93.215535 36.619407, -93.218894 36.618721, -93.222253 36.618035, -93.225612 36.617349, -93.228971 36.616663, -93.232330 36.615977, -93.235688 36.615291, -93.239047 36.614604, -93.242406 36.613918, -93.245764 36.613231, -93.249122 36.612545, -93.252481 36.611858, -93.255839 36.611171, -93.259197 36.610484, -93.262556 36.609797, -93.265914 36.609110, -93.269272 36.608423, -93.272630 36.607736, -93.275988 36.607048, -93.279346 36.606361, -93.282704 36.605673, -93.286062 36.604986, -93.289419 36.604298, -93.292777 36.603610, -93.296135 36.602922, -93.299492 36.602234, -93.302850 36.601546, -93.306207 36.600858, -93.309564 36.600169, -93.312922 36.599481, -93.316279 36.598793, -93.319636 36.598104, -93.322993 36.597415, -93.326350 36.596726, -93.329707 36.596038, -93.333064 36.595349, -93.336421 36.594659, -93.339778 36.593970, -93.343135 36.593281, -93.346492 36.592592, -93.349848 36.591902, -93.353205 36.591213, -93.356561 36.590523, -93.359918 36.589833, -93.363274 36.589143, -93.366631 36.588454, -93.369987 36.587764, -93.373343 36.587073, -93.376699 36.586383, -93.380055 36.585693, -93.383412 36.585002, -93.386768 36.584312, -93.390123 36.583621, -93.393479 36.582931, -93.396835 36.582240, -93.400191 36.581549, -93.403547 36.580858, -93.406902 36.580167, -93.410258 36.579476, -93.413613 36.578785, -93.416969 36.578093, -93.420324 36.577402, -93.423680 36.576710, -93.427035 36.576019, -93.430390 36.575327, -93.433745 36.574635, -93.437100 36.573943, -93.440455 36.573251, -93.443810 36.572559, -93.447165 36.571867, -93.450520 36.571175, -93.453875 36.570482, -93.457230 36.569790, -93.460584 36.569097, -93.463939 36.568405, -93.467293 36.567712, -93.470648 36.567019, -93.474002 36.566326, -93.477357 36.565633, -93.480711 36.564940, -93.484065 36.564247, -93.487419 36.563554, -93.490774 36.562860, -93.494128 36.562167, -93.497482 36.561473, -93.500836 36.560779, -93.504190 36.560086, -93.507543 36.559392, -93.510897 36.558698, -93.514251 36.558004, -93.517605 36.557310, -93.520958 36.556615, -93.524312 36.555921, -93.527665 36.555227, -93.531019 36.554532, -93.534372 36.553837, -93.537725 36.553143, -93.541078 36.552448, -93.544432 36.551753, -93.547785 36.551058, -93.551138 36.550363, -93.554491 36.549668, -93.557844 36.548972, -93.561197 36.548277, -93.564549 36.547582, -93.567902 36.546886, -93.571255 36.546190, -93.574607 36.545495, -93.577960 36.544799, -93.581312 36.544103, -93.584665 36.543407, -93.588017 36.542711, -93.591370 36.542014, -93.594722 36.541318, -93.598074 36.540622, -93.601426 36.539925, -93.604778 36.539229, -93.608130 36.538532, -93.611482 36.537835, -93.614834 36.537138, -93.618186 36.536441, -93.621538 36.535744, -93.624890 36.535047, -93.628241 36.534350, -93.631593 36.533653, -93.634944 36.532955, -93.638296 36.532258, -93.641647 36.531560, -93.644999 36.530862, -93.648350 36.530164, -93.651701 36.529466, -93.655052 36.528768, -93.658403 36.528070, -93.661754 36.527372, -93.665105 36.526674, -93.668456 36.525976, -93.671807 36.525277, -93.675158 36.524578, -93.678509 36.523880, -93.681860 36.523181, -93.685210 36.522482, -93.688561 36.521783, -93.691911 36.521084, -93.695262 36.520385, -93.698612 36.519686, -93.701962 36.518987, -93.705313 36.518287, -93.708663 36.517588, -93.712013 36.516888, -93.715363 36.516188, -93.718713 36.515489, -93.722063 36.514789, -93.725413 36.514089, -93.728763 36.513389, -93.732113 36.512689, -93.735462 36.511988, -93.738812 36.511288, -93.742162 36.510588, -93.745511 36.509887, -93.748861 36.509186, -93.752210 36.508486, -93.755559 36.507785, -93.758909 36.507084, -93.762258 36.506383, -93.765607 36.505682, -93.768956 36.504981, -93.772305 36.504279, -93.775654 36.503578, -93.779003 36.502877, -93.782352 36.502175, -93.785701 36.501473, -93.789050 36.500772, -93.792398 36.500070, -93.795747 36.499368, -93.799096 36.498666, -93.802444 36.497964, -93.805793 36.497261, -93.809141 36.496559, -93.812489 36.495857, -93.815838 36.495154, -93.819186 36.494452, -93.822534 36.493749, -93.825882 36.493046, -93.829230 36.492343, -93.832578 36.491640, -93.835926 36.490937, -93.839274 36.490234, -93.842621 36.489531, -93.845969 36.488828, -93.849317 36.488124, -93.852664 36.487421, -93.856012 36.486717, -93.859359 36.486013, -93.862707 36.485309, -93.866054 36.484606, -93.869402 36.483902, -93.872749 36.483197, -93.876096 36.482493, -93.879443 36.481789, -93.882790 36.481085, -93.886137 36.480380, -93.889484 36.479676, -93.892831 36.478971, -93.896178 36.478266, -93.899524 36.477561, -93.902871 36.476856, -93.906218 36.476151, -93.909564 36.475446, -93.912911 36.474741, -93.916257 36.474036, -93.919604 36.473330, -93.922950 36.472625, -93.926296 36.471919, -93.929642 36.471214, -93.932989 36.470508, -93.936335 36.469802, -93.939681 36.469096, -93.943027 36.468390, -93.946372 36.467684, -93.949718 36.466978, -93.953064 36.466271, -93.956410 36.465565, -93.959755 36.464858, -93.963101 36.464152, -93.966447 36.463445, -93.969792 36.462738, -93.973137 36.462031, -93.976483 36.461324, -93.979828 36.460617, -93.983173 36.459910, -93.986518 36.459203, -93.989864 36.458496, -93.993209 36.457788, -93.996554 36.457081, -93.999898 36.456373, -94.003243 36.455665, -94.006588 36.454957, -94.009933 36.454249, -94.013278 36.453541, -94.016622 36.452833, -94.019967 36.452125, -94.023311 36.451417, -94.026656 36.450708, -94.030000 36.450000, -94.032842 36.448419, -94.035684 36.446839, -94.038525 36.445258, -94.041367 36.443677, -94.044208 36.442097, -94.047050 36.440516, -94.049891 36.438935, -94.052732 36.437354, -94.055573 36.435773, -94.058414 36.434192, -94.061255 36.432610, -94.064095 36.431029, -94.066936 36.429448, -94.069776 36.427866, -94.072617 36.426285, -94.075457 36.424703, -94.078297 36.423122, -94.081137 36.421540, -94.083977 36.419958, -94.086817 36.418377, -94.089656 36.416795, -94.092496 36.415213, -94.095335 36.413631, -94.098174 36.412049, -94.101013 36.410467, -94.103852 36.408884, -94.106691 36.407302, -94.109530 36.405720, -94.112369 36.404137, -94.115207 36.402555, -94.118046 36.400972, -94.120884 36.399390, -94.123722 36.397807, -94.126561 36.396224, -94.129399 36.394641, -94.132236 36.393059, -94.135074 36.391476, -94.137912 36.389893, -94.140749 36.388309, -94.143587 36.386726, -94.146424 36.385143, -94.149261 36.383560, -94.152098 36.381976, -94.154935 36.380393, -94.157772 36.378810, -94.160609 36.377226, -94.163445 36.375642, -94.166282 36.374059, -94.169118 36.372475, -94.171955 36.370891, -94.174791 36.369307, -94.177627 36.367723, -94.180463 36.366139, -94.183298 36.364555, -94.186134 36.362971, -94.188970 36.361387, -94.191805 36.359802, -94.194641 36.358218, -94.197476 36.356634, -94.200311 36.355049, -94.203146 36.353465, -94.205981 36.351880, -94.208815 36.350295, -94.211650 36.348711, -94.214485 36.347126, -94.217319 36.345541, -94.220153 36.343956, -94.222988 36.342371, -94.225822 36.340786, -94.228656 36.339201, -94.231489 36.337615, -94.234323 36.336030, -94.237157 36.334445, -94.239990 36.332859, -94.242824 36.331274, -94.245657 36.329688, -94.248490 36.328103, -94.251323 36.326517, -94.254156 36.324931, -94.256989 36.323345, -94.259821 36.321759, -94.262654 36.320173, -94.265486 36.318587, -94.268319 36.317001, -94.271151 36.315415, -94.273983 36.313829, -94.276815 36.312243, -94.279647 36.310656, -94.282479 36.309070, -94.285310 36.307483, -94.288142 36.305897, -94.290973 36.304310, -94.293805 36.302723, -94.296636 36.301137, -94.299467 36.299550, -94.302298 36.297963, -94.305129 36.296376, -94.307959 36.294789, -94.310790 36.293202, -94.313620 36.291615, -94.316451 36.290027, -94.319281 36.288440, -94.322111 36.286853, -94.324941 36.285265, -94.327771 36.283678, -94.330601 36.282090, -94.333431 36.280503, -94.336260 36.278915, -94.339090 36.277327, -94.341919 36.275739, -94.344748 36.274151, -94.347577 36.272563, -94.350406 36.270975, -94.353235 36.269387, -94.356064 36.267799, -94.358893 36.266211, -94.361721 36.264623, -94.364550 36.263034, -94.367378 36.261446, -94.370206 36.259857, -94.373034 36.258269, -94.375862 36.256680, -94.378690 36.255091, -94.381518 36.253503, -94.384345 36.251914, -94.387173 36.250325, -94.390000 36.248736, -94.392828 36.247147, -94.395655 36.245558, -94.398482 36.243969, -94.401309 36.242379, -94.404136 36.240790, -94.406962 36.239201, -94.409789 36.237611, -94.412615 36.236022, -94.415442 36.234432, -94.418268 36.232843, -94.421094 36.231253, -94.423920 36.229663, -94.426746 36.228073, -94.429572 36.226483, -94.432397 36.224893, -94.435223 36.223303, -94.438048 36.221713, -94.440874 36.220123, -94.443699 36.218533, -94.446524 36.216943, -94.449349 36.215352, -94.452174 36.213762, -94.454998 36.212171, -94.457823 36.210581, -94.460648 36.208990, -94.463472 36.207399, -94.466296 36.205809, -94.469120 36.204218, -94.471945 36.202627, -94.474768 36.201036, -94.477592 36.199445, -94.480416 36.197854, -94.483240 36.196263, -94.486063 36.194672, -94.488886 36.193080, -94.491710 36.191489, -94.494533 36.189897, -94.497356 36.188306, -94.500179 36.186714, -94.503002 36.185123, -94.505824 36.183531, -94.508647 36.181939, -94.511469 36.180348, -94.514292 36.178756, -94.517114 36.177164, -94.519936 36.175572, -94.522758 36.173980, -94.525580 36.172387, -94.528402 36.170795, -94.531223 36.169203, -94.534045 36.167611, -94.536866 36.166018, -94.539687 36.164426, -94.542509 36.162833, -94.545330 36.161240, -94.548151 36.159648, -94.550971 36.158055, -94.553792 36.156462, -94.556613 36.154869, -94.559433 36.153276, -94.562254 36.151683, -94.565074 36.150090, -94.567894 36.148497, -94.570714 36.146904, -94.573534 36.145311, -94.576354 36.143717, -94.579174 36.142124, -94.581993 36.140530, -94.584813 36.138937, -94.587632 36.137343, -94.590451 36.135750, -94.593270 36.134156, -94.596089 36.132562, -94.598908 36.130968, -94.601727 36.129374, -94.604546 36.127780, -94.607364 36.126186, -94.610183 36.124592, -94.613001 36.122998, -94.615819 36.121404, -94.618637 36.119809, -94.621455 36.118215, -94.624273 36.116620, -94.627091 36.115026, -94.629909 36.113431, -94.632726 36.111837, -94.635543 36.110242, -94.638361 36.108647, -94.641178 36.107052, -94.643995 36.105457, -94.646812 36.103862, -94.649629 36.102267, -94.652446 36.100672, -94.655262 36.099077, -94.658079 36.097482, -94.660895 36.095886, -94.663711 36.094291, -94.666527 36.092696, -94.669343 36.091100, -94.672159 36.089504, -94.674975 36.087909, -94.677791 36.086313, -94.680606 36.084717, -94.683422 36.083121, -94.686237 36.081526, -94.689053 36.079930, -94.691868 36.078333, -94.694683 36.076737, -94.697498 36.075141, -94.700312 36.073545, -94.703127 36.071949, -94.705942 36.070352, -94.708756 36.068756, -94.711570 36.067159, -94.714384 36.065563, -94.717199 36.063966, -94.720013 36.062369, -94.722826 36.060773, -94.725640 36.059176, -94.728454 36.057579, -94.731267 36.055982, -94.734081 36.054385, -94.736894 36.052788, -94.739707 36.051191, -94.742520 36.049593, -94.745333 36.047996, -94.748146 36.046399, -94.750959 36.044801, -94.753771 36.043204, -94.756584 36.041606, -94.759396 36.040009, -94.762209 36.038411, -94.765021 36.036813, -94.767833 36.035215, -94.770645 36.033617, -94.773456 36.032019, -94.776268 36.030421, -94.779080 36.028823, -94.781891 36.027225, -94.784703 36.025627, -94.787514 36.024029, -94.790325 36.022430, -94.793136 36.020832, -94.795947 36.019234, -94.798758 36.017635, -94.801568 36.016036, -94.804379 36.014438, -94.807189 36.012839, -94.810000 36.011240, -94.812810 36.009641, -94.815620 36.008042, -94.818430 36.006443, -94.821240 36.004844, -94.824050 36.003245, -94.826859 36.001646, -94.829669 36.000047, -94.832478 35.998447, -94.835287 35.996848, -94.838097 35.995248, -94.840906 35.993649, -94.843715 35.992049, -94.846523 35.990450, -94.849332 35.988850, -94.852141 35.987250, -94.854949 35.985650, -94.857758 35.984050, -94.860566 35.982450, -94.863374 35.980850, -94.866182 35.979250, -94.868990 35.977650, -94.871798 35.976050, -94.874606 35.974450, -94.877413 35.972849, -94.880221 35.971249, -94.883028 35.969648, -94.885835 35.968048, -94.888642 35.966447, -94.891450 35.964846, -94.894256 35.963245, -94.897063 35.961645, -94.899870 35.960044, -94.902676 35.958443, -94.905483 35.956842, -94.908289 35.955241, -94.911095 35.953639, -94.913902 35.952038, -94.916708 35.950437, -94.919513 35.948836, -94.922319 35.947234, -94.925125 35.945633, -94.927930 35.944031, -94.930736 35.942430, -94.933541 35.940828, -94.936346 35.939226, -94.939152 35.937624, -94.941956 35.936022, -94.944761 35.934420, -94.947566 35.932818, -94.950371 35.931216, -94.953175 35.929614, -94.955980 35.928012, -94.958784 35.926410, -94.961588 35.924807, -94.964392 35.923205, -94.967196 35.921603, -94.970000 35.920000)
