MULTILINESTRING ((-135.358000 59.503000, -135.357710 59.503887, -135.357420 59.504774, -135.357130 59.505661, -135.356840 59.506548, -135.356551 59.507436, -135.356261 59.508323, -135.355971 59.509210, -135.355681 59.510097, -135.355391 59.510984, -135.355101 59.511871, -135.354811 59.512758, -135.354521 59.513645, -135.354231 59.514532, -135.353941 59.515420, -135.353651 59.516307, -135.353360 59.517194, -135.353070 59.518081, -135.352780 59.518968, -135.352490 59.519855, -135.352200 59.520742, -135.351910 59.521629, -135.351620 59.522516, -135.351329 59.523404, -135.351039 59.524291, -135.350749 59.525178, -135.350459 59.526065, -135.350169 59.526952, -135.349878 59.527839, -135.349588 59.528726, -135.349298 59.529613, -135.349007 59.530500, -135.348717 59.531387, -135.348427 59.532275, -135.348136 59.533162, -135.347846 59.534049, -135.347556 59.534936, -135.347265 59.535823, -135.346975 59.536710, -135.346684 59.537597, -135.346394 59.538484, -135.346103 59.539371, -135.345813 59.540258, -135.345522 59.541145, -135.345232 59.542033, -135.344941 59.542920, -135.344651 59.543807, -135.344360 59.544694, -135.344070 59.545581, -135.343779 59.546468, -135.343488 59.547355, -135.343198 59.548242, -135.342907 59.549129, -135.342617 59.550016, -135.342326 59.550903, -135.342035 59.551790, -135.341745 59.552678, -135.341454 59.553565, -135.341163 59.554452, -135.340872 59.555339, -135.340582 59.556226, -135.340291 59.557113, -135.340000 59.558000, -135.339279 59.558820, -135.338558 59.559639, -135.337837 59.560459, -135.337116 59.561278, -135.336395 59.562098, -135.335674 59.562917, -135.334952 59.563737, -135.334231 59.564557, -135.333510 59.565376, -135.332789 59.566196, -135.332067 59.567015, -135.331346 59.567835, -135.330625 59.568654, -135.329903 59.569474, -135.329182 59.570293, -135.328460 59.571113, -135.327739 59.571932, -135.327017 59.572752, -135.326295 59.573571, -135.325574 59.574391, -135.324852 59.575210, -135.324130 59.576030, -135.323409 59.576849, -135.322687 59.577669, -135.321965 59.578488, -135.321243 59.579308, -135.320521 59.580127, -135.319799 59.580947, -135.319077 59.581766, -135.318356 59.582586, -135.317633 59.583405, -135.316911 59.584225, -135.316189 59.585044, -135.315467 59.585864, -135.314745 59.586683, -135.314023 59.587503, -135.313301 59.588322, -135.312578 59.589141, -135.311856 59.589961, -135.311134 59.590780, -135.310411 59.591600, -135.309689 59.592419, -135.308966 59.593239, -135.308244 59.594058, -135.307521 59.594877, -135.306799 59.595697, -135.306076 59.596516, -135.305354 59.597336, -135.304631 59.598155, -135.303908 59.598974, -135.303186 59.599794, -135.302463 59.600613, -135.301740 59.601433, -135.301017 59.602252, -135.300294 59.603071, -135.299571 59.603891, -135.298848 59.604710, -135.298125 59.605529, -135.297402 59.606349, -135.296679 59.607168, -135.295956 59.607987, -135.295233 59.608807, -135.294510 59.609626, -135.293787 59.610445, -135.293064 59.611265, -135.292340 59.612084, -135.291617 59.612903, -135.290894 59.613723, -135.290170 59.614542, -135.289447 59.615361, -135.288723 59.616181, -135.288000 59.617000, -135.287477 59.617854, -135.286953 59.618707, -135.286430 59.619561, -135.285907 59.620415, -135.285383 59.621269, -135.284860 59.622122, -135.284336 59.622976, -135.283813 59.623830, -135.283289 59.624684, -135.282766 59.625537, -135.282242 59.626391, -135.281719 59.627245, -135.281195 59.628098, -135.280671 59.628952, -135.280148 59.629806, -135.279624 59.630660, -135.279100 59.631513, -135.278576 59.632367, -135.278053 59.633221, -135.277529 59.634074, -135.277005 59.634928, -135.276481 59.635782, -135.275957 59.636636, -135.275433 59.637489, -135.274909 59.638343, -135.274385 59.639197, -135.273861 59.640050, -135.273337 59.640904, -135.272813 59.641758, -135.272289 59.642611, -135.271765 59.643465, -135.271241 59.644319, -135.270717 59.645172, -135.270193 59.646026, -135.269668 59.646880, -135.269144 59.647733, -135.268620 59.648587, -135.268095 59.649441, -135.267571 59.650294, -135.267047 59.651148, -135.266522 59.652002, -135.265998 59.652855, -135.265474 59.653709, -135.264949 59.654563, -135.264425 59.655416, -135.263900 59.656270, -135.263376 59.657124, -135.262851 59.657977, -135.262326 59.658831, -135.261802 59.659685, -135.261277 59.660538, -135.260753 59.661392, -135.260228 59.662246, -135.259703 59.663099, -135.259178 59.663953, -135.258654 59.664806, -135.258129 59.665660, -135.257604 59.666514, -135.257079 59.667367, -135.256554 59.668221, -135.256029 59.669075, -135.255504 59.669928, -135.254979 59.670782, -135.254454 59.671635, -135.253929 59.672489, -135.253404 59.673343, -135.252879 59.674196, -135.252354 59.675050, -135.251829 59.675903, -135.251304 59.676757, -135.250779 59.677611, -135.250254 59.678464, -135.249728 59.679318, -135.249203 59.680171, -135.248678 59.681025, -135.248152 59.681879, -135.247627 59.682732, -135.247102 59.683586, -135.246576 59.684439, -135.246051 59.685293, -135.245525 59.686146, -135.245000 59.687000, -135.244072 59.687760, -135.243145 59.688520, -135.242217 59.689280, -135.241290 59.690040, -135.240362 59.690800, -135.239434 59.691561, -135.238506 59.692321, -135.237579 59.693081, -135.236651 59.693841, -135.235723 59.694601, -135.234795 59.695361, -135.233867 59.696121, -135.232939 59.696881, -135.232011 59.697641, -135.231083 59.698401, -135.230154 59.699161, -135.229226 59.699921, -135.228298 59.700681, -135.227370 59.701441, -135.226441 59.702201, -135.225513 59.702961, -135.224585 59.703721, -135.223656 59.704481, -135.222728 59.705241, -135.221799 59.706001, -135.220871 59.706761, -135.219942 59.707521, -135.219013 59.708281, -135.218085 59.709041, -135.217156 59.709800, -135.216227 59.710560, -135.215298 59.711320, -135.214369 59.712080, -135.213440 59.712840, -135.212511 59.713600, -135.211582 59.714360, -135.210653 59.715120, -135.209724 59.715880, -135.208795 59.716639, -135.207866 59.717399, -135.206937 59.718159, -135.206007 59.718919, -135.205078 59.719679, -135.204149 59.720439, -135.203219 59.721198, -135.202290 59.721958, -135.201361 59.722718, -135.200431 59.723478, -135.199501 59.724238, -135.198572 59.724997, -135.197642 59.725757, -135.196713 59.726517, -135.195783 59.727277, -135.194853 59.728037, -135.193923 59.728796, -135.192993 59.729556, -135.192063 59.730316, -135.191134 59.731076, -135.190204 59.731835, -135.189274 59.732595, -135.188343 59.733355, -135.187413 59.734114, -135.186483 59.734874, -135.185553 59.735634, -135.184623 59.736394, -135.183693 59.737153, -135.182762 59.737913, -135.181832 59.738673, -135.180901 59.739432, -135.179971 59.740192, -135.179041 59.740952, -135.178110 59.741711, -135.177179 59.742471, -135.176249 59.743230, -135.175318 59.743990, -135.174387 59.744750, -135.173457 59.745509, -135.172526 59.746269, -135.171595 59.747028, -135.170664 59.747788, -135.169733 59.748548, -135.168802 59.749307, -135.167871 59.750067, -135.166940 59.750826, -135.166009 59.751586, -135.165078 59.752345, -135.164147 59.753105, -135.163216 59.753865, -135.162285 59.754624, -135.161353 59.755384, -135.160422 59.756143, -135.159491 59.756903, -135.158559 59.757662, -135.157628 59.758422, -135.156696 59.759181, -135.155765 59.759941, -135.154833 59.760700, -135.153901 59.761460, -135.152970 59.762219, -135.152038 59.762979, -135.151106 59.763738, -135.150175 59.764497, -135.149243 59.765257, -135.148311 59.766016, -135.147379 59.766776, -135.146447 59.767535, -135.145515 59.768295, -135.144583 59.769054, -135.143651 59.769813, -135.142719 59.770573, -135.141786 59.771332, -135.140854 59.772092, -135.139922 59.772851, -135.138990 59.773610, -135.138057 59.774370, -135.137125 59.775129, -135.136193 59.775888, -135.135260 59.776648, -135.134328 59.777407, -135.133395 59.778166, -135.132462 59.778926, -135.131530 59.779685, -135.130597 59.780444, -135.129664 59.781204, -135.128732 59.781963, -135.127799 59.782722, -135.126866 59.783481, -135.125933 59.784241, -135.125000 59.785000), (-135.125000 59.785000, -135.122988 59.786001, -135.120976 59.787002, -135.118963 59.788003, -135.116951 59.789004, -135.114938 59.790004, -135.112925 59.791005, -135.110913 59.792006, -135.108900 59.793007, -135.106887 59.794007, -135.104873 59.795008, -135.102860 59.796009, -135.100847 59.797009, -135.098833 59.798010, -135.096819 59.799011, -135.094805 59.800011, -135.092792 59.801012, -135.090777 59.802012, -135.088763 59.803012, -135.086749 59.804013, -135.084735 59.805013, -135.082720 59.806014, -135.080705 59.807014, -135.078691 59.808014, -135.076676 59.809014, -135.074661 59.810015, -135.072645 59.811015, -135.070630 59.812015, -135.068615 59.813015, -135.066599 59.814015, -135.064584 59.815015, -135.062568 59.816015, -135.060552 59.817015, -135.058536 59.818015, -135.056520 59.819015, -135.054504 59.820015, -135.052487 59.821015, -135.050471 59.822015, -135.048454 59.823015, -135.046438 59.824014, -135.044421 59.825014, -135.042404 59.826014, -135.040387 59.827014, -135.038369 59.828013, -135.036352 59.829013, -135.034335 59.830012, -135.032317 59.831012, -135.030299 59.832012, -135.028282 59.833011, -135.026264 59.834011, -135.024246 59.835010, -135.022228 59.836009, -135.020209 59.837009, -135.018191 59.838008, -135.016172 59.839007, -135.014154 59.840007, -135.012135 59.841006, -135.010116 59.842005, -135.008097 59.843004, -135.006078 59.844004, -135.004059 59.845003, -135.002039 59.846002, -135.000020 59.847001, -134.998000 59.848000, -134.997025 59.849342, -134.996051 59.850684, -134.995076 59.852027, -134.994101 59.853369, -134.993126 59.854711, -134.992151 59.856053, -134.991176 59.857395, -134.990201 59.858737, -134.989226 59.860079, -134.988250 59.861422, -134.987275 59.862764, -134.986299 59.864106, -134.985324 59.865448, -134.984348 59.866790, -134.983372 59.868132, -134.982397 59.869474, -134.981421 59.870816, -134.980445 59.872158, -134.979469 59.873500, -134.978492 59.874842, -134.977516 59.876185, -134.976540 59.877527, -134.975564 59.878869, -134.974587 59.880211, -134.973611 59.881553, -134.972634 59.882895, -134.971657 59.884237, -134.970681 59.885579, -134.969704 59.886921, -134.968727 59.888263, -134.967750 59.889605, -134.966773 59.890947, -134.965796 59.892289, -134.964818 59.893631, -134.963841 59.894972, -134.962864 59.896314, -134.961886 59.897656, -134.960909 59.898998, -134.959931 59.900340, -134.958953 59.901682, -134.957976 59.903024, -134.956998 59.904366, -134.956020 59.905708, -134.955042 59.907050, -134.954064 59.908392, -134.953086 59.909733, -134.952107 59.911075, -134.951129 59.912417, -134.950151 59.913759, -134.949172 59.915101, -134.948194 59.916443, -134.947215 59.917784, -134.946236 59.919126, -134.945257 59.920468, -134.944278 59.921810, -134.943299 59.923152, -134.942320 59.924493, -134.941341 59.925835, -134.940362 59.927177, -134.939383 59.928519, -134.938403 59.929861, -134.937424 59.931202, -134.936444 59.932544, -134.935465 59.933886, -134.934485 59.935228, -134.933505 59.936569, -134.932526 59.937911, -134.931546 59.939253, -134.930566 59.940594, -134.929586 59.941936, -134.928605 59.943278, -134.927625 59.944619, -134.926645 59.945961, -134.925664 59.947303, -134.924684 59.948644, -134.923703 59.949986, -134.922723 59.951328, -134.921742 59.952669, -134.920761 59.954011, -134.919780 59.955353, -134.918800 59.956694, -134.917818 59.958036, -134.916837 59.959377, -134.915856 59.960719, -134.914875 59.962061, -134.913894 59.963402, -134.912912 59.964744, -134.911931 59.966085, -134.910949 59.967427, -134.909967 59.968768, -134.908986 59.970110, -134.908004 59.971451, -134.907022 59.972793, -134.906040 59.974135, -134.905058 59.975476, -134.904076 59.976818, -134.903094 59.978159, -134.902111 59.979501, -134.901129 59.980842, -134.900146 59.982184, -134.899164 59.983525, -134.898181 59.984866, -134.897199 59.986208, -134.896216 59.987549, -134.895233 59.988891, -134.894250 59.990232, -134.893267 59.991574, -134.892284 59.992915, -134.891301 59.994256, -134.890317 59.995598, -134.889334 59.996939, -134.888351 59.998281, -134.887367 59.999622, -134.886384 60.000963, -134.885400 60.002305, -134.884416 60.003646, -134.883432 60.004987, -134.882448 60.006329, -134.881464 60.007670, -134.880480 60.009011, -134.879496 60.010353, -134.878512 60.011694, -134.877528 60.013035, -134.876543 60.014377, -134.875559 60.015718, -134.874574 60.017059, -134.873590 60.018401, -134.872605 60.019742, -134.871620 60.021083, -134.870635 60.022424, -134.869651 60.023766, -134.868666 60.025107, -134.867680 60.026448, -134.866695 60.027789, -134.865710 60.029131, -134.864725 60.030472, -134.863739 60.031813, -134.862754 60.033154, -134.861768 60.034495, -134.860783 60.035837, -134.859797 60.037178, -134.858811 60.038519, -134.857825 60.039860, -134.856839 60.041201, -134.855853 60.042542, -134.854867 60.043883, -134.853881 60.045225, -134.852894 60.046566, -134.851908 60.047907, -134.850922 60.049248, -134.849935 60.050589, -134.848948 60.051930, -134.847962 60.053271, -134.846975 60.054612, -134.845988 60.055953, -134.845001 60.057294, -134.844014 60.058636, -134.843027 60.059977, -134.842040 60.061318, -134.841053 60.062659, -134.840065 60.064000, -134.839078 60.065341, -134.838090 60.066682, -134.837103 60.068023, -134.836115 60.069364, -134.835127 60.070705, -134.834140 60.072046, -134.833152 60.073387, -134.832164 60.074728, -134.831176 60.076069, -134.830187 60.077410, -134.829199 60.078750, -134.828211 60.080091, -134.827223 60.081432, -134.826234 60.082773, -134.825246 60.084114, -134.824257 60.085455, -134.823268 60.086796, -134.822279 60.088137, -134.821291 60.089478, -134.820302 60.090819, -134.819313 60.092160, -134.818324 60.093500, -134.817334 60.094841, -134.816345 60.096182, -134.815356 60.097523, -134.814366 60.098864, -134.813377 60.100205, -134.812387 60.101545, -134.811398 60.102886, -134.810408 60.104227, -134.809418 60.105568, -134.808428 60.106909, -134.807438 60.108249, -134.806448 60.109590, -134.805458 60.110931, -134.804468 60.112272, -134.803477 60.113613, -134.802487 60.114953, -134.801496 60.116294, -134.800506 60.117635, -134.799515 60.118975, -134.798525 60.120316, -134.797534 60.121657, -134.796543 60.122998, -134.795552 60.124338, -134.794561 60.125679, -134.793570 60.127020, -134.792579 60.128360, -134.791587 60.129701, -134.790596 60.131042, -134.789604 60.132382, -134.788613 60.133723, -134.787621 60.135064, -134.786630 60.136404, -134.785638 60.137745, -134.784646 60.139085, -134.783654 60.140426, -134.782662 60.141767, -134.781670 60.143107, -134.780678 60.144448, -134.779686 60.145788, -134.778693 60.147129, -134.777701 60.148470, -134.776708 60.149810, -134.775716 60.151151, -134.774723 60.152491, -134.773730 60.153832, -134.772738 60.155172, -134.771745 60.156513, -134.770752 60.157853, -134.769759 60.159194, -134.768765 60.160534, -134.767772 60.161875, -134.766779 60.163215, -134.765786 60.164556, -134.764792 60.165896, -134.763798 60.167237, -134.762805 60.168577, -134.761811 60.169918, -134.760817 60.171258, -134.759823 60.172598, -134.758830 60.173939, -134.757836 60.175279, -134.756841 60.176620, -134.755847 60.177960, -134.754853 60.179300, -134.753859 60.180641, -134.752864 60.181981, -134.751870 60.183322, -134.750875 60.184662, -134.749880 60.186002, -134.748886 60.187343, -134.747891 60.188683, -134.746896 60.190023, -134.745901 60.191364, -134.744906 60.192704, -134.743911 60.194044, -134.742915 60.195385, -134.741920 60.196725, -134.740925 60.198065, -134.739929 60.199405, -134.738933 60.200746, -134.737938 60.202086, -134.736942 60.203426, -134.735946 60.204767, -134.734950 60.206107, -134.733954 60.207447, -134.732958 60.208787, -134.731962 60.210127, -134.730966 60.211468, -134.729970 60.212808, -134.728973 60.214148, -134.727977 60.215488, -134.726980 60.216828, -134.725984 60.218169, -134.724987 60.219509, -134.723990 60.220849, -134.722993 60.222189, -134.721996 60.223529, -134.720999 60.224869, -134.720002 60.226209, -134.719005 60.227550, -134.718007 60.228890, -134.717010 60.230230, -134.716013 60.231570, -134.715015 60.232910, -134.714018 60.234250, -134.713020 60.235590, -134.712022 60.236930, -134.711024 60.238270, -134.710026 60.239610, -134.709028 60.240950, -134.708030 60.242290, -134.707032 60.243631, -134.706034 60.244971, -134.705035 60.246311, -134.704037 60.247651, -134.703038 60.248991, -134.702040 60.250331, -134.701041 60.251671, -134.700042 60.253011, -134.699044 60.254351, -134.698045 60.255690, -134.697046 60.257030, -134.696046 60.258370, -134.695047 60.259710, -134.694048 60.261050, -134.693049 60.262390, -134.692049 60.263730, -134.691050 60.265070, -134.690050 60.266410, -134.689051 60.267750, -134.688051 60.269090, -134.687051 60.270430, -134.686051 60.271769, -134.685051 60.273109, -134.684051 60.274449, -134.683051 60.275789, -134.682051 60.277129, -134.681050 60.278469, -134.680050 60.279809, -134.679050 60.281148, -134.678049 60.282488, -134.677048 60.283828, -134.676048 60.285168, -134.675047 60.286508, -134.674046 60.287847, -134.673045 60.289187, -134.672044 60.290527, -134.671043 60.291867, -134.670042 60.293206, -134.669040 60.294546, -134.668039 60.295886, -134.667037 60.297226, -134.666036 60.298565, -134.665034 60.299905, -134.664033 60.301245, -134.663031 60.302585, -134.662029 60.303924, -134.661027 60.305264, -134.660025 60.306604, -134.659023 60.307943, -134.658021 60.309283, -134.657018 60.310623, -134.656016 60.311962, -134.655013 60.313302, -134.654011 60.314642, -134.653008 60.315981, -134.652006 60.317321, -134.651003 60.318660, -134.650000 60.320000, -134.651219 60.321289, -134.652438 60.322578, -134.653658 60.323868, -134.654877 60.325157, -134.656097 60.326446, -134.657316 60.327735, -134.658536 60.329025, -134.659756 60.330314, -134.660976 60.331603, -134.662196 60.332892, -134.663416 60.334181, -134.664636 60.335470, -134.665856 60.336759, -134.667077 60.338049, -134.668297 60.339338, -134.669518 60.340627, -134.670739 60.341916, -134.671959 60.343205, -134.673180 60.344494, -134.674401 60.345783, -134.675622 60.347072, -134.676843 60.348361, -134.678065 60.349650, -134.679286 60.350939, -134.680508 60.352228, -134.681729 60.353517, -134.682951 60.354806, -134.684172 60.356095, -134.685394 60.357384, -134.686616 60.358673, -134.687838 60.359962, -134.689060 60.361251, -134.690283 60.362539, -134.691505 60.363828, -134.692727 60.365117, -134.693950 60.366406, -134.695173 60.367695, -134.696395 60.368984, -134.697618 60.370273, -134.698841 60.371561, -134.700064 60.372850, -134.701287 60.374139, -134.702510 60.375428, -134.703734 60.376717, -134.704957 60.378005, -134.706180 60.379294, -134.707404 60.380583, -134.708628 60.381872, -134.709851 60.383160, -134.711075 60.384449, -134.712299 60.385738, -134.713523 60.387026, -134.714748 60.388315, -134.715972 60.389604, -134.717196 60.390892, -134.718421 60.392181, -134.719645 60.393470, -134.720870 60.394758, -134.722095 60.396047, -134.723319 60.397335, -134.724544 60.398624, -134.725769 60.399913, -134.726995 60.401201, -134.728220 60.402490, -134.729445 60.403778, -134.730671 60.405067, -134.731896 60.406355, -134.733122 60.407644, -134.734347 60.408932, -134.735573 60.410221, -134.736799 60.411509, -134.738025 60.412798, -134.739251 60.414086, -134.740477 60.415375, -134.741704 60.416663, -134.742930 60.417951, -134.744157 60.419240, -134.745383 60.420528, -134.746610 60.421817, -134.747837 60.423105, -134.749064 60.424393, -134.750291 60.425682, -134.751518 60.426970, -134.752745 60.428258, -134.753972 60.429547, -134.755199 60.430835, -134.756427 60.432123, -134.757655 60.433411, -134.758882 60.434700, -134.760110 60.435988, -134.761338 60.437276, -134.762566 60.438564, -134.763794 60.439853, -134.765022 60.441141, -134.766250 60.442429, -134.767479 60.443717, -134.768707 60.445005, -134.769936 60.446294, -134.771164 60.447582, -134.772393 60.448870, -134.773622 60.450158, -134.774851 60.451446, -134.776080 60.452734, -134.777309 60.454022, -134.778538 60.455310, -134.779767 60.456599, -134.780997 60.457887, -134.782226 60.459175, -134.783456 60.460463, -134.784686 60.461751, -134.785915 60.463039, -134.787145 60.464327, -134.788375 60.465615, -134.789605 60.466903, -134.790836 60.468191, -134.792066 60.469479, -134.793296 60.470767, -134.794527 60.472055, -134.795757 60.473342, -134.796988 60.474630, -134.798219 60.475918, -134.799450 60.477206, -134.800681 60.478494, -134.801912 60.479782, -134.803143 60.481070, -134.804374 60.482358, -134.805606 60.483645, -134.806837 60.484933, -134.808069 60.486221, -134.809300 60.487509, -134.810532 60.488797, -134.811764 60.490084, -134.812996 60.491372, -134.814228 60.492660, -134.815460 60.493948, -134.816692 60.495235, -134.817925 60.496523, -134.819157 60.497811, -134.820390 60.499099, -134.821622 60.500386, -134.822855 60.501674, -134.824088 60.502962, -134.825321 60.504249, -134.826554 60.505537, -134.827787 60.506825, -134.829020 60.508112, -134.830253 60.509400, -134.831487 60.510687, -134.832720 60.511975, -134.833954 60.513263, -134.835188 60.514550, -134.836422 60.515838, -134.837655 60.517125, -134.838889 60.518413, -134.840124 60.519700, -134.841358 60.520988, -134.842592 60.522275, -134.843827 60.523563, -134.845061 60.524850, -134.846296 60.526138, -134.847530 60.527425, -134.848765 60.528713, -134.850000 60.530000, -134.851350 60.531259, -134.852699 60.532519, -134.854049 60.533778, -134.855399 60.535037, -134.856750 60.536296, -134.858100 60.537556, -134.859450 60.538815, -134.860800 60.540074, -134.862151 60.541333, -134.863502 60.542592, -134.864852 60.543852, -134.866203 60.545111, -134.867554 60.546370, -134.868905 60.547629, -134.870256 60.548888, -134.871608 60.550147, -134.872959 60.551406, -134.874311 60.552665, -134.875662 60.553924, -134.877014 60.555184, -134.878366 60.556443, -134.879718 60.557702, -134.881070 60.558961, -134.882422 60.560220, -134.883774 60.561479, -134.885126 60.562738, -134.886479 60.563996, -134.887831 60.565255, -134.889184 60.566514, -134.890537 60.567773, -134.891889 60.569032, -134.893242 60.570291, -134.894595 60.571550, -134.895949 60.572809, -134.897302 60.574068, -134.898655 60.575326, -134.900009 60.576585, -134.901362 60.577844, -134.902716 60.579103, -134.904070 60.580362, -134.905424 60.581620, -134.906778 60.582879, -134.908132 60.584138, -134.909486 60.585397, -134.910840 60.586655, -134.912195 60.587914, -134.913549 60.589173, -134.914904 60.590431, -134.916259 60.591690, -134.917614 60.592949, -134.918969 60.594207, -134.920324 60.595466, -134.921679 60.596724, -134.923034 60.597983, -134.924389 60.599242, -134.925745 60.600500, -134.927101 60.601759, -134.928456 60.603017, -134.929812 60.604276, -134.931168 60.605534, -134.932524 60.606793, -134.933880 60.608051, -134.935236 60.609310, -134.936593 60.610568, -134.937949 60.611826, -134.939306 60.613085, -134.940662 60.614343, -134.942019 60.615602, -134.943376 60.616860, -134.944733 60.618118, -134.946090 60.619377, -134.947447 60.620635, -134.948804 60.621893, -134.950162 60.623152, -134.951519 60.624410, -134.952877 60.625668, -134.954235 60.626927, -134.955592 60.628185, -134.956950 60.629443, -134.958308 60.630701, -134.959667 60.631960, -134.961025 60.633218, -134.962383 60.634476, -134.963742 60.635734, -134.965100 60.636992, -134.966459 60.638250, -134.967818 60.639508, -134.969176 60.640767, -134.970535 60.642025, -134.971894 60.643283, -134.973254 60.644541, -134.974613 60.645799, -134.975972 60.647057, -134.977332 60.648315, -134.978692 60.649573, -134.980051 60.650831, -134.981411 60.652089, -134.982771 60.653347, -134.984131 60.654605, -134.985491 60.655863, -134.986851 60.657121, -134.988212 60.658379, -134.989572 60.659637, -134.990933 60.660895, -134.992294 60.662152, -134.993654 60.663410, -134.995015 60.664668, -134.996376 60.665926, -134.997737 60.667184, -134.999099 60.668442, -135.000460 60.669699, -135.001821 60.670957, -135.003183 60.672215, -135.004544 60.673473, -135.005906 60.674730, -135.007268 60.675988, -135.008630 60.677246, -135.009992 60.678504, -135.011354 60.679761, -135.012717 60.681019, -135.014079 60.682277, -135.015441 60.683534, -135.016804 60.684792, -135.018167 60.686050, -135.019530 60.687307, -135.020892 60.688565, -135.022255 60.689822, -135.023619 60.691080, -135.024982 60.692337, -135.026345 60.693595, -135.027709 60.694852, -135.029072 60.696110, -135.030436 60.697367, -135.031800 60.698625, -135.033163 60.699882, -135.034527 60.701140, -135.035892 60.702397, -135.037256 60.703655, -135.038620 60.704912, -135.039984 60.706170, -135.041349 60.707427, -135.042714 60.708684, -135.044078 60.709942, -135.045443 60.711199, -135.046808 60.712456, -135.048173 60.713714, -135.049538 60.714971, -135.050904 60.716228, -135.052269 60.717485, -135.053634 60.718743, -135.055000 60.720000, -135.055115 60.721429, -135.055229 60.722857, -135.055344 60.724286, -135.055459 60.725714, -135.055574 60.727143, -135.055689 60.728572, -135.055803 60.730000, -135.055918 60.731429, -135.056033 60.732857, -135.056148 60.734286, -135.056263 60.735714, -135.056377 60.737143, -135.056492 60.738572, -135.056607 60.740000, -135.056722 60.741429, -135.056837 60.742857, -135.056952 60.744286, -135.057067 60.745715, -135.057182 60.747143, -135.057296 60.748572, -135.057411 60.750000, -135.057526 60.751429, -135.057641 60.752857, -135.057756 60.754286, -135.057871 60.755715, -135.057986 60.757143, -135.058101 60.758572, -135.058216 60.760000, -135.058331 60.761429, -135.058446 60.762858, -135.058561 60.764286, -135.058676 60.765715, -135.058791 60.767143, -135.058906 60.768572, -135.059021 60.770000, -135.059137 60.771429, -135.059252 60.772858, -135.059367 60.774286, -135.059482 60.775715, -135.059597 60.777143, -135.059712 60.778572, -135.059827 60.780001, -135.059942 60.781429, -135.060058 60.782858, -135.060173 60.784286, -135.060288 60.785715, -135.060403 60.787143, -135.060518 60.788572, -135.060634 60.790001, -135.060749 60.791429, -135.060864 60.792858, -135.060979 60.794286, -135.061095 60.795715, -135.061210 60.797144, -135.061325 60.798572, -135.061440 60.800001, -135.061556 60.801429, -135.061671 60.802858, -135.061786 60.804286, -135.061902 60.805715, -135.062017 60.807144, -135.062132 60.808572, -135.062248 60.810001, -135.062363 60.811429, -135.062478 60.812858, -135.062594 60.814286, -135.062709 60.815715, -135.062825 60.817144, -135.062940 60.818572, -135.063056 60.820001, -135.063171 60.821429, -135.063286 60.822858, -135.063402 60.824287, -135.063517 60.825715, -135.063633 60.827144, -135.063748 60.828572, -135.063864 60.830001, -135.063979 60.831429, -135.064095 60.832858, -135.064210 60.834287, -135.064326 60.835715, -135.064442 60.837144, -135.064557 60.838572, -135.064673 60.840001, -135.064788 60.841429, -135.064904 60.842858, -135.065019 60.844287, -135.065135 60.845715, -135.065251 60.847144, -135.065366 60.848572, -135.065482 60.850001, -135.065598 60.851430, -135.065713 60.852858, -135.065829 60.854287, -135.065945 60.855715, -135.066060 60.857144, -135.066176 60.858572, -135.066292 60.860001, -135.066408 60.861430, -135.066523 60.862858, -135.066639 60.864287, -135.066755 60.865715, -135.066871 60.867144, -135.066986 60.868572, -135.067102 60.870001, -135.067218 60.871430, -135.067334 60.872858, -135.067450 60.874287, -135.067565 60.875715, -135.067681 60.877144, -135.067797 60.878572, -135.067913 60.880001, -135.068029 60.881430, -135.068145 60.882858, -135.068261 60.884287, -135.068377 60.885715, -135.068493 60.887144, -135.068608 60.888573, -135.068724 60.890001, -135.068840 60.891430, -135.068956 60.892858, -135.069072 60.894287, -135.069188 60.895715, -135.069304 60.897144, -135.069420 60.898573, -135.069536 60.900001, -135.069652 60.901430, -135.069768 60.902858, -135.069884 60.904287, -135.070000 60.905715, -135.070117 60.907144, -135.070233 60.908573, -135.070349 60.910001, -135.070465 60.911430, -135.070581 60.912858, -135.070697 60.914287, -135.070813 60.915715, -135.070929 60.917144, -135.071045 60.918573, -135.071162 60.920001, -135.071278 60.921430, -135.071394 60.922858, -135.071510 60.924287, -135.071626 60.925715, -135.071743 60.927144, -135.071859 60.928573, -135.071975 60.930001, -135.072091 60.931430, -135.072207 60.932858, -135.072324 60.934287, -135.072440 60.935715, -135.072556 60.937144, -135.072673 60.938573, -135.072789 60.940001, -135.072905 60.941430, -135.073022 60.942858, -135.073138 60.944287, -135.073254 60.945715, -135.073371 60.947144, -135.073487 60.948573, -135.073603 60.950001, -135.073720 60.951430, -135.073836 60.952858, -135.073952 60.954287, -135.074069 60.955715, -135.074185 60.957144, -135.074302 60.958573, -135.074418 60.960001, -135.074535 60.961430, -135.074651 60.962858, -135.074768 60.964287, -135.074884 60.965715, -135.075001 60.967144, -135.075117 60.968573, -135.075234 60.970001, -135.075350 60.971430, -135.075467 60.972858, -135.075583 60.974287, -135.075700 60.975715, -135.075816 60.977144, -135.075933 60.978573, -135.076050 60.980001, -135.076166 60.981430, -135.076283 60.982858, -135.076399 60.984287, -135.076516 60.985715, -135.076633 60.987144, -135.076749 60.988572, -135.076866 60.990001, -135.076983 60.991430, -135.077099 60.992858, -135.077216 60.994287, -135.077333 60.995715, -135.077450 60.997144, -135.077566 60.998572, -135.077683 61.000001, -135.077800 61.001430, -135.077917 61.002858, -135.078033 61.004287, -135.078150 61.005715, -135.078267 61.007144, -135.078384 61.008572, -135.078501 61.010001, -135.078617 61.011430, -135.078734 61.012858, -135.078851 61.014287, -135.078968 61.015715, -135.079085 61.017144, -135.079202 61.018572, -135.079319 61.020001, -135.079436 61.021430, -135.079552 61.022858, -135.079669 61.024287, -135.079786 61.025715, -135.079903 61.027144, -135.080020 61.028572, -135.080137 61.030001, -135.080254 61.031429, -135.080371 61.032858, -135.080488 61.034287, -135.080605 61.035715, -135.080722 61.037144, -135.080839 61.038572, -135.080956 61.040001, -135.081073 61.041429, -135.081190 61.042858, -135.081307 61.044287, -135.081424 61.045715, -135.081542 61.047144, -135.081659 61.048572, -135.081776 61.050001, -135.081893 61.051429, -135.082010 61.052858, -135.082127 61.054287, -135.082244 61.055715, -135.082362 61.057144, -135.082479 61.058572, -135.082596 61.060001, -135.082713 61.061429, -135.082830 61.062858, -135.082947 61.064286, -135.083065 61.065715, -135.083182 61.067144, -135.083299 61.068572, -135.083416 61.070001, -135.083534 61.071429, -135.083651 61.072858, -135.083768 61.074286, -135.083886 61.075715, -135.084003 61.077143, -135.084120 61.078572, -135.084238 61.080001, -135.084355 61.081429, -135.084472 61.082858, -135.084590 61.084286, -135.084707 61.085715, -135.084824 61.087143, -135.084942 61.088572, -135.085059 61.090001, -135.085177 61.091429, -135.085294 61.092858, -135.085412 61.094286, -135.085529 61.095715, -135.085646 61.097143, -135.085764 61.098572, -135.085881 61.100000, -135.085999 61.101429, -135.086116 61.102858, -135.086234 61.104286, -135.086351 61.105715, -135.086469 61.107143, -135.086587 61.108572, -135.086704 61.110000, -135.086822 61.111429, -135.086939 61.112858, -135.087057 61.114286, -135.087174 61.115715, -135.087292 61.117143, -135.087410 61.118572, -135.087527 61.120000, -135.087645 61.121429, -135.087763 61.122857, -135.087880 61.124286, -135.087998 61.125715, -135.088116 61.127143, -135.088233 61.128572, -135.088351 61.130000, -135.088469 61.131429, -135.088586 61.132857, -135.088704 61.134286, -135.088822 61.135714, -135.088940 61.137143, -135.089057 61.138572, -135.089175 61.140000, -135.089293 61.141429, -135.089411 61.142857, -135.089529 61.144286, -135.089646 61.145714, -135.089764 61.147143, -135.089882 61.148571, -135.090000 61.150000, -135.091514 61.151229, -135.093028 61.152458, -135.094542 61.153687, -135.096056 61.154916, -135.097570 61.156145, -135.099085 61.157374, -135.100599 61.158603, -135.102114 61.159832, -135.103629 61.161061, -135.105144 61.162290, -135.106659 61.163519, -135.108174 61.164748, -135.109689 61.165977, -135.111204 61.167206, -135.112720 61.168434, -135.114235 61.169663, -135.115751 61.170892, -135.117267 61.172121, -135.118783 61.173350, -135.120299 61.174578, -135.121815 61.175807, -135.123331 61.177036, -135.124848 61.178265, -135.126364 61.179493, -135.127881 61.180722, -135.129398 61.181951, -135.130915 61.183179, -135.132432 61.184408, -135.133949 61.185636, -135.135466 61.186865, -135.136984 61.188094, -135.138501 61.189322, -135.140019 61.190551, -135.141536 61.191779, -135.143054 61.193008, -135.144572 61.194236, -135.146090 61.195465, -135.147609 61.196693, -135.149127 61.197922, -135.150645 61.199150, -135.152164 61.200378, -135.153682 61.201607, -135.155201 61.202835, -135.156720 61.204063, -135.158239 61.205292, -135.159758 61.206520, -135.161278 61.207748, -135.162797 61.208977, -135.164317 61.210205, -135.165836 61.211433, -135.167356 61.212661, -135.168876 61.213890, -135.170396 61.215118, -135.171916 61.216346, -135.173436 61.217574, -135.174956 61.218802, -135.176477 61.220030, -135.177997 61.221259, -135.179518 61.222487, -135.181039 61.223715, -135.182560 61.224943, -135.184081 61.226171, -135.185602 61.227399, -135.187123 61.228627, -135.188645 61.229855, -135.190166 61.231083, -135.191688 61.232311, -135.193210 61.233539, -135.194732 61.234767, -135.196254 61.235995, -135.197776 61.237222, -135.199298 61.238450, -135.200820 61.239678, -135.202343 61.240906, -135.203865 61.242134, -135.205388 61.243362, -135.206911 61.244589, -135.208434 61.245817, -135.209957 61.247045, -135.211480 61.248273, -135.213003 61.249500, -135.214527 61.250728, -135.216050 61.251956, -135.217574 61.253183, -135.219098 61.254411, -135.220622 61.255639, -135.222146 61.256866, -135.223670 61.258094, -135.225194 61.259322, -135.226718 61.260549, -135.228243 61.261777, -135.229768 61.263004, -135.231292 61.264232, -135.232817 61.265459, -135.234342 61.266687, -135.235867 61.267914, -135.237392 61.269142, -135.238918 61.270369, -135.240443 61.271596, -135.241969 61.272824, -135.243494 61.274051, -135.245020 61.275279, -135.246546 61.276506, -135.248072 61.277733, -135.249598 61.278961, -135.251125 61.280188, -135.252651 61.281415, -135.254178 61.282642, -135.255704 61.283870, -135.257231 61.285097, -135.258758 61.286324, -135.260285 61.287551, -135.261812 61.288778, -135.263339 61.290006, -135.264867 61.291233, -135.266394 61.292460, -135.267922 61.293687, -135.269449 61.294914, -135.270977 61.296141, -135.272505 61.297368, -135.274033 61.298595, -135.275561 61.299822, -135.277090 61.301049, -135.278618 61.302276, -135.280147 61.303503, -135.281675 61.304730, -135.283204 61.305957, -135.284733 61.307184, -135.286262 61.308411, -135.287791 61.309638, -135.289321 61.310865, -135.290850 61.312091, -135.292379 61.313318, -135.293909 61.314545, -135.295439 61.315772, -135.296969 61.316999, -135.298499 61.318225, -135.300029 61.319452, -135.301559 61.320679, -135.303089 61.321905, -135.304620 61.323132, -135.306150 61.324359, -135.307681 61.325586, -135.309212 61.326812, -135.310743 61.328039, -135.312274 61.329265, -135.313805 61.330492, -135.315336 61.331719, -135.316868 61.332945, -135.318399 61.334172, -135.319931 61.335398, -135.321463 61.336625, -135.322995 61.337851, -135.324527 61.339078, -135.326059 61.340304, -135.327591 61.341530, -135.329124 61.342757, -135.330656 61.343983, -135.332189 61.345210, -135.333722 61.346436, -135.335254 61.347662, -135.336787 61.348889, -135.338321 61.350115, -135.339854 61.351341, -135.341387 61.352568, -135.342921 61.353794, -135.344454 61.355020, -135.345988 61.356246, -135.347522 61.357473, -135.349056 61.358699, -135.350590 61.359925, -135.352124 61.361151, -135.353658 61.362377, -135.355193 61.363603, -135.356727 61.364829, -135.358262 61.366055, -135.359797 61.367282, -135.361332 61.368508, -135.362867 61.369734, -135.364402 61.370960, -135.365937 61.372186, -135.367472 61.373412, -135.369008 61.374638, -135.370544 61.375864, -135.372079 61.377089, -135.373615 61.378315, -135.375151 61.379541, -135.376687 61.380767, -135.378224 61.381993, -135.379760 61.383219, -135.381296 61.384445, -135.382833 61.385671, -135.384370 61.386896, -135.385906 61.388122, -135.387443 61.389348, -135.388981 61.390574, -135.390518 61.391799, -135.392055 61.393025, -135.393592 61.394251, -135.395130 61.395476, -135.396668 61.396702, -135.398206 61.397928, -135.399743 61.399153, -135.401281 61.400379, -135.402820 61.401604, -135.404358 61.402830, -135.405896 61.404056, -135.407435 61.405281, -135.408974 61.406507, -135.410512 61.407732, -135.412051 61.408958, -135.413590 61.410183, -135.415129 61.411409, -135.416669 61.412634, -135.418208 61.413859, -135.419747 61.415085, -135.421287 61.416310, -135.422827 61.417535, -135.424367 61.418761, -135.425907 61.419986, -135.427447 61.421211, -135.428987 61.422437, -135.430527 61.423662, -135.432068 61.424887, -135.433608 61.426113, -135.435149 61.427338, -135.436690 61.428563, -135.438231 61.429788, -135.439772 61.431013, -135.441313 61.432238, -135.442854 61.433464, -135.444396 61.434689, -135.445937 61.435914, -135.447479 61.437139, -135.449021 61.438364, -135.450563 61.439589, -135.452105 61.440814, -135.453647 61.442039, -135.455189 61.443264, -135.456732 61.444489, -135.458274 61.445714, -135.459817 61.446939, -135.461359 61.448164, -135.462902 61.449389, -135.464445 61.450614, -135.465989 61.451838, -135.467532 61.453063, -135.469075 61.454288, -135.470619 61.455513, -135.472162 61.456738, -135.473706 61.457963, -135.475250 61.459187, -135.476794 61.460412, -135.478338 61.461637, -135.479882 61.462862, -135.481426 61.464086, -135.482971 61.465311, -135.484515 61.466536, -135.486060 61.467760, -135.487605 61.468985, -135.489150 61.470209, -135.490695 61.471434, -135.492240 61.472659, -135.493786 61.473883, -135.495331 61.475108, -135.496876 61.476332, -135.498422 61.477557, -135.499968 61.478781, -135.501514 61.480006, -135.503060 61.481230, -135.504606 61.482455, -135.506152 61.483679, -135.507699 61.484903, -135.509245 61.486128, -135.510792 61.487352, -135.512339 61.488576, -135.513886 61.489801, -135.515433 61.491025, -135.516980 61.492249, -135.518527 61.493474, -135.520074 61.494698, -135.521622 61.495922, -135.523170 61.497146, -135.524717 61.498371, -135.526265 61.499595, -135.527813 61.500819, -135.529361 61.502043, -135.530909 61.503267, -135.532458 61.504491, -135.534006 61.505715, -135.535555 61.506940, -135.537104 61.508164, -135.538652 61.509388, -135.540201 61.510612, -135.541750 61.511836, -135.543300 61.513060, -135.544849 61.514284, -135.546398 61.515508, -135.547948 61.516732, -135.549498 61.517956, -135.551048 61.519179, -135.552597 61.520403, -135.554148 61.521627, -135.555698 61.522851, -135.557248 61.524075, -135.558798 61.525299, -135.560349 61.526522, -135.561900 61.527746, -135.563450 61.528970, -135.565001 61.530194, -135.566552 61.531418, -135.568104 61.532641, -135.569655 61.533865, -135.571206 61.535089, -135.572758 61.536312, -135.574309 61.537536, -135.575861 61.538760, -135.577413 61.539983, -135.578965 61.541207, -135.580517 61.542430, -135.582070 61.543654, -135.583622 61.544877, -135.585174 61.546101, -135.586727 61.547324, -135.588280 61.548548, -135.589833 61.549771, -135.591386 61.550995, -135.592939 61.552218, -135.594492 61.553442, -135.596045 61.554665, -135.597599 61.555888, -135.599152 61.557112, -135.600706 61.558335, -135.602260 61.559558, -135.603814 61.560782, -135.605368 61.562005, -135.606922 61.563228, -135.608477 61.564452, -135.610031 61.565675, -135.611586 61.566898, -135.613140 61.568121, -135.614695 61.569344, -135.616250 61.570568, -135.617805 61.571791, -135.619360 61.573014, -135.620916 61.574237, -135.622471 61.575460, -135.624027 61.576683, -135.625583 61.577906, -135.627138 61.579129, -135.628694 61.580352, -135.630250 61.581575, -135.631806 61.582798, -135.633363 61.584021, -135.634919 61.585244, -135.636476 61.586467, -135.638032 61.587690, -135.639589 61.588913, -135.641146 61.590136, -135.642703 61.591359, -135.644260 61.592582, -135.645818 61.593804, -135.647375 61.595027, -135.648933 61.596250, -135.650490 61.597473, -135.652048 61.598696, -135.653606 61.599918, -135.655164 61.601141, -135.656722 61.602364, -135.658280 61.603586, -135.659839 61.604809, -135.661397 61.606032, -135.662956 61.607254, -135.664515 61.608477, -135.666074 61.609700, -135.667633 61.610922, -135.669192 61.612145, -135.670751 61.613367, -135.672310 61.614590, -135.673870 61.615812, -135.675429 61.617035, -135.676989 61.618257, -135.678549 61.619480, -135.680109 61.620702, -135.681669 61.621925, -135.683229 61.623147, -135.684790 61.624369, -135.686350 61.625592, -135.687911 61.626814, -135.689472 61.628037, -135.691032 61.629259, -135.692593 61.630481, -135.694155 61.631703, -135.695716 61.632926, -135.697277 61.634148, -135.698839 61.635370, -135.700400 61.636592, -135.701962 61.637815, -135.703524 61.639037, -135.705086 61.640259, -135.706648 61.641481, -135.708210 61.642703, -135.709772 61.643925, -135.711335 61.645147, -135.712897 61.646369, -135.714460 61.647591, -135.716023 61.648814, -135.717586 61.650036, -135.719149 61.651258, -135.720712 61.652480, -135.722276 61.653701, -135.723839 61.654923, -135.725403 61.656145, -135.726966 61.657367, -135.728530 61.658589, -135.730094 61.659811, -135.731658 61.661033, -135.733222 61.662255, -135.734787 61.663477, -135.736351 61.664698, -135.737916 61.665920, -135.739480 61.667142, -135.741045 61.668364, -135.742610 61.669585, -135.744175 61.670807, -135.745740 61.672029, -135.747306 61.673250, -135.748871 61.674472, -135.750437 61.675694, -135.752002 61.676915, -135.753568 61.678137, -135.755134 61.679359, -135.756700 61.680580, -135.758266 61.681802, -135.759833 61.683023, -135.761399 61.684245, -135.762965 61.685466, -135.764532 61.686688, -135.766099 61.687909, -135.767666 61.689131, -135.769233 61.690352, -135.770800 61.691573, -135.772367 61.692795, -135.773935 61.694016, -135.775502 61.695238, -135.777070 61.696459, -135.778638 61.697680, -135.780206 61.698901, -135.781774 61.700123, -135.783342 61.701344, -135.784910 61.702565, -135.786479 61.703786, -135.788047 61.705008, -135.789616 61.706229, -135.791184 61.707450, -135.792753 61.708671, -135.794322 61.709892, -135.795892 61.711113, -135.797461 61.712335, -135.799030 61.713556, -135.800600 61.714777, -135.802169 61.715998, -135.803739 61.717219, -135.805309 61.718440, -135.806879 61.719661, -135.808449 61.720882, -135.810020 61.722103, -135.811590 61.723324, -135.813160 61.724545, -135.814731 61.725766, -135.816302 61.726986, -135.817873 61.728207, -135.819444 61.729428, -135.821015 61.730649, -135.822586 61.731870, -135.824158 61.733091, -135.825729 61.734311, -135.827301 61.735532, -135.828872 61.736753, -135.830444 61.737974, -135.832016 61.739194, -135.833589 61.740415, -135.835161 61.741636, -135.836733 61.742856, -135.838306 61.744077, -135.839878 61.745298, -135.841451 61.746518, -135.843024 61.747739, -135.844597 61.748959, -135.846170 61.750180, -135.847743 61.751400, -135.849317 61.752621, -135.850890 61.753841, -135.852464 61.755062, -135.854038 61.756282, -135.855612 61.757503, -135.857186 61.758723, -135.858760 61.759944, -135.860334 61.761164, -135.861908 61.762384, -135.863483 61.763605, -135.865057 61.764825, -135.866632 61.766045, -135.868207 61.767266, -135.869782 61.768486, -135.871357 61.769706, -135.872933 61.770926, -135.874508 61.772147, -135.876083 61.773367, -135.877659 61.774587, -135.879235 61.775807, -135.880811 61.777027, -135.882387 61.778247, -135.883963 61.779468, -135.885539 61.780688, -135.887115 61.781908, -135.888692 61.783128, -135.890269 61.784348, -135.891845 61.785568, -135.893422 61.786788, -135.894999 61.788008, -135.896576 61.789228, -135.898154 61.790448, -135.899731 61.791668, -135.901309 61.792888, -135.902886 61.794107, -135.904464 61.795327, -135.906042 61.796547, -135.907620 61.797767, -135.909198 61.798987, -135.910776 61.800207, -135.912355 61.801426, -135.913933 61.802646, -135.915512 61.803866, -135.917091 61.805086, -135.918669 61.806305, -135.920248 61.807525, -135.921828 61.808745, -135.923407 61.809964, -135.924986 61.811184, -135.926566 61.812404, -135.928145 61.813623, -135.929725 61.814843, -135.931305 61.816063, -135.932885 61.817282, -135.934465 61.818502, -135.936045 61.819721, -135.937626 61.820941, -135.939206 61.822160, -135.940787 61.823380, -135.942368 61.824599, -135.943949 61.825818, -135.945530 61.827038, -135.947111 61.828257, -135.948692 61.829477, -135.950274 61.830696, -135.951855 61.831915, -135.953437 61.833135, -135.955019 61.834354, -135.956600 61.835573, -135.958182 61.836792, -135.959765 61.838012, -135.961347 61.839231, -135.962929 61.840450, -135.964512 61.841669, -135.966094 61.842888, -135.967677 61.844108, -135.969260 61.845327, -135.970843 61.846546, -135.972426 61.847765, -135.974010 61.848984, -135.975593 61.850203, -135.977177 61.851422, -135.978760 61.852641, -135.980344 61.853860, -135.981928 61.855079, -135.983512 61.856298, -135.985096 61.857517, -135.986680 61.858736, -135.988265 61.859955, -135.989849 61.861174, -135.991434 61.862393, -135.993019 61.863612, -135.994604 61.864830, -135.996189 61.866049, -135.997774 61.867268, -135.999359 61.868487, -136.000945 61.869706, -136.002530 61.870924, -136.004116 61.872143, -136.005702 61.873362, -136.007288 61.874580, -136.008874 61.875799, -136.010460 61.877018, -136.012046 61.878236, -136.013633 61.879455, -136.015219 61.880674, -136.016806 61.881892, -136.018393 61.883111, -136.019980 61.884329, -136.021567 61.885548, -136.023154 61.886766, -136.024741 61.887985, -136.026329 61.889203, -136.027916 61.890422, -136.029504 61.891640, -136.031092 61.892859, -136.032680 61.894077, -136.034268 61.895296, -136.035856 61.896514, -136.037444 61.897732, -136.039033 61.898951, -136.040622 61.900169, -136.042210 61.901387, -136.043799 61.902605, -136.045388 61.903824, -136.046977 61.905042, -136.048566 61.906260, -136.050156 61.907478, -136.051745 61.908697, -136.053335 61.909915, -136.054925 61.911133, -136.056514 61.912351, -136.058104 61.913569, -136.059694 61.914787, -136.061285 61.916005, -136.062875 61.917223, -136.064466 61.918441, -136.066056 61.919659, -136.067647 61.920877, -136.069238 61.922095, -136.070829 61.923313, -136.072420 61.924531, -136.074011 61.925749, -136.075603 61.926967, -136.077194 61.928185, -136.078786 61.929403, -136.080377 61.930621, -136.081969 61.931839, -136.083561 61.933056, -136.085153 61.934274, -136.086746 61.935492, -136.088338 61.936710, -136.089931 61.937927, -136.091523 61.939145, -136.093116 61.940363, -136.094709 61.941581, -136.096302 61.942798, -136.097895 61.944016, -136.099488 61.945234, -136.101082 61.946451, -136.102675 61.947669, -136.104269 61.948886, -136.105863 61.950104, -136.107457 61.951321, -136.109051 61.952539, -136.110645 61.953756, -136.112239 61.954974, -136.113834 61.956191, -136.115428 61.957409, -136.117023 61.958626, -136.118618 61.959844, -136.120213 61.961061, -136.121808 61.962279, -136.123403 61.963496, -136.124998 61.964713, -136.126594 61.965931, -136.128189 61.967148, -136.129785 61.968365, -136.131381 61.969582, -136.132977 61.970800, -136.134573 61.972017, -136.136169 61.973234, -136.137765 61.974451, -136.139362 61.975668, -136.140958 61.976886, -136.142555 61.978103, -136.144152 61.979320, -136.145749 61.980537, -136.147346 61.981754, -136.148943 61.982971, -136.150540 61.984188, -136.152138 61.985405, -136.153736 61.986622, -136.155333 61.987839, -136.156931 61.989056, -136.158529 61.990273, -136.160127 61.991490, -136.161725 61.992707, -136.163324 61.993924, -136.164922 61.995141, -136.166521 61.996358, -136.168120 61.997574, -136.169719 61.998791, -136.171318 62.000008, -136.172917 62.001225, -136.174516 62.002442, -136.176115 62.003658, -136.177715 62.004875, -136.179315 62.006092, -136.180914 62.007308, -136.182514 62.008525, -136.184114 62.009742, -136.185715 62.010958, -136.187315 62.012175, -136.188915 62.013392, -136.190516 62.014608, -136.192116 62.015825, -136.193717 62.017041, -136.195318 62.018258, -136.196919 62.019474, -136.198520 62.020691, -136.200122 62.021907, -136.201723 62.023124, -136.203325 62.024340, -136.204926 62.025557, -136.206528 62.026773, -136.208130 62.027989, -136.209732 62.029206, -136.211335 62.030422, -136.212937 62.031638, -136.214539 62.032855, -136.216142 62.034071, -136.217745 62.035287, -136.219347 62.036504, -136.220950 62.037720, -136.222554 62.038936, -136.224157 62.040152, -136.225760 62.041368, -136.227364 62.042584, -136.228967 62.043801, -136.230571 62.045017, -136.232175 62.046233, -136.233779 62.047449, -136.235383 62.048665, -136.236987 62.049881, -136.238592 62.051097, -136.240196 62.052313, -136.241801 62.053529, -136.243406 62.054745, -136.245011 62.055961, -136.246616 62.057177, -136.248221 62.058393, -136.249826 62.059609, -136.251431 62.060825, -136.253037 62.062040, -136.254643 62.063256, -136.256248 62.064472, -136.257854 62.065688, -136.259460 62.066904, -136.261067 62.068119, -136.262673 62.069335, -136.264279 62.070551, -136.265886 62.071767, -136.267493 62.072982, -136.269099 62.074198, -136.270706 62.075414, -136.272314 62.076629, -136.273921 62.077845, -136.275528 62.079060, -136.277136 62.080276, -136.278743 62.081492, -136.280351 62.082707, -136.281959 62.083923, -136.283567 62.085138, -136.285175 62.086354, -136.286783 62.087569, -136.288391 62.088785, -136.290000 62.090000, -136.291112 62.091329, -136.292224 62.092659, -136.293336 62.093988, -136.294448 62.095317, -136.295561 62.096646, -136.296673 62.097976, -136.297785 62.099305, -136.298898 62.100634, -136.300011 62.101963, -136.301124 62.103293, -136.302236 62.104622, -136.303349 62.105951, -136.304463 62.107280, -136.305576 62.108610, -136.306689 62.109939, -136.307802 62.111268, -136.308916 62.112597, -136.310029 62.113926, -136.311143 62.115255, -136.312257 62.116584, -136.313371 62.117914, -136.314485 62.119243, -136.315599 62.120572, -136.316713 62.121901, -136.317827 62.123230, -136.318942 62.124559, -136.320056 62.125888, -136.321171 62.127217, -136.322285 62.128546, -136.323400 62.129875, -136.324515 62.131204, -136.325630 62.132533, -136.326745 62.133862, -136.327860 62.135192, -136.328975 62.136521, -136.330091 62.137850, -136.331206 62.139178, -136.332322 62.140507, -136.333437 62.141836, -136.334553 62.143165, -136.335669 62.144494, -136.336785 62.145823, -136.337901 62.147152, -136.339017 62.148481, -136.340133 62.149810, -136.341249 62.151139, -136.342366 62.152468, -136.343482 62.153797, -136.344599 62.155126, -136.345716 62.156455, -136.346832 62.157783, -136.347949 62.159112, -136.349066 62.160441, -136.350183 62.161770, -136.351301 62.163099, -136.352418 62.164428, -136.353535 62.165756, -136.354653 62.167085, -136.355770 62.168414, -136.356888 62.169743, -136.358006 62.171071, -136.359124 62.172400, -136.360242 62.173729, -136.361360 62.175058, -136.362478 62.176386, -136.363596 62.177715, -136.364715 62.179044, -136.365833 62.180373, -136.366952 62.181701, -136.368070 62.183030, -136.369189 62.184359, -136.370308 62.185687, -136.371427 62.187016, -136.372546 62.188345, -136.373665 62.189673, -136.374784 62.191002, -136.375904 62.192331, -136.377023 62.193659, -136.378143 62.194988, -136.379263 62.196316, -136.380382 62.197645, -136.381502 62.198974, -136.382622 62.200302, -136.383742 62.201631, -136.384862 62.202959, -136.385983 62.204288, -136.387103 62.205616, -136.388223 62.206945, -136.389344 62.208273, -136.390465 62.209602, -136.391585 62.210930, -136.392706 62.212259, -136.393827 62.213587, -136.394948 62.214916, -136.396069 62.216244, -136.397190 62.217573, -136.398312 62.218901, -136.399433 62.220230, -136.400555 62.221558, -136.401676 62.222887, -136.402798 62.224215, -136.403920 62.225543, -136.405042 62.226872, -136.406164 62.228200, -136.407286 62.229529, -136.408408 62.230857, -136.409531 62.232185, -136.410653 62.233514, -136.411775 62.234842, -136.412898 62.236170, -136.414021 62.237499, -136.415144 62.238827, -136.416267 62.240155, -136.417390 62.241483, -136.418513 62.242812, -136.419636 62.244140, -136.420759 62.245468, -136.421883 62.246797, -136.423006 62.248125, -136.424130 62.249453, -136.425253 62.250781, -136.426377 62.252109, -136.427501 62.253438, -136.428625 62.254766, -136.429749 62.256094, -136.430873 62.257422, -136.431998 62.258750, -136.433122 62.260079, -136.434247 62.261407, -136.435371 62.262735, -136.436496 62.264063, -136.437621 62.265391, -136.438746 62.266719, -136.439871 62.268047, -136.440996 62.269376, -136.442121 62.270704, -136.443246 62.272032, -136.444372 62.273360, -136.445497 62.274688, -136.446623 62.276016, -136.447748 62.277344, -136.448874 62.278672, -136.450000 62.280000, -136.451971 62.281096, -136.453942 62.282192, -136.455914 62.283287, -136.457885 62.284383, -136.459857 62.285479, -136.461828 62.286575, -136.463800 62.287670, -136.465772 62.288766, -136.467744 62.289862, -136.469717 62.290957, -136.471689 62.292053, -136.473662 62.293148, -136.475635 62.294244, -136.477607 62.295339, -136.479580 62.296435, -136.481554 62.297530, -136.483527 62.298625, -136.485500 62.299721, -136.487474 62.300816, -136.489448 62.301911, -136.491422 62.303007, -136.493396 62.304102, -136.495370 62.305197, -136.497344 62.306292, -136.499319 62.307388, -136.501293 62.308483, -136.503268 62.309578, -136.505243 62.310673, -136.507218 62.311768, -136.509193 62.312863, -136.511169 62.313958, -136.513144 62.315053, -136.515120 62.316148, -136.517095 62.317243, -136.519071 62.318338, -136.521047 62.319432, -136.523024 62.320527, -136.525000 62.321622, -136.526976 62.322717, -136.528953 62.323812, -136.530930 62.324906, -136.532907 62.326001, -136.534884 62.327096, -136.536861 62.328190, -136.538838 62.329285, -136.540816 62.330380, -136.542793 62.331474, -136.544771 62.332569, -136.546749 62.333663, -136.548727 62.334758, -136.550705 62.335852, -136.552684 62.336946, -136.554662 62.338041, -136.556641 62.339135, -136.558620 62.340229, -136.560599 62.341324, -136.562578 62.342418, -136.564557 62.343512, -136.566536 62.344606, -136.568516 62.345701, -136.570496 62.346795, -136.572475 62.347889, -136.574455 62.348983, -136.576435 62.350077, -136.578416 62.351171, -136.580396 62.352265, -136.582376 62.353359, -136.584357 62.354453, -136.586338 62.355547, -136.588319 62.356641, -136.590300 62.357735, -136.592281 62.358829, -136.594263 62.359922, -136.596244 62.361016, -136.598226 62.362110, -136.600208 62.363204, -136.602190 62.364297, -136.604172 62.365391, -136.606154 62.366485, -136.608136 62.367578, -136.610119 62.368672, -136.612102 62.369766, -136.614085 62.370859, -136.616067 62.371953, -136.618051 62.373046, -136.620034 62.374140, -136.622017 62.375233, -136.624001 62.376326, -136.625985 62.377420, -136.627968 62.378513, -136.629952 62.379606, -136.631937 62.380700, -136.633921 62.381793, -136.635905 62.382886, -136.637890 62.383979, -136.639875 62.385073, -136.641859 62.386166, -136.643844 62.387259, -136.645830 62.388352, -136.647815 62.389445, -136.649800 62.390538, -136.651786 62.391631, -136.653772 62.392724, -136.655757 62.393817, -136.657743 62.394910, -136.659730 62.396003, -136.661716 62.397095, -136.663702 62.398188, -136.665689 62.399281, -136.667676 62.400374, -136.669663 62.401467, -136.671650 62.402559, -136.673637 62.403652, -136.675624 62.404745, -136.677612 62.405837, -136.679599 62.406930, -136.681587 62.408023, -136.683575 62.409115, -136.685563 62.410208, -136.687551 62.411300, -136.689540 62.412393, -136.691528 62.413485, -136.693517 62.414577, -136.695505 62.415670, -136.697494 62.416762, -136.699483 62.417854, -136.701473 62.418947, -136.703462 62.420039, -136.705451 62.421131, -136.707441 62.422223, -136.709431 62.423316, -136.711421 62.424408, -136.713411 62.425500, -136.715401 62.426592, -136.717392 62.427684, -136.719382 62.428776, -136.721373 62.429868, -136.723364 62.430960, -136.725354 62.432052, -136.727346 62.433144, -136.729337 62.434236, -136.731328 62.435328, -136.733320 62.436420, -136.735311 62.437511, -136.737303 62.438603, -136.739295 62.439695, -136.741287 62.440787, -136.743280 62.441878, -136.745272 62.442970, -136.747265 62.444062, -136.749257 62.445153, -136.751250 62.446245, -136.753243 62.447336, -136.755236 62.448428, -136.757230 62.449519, -136.759223 62.450611, -136.761216 62.451702, -136.763210 62.452794, -136.765204 62.453885, -136.767198 62.454976, -136.769192 62.456068, -136.771187 62.457159, -136.773181 62.458250, -136.775176 62.459342, -136.777170 62.460433, -136.779165 62.461524, -136.781160 62.462615, -136.783155 62.463706, -136.785151 62.464797, -136.787146 62.465888, -136.789142 62.466979, -136.791138 62.468070, -136.793133 62.469161, -136.795130 62.470252, -136.797126 62.471343, -136.799122 62.472434, -136.801119 62.473525, -136.803115 62.474616, -136.805112 62.475707, -136.807109 62.476798, -136.809106 62.477888, -136.811103 62.478979, -136.813101 62.480070, -136.815098 62.481160, -136.817096 62.482251, -136.819093 62.483342, -136.821091 62.484432, -136.823090 62.485523, -136.825088 62.486613, -136.827086 62.487704, -136.829085 62.488794, -136.831083 62.489885, -136.833082 62.490975, -136.835081 62.492066, -136.837080 62.493156, -136.839080 62.494246, -136.841079 62.495337, -136.843078 62.496427, -136.845078 62.497517, -136.847078 62.498607, -136.849078 62.499697, -136.851078 62.500788, -136.853078 62.501878, -136.855079 62.502968, -136.857079 62.504058, -136.859080 62.505148, -136.861081 62.506238, -136.863082 62.507328, -136.865083 62.508418, -136.867085 62.509508, -136.869086 62.510598, -136.871088 62.511688, -136.873089 62.512777, -136.875091 62.513867, -136.877093 62.514957, -136.879095 62.516047, -136.881098 62.517137, -136.883100 62.518226, -136.885103 62.519316, -136.887106 62.520406, -136.889109 62.521495, -136.891112 62.522585, -136.893115 62.523674, -136.895118 62.524764, -136.897122 62.525853, -136.899125 62.526943, -136.901129 62.528032, -136.903133 62.529122, -136.905137 62.530211, -136.907141 62.531300, -136.909146 62.532390, -136.911150 62.533479, -136.913155 62.534568, -136.915160 62.535658, -136.917165 62.536747, -136.919170 62.537836, -136.921175 62.538925, -136.923181 62.540014, -136.925186 62.541103, -136.927192 62.542192, -136.929198 62.543281, -136.931204 62.544370, -136.933210 62.545459, -136.935216 62.546548, -136.937223 62.547637, -136.939229 62.548726, -136.941236 62.549815, -136.943243 62.550904, -136.945250 62.551993, -136.947257 62.553081, -136.949264 62.554170, -136.951272 62.555259, -136.953279 62.556348, -136.955287 62.557436, -136.957295 62.558525, -136.959303 62.559614, -136.961311 62.560702, -136.963320 62.561791, -136.965328 62.562879, -136.967337 62.563968, -136.969346 62.565056, -136.971355 62.566145, -136.973364 62.567233, -136.975373 62.568321, -136.977382 62.569410, -136.979392 62.570498, -136.981401 62.571586, -136.983411 62.572675, -136.985421 62.573763, -136.987431 62.574851, -136.989442 62.575939, -136.991452 62.577027, -136.993463 62.578115, -136.995473 62.579204, -136.997484 62.580292, -136.999495 62.581380, -137.001506 62.582468, -137.003517 62.583556, -137.005529 62.584644, -137.007541 62.585731, -137.009552 62.586819, -137.011564 62.587907, -137.013576 62.588995, -137.015588 62.590083, -137.017601 62.591171, -137.019613 62.592258, -137.021626 62.593346, -137.023638 62.594434, -137.025651 62.595521, -137.027664 62.596609, -137.029678 62.597697, -137.031691 62.598784, -137.033705 62.599872, -137.035718 62.600959, -137.037732 62.602047, -137.039746 62.603134, -137.041760 62.604222, -137.043774 62.605309, -137.045789 62.606396, -137.047803 62.607484, -137.049818 62.608571, -137.051833 62.609658, -137.053848 62.610746, -137.055863 62.611833, -137.057878 62.612920, -137.059893 62.614007, -137.061909 62.615094, -137.063925 62.616181, -137.065941 62.617268, -137.067957 62.618355, -137.069973 62.619443, -137.071989 62.620529, -137.074005 62.621616, -137.076022 62.622703, -137.078039 62.623790, -137.080056 62.624877, -137.082073 62.625964, -137.084090 62.627051, -137.086107 62.628138, -137.088125 62.629224, -137.090142 62.630311, -137.092160 62.631398, -137.094178 62.632484, -137.096196 62.633571, -137.098214 62.634658, -137.100233 62.635744, -137.102251 62.636831, -137.104270 62.637917, -137.106289 62.639004, -137.108308 62.640090, -137.110327 62.641177, -137.112346 62.642263, -137.114366 62.643350, -137.116385 62.644436, -137.118405 62.645522, -137.120425 62.646609, -137.122445 62.647695, -137.124465 62.648781, -137.126485 62.649867, -137.128506 62.650953, -137.130526 62.652040, -137.132547 62.653126, -137.134568 62.654212, -137.136589 62.655298, -137.138610 62.656384, -137.140631 62.657470, -137.142653 62.658556, -137.144674 62.659642, -137.146696 62.660728, -137.148718 62.661814, -137.150740 62.662899, -137.152762 62.663985, -137.154785 62.665071, -137.156807 62.666157, -137.158830 62.667243, -137.160853 62.668328, -137.162876 62.669414, -137.164899 62.670500, -137.166922 62.671585, -137.168946 62.672671, -137.170969 62.673756, -137.172993 62.674842, -137.175017 62.675927, -137.177041 62.677013, -137.179065 62.678098, -137.181089 62.679184, -137.183114 62.680269, -137.185138 62.681355, -137.187163 62.682440, -137.189188 62.683525, -137.191213 62.684611, -137.193238 62.685696, -137.195263 62.686781, -137.197289 62.687866, -137.199315 62.688951, -137.201340 62.690036, -137.203366 62.691122, -137.205392 62.692207, -137.207419 62.693292, -137.209445 62.694377, -137.211472 62.695462, -137.213498 62.696547, -137.215525 62.697632, -137.217552 62.698716, -137.219579 62.699801, -137.221606 62.700886, -137.223634 62.701971, -137.225661 62.703056, -137.227689 62.704140, -137.229717 62.705225, -137.231745 62.706310, -137.233773 62.707395, -137.235801 62.708479, -137.237830 62.709564, -137.239859 62.710648, -137.241887 62.711733, -137.243916 62.712817, -137.245945 62.713902, -137.247975 62.714986, -137.250004 62.716071, -137.252033 62.717155, -137.254063 62.718240, -137.256093 62.719324, -137.258123 62.720408, -137.260153 62.721492, -137.262183 62.722577, -137.264214 62.723661, -137.266244 62.724745, -137.268275 62.725829, -137.270306 62.726913, -137.272337 62.727998, -137.274368 62.729082, -137.276399 62.730166, -137.278430 62.731250, -137.280462 62.732334, -137.282494 62.733418, -137.284526 62.734502, -137.286558 62.735585, -137.288590 62.736669, -137.290622 62.737753, -137.292655 62.738837, -137.294687 62.739921, -137.296720 62.741004, -137.298753 62.742088, -137.300786 62.743172, -137.302819 62.744256, -137.304853 62.745339, -137.306886 62.746423, -137.308920 62.747506, -137.310954 62.748590, -137.312988 62.749673, -137.315022 62.750757, -137.317056 62.751840, -137.319091 62.752924, -137.321125 62.754007, -137.323160 62.755091, -137.325195 62.756174, -137.327230 62.757257, -137.329265 62.758341, -137.331300 62.759424, -137.333336 62.760507, -137.335372 62.761590, -137.337407 62.762673, -137.339443 62.763757, -137.341479 62.764840, -137.343515 62.765923, -137.345552 62.767006, -137.347588 62.768089, -137.349625 62.769172, -137.351662 62.770255, -137.353699 62.771338, -137.355736 62.772421, -137.357773 62.773503, -137.359811 62.774586, -137.361848 62.775669, -137.363886 62.776752, -137.365924 62.777835, -137.367962 62.778917, -137.370000 62.780000, -137.371786 62.781174, -137.373572 62.782347, -137.375358 62.783521, -137.377145 62.784694, -137.378931 62.785868, -137.380718 62.787041, -137.382505 62.788215, -137.384292 62.789388, -137.386079 62.790561, -137.387866 62.791735, -137.389654 62.792908, -137.391441 62.794081, -137.393229 62.795255, -137.395017 62.796428, -137.396805 62.797601, -137.398593 62.798774, -137.400381 62.799948, -137.402169 62.801121, -137.403958 62.802294, -137.405746 62.803467, -137.407535 62.804640, -137.409324 62.805813, -137.411113 62.806986, -137.412903 62.808159, -137.414692 62.809332, -137.416482 62.810505, -137.418271 62.811678, -137.420061 62.812851, -137.421851 62.814024, -137.423641 62.815197, -137.425431 62.816370, -137.427222 62.817543, -137.429012 62.818716, -137.430803 62.819889, -137.432594 62.821061, -137.434385 62.822234, -137.436176 62.823407, -137.437967 62.824580, -137.439758 62.825752, -137.441550 62.826925, -137.443342 62.828098, -137.445133 62.829270, -137.446925 62.830443, -137.448718 62.831616, -137.450510 62.832788, -137.452302 62.833961, -137.454095 62.835133, -137.455887 62.836306, -137.457680 62.837478, -137.459473 62.838651, -137.461266 62.839823, -137.463059 62.840996, -137.464853 62.842168, -137.466646 62.843340, -137.468440 62.844513, -137.470234 62.845685, -137.472028 62.846857, -137.473822 62.848030, -137.475616 62.849202, -137.477411 62.850374, -137.479205 62.851546, -137.481000 62.852718, -137.482795 62.853891, -137.484590 62.855063, -137.486385 62.856235, -137.488180 62.857407, -137.489975 62.858579, -137.491771 62.859751, -137.493567 62.860923, -137.495362 62.862095, -137.497158 62.863267, -137.498954 62.864439, -137.500751 62.865611, -137.502547 62.866783, -137.504344 62.867955, -137.506140 62.869127, -137.507937 62.870298, -137.509734 62.871470, -137.511531 62.872642, -137.513328 62.873814, -137.515126 62.874986, -137.516923 62.876157, -137.518721 62.877329, -137.520519 62.878501, -137.522317 62.879672, -137.524115 62.880844, -137.525913 62.882016, -137.527712 62.883187, -137.529510 62.884359, -137.531309 62.885530, -137.533108 62.886702, -137.534907 62.887873, -137.536706 62.889045, -137.538505 62.890216, -137.540305 62.891388, -137.542104 62.892559, -137.543904 62.893730, -137.545704 62.894902, -137.547504 62.896073, -137.549304 62.897244, -137.551104 62.898416, -137.552904 62.899587, -137.554705 62.900758, -137.556506 62.901929, -137.558307 62.903101, -137.560108 62.904272, -137.561909 62.905443, -137.563710 62.906614, -137.565511 62.907785, -137.567313 62.908956, -137.569115 62.910127, -137.570917 62.911298, -137.572719 62.912469, -137.574521 62.913640, -137.576323 62.914811, -137.578125 62.915982, -137.579928 62.917153, -137.581731 62.918324, -137.583534 62.919495, -137.585337 62.920666, -137.587140 62.921837, -137.588943 62.923008, -137.590747 62.924178, -137.592550 62.925349, -137.594354 62.926520, -137.596158 62.927691, -137.597962 62.928861, -137.599766 62.930032, -137.601570 62.931203, -137.603375 62.932373, -137.605179 62.933544, -137.606984 62.934714, -137.608789 62.935885, -137.610594 62.937055, -137.612399 62.938226, -137.614204 62.939396, -137.616010 62.940567, -137.617815 62.941737, -137.619621 62.942908, -137.621427 62.944078, -137.623233 62.945249, -137.625039 62.946419, -137.626846 62.947589, -137.628652 62.948760, -137.630459 62.949930, -137.632266 62.951100, -137.634072 62.952270, -137.635879 62.953441, -137.637687 62.954611, -137.639494 62.955781, -137.641302 62.956951, -137.643109 62.958121, -137.644917 62.959291, -137.646725 62.960461, -137.648533 62.961631, -137.650341 62.962801, -137.652149 62.963971, -137.653958 62.965141, -137.655767 62.966311, -137.657575 62.967481, -137.659384 62.968651, -137.661193 62.969821, -137.663003 62.970991, -137.664812 62.972161, -137.666621 62.973331, -137.668431 62.974500, -137.670241 62.975670, -137.672051 62.976840, -137.673861 62.978010, -137.675671 62.979179, -137.677482 62.980349, -137.679292 62.981519, -137.681103 62.982688, -137.682914 62.983858, -137.684725 62.985027, -137.686536 62.986197, -137.688347 62.987367, -137.690158 62.988536, -137.691970 62.989706, -137.693782 62.990875, -137.695593 62.992044, -137.697405 62.993214, -137.699217 62.994383, -137.701030 62.995553, -137.702842 62.996722, -137.704655 62.997891, -137.706467 62.999061, -137.708280 63.000230, -137.710093 63.001399, -137.711906 63.002568, -137.713720 63.003738, -137.715533 63.004907, -137.717347 63.006076, -137.719160 63.007245, -137.720974 63.008414, -137.722788 63.009583, -137.724602 63.010752, -137.726417 63.011921, -137.728231 63.013091, -137.730046 63.014260, -137.731861 63.015429, -137.733675 63.016597, -137.735490 63.017766, -137.737306 63.018935, -137.739121 63.020104, -137.740936 63.021273, -137.742752 63.022442, -137.744568 63.023611, -137.746384 63.024780, -137.748200 63.025948, -137.750016 63.027117, -137.751832 63.028286, -137.753649 63.029454, -137.755465 63.030623, -137.757282 63.031792, -137.759099 63.032960, -137.760916 63.034129, -137.762733 63.035298, -137.764551 63.036466, -137.766368 63.037635, -137.768186 63.038803, -137.770004 63.039972, -137.771822 63.041140, -137.773640 63.042309, -137.775458 63.043477, -137.777276 63.044646, -137.779095 63.045814, -137.780913 63.046982, -137.782732 63.048151, -137.784551 63.049319, -137.786370 63.050487, -137.788190 63.051655, -137.790009 63.052824, -137.791829 63.053992, -137.793648 63.055160, -137.795468 63.056328, -137.797288 63.057496, -137.799108 63.058664, -137.800928 63.059833, -137.802749 63.061001, -137.804569 63.062169, -137.806390 63.063337, -137.808211 63.064505, -137.810032 63.065673, -137.811853 63.066841, -137.813674 63.068009, -137.815496 63.069177, -137.817317 63.070344, -137.819139 63.071512, -137.820961 63.072680, -137.822783 63.073848, -137.824605 63.075016, -137.826428 63.076183, -137.828250 63.077351, -137.830073 63.078519, -137.831895 63.079687, -137.833718 63.080854, -137.835541 63.082022, -137.837365 63.083190, -137.839188 63.084357, -137.841011 63.085525, -137.842835 63.086692, -137.844659 63.087860, -137.846483 63.089027, -137.848307 63.090195, -137.850131 63.091362, -137.851955 63.092530, -137.853780 63.093697, -137.855605 63.094865, -137.857429 63.096032, -137.859254 63.097199, -137.861080 63.098367, -137.862905 63.099534, -137.864730 63.100701, -137.866556 63.101868, -137.868381 63.103036, -137.870207 63.104203, -137.872033 63.105370, -137.873859 63.106537, -137.875686 63.107704, -137.877512 63.108872, -137.879339 63.110039, -137.881165 63.111206, -137.882992 63.112373, -137.884819 63.113540, -137.886646 63.114707, -137.888474 63.115874, -137.890301 63.117041, -137.892129 63.118208, -137.893956 63.119374, -137.895784 63.120541, -137.897612 63.121708, -137.899441 63.122875, -137.901269 63.124042, -137.903097 63.125209, -137.904926 63.126375, -137.906755 63.127542, -137.908584 63.128709, -137.910413 63.129876, -137.912242 63.131042, -137.914071 63.132209, -137.915901 63.133375, -137.917730 63.134542, -137.919560 63.135709, -137.921390 63.136875, -137.923220 63.138042, -137.925051 63.139208, -137.926881 63.140375, -137.928711 63.141541, -137.930542 63.142708, -137.932373 63.143874, -137.934204 63.145040, -137.936035 63.146207, -137.937866 63.147373, -137.939698 63.148539, -137.941529 63.149706, -137.943361 63.150872, -137.945193 63.152038, -137.947025 63.153204, -137.948857 63.154371, -137.950689 63.155537, -137.952522 63.156703, -137.954354 63.157869, -137.956187 63.159035, -137.958020 63.160201, -137.959853 63.161367, -137.961686 63.162533, -137.963520 63.163699, -137.965353 63.164865, -137.967187 63.166031, -137.969021 63.167197, -137.970854 63.168363, -137.972689 63.169529, -137.974523 63.170695, -137.976357 63.171861, -137.978192 63.173026, -137.980026 63.174192, -137.981861 63.175358, -137.983696 63.176524, -137.985531 63.177689, -137.987366 63.178855, -137.989202 63.180021, -137.991037 63.181187, -137.992873 63.182352, -137.994709 63.183518, -137.996545 63.184683, -137.998381 63.185849, -138.000217 63.187014, -138.002054 63.188180, -138.003890 63.189345, -138.005727 63.190511, -138.007564 63.191676, -138.009401 63.192842, -138.011238 63.194007, -138.013076 63.195172, -138.014913 63.196338, -138.016751 63.197503, -138.018588 63.198668, -138.020426 63.199834, -138.022264 63.200999, -138.024103 63.202164, -138.025941 63.203329, -138.027779 63.204495, -138.029618 63.205660, -138.031457 63.206825, -138.033296 63.207990, -138.035135 63.209155, -138.036974 63.210320, -138.038814 63.211485, -138.040653 63.212650, -138.042493 63.213815, -138.044333 63.214980, -138.046173 63.216145, -138.048013 63.217310, -138.049853 63.218475, -138.051694 63.219640, -138.053534 63.220805, -138.055375 63.221969, -138.057216 63.223134, -138.059057 63.224299, -138.060898 63.225464, -138.062739 63.226628, -138.064581 63.227793, -138.066422 63.228958, -138.068264 63.230122, -138.070106 63.231287, -138.071948 63.232452, -138.073790 63.233616, -138.075633 63.234781, -138.077475 63.235945, -138.079318 63.237110, -138.081161 63.238274, -138.083004 63.239439, -138.084847 63.240603, -138.086690 63.241768, -138.088533 63.242932, -138.090377 63.244096, -138.092221 63.245261, -138.094065 63.246425, -138.095909 63.247589, -138.097753 63.248754, -138.099597 63.249918, -138.101441 63.251082, -138.103286 63.252246, -138.105131 63.253411, -138.106976 63.254575, -138.108821 63.255739, -138.110666 63.256903, -138.112511 63.258067, -138.114357 63.259231, -138.116202 63.260395, -138.118048 63.261559, -138.119894 63.262723, -138.121740 63.263887, -138.123586 63.265051, -138.125433 63.266215, -138.127279 63.267379, -138.129126 63.268543, -138.130973 63.269706, -138.132820 63.270870, -138.134667 63.272034, -138.136514 63.273198, -138.138362 63.274362, -138.140209 63.275525, -138.142057 63.276689, -138.143905 63.277853, -138.145753 63.279016, -138.147601 63.280180, -138.149449 63.281344, -138.151298 63.282507, -138.153146 63.283671, -138.154995 63.284834, -138.156844 63.285998, -138.158693 63.287161, -138.160542 63.288325, -138.162392 63.289488, -138.164241 63.290652, -138.166091 63.291815, -138.167941 63.292978, -138.169790 63.294142, -138.171641 63.295305, -138.173491 63.296468, -138.175341 63.297632, -138.177192 63.298795, -138.179043 63.299958, -138.180893 63.301121, -138.182744 63.302284, -138.184596 63.303447, -138.186447 63.304611, -138.188298 63.305774, -138.190150 63.306937, -138.192002 63.308100, -138.193854 63.309263, -138.195706 63.310426, -138.197558 63.311589, -138.199410 63.312752, -138.201263 63.313915, -138.203115 63.315078, -138.204968 63.316241, -138.206821 63.317403, -138.208674 63.318566, -138.210527 63.319729, -138.212381 63.320892, -138.214234 63.322055, -138.216088 63.323217, -138.217942 63.324380, -138.219796 63.325543, -138.221650 63.326705, -138.223504 63.327868, -138.225359 63.329031, -138.227213 63.330193, -138.229068 63.331356, -138.230923 63.332518, -138.232778 63.333681, -138.234633 63.334843, -138.236489 63.336006, -138.238344 63.337168, -138.240200 63.338331, -138.242055 63.339493, -138.243911 63.340656, -138.245767 63.341818, -138.247624 63.342980, -138.249480 63.344143, -138.251337 63.345305, -138.253193 63.346467, -138.255050 63.347629, -138.256907 63.348791, -138.258764 63.349954, -138.260622 63.351116, -138.262479 63.352278, -138.264337 63.353440, -138.266194 63.354602, -138.268052 63.355764, -138.269910 63.356926, -138.271769 63.358088, -138.273627 63.359250, -138.275485 63.360412, -138.277344 63.361574, -138.279203 63.362736, -138.281062 63.363898, -138.282921 63.365060, -138.284780 63.366222, -138.286640 63.367384, -138.288499 63.368545, -138.290359 63.369707, -138.292219 63.370869, -138.294079 63.372031, -138.295939 63.373192, -138.297799 63.374354, -138.299660 63.375516, -138.301520 63.376677, -138.303381 63.377839, -138.305242 63.379000, -138.307103 63.380162, -138.308964 63.381324, -138.310825 63.382485, -138.312687 63.383647, -138.314549 63.384808, -138.316410 63.385969, -138.318272 63.387131, -138.320134 63.388292, -138.321997 63.389454, -138.323859 63.390615, -138.325722 63.391776, -138.327584 63.392938, -138.329447 63.394099, -138.331310 63.395260, -138.333173 63.396421, -138.335037 63.397582, -138.336900 63.398744, -138.338764 63.399905, -138.340628 63.401066, -138.342491 63.402227, -138.344356 63.403388, -138.346220 63.404549, -138.348084 63.405710, -138.349949 63.406871, -138.351813 63.408032, -138.353678 63.409193, -138.355543 63.410354, -138.357408 63.411515, -138.359274 63.412676, -138.361139 63.413837, -138.363005 63.414997, -138.364870 63.416158, -138.366736 63.417319, -138.368602 63.418480, -138.370468 63.419640, -138.372335 63.420801, -138.374201 63.421962, -138.376068 63.423123, -138.377935 63.424283, -138.379801 63.425444, -138.381669 63.426604, -138.383536 63.427765, -138.385403 63.428925, -138.387271 63.430086, -138.389138 63.431246, -138.391006 63.432407, -138.392874 63.433567, -138.394742 63.434728, -138.396611 63.435888, -138.398479 63.437049, -138.400348 63.438209, -138.402217 63.439369, -138.404085 63.440529, -138.405954 63.441690, -138.407824 63.442850, -138.409693 63.444010, -138.411563 63.445170, -138.413432 63.446331, -138.415302 63.447491, -138.417172 63.448651, -138.419042 63.449811, -138.420912 63.450971, -138.422783 63.452131, -138.424653 63.453291, -138.426524 63.454451, -138.428395 63.455611, -138.430266 63.456771, -138.432137 63.457931, -138.434009 63.459091, -138.435880 63.460251, -138.437752 63.461411, -138.439623 63.462570, -138.441495 63.463730, -138.443367 63.464890, -138.445240 63.466050, -138.447112 63.467209, -138.448985 63.468369, -138.450857 63.469529, -138.452730 63.470689, -138.454603 63.471848, -138.456476 63.473008, -138.458350 63.474167, -138.460223 63.475327, -138.462097 63.476486, -138.463970 63.477646, -138.465844 63.478805, -138.467718 63.479965, -138.469593 63.481124, -138.471467 63.482284, -138.473341 63.483443, -138.475216 63.484603, -138.477091 63.485762, -138.478966 63.486921, -138.480841 63.488080, -138.482716 63.489240, -138.484592 63.490399, -138.486467 63.491558, -138.488343 63.492717, -138.490219 63.493877, -138.492095 63.495036, -138.493971 63.496195, -138.495848 63.497354, -138.497724 63.498513, -138.499601 63.499672, -138.501478 63.500831, -138.503354 63.501990, -138.505232 63.503149, -138.507109 63.504308, -138.508986 63.505467, -138.510864 63.506626, -138.512742 63.507785, -138.514619 63.508944, -138.516497 63.510102, -138.518376 63.511261, -138.520254 63.512420, -138.522132 63.513579, -138.524011 63.514737, -138.525890 63.515896, -138.527769 63.517055, -138.529648 63.518213, -138.531527 63.519372, -138.533406 63.520531, -138.535286 63.521689, -138.537166 63.522848, -138.539046 63.524006, -138.540926 63.525165, -138.542806 63.526323, -138.544686 63.527482, -138.546566 63.528640, -138.548447 63.529799, -138.550328 63.530957, -138.552209 63.532115, -138.554090 63.533274, -138.555971 63.534432, -138.557852 63.535590, -138.559734 63.536748, -138.561616 63.537907, -138.563497 63.539065, -138.565379 63.540223, -138.567262 63.541381, -138.569144 63.542539, -138.571026 63.543698, -138.572909 63.544856, -138.574792 63.546014, -138.576675 63.547172, -138.578558 63.548330, -138.580441 63.549488, -138.582324 63.550646, -138.584208 63.551804, -138.586091 63.552962, -138.587975 63.554119, -138.589859 63.555277, -138.591743 63.556435, -138.593628 63.557593, -138.595512 63.558751, -138.597397 63.559908, -138.599281 63.561066, -138.601166 63.562224, -138.603051 63.563382, -138.604937 63.564539, -138.606822 63.565697, -138.608707 63.566855, -138.610593 63.568012, -138.612479 63.569170, -138.614365 63.570327, -138.616251 63.571485, -138.618137 63.572642, -138.620024 63.573800, -138.621910 63.574957, -138.623797 63.576115, -138.625684 63.577272, -138.627571 63.578429, -138.629458 63.579587, -138.631345 63.580744, -138.633233 63.581901, -138.635121 63.583059, -138.637008 63.584216, -138.638896 63.585373, -138.640785 63.586530, -138.642673 63.587687, -138.644561 63.588845, -138.646450 63.590002, -138.648339 63.591159, -138.650227 63.592316, -138.652116 63.593473, -138.654006 63.594630, -138.655895 63.595787, -138.657784 63.596944, -138.659674 63.598101, -138.661564 63.599258, -138.663454 63.600415, -138.665344 63.601572, -138.667234 63.602728, -138.669125 63.603885, -138.671015 63.605042, -138.672906 63.606199, -138.674797 63.607356, -138.676688 63.608512, -138.678579 63.609669, -138.680470 63.610826, -138.682362 63.611982, -138.684254 63.613139, -138.686145 63.614295, -138.688037 63.615452, -138.689930 63.616609, -138.691822 63.617765, -138.693714 63.618922, -138.695607 63.620078, -138.697500 63.621235, -138.699392 63.622391, -138.701285 63.623547, -138.703179 63.624704, -138.705072 63.625860, -138.706965 63.627016, -138.708859 63.628173, -138.710753 63.629329, -138.712647 63.630485, -138.714541 63.631641, -138.716435 63.632798, -138.718330 63.633954, -138.720224 63.635110, -138.722119 63.636266, -138.724014 63.637422, -138.725909 63.638578, -138.727804 63.639734, -138.729700 63.640890, -138.731595 63.642046, -138.733491 63.643202, -138.735386 63.644358, -138.737282 63.645514, -138.739179 63.646670, -138.741075 63.647826, -138.742971 63.648982, -138.744868 63.650138, -138.746765 63.651293, -138.748662 63.652449, -138.750559 63.653605, -138.752456 63.654761, -138.754353 63.655916, -138.756251 63.657072, -138.758148 63.658228, -138.760046 63.659383, -138.761944 63.660539, -138.763842 63.661695, -138.765741 63.662850, -138.767639 63.664006, -138.769538 63.665161, -138.771436 63.666317, -138.773335 63.667472, -138.775234 63.668628, -138.777134 63.669783, -138.779033 63.670938, -138.780932 63.672094, -138.782832 63.673249, -138.784732 63.674404, -138.786632 63.675560, -138.788532 63.676715, -138.790432 63.677870, -138.792333 63.679025, -138.794233 63.680180, -138.796134 63.681336, -138.798035 63.682491, -138.799936 63.683646, -138.801837 63.684801, -138.803739 63.685956, -138.805640 63.687111, -138.807542 63.688266, -138.809444 63.689421, -138.811346 63.690576, -138.813248 63.691731, -138.815150 63.692886, -138.817053 63.694041, -138.818955 63.695195, -138.820858 63.696350, -138.822761 63.697505, -138.824664 63.698660, -138.826568 63.699815, -138.828471 63.700969, -138.830374 63.702124, -138.832278 63.703279, -138.834182 63.704433, -138.836086 63.705588, -138.837990 63.706743, -138.839895 63.707897, -138.841799 63.709052, -138.843704 63.710206, -138.845609 63.711361, -138.847513 63.712515, -138.849419 63.713670, -138.851324 63.714824, -138.853229 63.715978, -138.855135 63.717133, -138.857041 63.718287, -138.858946 63.719441, -138.860853 63.720596, -138.862759 63.721750, -138.864665 63.722904, -138.866572 63.724059, -138.868478 63.725213, -138.870385 63.726367, -138.872292 63.727521, -138.874199 63.728675, -138.876106 63.729829, -138.878014 63.730983, -138.879921 63.732137, -138.881829 63.733291, -138.883737 63.734445, -138.885645 63.735599, -138.887553 63.736753, -138.889462 63.737907, -138.891370 63.739061, -138.893279 63.740215, -138.895188 63.741369, -138.897097 63.742523, -138.899006 63.743676, -138.900915 63.744830, -138.902825 63.745984, -138.904734 63.747138, -138.906644 63.748291, -138.908554 63.749445, -138.910464 63.750599, -138.912375 63.751752, -138.914285 63.752906, -138.916195 63.754059, -138.918106 63.755213, -138.920017 63.756366, -138.921928 63.757520, -138.923839 63.758673, -138.925751 63.759827, -138.927662 63.760980, -138.929574 63.762134, -138.931486 63.763287, -138.933398 63.764440, -138.935310 63.765594, -138.937222 63.766747, -138.939134 63.767900, -138.941047 63.769054, -138.942960 63.770207, -138.944873 63.771360, -138.946786 63.772513, -138.948699 63.773666, -138.950612 63.774819, -138.952526 63.775972, -138.954439 63.777125, -138.956353 63.778278, -138.958267 63.779431, -138.960181 63.780584, -138.962096 63.781737, -138.964010 63.782890, -138.965925 63.784043, -138.967840 63.785196, -138.969755 63.786349, -138.971670 63.787502, -138.973585 63.788655, -138.975500 63.789807, -138.977416 63.790960, -138.979332 63.792113, -138.981247 63.793266, -138.983164 63.794418, -138.985080 63.795571, -138.986996 63.796724, -138.988913 63.797876, -138.990829 63.799029, -138.992746 63.800181, -138.994663 63.801334, -138.996580 63.802486, -138.998497 63.803639, -139.000415 63.804791, -139.002332 63.805944, -139.004250 63.807096, -139.006168 63.808248, -139.008086 63.809401, -139.010004 63.810553, -139.011923 63.811705, -139.013841 63.812858, -139.015760 63.814010, -139.017679 63.815162, -139.019598 63.816314, -139.021517 63.817467, -139.023436 63.818619, -139.025356 63.819771, -139.027276 63.820923, -139.029195 63.822075, -139.031115 63.823227, -139.033035 63.824379, -139.034956 63.825531, -139.036876 63.826683, -139.038797 63.827835, -139.040717 63.828987, -139.042638 63.830139, -139.044559 63.831291, -139.046481 63.832442, -139.048402 63.833594, -139.050323 63.834746, -139.052245 63.835898, -139.054167 63.837050, -139.056089 63.838201, -139.058011 63.839353, -139.059933 63.840505, -139.061856 63.841656, -139.063779 63.842808, -139.065701 63.843959, -139.067624 63.845111, -139.069547 63.846263, -139.071471 63.847414, -139.073394 63.848566, -139.075318 63.849717, -139.077241 63.850868, -139.079165 63.852020, -139.081089 63.853171, -139.083013 63.854323, -139.084938 63.855474, -139.086862 63.856625, -139.088787 63.857776, -139.090712 63.858928, -139.092637 63.860079, -139.094562 63.861230, -139.096487 63.862381, -139.098413 63.863532, -139.100338 63.864684, -139.102264 63.865835, -139.104190 63.866986, -139.106116 63.868137, -139.108042 63.869288, -139.109969 63.870439, -139.111895 63.871590, -139.113822 63.872741, -139.115749 63.873892, -139.117676 63.875043, -139.119603 63.876193, -139.121531 63.877344, -139.123458 63.878495, -139.125386 63.879646, -139.127314 63.880797, -139.129242 63.881947, -139.131170 63.883098, -139.133098 63.884249, -139.135026 63.885399, -139.136955 63.886550, -139.138884 63.887701, -139.140813 63.888851, -139.142742 63.890002, -139.144671 63.891152, -139.146601 63.892303, -139.148530 63.893453, -139.150460 63.894604, -139.152390 63.895754, -139.154320 63.896905, -139.156250 63.898055, -139.158180 63.899205, -139.160111 63.900356, -139.162041 63.901506, -139.163972 63.902656, -139.165903 63.903807, -139.167834 63.904957, -139.169766 63.906107, -139.171697 63.907257, -139.173629 63.908407, -139.175561 63.909557, -139.177493 63.910708, -139.179425 63.911858, -139.181357 63.913008, -139.183289 63.914158, -139.185222 63.915308, -139.187155 63.916458, -139.189088 63.917608, -139.191021 63.918758, -139.192954 63.919907, -139.194887 63.921057, -139.196821 63.922207, -139.198754 63.923357, -139.200688 63.924507, -139.202622 63.925657, -139.204556 63.926806, -139.206491 63.927956, -139.208425 63.929106, -139.210360 63.930255, -139.212295 63.931405, -139.214230 63.932555, -139.216165 63.933704, -139.218100 63.934854, -139.220035 63.936003, -139.221971 63.937153, -139.223907 63.938302, -139.225843 63.939452, -139.227779 63.940601, -139.229715 63.941751, -139.231651 63.942900, -139.233588 63.944049, -139.235525 63.945199, -139.237461 63.946348, -139.239398 63.947497, -139.241336 63.948646, -139.243273 63.949796, -139.245210 63.950945, -139.247148 63.952094, -139.249086 63.953243, -139.251024 63.954392, -139.252962 63.955541, -139.254900 63.956690, -139.256839 63.957839, -139.258777 63.958988, -139.260716 63.960137, -139.262655 63.961286, -139.264594 63.962435, -139.266533 63.963584, -139.268473 63.964733, -139.270412 63.965882, -139.272352 63.967031, -139.274292 63.968180, -139.276232 63.969328, -139.278172 63.970477, -139.280113 63.971626, -139.282053 63.972775, -139.283994 63.973923, -139.285935 63.975072, -139.287876 63.976221, -139.289817 63.977369, -139.291758 63.978518, -139.293699 63.979666, -139.295641 63.980815, -139.297583 63.981963, -139.299525 63.983112, -139.301467 63.984260, -139.303409 63.985409, -139.305352 63.986557, -139.307294 63.987705, -139.309237 63.988854, -139.311180 63.990002, -139.313123 63.991150, -139.315066 63.992299, -139.317010 63.993447, -139.318953 63.994595, -139.320897 63.995743, -139.322841 63.996891, -139.324785 63.998040, -139.326729 63.999188, -139.328673 64.000336, -139.330618 64.001484, -139.332563 64.002632, -139.334507 64.003780, -139.336452 64.004928, -139.338397 64.006076, -139.340343 64.007224, -139.342288 64.008372, -139.344234 64.009519, -139.346180 64.010667, -139.348126 64.011815, -139.350072 64.012963, -139.352018 64.014111, -139.353964 64.015258, -139.355911 64.016406, -139.357858 64.017554, -139.359805 64.018701, -139.361752 64.019849, -139.363699 64.020997, -139.365646 64.022144, -139.367594 64.023292, -139.369542 64.024439, -139.371489 64.025587, -139.373437 64.026734, -139.375386 64.027882, -139.377334 64.029029, -139.379283 64.030177, -139.381231 64.031324, -139.383180 64.032471, -139.385129 64.033619, -139.387078 64.034766, -139.389027 64.035913, -139.390977 64.037061, -139.392927 64.038208, -139.394876 64.039355, -139.396826 64.040502, -139.398776 64.041649, -139.400727 64.042796, -139.402677 64.043943, -139.404628 64.045091, -139.406578 64.046238, -139.408529 64.047385, -139.410480 64.048532, -139.412432 64.049679, -139.414383 64.050825, -139.416335 64.051972, -139.418286 64.053119, -139.420238 64.054266, -139.422190 64.055413, -139.424142 64.056560, -139.426095 64.057707, -139.428047 64.058853, -139.430000 64.060000))
