LINESTRING (151.220000 -26.960000, 151.215317 -26.954398, 151.210635 -26.948796, 151.205953 -26.943194, 151.201272 -26.937592, 151.196591 -26.931990, 151.191910 -26.926387, 151.187230 -26.920785, 151.182551 -26.915182, 151.177871 -26.909579, 151.173193 -26.903976, 151.168515 -26.898373, 151.163837 -26.892769, 151.159160 -26.887166, 151.154483 -26.881562, 151.149807 -26.875958, 151.145131 -26.870354, 151.140455 -26.864750, 151.135780 -26.859146, 151.131106 -26.853541, 151.126432 -26.847937, 151.121758 -26.842332, 151.117085 -26.836727, 151.112413 -26.831122, 151.107741 -26.825517, 151.103069 -26.819911, 151.098398 -26.814306, 151.093727 -26.808700, 151.089057 -26.803094, 151.084387 -26.797488, 151.079717 -26.791882, 151.075049 -26.786276, 151.070380 -26.780669, 151.065712 -26.775062, 151.061045 -26.769456, 151.056378 -26.763849, 151.051711 -26.758242, 151.047045 -26.752634, 151.042379 -26.747027, 151.037714 -26.741419, 151.033049 -26.735812, 151.028385 -26.730204, 151.023721 -26.724596, 151.019058 -26.718988, 151.014395 -26.713379, 151.009732 -26.707771, 151.005070 -26.702162, 151.000409 -26.696554, 150.995748 -26.690945, 150.991087 -26.685336, 150.986427 -26.679726, 150.981767 -26.674117, 150.977108 -26.668508, 150.972449 -26.662898, 150.967791 -26.657288, 150.963133 -26.651678, 150.958475 -26.646068, 150.953818 -26.640458, 150.949162 -26.634847, 150.944506 -26.629237, 150.939850 -26.623626, 150.935195 -26.618015, 150.930540 -26.612404, 150.925886 -26.606793, 150.921232 -26.601181, 150.916579 -26.595570, 150.911926 -26.589958, 150.907274 -26.584347, 150.902622 -26.578735, 150.897970 -26.573122, 150.893319 -26.567510, 150.888669 -26.561898, 150.884019 -26.556285, 150.879369 -26.550673, 150.874720 -26.545060, 150.870071 -26.539447, 150.865423 -26.533834, 150.860775 -26.528220, 150.856128 -26.522607, 150.851481 -26.516993, 150.846834 -26.511379, 150.842188 -26.505766, 150.837543 -26.500151, 150.832897 -26.494537, 150.828253 -26.488923, 150.823609 -26.483308, 150.818965 -26.477694, 150.814321 -26.472079, 150.809679 -26.466464, 150.805036 -26.460849, 150.800394 -26.455234, 150.795753 -26.449618, 150.791112 -26.444003, 150.786471 -26.438387, 150.781831 -26.432771, 150.777191 -26.427155, 150.772552 -26.421539, 150.767913 -26.415923, 150.763275 -26.410306, 150.758637 -26.404690, 150.754000 -26.399073, 150.749363 -26.393456, 150.744726 -26.387839, 150.740090 -26.382222, 150.735455 -26.376604, 150.730819 -26.370987, 150.726185 -26.365369, 150.721550 -26.359751, 150.716917 -26.354133, 150.712283 -26.348515, 150.707650 -26.342897, 150.703018 -26.337279, 150.698386 -26.331660, 150.693754 -26.326041, 150.689123 -26.320423, 150.684492 -26.314804, 150.679862 -26.309184, 150.675232 -26.303565, 150.670603 -26.297946, 150.665974 -26.292326, 150.661346 -26.286706, 150.656718 -26.281086, 150.652090 -26.275466, 150.647463 -26.269846, 150.642837 -26.264226, 150.638210 -26.258605, 150.633585 -26.252985, 150.628959 -26.247364, 150.624335 -26.241743, 150.619710 -26.236122, 150.615086 -26.230501, 150.610463 -26.224879, 150.605840 -26.219258, 150.601217 -26.213636, 150.596595 -26.208014, 150.591973 -26.202392, 150.587352 -26.196770, 150.582731 -26.191148, 150.578111 -26.185526, 150.573491 -26.179903, 150.568871 -26.174280, 150.564252 -26.168658, 150.559634 -26.163035, 150.555016 -26.157412, 150.550398 -26.151788, 150.545781 -26.146165, 150.541164 -26.140541, 150.536547 -26.134917, 150.531932 -26.129294, 150.527316 -26.123670, 150.522701 -26.118045, 150.518086 -26.112421, 150.513472 -26.106797, 150.508859 -26.101172, 150.504245 -26.095547, 150.499632 -26.089922, 150.495020 -26.084297, 150.490408 -26.078672, 150.485797 -26.073047, 150.481186 -26.067421, 150.476575 -26.061796, 150.471965 -26.056170, 150.467355 -26.050544, 150.462746 -26.044918, 150.458137 -26.039292, 150.453529 -26.033665, 150.448921 -26.028039, 150.444313 -26.022412, 150.439706 -26.016785, 150.435100 -26.011158, 150.430493 -26.005531, 150.425888 -25.999904, 150.421282 -25.994277, 150.416678 -25.988649, 150.412073 -25.983021, 150.407469 -25.977394, 150.402866 -25.971766, 150.398263 -25.966138, 150.393660 -25.960509, 150.389058 -25.954881, 150.384456 -25.949252, 150.379855 -25.943624, 150.375254 -25.937995, 150.370653 -25.932366, 150.366053 -25.926737, 150.361454 -25.921107, 150.356855 -25.915478, 150.352256 -25.909848, 150.347658 -25.904219, 150.343060 -25.898589, 150.338462 -25.892959, 150.333865 -25.887329, 150.329269 -25.881698, 150.324673 -25.876068, 150.320077 -25.870437, 150.315482 -25.864807, 150.310887 -25.859176, 150.306293 -25.853545, 150.301699 -25.847914, 150.297106 -25.842282, 150.292513 -25.836651, 150.287920 -25.831019, 150.283328 -25.825387, 150.278736 -25.819756, 150.274145 -25.814124, 150.269554 -25.808491, 150.264964 -25.802859, 150.260374 -25.797227, 150.255785 -25.791594, 150.251195 -25.785961, 150.246607 -25.780328, 150.242019 -25.774695, 150.237431 -25.769062, 150.232844 -25.763429, 150.228257 -25.757795, 150.223670 -25.752162, 150.219084 -25.746528, 150.214499 -25.740894, 150.209913 -25.735260, 150.205329 -25.729626, 150.200744 -25.723991, 150.196161 -25.718357, 150.191577 -25.712722, 150.186994 -25.707088, 150.182412 -25.701453, 150.177830 -25.695818, 150.173248 -25.690182, 150.168667 -25.684547, 150.164086 -25.678912, 150.159506 -25.673276, 150.154926 -25.667640, 150.150346 -25.662004, 150.145767 -25.656368, 150.141188 -25.650732, 150.136610 -25.645096, 150.132032 -25.639459, 150.127455 -25.633823, 150.122878 -25.628186, 150.118302 -25.622549, 150.113726 -25.616912, 150.109150 -25.611275, 150.104575 -25.605637, 150.100000 -25.600000, 150.095348 -25.594390, 150.090696 -25.588780, 150.086044 -25.583170, 150.081393 -25.577559, 150.076742 -25.571949, 150.072092 -25.566338, 150.067442 -25.560727, 150.062793 -25.555116, 150.058144 -25.549505, 150.053496 -25.543894, 150.048847 -25.538283, 150.044200 -25.532671, 150.039553 -25.527059, 150.034906 -25.521447, 150.030260 -25.515835, 150.025614 -25.510223, 150.020968 -25.504611, 150.016323 -25.498999, 150.011679 -25.493386, 150.007035 -25.487773, 150.002391 -25.482160, 149.997748 -25.476547, 149.993105 -25.470934, 149.988462 -25.465321, 149.983820 -25.459707, 149.979179 -25.454094, 149.974538 -25.448480, 149.969897 -25.442866, 149.965257 -25.437252, 149.960617 -25.431638, 149.955978 -25.426024, 149.951339 -25.420409, 149.946700 -25.414794, 149.942062 -25.409180, 149.937424 -25.403565, 149.932787 -25.397950, 149.928150 -25.392334, 149.923514 -25.386719, 149.918878 -25.381104, 149.914243 -25.375488, 149.909607 -25.369872, 149.904973 -25.364256, 149.900339 -25.358640, 149.895705 -25.353024, 149.891072 -25.347408, 149.886439 -25.341791, 149.881806 -25.336174, 149.877174 -25.330558, 149.872542 -25.324941, 149.867911 -25.319323, 149.863281 -25.313706, 149.858650 -25.308089, 149.854020 -25.302471, 149.849391 -25.296854, 149.844762 -25.291236, 149.840133 -25.285618, 149.835505 -25.280000, 149.830877 -25.274382, 149.826250 -25.268763, 149.821623 -25.263145, 149.816996 -25.257526, 149.812370 -25.251907, 149.807745 -25.246288, 149.803120 -25.240669, 149.798495 -25.235050, 149.793871 -25.229430, 149.789247 -25.223811, 149.784623 -25.218191, 149.780000 -25.212571, 149.775377 -25.206951, 149.770755 -25.201331, 149.766133 -25.195711, 149.761512 -25.190090, 149.756891 -25.184470, 149.752271 -25.178849, 149.747651 -25.173228, 149.743031 -25.167607, 149.738412 -25.161986, 149.733793 -25.156365, 149.729175 -25.150744, 149.724557 -25.145122, 149.719939 -25.139500, 149.715322 -25.133878, 149.710705 -25.128256, 149.706089 -25.122634, 149.701473 -25.117012, 149.696858 -25.111390, 149.692243 -25.105767, 149.687629 -25.100144, 149.683014 -25.094522, 149.678401 -25.088899, 149.673787 -25.083275, 149.669175 -25.077652, 149.664562 -25.072029, 149.659950 -25.066405, 149.655339 -25.060781, 149.650727 -25.055158, 149.646117 -25.049534, 149.641506 -25.043910, 149.636897 -25.038285, 149.632287 -25.032661, 149.627678 -25.027036, 149.623069 -25.021412, 149.618461 -25.015787, 149.613853 -25.010162, 149.609246 -25.004537, 149.604639 -24.998911, 149.600033 -24.993286, 149.595427 -24.987660, 149.590821 -24.982035, 149.586216 -24.976409, 149.581611 -24.970783, 149.577007 -24.965157, 149.572403 -24.959531, 149.567799 -24.953904, 149.563196 -24.948278, 149.558593 -24.942651, 149.553991 -24.937024, 149.549389 -24.931397, 149.544788 -24.925770, 149.540187 -24.920143, 149.535586 -24.914515, 149.530986 -24.908888, 149.526386 -24.903260, 149.521787 -24.897632, 149.517188 -24.892004, 149.512589 -24.886376, 149.507991 -24.880748, 149.503393 -24.875120, 149.498796 -24.869491, 149.494199 -24.863863, 149.489603 -24.858234, 149.485007 -24.852605, 149.480411 -24.846976, 149.475816 -24.841347, 149.471221 -24.835717, 149.466627 -24.830088, 149.462033 -24.824458, 149.457440 -24.818828, 149.452847 -24.813198, 149.448254 -24.807568, 149.443662 -24.801938, 149.439070 -24.796308, 149.434478 -24.790677, 149.429887 -24.785047, 149.425297 -24.779416, 149.420707 -24.773785, 149.416117 -24.768154, 149.411528 -24.762523, 149.406939 -24.756891, 149.402350 -24.751260, 149.397762 -24.745628, 149.393174 -24.739997, 149.388587 -24.734365, 149.384000 -24.728733, 149.379414 -24.723101, 149.374828 -24.717468, 149.370242 -24.711836, 149.365657 -24.706203, 149.361072 -24.700571, 149.356488 -24.694938, 149.351904 -24.689305, 149.347321 -24.683672, 149.342738 -24.678038, 149.338155 -24.672405, 149.333573 -24.666771, 149.328991 -24.661138, 149.324409 -24.655504, 149.319828 -24.649870, 149.315248 -24.644236, 149.310667 -24.638602, 149.306088 -24.632967, 149.301508 -24.627333, 149.296929 -24.621698, 149.292351 -24.616063, 149.287773 -24.610428, 149.283195 -24.604793, 149.278618 -24.599158, 149.274041 -24.593523, 149.269464 -24.587887, 149.264888 -24.582251, 149.260313 -24.576616, 149.255737 -24.570980, 149.251162 -24.565344, 149.246588 -24.559708, 149.242014 -24.554071, 149.237440 -24.548435, 149.232867 -24.542798, 149.228294 -24.537161, 149.223722 -24.531525, 149.219150 -24.525888, 149.214578 -24.520250, 149.210007 -24.514613, 149.205437 -24.508976, 149.200866 -24.503338, 149.196296 -24.497700, 149.191727 -24.492063, 149.187158 -24.486425, 149.182589 -24.480787, 149.178021 -24.475148, 149.173453 -24.469510, 149.168885 -24.463871, 149.164318 -24.458233, 149.159752 -24.452594, 149.155186 -24.446955, 149.150620 -24.441316, 149.146054 -24.435677, 149.141489 -24.430037, 149.136925 -24.424398, 149.132361 -24.418758, 149.127797 -24.413118, 149.123233 -24.407479, 149.118670 -24.401839, 149.114108 -24.396198, 149.109546 -24.390558, 149.104984 -24.384918, 149.100423 -24.379277, 149.095862 -24.373636, 149.091301 -24.367996, 149.086741 -24.362355, 149.082181 -24.356713, 149.077622 -24.351072, 149.073063 -24.345431, 149.068505 -24.339789, 149.063947 -24.334148, 149.059389 -24.328506, 149.054832 -24.322864, 149.050275 -24.317222, 149.045718 -24.311580, 149.041162 -24.305937, 149.036607 -24.300295, 149.032051 -24.294652, 149.027496 -24.289009, 149.022942 -24.283366, 149.018388 -24.277723, 149.013834 -24.272080, 149.009281 -24.266437, 149.004728 -24.260794, 149.000176 -24.255150, 148.995624 -24.249506, 148.991072 -24.243862, 148.986521 -24.238218, 148.981970 -24.232574, 148.977420 -24.226930, 148.972870 -24.221286, 148.968320 -24.215641, 148.963771 -24.209997, 148.959222 -24.204352, 148.954674 -24.198707, 148.950126 -24.193062, 148.945578 -24.187417, 148.941031 -24.181771, 148.936485 -24.176126, 148.931938 -24.170480, 148.927392 -24.164834, 148.922847 -24.159189, 148.918301 -24.153543, 148.913757 -24.147896, 148.909212 -24.142250, 148.904668 -24.136604, 148.900125 -24.130957, 148.895582 -24.125311, 148.891039 -24.119664, 148.886497 -24.114017, 148.881955 -24.108370, 148.877413 -24.102723, 148.872872 -24.097075, 148.868331 -24.091428, 148.863791 -24.085780, 148.859251 -24.080132, 148.854711 -24.074484, 148.850172 -24.068836, 148.845633 -24.063188, 148.841095 -24.057540, 148.836557 -24.051892, 148.832020 -24.046243, 148.827482 -24.040594, 148.822946 -24.034946, 148.818409 -24.029297, 148.813873 -24.023648, 148.809338 -24.017998, 148.804803 -24.012349, 148.800268 -24.006699, 148.795734 -24.001050, 148.791200 -23.995400, 148.786666 -23.989750, 148.782133 -23.984100, 148.777600 -23.978450, 148.773068 -23.972800, 148.768536 -23.967149, 148.764004 -23.961499, 148.759473 -23.955848, 148.754942 -23.950197, 148.750412 -23.944546, 148.745882 -23.938895, 148.741352 -23.933244, 148.736823 -23.927593, 148.732294 -23.921941, 148.727766 -23.916290, 148.723238 -23.910638, 148.718710 -23.904986, 148.714183 -23.899334, 148.709656 -23.893682, 148.705130 -23.888030, 148.700604 -23.882377, 148.696078 -23.876725, 148.691553 -23.871072, 148.687028 -23.865419, 148.682504 -23.859766, 148.677980 -23.854113, 148.673456 -23.848460, 148.668933 -23.842807, 148.664410 -23.837153, 148.659887 -23.831500, 148.655365 -23.825846, 148.650843 -23.820192, 148.646322 -23.814538, 148.641801 -23.808884, 148.637281 -23.803230, 148.632761 -23.797575, 148.628241 -23.791921, 148.623722 -23.786266, 148.619203 -23.780611, 148.614684 -23.774956, 148.610166 -23.769301, 148.605648 -23.763646, 148.601131 -23.757991, 148.596614 -23.752335, 148.592097 -23.746680, 148.587581 -23.741024, 148.583065 -23.735368, 148.578550 -23.729712, 148.574035 -23.724056, 148.569520 -23.718400, 148.565006 -23.712744, 148.560492 -23.707087, 148.555979 -23.701431, 148.551466 -23.695774, 148.546953 -23.690117, 148.542441 -23.684460, 148.537929 -23.678803, 148.533418 -23.673145, 148.528906 -23.667488, 148.524396 -23.661831, 148.519885 -23.656173, 148.515376 -23.650515, 148.510866 -23.644857, 148.506357 -23.639199, 148.501848 -23.633541, 148.497340 -23.627883, 148.492832 -23.622224, 148.488324 -23.616566, 148.483817 -23.610907, 148.479310 -23.605248, 148.474804 -23.599589, 148.470298 -23.593930, 148.465792 -23.588271, 148.461287 -23.582611, 148.456782 -23.576952, 148.452277 -23.571292, 148.447773 -23.565633, 148.443270 -23.559973, 148.438766 -23.554313, 148.434263 -23.548653, 148.429761 -23.542992, 148.425259 -23.537332, 148.420757 -23.531671, 148.416256 -23.526011, 148.411755 -23.520350, 148.407254 -23.514689, 148.402754 -23.509028, 148.398254 -23.503367, 148.393755 -23.497705, 148.389256 -23.492044, 148.384757 -23.486382, 148.380259 -23.480721, 148.375761 -23.475059, 148.371263 -23.469397, 148.366766 -23.463735, 148.362269 -23.458073, 148.357773 -23.452410, 148.353277 -23.446748, 148.348781 -23.441085, 148.344286 -23.435423, 148.339791 -23.429760, 148.335297 -23.424097, 148.330803 -23.418434, 148.326309 -23.412770, 148.321816 -23.407107, 148.317323 -23.401444, 148.312831 -23.395780, 148.308339 -23.390116, 148.303847 -23.384452, 148.299356 -23.378788, 148.294865 -23.373124, 148.290374 -23.367460, 148.285884 -23.361796, 148.281394 -23.356131, 148.276905 -23.350466, 148.272415 -23.344802, 148.267927 -23.339137, 148.263439 -23.333472, 148.258951 -23.327807, 148.254463 -23.322141, 148.249976 -23.316476, 148.245489 -23.310810, 148.241003 -23.305145, 148.236517 -23.299479, 148.232031 -23.293813, 148.227546 -23.288147, 148.223061 -23.282481, 148.218577 -23.276814, 148.214093 -23.271148, 148.209609 -23.265481, 148.205126 -23.259815, 148.200643 -23.254148, 148.196160 -23.248481, 148.191678 -23.242814, 148.187196 -23.237147, 148.182715 -23.231479, 148.178234 -23.225812, 148.173753 -23.220144, 148.169273 -23.214477, 148.164793 -23.208809, 148.160314 -23.203141, 148.155834 -23.197473, 148.151356 -23.191805, 148.146877 -23.186136, 148.142399 -23.180468, 148.137922 -23.174799, 148.133444 -23.169130, 148.128968 -23.163462, 148.124491 -23.157793, 148.120015 -23.152124, 148.115539 -23.146454, 148.111064 -23.140785, 148.106589 -23.135115, 148.102114 -23.129446, 148.097640 -23.123776, 148.093166 -23.118106, 148.088693 -23.112436, 148.084220 -23.106766, 148.079747 -23.101096, 148.075275 -23.095426, 148.070803 -23.089755, 148.066331 -23.084085, 148.061860 -23.078414, 148.057389 -23.072743, 148.052919 -23.067072, 148.048449 -23.061401, 148.043979 -23.055730, 148.039510 -23.050058, 148.035041 -23.044387, 148.030573 -23.038715, 148.026104 -23.033043, 148.021637 -23.027371, 148.017169 -23.021700, 148.012702 -23.016027, 148.008236 -23.010355, 148.003769 -23.004683, 147.999303 -22.999010, 147.994838 -22.993338, 147.990373 -22.987665, 147.985908 -22.981992, 147.981443 -22.976319, 147.976979 -22.970646, 147.972516 -22.964973, 147.968052 -22.959299, 147.963590 -22.953626, 147.959127 -22.947952, 147.954665 -22.942278, 147.950203 -22.936605, 147.945742 -22.930931, 147.941281 -22.925256, 147.936820 -22.919582, 147.932360 -22.913908, 147.927900 -22.908233, 147.923440 -22.902559, 147.918981 -22.896884, 147.914522 -22.891209, 147.910064 -22.885534, 147.905606 -22.879859, 147.901148 -22.874184, 147.896691 -22.868508, 147.892234 -22.862833, 147.887777 -22.857157, 147.883321 -22.851482, 147.878865 -22.845806, 147.874410 -22.840130, 147.869955 -22.834454, 147.865500 -22.828777, 147.861046 -22.823101, 147.856592 -22.817425, 147.852138 -22.811748, 147.847685 -22.806071, 147.843232 -22.800394, 147.838780 -22.794717, 147.834327 -22.789040, 147.829876 -22.783363, 147.825424 -22.777686, 147.820973 -22.772008, 147.816523 -22.766331, 147.812072 -22.760653, 147.807623 -22.754975, 147.803173 -22.749297, 147.798724 -22.743619, 147.794275 -22.737941, 147.789827 -22.732263, 147.785379 -22.726584, 147.780931 -22.720906, 147.776484 -22.715227, 147.772037 -22.709548, 147.767590 -22.703869, 147.763144 -22.698190, 147.758698 -22.692511, 147.754253 -22.686832, 147.749808 -22.681152, 147.745363 -22.675473, 147.740919 -22.669793, 147.736475 -22.664113, 147.732031 -22.658433, 147.727588 -22.652753, 147.723145 -22.647073, 147.718702 -22.641393, 147.714260 -22.635712, 147.709818 -22.630032, 147.705377 -22.624351, 147.700936 -22.618670, 147.696495 -22.612989, 147.692055 -22.607308, 147.687615 -22.601627, 147.683176 -22.595946, 147.678736 -22.590264, 147.674297 -22.584583, 147.669859 -22.578901, 147.665421 -22.573220, 147.660983 -22.567538, 147.656546 -22.561856, 147.652109 -22.556174, 147.647672 -22.550491, 147.643236 -22.544809, 147.638800 -22.539126, 147.634364 -22.533444, 147.629929 -22.527761, 147.625494 -22.522078, 147.621060 -22.516395, 147.616626 -22.510712, 147.612192 -22.505029, 147.607759 -22.499346, 147.603326 -22.493662, 147.598893 -22.487979, 147.594461 -22.482295, 147.590029 -22.476611, 147.585597 -22.470927, 147.581166 -22.465243, 147.576735 -22.459559, 147.572305 -22.453875, 147.567875 -22.448190, 147.563445 -22.442506, 147.559016 -22.436821, 147.554587 -22.431136, 147.550158 -22.425451, 147.545730 -22.419766, 147.541302 -22.414081, 147.536874 -22.408396, 147.532447 -22.402710, 147.528020 -22.397025, 147.523594 -22.391339, 147.519168 -22.385653, 147.514742 -22.379968, 147.510317 -22.374282, 147.505892 -22.368595, 147.501467 -22.362909, 147.497043 -22.357223, 147.492619 -22.351536, 147.488195 -22.345850, 147.483772 -22.340163, 147.479349 -22.334476, 147.474927 -22.328789, 147.470504 -22.323102, 147.466083 -22.317415, 147.461661 -22.311728, 147.457240 -22.306040, 147.452820 -22.300353, 147.448399 -22.294665, 147.443979 -22.288977, 147.439560 -22.283289, 147.435140 -22.277601, 147.430722 -22.271913, 147.426303 -22.266225, 147.421885 -22.260536, 147.417467 -22.254848, 147.413050 -22.249159, 147.408632 -22.243470, 147.404216 -22.237782, 147.399799 -22.232093, 147.395383 -22.226404, 147.390968 -22.220714, 147.386552 -22.215025, 147.382137 -22.209335, 147.377723 -22.203646, 147.373309 -22.197956, 147.368895 -22.192266, 147.364481 -22.186576, 147.360068 -22.180886, 147.355655 -22.175196, 147.351243 -22.169506, 147.346831 -22.163815, 147.342419 -22.158125, 147.338008 -22.152434, 147.333597 -22.146743, 147.329186 -22.141053, 147.324776 -22.135362, 147.320366 -22.129670, 147.315956 -22.123979, 147.311547 -22.118288, 147.307138 -22.112596, 147.302730 -22.106905, 147.298321 -22.101213, 147.293914 -22.095521, 147.289506 -22.089829, 147.285099 -22.084137, 147.280692 -22.078445, 147.276286 -22.072753, 147.271880 -22.067060, 147.267474 -22.061368, 147.263069 -22.055675, 147.258664 -22.049982, 147.254259 -22.044289, 147.249855 -22.038596, 147.245451 -22.032903, 147.241048 -22.027210, 147.236644 -22.021516, 147.232242 -22.015823, 147.227839 -22.010129, 147.223437 -22.004436, 147.219035 -21.998742, 147.214634 -21.993048, 147.210233 -21.987354, 147.205832 -21.981660, 147.201432 -21.975965, 147.197032 -21.970271, 147.192632 -21.964576, 147.188233 -21.958882, 147.183834 -21.953187, 147.179435 -21.947492, 147.175037 -21.941797, 147.170639 -21.936102, 147.166241 -21.930407, 147.161844 -21.924711, 147.157447 -21.919016, 147.153051 -21.913320, 147.148655 -21.907624, 147.144259 -21.901929, 147.139863 -21.896233, 147.135468 -21.890536, 147.131074 -21.884840, 147.126679 -21.879144, 147.122285 -21.873448, 147.117892 -21.867751, 147.113498 -21.862054, 147.109105 -21.856358, 147.104713 -21.850661, 147.100320 -21.844964, 147.095928 -21.839267, 147.091537 -21.833569, 147.087146 -21.827872, 147.082755 -21.822175, 147.078364 -21.816477, 147.073974 -21.810779, 147.069584 -21.805081, 147.065195 -21.799384, 147.060806 -21.793686, 147.056417 -21.787987, 147.052028 -21.782289, 147.047640 -21.776591, 147.043253 -21.770892, 147.038865 -21.765194, 147.034478 -21.759495, 147.030091 -21.753796, 147.025705 -21.748097, 147.021319 -21.742398, 147.016933 -21.736699, 147.012548 -21.730999, 147.008163 -21.725300, 147.003779 -21.719600, 146.999394 -21.713901, 146.995010 -21.708201, 146.990627 -21.702501, 146.986244 -21.696801, 146.981861 -21.691101, 146.977478 -21.685401, 146.973096 -21.679700, 146.968714 -21.674000, 146.964333 -21.668299, 146.959952 -21.662599, 146.955571 -21.656898, 146.951190 -21.651197, 146.946810 -21.645496, 146.942431 -21.639795, 146.938051 -21.634093, 146.933672 -21.628392, 146.929293 -21.622690, 146.924915 -21.616989, 146.920537 -21.611287, 146.916159 -21.605585, 146.911782 -21.599883, 146.907405 -21.594181, 146.903028 -21.588479, 146.898652 -21.582777, 146.894276 -21.577074, 146.889900 -21.571372, 146.885525 -21.565669, 146.881150 -21.559966, 146.876776 -21.554263, 146.872401 -21.548560, 146.868028 -21.542857, 146.863654 -21.537154, 146.859281 -21.531451, 146.854908 -21.525747, 146.850535 -21.520044, 146.846163 -21.514340, 146.841791 -21.508636, 146.837420 -21.502932, 146.833049 -21.497228, 146.828678 -21.491524, 146.824308 -21.485820, 146.819937 -21.480116, 146.815568 -21.474411, 146.811198 -21.468707, 146.806829 -21.463002, 146.802460 -21.457297, 146.798092 -21.451592, 146.793724 -21.445887, 146.789356 -21.440182, 146.784989 -21.434477, 146.780622 -21.428771, 146.776255 -21.423066, 146.771889 -21.417360, 146.767523 -21.411655, 146.763157 -21.405949, 146.758792 -21.400243, 146.754427 -21.394537, 146.750062 -21.388831, 146.745698 -21.383124, 146.741334 -21.377418, 146.736970 -21.371711, 146.732607 -21.366005, 146.728244 -21.360298, 146.723881 -21.354591, 146.719519 -21.348884, 146.715157 -21.343177, 146.710796 -21.337470, 146.706434 -21.331763, 146.702073 -21.326055, 146.697713 -21.320348, 146.693353 -21.314640, 146.688993 -21.308932, 146.684633 -21.303225, 146.680274 -21.297517, 146.675915 -21.291808, 146.671557 -21.286100, 146.667198 -21.280392, 146.662840 -21.274684, 146.658483 -21.268975, 146.654126 -21.263266, 146.649769 -21.257558, 146.645412 -21.251849, 146.641056 -21.246140, 146.636700 -21.240431, 146.632345 -21.234722, 146.627990 -21.229012, 146.623635 -21.223303, 146.619280 -21.217593, 146.614926 -21.211884, 146.610572 -21.206174, 146.606219 -21.200464, 146.601866 -21.194754, 146.597513 -21.189044, 146.593161 -21.183334, 146.588808 -21.177623, 146.584457 -21.171913, 146.580105 -21.166202, 146.575754 -21.160492, 146.571403 -21.154781, 146.567053 -21.149070, 146.562703 -21.143359, 146.558353 -21.137648, 146.554003 -21.131937, 146.549654 -21.126225, 146.545306 -21.120514, 146.540957 -21.114803, 146.536609 -21.109091, 146.532261 -21.103379, 146.527914 -21.097667, 146.523567 -21.091955, 146.519220 -21.086243, 146.514874 -21.080531, 146.510527 -21.074819, 146.506182 -21.069106, 146.501836 -21.063394, 146.497491 -21.057681, 146.493146 -21.051968, 146.488802 -21.046255, 146.484458 -21.040542, 146.480114 -21.034829, 146.475771 -21.029116, 146.471428 -21.023403, 146.467085 -21.017689, 146.462742 -21.011976, 146.458400 -21.006262, 146.454058 -21.000548, 146.449717 -20.994835, 146.445376 -20.989121, 146.441035 -20.983407, 146.436695 -20.977692, 146.432355 -20.971978, 146.428015 -20.966264, 146.423675 -20.960549, 146.419336 -20.954834, 146.414997 -20.949120, 146.410659 -20.943405, 146.406321 -20.937690, 146.401983 -20.931975, 146.397646 -20.926260, 146.393309 -20.920544, 146.388972 -20.914829, 146.384635 -20.909114, 146.380299 -20.903398, 146.375963 -20.897682, 146.371628 -20.891966, 146.367293 -20.886250, 146.362958 -20.880534, 146.358623 -20.874818, 146.354289 -20.869102, 146.349955 -20.863386, 146.345622 -20.857669, 146.341289 -20.851952, 146.336956 -20.846236, 146.332623 -20.840519, 146.328291 -20.834802, 146.323959 -20.829085, 146.319628 -20.823368, 146.315297 -20.817651, 146.310966 -20.811933, 146.306635 -20.806216, 146.302305 -20.800498, 146.297975 -20.794780, 146.293646 -20.789063, 146.289317 -20.783345, 146.284988 -20.777627, 146.280659 -20.771909, 146.276331 -20.766190, 146.272003 -20.760472, 146.267675 -20.754754, 146.263348 -20.749035, 146.259021 -20.743316, 146.254695 -20.737598, 146.250368 -20.731879, 146.246042 -20.726160, 146.241717 -20.720441, 146.237391 -20.714721, 146.233066 -20.709002, 146.228742 -20.703283, 146.224418 -20.697563, 146.220094 -20.691844, 146.215770 -20.686124, 146.211447 -20.680404, 146.207124 -20.674684, 146.202801 -20.668964, 146.198478 -20.663244, 146.194156 -20.657523, 146.189835 -20.651803, 146.185513 -20.646083, 146.181192 -20.640362, 146.176872 -20.634641, 146.172551 -20.628920, 146.168231 -20.623200, 146.163911 -20.617478, 146.159592 -20.611757, 146.155273 -20.606036, 146.150954 -20.600315, 146.146636 -20.594593, 146.142317 -20.588872, 146.138000 -20.583150, 146.133682 -20.577428, 146.129365 -20.571706, 146.125048 -20.565984, 146.120732 -20.560262, 146.116415 -20.554540, 146.112100 -20.548818, 146.107784 -20.543095, 146.103469 -20.537373, 146.099154 -20.531650, 146.094839 -20.525927, 146.090525 -20.520205, 146.086211 -20.514482, 146.081897 -20.508758, 146.077584 -20.503035, 146.073271 -20.497312, 146.068959 -20.491589, 146.064646 -20.485865, 146.060334 -20.480142, 146.056023 -20.474418, 146.051711 -20.468694, 146.047400 -20.462970, 146.043089 -20.457246, 146.038779 -20.451522, 146.034469 -20.445798, 146.030159 -20.440073, 146.025850 -20.434349, 146.021541 -20.428624, 146.017232 -20.422900, 146.012923 -20.417175, 146.008615 -20.411450, 146.004308 -20.405725, 146.000000 -20.400000, 145.993476 -20.396578, 145.986952 -20.393155, 145.980428 -20.389733, 145.973905 -20.386310, 145.967381 -20.382886, 145.960859 -20.379463, 145.954336 -20.376039, 145.947814 -20.372615, 145.941292 -20.369191, 145.934770 -20.365767, 145.928249 -20.362342, 145.921728 -20.358917, 145.915207 -20.355492, 145.908686 -20.352066, 145.902166 -20.348641, 145.895646 -20.345215, 145.889126 -20.341789, 145.882607 -20.338362, 145.876088 -20.334936, 145.869569 -20.331509, 145.863051 -20.328082, 145.856532 -20.324655, 145.850015 -20.321227, 145.843497 -20.317799, 145.836980 -20.314371, 145.830463 -20.310943, 145.823946 -20.307514, 145.817429 -20.304086, 145.810913 -20.300657, 145.804397 -20.297227, 145.797882 -20.293798, 145.791366 -20.290368, 145.784851 -20.286938, 145.778336 -20.283508, 145.771822 -20.280077, 145.765308 -20.276647, 145.758794 -20.273216, 145.752280 -20.269784, 145.745767 -20.266353, 145.739254 -20.262921, 145.732741 -20.259489, 145.726229 -20.256057, 145.719717 -20.252625, 145.713205 -20.249192, 145.706693 -20.245759, 145.700182 -20.242326, 145.693671 -20.238893, 145.687160 -20.235459, 145.680650 -20.232026, 145.674140 -20.228591, 145.667630 -20.225157, 145.661120 -20.221723, 145.654611 -20.218288, 145.648102 -20.214853, 145.641593 -20.211417, 145.635085 -20.207982, 145.628577 -20.204546, 145.622069 -20.201110, 145.615561 -20.197674, 145.609054 -20.194238, 145.602547 -20.190801, 145.596040 -20.187364, 145.589534 -20.183927, 145.583028 -20.180489, 145.576522 -20.177052, 145.570016 -20.173614, 145.563511 -20.170176, 145.557006 -20.166737, 145.550501 -20.163299, 145.543997 -20.159860, 145.537493 -20.156421, 145.530989 -20.152981, 145.524486 -20.149542, 145.517982 -20.146102, 145.511479 -20.142662, 145.504977 -20.139221, 145.498474 -20.135781, 145.491972 -20.132340, 145.485470 -20.128899, 145.478969 -20.125458, 145.472468 -20.122016, 145.465967 -20.118575, 145.459466 -20.115133, 145.452966 -20.111691, 145.446465 -20.108248, 145.439966 -20.104805, 145.433466 -20.101362, 145.426967 -20.097919, 145.420468 -20.094476, 145.413969 -20.091032, 145.407471 -20.087588, 145.400973 -20.084144, 145.394475 -20.080700, 145.387977 -20.077255, 145.381480 -20.073811, 145.374983 -20.070366, 145.368486 -20.066920, 145.361990 -20.063475, 145.355494 -20.060029, 145.348998 -20.056583, 145.342503 -20.053137, 145.336007 -20.049690, 145.329512 -20.046243, 145.323018 -20.042797, 145.316523 -20.039349, 145.310029 -20.035902, 145.303535 -20.032454, 145.297042 -20.029006, 145.290549 -20.025558, 145.284056 -20.022110, 145.277563 -20.018661, 145.271071 -20.015212, 145.264578 -20.011763, 145.258087 -20.008314, 145.251595 -20.004864, 145.245104 -20.001415, 145.238613 -19.997965, 145.232122 -19.994514, 145.225632 -19.991064, 145.219142 -19.987613, 145.212652 -19.984162, 145.206162 -19.980711, 145.199673 -19.977259, 145.193184 -19.973808, 145.186695 -19.970356, 145.180207 -19.966904, 145.173719 -19.963451, 145.167231 -19.959999, 145.160743 -19.956546, 145.154256 -19.953093, 145.147769 -19.949639, 145.141282 -19.946186, 145.134796 -19.942732, 145.128310 -19.939278, 145.121824 -19.935824, 145.115338 -19.932369, 145.108853 -19.928914, 145.102368 -19.925459, 145.095883 -19.922004, 145.089399 -19.918549, 145.082915 -19.915093, 145.076431 -19.911637, 145.069947 -19.908181, 145.063464 -19.904725, 145.056981 -19.901268, 145.050498 -19.897811, 145.044016 -19.894354, 145.037533 -19.890897, 145.031051 -19.887439, 145.024570 -19.883981, 145.018089 -19.880523, 145.011607 -19.877065, 145.005127 -19.873607, 144.998646 -19.870148, 144.992166 -19.866689, 144.985686 -19.863230, 144.979206 -19.859770, 144.972727 -19.856310, 144.966248 -19.852851, 144.959769 -19.849390, 144.953291 -19.845930, 144.946813 -19.842469, 144.940335 -19.839009, 144.933857 -19.835548, 144.927380 -19.832086, 144.920902 -19.828625, 144.914426 -19.825163, 144.907949 -19.821701, 144.901473 -19.818239, 144.894997 -19.814776, 144.888521 -19.811313, 144.882046 -19.807850, 144.875571 -19.804387, 144.869096 -19.800924, 144.862621 -19.797460, 144.856147 -19.793996, 144.849673 -19.790532, 144.843199 -19.787068, 144.836726 -19.783603, 144.830253 -19.780139, 144.823780 -19.776673, 144.817307 -19.773208, 144.810835 -19.769743, 144.804363 -19.766277, 144.797891 -19.762811, 144.791420 -19.759345, 144.784949 -19.755878, 144.778478 -19.752412, 144.772007 -19.748945, 144.765537 -19.745478, 144.759067 -19.742010, 144.752597 -19.738543, 144.746128 -19.735075, 144.739658 -19.731607, 144.733189 -19.728138, 144.726721 -19.724670, 144.720252 -19.721201, 144.713784 -19.717732, 144.707316 -19.714263, 144.700849 -19.710793, 144.694382 -19.707324, 144.687915 -19.703854, 144.681448 -19.700384, 144.674982 -19.696913, 144.668516 -19.693443, 144.662050 -19.689972, 144.655584 -19.686501, 144.649119 -19.683029, 144.642654 -19.679558, 144.636189 -19.676086, 144.629725 -19.672614, 144.623261 -19.669142, 144.616797 -19.665669, 144.610333 -19.662197, 144.603870 -19.658724, 144.597407 -19.655251, 144.590944 -19.651777, 144.584481 -19.648304, 144.578019 -19.644830, 144.571557 -19.641356, 144.565096 -19.637881, 144.558634 -19.634407, 144.552173 -19.630932, 144.545712 -19.627457, 144.539252 -19.623982, 144.532792 -19.620506, 144.526332 -19.617031, 144.519872 -19.613555, 144.513413 -19.610079, 144.506954 -19.606602, 144.500495 -19.603126, 144.494036 -19.599649, 144.487578 -19.596172, 144.481120 -19.592694, 144.474662 -19.589217, 144.468205 -19.585739, 144.461747 -19.582261, 144.455291 -19.578783, 144.448834 -19.575304, 144.442378 -19.571826, 144.435922 -19.568347, 144.429466 -19.564868, 144.423010 -19.561388, 144.416555 -19.557909, 144.410100 -19.554429, 144.403645 -19.550949, 144.397191 -19.547468, 144.390737 -19.543988, 144.384283 -19.540507, 144.377830 -19.537026, 144.371376 -19.533545, 144.364923 -19.530063, 144.358471 -19.526582, 144.352018 -19.523100, 144.345566 -19.519618, 144.339114 -19.516135, 144.332663 -19.512653, 144.326211 -19.509170, 144.319760 -19.505687, 144.313309 -19.502204, 144.306859 -19.498720, 144.300409 -19.495236, 144.293959 -19.491753, 144.287509 -19.488268, 144.281060 -19.484784, 144.274611 -19.481299, 144.268162 -19.477814, 144.261713 -19.474329, 144.255265 -19.470844, 144.248817 -19.467358, 144.242369 -19.463873, 144.235922 -19.460387, 144.229475 -19.456900, 144.223028 -19.453414, 144.216581 -19.449927, 144.210135 -19.446440, 144.203689 -19.442953, 144.197243 -19.439466, 144.190797 -19.435978, 144.184352 -19.432490, 144.177907 -19.429002, 144.171463 -19.425514, 144.165018 -19.422026, 144.158574 -19.418537, 144.152130 -19.415048, 144.145687 -19.411559, 144.139243 -19.408069, 144.132800 -19.404580, 144.126358 -19.401090, 144.119915 -19.397600, 144.113473 -19.394109, 144.107031 -19.390619, 144.100590 -19.387128, 144.094148 -19.383637, 144.087707 -19.380146, 144.081266 -19.376654, 144.074826 -19.373162, 144.068386 -19.369671, 144.061946 -19.366178, 144.055506 -19.362686, 144.049066 -19.359193, 144.042627 -19.355701, 144.036188 -19.352208, 144.029750 -19.348714, 144.023312 -19.345221, 144.016873 -19.341727, 144.010436 -19.338233, 144.003998 -19.334739, 143.997561 -19.331245, 143.991124 -19.327750, 143.984687 -19.324255, 143.978251 -19.320760, 143.971815 -19.317265, 143.965379 -19.313769, 143.958944 -19.310273, 143.952508 -19.306777, 143.946073 -19.303281, 143.939638 -19.299785, 143.933204 -19.296288, 143.926770 -19.292791, 143.920336 -19.289294, 143.913902 -19.285797, 143.907469 -19.282299, 143.901036 -19.278801, 143.894603 -19.275303, 143.888170 -19.271805, 143.881738 -19.268307, 143.875306 -19.264808, 143.868875 -19.261309, 143.862443 -19.257810, 143.856012 -19.254311, 143.849581 -19.250811, 143.843150 -19.247311, 143.836720 -19.243811, 143.830290 -19.240311, 143.823860 -19.236810, 143.817431 -19.233310, 143.811001 -19.229809, 143.804572 -19.226308, 143.798144 -19.222806, 143.791715 -19.219305, 143.785287 -19.215803, 143.778859 -19.212301, 143.772432 -19.208798, 143.766004 -19.205296, 143.759577 -19.201793, 143.753151 -19.198290, 143.746724 -19.194787, 143.740298 -19.191284, 143.733872 -19.187780, 143.727446 -19.184276, 143.721021 -19.180772, 143.714596 -19.177268, 143.708171 -19.173763, 143.701746 -19.170259, 143.695322 -19.166754, 143.688898 -19.163248, 143.682474 -19.159743, 143.676051 -19.156237, 143.669627 -19.152732, 143.663204 -19.149225, 143.656782 -19.145719, 143.650359 -19.142213, 143.643937 -19.138706, 143.637515 -19.135199, 143.631094 -19.131692, 143.624672 -19.128184, 143.618251 -19.124677, 143.611831 -19.121169, 143.605410 -19.117661, 143.598990 -19.114152, 143.592570 -19.110644, 143.586150 -19.107135, 143.579731 -19.103626, 143.573312 -19.100117, 143.566893 -19.096607, 143.560474 -19.093098, 143.554056 -19.089588, 143.547638 -19.086078, 143.541220 -19.082568, 143.534803 -19.079057, 143.528385 -19.075546, 143.521968 -19.072035, 143.515552 -19.068524, 143.509135 -19.065013, 143.502719 -19.061501, 143.496303 -19.057989, 143.489888 -19.054477, 143.483472 -19.050965, 143.477057 -19.047452, 143.470642 -19.043939, 143.464228 -19.040427, 143.457814 -19.036913, 143.451400 -19.033400, 143.444986 -19.029886, 143.438573 -19.026372, 143.432159 -19.022858, 143.425747 -19.019344, 143.419334 -19.015830, 143.412922 -19.012315, 143.406510 -19.008800, 143.400098 -19.005285, 143.393686 -19.001769, 143.387275 -18.998254, 143.380864 -18.994738, 143.374453 -18.991222, 143.368043 -18.987705, 143.361633 -18.984189, 143.355223 -18.980672, 143.348813 -18.977155, 143.342404 -18.973638, 143.335995 -18.970121, 143.329586 -18.966603, 143.323177 -18.963085, 143.316769 -18.959567, 143.310361 -18.956049, 143.303953 -18.952530, 143.297546 -18.949012, 143.291139 -18.945493, 143.284732 -18.941974, 143.278325 -18.938454, 143.271919 -18.934935, 143.265512 -18.931415, 143.259107 -18.927895, 143.252701 -18.924374, 143.246296 -18.920854, 143.239891 -18.917333, 143.233486 -18.913812, 143.227081 -18.910291, 143.220677 -18.906770, 143.214273 -18.903248, 143.207869 -18.899727, 143.201466 -18.896205, 143.195063 -18.892682, 143.188660 -18.889160, 143.182257 -18.885637, 143.175855 -18.882114, 143.169453 -18.878591, 143.163051 -18.875068, 143.156650 -18.871544, 143.150248 -18.868021, 143.143847 -18.864497, 143.137447 -18.860972, 143.131046 -18.857448, 143.124646 -18.853923, 143.118246 -18.850399, 143.111846 -18.846873, 143.105447 -18.843348, 143.099048 -18.839823, 143.092649 -18.836297, 143.086250 -18.832771, 143.079852 -18.829245, 143.073454 -18.825718, 143.067056 -18.822192, 143.060659 -18.818665, 143.054262 -18.815138, 143.047865 -18.811611, 143.041468 -18.808083, 143.035071 -18.804556, 143.028675 -18.801028, 143.022279 -18.797499, 143.015884 -18.793971, 143.009488 -18.790443, 143.003093 -18.786914, 142.996698 -18.783385, 142.990304 -18.779856, 142.983910 -18.776326, 142.977516 -18.772797, 142.971122 -18.769267, 142.964728 -18.765737, 142.958335 -18.762206, 142.951942 -18.758676, 142.945550 -18.755145, 142.939157 -18.751614, 142.932765 -18.748083, 142.926373 -18.744551, 142.919981 -18.741020, 142.913590 -18.737488, 142.907199 -18.733956, 142.900808 -18.730424, 142.894418 -18.726891, 142.888027 -18.723359, 142.881637 -18.719826, 142.875248 -18.716293, 142.868858 -18.712759, 142.862469 -18.709226, 142.856080 -18.705692, 142.849691 -18.702158, 142.843303 -18.698624, 142.836915 -18.695089, 142.830527 -18.691555, 142.824139 -18.688020, 142.817752 -18.684485, 142.811365 -18.680949, 142.804978 -18.677414, 142.798592 -18.673878, 142.792205 -18.670342, 142.785819 -18.666806, 142.779434 -18.663270, 142.773048 -18.659733, 142.766663 -18.656196, 142.760278 -18.652659, 142.753893 -18.649122, 142.747509 -18.645585, 142.741125 -18.642047, 142.734741 -18.638509, 142.728357 -18.634971, 142.721974 -18.631433, 142.715591 -18.627894, 142.709208 -18.624355, 142.702825 -18.620817, 142.696443 -18.617277, 142.690061 -18.613738, 142.683679 -18.610198, 142.677298 -18.606659, 142.670917 -18.603119, 142.664536 -18.599578, 142.658155 -18.596038, 142.651775 -18.592497, 142.645394 -18.588956, 142.639014 -18.585415, 142.632635 -18.581874, 142.626255 -18.578332, 142.619876 -18.574791, 142.613498 -18.571249, 142.607119 -18.567706, 142.600741 -18.564164, 142.594363 -18.560621, 142.587985 -18.557079, 142.581607 -18.553536, 142.575230 -18.549992, 142.568853 -18.546449, 142.562476 -18.542905, 142.556100 -18.539361, 142.549724 -18.535817, 142.543348 -18.532273, 142.536972 -18.528728, 142.530597 -18.525184, 142.524222 -18.521639, 142.517847 -18.518094, 142.511472 -18.514548, 142.505098 -18.511003, 142.498724 -18.507457, 142.492350 -18.503911, 142.485976 -18.500365, 142.479603 -18.496818, 142.473230 -18.493271, 142.466857 -18.489725, 142.460485 -18.486177, 142.454113 -18.482630, 142.447741 -18.479083, 142.441369 -18.475535, 142.434998 -18.471987, 142.428626 -18.468439, 142.422255 -18.464890, 142.415885 -18.461342, 142.409514 -18.457793, 142.403144 -18.454244, 142.396774 -18.450695, 142.390405 -18.447145, 142.384036 -18.443596, 142.377666 -18.440046, 142.371298 -18.436496, 142.364929 -18.432946, 142.358561 -18.429395, 142.352193 -18.425844, 142.345825 -18.422293, 142.339458 -18.418742, 142.333090 -18.415191, 142.326723 -18.411639, 142.320357 -18.408088, 142.313990 -18.404536, 142.307624 -18.400983, 142.301258 -18.397431, 142.294893 -18.393878, 142.288527 -18.390326, 142.282162 -18.386773, 142.275797 -18.383219, 142.269433 -18.379666, 142.263068 -18.376112, 142.256704 -18.372558, 142.250340 -18.369004, 142.243977 -18.365450, 142.237614 -18.361895, 142.231250 -18.358341, 142.224888 -18.354786, 142.218525 -18.351231, 142.212163 -18.347675, 142.205801 -18.344120, 142.199439 -18.340564, 142.193078 -18.337008, 142.186717 -18.333452, 142.180356 -18.329895, 142.173995 -18.326339, 142.167635 -18.322782, 142.161274 -18.319225, 142.154915 -18.315667, 142.148555 -18.312110, 142.142196 -18.308552, 142.135837 -18.304994, 142.129478 -18.301436, 142.123119 -18.297878, 142.116761 -18.294319, 142.110403 -18.290761, 142.104045 -18.287202, 142.097687 -18.283643, 142.091330 -18.280083, 142.084973 -18.276524, 142.078616 -18.272964, 142.072260 -18.269404, 142.065904 -18.265844, 142.059548 -18.262283, 142.053192 -18.258723, 142.046837 -18.255162, 142.040481 -18.251601, 142.034126 -18.248040, 142.027772 -18.244478, 142.021417 -18.240916, 142.015063 -18.237355, 142.008709 -18.233792, 142.002356 -18.230230, 141.996002 -18.226668, 141.989649 -18.223105, 141.983296 -18.219542, 141.976944 -18.215979, 141.970591 -18.212416, 141.964239 -18.208852, 141.957888 -18.205288, 141.951536 -18.201724, 141.945185 -18.198160, 141.938834 -18.194596, 141.932483 -18.191031, 141.926132 -18.187466, 141.919782 -18.183901, 141.913432 -18.180336, 141.907083 -18.176771, 141.900733 -18.173205, 141.894384 -18.169639, 141.888035 -18.166073, 141.881686 -18.162507, 141.875338 -18.158940, 141.868990 -18.155374, 141.862642 -18.151807, 141.856294 -18.148240, 141.849947 -18.144672, 141.843600 -18.141105, 141.837253 -18.137537, 141.830906 -18.133969, 141.824560 -18.130401, 141.818214 -18.126833, 141.811868 -18.123264, 141.805522 -18.119695, 141.799177 -18.116126, 141.792832 -18.112557, 141.786487 -18.108988, 141.780142 -18.105418, 141.773798 -18.101848, 141.767454 -18.098278, 141.761110 -18.094708, 141.754767 -18.091138, 141.748424 -18.087567, 141.742081 -18.083996, 141.735738 -18.080425, 141.729395 -18.076854, 141.723053 -18.073282, 141.716711 -18.069711, 141.710369 -18.066139, 141.704028 -18.062567, 141.697687 -18.058995, 141.691346 -18.055422, 141.685005 -18.051849, 141.678665 -18.048276, 141.672325 -18.044703, 141.665985 -18.041130, 141.659645 -18.037556, 141.653306 -18.033983, 141.646967 -18.030409, 141.640628 -18.026835, 141.634289 -18.023260, 141.627951 -18.019686, 141.621613 -18.016111, 141.615275 -18.012536, 141.608937 -18.008961, 141.602600 -18.005385, 141.596263 -18.001810, 141.589926 -17.998234, 141.583589 -17.994658, 141.577253 -17.991082, 141.570917 -17.987505, 141.564581 -17.983929, 141.558246 -17.980352, 141.551911 -17.976775, 141.545576 -17.973198, 141.539241 -17.969620, 141.532906 -17.966043, 141.526572 -17.962465, 141.520238 -17.958887, 141.513904 -17.955308, 141.507571 -17.951730, 141.501238 -17.948151, 141.494905 -17.944572, 141.488572 -17.940993, 141.482239 -17.937414, 141.475907 -17.933834, 141.469575 -17.930255, 141.463244 -17.926675, 141.456912 -17.923095, 141.450581 -17.919514, 141.444250 -17.915934, 141.437919 -17.912353, 141.431589 -17.908772, 141.425259 -17.905191, 141.418929 -17.901610, 141.412599 -17.898028, 141.406270 -17.894446, 141.399941 -17.890864, 141.393612 -17.887282, 141.387283 -17.883700, 141.380955 -17.880117, 141.374627 -17.876535, 141.368299 -17.872952, 141.361972 -17.869368, 141.355644 -17.865785, 141.349317 -17.862202, 141.342990 -17.858618, 141.336664 -17.855034, 141.330337 -17.851450, 141.324011 -17.847865, 141.317685 -17.844281, 141.311360 -17.840696, 141.305035 -17.837111, 141.298710 -17.833525, 141.292385 -17.829940, 141.286060 -17.826354, 141.279736 -17.822769, 141.273412 -17.819183, 141.267088 -17.815596, 141.260765 -17.812010, 141.254441 -17.808423, 141.248118 -17.804836, 141.241796 -17.801249, 141.235473 -17.797662, 141.229151 -17.794075, 141.222829 -17.790487, 141.216507 -17.786899, 141.210186 -17.783311, 141.203864 -17.779723, 141.197543 -17.776134, 141.191223 -17.772546, 141.184902 -17.768957, 141.178582 -17.765368, 141.172262 -17.761778, 141.165942 -17.758189, 141.159623 -17.754599, 141.153304 -17.751009, 141.146985 -17.747419, 141.140666 -17.743829, 141.134348 -17.740238, 141.128029 -17.736648, 141.121712 -17.733057, 141.115394 -17.729466, 141.109076 -17.725874, 141.102759 -17.722283, 141.096442 -17.718691, 141.090126 -17.715099, 141.083809 -17.711507, 141.077493 -17.707915, 141.071177 -17.704322, 141.064862 -17.700730, 141.058546 -17.697137, 141.052231 -17.693544, 141.045916 -17.689950, 141.039601 -17.686357, 141.033287 -17.682763, 141.026973 -17.679169, 141.020659 -17.675575, 141.014345 -17.671981, 141.008032 -17.668386, 141.001719 -17.664791, 140.995406 -17.661197, 140.989093 -17.657601, 140.982781 -17.654006, 140.976469 -17.650411, 140.970157 -17.646815, 140.963845 -17.643219, 140.957534 -17.639623, 140.951223 -17.636026, 140.944912 -17.632430, 140.938601 -17.628833, 140.932291 -17.625236, 140.925981 -17.621639, 140.919671 -17.618042, 140.913362 -17.614444, 140.907052 -17.610846, 140.900743 -17.607249, 140.894434 -17.603650, 140.888126 -17.600052, 140.881817 -17.596453, 140.875509 -17.592855, 140.869201 -17.589256, 140.862894 -17.585657, 140.856586 -17.582057, 140.850279 -17.578458, 140.843972 -17.574858, 140.837666 -17.571258, 140.831360 -17.567658, 140.825053 -17.564058, 140.818748 -17.560457, 140.812442 -17.556856, 140.806137 -17.553255, 140.799832 -17.549654, 140.793527 -17.546053, 140.787222 -17.542451, 140.780918 -17.538850, 140.774614 -17.535248, 140.768310 -17.531646, 140.762006 -17.528043, 140.755703 -17.524441, 140.749400 -17.520838, 140.743097 -17.517235, 140.736795 -17.513632, 140.730492 -17.510029, 140.724190 -17.506425, 140.717888 -17.502821, 140.711587 -17.499217, 140.705285 -17.495613, 140.698984 -17.492009, 140.692684 -17.488404, 140.686383 -17.484800, 140.680083 -17.481195, 140.673783 -17.477590, 140.667483 -17.473984, 140.661183 -17.470379, 140.654884 -17.466773, 140.648585 -17.463167, 140.642286 -17.459561, 140.635987 -17.455955, 140.629689 -17.452348, 140.623391 -17.448742, 140.617093 -17.445135, 140.610795 -17.441528, 140.604498 -17.437920, 140.598201 -17.434313, 140.591904 -17.430705, 140.585608 -17.427097, 140.579311 -17.423489, 140.573015 -17.419881, 140.566719 -17.416272, 140.560424 -17.412664, 140.554128 -17.409055, 140.547833 -17.405446, 140.541538 -17.401836, 140.535244 -17.398227, 140.528950 -17.394617, 140.522655 -17.391007, 140.516362 -17.387397, 140.510068 -17.383787, 140.503775 -17.380177, 140.497481 -17.376566, 140.491189 -17.372955, 140.484896 -17.369344, 140.478604 -17.365733, 140.472312 -17.362121, 140.466020 -17.358510, 140.459728 -17.354898, 140.453437 -17.351286, 140.447146 -17.347674, 140.440855 -17.344061, 140.434564 -17.340449, 140.428274 -17.336836, 140.421984 -17.333223, 140.415694 -17.329609, 140.409404 -17.325996, 140.403115 -17.322382, 140.396825 -17.318769, 140.390537 -17.315155, 140.384248 -17.311540, 140.377960 -17.307926, 140.371671 -17.304311, 140.365383 -17.300697, 140.359096 -17.297082, 140.352808 -17.293467, 140.346521 -17.289851, 140.340234 -17.286236, 140.333948 -17.282620, 140.327661 -17.279004, 140.321375 -17.275388, 140.315089 -17.271771, 140.308803 -17.268155, 140.302518 -17.264538, 140.296233 -17.260921, 140.289948 -17.257304, 140.283663 -17.253687, 140.277379 -17.250069, 140.271094 -17.246451, 140.264811 -17.242834, 140.258527 -17.239215, 140.252243 -17.235597, 140.245960 -17.231979, 140.239677 -17.228360, 140.233394 -17.224741, 140.227112 -17.221122, 140.220830 -17.217503, 140.214548 -17.213883, 140.208266 -17.210264, 140.201984 -17.206644, 140.195703 -17.203024, 140.189422 -17.199403, 140.183141 -17.195783, 140.176861 -17.192162, 140.170581 -17.188542, 140.164301 -17.184920, 140.158021 -17.181299, 140.151741 -17.177678, 140.145462 -17.174056, 140.139183 -17.170434, 140.132904 -17.166812, 140.126626 -17.163190, 140.120347 -17.159568, 140.114069 -17.155945, 140.107791 -17.152323, 140.101514 -17.148700, 140.095237 -17.145076, 140.088959 -17.141453, 140.082683 -17.137829, 140.076406 -17.134206, 140.070130 -17.130582, 140.063854 -17.126958, 140.057578 -17.123333, 140.051302 -17.119709, 140.045027 -17.116084, 140.038752 -17.112459, 140.032477 -17.108834, 140.026202 -17.105209, 140.019928 -17.101583, 140.013654 -17.097958, 140.007380 -17.094332, 140.001106 -17.090706, 139.994833 -17.087080, 139.988559 -17.083453, 139.982287 -17.079826, 139.976014 -17.076200, 139.969741 -17.072573, 139.963469 -17.068945, 139.957197 -17.065318, 139.950926 -17.061690, 139.944654 -17.058063, 139.938383 -17.054435, 139.932112 -17.050806, 139.925841 -17.047178, 139.919571 -17.043549, 139.913300 -17.039921, 139.907030 -17.036292, 139.900761 -17.032663, 139.894491 -17.029033, 139.888222 -17.025404, 139.881953 -17.021774, 139.875684 -17.018144, 139.869416 -17.014514, 139.863147 -17.010884, 139.856879 -17.007253, 139.850611 -17.003623, 139.844344 -16.999992, 139.838076 -16.996361, 139.831809 -16.992729, 139.825543 -16.989098, 139.819276 -16.985466, 139.813010 -16.981834, 139.806743 -16.978202, 139.800478 -16.974570, 139.794212 -16.970938, 139.787947 -16.967305, 139.781681 -16.963672, 139.775417 -16.960039, 139.769152 -16.956406, 139.762887 -16.952773, 139.756623 -16.949139, 139.750359 -16.945506, 139.744096 -16.941872, 139.737832 -16.938238, 139.731569 -16.934603, 139.725306 -16.930969, 139.719043 -16.927334, 139.712781 -16.923699, 139.706519 -16.920064, 139.700257 -16.916429, 139.693995 -16.912793, 139.687733 -16.909158, 139.681472 -16.905522, 139.675211 -16.901886, 139.668950 -16.898250, 139.662690 -16.894613, 139.656429 -16.890977, 139.650169 -16.887340, 139.643909 -16.883703, 139.637650 -16.880066, 139.631391 -16.876428, 139.625131 -16.872791, 139.618873 -16.869153, 139.612614 -16.865515, 139.606356 -16.861877, 139.600097 -16.858239, 139.593840 -16.854600, 139.587582 -16.850962, 139.581325 -16.847323, 139.575067 -16.843684, 139.568810 -16.840044, 139.562554 -16.836405, 139.556297 -16.832765, 139.550041 -16.829125, 139.543785 -16.825485, 139.537529 -16.821845, 139.531274 -16.818205, 139.525019 -16.814564, 139.518764 -16.810923, 139.512509 -16.807282, 139.506254 -16.803641, 139.500000 -16.800000, 139.493254 -16.797274, 139.486509 -16.794548, 139.479763 -16.791822, 139.473018 -16.789096, 139.466273 -16.786370, 139.459529 -16.783643, 139.452784 -16.780916, 139.446040 -16.778189, 139.439295 -16.775461, 139.432552 -16.772734, 139.425808 -16.770006, 139.419064 -16.767278, 139.412321 -16.764549, 139.405578 -16.761821, 139.398835 -16.759092, 139.392092 -16.756363, 139.385349 -16.753634, 139.378607 -16.750905, 139.371864 -16.748175, 139.365122 -16.745445, 139.358381 -16.742715, 139.351639 -16.739985, 139.344897 -16.737254, 139.338156 -16.734524, 139.331415 -16.731793, 139.324674 -16.729062, 139.317933 -16.726330, 139.311193 -16.723599, 139.304453 -16.720867, 139.297713 -16.718135, 139.290973 -16.715403, 139.284233 -16.712670, 139.277493 -16.709938, 139.270754 -16.707205, 139.264015 -16.704472, 139.257276 -16.701738, 139.250537 -16.699005, 139.243799 -16.696271, 139.237060 -16.693537, 139.230322 -16.690803, 139.223584 -16.688069, 139.216846 -16.685334, 139.210109 -16.682599, 139.203371 -16.679864, 139.196634 -16.677129, 139.189897 -16.674393, 139.183160 -16.671658, 139.176424 -16.668922, 139.169687 -16.666185, 139.162951 -16.663449, 139.156215 -16.660713, 139.149479 -16.657976, 139.142743 -16.655239, 139.136008 -16.652501, 139.129272 -16.649764, 139.122537 -16.647026, 139.115802 -16.644288, 139.109068 -16.641550, 139.102333 -16.638812, 139.095599 -16.636073, 139.088865 -16.633335, 139.082131 -16.630596, 139.075397 -16.627857, 139.068664 -16.625117, 139.061930 -16.622378, 139.055197 -16.619638, 139.048464 -16.616898, 139.041731 -16.614157, 139.034999 -16.611417, 139.028266 -16.608676, 139.021534 -16.605935, 139.014802 -16.603194, 139.008070 -16.600453, 139.001339 -16.597711, 138.994607 -16.594969, 138.987876 -16.592227, 138.981145 -16.589485, 138.974414 -16.586743, 138.967683 -16.584000, 138.960953 -16.581257, 138.954222 -16.578514, 138.947492 -16.575771, 138.940762 -16.573027, 138.934033 -16.570283, 138.927303 -16.567540, 138.920574 -16.564795, 138.913845 -16.562051, 138.907116 -16.559306, 138.900387 -16.556562, 138.893658 -16.553817, 138.886930 -16.551071, 138.880202 -16.548326, 138.873474 -16.545580, 138.866746 -16.542834, 138.860018 -16.540088, 138.853291 -16.537342, 138.846564 -16.534595, 138.839837 -16.531848, 138.833110 -16.529102, 138.826383 -16.526354, 138.819657 -16.523607, 138.812931 -16.520859, 138.806204 -16.518111, 138.799479 -16.515363, 138.792753 -16.512615, 138.786027 -16.509867, 138.779302 -16.507118, 138.772577 -16.504369, 138.765852 -16.501620, 138.759127 -16.498871, 138.752403 -16.496121, 138.745678 -16.493371, 138.738954 -16.490621, 138.732230 -16.487871, 138.725506 -16.485121, 138.718783 -16.482370, 138.712059 -16.479619, 138.705336 -16.476868, 138.698613 -16.474117, 138.691890 -16.471365, 138.685168 -16.468614, 138.678445 -16.465862, 138.671723 -16.463110, 138.665001 -16.460357, 138.658279 -16.457605, 138.651557 -16.454852, 138.644836 -16.452099, 138.638115 -16.449346, 138.631393 -16.446592, 138.624673 -16.443839, 138.617952 -16.441085, 138.611231 -16.438331, 138.604511 -16.435576, 138.597791 -16.432822, 138.591071 -16.430067, 138.584351 -16.427312, 138.577631 -16.424557, 138.570912 -16.421802, 138.564193 -16.419046, 138.557474 -16.416291, 138.550755 -16.413535, 138.544036 -16.410778, 138.537318 -16.408022, 138.530600 -16.405265, 138.523882 -16.402509, 138.517164 -16.399751, 138.510446 -16.396994, 138.503729 -16.394237, 138.497011 -16.391479, 138.490294 -16.388721, 138.483577 -16.385963, 138.476860 -16.383205, 138.470144 -16.380446, 138.463428 -16.377687, 138.456711 -16.374928, 138.449995 -16.372169, 138.443280 -16.369410, 138.436564 -16.366650, 138.429849 -16.363890, 138.423133 -16.361130, 138.416418 -16.358370, 138.409704 -16.355610, 138.402989 -16.352849, 138.396274 -16.350088, 138.389560 -16.347327, 138.382846 -16.344566, 138.376132 -16.341804, 138.369419 -16.339042, 138.362705 -16.336281, 138.355992 -16.333518, 138.349279 -16.330756, 138.342566 -16.327993, 138.335853 -16.325231, 138.329140 -16.322468, 138.322428 -16.319704, 138.315716 -16.316941, 138.309004 -16.314177, 138.302292 -16.311413, 138.295580 -16.308649, 138.288869 -16.305885, 138.282158 -16.303121, 138.275447 -16.300356, 138.268736 -16.297591, 138.262025 -16.294826, 138.255315 -16.292061, 138.248605 -16.289295, 138.241894 -16.286529, 138.235185 -16.283763, 138.228475 -16.280997, 138.221765 -16.278231, 138.215056 -16.275464, 138.208347 -16.272697, 138.201638 -16.269930, 138.194929 -16.267163, 138.188220 -16.264395, 138.181512 -16.261628, 138.174804 -16.258860, 138.168096 -16.256092, 138.161388 -16.253324, 138.154680 -16.250555, 138.147973 -16.247786, 138.141266 -16.245017, 138.134559 -16.242248, 138.127852 -16.239479, 138.121145 -16.236709, 138.114439 -16.233940, 138.107732 -16.231170, 138.101026 -16.228399, 138.094320 -16.225629, 138.087614 -16.222858, 138.080909 -16.220088, 138.074204 -16.217317, 138.067498 -16.214545, 138.060793 -16.211774, 138.054089 -16.209002, 138.047384 -16.206230, 138.040680 -16.203458, 138.033975 -16.200686, 138.027271 -16.197913, 138.020567 -16.195141, 138.013864 -16.192368, 138.007160 -16.189595, 138.000457 -16.186821, 137.993754 -16.184048, 137.987051 -16.181274, 137.980348 -16.178500, 137.973646 -16.175726, 137.966943 -16.172951, 137.960241 -16.170177, 137.953539 -16.167402, 137.946837 -16.164627, 137.940136 -16.161852, 137.933434 -16.159076, 137.926733 -16.156301, 137.920032 -16.153525, 137.913331 -16.150749, 137.906631 -16.147972, 137.899930 -16.145196, 137.893230 -16.142419, 137.886530 -16.139642, 137.879830 -16.136865, 137.873130 -16.134088, 137.866431 -16.131310, 137.859731 -16.128532, 137.853032 -16.125755, 137.846333 -16.122976, 137.839634 -16.120198, 137.832936 -16.117419, 137.826237 -16.114641, 137.819539 -16.111862, 137.812841 -16.109082, 137.806143 -16.106303, 137.799446 -16.103523, 137.792748 -16.100743, 137.786051 -16.097963, 137.779354 -16.095183, 137.772657 -16.092403, 137.765960 -16.089622, 137.759264 -16.086841, 137.752567 -16.084060, 137.745871 -16.081279, 137.739175 -16.078497, 137.732479 -16.075716, 137.725784 -16.072934, 137.719088 -16.070152, 137.712393 -16.067369, 137.705698 -16.064587, 137.699003 -16.061804, 137.692309 -16.059021, 137.685614 -16.056238, 137.678920 -16.053454, 137.672226 -16.050671, 137.665532 -16.047887, 137.658838 -16.045103, 137.652145 -16.042319, 137.645451 -16.039534, 137.638758 -16.036750, 137.632065 -16.033965, 137.625372 -16.031180, 137.618680 -16.028395, 137.611987 -16.025609, 137.605295 -16.022824, 137.598603 -16.020038, 137.591911 -16.017252, 137.585220 -16.014465, 137.578528 -16.011679, 137.571837 -16.008892, 137.565146 -16.006105, 137.558455 -16.003318, 137.551764 -16.000531, 137.545074 -15.997743, 137.538383 -15.994956, 137.531693 -15.992168, 137.525003 -15.989379, 137.518313 -15.986591, 137.511624 -15.983802, 137.504934 -15.981014, 137.498245 -15.978225, 137.491556 -15.975436, 137.484867 -15.972646, 137.478178 -15.969857, 137.471490 -15.967067, 137.464802 -15.964277, 137.458113 -15.961487, 137.451426 -15.958696, 137.444738 -15.955906, 137.438050 -15.953115, 137.431363 -15.950324, 137.424676 -15.947532, 137.417989 -15.944741, 137.411302 -15.941949, 137.404615 -15.939157, 137.397929 -15.936365, 137.391243 -15.933573, 137.384556 -15.930781, 137.377871 -15.927988, 137.371185 -15.925195, 137.364499 -15.922402, 137.357814 -15.919609, 137.351129 -15.916815, 137.344444 -15.914021, 137.337759 -15.911227, 137.331075 -15.908433, 137.324390 -15.905639, 137.317706 -15.902844, 137.311022 -15.900050, 137.304338 -15.897255, 137.297654 -15.894460, 137.290971 -15.891664, 137.284288 -15.888869, 137.277605 -15.886073, 137.270922 -15.883277, 137.264239 -15.880481, 137.257556 -15.877684, 137.250874 -15.874888, 137.244192 -15.872091, 137.237510 -15.869294, 137.230828 -15.866497, 137.224147 -15.863699, 137.217465 -15.860902, 137.210784 -15.858104, 137.204103 -15.855306, 137.197422 -15.852508, 137.190741 -15.849709, 137.184061 -15.846911, 137.177380 -15.844112, 137.170700 -15.841313, 137.164020 -15.838513, 137.157341 -15.835714, 137.150661 -15.832914, 137.143982 -15.830114, 137.137302 -15.827314, 137.130623 -15.824514, 137.123945 -15.821714, 137.117266 -15.818913, 137.110587 -15.816112, 137.103909 -15.813311, 137.097231 -15.810510, 137.090553 -15.807708, 137.083875 -15.804906, 137.077198 -15.802105, 137.070521 -15.799302, 137.063843 -15.796500, 137.057166 -15.793698, 137.050490 -15.790895, 137.043813 -15.788092, 137.037137 -15.785289, 137.030460 -15.782486, 137.023784 -15.779682, 137.017108 -15.776878, 137.010433 -15.774074, 137.003757 -15.771270, 136.997082 -15.768466, 136.990407 -15.765661, 136.983732 -15.762856, 136.977057 -15.760051, 136.970382 -15.757246, 136.963708 -15.754441, 136.957034 -15.751635, 136.950360 -15.748830, 136.943686 -15.746024, 136.937012 -15.743217, 136.930339 -15.740411, 136.923665 -15.737604, 136.916992 -15.734798, 136.910319 -15.731991, 136.903647 -15.729184, 136.896974 -15.726376, 136.890302 -15.723569, 136.883630 -15.720761, 136.876958 -15.717953, 136.870286 -15.715144, 136.863614 -15.712336, 136.856943 -15.709527, 136.850271 -15.706719, 136.843600 -15.703910, 136.836929 -15.701100, 136.830259 -15.698291, 136.823588 -15.695481, 136.816918 -15.692672, 136.810248 -15.689861, 136.803578 -15.687051, 136.796908 -15.684241, 136.790238 -15.681430, 136.783569 -15.678619, 136.776900 -15.675808, 136.770230 -15.672997, 136.763562 -15.670186, 136.756893 -15.667374, 136.750224 -15.664562, 136.743556 -15.661750, 136.736888 -15.658938, 136.730220 -15.656125, 136.723552 -15.653313, 136.716885 -15.650500, 136.710217 -15.647687, 136.703550 -15.644874, 136.696883 -15.642060, 136.690216 -15.639246, 136.683549 -15.636433, 136.676883 -15.633618, 136.670217 -15.630804, 136.663550 -15.627990, 136.656884 -15.625175, 136.650219 -15.622360, 136.643553 -15.619545, 136.636888 -15.616730, 136.630223 -15.613914, 136.623557 -15.611099, 136.616893 -15.608283, 136.610228 -15.605467, 136.603564 -15.602650, 136.596899 -15.599834, 136.590235 -15.597017, 136.583571 -15.594200, 136.576907 -15.591383, 136.570244 -15.588566, 136.563580 -15.585749, 136.556917 -15.582931, 136.550254 -15.580113, 136.543591 -15.577295, 136.536929 -15.574477, 136.530266 -15.571658, 136.523604 -15.568839, 136.516942 -15.566021, 136.510280 -15.563202, 136.503618 -15.560382, 136.496957 -15.557563, 136.490295 -15.554743, 136.483634 -15.551923, 136.476973 -15.549103, 136.470312 -15.546283, 136.463652 -15.543462, 136.456991 -15.540642, 136.450331 -15.537821, 136.443671 -15.535000, 136.437011 -15.532178, 136.430351 -15.529357, 136.423692 -15.526535, 136.417032 -15.523713, 136.410373 -15.520891, 136.403714 -15.518069, 136.397055 -15.515246, 136.390397 -15.512424, 136.383738 -15.509601, 136.377080 -15.506778, 136.370422 -15.503955, 136.363764 -15.501131, 136.357106 -15.498307, 136.350449 -15.495484, 136.343791 -15.492659, 136.337134 -15.489835, 136.330477 -15.487011, 136.323820 -15.484186, 136.317164 -15.481361, 136.310507 -15.478536, 136.303851 -15.475711, 136.297195 -15.472885, 136.290539 -15.470060, 136.283883 -15.467234, 136.277228 -15.464408, 136.270572 -15.461581, 136.263917 -15.458755, 136.257262 -15.455928, 136.250607 -15.453101, 136.243953 -15.450274, 136.237298 -15.447447, 136.230644 -15.444620, 136.223990 -15.441792, 136.217336 -15.438964, 136.210682 -15.436136, 136.204028 -15.433308, 136.197375 -15.430479, 136.190722 -15.427651, 136.184069 -15.424822, 136.177416 -15.421993, 136.170763 -15.419164, 136.164111 -15.416334, 136.157459 -15.413505, 136.150807 -15.410675, 136.144155 -15.407845, 136.137503 -15.405015, 136.130851 -15.402184, 136.124200 -15.399353, 136.117549 -15.396523, 136.110898 -15.393692, 136.104247 -15.390860, 136.097596 -15.388029, 136.090946 -15.385197, 136.084296 -15.382366, 136.077645 -15.379534, 136.070996 -15.376701, 136.064346 -15.373869, 136.057696 -15.371036, 136.051047 -15.368204, 136.044398 -15.365371, 136.037749 -15.362537, 136.031100 -15.359704, 136.024451 -15.356870, 136.017803 -15.354037, 136.011154 -15.351203, 136.004506 -15.348368, 135.997858 -15.345534, 135.991210 -15.342700, 135.984563 -15.339865, 135.977915 -15.337030, 135.971268 -15.334195, 135.964621 -15.331359, 135.957974 -15.328524, 135.951328 -15.325688, 135.944681 -15.322852, 135.938035 -15.320016, 135.931389 -15.317180, 135.924743 -15.314343, 135.918097 -15.311506, 135.911451 -15.308669, 135.904806 -15.305832, 135.898161 -15.302995, 135.891516 -15.300157, 135.884871 -15.297320, 135.878226 -15.294482, 135.871582 -15.291644, 135.864937 -15.288805, 135.858293 -15.285967, 135.851649 -15.283128, 135.845005 -15.280289, 135.838362 -15.277450, 135.831718 -15.274611, 135.825075 -15.271771, 135.818432 -15.268932, 135.811789 -15.266092, 135.805146 -15.263252, 135.798504 -15.260412, 135.791861 -15.257571, 135.785219 -15.254730, 135.778577 -15.251890, 135.771935 -15.249049, 135.765294 -15.246207, 135.758652 -15.243366, 135.752011 -15.240524, 135.745370 -15.237682, 135.738729 -15.234840, 135.732088 -15.231998, 135.725448 -15.229156, 135.718807 -15.226313, 135.712167 -15.223470, 135.705527 -15.220627, 135.698887 -15.217784, 135.692248 -15.214941, 135.685608 -15.212097, 135.678969 -15.209253, 135.672330 -15.206410, 135.665691 -15.203565, 135.659052 -15.200721, 135.652413 -15.197876, 135.645775 -15.195032, 135.639137 -15.192187, 135.632499 -15.189342, 135.625861 -15.186496, 135.619223 -15.183651, 135.612586 -15.180805, 135.605948 -15.177959, 135.599311 -15.175113, 135.592674 -15.172267, 135.586037 -15.169420, 135.579401 -15.166574, 135.572764 -15.163727, 135.566128 -15.160880, 135.559492 -15.158032, 135.552856 -15.155185, 135.546220 -15.152337, 135.539585 -15.149489, 135.532949 -15.146641, 135.526314 -15.143793, 135.519679 -15.140945, 135.513044 -15.138096, 135.506410 -15.135247, 135.499775 -15.132398, 135.493141 -15.129549, 135.486507 -15.126700, 135.479873 -15.123850, 135.473239 -15.121000, 135.466605 -15.118150, 135.459972 -15.115300, 135.453339 -15.112450, 135.446706 -15.109599, 135.440073 -15.106748, 135.433440 -15.103897, 135.426808 -15.101046, 135.420175 -15.098195, 135.413543 -15.095343, 135.406911 -15.092492, 135.400279 -15.089640, 135.393648 -15.086788, 135.387016 -15.083935, 135.380385 -15.081083, 135.373754 -15.078230, 135.367123 -15.075377, 135.360492 -15.072524, 135.353862 -15.069671, 135.347231 -15.066817, 135.340601 -15.063964, 135.333971 -15.061110, 135.327341 -15.058256, 135.320711 -15.055402, 135.314082 -15.052547, 135.307453 -15.049693, 135.300823 -15.046838, 135.294195 -15.043983, 135.287566 -15.041128, 135.280937 -15.038272, 135.274309 -15.035417, 135.267680 -15.032561, 135.261052 -15.029705, 135.254424 -15.026849, 135.247797 -15.023992, 135.241169 -15.021136, 135.234542 -15.018279, 135.227915 -15.015422, 135.221288 -15.012565, 135.214661 -15.009708, 135.208034 -15.006850, 135.201408 -15.003993, 135.194781 -15.001135, 135.188155 -14.998277, 135.181529 -14.995419, 135.174904 -14.992560, 135.168278 -14.989701, 135.161653 -14.986843, 135.155027 -14.983984, 135.148402 -14.981124, 135.141777 -14.978265, 135.135153 -14.975405, 135.128528 -14.972546, 135.121904 -14.969686, 135.115280 -14.966825, 135.108656 -14.963965, 135.102032 -14.961104, 135.095408 -14.958244, 135.088785 -14.955383, 135.082161 -14.952522, 135.075538 -14.949660, 135.068915 -14.946799, 135.062293 -14.943937, 135.055670 -14.941075, 135.049048 -14.938213, 135.042425 -14.935351, 135.035803 -14.932488, 135.029181 -14.929626, 135.022560 -14.926763, 135.015938 -14.923900, 135.009317 -14.921037, 135.002696 -14.918173, 134.996075 -14.915310, 134.989454 -14.912446, 134.982833 -14.909582, 134.976213 -14.906718, 134.969592 -14.903853, 134.962972 -14.900989, 134.956352 -14.898124, 134.949733 -14.895259, 134.943113 -14.892394, 134.936494 -14.889529, 134.929874 -14.886663, 134.923255 -14.883797, 134.916636 -14.880932, 134.910018 -14.878065, 134.903399 -14.875199, 134.896781 -14.872333, 134.890163 -14.869466, 134.883545 -14.866599, 134.876927 -14.863732, 134.870309 -14.860865, 134.863692 -14.857998, 134.857074 -14.855130, 134.850457 -14.852262, 134.843840 -14.849394, 134.837223 -14.846526, 134.830607 -14.843658, 134.823990 -14.840789, 134.817374 -14.837921, 134.810758 -14.835052, 134.804142 -14.832183, 134.797526 -14.829313, 134.790911 -14.826444, 134.784296 -14.823574, 134.777680 -14.820704, 134.771065 -14.817834, 134.764450 -14.814964, 134.757836 -14.812093, 134.751221 -14.809223, 134.744607 -14.806352, 134.737993 -14.803481, 134.731379 -14.800610, 134.724765 -14.797739, 134.718151 -14.794867, 134.711538 -14.791995, 134.704925 -14.789123, 134.698312 -14.786251, 134.691699 -14.783379, 134.685086 -14.780506, 134.678473 -14.777634, 134.671861 -14.774761, 134.665249 -14.771888, 134.658637 -14.769014, 134.652025 -14.766141, 134.645413 -14.763267, 134.638802 -14.760394, 134.632190 -14.757520, 134.625579 -14.754645, 134.618968 -14.751771, 134.612357 -14.748896, 134.605747 -14.746022, 134.599136 -14.743147, 134.592526 -14.740272, 134.585916 -14.737396, 134.579306 -14.734521, 134.572696 -14.731645, 134.566086 -14.728769, 134.559477 -14.725893, 134.552868 -14.723017, 134.546259 -14.720140, 134.539650 -14.717264, 134.533041 -14.714387, 134.526432 -14.711510, 134.519824 -14.708633, 134.513216 -14.705755, 134.506608 -14.702878, 134.500000 -14.700000, 134.495887 -14.694230, 134.491775 -14.688461, 134.487662 -14.682691, 134.483550 -14.676922, 134.479439 -14.671152, 134.475327 -14.665382, 134.471216 -14.659612, 134.467104 -14.653842, 134.462993 -14.648072, 134.458883 -14.642302, 134.454772 -14.636531, 134.450662 -14.630761, 134.446552 -14.624991, 134.442442 -14.619220, 134.438332 -14.613450, 134.434223 -14.607679, 134.430113 -14.601909, 134.426004 -14.596138, 134.421895 -14.590367, 134.417787 -14.584596, 134.413678 -14.578825, 134.409570 -14.573054, 134.405462 -14.567283, 134.401355 -14.561512, 134.397247 -14.555741, 134.393140 -14.549969, 134.389033 -14.544198, 134.384926 -14.538427, 134.380819 -14.532655, 134.376713 -14.526883, 134.372606 -14.521112, 134.368500 -14.515340, 134.364394 -14.509568, 134.360289 -14.503796, 134.356183 -14.498024, 134.352078 -14.492252, 134.347973 -14.486480, 134.343869 -14.480708, 134.339764 -14.474936, 134.335660 -14.469164, 134.331556 -14.463391, 134.327452 -14.457619, 134.323348 -14.451846, 134.319245 -14.446074, 134.315141 -14.440301, 134.311038 -14.434528, 134.306935 -14.428755, 134.302833 -14.422982, 134.298730 -14.417210, 134.294628 -14.411437, 134.290526 -14.405663, 134.286424 -14.399890, 134.282323 -14.394117, 134.278222 -14.388344, 134.274120 -14.382570, 134.270020 -14.376797, 134.265919 -14.371023, 134.261818 -14.365250, 134.257718 -14.359476, 134.253618 -14.353702, 134.249518 -14.347929, 134.245418 -14.342155, 134.241319 -14.336381, 134.237220 -14.330607, 134.233121 -14.324833, 134.229022 -14.319059, 134.224923 -14.313284, 134.220825 -14.307510, 134.216727 -14.301736, 134.212629 -14.295961, 134.208531 -14.290187, 134.204434 -14.284412, 134.200336 -14.278638, 134.196239 -14.272863, 134.192142 -14.267088, 134.188046 -14.261313, 134.183949 -14.255538, 134.179853 -14.249763, 134.175757 -14.243988, 134.171661 -14.238213, 134.167565 -14.232438, 134.163470 -14.226663, 134.159375 -14.220887, 134.155280 -14.215112, 134.151185 -14.209337, 134.147090 -14.203561, 134.142996 -14.197785, 134.138902 -14.192010, 134.134808 -14.186234, 134.130714 -14.180458, 134.126620 -14.174682, 134.122527 -14.168906, 134.118434 -14.163130, 134.114341 -14.157354, 134.110248 -14.151578, 134.106156 -14.145802, 134.102063 -14.140025, 134.097971 -14.134249, 134.093879 -14.128473, 134.089788 -14.122696, 134.085696 -14.116919, 134.081605 -14.111143, 134.077514 -14.105366, 134.073423 -14.099589, 134.069332 -14.093812, 134.065242 -14.088036, 134.061152 -14.082259, 134.057061 -14.076481, 134.052972 -14.070704, 134.048882 -14.064927, 134.044793 -14.059150, 134.040703 -14.053372, 134.036614 -14.047595, 134.032526 -14.041818, 134.028437 -14.036040, 134.024349 -14.030262, 134.020261 -14.024485, 134.016173 -14.018707, 134.012085 -14.012929, 134.007997 -14.007151, 134.003910 -14.001373, 133.999823 -13.995595, 133.995736 -13.989817, 133.991649 -13.984039, 133.987563 -13.978261, 133.983476 -13.972482, 133.979390 -13.966704, 133.975304 -13.960926, 133.971218 -13.955147, 133.967133 -13.949369, 133.963048 -13.943590, 133.958963 -13.937811, 133.954878 -13.932032, 133.950793 -13.926254, 133.946709 -13.920475, 133.942624 -13.914696, 133.938540 -13.908917, 133.934456 -13.903137, 133.930373 -13.897358, 133.926289 -13.891579, 133.922206 -13.885800, 133.918123 -13.880020, 133.914040 -13.874241, 133.909957 -13.868461, 133.905875 -13.862682, 133.901793 -13.856902, 133.897711 -13.851122, 133.893629 -13.845343, 133.889547 -13.839563, 133.885466 -13.833783, 133.881385 -13.828003, 133.877304 -13.822223, 133.873223 -13.816443, 133.869142 -13.810662, 133.865062 -13.804882, 133.860981 -13.799102, 133.856901 -13.793321, 133.852822 -13.787541, 133.848742 -13.781760, 133.844663 -13.775980, 133.840583 -13.770199, 133.836504 -13.764418, 133.832426 -13.758637, 133.828347 -13.752857, 133.824269 -13.747076, 133.820190 -13.741295, 133.816112 -13.735514, 133.812035 -13.729732, 133.807957 -13.723951, 133.803880 -13.718170, 133.799803 -13.712389, 133.795726 -13.706607, 133.791649 -13.700826, 133.787572 -13.695044, 133.783496 -13.689263, 133.779420 -13.683481, 133.775344 -13.677699, 133.771268 -13.671917, 133.767192 -13.666135, 133.763117 -13.660354, 133.759042 -13.654572, 133.754967 -13.648789, 133.750892 -13.643007, 133.746817 -13.637225, 133.742743 -13.631443, 133.738669 -13.625660, 133.734595 -13.619878, 133.730521 -13.614096, 133.726447 -13.608313, 133.722374 -13.602530, 133.718301 -13.596748, 133.714228 -13.590965, 133.710155 -13.585182, 133.706082 -13.579399, 133.702010 -13.573616, 133.697938 -13.567833, 133.693866 -13.562050, 133.689794 -13.556267, 133.685722 -13.550484, 133.681651 -13.544701, 133.677580 -13.538917, 133.673509 -13.533134, 133.669438 -13.527351, 133.665367 -13.521567, 133.661297 -13.515783, 133.657227 -13.510000, 133.653157 -13.504216, 133.649087 -13.498432, 133.645017 -13.492648, 133.640948 -13.486864, 133.636879 -13.481080, 133.632810 -13.475296, 133.628741 -13.469512, 133.624672 -13.463728, 133.620604 -13.457944, 133.616535 -13.452159, 133.612467 -13.446375, 133.608399 -13.440591, 133.604332 -13.434806, 133.600264 -13.429022, 133.596197 -13.423237, 133.592130 -13.417452, 133.588063 -13.411667, 133.583996 -13.405883, 133.579930 -13.400098, 133.575864 -13.394313, 133.571798 -13.388528, 133.567732 -13.382743, 133.563666 -13.376957, 133.559600 -13.371172, 133.555535 -13.365387, 133.551470 -13.359602, 133.547405 -13.353816, 133.543340 -13.348031, 133.539276 -13.342245, 133.535212 -13.336459, 133.531147 -13.330674, 133.527083 -13.324888, 133.523020 -13.319102, 133.518956 -13.313316, 133.514893 -13.307530, 133.510830 -13.301744, 133.506767 -13.295958, 133.502704 -13.290172, 133.498641 -13.284386, 133.494579 -13.278600, 133.490517 -13.272813, 133.486455 -13.267027, 133.482393 -13.261240, 133.478331 -13.255454, 133.474270 -13.249667, 133.470209 -13.243881, 133.466147 -13.238094, 133.462087 -13.232307, 133.458026 -13.226520, 133.453966 -13.220733, 133.449905 -13.214947, 133.445845 -13.209159, 133.441785 -13.203372, 133.437726 -13.197585, 133.433666 -13.191798, 133.429607 -13.186011, 133.425548 -13.180223, 133.421489 -13.174436, 133.417430 -13.168648, 133.413371 -13.162861, 133.409313 -13.157073, 133.405255 -13.151286, 133.401197 -13.145498, 133.397139 -13.139710, 133.393082 -13.133922, 133.389024 -13.128134, 133.384967 -13.122346, 133.380910 -13.116558, 133.376853 -13.110770, 133.372797 -13.104982, 133.368740 -13.099194, 133.364684 -13.093405, 133.360628 -13.087617, 133.356572 -13.081829, 133.352516 -13.076040, 133.348461 -13.070251, 133.344406 -13.064463, 133.340350 -13.058674, 133.336295 -13.052885, 133.332241 -13.047097, 133.328186 -13.041308, 133.324132 -13.035519, 133.320078 -13.029730, 133.316024 -13.023941, 133.311970 -13.018152, 133.307916 -13.012362, 133.303863 -13.006573, 133.299810 -13.000784, 133.295757 -12.994994, 133.291704 -12.989205, 133.287651 -12.983415, 133.283599 -12.977626, 133.279547 -12.971836, 133.275495 -12.966047, 133.271443 -12.960257, 133.267391 -12.954467, 133.263339 -12.948677, 133.259288 -12.942887, 133.255237 -12.937097, 133.251186 -12.931307, 133.247135 -12.925517, 133.243085 -12.919727, 133.239034 -12.913937, 133.234984 -12.908146, 133.230934 -12.902356, 133.226884 -12.896565, 133.222835 -12.890775, 133.218785 -12.884984, 133.214736 -12.879194, 133.210687 -12.873403, 133.206638 -12.867612, 133.202589 -12.861821, 133.198541 -12.856030, 133.194493 -12.850240, 133.190444 -12.844449, 133.186396 -12.838657, 133.182349 -12.832866, 133.178301 -12.827075, 133.174254 -12.821284, 133.170206 -12.815493, 133.166159 -12.809701, 133.162113 -12.803910, 133.158066 -12.798118, 133.154020 -12.792327, 133.149973 -12.786535, 133.145927 -12.780743, 133.141881 -12.774952, 133.137836 -12.769160, 133.133790 -12.763368, 133.129745 -12.757576, 133.125700 -12.751784, 133.121655 -12.745992, 133.117610 -12.740200, 133.113565 -12.734408, 133.109521 -12.728615, 133.105477 -12.722823, 133.101432 -12.717031, 133.097389 -12.711238, 133.093345 -12.705446, 133.089301 -12.699653, 133.085258 -12.693861, 133.081215 -12.688068, 133.077172 -12.682275, 133.073129 -12.676483, 133.069087 -12.670690, 133.065044 -12.664897, 133.061002 -12.659104, 133.056960 -12.653311, 133.052918 -12.647518, 133.048877 -12.641725, 133.044835 -12.635931, 133.040794 -12.630138, 133.036753 -12.624345, 133.032712 -12.618551, 133.028671 -12.612758, 133.024630 -12.606964, 133.020590 -12.601171, 133.016550 -12.595377, 133.012510 -12.589583, 133.008470 -12.583790, 133.004430 -12.577996, 133.000391 -12.572202, 132.996352 -12.566408, 132.992313 -12.560614, 132.988274 -12.554820, 132.984235 -12.549026, 132.980196 -12.543232, 132.976158 -12.537437, 132.972120 -12.531643, 132.968082 -12.525849, 132.964044 -12.520054, 132.960006 -12.514260, 132.955969 -12.508465, 132.951931 -12.502671, 132.947894 -12.496876, 132.943857 -12.491081, 132.939821 -12.485286, 132.935784 -12.479492, 132.931748 -12.473697, 132.927712 -12.467902, 132.923676 -12.462107, 132.919640 -12.456312, 132.915604 -12.450516, 132.911569 -12.444721, 132.907533 -12.438926, 132.903498 -12.433131, 132.899463 -12.427335, 132.895428 -12.421540, 132.891394 -12.415744, 132.887359 -12.409949, 132.883325 -12.404153, 132.879291 -12.398357, 132.875257 -12.392562, 132.871224 -12.386766, 132.867190 -12.380970, 132.863157 -12.375174, 132.859124 -12.369378, 132.855091 -12.363582, 132.851058 -12.357786, 132.847025 -12.351990, 132.842993 -12.346194, 132.838961 -12.340397, 132.834929 -12.334601, 132.830897 -12.328805, 132.826865 -12.323008, 132.822833 -12.317212, 132.818802 -12.311415, 132.814771 -12.305618, 132.810740 -12.299822, 132.806709 -12.294025, 132.802678 -12.288228, 132.798648 -12.282431, 132.794618 -12.276634, 132.790588 -12.270837, 132.786558 -12.265040, 132.782528 -12.259243, 132.778498 -12.253446, 132.774469 -12.247649, 132.770440 -12.241851, 132.766411 -12.236054, 132.762382 -12.230257, 132.758353 -12.224459, 132.754324 -12.218662, 132.750296 -12.212864, 132.746268 -12.207067, 132.742240 -12.201269, 132.738212 -12.195471, 132.734184 -12.189673, 132.730157 -12.183875, 132.726130 -12.178078, 132.722103 -12.172280, 132.718076 -12.166481, 132.714049 -12.160683, 132.710022 -12.154885, 132.705996 -12.149087, 132.701970 -12.143289, 132.697944 -12.137490, 132.693918 -12.131692, 132.689892 -12.125894, 132.685866 -12.120095, 132.681841 -12.114296, 132.677816 -12.108498, 132.673791 -12.102699, 132.669766 -12.096900, 132.665741 -12.091102, 132.661717 -12.085303, 132.657693 -12.079504, 132.653669 -12.073705, 132.649645 -12.067906, 132.645621 -12.062107, 132.641597 -12.056308, 132.637574 -12.050508, 132.633550 -12.044709, 132.629527 -12.038910, 132.625504 -12.033110, 132.621482 -12.027311, 132.617459 -12.021512, 132.613437 -12.015712, 132.609414 -12.009912, 132.605392 -12.004113, 132.601371 -11.998313, 132.597349 -11.992513, 132.593327 -11.986713, 132.589306 -11.980913, 132.585285 -11.975114, 132.581264 -11.969314, 132.577243 -11.963513, 132.573222 -11.957713, 132.569202 -11.951913, 132.565181 -11.946113, 132.561161 -11.940313, 132.557141 -11.934512, 132.553121 -11.928712, 132.549102 -11.922911, 132.545082 -11.917111, 132.541063 -11.911310, 132.537044 -11.905510, 132.533025 -11.899709, 132.529006 -11.893908, 132.524988 -11.888107, 132.520969 -11.882307, 132.516951 -11.876506, 132.512933 -11.870705, 132.508915 -11.864904, 132.504897 -11.859103, 132.500880 -11.853301, 132.496862 -11.847500, 132.492845 -11.841699, 132.488828 -11.835898, 132.484811 -11.830096, 132.480794 -11.824295, 132.476778 -11.818493, 132.472761 -11.812692, 132.468745 -11.806890, 132.464729 -11.801088, 132.460713 -11.795287, 132.456697 -11.789485, 132.452682 -11.783683, 132.448667 -11.777881, 132.444651 -11.772079, 132.440636 -11.766277, 132.436621 -11.760475, 132.432607 -11.754673, 132.428592 -11.748871, 132.424578 -11.743069, 132.420564 -11.737267, 132.416550 -11.731464, 132.412536 -11.725662, 132.408522 -11.719859, 132.404509 -11.714057, 132.400495 -11.708254, 132.396482 -11.702452, 132.392469 -11.696649, 132.388456 -11.690846, 132.384444 -11.685044, 132.380431 -11.679241, 132.376419 -11.673438, 132.372407 -11.667635, 132.368395 -11.661832, 132.364383 -11.656029, 132.360371 -11.650226, 132.356360 -11.644423, 132.352348 -11.638619, 132.348337 -11.632816, 132.344326 -11.627013, 132.340315 -11.621209, 132.336305 -11.615406, 132.332294 -11.609602, 132.328284 -11.603799, 132.324274 -11.597995, 132.320264 -11.592192, 132.316254 -11.586388, 132.312244 -11.580584, 132.308235 -11.574780, 132.304226 -11.568976, 132.300216 -11.563172, 132.296207 -11.557368, 132.292199 -11.551564, 132.288190 -11.545760, 132.284181 -11.539956, 132.280173 -11.534152, 132.276165 -11.528348, 132.272157 -11.522543, 132.268149 -11.516739, 132.264141 -11.510934, 132.260134 -11.505130, 132.256127 -11.499325, 132.252119 -11.493521, 132.248112 -11.487716, 132.244106 -11.481911, 132.240099 -11.476107, 132.236092 -11.470302, 132.232086 -11.464497, 132.228080 -11.458692, 132.224074 -11.452887, 132.220068 -11.447082, 132.216062 -11.441277, 132.212057 -11.435472, 132.208051 -11.429667, 132.204046 -11.423861, 132.200041 -11.418056, 132.196036 -11.412251, 132.192032 -11.406445, 132.188027 -11.400640, 132.184023 -11.394834, 132.180019 -11.389029, 132.176015 -11.383223, 132.172011 -11.377417, 132.168007 -11.371612, 132.164003 -11.365806, 132.160000 -11.360000)
