LINESTRING (-94.850000 39.770000, -94.858063 39.770376, -94.866126 39.770751, -94.874189 39.771126, -94.882253 39.771500, -94.890316 39.771874, -94.898380 39.772247, -94.906443 39.772620, -94.914507 39.772992, -94.922570 39.773363, -94.930634 39.773734, -94.938698 39.774105, -94.946762 39.774474, -94.954826 39.774844, -94.962890 39.775212, -94.970955 39.775580, -94.979019 39.775948, -94.987084 39.776315, -94.995148 39.776681, -95.003213 39.777047, -95.011277 39.777413, -95.019342 39.777777, -95.027407 39.778142, -95.035472 39.778505, -95.043537 39.778868, -95.051602 39.779231, -95.059667 39.779593, -95.067733 39.779954, -95.075798 39.780315, -95.083863 39.780675, -95.091929 39.781035, -95.099995 39.781394, -95.108060 39.781753, -95.116126 39.782111, -95.124192 39.782469, -95.132258 39.782826, -95.140324 39.783182, -95.148390 39.783538, -95.156456 39.783893, -95.164523 39.784248, -95.172589 39.784602, -95.180655 39.784956, -95.188722 39.785309, -95.196788 39.785661, -95.204855 39.786013, -95.212922 39.786364, -95.220989 39.786715, -95.229056 39.787065, -95.237123 39.787415, -95.245190 39.787764, -95.253257 39.788113, -95.261324 39.788461, -95.269392 39.788808, -95.277459 39.789155, -95.285527 39.789502, -95.293594 39.789847, -95.301662 39.790193, -95.309730 39.790537, -95.317798 39.790881, -95.325866 39.791225, -95.333934 39.791568, -95.342002 39.791910, -95.350070 39.792252, -95.358138 39.792594, -95.366206 39.792934, -95.374275 39.793275, -95.382343 39.793614, -95.390412 39.793953, -95.398481 39.794292, -95.406549 39.794630, -95.414618 39.794967, -95.422687 39.795304, -95.430756 39.795640, -95.438825 39.795976, -95.446894 39.796311, -95.454963 39.796646, -95.463033 39.796980, -95.471102 39.797313, -95.479171 39.797646, -95.487241 39.797979, -95.495311 39.798310, -95.503380 39.798642, -95.511450 39.798972, -95.519520 39.799303, -95.527590 39.799632, -95.535660 39.799961, -95.543730 39.800290, -95.551800 39.800618, -95.559870 39.800945, -95.567940 39.801272, -95.576011 39.801598, -95.584081 39.801924, -95.592152 39.802249, -95.600222 39.802573, -95.608293 39.802897, -95.616364 39.803221, -95.624434 39.803544, -95.632505 39.803866, -95.640576 39.804188, -95.648647 39.804509, -95.656719 39.804829, -95.664790 39.805149, -95.672861 39.805469, -95.680932 39.805788, -95.689004 39.806106, -95.697075 39.806424, -95.705147 39.806741, -95.713218 39.807058, -95.721290 39.807374, -95.729362 39.807690, -95.737434 39.808005, -95.745506 39.808319, -95.753578 39.808633, -95.761650 39.808947, -95.769722 39.809260, -95.777794 39.809572, -95.785867 39.809884, -95.793939 39.810195, -95.802011 39.810505, -95.810084 39.810815, -95.818157 39.811125, -95.826229 39.811434, -95.834302 39.811742, -95.842375 39.812050, -95.850448 39.812357, -95.858521 39.812664, -95.866594 39.812970, -95.874667 39.813275, -95.882740 39.813580, -95.890813 39.813885, -95.898887 39.814188, -95.906960 39.814492, -95.915033 39.814794, -95.923107 39.815097, -95.931181 39.815398, -95.939254 39.815699, -95.947328 39.816000, -95.955402 39.816300, -95.963476 39.816599, -95.971550 39.816898, -95.979624 39.817196, -95.987698 39.817494, -95.995772 39.817791, -96.003846 39.818088, -96.011921 39.818384, -96.019995 39.818679, -96.028069 39.818974, -96.036144 39.819268, -96.044219 39.819562, -96.052293 39.819855, -96.060368 39.820148, -96.068443 39.820440, -96.076518 39.820732, -96.084592 39.821023, -96.092667 39.821313, -96.100743 39.821603, -96.108818 39.821892, -96.116893 39.822181, -96.124968 39.822469, -96.133044 39.822757, -96.141119 39.823044, -96.149194 39.823330, -96.157270 39.823616, -96.165346 39.823902, -96.173421 39.824187, -96.181497 39.824471, -96.189573 39.824755, -96.197649 39.825038, -96.205725 39.825320, -96.213801 39.825602, -96.221877 39.825884, -96.229953 39.826165, -96.238029 39.826445, -96.246105 39.826725, -96.254182 39.827004, -96.262258 39.827283, -96.270335 39.827561, -96.278411 39.827838, -96.286488 39.828115, -96.294564 39.828392, -96.302641 39.828668, -96.310718 39.828943, -96.318795 39.829218, -96.326872 39.829492, -96.334949 39.829765, -96.343026 39.830039, -96.351103 39.830311, -96.359180 39.830583, -96.367257 39.830854, -96.375335 39.831125, -96.383412 39.831395, -96.391489 39.831665, -96.399567 39.831934, -96.407644 39.832203, -96.415722 39.832471, -96.423800 39.832738, -96.431877 39.833005, -96.439955 39.833272, -96.448033 39.833537, -96.456111 39.833803, -96.464189 39.834067, -96.472267 39.834331, -96.480345 39.834595, -96.488423 39.834858, -96.496502 39.835120, -96.504580 39.835382, -96.512658 39.835644, -96.520737 39.835904, -96.528815 39.836164, -96.536894 39.836424, -96.544972 39.836683, -96.553051 39.836942, -96.561130 39.837200, -96.569209 39.837457, -96.577288 39.837714, -96.585366 39.837970, -96.593445 39.838226, -96.601525 39.838481, -96.609604 39.838736, -96.617683 39.838990, -96.625762 39.839243, -96.633841 39.839496, -96.641921 39.839748, -96.650000 39.840000, -96.657317 39.842637, -96.664634 39.845273, -96.671952 39.847910, -96.679270 39.850545, -96.686589 39.853180, -96.693908 39.855815, -96.701228 39.858449, -96.708549 39.861083, -96.715870 39.863716, -96.723192 39.866349, -96.730514 39.868981, -96.737837 39.871613, -96.745160 39.874245, -96.752484 39.876876, -96.759809 39.879506, -96.767134 39.882136, -96.774460 39.884766, -96.781786 39.887395, -96.789113 39.890024, -96.796440 39.892652, -96.803768 39.895280, -96.811096 39.897907, -96.818425 39.900534, -96.825755 39.903160, -96.833085 39.905786, -96.840416 39.908412, -96.847747 39.911037, -96.855079 39.913661, -96.862411 39.916286, -96.869744 39.918909, -96.877078 39.921532, -96.884412 39.924155, -96.891746 39.926777, -96.899082 39.929399, -96.906417 39.932020, -96.913754 39.934641, -96.921091 39.937262, -96.928428 39.939881, -96.935766 39.942501, -96.943105 39.945120, -96.950444 39.947738, -96.957783 39.950356, -96.965124 39.952974, -96.972464 39.955591, -96.979806 39.958208, -96.987148 39.960824, -96.994490 39.963440, -97.001833 39.966055, -97.009177 39.968670, -97.016521 39.971284, -97.023866 39.973898, -97.031211 39.976512, -97.038557 39.979125, -97.045904 39.981737, -97.053251 39.984349, -97.060598 39.986961, -97.067946 39.989572, -97.075295 39.992183, -97.082644 39.994793, -97.089994 39.997403, -97.097344 40.000012, -97.104695 40.002621, -97.112047 40.005229, -97.119399 40.007837, -97.126751 40.010444, -97.134105 40.013051, -97.141458 40.015658, -97.148813 40.018264, -97.156167 40.020869, -97.163523 40.023474, -97.170879 40.026079, -97.178235 40.028683, -97.185593 40.031287, -97.192950 40.033890, -97.200308 40.036493, -97.207667 40.039095, -97.215027 40.041697, -97.222386 40.044298, -97.229747 40.046899, -97.237108 40.049499, -97.244470 40.052099, -97.251832 40.054699, -97.259194 40.057298, -97.266558 40.059896, -97.273922 40.062495, -97.281286 40.065092, -97.288651 40.067689, -97.296017 40.070286, -97.303383 40.072882, -97.310749 40.075478, -97.318116 40.078073, -97.325484 40.080668, -97.332853 40.083263, -97.340222 40.085856, -97.347591 40.088450, -97.354961 40.091043, -97.362332 40.093635, -97.369703 40.096227, -97.377074 40.098819, -97.384447 40.101410, -97.391820 40.104001, -97.399193 40.106591, -97.406567 40.109180, -97.413941 40.111770, -97.421316 40.114358, -97.428692 40.116947, -97.436068 40.119535, -97.443445 40.122122, -97.450822 40.124709, -97.458200 40.127295, -97.465579 40.129881, -97.472958 40.132467, -97.480337 40.135052, -97.487717 40.137636, -97.495098 40.140220, -97.502479 40.142804, -97.509861 40.145387, -97.517244 40.147970, -97.524627 40.150552, -97.532010 40.153134, -97.539394 40.155715, -97.546779 40.158296, -97.554164 40.160876, -97.561550 40.163456, -97.568936 40.166035, -97.576323 40.168614, -97.583710 40.171193, -97.591098 40.173771, -97.598487 40.176348, -97.605876 40.178925, -97.613266 40.181502, -97.620656 40.184078, -97.628047 40.186653, -97.635438 40.189229, -97.642830 40.191803, -97.650222 40.194377, -97.657615 40.196951, -97.665009 40.199525, -97.672403 40.202097, -97.679798 40.204670, -97.687193 40.207242, -97.694589 40.209813, -97.701985 40.212384, -97.709382 40.214954, -97.716780 40.217524, -97.724178 40.220094, -97.731577 40.222663, -97.738976 40.225231, -97.746376 40.227799, -97.753776 40.230367, -97.761177 40.232934, -97.768578 40.235501, -97.775980 40.238067, -97.783383 40.240633, -97.790786 40.243198, -97.798190 40.245763, -97.805594 40.248327, -97.812999 40.250891, -97.820404 40.253455, -97.827810 40.256017, -97.835217 40.258580, -97.842624 40.261142, -97.850031 40.263703, -97.857440 40.266264, -97.864848 40.268825, -97.872258 40.271385, -97.879668 40.273945, -97.887078 40.276504, -97.894489 40.279062, -97.901901 40.281621, -97.909313 40.284178, -97.916725 40.286736, -97.924139 40.289292, -97.931552 40.291849, -97.938967 40.294404, -97.946382 40.296960, -97.953797 40.299515, -97.961213 40.302069, -97.968630 40.304623, -97.976047 40.307176, -97.983465 40.309729, -97.990883 40.312282, -97.998302 40.314834, -98.005721 40.317385, -98.013141 40.319937, -98.020562 40.322487, -98.027983 40.325037, -98.035404 40.327587, -98.042827 40.330136, -98.050249 40.332685, -98.057673 40.335233, -98.065097 40.337781, -98.072521 40.340328, -98.079946 40.342875, -98.087372 40.345421, -98.094798 40.347967, -98.102224 40.350513, -98.109652 40.353057, -98.117080 40.355602, -98.124508 40.358146, -98.131937 40.360689, -98.139366 40.363232, -98.146796 40.365775, -98.154227 40.368317, -98.161658 40.370859, -98.169090 40.373400, -98.176522 40.375940, -98.183955 40.378480, -98.191389 40.381020, -98.198823 40.383559, -98.206257 40.386098, -98.213692 40.388636, -98.221128 40.391174, -98.228564 40.393711, -98.236001 40.396248, -98.243438 40.398785, -98.250876 40.401320, -98.258315 40.403856, -98.265754 40.406391, -98.273193 40.408925, -98.280633 40.411459, -98.288074 40.413993, -98.295515 40.416526, -98.302957 40.419058, -98.310400 40.421590, -98.317842 40.424122, -98.325286 40.426653, -98.332730 40.429184, -98.340175 40.431714, -98.347620 40.434243, -98.355066 40.436773, -98.362512 40.439301, -98.369959 40.441830, -98.377406 40.444357, -98.384854 40.446885, -98.392303 40.449411, -98.399752 40.451938, -98.407202 40.454464, -98.414652 40.456989, -98.422103 40.459514, -98.429554 40.462038, -98.437006 40.464562, -98.444458 40.467086, -98.451911 40.469609, -98.459365 40.472131, -98.466819 40.474653, -98.474274 40.477175, -98.481729 40.479696, -98.489185 40.482216, -98.496641 40.484736, -98.504098 40.487256, -98.511556 40.489775, -98.519014 40.492294, -98.526472 40.494812, -98.533932 40.497330, -98.541391 40.499847, -98.548852 40.502364, -98.556312 40.504880, -98.563774 40.507396, -98.571236 40.509911, -98.578698 40.512426, -98.586162 40.514940, -98.593625 40.517454, -98.601089 40.519968, -98.608554 40.522480, -98.616020 40.524993, -98.623485 40.527505, -98.630952 40.530016, -98.638419 40.532527, -98.645887 40.535038, -98.653355 40.537548, -98.660823 40.540057, -98.668293 40.542566, -98.675762 40.545075, -98.683233 40.547583, -98.690704 40.550091, -98.698175 40.552598, -98.705647 40.555105, -98.713120 40.557611, -98.720593 40.560116, -98.728067 40.562622, -98.735541 40.565126, -98.743016 40.567631, -98.750491 40.570134, -98.757967 40.572638, -98.765444 40.575140, -98.772921 40.577643, -98.780399 40.580145, -98.787877 40.582646, -98.795356 40.585147, -98.802835 40.587647, -98.810315 40.590147, -98.817795 40.592647, -98.825276 40.595145, -98.832758 40.597644, -98.840240 40.600142, -98.847723 40.602639, -98.855206 40.605136, -98.862690 40.607633, -98.870174 40.610129, -98.877659 40.612625, -98.885145 40.615120, -98.892631 40.617614, -98.900117 40.620108, -98.907604 40.622602, -98.915092 40.625095, -98.922580 40.627588, -98.930069 40.630080, -98.937559 40.632572, -98.945049 40.635063, -98.952539 40.637554, -98.960030 40.640044, -98.967522 40.642534, -98.975014 40.645023, -98.982507 40.647512, -98.990000 40.650000, -98.997557 40.652367, -99.005115 40.654733, -99.012673 40.657099, -99.020232 40.659465, -99.027792 40.661830, -99.035352 40.664194, -99.042912 40.666558, -99.050473 40.668922, -99.058034 40.671285, -99.065597 40.673647, -99.073159 40.676009, -99.080722 40.678371, -99.088286 40.680732, -99.095850 40.683092, -99.103415 40.685452, -99.110980 40.687812, -99.118546 40.690171, -99.126112 40.692529, -99.133679 40.694887, -99.141247 40.697245, -99.148815 40.699602, -99.156383 40.701958, -99.163952 40.704314, -99.171522 40.706670, -99.179092 40.709025, -99.186663 40.711380, -99.194234 40.713734, -99.201805 40.716087, -99.209378 40.718440, -99.216950 40.720793, -99.224524 40.723145, -99.232098 40.725497, -99.239672 40.727848, -99.247247 40.730198, -99.254822 40.732549, -99.262398 40.734898, -99.269975 40.737247, -99.277552 40.739596, -99.285130 40.741944, -99.292708 40.744292, -99.300286 40.746639, -99.307866 40.748986, -99.315445 40.751332, -99.323026 40.753677, -99.330606 40.756023, -99.338188 40.758367, -99.345770 40.760711, -99.353352 40.763055, -99.360935 40.765398, -99.368518 40.767741, -99.376102 40.770083, -99.383687 40.772425, -99.391272 40.774766, -99.398858 40.777107, -99.406444 40.779447, -99.414031 40.781787, -99.421618 40.784126, -99.429205 40.786465, -99.436794 40.788803, -99.444383 40.791141, -99.451972 40.793478, -99.459562 40.795814, -99.467152 40.798151, -99.474743 40.800486, -99.482335 40.802822, -99.489927 40.805156, -99.497519 40.807491, -99.505112 40.809824, -99.512706 40.812158, -99.520300 40.814490, -99.527895 40.816823, -99.535490 40.819154, -99.543086 40.821486, -99.550682 40.823816, -99.558279 40.826147, -99.565876 40.828476, -99.573474 40.830806, -99.581073 40.833134, -99.588672 40.835463, -99.596271 40.837790, -99.603871 40.840118, -99.611472 40.842444, -99.619073 40.844771, -99.626675 40.847096, -99.634277 40.849422, -99.641879 40.851747, -99.649483 40.854071, -99.657087 40.856395, -99.664691 40.858718, -99.672296 40.861041, -99.679901 40.863363, -99.687507 40.865685, -99.695113 40.868006, -99.702720 40.870327, -99.710328 40.872647, -99.717936 40.874967, -99.725544 40.877286, -99.733154 40.879605, -99.740763 40.881923, -99.748373 40.884241, -99.755984 40.886558, -99.763595 40.888875, -99.771207 40.891191, -99.778819 40.893507, -99.786432 40.895822, -99.794046 40.898137, -99.801660 40.900451, -99.809274 40.902765, -99.816889 40.905078, -99.824504 40.907391, -99.832120 40.909703, -99.839737 40.912015, -99.847354 40.914326, -99.854972 40.916637, -99.862590 40.918947, -99.870209 40.921257, -99.877828 40.923566, -99.885448 40.925875, -99.893068 40.928183, -99.900689 40.930491, -99.908310 40.932798, -99.915932 40.935105, -99.923554 40.937411, -99.931177 40.939717, -99.938801 40.942022, -99.946425 40.944327, -99.954049 40.946631, -99.961674 40.948935, -99.969300 40.951238, -99.976926 40.953541, -99.984553 40.955843, -99.992180 40.958145, -99.999808 40.960446, -100.007436 40.962747, -100.015065 40.965047, -100.022694 40.967347, -100.030324 40.969646, -100.037955 40.971945, -100.045586 40.974243, -100.053217 40.976541, -100.060849 40.978838, -100.068481 40.981135, -100.076115 40.983431, -100.083748 40.985727, -100.091382 40.988022, -100.099017 40.990316, -100.106652 40.992611, -100.114288 40.994904, -100.121924 40.997198, -100.129561 40.999490, -100.137198 41.001782, -100.144836 41.004074, -100.152474 41.006365, -100.160113 41.008656, -100.167753 41.010946, -100.175393 41.013236, -100.183033 41.015525, -100.190674 41.017813, -100.198316 41.020102, -100.205958 41.022389, -100.213600 41.024676, -100.221244 41.026963, -100.228887 41.029249, -100.236532 41.031535, -100.244176 41.033820, -100.251822 41.036104, -100.259467 41.038388, -100.267114 41.040672, -100.274761 41.042955, -100.282408 41.045238, -100.290056 41.047520, -100.297704 41.049801, -100.305353 41.052082, -100.313003 41.054363, -100.320653 41.056643, -100.328303 41.058922, -100.335955 41.061201, -100.343606 41.063480, -100.351258 41.065758, -100.358911 41.068036, -100.366564 41.070313, -100.374218 41.072589, -100.381872 41.074865, -100.389527 41.077141, -100.397183 41.079416, -100.404838 41.081690, -100.412495 41.083964, -100.420152 41.086237, -100.427809 41.088510, -100.435467 41.090783, -100.443126 41.093055, -100.450785 41.095326, -100.458444 41.097597, -100.466105 41.099868, -100.473765 41.102137, -100.481426 41.104407, -100.489088 41.106676, -100.496750 41.108944, -100.504413 41.111212, -100.512076 41.113479, -100.519740 41.115746, -100.527405 41.118013, -100.535069 41.120279, -100.542735 41.122544, -100.550401 41.124809, -100.558067 41.127073, -100.565734 41.129337, -100.573402 41.131600, -100.581070 41.133863, -100.588738 41.136125, -100.596408 41.138387, -100.604077 41.140648, -100.611747 41.142909, -100.619418 41.145169, -100.627089 41.147429, -100.634761 41.149688, -100.642433 41.151947, -100.650106 41.154205, -100.657779 41.156463, -100.665453 41.158720, -100.673128 41.160977, -100.680803 41.163233, -100.688478 41.165489, -100.696154 41.167744, -100.703831 41.169999, -100.711508 41.172253, -100.719185 41.174506, -100.726863 41.176760, -100.734542 41.179012, -100.742221 41.181264, -100.749901 41.183516, -100.757581 41.185767, -100.765262 41.188017, -100.772943 41.190268, -100.780625 41.192517, -100.788307 41.194766, -100.795990 41.197015, -100.803673 41.199263, -100.811357 41.201510, -100.819042 41.203757, -100.826727 41.206004, -100.834412 41.208250, -100.842098 41.210495, -100.849785 41.212740, -100.857472 41.214985, -100.865159 41.217229, -100.872848 41.219472, -100.880536 41.221715, -100.888225 41.223957, -100.895915 41.226199, -100.903605 41.228441, -100.911296 41.230681, -100.918987 41.232922, -100.926679 41.235162, -100.934372 41.237401, -100.942064 41.239640, -100.949758 41.241878, -100.957452 41.244116, -100.965146 41.246353, -100.972841 41.248590, -100.980537 41.250826, -100.988233 41.253062, -100.995929 41.255297, -101.003626 41.257532, -101.011324 41.259766, -101.019022 41.262000, -101.026721 41.264233, -101.034420 41.266466, -101.042120 41.268698, -101.049820 41.270930, -101.057521 41.273161, -101.065222 41.275391, -101.072924 41.277621, -101.080626 41.279851, -101.088329 41.282080, -101.096033 41.284309, -101.103736 41.286537, -101.111441 41.288764, -101.119146 41.290991, -101.126851 41.293218, -101.134557 41.295444, -101.142264 41.297669, -101.149971 41.299894, -101.157679 41.302119, -101.165387 41.304343, -101.173096 41.306566, -101.180805 41.308789, -101.188514 41.311011, -101.196225 41.313233, -101.203935 41.315455, -101.211647 41.317675, -101.219359 41.319896, -101.227071 41.322116, -101.234784 41.324335, -101.242497 41.326554, -101.250211 41.328772, -101.257926 41.330990, -101.265640 41.333207, -101.273356 41.335424, -101.281072 41.337640, -101.288789 41.339856, -101.296506 41.342071, -101.304223 41.344286, -101.311941 41.346500, -101.319660 41.348713, -101.327379 41.350926, -101.335099 41.353139, -101.342819 41.355351, -101.350540 41.357563, -101.358261 41.359774, -101.365983 41.361984, -101.373705 41.364194, -101.381428 41.366404, -101.389151 41.368613, -101.396875 41.370821, -101.404600 41.373029, -101.412325 41.375237, -101.420050 41.377444, -101.427776 41.379650, -101.435503 41.381856, -101.443230 41.384061, -101.450957 41.386266, -101.458685 41.388471, -101.466414 41.390674, -101.474143 41.392878, -101.481873 41.395081, -101.489603 41.397283, -101.497334 41.399485, -101.505065 41.401686, -101.512797 41.403887, -101.520529 41.406087, -101.528262 41.408287, -101.535995 41.410486, -101.543729 41.412684, -101.551463 41.414882, -101.559198 41.417080, -101.566933 41.419277, -101.574669 41.421474, -101.582406 41.423670, -101.590143 41.425865, -101.597880 41.428060, -101.605618 41.430255, -101.613357 41.432449, -101.621096 41.434642, -101.628836 41.436835, -101.636576 41.439028, -101.644316 41.441220, -101.652058 41.443411, -101.659799 41.445602, -101.667541 41.447792, -101.675284 41.449982, -101.683027 41.452172, -101.690771 41.454360, -101.698516 41.456549, -101.706260 41.458736, -101.714006 41.460924, -101.721752 41.463110, -101.729498 41.465297, -101.737245 41.467482, -101.744992 41.469667, -101.752740 41.471852, -101.760489 41.474036, -101.768238 41.476220, -101.775987 41.478403, -101.783737 41.480585, -101.791488 41.482768, -101.799239 41.484949, -101.806991 41.487130, -101.814743 41.489311, -101.822496 41.491490, -101.830249 41.493670, -101.838002 41.495849, -101.845757 41.498027, -101.853511 41.500205, -101.861267 41.502382, -101.869022 41.504559, -101.876779 41.506736, -101.884536 41.508911, -101.892293 41.511087, -101.900051 41.513261, -101.907809 41.515436, -101.915568 41.517609, -101.923328 41.519783, -101.931088 41.521955, -101.938848 41.524127, -101.946609 41.526299, -101.954371 41.528470, -101.962133 41.530641, -101.969895 41.532811, -101.977658 41.534980, -101.985422 41.537149, -101.993186 41.539318, -102.000951 41.541486, -102.008716 41.543653, -102.016481 41.545820, -102.024248 41.547987, -102.032014 41.550152, -102.039782 41.552318, -102.047549 41.554483, -102.055318 41.556647, -102.063087 41.558811, -102.070856 41.560974, -102.078626 41.563137, -102.086396 41.565299, -102.094167 41.567461, -102.101938 41.569622, -102.109710 41.571783, -102.117483 41.573943, -102.125256 41.576102, -102.133029 41.578261, -102.140803 41.580420, -102.148578 41.582578, -102.156353 41.584735, -102.164128 41.586892, -102.171904 41.589049, -102.179681 41.591205, -102.187458 41.593360, -102.195236 41.595515, -102.203014 41.597670, -102.210793 41.599823, -102.218572 41.601977, -102.226352 41.604129, -102.234132 41.606282, -102.241913 41.608434, -102.249694 41.610585, -102.257476 41.612735, -102.265258 41.614886, -102.273041 41.617035, -102.280824 41.619184, -102.288608 41.621333, -102.296393 41.623481, -102.304177 41.625629, -102.311963 41.627776, -102.319749 41.629922, -102.327535 41.632068, -102.335322 41.634213, -102.343110 41.636358, -102.350898 41.638503, -102.358686 41.640647, -102.366475 41.642790, -102.374265 41.644933, -102.382055 41.647075, -102.389846 41.649217, -102.397637 41.651358, -102.405428 41.653499, -102.413221 41.655639, -102.421013 41.657779, -102.428807 41.659918, -102.436600 41.662056, -102.444394 41.664194, -102.452189 41.666332, -102.459985 41.668469, -102.467780 41.670606, -102.475577 41.672742, -102.483373 41.674877, -102.491171 41.677012, -102.498969 41.679146, -102.506767 41.681280, -102.514566 41.683414, -102.522365 41.685546, -102.530165 41.687679, -102.537966 41.689810, -102.545767 41.691942, -102.553568 41.694072, -102.561370 41.696202, -102.569173 41.698332, -102.576976 41.700461, -102.584779 41.702590, -102.592583 41.704718, -102.600388 41.706845, -102.608193 41.708972, -102.615999 41.711099, -102.623805 41.713225, -102.631611 41.715350, -102.639419 41.717475, -102.647226 41.719600, -102.655034 41.721723, -102.662843 41.723847, -102.670652 41.725969, -102.678462 41.728092, -102.686272 41.730213, -102.694083 41.732335, -102.701894 41.734455, -102.709706 41.736575, -102.717519 41.738695, -102.725331 41.740814, -102.733145 41.742933, -102.740959 41.745051, -102.748773 41.747168, -102.756588 41.749285, -102.764403 41.751402, -102.772219 41.753517, -102.780036 41.755633, -102.787853 41.757748, -102.795670 41.759862, -102.803488 41.761976, -102.811307 41.764089, -102.819126 41.766202, -102.826945 41.768314, -102.834765 41.770426, -102.842586 41.772537, -102.850407 41.774647, -102.858228 41.776757, -102.866051 41.778867, -102.873873 41.780976, -102.881696 41.783084, -102.889520 41.785192, -102.897344 41.787300, -102.905169 41.789407, -102.912994 41.791513, -102.920820 41.793619, -102.928646 41.795724, -102.936473 41.797829, -102.944300 41.799933, -102.952128 41.802037, -102.959956 41.804140, -102.967785 41.806243, -102.975614 41.808345, -102.983444 41.810446, -102.991274 41.812547, -102.999105 41.814648, -103.006936 41.816748, -103.014768 41.818847, -103.022601 41.820946, -103.030434 41.823044, -103.038267 41.825142, -103.046101 41.827240, -103.053935 41.829336, -103.061770 41.831433, -103.069606 41.833528, -103.077442 41.835624, -103.085278 41.837718, -103.093115 41.839812, -103.100953 41.841906, -103.108791 41.843999, -103.116629 41.846091, -103.124468 41.848183, -103.132308 41.850275, -103.140148 41.852366, -103.147989 41.854456, -103.155830 41.856546, -103.163671 41.858635, -103.171514 41.860724, -103.179356 41.862812, -103.187199 41.864900, -103.195043 41.866987, -103.202887 41.869074, -103.210732 41.871160, -103.218577 41.873246, -103.226423 41.875331, -103.234269 41.877415, -103.242116 41.879499, -103.249963 41.881583, -103.257811 41.883666, -103.265659 41.885748, -103.273508 41.887830, -103.281357 41.889911, -103.289207 41.891992, -103.297057 41.894072, -103.304908 41.896152, -103.312759 41.898231, -103.320611 41.900310, -103.328464 41.902388, -103.336317 41.904465, -103.344170 41.906542, -103.352024 41.908619, -103.359878 41.910695, -103.367733 41.912770, -103.375589 41.914845, -103.383445 41.916920, -103.391301 41.918993, -103.399158 41.921067, -103.407015 41.923139, -103.414873 41.925212, -103.422732 41.927283, -103.430591 41.929354, -103.438451 41.931425, -103.446311 41.933495, -103.454171 41.935565, -103.462032 41.937634, -103.469894 41.939702, -103.477756 41.941770, -103.485618 41.943837, -103.493481 41.945904, -103.501345 41.947971, -103.509209 41.950036, -103.517074 41.952102, -103.524939 41.954166, -103.532804 41.956231, -103.540671 41.958294, -103.548537 41.960357, -103.556404 41.962420, -103.564272 41.964482, -103.572140 41.966543, -103.580009 41.968604, -103.587878 41.970665, -103.595748 41.972725, -103.603618 41.974784, -103.611489 41.976843, -103.619360 41.978901, -103.627232 41.980959, -103.635104 41.983016, -103.642977 41.985073, -103.650850 41.987129, -103.658724 41.989184, -103.666598 41.991239, -103.674473 41.993294, -103.682348 41.995348, -103.690224 41.997401, -103.698100 41.999454, -103.705977 42.001506, -103.713855 42.003558, -103.721732 42.005609, -103.729611 42.007660, -103.737490 42.009710, -103.745369 42.011760, -103.753249 42.013809, -103.761129 42.015858, -103.769010 42.017906, -103.776892 42.019953, -103.784773 42.022000, -103.792656 42.024047, -103.800539 42.026092, -103.808422 42.028138, -103.816306 42.030183, -103.824191 42.032227, -103.832076 42.034271, -103.839961 42.036314, -103.847847 42.038356, -103.855733 42.040398, -103.863620 42.042440, -103.871508 42.044481, -103.879396 42.046522, -103.887284 42.048561, -103.895173 42.050601, -103.903063 42.052640, -103.910953 42.054678, -103.918843 42.056716, -103.926735 42.058753, -103.934626 42.060790, -103.942518 42.062826, -103.950411 42.064861, -103.958304 42.066897, -103.966197 42.068931, -103.974091 42.070965, -103.981986 42.072999, -103.989881 42.075031, -103.997777 42.077064, -104.005673 42.079096, -104.013569 42.081127, -104.021466 42.083158, -104.029364 42.085188, -104.037262 42.087218, -104.045161 42.089247, -104.053060 42.091275, -104.060959 42.093303, -104.068860 42.095331, -104.076760 42.097358, -104.084661 42.099384, -104.092563 42.101410, -104.100465 42.103435, -104.108368 42.105460, -104.116271 42.107484, -104.124175 42.109508, -104.132079 42.111531, -104.139984 42.113554, -104.147889 42.115576, -104.155794 42.117597, -104.163701 42.119618, -104.171607 42.121639, -104.179514 42.123659, -104.187422 42.125678, -104.195330 42.127697, -104.203239 42.129715, -104.211148 42.131733, -104.219058 42.133750, -104.226968 42.135767, -104.234879 42.137783, -104.242790 42.139798, -104.250702 42.141813, -104.258614 42.143828, -104.266527 42.145842, -104.274440 42.147855, -104.282354 42.149868, -104.290268 42.151880, -104.298183 42.153892, -104.306098 42.155903, -104.314014 42.157914, -104.321930 42.159924, -104.329847 42.161934, -104.337764 42.163943, -104.345682 42.165951, -104.353600 42.167959, -104.361519 42.169967, -104.369438 42.171973, -104.377358 42.173980, -104.385278 42.175985, -104.393199 42.177991, -104.401120 42.179995, -104.409042 42.181999, -104.416965 42.184003, -104.424887 42.186006, -104.432811 42.188009, -104.440734 42.190011, -104.448659 42.192012, -104.456584 42.194013, -104.464509 42.196013, -104.472435 42.198013, -104.480361 42.200012, -104.488288 42.202011, -104.496215 42.204009, -104.504143 42.206006, -104.512071 42.208004, -104.520000 42.210000, -104.528353 42.210465, -104.536706 42.210928, -104.545059 42.211392, -104.553413 42.211854, -104.561766 42.212317, -104.570120 42.212778, -104.578473 42.213239, -104.586827 42.213699, -104.595181 42.214159, -104.603535 42.214618, -104.611889 42.215076, -104.620244 42.215534, -104.628598 42.215992, -104.636953 42.216448, -104.645307 42.216904, -104.653662 42.217360, -104.662017 42.217814, -104.670372 42.218269, -104.678727 42.218722, -104.687083 42.219175, -104.695438 42.219628, -104.703794 42.220080, -104.712149 42.220531, -104.720505 42.220981, -104.728861 42.221431, -104.737217 42.221881, -104.745573 42.222329, -104.753929 42.222778, -104.762286 42.223225, -104.770642 42.223672, -104.778999 42.224118, -104.787355 42.224564, -104.795712 42.225009, -104.804069 42.225454, -104.812426 42.225898, -104.820783 42.226341, -104.829141 42.226784, -104.837498 42.227226, -104.845856 42.227667, -104.854213 42.228108, -104.862571 42.228548, -104.870929 42.228988, -104.879287 42.229427, -104.887645 42.229866, -104.896003 42.230303, -104.904362 42.230741, -104.912720 42.231177, -104.921079 42.231613, -104.929437 42.232049, -104.937796 42.232483, -104.946155 42.232918, -104.954514 42.233351, -104.962873 42.233784, -104.971233 42.234217, -104.979592 42.234648, -104.987951 42.235080, -104.996311 42.235510, -105.004671 42.235940, -105.013031 42.236369, -105.021391 42.236798, -105.029751 42.237226, -105.038111 42.237654, -105.046471 42.238081, -105.054832 42.238507, -105.063192 42.238933, -105.071553 42.239358, -105.079913 42.239782, -105.088274 42.240206, -105.096635 42.240629, -105.104996 42.241052, -105.113358 42.241474, -105.121719 42.241896, -105.130080 42.242317, -105.138442 42.242737, -105.146803 42.243156, -105.155165 42.243575, -105.163527 42.243994, -105.171889 42.244412, -105.180251 42.244829, -105.188613 42.245245, -105.196976 42.245661, -105.205338 42.246077, -105.213701 42.246492, -105.222063 42.246906, -105.230426 42.247319, -105.238789 42.247732, -105.247152 42.248145, -105.255515 42.248556, -105.263878 42.248967, -105.272241 42.249378, -105.280605 42.249788, -105.288968 42.250197, -105.297332 42.250606, -105.305696 42.251014, -105.314059 42.251421, -105.322423 42.251828, -105.330787 42.252235, -105.339152 42.252640, -105.347516 42.253045, -105.355880 42.253450, -105.364245 42.253854, -105.372609 42.254257, -105.380974 42.254659, -105.389339 42.255061, -105.397704 42.255463, -105.406069 42.255864, -105.414434 42.256264, -105.422799 42.256663, -105.431164 42.257062, -105.439530 42.257461, -105.447895 42.257858, -105.456261 42.258256, -105.464627 42.258652, -105.472993 42.259048, -105.481358 42.259443, -105.489725 42.259838, -105.498091 42.260232, -105.506457 42.260626, -105.514823 42.261019, -105.523190 42.261411, -105.531556 42.261803, -105.539923 42.262194, -105.548290 42.262584, -105.556657 42.262974, -105.565024 42.263363, -105.573391 42.263752, -105.581758 42.264140, -105.590125 42.264527, -105.598493 42.264914, -105.606860 42.265300, -105.615228 42.265686, -105.623596 42.266071, -105.631964 42.266455, -105.640332 42.266839, -105.648700 42.267222, -105.657068 42.267605, -105.665436 42.267987, -105.673804 42.268368, -105.682173 42.268749, -105.690541 42.269129, -105.698910 42.269508, -105.707279 42.269887, -105.715647 42.270266, -105.724016 42.270643, -105.732385 42.271020, -105.740755 42.271397, -105.749124 42.271773, -105.757493 42.272148, -105.765863 42.272523, -105.774232 42.272897, -105.782602 42.273270, -105.790971 42.273643, -105.799341 42.274015, -105.807711 42.274387, -105.816081 42.274758, -105.824451 42.275128, -105.832822 42.275498, -105.841192 42.275867, -105.849562 42.276236, -105.857933 42.276604, -105.866303 42.276971, -105.874674 42.277338, -105.883045 42.277704, -105.891416 42.278069, -105.899787 42.278434, -105.908158 42.278798, -105.916529 42.279162, -105.924901 42.279525, -105.933272 42.279888, -105.941643 42.280250, -105.950015 42.280611, -105.958387 42.280971, -105.966758 42.281331, -105.975130 42.281691, -105.983502 42.282050, -105.991874 42.282408, -106.000247 42.282766, -106.008619 42.283123, -106.016991 42.283479, -106.025364 42.283835, -106.033736 42.284190, -106.042109 42.284544, -106.050481 42.284898, -106.058854 42.285252, -106.067227 42.285604, -106.075600 42.285957, -106.083973 42.286308, -106.092347 42.286659, -106.100720 42.287009, -106.109093 42.287359, -106.117467 42.287708, -106.125840 42.288056, -106.134214 42.288404, -106.142588 42.288752, -106.150962 42.289098, -106.159335 42.289444, -106.167709 42.289790, -106.176084 42.290134, -106.184458 42.290479, -106.192832 42.290822, -106.201207 42.291165, -106.209581 42.291508, -106.217956 42.291849, -106.226330 42.292190, -106.234705 42.292531, -106.243080 42.292871, -106.251455 42.293210, -106.259830 42.293549, -106.268205 42.293887, -106.276580 42.294225, -106.284955 42.294562, -106.293331 42.294898, -106.301706 42.295233, -106.310082 42.295569, -106.318458 42.295903, -106.326833 42.296237, -106.335209 42.296570, -106.343585 42.296903, -106.351961 42.297235, -106.360337 42.297566, -106.368713 42.297897, -106.377090 42.298227, -106.385466 42.298557, -106.393842 42.298886, -106.402219 42.299214, -106.410596 42.299542, -106.418972 42.299869, -106.427349 42.300195, -106.435726 42.300521, -106.444103 42.300847, -106.452480 42.301171, -106.460857 42.301495, -106.469234 42.301819, -106.477612 42.302142, -106.485989 42.302464, -106.494367 42.302786, -106.502744 42.303107, -106.511122 42.303427, -106.519500 42.303747, -106.527877 42.304066, -106.536255 42.304385, -106.544633 42.304703, -106.553011 42.305020, -106.561390 42.305337, -106.569768 42.305653, -106.578146 42.305969, -106.586525 42.306284, -106.594903 42.306598, -106.603282 42.306912, -106.611660 42.307225, -106.620039 42.307537, -106.628418 42.307849, -106.636797 42.308160, -106.645176 42.308471, -106.653555 42.308781, -106.661934 42.309091, -106.670313 42.309399, -106.678693 42.309708, -106.687072 42.310015, -106.695452 42.310322, -106.703831 42.310629, -106.712211 42.310934, -106.720591 42.311240, -106.728970 42.311544, -106.737350 42.311848, -106.745730 42.312151, -106.754110 42.312454, -106.762491 42.312756, -106.770871 42.313058, -106.779251 42.313359, -106.787631 42.313659, -106.796012 42.313959, -106.804392 42.314258, -106.812773 42.314556, -106.821154 42.314854, -106.829535 42.315151, -106.837915 42.315448, -106.846296 42.315744, -106.854677 42.316040, -106.863058 42.316334, -106.871440 42.316629, -106.879821 42.316922, -106.888202 42.317215, -106.896584 42.317507, -106.904965 42.317799, -106.913347 42.318090, -106.921728 42.318381, -106.930110 42.318671, -106.938492 42.318960, -106.946874 42.319249, -106.955256 42.319537, -106.963638 42.319824, -106.972020 42.320111, -106.980402 42.320398, -106.988784 42.320683, -106.997167 42.320968, -107.005549 42.321253, -107.013932 42.321536, -107.022314 42.321820, -107.030697 42.322102, -107.039079 42.322384, -107.047462 42.322666, -107.055845 42.322946, -107.064228 42.323227, -107.072611 42.323506, -107.080994 42.323785, -107.089377 42.324063, -107.097761 42.324341, -107.106144 42.324618, -107.114527 42.324895, -107.122911 42.325171, -107.131294 42.325446, -107.139678 42.325721, -107.148062 42.325995, -107.156445 42.326268, -107.164829 42.326541, -107.173213 42.326813, -107.181597 42.327085, -107.189981 42.327356, -107.198365 42.327626, -107.206749 42.327896, -107.215134 42.328165, -107.223518 42.328434, -107.231902 42.328701, -107.240287 42.328969, -107.248671 42.329236, -107.257056 42.329502, -107.265441 42.329767, -107.273825 42.330032, -107.282210 42.330296, -107.290595 42.330560, -107.298980 42.330823, -107.307365 42.331085, -107.315750 42.331347, -107.324135 42.331609, -107.332521 42.331869, -107.340906 42.332129, -107.349291 42.332389, -107.357677 42.332647, -107.366062 42.332906, -107.374448 42.333163, -107.382833 42.333420, -107.391219 42.333676, -107.399605 42.333932, -107.407991 42.334187, -107.416377 42.334442, -107.424763 42.334696, -107.433149 42.334949, -107.441535 42.335202, -107.449921 42.335454, -107.458307 42.335705, -107.466694 42.335956, -107.475080 42.336206, -107.483467 42.336456, -107.491853 42.336705, -107.500240 42.336953, -107.508626 42.337201, -107.517013 42.337448, -107.525400 42.337695, -107.533787 42.337941, -107.542174 42.338186, -107.550561 42.338431, -107.558948 42.338675, -107.567335 42.338918, -107.575722 42.339161, -107.584109 42.339403, -107.592497 42.339645, -107.600884 42.339886, -107.609272 42.340127, -107.617659 42.340366, -107.626047 42.340606, -107.634434 42.340844, -107.642822 42.341082, -107.651210 42.341320, -107.659598 42.341556, -107.667986 42.341793, -107.676373 42.342028, -107.684762 42.342263, -107.693150 42.342497, -107.701538 42.342731, -107.709926 42.342964, -107.718314 42.343197, -107.726703 42.343429, -107.735091 42.343660, -107.743479 42.343891, -107.751868 42.344121, -107.760256 42.344350, -107.768645 42.344579, -107.777034 42.344807, -107.785423 42.345035, -107.793811 42.345262, -107.802200 42.345488, -107.810589 42.345714, -107.818978 42.345939, -107.827367 42.346164, -107.835756 42.346388, -107.844146 42.346611, -107.852535 42.346834, -107.860924 42.347056, -107.869314 42.347277, -107.877703 42.347498, -107.886092 42.347718, -107.894482 42.347938, -107.902872 42.348157, -107.911261 42.348375, -107.919651 42.348593, -107.928041 42.348811, -107.936430 42.349027, -107.944820 42.349243, -107.953210 42.349458, -107.961600 42.349673, -107.969990 42.349887, -107.978380 42.350101, -107.986771 42.350314, -107.995161 42.350526, -108.003551 42.350738, -108.011942 42.350949, -108.020332 42.351159, -108.028722 42.351369, -108.037113 42.351579, -108.045503 42.351787, -108.053894 42.351995, -108.062285 42.352203, -108.070675 42.352410, -108.079066 42.352616, -108.087457 42.352821, -108.095848 42.353026, -108.104239 42.353231, -108.112630 42.353434, -108.121021 42.353638, -108.129412 42.353840, -108.137803 42.354042, -108.146195 42.354243, -108.154586 42.354444, -108.162977 42.354644, -108.171369 42.354844, -108.179760 42.355042, -108.188151 42.355241, -108.196543 42.355438, -108.204935 42.355635, -108.213326 42.355832, -108.221718 42.356028, -108.230110 42.356223, -108.238501 42.356417, -108.246893 42.356611, -108.255285 42.356805, -108.263677 42.356997, -108.272069 42.357189, -108.280461 42.357381, -108.288853 42.357572, -108.297246 42.357762, -108.305638 42.357952, -108.314030 42.358141, -108.322422 42.358329, -108.330815 42.358517, -108.339207 42.358704, -108.347600 42.358891, -108.355992 42.359077, -108.364385 42.359262, -108.372777 42.359447, -108.381170 42.359631, -108.389563 42.359815, -108.397955 42.359998, -108.406348 42.360180, -108.414741 42.360362, -108.423134 42.360543, -108.431527 42.360724, -108.439920 42.360903, -108.448313 42.361083, -108.456706 42.361261, -108.465099 42.361439, -108.473492 42.361617, -108.481886 42.361794, -108.490279 42.361970, -108.498672 42.362146, -108.507066 42.362321, -108.515459 42.362495, -108.523853 42.362669, -108.532246 42.362842, -108.540640 42.363014, -108.549033 42.363186, -108.557427 42.363358, -108.565821 42.363528, -108.574214 42.363698, -108.582608 42.363868, -108.591002 42.364037, -108.599396 42.364205, -108.607790 42.364373, -108.616184 42.364540, -108.624578 42.364706, -108.632972 42.364872, -108.641366 42.365037, -108.649760 42.365202, -108.658154 42.365366, -108.666549 42.365529, -108.674943 42.365692, -108.683337 42.365854, -108.691732 42.366015, -108.700126 42.366176, -108.708521 42.366337, -108.716915 42.366496, -108.725310 42.366655, -108.733704 42.366814, -108.742099 42.366972, -108.750493 42.367129, -108.758888 42.367286, -108.767283 42.367442, -108.775678 42.367597, -108.784073 42.367752, -108.792467 42.367906, -108.800862 42.368059, -108.809257 42.368212, -108.817652 42.368365, -108.826047 42.368516, -108.834442 42.368668, -108.842838 42.368818, -108.851233 42.368968, -108.859628 42.369117, -108.868023 42.369266, -108.876418 42.369414, -108.884814 42.369561, -108.893209 42.369708, -108.901605 42.369854, -108.910000 42.370000, -108.916115 42.365771, -108.922230 42.361541, -108.928344 42.357311, -108.934457 42.353080, -108.940569 42.348850, -108.946680 42.344619, -108.952791 42.340387, -108.958900 42.336156, -108.965009 42.331924, -108.971117 42.327692, -108.977225 42.323459, -108.983331 42.319226, -108.989437 42.314993, -108.995541 42.310759, -109.001645 42.306525, -109.007748 42.302291, -109.013851 42.298056, -109.019952 42.293821, -109.026053 42.289586, -109.032153 42.285351, -109.038252 42.281115, -109.044350 42.276879, -109.050447 42.272642, -109.056544 42.268405, -109.062639 42.264168, -109.068734 42.259931, -109.074828 42.255693, -109.080922 42.251455, -109.087014 42.247216, -109.093106 42.242977, -109.099197 42.238738, -109.105287 42.234499, -109.111376 42.230259, -109.117464 42.226019, -109.123552 42.221779, -109.129638 42.217538, -109.135724 42.213297, -109.141809 42.209056, -109.147894 42.204814, -109.153977 42.200572, -109.160060 42.196330, -109.166142 42.192087, -109.172223 42.187844, -109.178303 42.183601, -109.184382 42.179357, -109.190461 42.175113, -109.196538 42.170869, -109.202615 42.166624, -109.208691 42.162380, -109.214767 42.158134, -109.220841 42.153889, -109.226915 42.149643, -109.232988 42.145397, -109.239060 42.141150, -109.245131 42.136904, -109.251201 42.132656, -109.257271 42.128409, -109.263340 42.124161, -109.269408 42.119913, -109.275475 42.115665, -109.281541 42.111416, -109.287607 42.107167, -109.293671 42.102918, -109.299735 42.098668, -109.305798 42.094418, -109.311861 42.090168, -109.317922 42.085917, -109.323983 42.081666, -109.330043 42.077415, -109.336102 42.073163, -109.342160 42.068911, -109.348217 42.064659, -109.354274 42.060406, -109.360330 42.056154, -109.366385 42.051900, -109.372439 42.047647, -109.378492 42.043393, -109.384545 42.039139, -109.390596 42.034884, -109.396647 42.030630, -109.402697 42.026375, -109.408747 42.022119, -109.414795 42.017863, -109.420843 42.013607, -109.426890 42.009351, -109.432936 42.005094, -109.438981 42.000837, -109.445026 41.996580, -109.451069 41.992322, -109.457112 41.988064, -109.463154 41.983806, -109.469195 41.979548, -109.475236 41.975289, -109.481275 41.971029, -109.487314 41.966770, -109.493352 41.962510, -109.499389 41.958250, -109.505425 41.953989, -109.511461 41.949729, -109.517496 41.945467, -109.523530 41.941206, -109.529563 41.936944, -109.535595 41.932682, -109.541627 41.928420, -109.547657 41.924157, -109.553687 41.919894, -109.559716 41.915631, -109.565745 41.911367, -109.571772 41.907103, -109.577799 41.902839, -109.583825 41.898574, -109.589850 41.894309, -109.595874 41.890044, -109.601898 41.885779, -109.607920 41.881513, -109.613942 41.877247, -109.619963 41.872980, -109.625983 41.868713, -109.632003 41.864446, -109.638022 41.860179, -109.644039 41.855911, -109.650056 41.851643, -109.656073 41.847375, -109.662088 41.843106, -109.668103 41.838837, -109.674117 41.834568, -109.680130 41.830298, -109.686142 41.826028, -109.692153 41.821758, -109.698164 41.817487, -109.704174 41.813217, -109.710183 41.808945, -109.716191 41.804674, -109.722198 41.800402, -109.728205 41.796130, -109.734211 41.791858, -109.740216 41.787585, -109.746220 41.783312, -109.752223 41.779038, -109.758226 41.774765, -109.764228 41.770491, -109.770229 41.766216, -109.776229 41.761942, -109.782228 41.757667, -109.788227 41.753392, -109.794225 41.749116, -109.800222 41.744840, -109.806218 41.740564, -109.812214 41.736288, -109.818208 41.732011, -109.824202 41.727734, -109.830195 41.723456, -109.836187 41.719178, -109.842179 41.714900, -109.848169 41.710622, -109.854159 41.706343, -109.860148 41.702064, -109.866136 41.697785, -109.872124 41.693505, -109.878110 41.689226, -109.884096 41.684945, -109.890081 41.680665, -109.896066 41.676384, -109.902049 41.672103, -109.908032 41.667821, -109.914014 41.663540, -109.919995 41.659257, -109.925975 41.654975, -109.931954 41.650692, -109.937933 41.646409, -109.943911 41.642126, -109.949888 41.637842, -109.955864 41.633558, -109.961840 41.629274, -109.967815 41.624990, -109.973789 41.620705, -109.979762 41.616420, -109.985734 41.612134, -109.991706 41.607848, -109.997676 41.603562, -110.003646 41.599276, -110.009615 41.594989, -110.015584 41.590702, -110.021551 41.586415, -110.027518 41.582127, -110.033484 41.577839, -110.039449 41.573551, -110.045414 41.569262, -110.051377 41.564973, -110.057340 41.560684, -110.063302 41.556395, -110.069264 41.552105, -110.075224 41.547815, -110.081184 41.543524, -110.087143 41.539233, -110.093101 41.534942, -110.099058 41.530651, -110.105014 41.526359, -110.110970 41.522067, -110.116925 41.517775, -110.122879 41.513483, -110.128832 41.509190, -110.134785 41.504896, -110.140737 41.500603, -110.146688 41.496309, -110.152638 41.492015, -110.158587 41.487721, -110.164536 41.483426, -110.170484 41.479131, -110.176431 41.474836, -110.182377 41.470540, -110.188322 41.466244, -110.194267 41.461948, -110.200211 41.457651, -110.206154 41.453354, -110.212096 41.449057, -110.218038 41.444760, -110.223979 41.440462, -110.229918 41.436164, -110.235858 41.431865, -110.241796 41.427567, -110.247734 41.423268, -110.253670 41.418968, -110.259606 41.414669, -110.265542 41.410369, -110.271476 41.406069, -110.277410 41.401768, -110.283343 41.397467, -110.289275 41.393166, -110.295206 41.388865, -110.301136 41.384563, -110.307066 41.380261, -110.312995 41.375958, -110.318923 41.371656, -110.324851 41.367353, -110.330777 41.363049, -110.336703 41.358746, -110.342628 41.354442, -110.348552 41.350138, -110.354476 41.345833, -110.360398 41.341529, -110.366320 41.337223, -110.372241 41.332918, -110.378162 41.328612, -110.384081 41.324306, -110.390000 41.320000, -110.397415 41.317303, -110.404830 41.314605, -110.412244 41.311906, -110.419657 41.309208, -110.427070 41.306508, -110.434482 41.303809, -110.441894 41.301108, -110.449305 41.298408, -110.456715 41.295706, -110.464125 41.293005, -110.471534 41.290303, -110.478942 41.287600, -110.486350 41.284897, -110.493757 41.282193, -110.501164 41.279489, -110.508570 41.276785, -110.515975 41.274080, -110.523380 41.271374, -110.530784 41.268669, -110.538188 41.265962, -110.545591 41.263255, -110.552993 41.260548, -110.560395 41.257840, -110.567796 41.255132, -110.575196 41.252423, -110.582596 41.249714, -110.589995 41.247004, -110.597394 41.244294, -110.604792 41.241583, -110.612189 41.238872, -110.619586 41.236160, -110.626982 41.233448, -110.634378 41.230736, -110.641773 41.228023, -110.649167 41.225309, -110.656561 41.222595, -110.663954 41.219881, -110.671347 41.217166, -110.678739 41.214450, -110.686130 41.211735, -110.693521 41.209018, -110.700911 41.206301, -110.708300 41.203584, -110.715689 41.200866, -110.723077 41.198148, -110.730465 41.195429, -110.737852 41.192710, -110.745238 41.189991, -110.752624 41.187270, -110.760009 41.184550, -110.767393 41.181829, -110.774777 41.179107, -110.782161 41.176385, -110.789543 41.173663, -110.796925 41.170940, -110.804307 41.168216, -110.811688 41.165493, -110.819068 41.162768, -110.826448 41.160043, -110.833827 41.157318, -110.841205 41.154592, -110.848583 41.151866, -110.855960 41.149139, -110.863336 41.146412, -110.870712 41.143684, -110.878088 41.140956, -110.885462 41.138228, -110.892837 41.135499, -110.900210 41.132769, -110.907583 41.130039, -110.914955 41.127309, -110.922327 41.124578, -110.929698 41.121846, -110.937068 41.119114, -110.944438 41.116382, -110.951807 41.113649, -110.959176 41.110916, -110.966544 41.108182, -110.973911 41.105448, -110.981278 41.102713, -110.988644 41.099978, -110.996009 41.097242, -111.003374 41.094506, -111.010739 41.091770, -111.018102 41.089033, -111.025465 41.086295, -111.032828 41.083557, -111.040190 41.080819, -111.047551 41.078080, -111.054911 41.075340, -111.062271 41.072600, -111.069631 41.069860, -111.076990 41.067119, -111.084348 41.064378, -111.091705 41.061636, -111.099062 41.058894, -111.106418 41.056151, -111.113774 41.053408, -111.121129 41.050665, -111.128484 41.047921, -111.135838 41.045176, -111.143191 41.042431, -111.150543 41.039686, -111.157895 41.036940, -111.165247 41.034193, -111.172598 41.031446, -111.179948 41.028699, -111.187297 41.025951, -111.194646 41.023203, -111.201995 41.020454, -111.209342 41.017705, -111.216689 41.014955, -111.224036 41.012205, -111.231382 41.009454, -111.238727 41.006703, -111.246072 41.003952, -111.253416 41.001200, -111.260759 40.998447, -111.268102 40.995694, -111.275444 40.992941, -111.282786 40.990187, -111.290127 40.987433, -111.297467 40.984678, -111.304807 40.981923, -111.312146 40.979167, -111.319484 40.976411, -111.326822 40.973654, -111.334160 40.970897, -111.341496 40.968139, -111.348832 40.965381, -111.356168 40.962623, -111.363503 40.959864, -111.370837 40.957104, -111.378171 40.954344, -111.385504 40.951584, -111.392836 40.948823, -111.400168 40.946062, -111.407499 40.943300, -111.414829 40.940538, -111.422159 40.937775, -111.429489 40.935012, -111.436817 40.932248, -111.444145 40.929484, -111.451473 40.926720, -111.458800 40.923955, -111.466126 40.921189, -111.473452 40.918423, -111.480777 40.915657, -111.488101 40.912890, -111.495425 40.910122, -111.502748 40.907355, -111.510071 40.904586, -111.517393 40.901818, -111.524714 40.899048, -111.532035 40.896279, -111.539355 40.893509, -111.546674 40.890738, -111.553993 40.887967, -111.561312 40.885196, -111.568629 40.882424, -111.575946 40.879651, -111.583263 40.876878, -111.590579 40.874105, -111.597894 40.871331, -111.605208 40.868557, -111.612522 40.865782, -111.619836 40.863007, -111.627149 40.860231, -111.634461 40.857455, -111.641772 40.854678, -111.649083 40.851901, -111.656393 40.849124, -111.663703 40.846346, -111.671012 40.843567, -111.678321 40.840788, -111.685629 40.838009, -111.692936 40.835229, -111.700242 40.832449, -111.707549 40.829668, -111.714854 40.826887, -111.722159 40.824105, -111.729463 40.821323, -111.736766 40.818541, -111.744069 40.815758, -111.751372 40.812974, -111.758674 40.810190, -111.765975 40.807406, -111.773275 40.804621, -111.780575 40.801835, -111.787874 40.799050, -111.795173 40.796263, -111.802471 40.793477, -111.809769 40.790689, -111.817065 40.787902, -111.824362 40.785114, -111.831657 40.782325, -111.838952 40.779536, -111.846247 40.776747, -111.853540 40.773957, -111.860833 40.771166, -111.868126 40.768375, -111.875418 40.765584, -111.882709 40.762792, -111.890000 40.760000, -111.895622 40.755521, -111.901243 40.751042, -111.906864 40.746563, -111.912483 40.742084, -111.918102 40.737604, -111.923721 40.733124, -111.929338 40.728644, -111.934955 40.724163, -111.940571 40.719682, -111.946186 40.715201, -111.951800 40.710720, -111.957414 40.706238, -111.963027 40.701756, -111.968639 40.697274, -111.974250 40.692792, -111.979861 40.688309, -111.985471 40.683826, -111.991080 40.679343, -111.996688 40.674859, -112.002296 40.670375, -112.007903 40.665891, -112.013509 40.661407, -112.019114 40.656922, -112.024719 40.652437, -112.030323 40.647952, -112.035926 40.643467, -112.041528 40.638981, -112.047130 40.634495, -112.052731 40.630009, -112.058331 40.625522, -112.063930 40.621035, -112.069529 40.616548, -112.075127 40.612061, -112.080724 40.607573, -112.086320 40.603086, -112.091916 40.598597, -112.097510 40.594109, -112.103104 40.589620, -112.108698 40.585131, -112.114290 40.580642, -112.119882 40.576153, -112.125473 40.571663, -112.131064 40.567173, -112.136653 40.562683, -112.142242 40.558192, -112.147830 40.553701, -112.153417 40.549210, -112.159004 40.544719, -112.164590 40.540227, -112.170175 40.535735, -112.175759 40.531243, -112.181343 40.526750, -112.186926 40.522258, -112.192508 40.517765, -112.198089 40.513272, -112.203670 40.508778, -112.209249 40.504284, -112.214828 40.499790, -112.220407 40.495296, -112.225984 40.490801, -112.231561 40.486306, -112.237137 40.481811, -112.242713 40.477316, -112.248287 40.472820, -112.253861 40.468324, -112.259434 40.463828, -112.265007 40.459331, -112.270578 40.454835, -112.276149 40.450338, -112.281719 40.445840, -112.287289 40.441343, -112.292857 40.436845, -112.298425 40.432347, -112.303992 40.427849, -112.309559 40.423350, -112.315124 40.418851, -112.320689 40.414352, -112.326254 40.409853, -112.331817 40.405353, -112.337380 40.400853, -112.342942 40.396353, -112.348503 40.391852, -112.354063 40.387351, -112.359623 40.382850, -112.365182 40.378349, -112.370740 40.373848, -112.376298 40.369346, -112.381854 40.364844, -112.387410 40.360341, -112.392966 40.355839, -112.398520 40.351336, -112.404074 40.346833, -112.409627 40.342329, -112.415179 40.337826, -112.420731 40.333322, -112.426282 40.328818, -112.431832 40.324313, -112.437381 40.319808, -112.442930 40.315303, -112.448477 40.310798, -112.454025 40.306293, -112.459571 40.301787, -112.465117 40.297281, -112.470661 40.292774, -112.476206 40.288268, -112.481749 40.283761, -112.487292 40.279254, -112.492834 40.274746, -112.498375 40.270239, -112.503915 40.265731, -112.509455 40.261223, -112.514994 40.256714, -112.520532 40.252206, -112.526070 40.247697, -112.531606 40.243187, -112.537142 40.238678, -112.542678 40.234168, -112.548212 40.229658, -112.553746 40.225148, -112.559279 40.220637, -112.564812 40.216126, -112.570343 40.211615, -112.575874 40.207104, -112.581404 40.202592, -112.586934 40.198080, -112.592462 40.193568, -112.597990 40.189056, -112.603517 40.184543, -112.609044 40.180030, -112.614569 40.175517, -112.620094 40.171004, -112.625619 40.166490, -112.631142 40.161976, -112.636665 40.157462, -112.642187 40.152947, -112.647708 40.148433, -112.653229 40.143918, -112.658749 40.139402, -112.664268 40.134887, -112.669786 40.130371, -112.675304 40.125855, -112.680821 40.121339, -112.686337 40.116822, -112.691852 40.112305, -112.697367 40.107788, -112.702881 40.103271, -112.708394 40.098753, -112.713907 40.094235, -112.719419 40.089717, -112.724930 40.085199, -112.730440 40.080680, -112.735950 40.076161, -112.741458 40.071642, -112.746967 40.067122, -112.752474 40.062603, -112.757981 40.058083, -112.763487 40.053562, -112.768992 40.049042, -112.774496 40.044521, -112.780000 40.040000, -112.787932 40.038771, -112.795863 40.037542, -112.803794 40.036312, -112.811725 40.035081, -112.819655 40.033850, -112.827585 40.032619, -112.835515 40.031387, -112.843445 40.030154, -112.851374 40.028921, -112.859303 40.027687, -112.867232 40.026453, -112.875160 40.025218, -112.883088 40.023983, -112.891016 40.022747, -112.898944 40.021510, -112.906871 40.020273, -112.914798 40.019036, -112.922725 40.017798, -112.930651 40.016559, -112.938577 40.015320, -112.946503 40.014080, -112.954429 40.012840, -112.962354 40.011599, -112.970279 40.010358, -112.978204 40.009116, -112.986128 40.007874, -112.994052 40.006631, -113.001976 40.005387, -113.009899 40.004143, -113.017823 40.002899, -113.025746 40.001654, -113.033668 40.000408, -113.041591 39.999162, -113.049513 39.997915, -113.057435 39.996668, -113.065356 39.995420, -113.073277 39.994172, -113.081198 39.992923, -113.089119 39.991674, -113.097039 39.990424, -113.104959 39.989173, -113.112879 39.987922, -113.120799 39.986671, -113.128718 39.985419, -113.136637 39.984166, -113.144555 39.982913, -113.152474 39.981659, -113.160392 39.980405, -113.168309 39.979150, -113.176227 39.977895, -113.184144 39.976639, -113.192061 39.975383, -113.199977 39.974126, -113.207894 39.972868, -113.215810 39.971610, -113.223725 39.970352, -113.231641 39.969093, -113.239556 39.967833, -113.247471 39.966573, -113.255385 39.965312, -113.263299 39.964051, -113.271213 39.962789, -113.279127 39.961527, -113.287040 39.960264, -113.294954 39.959000, -113.302866 39.957737, -113.310779 39.956472, -113.318691 39.955207, -113.326603 39.953942, -113.334515 39.952675, -113.342426 39.951409, -113.350337 39.950142, -113.358248 39.948874, -113.366158 39.947606, -113.374068 39.946337, -113.381978 39.945068, -113.389888 39.943798, -113.397797 39.942527, -113.405706 39.941256, -113.413615 39.939985, -113.421523 39.938713, -113.429431 39.937441, -113.437339 39.936167, -113.445246 39.934894, -113.453153 39.933620, -113.461060 39.932345, -113.468967 39.931070, -113.476873 39.929794, -113.484779 39.928518, -113.492685 39.927241, -113.500591 39.925964, -113.508496 39.924686, -113.516401 39.923407, -113.524305 39.922128, -113.532209 39.920849, -113.540113 39.919569, -113.548017 39.918288, -113.555920 39.917007, -113.563823 39.915725, -113.571726 39.914443, -113.579629 39.913160, -113.587531 39.911877, -113.595433 39.910593, -113.603334 39.909309, -113.611236 39.908024, -113.619137 39.906739, -113.627037 39.905453, -113.634938 39.904166, -113.642838 39.902879, -113.650738 39.901592, -113.658637 39.900304, -113.666536 39.899015, -113.674435 39.897726, -113.682334 39.896436, -113.690232 39.895146, -113.698130 39.893855, -113.706028 39.892564, -113.713926 39.891272, -113.721823 39.889980, -113.729720 39.888687, -113.737616 39.887393, -113.745512 39.886099, -113.753408 39.884805, -113.761304 39.883510, -113.769199 39.882214, -113.777094 39.880918, -113.784989 39.879621, -113.792884 39.878324, -113.800778 39.877026, -113.808672 39.875728, -113.816565 39.874429, -113.824458 39.873130, -113.832351 39.871830, -113.840244 39.870530, -113.848136 39.869229, -113.856028 39.867927, -113.863920 39.866625, -113.871812 39.865323, -113.879703 39.864019, -113.887594 39.862716, -113.895484 39.861412, -113.903374 39.860107, -113.911264 39.858802, -113.919154 39.857496, -113.927043 39.856190, -113.934933 39.854883, -113.942821 39.853576, -113.950710 39.852268, -113.958598 39.850959, -113.966486 39.849650, -113.974373 39.848341, -113.982261 39.847031, -113.990148 39.845720, -113.998034 39.844409, -114.005921 39.843097, -114.013807 39.841785, -114.021692 39.840473, -114.029578 39.839159, -114.037463 39.837846, -114.045348 39.836531, -114.053232 39.835216, -114.061117 39.833901, -114.069001 39.832585, -114.076884 39.831269, -114.084768 39.829952, -114.092651 39.828634, -114.100533 39.827316, -114.108416 39.825998, -114.116298 39.824679, -114.124180 39.823359, -114.132061 39.822039, -114.139942 39.820718, -114.147823 39.819397, -114.155704 39.818075, -114.163584 39.816753, -114.171464 39.815430, -114.179344 39.814107, -114.187223 39.812783, -114.195102 39.811458, -114.202981 39.810133, -114.210860 39.808808, -114.218738 39.807482, -114.226616 39.806155, -114.234493 39.804828, -114.242371 39.803500, -114.250248 39.802172, -114.258124 39.800844, -114.266001 39.799514, -114.273877 39.798185, -114.281752 39.796854, -114.289628 39.795523, -114.297503 39.794192, -114.305378 39.792860, -114.313252 39.791528, -114.321127 39.790195, -114.329001 39.788861, -114.336874 39.787527, -114.344747 39.786193, -114.352621 39.784858, -114.360493 39.783522, -114.368366 39.782186, -114.376238 39.780849, -114.384109 39.779512, -114.391981 39.778174, -114.399852 39.776836, -114.407723 39.775497, -114.415594 39.774158, -114.423464 39.772818, -114.431334 39.771478, -114.439203 39.770137, -114.447073 39.768795, -114.454942 39.767453, -114.462810 39.766111, -114.470679 39.764768, -114.478547 39.763424, -114.486415 39.762080, -114.494282 39.760735, -114.502149 39.759390, -114.510016 39.758044, -114.517883 39.756698, -114.525749 39.755351, -114.533615 39.754004, -114.541481 39.752656, -114.549346 39.751308, -114.557211 39.749959, -114.565076 39.748609, -114.572940 39.747259, -114.580804 39.745909, -114.588668 39.744558, -114.596532 39.743206, -114.604395 39.741854, -114.612258 39.740502, -114.620120 39.739149, -114.627982 39.737795, -114.635844 39.736441, -114.643706 39.735086, -114.651567 39.733731, -114.659428 39.732375, -114.667289 39.731019, -114.675150 39.729662, -114.683010 39.728304, -114.690869 39.726946, -114.698729 39.725588, -114.706588 39.724229, -114.714447 39.722869, -114.722305 39.721509, -114.730164 39.720149, -114.738022 39.718788, -114.745879 39.717426, -114.753736 39.716064, -114.761593 39.714701, -114.769450 39.713338, -114.777306 39.711974, -114.785163 39.710610, -114.793018 39.709245, -114.800874 39.707880, -114.808729 39.706514, -114.816584 39.705148, -114.824438 39.703781, -114.832292 39.702413, -114.840146 39.701045, -114.848000 39.699677, -114.855853 39.698308, -114.863706 39.696938, -114.871559 39.695568, -114.879411 39.694198, -114.887263 39.692826, -114.895115 39.691455, -114.902966 39.690082, -114.910817 39.688710, -114.918668 39.687336, -114.926518 39.685963, -114.934368 39.684588, -114.942218 39.683214, -114.950068 39.681838, -114.957917 39.680462, -114.965766 39.679086, -114.973614 39.677709, -114.981463 39.676331, -114.989311 39.674953, -114.997158 39.673575, -115.005006 39.672196, -115.012853 39.670816, -115.020699 39.669436, -115.028546 39.668055, -115.036392 39.666674, -115.044238 39.665292, -115.052083 39.663910, -115.059928 39.662527, -115.067773 39.661144, -115.075617 39.659760, -115.083462 39.658376, -115.091305 39.656991, -115.099149 39.655606, -115.106992 39.654220, -115.114835 39.652833, -115.122678 39.651446, -115.130520 39.650059, -115.138362 39.648671, -115.146204 39.647282, -115.154045 39.645893, -115.161886 39.644503, -115.169727 39.643113, -115.177567 39.641722, -115.185407 39.640331, -115.193247 39.638939, -115.201087 39.637547, -115.208926 39.636154, -115.216765 39.634761, -115.224603 39.633367, -115.232441 39.631973, -115.240279 39.630578, -115.248117 39.629183, -115.255954 39.627787, -115.263791 39.626390, -115.271627 39.624993, -115.279464 39.623596, -115.287300 39.622197, -115.295135 39.620799, -115.302971 39.619400, -115.310806 39.618000, -115.318641 39.616600, -115.326475 39.615199, -115.334309 39.613798, -115.342143 39.612396, -115.349976 39.610994, -115.357809 39.609591, -115.365642 39.608188, -115.373475 39.606784, -115.381307 39.605380, -115.389139 39.603975, -115.396970 39.602569, -115.404801 39.601163, -115.412632 39.599757, -115.420463 39.598350, -115.428293 39.596942, -115.436123 39.595534, -115.443953 39.594126, -115.451782 39.592717, -115.459611 39.591307, -115.467440 39.589897, -115.475268 39.588486, -115.483096 39.587075, -115.490924 39.585663, -115.498751 39.584251, -115.506578 39.582838, -115.514405 39.581425, -115.522232 39.580011, -115.530058 39.578597, -115.537883 39.577182, -115.545709 39.575766, -115.553534 39.574350, -115.561359 39.572934, -115.569183 39.571517, -115.577008 39.570100, -115.584832 39.568682, -115.592655 39.567263, -115.600478 39.565844, -115.608301 39.564424, -115.616124 39.563004, -115.623946 39.561584, -115.631768 39.560162, -115.639590 39.558741, -115.647411 39.557318, -115.655232 39.555896, -115.663053 39.554472, -115.670873 39.553049, -115.678693 39.551624, -115.686513 39.550199, -115.694332 39.548774, -115.702151 39.547348, -115.709970 39.545922, -115.717789 39.544495, -115.725607 39.543067, -115.733424 39.541639, -115.741242 39.540211, -115.749059 39.538782, -115.756876 39.537352, -115.764692 39.535922, -115.772509 39.534492, -115.780324 39.533060, -115.788140 39.531629, -115.795955 39.530197, -115.803770 39.528764, -115.811585 39.527331, -115.819399 39.525897, -115.827213 39.524463, -115.835026 39.523028, -115.842840 39.521592, -115.850653 39.520157, -115.858465 39.518720, -115.866278 39.517283, -115.874090 39.515846, -115.881901 39.514408, -115.889713 39.512970, -115.897524 39.511531, -115.905334 39.510091, -115.913145 39.508651, -115.920955 39.507211, -115.928764 39.505769, -115.936574 39.504328, -115.944383 39.502886, -115.952192 39.501443, -115.960000 39.500000, -115.968007 39.499419, -115.976014 39.498837, -115.984021 39.498255, -115.992028 39.497672, -116.000035 39.497089, -116.008041 39.496505, -116.016047 39.495920, -116.024054 39.495335, -116.032060 39.494750, -116.040066 39.494164, -116.048071 39.493577, -116.056077 39.492990, -116.064083 39.492402, -116.072088 39.491814, -116.080093 39.491225, -116.088099 39.490635, -116.096104 39.490045, -116.104108 39.489455, -116.112113 39.488864, -116.120118 39.488272, -116.128122 39.487680, -116.136127 39.487087, -116.144131 39.486494, -116.152135 39.485900, -116.160139 39.485306, -116.168143 39.484711, -116.176146 39.484116, -116.184150 39.483520, -116.192153 39.482923, -116.200156 39.482326, -116.208159 39.481728, -116.216162 39.481130, -116.224165 39.480532, -116.232168 39.479932, -116.240170 39.479332, -116.248173 39.478732, -116.256175 39.478131, -116.264177 39.477530, -116.272179 39.476928, -116.280181 39.476325, -116.288183 39.475722, -116.296184 39.475118, -116.304186 39.474514, -116.312187 39.473909, -116.320188 39.473304, -116.328189 39.472698, -116.336190 39.472092, -116.344191 39.471485, -116.352192 39.470877, -116.360192 39.470269, -116.368192 39.469661, -116.376192 39.469051, -116.384193 39.468442, -116.392192 39.467831, -116.400192 39.467221, -116.408192 39.466609, -116.416191 39.465997, -116.424191 39.465385, -116.432190 39.464772, -116.440189 39.464158, -116.448188 39.463544, -116.456187 39.462930, -116.464185 39.462315, -116.472184 39.461699, -116.480182 39.461083, -116.488180 39.460466, -116.496178 39.459848, -116.504176 39.459230, -116.512174 39.458612, -116.520172 39.457993, -116.528169 39.457373, -116.536167 39.456753, -116.544164 39.456133, -116.552161 39.455511, -116.560158 39.454890, -116.568155 39.454267, -116.576151 39.453645, -116.584148 39.453021, -116.592144 39.452397, -116.600140 39.451773, -116.608136 39.451148, -116.616132 39.450522, -116.624128 39.449896, -116.632124 39.449269, -116.640119 39.448642, -116.648115 39.448014, -116.656110 39.447386, -116.664105 39.446757, -116.672100 39.446128, -116.680094 39.445498, -116.688089 39.444867, -116.696084 39.444236, -116.704078 39.443605, -116.712072 39.442972, -116.720066 39.442340, -116.728060 39.441706, -116.736054 39.441073, -116.744047 39.440438, -116.752041 39.439803, -116.760034 39.439168, -116.768027 39.438532, -116.776020 39.437895, -116.784013 39.437258, -116.792006 39.436621, -116.799999 39.435983, -116.807991 39.435344, -116.815983 39.434705, -116.823976 39.434065, -116.831968 39.433424, -116.839959 39.432783, -116.847951 39.432142, -116.855943 39.431500, -116.863934 39.430857, -116.871925 39.430214, -116.879916 39.429571, -116.887907 39.428927, -116.895898 39.428282, -116.903889 39.427637, -116.911879 39.426991, -116.919870 39.426344, -116.927860 39.425697, -116.935850 39.425050, -116.943840 39.424402, -116.951830 39.423753, -116.959820 39.423104, -116.967809 39.422455, -116.975798 39.421804, -116.983788 39.421154, -116.991777 39.420502, -116.999765 39.419850, -117.007754 39.419198, -117.015743 39.418545, -117.023731 39.417892, -117.031720 39.417238, -117.039708 39.416583, -117.047696 39.415928, -117.055684 39.415272, -117.063671 39.414616, -117.071659 39.413959, -117.079646 39.413302, -117.087633 39.412644, -117.095620 39.411986, -117.103607 39.411327, -117.111594 39.410667, -117.119581 39.410007, -117.127567 39.409347, -117.135554 39.408686, -117.143540 39.408024, -117.151526 39.407362, -117.159512 39.406699, -117.167497 39.406036, -117.175483 39.405372, -117.183468 39.404707, -117.191454 39.404042, -117.199439 39.403377, -117.207424 39.402711, -117.215409 39.402044, -117.223393 39.401377, -117.231378 39.400709, -117.239362 39.400041, -117.247346 39.399372, -117.255330 39.398703, -117.263314 39.398033, -117.271298 39.397363, -117.279282 39.396692, -117.287265 39.396020, -117.295248 39.395348, -117.303232 39.394676, -117.311214 39.394003, -117.319197 39.393329, -117.327180 39.392655, -117.335162 39.391980, -117.343145 39.391305, -117.351127 39.390629, -117.359109 39.389952, -117.367091 39.389275, -117.375073 39.388598, -117.383054 39.387920, -117.391036 39.387241, -117.399017 39.386562, -117.406998 39.385883, -117.414979 39.385202, -117.422960 39.384522, -117.430941 39.383840, -117.438921 39.383158, -117.446901 39.382476, -117.454882 39.381793, -117.462862 39.381110, -117.470841 39.380425, -117.478821 39.379741, -117.486801 39.379056, -117.494780 39.378370, -117.502759 39.377684, -117.510738 39.376997, -117.518717 39.376310, -117.526696 39.375622, -117.534675 39.374934, -117.542653 39.374245, -117.550632 39.373555, -117.558610 39.372865, -117.566588 39.372175, -117.574565 39.371483, -117.582543 39.370792, -117.590521 39.370100, -117.598498 39.369407, -117.606475 39.368713, -117.614452 39.368020, -117.622429 39.367325, -117.630406 39.366630, -117.638382 39.365935, -117.646359 39.365239, -117.654335 39.364542, -117.662311 39.363845, -117.670287 39.363147, -117.678263 39.362449, -117.686238 39.361750, -117.694214 39.361051, -117.702189 39.360351, -117.710164 39.359651, -117.718139 39.358950, -117.726114 39.358249, -117.734089 39.357547, -117.742063 39.356844, -117.750037 39.356141, -117.758012 39.355437, -117.765986 39.354733, -117.773959 39.354028, -117.781933 39.353323, -117.789907 39.352617, -117.797880 39.351911, -117.805853 39.351204, -117.813826 39.350497, -117.821799 39.349789, -117.829772 39.349080, -117.837744 39.348371, -117.845717 39.347661, -117.853689 39.346951, -117.861661 39.346240, -117.869633 39.345529, -117.877605 39.344817, -117.885576 39.344105, -117.893548 39.343392, -117.901519 39.342679, -117.909490 39.341965, -117.917461 39.341250, -117.925432 39.340535, -117.933402 39.339819, -117.941373 39.339103, -117.949343 39.338387, -117.957313 39.337669, -117.965283 39.336952, -117.973253 39.336233, -117.981223 39.335514, -117.989192 39.334795, -117.997161 39.334075, -118.005130 39.333354, -118.013099 39.332633, -118.021068 39.331912, -118.029037 39.331190, -118.037005 39.330467, -118.044974 39.329744, -118.052942 39.329020, -118.060910 39.328296, -118.068877 39.327571, -118.076845 39.326845, -118.084813 39.326120, -118.092780 39.325393, -118.100747 39.324666, -118.108714 39.323938, -118.116681 39.323210, -118.124648 39.322482, -118.132614 39.321753, -118.140580 39.321023, -118.148546 39.320293, -118.156512 39.319562, -118.164478 39.318830, -118.172444 39.318098, -118.180409 39.317366, -118.188375 39.316633, -118.196340 39.315899, -118.204305 39.315165, -118.212270 39.314431, -118.220234 39.313696, -118.228199 39.312960, -118.236163 39.312224, -118.244127 39.311487, -118.252091 39.310749, -118.260055 39.310012, -118.268019 39.309273, -118.275982 39.308534, -118.283946 39.307795, -118.291909 39.307055, -118.299872 39.306314, -118.307834 39.305573, -118.315797 39.304831, -118.323760 39.304089, -118.331722 39.303346, -118.339684 39.302603, -118.347646 39.301859, -118.355608 39.301115, -118.363569 39.300370, -118.371531 39.299624, -118.379492 39.298878, -118.387453 39.298132, -118.395414 39.297385, -118.403375 39.296637, -118.411335 39.295889, -118.419296 39.295140, -118.427256 39.294391, -118.435216 39.293641, -118.443176 39.292891, -118.451136 39.292140, -118.459095 39.291388, -118.467055 39.290636, -118.475014 39.289884, -118.482973 39.289131, -118.490932 39.288377, -118.498891 39.287623, -118.506849 39.286868, -118.514808 39.286113, -118.522766 39.285357, -118.530724 39.284601, -118.538682 39.283844, -118.546640 39.283087, -118.554597 39.282329, -118.562554 39.281570, -118.570512 39.280811, -118.578469 39.280052, -118.586425 39.279292, -118.594382 39.278531, -118.602339 39.277770, -118.610295 39.277008, -118.618251 39.276246, -118.626207 39.275483, -118.634163 39.274720, -118.642118 39.273956, -118.650074 39.273191, -118.658029 39.272426, -118.665984 39.271661, -118.673939 39.270895, -118.681894 39.270128, -118.689848 39.269361, -118.697803 39.268593, -118.705757 39.267825, -118.713711 39.267056, -118.721665 39.266287, -118.729619 39.265517, -118.737572 39.264747, -118.745526 39.263976, -118.753479 39.263205, -118.761432 39.262432, -118.769385 39.261660, -118.777337 39.260887, -118.785290 39.260113, -118.793242 39.259339, -118.801194 39.258564, -118.809146 39.257789, -118.817098 39.257013, -118.825049 39.256237, -118.833001 39.255460, -118.840952 39.254683, -118.848903 39.253905, -118.856854 39.253126, -118.864805 39.252347, -118.872755 39.251568, -118.880706 39.250787, -118.888656 39.250007, -118.896606 39.249226, -118.904556 39.248444, -118.912505 39.247662, -118.920455 39.246879, -118.928404 39.246095, -118.936353 39.245311, -118.944302 39.244527, -118.952251 39.243742, -118.960200 39.242957, -118.968148 39.242170, -118.976096 39.241384, -118.984044 39.240597, -118.991992 39.239809, -118.999940 39.239021, -119.007887 39.238232, -119.015835 39.237443, -119.023782 39.236653, -119.031729 39.235862, -119.039676 39.235072, -119.047622 39.234280, -119.055569 39.233488, -119.063515 39.232696, -119.071461 39.231902, -119.079407 39.231109, -119.087353 39.230315, -119.095298 39.229520, -119.103244 39.228725, -119.111189 39.227929, -119.119134 39.227133, -119.127079 39.226336, -119.135023 39.225538, -119.142968 39.224740, -119.150912 39.223942, -119.158856 39.223143, -119.166800 39.222343, -119.174744 39.221543, -119.182687 39.220743, -119.190631 39.219941, -119.198574 39.219140, -119.206517 39.218337, -119.214460 39.217535, -119.222402 39.216731, -119.230345 39.215927, -119.238287 39.215123, -119.246229 39.214318, -119.254171 39.213513, -119.262113 39.212707, -119.270054 39.211900, -119.277996 39.211093, -119.285937 39.210285, -119.293878 39.209477, -119.301819 39.208668, -119.309759 39.207859, -119.317700 39.207049, -119.325640 39.206239, -119.333580 39.205428, -119.341520 39.204617, -119.349460 39.203805, -119.357399 39.202992, -119.365339 39.202179, -119.373278 39.201365, -119.381217 39.200551, -119.389156 39.199737, -119.397094 39.198921, -119.405033 39.198106, -119.412971 39.197289, -119.420909 39.196473, -119.428847 39.195655, -119.436785 39.194837, -119.444722 39.194019, -119.452660 39.193200, -119.460597 39.192380, -119.468534 39.191560, -119.476471 39.190740, -119.484407 39.189919, -119.492344 39.189097, -119.500280 39.188275, -119.508216 39.187452, -119.516152 39.186629, -119.524087 39.185805, -119.532023 39.184981, -119.539958 39.184156, -119.547893 39.183330, -119.555828 39.182504, -119.563763 39.181678, -119.571697 39.180851, -119.579632 39.180023, -119.587566 39.179195, -119.595500 39.178367, -119.603434 39.177537, -119.611367 39.176708, -119.619301 39.175877, -119.627234 39.175047, -119.635167 39.174215, -119.643100 39.173383, -119.651033 39.172551, -119.658965 39.171718, -119.666897 39.170884, -119.674829 39.170050, -119.682761 39.169216, -119.690693 39.168381, -119.698625 39.167545, -119.706556 39.166709, -119.714487 39.165872, -119.722418 39.165035, -119.730349 39.164197, -119.738279 39.163359, -119.746210 39.162520, -119.754140 39.161680, -119.762070 39.160840, -119.770000 39.160000, -119.777049 39.157106, -119.784098 39.154211, -119.791145 39.151315, -119.798193 39.148420, -119.805239 39.145523, -119.812286 39.142627, -119.819331 39.139730, -119.826376 39.136833, -119.833421 39.133935, -119.840464 39.131036, -119.847508 39.128138, -119.854550 39.125239, -119.861593 39.122339, -119.868634 39.119439, -119.875675 39.116539, -119.882715 39.113638, -119.889755 39.110737, -119.896794 39.107835, -119.903833 39.104933, -119.910871 39.102030, -119.917908 39.099127, -119.924945 39.096224, -119.931982 39.093320, -119.939017 39.090416, -119.946052 39.087512, -119.953087 39.084606, -119.960121 39.081701, -119.967154 39.078795, -119.974187 39.075889, -119.981220 39.072982, -119.988251 39.070075, -119.995282 39.067167, -120.002313 39.064259, -120.009343 39.061351, -120.016372 39.058442, -120.023401 39.055533, -120.030429 39.052623, -120.037457 39.049713, -120.044484 39.046802, -120.051510 39.043892, -120.058536 39.040980, -120.065561 39.038068, -120.072586 39.035156, -120.079610 39.032244, -120.086634 39.029330, -120.093657 39.026417, -120.100679 39.023503, -120.107701 39.020589, -120.114722 39.017674, -120.121743 39.014759, -120.128763 39.011843, -120.135782 39.008927, -120.142801 39.006011, -120.149820 39.003094, -120.156837 39.000177, -120.163855 38.997259, -120.170871 38.994341, -120.177887 38.991422, -120.184903 38.988503, -120.191918 38.985584, -120.198932 38.982664, -120.205946 38.979744, -120.212959 38.976823, -120.219971 38.973902, -120.226983 38.970981, -120.233995 38.968059, -120.241006 38.965137, -120.248016 38.962214, -120.255026 38.959291, -120.262035 38.956367, -120.269043 38.953443, -120.276051 38.950519, -120.283058 38.947594, -120.290065 38.944669, -120.297071 38.941743, -120.304077 38.938817, -120.311082 38.935891, -120.318087 38.932964, -120.325090 38.930036, -120.332094 38.927109, -120.339096 38.924180, -120.346099 38.921252, -120.353100 38.918323, -120.360101 38.915393, -120.367102 38.912464, -120.374101 38.909533, -120.381101 38.906603, -120.388099 38.903672, -120.395098 38.900740, -120.402095 38.897808, -120.409092 38.894876, -120.416088 38.891943, -120.423084 38.889010, -120.430079 38.886076, -120.437074 38.883142, -120.444068 38.880208, -120.451062 38.877273, -120.458055 38.874338, -120.465047 38.871402, -120.472039 38.868466, -120.479030 38.865529, -120.486020 38.862592, -120.493010 38.859655, -120.500000 38.856717, -120.506989 38.853779, -120.513977 38.850840, -120.520965 38.847901, -120.527952 38.844962, -120.534938 38.842022, -120.541924 38.839082, -120.548910 38.836141, -120.555895 38.833200, -120.562879 38.830259, -120.569863 38.827317, -120.576846 38.824374, -120.583828 38.821431, -120.590810 38.818488, -120.597791 38.815545, -120.604772 38.812601, -120.611752 38.809656, -120.618732 38.806711, -120.625711 38.803766, -120.632690 38.800820, -120.639667 38.797874, -120.646645 38.794928, -120.653622 38.791981, -120.660598 38.789034, -120.667573 38.786086, -120.674548 38.783138, -120.681523 38.780189, -120.688497 38.777240, -120.695470 38.774291, -120.702443 38.771341, -120.709415 38.768391, -120.716386 38.765440, -120.723357 38.762489, -120.730328 38.759538, -120.737298 38.756586, -120.744267 38.753633, -120.751235 38.750681, -120.758204 38.747727, -120.765171 38.744774, -120.772138 38.741820, -120.779104 38.738866, -120.786070 38.735911, -120.793035 38.732956, -120.800000 38.730000, -120.807598 38.728374, -120.815196 38.726747, -120.822793 38.725120, -120.830390 38.723492, -120.837987 38.721864, -120.845583 38.720235, -120.853179 38.718606, -120.860775 38.716976, -120.868370 38.715346, -120.875965 38.713715, -120.883560 38.712084, -120.891154 38.710452, -120.898748 38.708820, -120.906342 38.707187, -120.913935 38.705554, -120.921528 38.703920, -120.929120 38.702286, -120.936712 38.700652, -120.944304 38.699016, -120.951896 38.697381, -120.959487 38.695745, -120.967078 38.694108, -120.974668 38.692471, -120.982258 38.690833, -120.989848 38.689195, -120.997437 38.687557, -121.005026 38.685918, -121.012615 38.684278, -121.020204 38.682638, -121.027792 38.680998, -121.035379 38.679357, -121.042967 38.677715, -121.050553 38.676073, -121.058140 38.674431, -121.065726 38.672788, -121.073312 38.671144, -121.080898 38.669500, -121.088483 38.667856, -121.096068 38.666211, -121.103653 38.664565, -121.111237 38.662919, -121.118821 38.661273, -121.126404 38.659626, -121.133987 38.657979, -121.141570 38.656331, -121.149152 38.654682, -121.156734 38.653034, -121.164316 38.651384, -121.171898 38.649734, -121.179479 38.648084, -121.187059 38.646433, -121.194640 38.644782, -121.202220 38.643130, -121.209799 38.641478, -121.217379 38.639825, -121.224958 38.638172, -121.232536 38.636518, -121.240114 38.634864, -121.247692 38.633209, -121.255270 38.631554, -121.262847 38.629898, -121.270424 38.628242, -121.278000 38.626585, -121.285577 38.624928, -121.293152 38.623270, -121.300728 38.621612, -121.308303 38.619954, -121.315878 38.618295, -121.323452 38.616635, -121.331026 38.614975, -121.338600 38.613314, -121.346173 38.611653, -121.353746 38.609992, -121.361319 38.608330, -121.368891 38.606667, -121.376463 38.605004, -121.384035 38.603340, -121.391606 38.601676, -121.399177 38.600012, -121.406747 38.598347, -121.414317 38.596682, -121.421887 38.595016, -121.429457 38.593349, -121.437026 38.591682, -121.444595 38.590015, -121.452163 38.588347, -121.459731 38.586678, -121.467299 38.585010, -121.474866 38.583340, -121.482433 38.581670, -121.490000 38.580000)
