MULTILINESTRING ((-77.033000 38.893300, -77.039814 38.902784, -77.046630 38.912267, -77.053447 38.921749, -77.060267 38.931232, -77.067088 38.940714, -77.073911 38.950195, -77.080736 38.959676, -77.087563 38.969157, -77.094392 38.978638, -77.101222 38.988118, -77.108054 38.997597, -77.114888 39.007076, -77.121724 39.016555, -77.128562 39.026033, -77.135401 39.035511, -77.142243 39.044989, -77.149086 39.054466, -77.155931 39.063943, -77.162778 39.073419, -77.169627 39.082895, -77.176477 39.092371, -77.183330 39.101846, -77.190184 39.111321, -77.197040 39.120795, -77.203898 39.130269, -77.210758 39.139743, -77.217620 39.149216, -77.224483 39.158689, -77.231349 39.168161, -77.238216 39.177633, -77.245085 39.187104, -77.251956 39.196576, -77.258828 39.206046, -77.265703 39.215517, -77.272580 39.224987, -77.279458 39.234456, -77.286338 39.243925, -77.293220 39.253394, -77.300104 39.262862, -77.306990 39.272330, -77.313877 39.281798, -77.320767 39.291265, -77.327658 39.300731, -77.334551 39.310198, -77.341446 39.319664, -77.348343 39.329129, -77.355242 39.338594, -77.362143 39.348059, -77.369045 39.357523, -77.375950 39.366987, -77.382856 39.376450, -77.389764 39.385913, -77.396674 39.395376, -77.403586 39.404838, -77.410500 39.414300, -77.406150 39.424464, -77.401799 39.434628, -77.397446 39.444792, -77.393092 39.454956, -77.388737 39.465120, -77.384381 39.475283, -77.380023 39.485446, -77.375664 39.495609, -77.371304 39.505772, -77.366943 39.515935, -77.362580 39.526098, -77.358216 39.536260, -77.353851 39.546423, -77.349484 39.556585, -77.345116 39.566747, -77.340747 39.576908, -77.336377 39.587070, -77.332005 39.597232, -77.327632 39.607393, -77.323258 39.617554, -77.318882 39.627715, -77.314505 39.637876, -77.310127 39.648036, -77.305748 39.658197, -77.301367 39.668357, -77.296985 39.678517, -77.292602 39.688677, -77.288217 39.698837, -77.283831 39.708997, -77.279444 39.719156, -77.275056 39.729316, -77.270666 39.739475, -77.266275 39.749634, -77.261883 39.759793, -77.257489 39.769951, -77.253094 39.780110, -77.248698 39.790268, -77.244300 39.800426, -77.239902 39.810584, -77.235501 39.820742, -77.231100 39.830900, -77.244517 39.834258, -77.257936 39.837615, -77.271356 39.840971, -77.284777 39.844324, -77.298199 39.847676, -77.311623 39.851027, -77.325048 39.854376, -77.338474 39.857724, -77.351902 39.861070, -77.365331 39.864414, -77.378761 39.867757, -77.392193 39.871099, -77.405626 39.874438, -77.419060 39.877777, -77.432496 39.881113, -77.445933 39.884448, -77.459371 39.887782, -77.472810 39.891114, -77.486251 39.894445, -77.499693 39.897774, -77.513137 39.901101, -77.526581 39.904427, -77.540027 39.907751, -77.553475 39.911074, -77.566923 39.914395, -77.580373 39.917715, -77.593824 39.921033, -77.607277 39.924349, -77.620731 39.927664, -77.634186 39.930978, -77.647642 39.934290, -77.661100 39.937600, -77.675130 39.939002, -77.689161 39.940402, -77.703192 39.941800, -77.717224 39.943196, -77.731256 39.944591, -77.745289 39.945984, -77.759323 39.947376, -77.773357 39.948766, -77.787391 39.950154, -77.801427 39.951540, -77.815462 39.952925, -77.829499 39.954308, -77.843536 39.955689, -77.857573 39.957069, -77.871611 39.958447, -77.885650 39.959823, -77.899689 39.961198, -77.913729 39.962571, -77.927769 39.963942, -77.941810 39.965311, -77.955852 39.966679, -77.969894 39.968045, -77.983936 39.969410, -77.997979 39.970772, -78.012023 39.972133, -78.026067 39.973493, -78.040112 39.974850, -78.054158 39.976206, -78.068203 39.977560, -78.082250 39.978913, -78.096297 39.980264, -78.110345 39.981613, -78.124393 39.982960, -78.138441 39.984306, -78.152491 39.985650, -78.166541 39.986993, -78.180591 39.988333, -78.194642 39.989672, -78.208693 39.991009, -78.222745 39.992345, -78.236798 39.993679, -78.250851 39.995011, -78.264905 39.996342, -78.278959 39.997670, -78.293014 39.998997, -78.307069 40.000323, -78.321125 40.001647, -78.335181 40.002969, -78.349238 40.004289, -78.363295 40.005607, -78.377354 40.006924, -78.391412 40.008240, -78.405471 40.009553, -78.419531 40.010865, -78.433591 40.012175, -78.447652 40.013483, -78.461713 40.014790, -78.475775 40.016095, -78.489837 40.017398, -78.503900 40.018700, -78.517286 40.022432, -78.530674 40.026162, -78.544063 40.029890, -78.557453 40.033617, -78.570845 40.037343, -78.584239 40.041067, -78.597634 40.044789, -78.611030 40.048510, -78.624428 40.052229, -78.637828 40.055947, -78.651228 40.059663, -78.664631 40.063378, -78.678034 40.067091, -78.691440 40.070802, -78.704846 40.074512, -78.718254 40.078221, -78.731664 40.081928, -78.745075 40.085633, -78.758487 40.089337, -78.771901 40.093039, -78.785317 40.096740, -78.798734 40.100439, -78.812152 40.104137, -78.825572 40.107833, -78.838993 40.111527, -78.852416 40.115220, -78.865840 40.118912, -78.879265 40.122602, -78.892692 40.126290, -78.906121 40.129977, -78.919551 40.133662, -78.932982 40.137346, -78.946415 40.141028, -78.959850 40.144708, -78.973285 40.148388, -78.986723 40.152065, -79.000161 40.155741, -79.013602 40.159415, -79.027043 40.163088, -79.040486 40.166759, -79.053931 40.170429, -79.067377 40.174097, -79.080824 40.177764, -79.094273 40.181429, -79.107724 40.185092, -79.121175 40.188754, -79.134629 40.192415, -79.148083 40.196073, -79.161539 40.199731, -79.174997 40.203386, -79.188456 40.207041, -79.201917 40.210693, -79.215379 40.214344, -79.228842 40.217994, -79.242307 40.221642, -79.255773 40.225288, -79.269241 40.228933, -79.282710 40.232576, -79.296181 40.236218, -79.309653 40.239858, -79.323126 40.243496, -79.336601 40.247133, -79.350078 40.250769, -79.363556 40.254402, -79.377035 40.258035, -79.390516 40.261665, -79.403998 40.265295, -79.417482 40.268922, -79.430967 40.272548, -79.444454 40.276173, -79.457942 40.279796, -79.471431 40.283417, -79.484922 40.287037, -79.498414 40.290655, -79.511908 40.294271, -79.525403 40.297887, -79.538900 40.301500, -79.551774 40.306235, -79.564649 40.310969, -79.577527 40.315701, -79.590406 40.320432, -79.603287 40.325161, -79.616170 40.329889, -79.629054 40.334616, -79.641941 40.339341, -79.654829 40.344065, -79.667719 40.348787, -79.680611 40.353508, -79.693504 40.358227, -79.706400 40.362945, -79.719297 40.367662, -79.732196 40.372377, -79.745097 40.377091, -79.758000 40.381803, -79.770904 40.386514, -79.783810 40.391223, -79.796719 40.395931, -79.809628 40.400638, -79.822540 40.405343, -79.835454 40.410046, -79.848369 40.414749, -79.861286 40.419449, -79.874205 40.424149, -79.887126 40.428846, -79.900048 40.433543, -79.912972 40.438238, -79.925899 40.442932, -79.938826 40.447624, -79.951756 40.452314, -79.964688 40.457004, -79.977621 40.461691, -79.990556 40.466378, -80.003493 40.471063, -80.016432 40.475746, -80.029372 40.480428, -80.042315 40.485109, -80.055259 40.489788, -80.068205 40.494466, -80.081153 40.499142, -80.094102 40.503817, -80.107054 40.508490, -80.120007 40.513162, -80.132962 40.517833, -80.145919 40.522502, -80.158877 40.527169, -80.171838 40.531835, -80.184800 40.536500, -80.194369 40.544555, -80.203941 40.552609, -80.213514 40.560662, -80.223091 40.568715, -80.232669 40.576766, -80.242250 40.584817, -80.251833 40.592867, -80.261418 40.600917, -80.271006 40.608965, -80.280595 40.617013, -80.290188 40.625060, -80.299782 40.633106, -80.309379 40.641151, -80.318978 40.649196, -80.328580 40.657240, -80.338184 40.665282, -80.347790 40.673325, -80.357398 40.681366, -80.367009 40.689407, -80.376622 40.697446, -80.386237 40.705485, -80.395855 40.713523, -80.405475 40.721561, -80.415097 40.729597, -80.424722 40.737633, -80.434349 40.745668, -80.443978 40.753702, -80.453610 40.761736, -80.463244 40.769768, -80.472880 40.777800, -80.482519 40.785831, -80.492160 40.793861, -80.501803 40.801891, -80.511449 40.809919, -80.521097 40.817947, -80.530747 40.825974, -80.540400 40.834000, -80.554813 40.833999, -80.569225 40.833996, -80.583638 40.833992, -80.598050 40.833986, -80.612463 40.833978, -80.626875 40.833968, -80.641288 40.833956, -80.655701 40.833943, -80.670113 40.833928, -80.684526 40.833911, -80.698938 40.833892, -80.713351 40.833871, -80.727763 40.833849, -80.742176 40.833825, -80.756588 40.833799, -80.771001 40.833771, -80.785413 40.833741, -80.799826 40.833710, -80.814238 40.833677, -80.828651 40.833642, -80.843063 40.833605, -80.857475 40.833567, -80.871888 40.833526, -80.886300 40.833484, -80.900713 40.833440, -80.915125 40.833395, -80.929537 40.833347, -80.943950 40.833298, -80.958362 40.833247, -80.972774 40.833194, -80.987186 40.833139, -81.001598 40.833083, -81.016011 40.833025, -81.030423 40.832965, -81.044835 40.832903, -81.059247 40.832839, -81.073659 40.832774, -81.088071 40.832706, -81.102483 40.832637, -81.116895 40.832567, -81.131307 40.832494, -81.145719 40.832420, -81.160131 40.832343, -81.174543 40.832265, -81.188954 40.832186, -81.203366 40.832104, -81.217778 40.832021, -81.232190 40.831936, -81.246601 40.831849, -81.261013 40.831760, -81.275425 40.831669, -81.289836 40.831577, -81.304248 40.831483, -81.318659 40.831387, -81.333071 40.831289, -81.347482 40.831190, -81.361893 40.831088, -81.376305 40.830985, -81.390716 40.830881, -81.405127 40.830774, -81.419538 40.830665, -81.433949 40.830555, -81.448360 40.830443, -81.462771 40.830329, -81.477182 40.830214, -81.491593 40.830096, -81.506004 40.829977, -81.520415 40.829856, -81.534826 40.829733, -81.549236 40.829608, -81.563647 40.829482, -81.578058 40.829354, -81.592468 40.829224, -81.606879 40.829092, -81.621289 40.828959, -81.635699 40.828823, -81.650110 40.828686, -81.664520 40.828547, -81.678930 40.828406, -81.693340 40.828264, -81.707750 40.828119, -81.722160 40.827973, -81.736570 40.827825, -81.750980 40.827676, -81.765390 40.827524, -81.779800 40.827371, -81.794209 40.827216, -81.808619 40.827059, -81.823028 40.826900, -81.837438 40.826740, -81.851847 40.826578, -81.866257 40.826414, -81.880666 40.826248, -81.895075 40.826080, -81.909484 40.825911, -81.923893 40.825739, -81.938302 40.825566, -81.952711 40.825392, -81.967120 40.825215, -81.981529 40.825037, -81.995937 40.824856, -82.010346 40.824674, -82.024754 40.824491, -82.039163 40.824305, -82.053571 40.824118, -82.067979 40.823929, -82.082387 40.823738, -82.096795 40.823545, -82.111203 40.823350, -82.125611 40.823154, -82.140019 40.822956, -82.154427 40.822756, -82.168835 40.822554, -82.183242 40.822351, -82.197650 40.822146, -82.212057 40.821939, -82.226464 40.821730, -82.240872 40.821519, -82.255279 40.821307, -82.269686 40.821092, -82.284093 40.820876, -82.298499 40.820659, -82.312906 40.820439, -82.327313 40.820218, -82.341719 40.819994, -82.356126 40.819769, -82.370532 40.819543, -82.384938 40.819314, -82.399345 40.819084, -82.413751 40.818851, -82.428157 40.818617, -82.442562 40.818382, -82.456968 40.818144, -82.471374 40.817905, -82.485779 40.817664, -82.500185 40.817421, -82.514590 40.817176, -82.528995 40.816930, -82.543400 40.816681, -82.557805 40.816431, -82.572210 40.816179, -82.586615 40.815926, -82.601020 40.815670, -82.615424 40.815413, -82.629829 40.815154, -82.644233 40.814893, -82.658637 40.814631, -82.673041 40.814366, -82.687445 40.814100, -82.701849 40.813832, -82.716253 40.813562, -82.730657 40.813291, -82.745060 40.813017, -82.759464 40.812742, -82.773867 40.812465, -82.788270 40.812187, -82.802673 40.811906, -82.817076 40.811624, -82.831479 40.811340, -82.845882 40.811054, -82.860284 40.810766, -82.874687 40.810477, -82.889089 40.810185, -82.903491 40.809892, -82.917893 40.809597, -82.932295 40.809301, -82.946697 40.809002, -82.961098 40.808702, -82.975500 40.808400, -82.989872 40.808852, -83.004244 40.809303, -83.018616 40.809752, -83.032989 40.810199, -83.047362 40.810644, -83.061734 40.811087, -83.076108 40.811529, -83.090481 40.811969, -83.104854 40.812407, -83.119228 40.812843, -83.133602 40.813277, -83.147976 40.813710, -83.162350 40.814141, -83.176725 40.814570, -83.191099 40.814997, -83.205474 40.815423, -83.219849 40.815847, -83.234224 40.816269, -83.248599 40.816689, -83.262975 40.817107, -83.277351 40.817524, -83.291726 40.817939, -83.306102 40.818352, -83.320479 40.818763, -83.334855 40.819173, -83.349232 40.819580, -83.363608 40.819986, -83.377985 40.820390, -83.392363 40.820793, -83.406740 40.821193, -83.421117 40.821592, -83.435495 40.821989, -83.449873 40.822384, -83.464251 40.822778, -83.478629 40.823169, -83.493007 40.823559, -83.507386 40.823947, -83.521764 40.824334, -83.536143 40.824718, -83.550522 40.825101, -83.564901 40.825482, -83.579281 40.825861, -83.593660 40.826238, -83.608040 40.826614, -83.622420 40.826988, -83.636799 40.827360, -83.651180 40.827730, -83.665560 40.828098, -83.679940 40.828465, -83.694321 40.828830, -83.708702 40.829193, -83.723083 40.829554, -83.737464 40.829914, -83.751845 40.830271, -83.766226 40.830627, -83.780608 40.830981, -83.794990 40.831334, -83.809371 40.831684, -83.823753 40.832033, -83.838136 40.832380, -83.852518 40.832725, -83.866900 40.833069, -83.881283 40.833410, -83.895666 40.833750, -83.910049 40.834088, -83.924432 40.834425, -83.938815 40.834759, -83.953198 40.835092, -83.967582 40.835423, -83.981965 40.835752, -83.996349 40.836079, -84.010733 40.836405, -84.025117 40.836729, -84.039501 40.837051, -84.053885 40.837371, -84.068270 40.837689, -84.082655 40.838006, -84.097039 40.838321, -84.111424 40.838634, -84.125809 40.838945, -84.140194 40.839255, -84.154580 40.839562, -84.168965 40.839868, -84.183351 40.840172, -84.197736 40.840475, -84.212122 40.840775, -84.226508 40.841074, -84.240894 40.841371, -84.255280 40.841666, -84.269667 40.841960, -84.284053 40.842251, -84.298440 40.842541, -84.312826 40.842829, -84.327213 40.843116, -84.341600 40.843400, -84.354850 40.847377, -84.368101 40.851352, -84.381354 40.855325, -84.394609 40.859297, -84.407865 40.863268, -84.421123 40.867237, -84.434383 40.871204, -84.447644 40.875170, -84.460906 40.879135, -84.474170 40.883098, -84.487436 40.887059, -84.500703 40.891019, -84.513972 40.894978, -84.527243 40.898935, -84.540515 40.902890, -84.553789 40.906844, -84.567064 40.910796, -84.580341 40.914747, -84.593619 40.918696, -84.606899 40.922644, -84.620181 40.926590, -84.633464 40.930535, -84.646749 40.934478, -84.660035 40.938420, -84.673323 40.942360, -84.686613 40.946298, -84.699904 40.950235, -84.713197 40.954171, -84.726491 40.958105, -84.739787 40.962037, -84.753085 40.965968, -84.766384 40.969898, -84.779684 40.973826, -84.792987 40.977752, -84.806290 40.981677, -84.819596 40.985600, -84.832903 40.989522, -84.846211 40.993442, -84.859522 40.997361, -84.872833 41.001278, -84.886147 41.005194, -84.899461 41.009108, -84.912778 41.013021, -84.926096 41.016932, -84.939416 41.020841, -84.952737 41.024749, -84.966060 41.028656, -84.979384 41.032561, -84.992710 41.036464, -85.006038 41.040366, -85.019367 41.044266, -85.032697 41.048165, -85.046030 41.052062, -85.059364 41.055958, -85.072699 41.059852, -85.086036 41.063745, -85.099375 41.067636, -85.112715 41.071525, -85.126057 41.075414, -85.139400 41.079300, -85.151006 41.085641, -85.162613 41.091980, -85.174223 41.098319, -85.185836 41.104656, -85.197450 41.110992, -85.209067 41.117327, -85.220686 41.123661, -85.232307 41.129993, -85.243931 41.136324, -85.255556 41.142655, -85.267184 41.148984, -85.278815 41.155312, -85.290447 41.161638, -85.302082 41.167964, -85.313719 41.174288, -85.325358 41.180611, -85.337000 41.186933, -85.348643 41.193254, -85.360289 41.199574, -85.371937 41.205892, -85.383588 41.212210, -85.395241 41.218526, -85.406895 41.224841, -85.418553 41.231155, -85.430212 41.237467, -85.441874 41.243779, -85.453538 41.250089, -85.465204 41.256398, -85.476873 41.262706, -85.488543 41.269013, -85.500216 41.275318, -85.511891 41.281623, -85.523569 41.287926, -85.535249 41.294228, -85.546931 41.300529, -85.558615 41.306828, -85.570301 41.313127, -85.581990 41.319424, -85.593681 41.325720, -85.605375 41.332015, -85.617070 41.338309, -85.628768 41.344602, -85.640468 41.350893, -85.652170 41.357183, -85.663875 41.363472, -85.675582 41.369760, -85.687291 41.376047, -85.699002 41.382332, -85.710716 41.388616, -85.722432 41.394899, -85.734150 41.401181, -85.745871 41.407462, -85.757593 41.413742, -85.769318 41.420020, -85.781045 41.426297, -85.792775 41.432573, -85.804507 41.438848, -85.816241 41.445121, -85.827977 41.451394, -85.839716 41.457665, -85.851457 41.463935, -85.863200 41.470203, -85.874945 41.476471, -85.886693 41.482737, -85.898443 41.489003, -85.910195 41.495267, -85.921949 41.501529, -85.933706 41.507791, -85.945465 41.514051, -85.957227 41.520311, -85.968990 41.526569, -85.980756 41.532825, -85.992524 41.539081, -86.004295 41.545335, -86.016067 41.551589, -86.027842 41.557841, -86.039619 41.564091, -86.051399 41.570341, -86.063181 41.576589, -86.074965 41.582837, -86.086751 41.589083, -86.098540 41.595327, -86.110331 41.601571, -86.122124 41.607813, -86.133919 41.614055, -86.145717 41.620295, -86.157517 41.626533, -86.169320 41.632771, -86.181124 41.639007, -86.192931 41.645242, -86.204740 41.651476, -86.216552 41.657709, -86.228366 41.663941, -86.240182 41.670171, -86.252000 41.676400, -86.266383 41.678018, -86.280767 41.679634, -86.295151 41.681249, -86.309537 41.682862, -86.323923 41.684473, -86.338309 41.686082, -86.352697 41.687689, -86.367085 41.689295, -86.381474 41.690899, -86.395863 41.692501, -86.410253 41.694101, -86.424644 41.695699, -86.439036 41.697296, -86.453428 41.698891, -86.467822 41.700484, -86.482215 41.702075, -86.496610 41.703664, -86.511005 41.705252, -86.525401 41.706838, -86.539798 41.708422, -86.554195 41.710004, -86.568593 41.711584, -86.582992 41.713163, -86.597392 41.714740, -86.611792 41.716315, -86.626193 41.717888, -86.640594 41.719459, -86.654997 41.721029, -86.669400 41.722597, -86.683804 41.724163, -86.698208 41.725727, -86.712613 41.727290, -86.727019 41.728850, -86.741426 41.730409, -86.755833 41.731966, -86.770241 41.733521, -86.784649 41.735075, -86.799059 41.736627, -86.813469 41.738176, -86.827879 41.739724, -86.842291 41.741271, -86.856703 41.742815, -86.871116 41.744358, -86.885529 41.745899, -86.899943 41.747438, -86.914358 41.748975, -86.928774 41.750510, -86.943190 41.752044, -86.957607 41.753576, -86.972025 41.755106, -86.986443 41.756634, -87.000862 41.758161, -87.015282 41.759685, -87.029702 41.761208, -87.044123 41.762729, -87.058545 41.764248, -87.072967 41.765766, -87.087390 41.767281, -87.101814 41.768795, -87.116239 41.770307, -87.130664 41.771817, -87.145090 41.773326, -87.159516 41.774832, -87.173943 41.776337, -87.188371 41.777840, -87.202800 41.779341, -87.217229 41.780841, -87.231659 41.782338, -87.246089 41.783834, -87.260521 41.785328, -87.274953 41.786820, -87.289385 41.788310, -87.303818 41.789799, -87.318252 41.791286, -87.332687 41.792771, -87.347122 41.794254, -87.361558 41.795735, -87.375995 41.797214, -87.390432 41.798692, -87.404870 41.800168, -87.419308 41.801642, -87.433748 41.803114, -87.448188 41.804585, -87.462628 41.806053, -87.477069 41.807520, -87.491511 41.808985, -87.505954 41.810449, -87.520397 41.811910, -87.534841 41.813370, -87.549285 41.814827, -87.563731 41.816283, -87.578176 41.817738, -87.592623 41.819190, -87.607070 41.820641, -87.621518 41.822089, -87.635966 41.823536, -87.650415 41.824981, -87.664865 41.826425, -87.679316 41.827866, -87.693767 41.829306, -87.708218 41.830744, -87.722671 41.832180, -87.737124 41.833614, -87.751577 41.835046, -87.766032 41.836477, -87.780487 41.837906, -87.794942 41.839333, -87.809399 41.840758, -87.823855 41.842182, -87.838313 41.843603, -87.852771 41.845023, -87.867230 41.846441, -87.881689 41.847857, -87.896150 41.849271, -87.910610 41.850684, -87.925072 41.852094, -87.939534 41.853503, -87.953996 41.854910, -87.968460 41.856316, -87.982924 41.857719, -87.997388 41.859121, -88.011853 41.860521, -88.026319 41.861918, -88.040786 41.863315, -88.055253 41.864709, -88.069720 41.866102, -88.084189 41.867492, -88.098658 41.868881, -88.113127 41.870268, -88.127597 41.871654, -88.142068 41.873037, -88.156540 41.874419, -88.171012 41.875799, -88.185485 41.877177, -88.199958 41.878553, -88.214432 41.879927, -88.228907 41.881300, -88.243382 41.882670, -88.257858 41.884039, -88.272334 41.885406, -88.286811 41.886772, -88.301289 41.888135, -88.315767 41.889497, -88.330246 41.890857, -88.344726 41.892215, -88.359206 41.893571, -88.373687 41.894925, -88.388168 41.896278, -88.402650 41.897629, -88.417133 41.898977, -88.431616 41.900325, -88.446100 41.901670, -88.460584 41.903013, -88.475069 41.904355, -88.489555 41.905695, -88.504041 41.907033, -88.518528 41.908369, -88.533015 41.909703, -88.547504 41.911036, -88.561992 41.912367, -88.576482 41.913695, -88.590971 41.915022, -88.605462 41.916348, -88.619953 41.917671, -88.634445 41.918993, -88.648937 41.920313, -88.663430 41.921631, -88.677924 41.922947, -88.692418 41.924261, -88.706912 41.925573, -88.721408 41.926884, -88.735904 41.928193, -88.750400 41.929500, -88.764947 41.928731, -88.779493 41.927961, -88.794039 41.927188, -88.808585 41.926414, -88.823130 41.925638, -88.837675 41.924860, -88.852220 41.924080, -88.866764 41.923298, -88.881308 41.922515, -88.895852 41.921730, -88.910395 41.920942, -88.924938 41.920153, -88.939480 41.919363, -88.954023 41.918570, -88.968564 41.917776, -88.983106 41.916979, -88.997647 41.916181, -89.012188 41.915381, -89.026728 41.914579, -89.041268 41.913776, -89.055807 41.912970, -89.070347 41.912163, -89.084886 41.911354, -89.099424 41.910543, -89.113962 41.909730, -89.128500 41.908915, -89.143037 41.908099, -89.157574 41.907280, -89.172111 41.906460, -89.186647 41.905638, -89.201183 41.904815, -89.215719 41.903989, -89.230254 41.903161, -89.244789 41.902332, -89.259323 41.901501, -89.273857 41.900668, -89.288391 41.899833, -89.302924 41.898996, -89.317457 41.898158, -89.331989 41.897318, -89.346521 41.896476, -89.361053 41.895632, -89.375584 41.894786, -89.390115 41.893938, -89.404646 41.893089, -89.419176 41.892237, -89.433706 41.891384, -89.448235 41.890529, -89.462764 41.889672, -89.477293 41.888814, -89.491821 41.887953, -89.506349 41.887091, -89.520876 41.886227, -89.535403 41.885361, -89.549930 41.884493, -89.564456 41.883624, -89.578982 41.882752, -89.593507 41.881879, -89.608033 41.881004, -89.622557 41.880127, -89.637081 41.879248, -89.651605 41.878367, -89.666129 41.877485, -89.680652 41.876601, -89.695175 41.875715, -89.709697 41.874827, -89.724219 41.873937, -89.738740 41.873045, -89.753261 41.872152, -89.767782 41.871257, -89.782302 41.870360, -89.796822 41.869461, -89.811341 41.868560, -89.825860 41.867658, -89.840379 41.866753, -89.854897 41.865847, -89.869415 41.864939, -89.883932 41.864029, -89.898449 41.863117, -89.912966 41.862204, -89.927482 41.861289, -89.941997 41.860371, -89.956513 41.859452, -89.971028 41.858532, -89.985542 41.857609, -90.000056 41.856684, -90.014570 41.855758, -90.029083 41.854830, -90.043596 41.853900, -90.058108 41.852968, -90.072620 41.852035, -90.087131 41.851099, -90.101643 41.850162, -90.116153 41.849223, -90.130663 41.848282, -90.145173 41.847339, -90.159683 41.846395, -90.174191 41.845448, -90.188700 41.844500, -90.203193 41.845767, -90.217686 41.847031, -90.232180 41.848294, -90.246675 41.849555, -90.261170 41.850814, -90.275666 41.852072, -90.290162 41.853327, -90.304659 41.854581, -90.319157 41.855833, -90.333655 41.857083, -90.348153 41.858331, -90.362653 41.859578, -90.377152 41.860823, -90.391653 41.862065, -90.406154 41.863306, -90.420655 41.864546, -90.435157 41.865783, -90.449660 41.867018, -90.464163 41.868252, -90.478666 41.869484, -90.493171 41.870714, -90.507675 41.871942, -90.522181 41.873169, -90.536687 41.874393, -90.551193 41.875616, -90.565700 41.876837, -90.580208 41.878056, -90.594716 41.879273, -90.609224 41.880489, -90.623734 41.881702, -90.638243 41.882914, -90.652754 41.884124, -90.667265 41.885332, -90.681776 41.886539, -90.696288 41.887743, -90.710801 41.888946, -90.725314 41.890147, -90.739827 41.891346, -90.754341 41.892543, -90.768856 41.893738, -90.783371 41.894932, -90.797887 41.896123, -90.812403 41.897313, -90.826920 41.898501, -90.841438 41.899688, -90.855956 41.900872, -90.870474 41.902055, -90.884993 41.903235, -90.899513 41.904414, -90.914033 41.905591, -90.928553 41.906766, -90.943075 41.907940, -90.957596 41.909111, -90.972118 41.910281, -90.986641 41.911449, -91.001164 41.912615, -91.015688 41.913779, -91.030213 41.914942, -91.044738 41.916102, -91.059263 41.917261, -91.073789 41.918418, -91.088315 41.919573, -91.102842 41.920727, -91.117370 41.921878, -91.131898 41.923028, -91.146426 41.924175, -91.160955 41.925321, -91.175485 41.926466, -91.190015 41.927608, -91.204546 41.928748, -91.219077 41.929887, -91.233609 41.931024, -91.248141 41.932159, -91.262674 41.933292, -91.277207 41.934423, -91.291741 41.935553, -91.306275 41.936680, -91.320810 41.937806, -91.335345 41.938930, -91.349881 41.940052, -91.364417 41.941172, -91.378954 41.942291, -91.393491 41.943407, -91.408029 41.944522, -91.422567 41.945635, -91.437106 41.946746, -91.451645 41.947856, -91.466185 41.948963, -91.480726 41.950069, -91.495267 41.951173, -91.509808 41.952274, -91.524350 41.953375, -91.538892 41.954473, -91.553435 41.955569, -91.567978 41.956664, -91.582522 41.957757, -91.597067 41.958848, -91.611612 41.959937, -91.626157 41.961024, -91.640703 41.962109, -91.655249 41.963193, -91.669796 41.964275, -91.684343 41.965355, -91.698891 41.966433, -91.713440 41.967509, -91.727988 41.968584, -91.742538 41.969656, -91.757087 41.970727, -91.771638 41.971796, -91.786189 41.972863, -91.800740 41.973928, -91.815292 41.974992, -91.829844 41.976053, -91.844397 41.977113, -91.858950 41.978171, -91.873503 41.979227, -91.888058 41.980281, -91.902612 41.981333, -91.917167 41.982384, -91.931723 41.983433, -91.946279 41.984479, -91.960836 41.985524, -91.975393 41.986568, -91.989950 41.987609, -92.004508 41.988648, -92.019067 41.989686, -92.033626 41.990722, -92.048185 41.991756, -92.062745 41.992788, -92.077305 41.993818, -92.091866 41.994847, -92.106428 41.995873, -92.120989 41.996898, -92.135552 41.997921, -92.150114 41.998942, -92.164677 41.999961, -92.179241 42.000979, -92.193805 42.001994, -92.208370 42.003008, -92.222935 42.004020, -92.237500 42.005030, -92.252066 42.006038, -92.266633 42.007045, -92.281200 42.008049, -92.295767 42.009052, -92.310335 42.010053, -92.324903 42.011052, -92.339472 42.012049, -92.354041 42.013044, -92.368611 42.014038, -92.383181 42.015029, -92.397751 42.016019, -92.412322 42.017007, -92.426894 42.017993, -92.441466 42.018977, -92.456038 42.019960, -92.470611 42.020940, -92.485184 42.021919, -92.499758 42.022896, -92.514332 42.023871, -92.528906 42.024844, -92.543482 42.025816, -92.558057 42.026785, -92.572633 42.027753, -92.587209 42.028719, -92.601786 42.029683, -92.616363 42.030645, -92.630941 42.031605, -92.645519 42.032563, -92.660098 42.033520, -92.674677 42.034475, -92.689256 42.035428, -92.703836 42.036379, -92.718416 42.037328, -92.732997 42.038275, -92.747578 42.039221, -92.762160 42.040165, -92.776742 42.041107, -92.791325 42.042046, -92.805908 42.042985, -92.820491 42.043921, -92.835075 42.044855, -92.849659 42.045788, -92.864244 42.046719, -92.878829 42.047648, -92.893414 42.048575, -92.908000 42.049500, -92.922660 42.049465, -92.937320 42.049428, -92.951979 42.049389, -92.966639 42.049349, -92.981299 42.049306, -92.995959 42.049262, -93.010618 42.049215, -93.025278 42.049167, -93.039937 42.049117, -93.054597 42.049066, -93.069257 42.049012, -93.083916 42.048956, -93.098576 42.048899, -93.113235 42.048840, -93.127895 42.048778, -93.142554 42.048715, -93.157214 42.048650, -93.171873 42.048584, -93.186532 42.048515, -93.201192 42.048445, -93.215851 42.048372, -93.230510 42.048298, -93.245170 42.048222, -93.259829 42.048144, -93.274488 42.048064, -93.289147 42.047982, -93.303806 42.047899, -93.318465 42.047814, -93.333124 42.047726, -93.347783 42.047637, -93.362442 42.047546, -93.377101 42.047453, -93.391760 42.047358, -93.406419 42.047262, -93.421077 42.047163, -93.435736 42.047063, -93.450395 42.046961, -93.465053 42.046857, -93.479712 42.046751, -93.494370 42.046643, -93.509029 42.046533, -93.523687 42.046422, -93.538346 42.046308, -93.553004 42.046193, -93.567662 42.046076, -93.582320 42.045957, -93.596978 42.045836, -93.611637 42.045714, -93.626295 42.045589, -93.640953 42.045462, -93.655610 42.045334, -93.670268 42.045204, -93.684926 42.045072, -93.699584 42.044938, -93.714242 42.044802, -93.728899 42.044665, -93.743557 42.044525, -93.758214 42.044384, -93.772872 42.044241, -93.787529 42.044095, -93.802186 42.043948, -93.816843 42.043800, -93.831501 42.043649, -93.846158 42.043496, -93.860815 42.043342, -93.875471 42.043186, -93.890128 42.043028, -93.904785 42.042868, -93.919442 42.042706, -93.934098 42.042542, -93.948755 42.042376, -93.963412 42.042209, -93.978068 42.042039, -93.992724 42.041868, -94.007380 42.041695, -94.022037 42.041520, -94.036693 42.041343, -94.051349 42.041165, -94.066005 42.040984, -94.080660 42.040802, -94.095316 42.040618, -94.109972 42.040432, -94.124627 42.040244, -94.139283 42.040054, -94.153938 42.039862, -94.168594 42.039668, -94.183249 42.039473, -94.197904 42.039276, -94.212559 42.039077, -94.227214 42.038875, -94.241869 42.038673, -94.256524 42.038468, -94.271178 42.038261, -94.285833 42.038053, -94.300487 42.037842, -94.315142 42.037630, -94.329796 42.037416, -94.344450 42.037200, -94.359104 42.036982, -94.373758 42.036763, -94.388412 42.036541, -94.403066 42.036318, -94.417720 42.036092, -94.432373 42.035865, -94.447027 42.035636, -94.461680 42.035405, -94.476333 42.035173, -94.490986 42.034938, -94.505639 42.034702, -94.520292 42.034463, -94.534945 42.034223, -94.549598 42.033981, -94.564250 42.033737, -94.578903 42.033491, -94.593555 42.033244, -94.608207 42.032994, -94.622860 42.032743, -94.637512 42.032490, -94.652163 42.032235, -94.666815 42.031978, -94.681467 42.031719, -94.696118 42.031458, -94.710770 42.031196, -94.725421 42.030931, -94.740072 42.030665, -94.754723 42.030397, -94.769374 42.030127, -94.784025 42.029855, -94.798676 42.029581, -94.813326 42.029306, -94.827977 42.029028, -94.842627 42.028749, -94.857277 42.028468, -94.871927 42.028185, -94.886577 42.027900, -94.901227 42.027613, -94.915877 42.027325, -94.930526 42.027034, -94.945176 42.026742, -94.959825 42.026448, -94.974474 42.026151, -94.989123 42.025854, -95.003772 42.025554, -95.018420 42.025252, -95.033069 42.024949, -95.047717 42.024643, -95.062366 42.024336, -95.077014 42.024027, -95.091662 42.023716, -95.106310 42.023403, -95.120957 42.023088, -95.135605 42.022772, -95.150252 42.022453, -95.164899 42.022133, -95.179547 42.021811, -95.194194 42.021487, -95.208840 42.021161, -95.223487 42.020833, -95.238133 42.020504, -95.252780 42.020172, -95.267426 42.019839, -95.282072 42.019504, -95.296718 42.019167, -95.311364 42.018828, -95.326009 42.018487, -95.340655 42.018144, -95.355300 42.017800, -95.362535 42.008419, -95.369767 41.999038, -95.376998 41.989656, -95.384226 41.980274, -95.391452 41.970891, -95.398676 41.961508, -95.405898 41.952124, -95.413118 41.942740, -95.420335 41.933356, -95.427551 41.923971, -95.434764 41.914585, -95.441976 41.905199, -95.449185 41.895813, -95.456392 41.886426, -95.463597 41.877039, -95.470800 41.867651, -95.478000 41.858263, -95.485199 41.848875, -95.492395 41.839486, -95.499590 41.830096, -95.506782 41.820706, -95.513972 41.811316, -95.521160 41.801925, -95.528346 41.792534, -95.535530 41.783142, -95.542711 41.773750, -95.549891 41.764357, -95.557069 41.754964, -95.564244 41.745571, -95.571417 41.736177, -95.578588 41.726782, -95.585758 41.717388, -95.592925 41.707992, -95.600089 41.698597, -95.607252 41.689200, -95.614413 41.679804, -95.621572 41.670407, -95.628728 41.661009, -95.635883 41.651611, -95.643035 41.642213, -95.650185 41.632814, -95.657334 41.623415, -95.664480 41.614015, -95.671624 41.604615, -95.678766 41.595214, -95.685906 41.585813, -95.693043 41.576412, -95.700179 41.567010, -95.707313 41.557607, -95.714444 41.548204, -95.721574 41.538801, -95.728701 41.529398, -95.735827 41.519993, -95.742950 41.510589, -95.750071 41.501184, -95.757190 41.491778, -95.764307 41.482372, -95.771422 41.472966, -95.778535 41.463559, -95.785646 41.454152, -95.792755 41.444744, -95.799862 41.435336, -95.806966 41.425928, -95.814069 41.416519, -95.821170 41.407110, -95.828268 41.397700, -95.835365 41.388289, -95.842459 41.378879, -95.849551 41.369468, -95.856642 41.360056, -95.863730 41.350644, -95.870816 41.341232, -95.877900 41.331819, -95.884982 41.322405, -95.892062 41.312992, -95.899140 41.303577, -95.906216 41.294163, -95.913290 41.284748, -95.920362 41.275332, -95.927432 41.265916, -95.934500 41.256500, -95.948815 41.254686, -95.963130 41.252871, -95.977444 41.251054, -95.991757 41.249235, -96.006069 41.247414, -96.020381 41.245592, -96.034692 41.243767, -96.049002 41.241941, -96.063311 41.240114, -96.077619 41.238284, -96.091926 41.236453, -96.106233 41.234619, -96.120539 41.232785, -96.134844 41.230948, -96.149148 41.229109, -96.163452 41.227269, -96.177755 41.225427, -96.192056 41.223584, -96.206358 41.221738, -96.220658 41.219891, -96.234957 41.218042, -96.249256 41.216191, -96.263554 41.214338, -96.277851 41.212484, -96.292147 41.210628, -96.306442 41.208770, -96.320737 41.206910, -96.335031 41.205049, -96.349324 41.203186, -96.363616 41.201321, -96.377907 41.199454, -96.392198 41.197586, -96.406487 41.195715, -96.420776 41.193843, -96.435064 41.191969, -96.449352 41.190094, -96.463638 41.188217, -96.477924 41.186337, -96.492208 41.184457, -96.506492 41.182574, -96.520775 41.180690, -96.535058 41.178803, -96.549339 41.176916, -96.563620 41.175026, -96.577900 41.173134, -96.592179 41.171241, -96.606457 41.169346, -96.620734 41.167450, -96.635011 41.165551, -96.649287 41.163651, -96.663562 41.161749, -96.677836 41.159845, -96.692109 41.157939, -96.706381 41.156032, -96.720653 41.154123, -96.734924 41.152212, -96.749193 41.150300, -96.763463 41.148385, -96.777731 41.146469, -96.791998 41.144551, -96.806265 41.142632, -96.820531 41.140710, -96.834795 41.138787, -96.849059 41.136862, -96.863323 41.134936, -96.877585 41.133007, -96.891847 41.131077, -96.906107 41.129145, -96.920367 41.127211, -96.934626 41.125276, -96.948884 41.123339, -96.963142 41.121400, -96.977398 41.119459, -96.991654 41.117516, -97.005909 41.115572, -97.020163 41.113626, -97.034416 41.111678, -97.048668 41.109729, -97.062920 41.107778, -97.077170 41.105825, -97.091420 41.103870, -97.105669 41.101913, -97.119917 41.099955, -97.134164 41.097995, -97.148410 41.096033, -97.162656 41.094070, -97.176900 41.092104, -97.191144 41.090137, -97.205387 41.088168, -97.219629 41.086198, -97.233870 41.084225, -97.248111 41.082251, -97.262350 41.080276, -97.276589 41.078298, -97.290827 41.076319, -97.305064 41.074337, -97.319300 41.072355, -97.333535 41.070370, -97.347769 41.068384, -97.362003 41.066396, -97.376236 41.064406, -97.390467 41.062414, -97.404698 41.060421, -97.418928 41.058426, -97.433157 41.056429, -97.447386 41.054430, -97.461613 41.052430, -97.475840 41.050428, -97.490066 41.048424, -97.504290 41.046418, -97.518514 41.044411, -97.532738 41.042402, -97.546960 41.040391, -97.561181 41.038378, -97.575402 41.036364, -97.589621 41.034348, -97.603840 41.032330, -97.618058 41.030311, -97.632275 41.028289, -97.646491 41.026266, -97.660706 41.024241, -97.674921 41.022215, -97.689134 41.020186, -97.703347 41.018156, -97.717559 41.016124, -97.731770 41.014091, -97.745980 41.012056, -97.760189 41.010019, -97.774397 41.007980, -97.788605 41.005939, -97.802811 41.003897, -97.817017 41.001853, -97.831221 40.999807, -97.845425 40.997760, -97.859628 40.995710, -97.873830 40.993659, -97.888032 40.991607, -97.902232 40.989552, -97.916431 40.987496, -97.930630 40.985438, -97.944828 40.983378, -97.959024 40.981317, -97.973220 40.979254, -97.987415 40.977189, -98.001609 40.975122, -98.015803 40.973054, -98.029995 40.970983, -98.044186 40.968911, -98.058377 40.966838, -98.072567 40.964762, -98.086755 40.962685, -98.100943 40.960606, -98.115130 40.958526, -98.129316 40.956444, -98.143502 40.954359, -98.157686 40.952274, -98.171869 40.950186, -98.186052 40.948097, -98.200233 40.946006, -98.214414 40.943913, -98.228594 40.941819, -98.242773 40.939722, -98.256951 40.937624, -98.271128 40.935525, -98.285304 40.933423, -98.299480 40.931320, -98.313654 40.929215, -98.327827 40.927108, -98.342000 40.925000, -98.356295 40.926326, -98.370590 40.927650, -98.384886 40.928972, -98.399183 40.930293, -98.413480 40.931612, -98.427778 40.932929, -98.442076 40.934244, -98.456375 40.935558, -98.470674 40.936869, -98.484975 40.938179, -98.499275 40.939488, -98.513576 40.940794, -98.527878 40.942099, -98.542180 40.943402, -98.556483 40.944703, -98.570786 40.946002, -98.585090 40.947300, -98.599395 40.948596, -98.613700 40.949890, -98.628006 40.951182, -98.642312 40.952473, -98.656619 40.953762, -98.670926 40.955049, -98.685234 40.956334, -98.699542 40.957617, -98.713851 40.958899, -98.728161 40.960179, -98.742471 40.961457, -98.756782 40.962733, -98.771093 40.964008, -98.785405 40.965281, -98.799717 40.966552, -98.814030 40.967821, -98.828343 40.969089, -98.842657 40.970355, -98.856972 40.971619, -98.871287 40.972881, -98.885602 40.974141, -98.899919 40.975400, -98.914235 40.976657, -98.928552 40.977912, -98.942870 40.979166, -98.957189 40.980417, -98.971507 40.981667, -98.985827 40.982915, -99.000147 40.984161, -99.014467 40.985406, -99.028788 40.986649, -99.043110 40.987890, -99.057432 40.989129, -99.071755 40.990366, -99.086078 40.991602, -99.100402 40.992836, -99.114726 40.994068, -99.129051 40.995298, -99.143376 40.996527, -99.157702 40.997754, -99.172028 40.998979, -99.186355 41.000202, -99.200683 41.001424, -99.215011 41.002643, -99.229339 41.003861, -99.243668 41.005077, -99.257998 41.006292, -99.272328 41.007504, -99.286659 41.008715, -99.300990 41.009924, -99.315322 41.011131, -99.329654 41.012337, -99.343987 41.013541, -99.358320 41.014743, -99.372654 41.015943, -99.386988 41.017141, -99.401323 41.018338, -99.415658 41.019533, -99.429994 41.020726, -99.444330 41.021917, -99.458667 41.023107, -99.473005 41.024294, -99.487343 41.025480, -99.501681 41.026665, -99.516020 41.027847, -99.530360 41.029028, -99.544700 41.030207, -99.559040 41.031384, -99.573381 41.032559, -99.587723 41.033732, -99.602065 41.034904, -99.616407 41.036074, -99.630750 41.037242, -99.645094 41.038409, -99.659438 41.039573, -99.673783 41.040736, -99.688128 41.041897, -99.702473 41.043057, -99.716820 41.044214, -99.731166 41.045370, -99.745513 41.046524, -99.759861 41.047676, -99.774209 41.048827, -99.788558 41.049975, -99.802907 41.051122, -99.817256 41.052267, -99.831607 41.053410, -99.845957 41.054552, -99.860308 41.055692, -99.874660 41.056830, -99.889012 41.057966, -99.903365 41.059100, -99.917718 41.060233, -99.932071 41.061364, -99.946425 41.062493, -99.960780 41.063620, -99.975135 41.064745, -99.989491 41.065869, -100.003847 41.066991, -100.018203 41.068111, -100.032560 41.069229, -100.046918 41.070346, -100.061276 41.071461, -100.075634 41.072574, -100.089993 41.073685, -100.104353 41.074795, -100.118713 41.075902, -100.133073 41.077008, -100.147434 41.078112, -100.161796 41.079214, -100.176157 41.080315, -100.190520 41.081414, -100.204883 41.082511, -100.219246 41.083606, -100.233610 41.084699, -100.247974 41.085791, -100.262339 41.086881, -100.276704 41.087969, -100.291070 41.089055, -100.305436 41.090140, -100.319803 41.091222, -100.334170 41.092303, -100.348537 41.093382, -100.362905 41.094460, -100.377274 41.095535, -100.391643 41.096609, -100.406013 41.097681, -100.420382 41.098751, -100.434753 41.099820, -100.449124 41.100886, -100.463495 41.101951, -100.477867 41.103014, -100.492239 41.104075, -100.506612 41.105135, -100.520985 41.106193, -100.535359 41.107248, -100.549733 41.108303, -100.564108 41.109355, -100.578483 41.110405, -100.592858 41.111454, -100.607234 41.112501, -100.621611 41.113546, -100.635987 41.114590, -100.650365 41.115631, -100.664743 41.116671, -100.679121 41.117709, -100.693500 41.118746, -100.707879 41.119780, -100.722258 41.120813, -100.736638 41.121844, -100.751019 41.122873, -100.765400 41.123900, -100.779782 41.123289, -100.794164 41.122677, -100.808546 41.122062, -100.822928 41.121446, -100.837309 41.120828, -100.851690 41.120208, -100.866071 41.119587, -100.880451 41.118963, -100.894831 41.118338, -100.909211 41.117711, -100.923591 41.117083, -100.937970 41.116452, -100.952349 41.115820, -100.966728 41.115186, -100.981106 41.114550, -100.995485 41.113912, -101.009863 41.113273, -101.024240 41.112632, -101.038618 41.111989, -101.052995 41.111344, -101.067371 41.110697, -101.081748 41.110049, -101.096124 41.109399, -101.110500 41.108747, -101.124876 41.108093, -101.139251 41.107437, -101.153626 41.106780, -101.168001 41.106121, -101.182376 41.105460, -101.196750 41.104798, -101.211124 41.104133, -101.225498 41.103467, -101.239871 41.102799, -101.254244 41.102129, -101.268617 41.101457, -101.282989 41.100784, -101.297361 41.100109, -101.311733 41.099432, -101.326105 41.098753, -101.340476 41.098073, -101.354847 41.097390, -101.369218 41.096706, -101.383588 41.096020, -101.397958 41.095333, -101.412328 41.094643, -101.426698 41.093952, -101.441067 41.093259, -101.455436 41.092564, -101.469804 41.091868, -101.484173 41.091169, -101.498541 41.090469, -101.512908 41.089767, -101.527276 41.089063, -101.541643 41.088358, -101.556009 41.087651, -101.570376 41.086941, -101.584742 41.086231, -101.599108 41.085518, -101.613473 41.084804, -101.627839 41.084087, -101.642203 41.083369, -101.656568 41.082649, -101.670932 41.081928, -101.685296 41.081205, -101.699660 41.080479, -101.714023 41.079753, -101.728386 41.079024, -101.742749 41.078293, -101.757111 41.077561, -101.771473 41.076827, -101.785835 41.076091, -101.800196 41.075354, -101.814557 41.074614, -101.828918 41.073873, -101.843278 41.073130, -101.857638 41.072385, -101.871998 41.071639, -101.886358 41.070890, -101.900717 41.070140, -101.915075 41.069388, -101.929434 41.068635, -101.943792 41.067879, -101.958150 41.067122, -101.972507 41.066363, -101.986864 41.065602, -102.001221 41.064840, -102.015578 41.064075, -102.029934 41.063309, -102.044289 41.062541, -102.058645 41.061771, -102.073000 41.061000, -102.087439 41.061586, -102.101879 41.062171, -102.116319 41.062754, -102.130759 41.063335, -102.145199 41.063914, -102.159640 41.064492, -102.174081 41.065067, -102.188522 41.065641, -102.202963 41.066213, -102.217405 41.066783, -102.231846 41.067352, -102.246288 41.067919, -102.260731 41.068483, -102.275173 41.069046, -102.289616 41.069608, -102.304059 41.070167, -102.318503 41.070725, -102.332946 41.071280, -102.347390 41.071834, -102.361834 41.072387, -102.376278 41.072937, -102.390723 41.073486, -102.405168 41.074032, -102.419613 41.074577, -102.434058 41.075121, -102.448504 41.075662, -102.462949 41.076202, -102.477395 41.076739, -102.491841 41.077275, -102.506288 41.077810, -102.520735 41.078342, -102.535182 41.078872, -102.549629 41.079401, -102.564076 41.079928, -102.578524 41.080453, -102.592971 41.080977, -102.607420 41.081498, -102.621868 41.082018, -102.636316 41.082536, -102.650765 41.083052, -102.665214 41.083566, -102.679663 41.084079, -102.694113 41.084589, -102.708562 41.085098, -102.723012 41.085605, -102.737462 41.086111, -102.751913 41.086614, -102.766363 41.087116, -102.780814 41.087616, -102.795265 41.088114, -102.809716 41.088610, -102.824168 41.089105, -102.838619 41.089597, -102.853071 41.090088, -102.867523 41.090577, -102.881975 41.091064, -102.896428 41.091550, -102.910881 41.092033, -102.925334 41.092515, -102.939787 41.092995, -102.954240 41.093473, -102.968694 41.093950, -102.983147 41.094424, -102.997601 41.094897, -103.012056 41.095368, -103.026510 41.095837, -103.040965 41.096305, -103.055419 41.096770, -103.069874 41.097234, -103.084330 41.097696, -103.098785 41.098156, -103.113241 41.098614, -103.127696 41.099071, -103.142152 41.099526, -103.156609 41.099979, -103.171065 41.100430, -103.185522 41.100879, -103.199979 41.101327, -103.214436 41.101772, -103.228893 41.102216, -103.243350 41.102658, -103.257808 41.103098, -103.272266 41.103537, -103.286723 41.103974, -103.301182 41.104408, -103.315640 41.104841, -103.330099 41.105273, -103.344557 41.105702, -103.359016 41.106130, -103.373475 41.106555, -103.387935 41.106979, -103.402394 41.107402, -103.416854 41.107822, -103.431314 41.108241, -103.445774 41.108657, -103.460234 41.109072, -103.474694 41.109486, -103.489155 41.109897, -103.503616 41.110306, -103.518077 41.110714, -103.532538 41.111120, -103.546999 41.111524, -103.561461 41.111926, -103.575922 41.112327, -103.590384 41.112726, -103.604846 41.113123, -103.619308 41.113518, -103.633771 41.113911, -103.648233 41.114302, -103.662696 41.114692, -103.677159 41.115080, -103.691622 41.115466, -103.706085 41.115850, -103.720549 41.116232, -103.735012 41.116613, -103.749476 41.116992, -103.763940 41.117369, -103.778404 41.117744, -103.792868 41.118117, -103.807332 41.118489, -103.821797 41.118859, -103.836262 41.119227, -103.850726 41.119593, -103.865192 41.119957, -103.879657 41.120320, -103.894122 41.120680, -103.908588 41.121039, -103.923053 41.121396, -103.937519 41.121751, -103.951985 41.122105, -103.966451 41.122457, -103.980918 41.122806, -103.995384 41.123154, -104.009851 41.123501, -104.024317 41.123845, -104.038784 41.124188, -104.053251 41.124529, -104.067718 41.124868, -104.082186 41.125205, -104.096653 41.125540, -104.111121 41.125874, -104.125589 41.126205, -104.140057 41.126535, -104.154525 41.126863, -104.168993 41.127190, -104.183461 41.127514, -104.197930 41.127837, -104.212399 41.128158, -104.226867 41.128477, -104.241336 41.128794, -104.255805 41.129110, -104.270275 41.129423, -104.284744 41.129735, -104.299214 41.130045, -104.313683 41.130353, -104.328153 41.130660, -104.342623 41.130964, -104.357093 41.131267, -104.371563 41.131568, -104.386033 41.131867, -104.400504 41.132165, -104.414974 41.132460, -104.429445 41.132754, -104.443916 41.133046, -104.458387 41.133336, -104.472858 41.133624, -104.487329 41.133911, -104.501800 41.134195, -104.516272 41.134478, -104.530743 41.134759, -104.545215 41.135039, -104.559687 41.135316, -104.574159 41.135592, -104.588631 41.135865, -104.603103 41.136137, -104.617576 41.136408, -104.632048 41.136676, -104.646521 41.136943, -104.660993 41.137207, -104.675466 41.137470, -104.689939 41.137731, -104.704412 41.137991, -104.718885 41.138248, -104.733358 41.138504, -104.747832 41.138758, -104.762305 41.139010, -104.776779 41.139260, -104.791252 41.139509, -104.805726 41.139755, -104.820200 41.140000, -104.833931 41.143106, -104.847662 41.146210, -104.861395 41.149312, -104.875130 41.152413, -104.888866 41.155512, -104.902603 41.158610, -104.916341 41.161706, -104.930081 41.164800, -104.943822 41.167893, -104.957564 41.170984, -104.971307 41.174073, -104.985052 41.177161, -104.998798 41.180247, -105.012546 41.183332, -105.026294 41.186414, -105.040044 41.189496, -105.053795 41.192575, -105.067548 41.195653, -105.081302 41.198729, -105.095057 41.201804, -105.108814 41.204877, -105.122571 41.207949, -105.136330 41.211018, -105.150091 41.214087, -105.163852 41.217153, -105.177615 41.220218, -105.191379 41.223281, -105.205145 41.226343, -105.218912 41.229403, -105.232680 41.232461, -105.246449 41.235518, -105.260220 41.238573, -105.273992 41.241626, -105.287765 41.244678, -105.301539 41.247728, -105.315315 41.250776, -105.329092 41.253823, -105.342870 41.256868, -105.356650 41.259912, -105.370431 41.262954, -105.384213 41.265994, -105.397997 41.269032, -105.411781 41.272069, -105.425568 41.275105, -105.439355 41.278138, -105.453143 41.281170, -105.466933 41.284201, -105.480725 41.287229, -105.494517 41.290257, -105.508311 41.293282, -105.522106 41.296306, -105.535902 41.299328, -105.549700 41.302348, -105.563498 41.305367, -105.577299 41.308384, -105.591100 41.311400, -105.604505 41.315427, -105.617912 41.319453, -105.631321 41.323477, -105.644731 41.327499, -105.658143 41.331520, -105.671556 41.335539, -105.684971 41.339557, -105.698388 41.343573, -105.711807 41.347588, -105.725227 41.351601, -105.738649 41.355612, -105.752072 41.359622, -105.765497 41.363630, -105.778924 41.367637, -105.792352 41.371642, -105.805783 41.375646, -105.819214 41.379648, -105.832648 41.383649, -105.846083 41.387648, -105.859519 41.391645, -105.872958 41.395641, -105.886398 41.399636, -105.899839 41.403628, -105.913283 41.407619, -105.926728 41.411609, -105.940174 41.415597, -105.953622 41.419584, -105.967072 41.423569, -105.980524 41.427552, -105.993977 41.431534, -106.007432 41.435514, -106.020888 41.439493, -106.034346 41.443470, -106.047806 41.447445, -106.061268 41.451419, -106.074731 41.455392, -106.088195 41.459362, -106.101662 41.463332, -106.115130 41.467299, -106.128600 41.471265, -106.142071 41.475230, -106.155544 41.479193, -106.169019 41.483154, -106.182495 41.487114, -106.195973 41.491072, -106.209452 41.495029, -106.222933 41.498984, -106.236416 41.502938, -106.249901 41.506889, -106.263387 41.510840, -106.276875 41.514789, -106.290364 41.518736, -106.303855 41.522681, -106.317348 41.526626, -106.330842 41.530568, -106.344338 41.534509, -106.357836 41.538448, -106.371335 41.542386, -106.384836 41.546322, -106.398339 41.550257, -106.411843 41.554190, -106.425349 41.558121, -106.438857 41.562051, -106.452366 41.565979, -106.465877 41.569906, -106.479389 41.573831, -106.492903 41.577755, -106.506419 41.581677, -106.519936 41.585597, -106.533455 41.589516, -106.546976 41.593433, -106.560498 41.597349, -106.574022 41.601263, -106.587548 41.605175, -106.601075 41.609086, -106.614604 41.612995, -106.628134 41.616903, -106.641667 41.620809, -106.655200 41.624713, -106.668736 41.628616, -106.682273 41.632518, -106.695811 41.636417, -106.709352 41.640316, -106.722894 41.644212, -106.736437 41.648107, -106.749983 41.652000, -106.763530 41.655892, -106.777078 41.659782, -106.790628 41.663671, -106.804180 41.667558, -106.817733 41.671444, -106.831289 41.675327, -106.844845 41.679210, -106.858404 41.683090, -106.871964 41.686969, -106.885525 41.690847, -106.899088 41.694723, -106.912653 41.698597, -106.926220 41.702470, -106.939788 41.706341, -106.953358 41.710210, -106.966929 41.714078, -106.980502 41.717944, -106.994077 41.721809, -107.007653 41.725672, -107.021231 41.729534, -107.034811 41.733394, -107.048392 41.737252, -107.061975 41.741109, -107.075559 41.744964, -107.089145 41.748817, -107.102733 41.752669, -107.116322 41.756519, -107.129913 41.760368, -107.143506 41.764215, -107.157100 41.768061, -107.170696 41.771905, -107.184294 41.775747, -107.197893 41.779588, -107.211494 41.783427, -107.225096 41.787264, -107.238700 41.791100, -107.253128 41.789545, -107.267555 41.787988, -107.281981 41.786429, -107.296407 41.784868, -107.310832 41.783305, -107.325256 41.781741, -107.339680 41.780175, -107.354102 41.778607, -107.368525 41.777037, -107.382946 41.775466, -107.397367 41.773892, -107.411787 41.772317, -107.426206 41.770740, -107.440625 41.769161, -107.455043 41.767581, -107.469460 41.765998, -107.483876 41.764414, -107.498292 41.762828, -107.512707 41.761240, -107.527121 41.759651, -107.541535 41.758059, -107.555948 41.756466, -107.570360 41.754871, -107.584771 41.753275, -107.599182 41.751676, -107.613592 41.750076, -107.628002 41.748473, -107.642410 41.746869, -107.656818 41.745264, -107.671225 41.743656, -107.685632 41.742047, -107.700037 41.740435, -107.714442 41.738822, -107.728846 41.737208, -107.743250 41.735591, -107.757653 41.733973, -107.772055 41.732352, -107.786456 41.730731, -107.800857 41.729107, -107.815257 41.727481, -107.829656 41.725854, -107.844054 41.724225, -107.858452 41.722594, -107.872849 41.720961, -107.887245 41.719326, -107.901641 41.717690, -107.916036 41.716052, -107.930430 41.714412, -107.944823 41.712770, -107.959216 41.711127, -107.973607 41.709481, -107.987998 41.707834, -108.002389 41.706185, -108.016778 41.704534, -108.031167 41.702882, -108.045555 41.701228, -108.059943 41.699571, -108.074330 41.697914, -108.088715 41.696254, -108.103101 41.694592, -108.117485 41.692929, -108.131869 41.691264, -108.146252 41.689597, -108.160634 41.687928, -108.175015 41.686258, -108.189396 41.684586, -108.203776 41.682912, -108.218155 41.681236, -108.232534 41.679558, -108.246911 41.677879, -108.261288 41.676198, -108.275665 41.674515, -108.290040 41.672830, -108.304415 41.671143, -108.318789 41.669455, -108.333162 41.667765, -108.347534 41.666073, -108.361906 41.664379, -108.376277 41.662683, -108.390647 41.660986, -108.405016 41.659287, -108.419385 41.657586, -108.433753 41.655883, -108.448120 41.654179, -108.462487 41.652473, -108.476852 41.650765, -108.491217 41.649055, -108.505581 41.647343, -108.519944 41.645630, -108.534307 41.643914, -108.548669 41.642197, -108.563030 41.640479, -108.577390 41.638758, -108.591750 41.637036, -108.606108 41.635312, -108.620466 41.633586, -108.634823 41.631858, -108.649180 41.630128, -108.663535 41.628397, -108.677890 41.626664, -108.692244 41.624929, -108.706598 41.623192, -108.720950 41.621454, -108.735302 41.619714, -108.749653 41.617972, -108.764003 41.616228, -108.778353 41.614482, -108.792701 41.612735, -108.807049 41.610986, -108.821397 41.609235, -108.835743 41.607482, -108.850088 41.605728, -108.864433 41.603971, -108.878777 41.602213, -108.893120 41.600453, -108.907463 41.598692, -108.921805 41.596928, -108.936145 41.595163, -108.950485 41.593396, -108.964825 41.591627, -108.979163 41.589857, -108.993501 41.588085, -109.007838 41.586311, -109.022174 41.584535, -109.036509 41.582757, -109.050844 41.580978, -109.065178 41.579196, -109.079511 41.577413, -109.093843 41.575629, -109.108174 41.573842, -109.122505 41.572054, -109.136835 41.570263, -109.151164 41.568472, -109.165492 41.566678, -109.179820 41.564882, -109.194146 41.563085, -109.208472 41.561286, -109.222797 41.559485, -109.237121 41.557683, -109.251445 41.555878, -109.265767 41.554072, -109.280089 41.552264, -109.294410 41.550455, -109.308731 41.548643, -109.323050 41.546830, -109.337369 41.545015, -109.351686 41.543198, -109.366003 41.541380, -109.380320 41.539559, -109.394635 41.537737, -109.408950 41.535913, -109.423263 41.534088, -109.437576 41.532260, -109.451889 41.530431, -109.466200 41.528600, -109.480072 41.525508, -109.493944 41.522415, -109.507813 41.519320, -109.521682 41.516224, -109.535549 41.513126, -109.549415 41.510026, -109.563279 41.506924, -109.577142 41.503821, -109.591004 41.500716, -109.604865 41.497610, -109.618724 41.494502, -109.632581 41.491392, -109.646438 41.488281, -109.660293 41.485167, -109.674147 41.482053, -109.687999 41.478936, -109.701851 41.475818, -109.715700 41.472698, -109.729549 41.469577, -109.743396 41.466454, -109.757242 41.463329, -109.771086 41.460202, -109.784930 41.457074, -109.798771 41.453944, -109.812612 41.450813, -109.826451 41.447680, -109.840289 41.444545, -109.854125 41.441409, -109.867960 41.438271, -109.881794 41.435131, -109.895627 41.431990, -109.909458 41.428847, -109.923288 41.425702, -109.937116 41.422556, -109.950943 41.419408, -109.964769 41.416258, -109.978593 41.413107, -109.992416 41.409954, -110.006238 41.406799, -110.020058 41.403643, -110.033877 41.400485, -110.047695 41.397325, -110.061512 41.394164, -110.075327 41.391001, -110.089140 41.387837, -110.102953 41.384671, -110.116764 41.381503, -110.130573 41.378333, -110.144381 41.375162, -110.158188 41.371989, -110.171994 41.368815, -110.185798 41.365639, -110.199601 41.362461, -110.213403 41.359282, -110.227203 41.356101, -110.241002 41.352918, -110.254799 41.349734, -110.268595 41.346548, -110.282390 41.343360, -110.296184 41.340171, -110.309976 41.336980, -110.323767 41.333787, -110.337556 41.330593, -110.351344 41.327397, -110.365131 41.324200, -110.378916 41.321001, -110.392700 41.317800, -110.405725 41.313082, -110.418748 41.308362, -110.431769 41.303641, -110.444788 41.298918, -110.457805 41.294194, -110.470820 41.289468, -110.483834 41.284741, -110.496845 41.280012, -110.509855 41.275282, -110.522863 41.270551, -110.535869 41.265818, -110.548873 41.261083, -110.561875 41.256348, -110.574875 41.251610, -110.587874 41.246871, -110.600870 41.242131, -110.613865 41.237389, -110.626857 41.232646, -110.639848 41.227902, -110.652837 41.223155, -110.665824 41.218408, -110.678809 41.213659, -110.691793 41.208908, -110.704774 41.204156, -110.717754 41.199403, -110.730731 41.194648, -110.743707 41.189892, -110.756681 41.185134, -110.769653 41.180375, -110.782623 41.175614, -110.795591 41.170852, -110.808557 41.166088, -110.821522 41.161323, -110.834484 41.156557, -110.847445 41.151789, -110.860404 41.147019, -110.873361 41.142248, -110.886316 41.137476, -110.899269 41.132702, -110.912220 41.127927, -110.925169 41.123150, -110.938117 41.118372, -110.951063 41.113593, -110.964006 41.108812, -110.976948 41.104029, -110.989888 41.099245, -111.002826 41.094460, -111.015762 41.089673, -111.028696 41.084885, -111.041629 41.080095, -111.054559 41.075304, -111.067488 41.070511, -111.080415 41.065717, -111.093340 41.060922, -111.106262 41.056125, -111.119184 41.051327, -111.132103 41.046527, -111.145020 41.041725, -111.157935 41.036923, -111.170849 41.032119, -111.183761 41.027313, -111.196670 41.022506, -111.209578 41.017698, -111.222484 41.012888, -111.235388 41.008076, -111.248291 41.003264, -111.261191 40.998449, -111.274089 40.993634, -111.286986 40.988817, -111.299881 40.983998, -111.312774 40.979178, -111.325664 40.974357, -111.338553 40.969534, -111.351441 40.964710, -111.364326 40.959884, -111.377209 40.955057, -111.390091 40.950228, -111.402970 40.945398, -111.415848 40.940567, -111.428724 40.935734, -111.441598 40.930899, -111.454470 40.926064, -111.467340 40.921227, -111.480209 40.916388, -111.493075 40.911548, -111.505939 40.906706, -111.518802 40.901864, -111.531663 40.897019, -111.544522 40.892174, -111.557379 40.887326, -111.570234 40.882478, -111.583087 40.877628, -111.595939 40.872776, -111.608788 40.867923, -111.621636 40.863069, -111.634481 40.858213, -111.647325 40.853356, -111.660167 40.848498, -111.673007 40.843638, -111.685845 40.838776, -111.698682 40.833913, -111.711516 40.829049, -111.724349 40.824183, -111.737179 40.819316, -111.750008 40.814448, -111.762835 40.809578, -111.775660 40.804706, -111.788483 40.799833, -111.801304 40.794959, -111.814123 40.790084, -111.826941 40.785207, -111.839757 40.780328, -111.852570 40.775448, -111.865382 40.770567, -111.878192 40.765684, -111.891000 40.760800, -111.905384 40.760314, -111.919767 40.759826, -111.934151 40.759336, -111.948534 40.758844, -111.962917 40.758351, -111.977299 40.757855, -111.991682 40.757358, -112.006064 40.756860, -112.020446 40.756359, -112.034828 40.755857, -112.049210 40.755352, -112.063591 40.754847, -112.077972 40.754339, -112.092353 40.753829, -112.106734 40.753318, -112.121114 40.752805, -112.135495 40.752290, -112.149875 40.751773, -112.164255 40.751255, -112.178634 40.750735, -112.193014 40.750213, -112.207393 40.749689, -112.221772 40.749163, -112.236150 40.748636, -112.250529 40.748107, -112.264907 40.747576, -112.279285 40.747043, -112.293663 40.746509, -112.308041 40.745972, -112.322418 40.745434, -112.336795 40.744895, -112.351172 40.744353, -112.365548 40.743810, -112.379925 40.743264, -112.394301 40.742717, -112.408677 40.742169, -112.423053 40.741618, -112.437428 40.741066, -112.451803 40.740512, -112.466178 40.739956, -112.480553 40.739398, -112.494927 40.738839, -112.509302 40.738277, -112.523676 40.737714, -112.538049 40.737149, -112.552423 40.736583, -112.566796 40.736014, -112.581169 40.735444, -112.595542 40.734872, -112.609914 40.734299, -112.624287 40.733723, -112.638659 40.733146, -112.653031 40.732567, -112.667402 40.731986, -112.681773 40.731403, -112.696144 40.730819, -112.710515 40.730233, -112.724886 40.729645, -112.739256 40.729055, -112.753626 40.728463, -112.767996 40.727870, -112.782365 40.727275, -112.796734 40.726678, -112.811103 40.726079, -112.825472 40.725479, -112.839841 40.724876, -112.854209 40.724272, -112.868577 40.723667, -112.882944 40.723059, -112.897312 40.722450, -112.911679 40.721839, -112.926046 40.721226, -112.940413 40.720611, -112.954779 40.719994, -112.969145 40.719376, -112.983511 40.718756, -112.997876 40.718134, -113.012242 40.717511, -113.026607 40.716885, -113.040971 40.716258, -113.055336 40.715629, -113.069700 40.714998, -113.084064 40.714366, -113.098428 40.713731, -113.112791 40.713095, -113.127154 40.712458, -113.141517 40.711818, -113.155880 40.711176, -113.170242 40.710533, -113.184604 40.709888, -113.198966 40.709242, -113.213327 40.708593, -113.227688 40.707943, -113.242049 40.707291, -113.256410 40.706637, -113.270770 40.705981, -113.285130 40.705324, -113.299490 40.704664, -113.313849 40.704003, -113.328208 40.703341, -113.342567 40.702676, -113.356926 40.702010, -113.371284 40.701342, -113.385642 40.700672, -113.400000 40.700000, -113.408944 40.691512, -113.417886 40.683023, -113.426825 40.674533, -113.435762 40.666043, -113.444697 40.657552, -113.453630 40.649061, -113.462560 40.640568, -113.471488 40.632075, -113.480414 40.623582, -113.489337 40.615087, -113.498259 40.606592, -113.507178 40.598097, -113.516094 40.589600, -113.525009 40.581103, -113.533921 40.572605, -113.542831 40.564107, -113.551739 40.555608, -113.560644 40.547108, -113.569547 40.538607, -113.578448 40.530106, -113.587347 40.521604, -113.596243 40.513102, -113.605137 40.504598, -113.614029 40.496094, -113.622919 40.487590, -113.631806 40.479084, -113.640691 40.470578, -113.649574 40.462072, -113.658455 40.453564, -113.667333 40.445056, -113.676209 40.436548, -113.685083 40.428038, -113.693954 40.419528, -113.702824 40.411018, -113.711691 40.402506, -113.720556 40.393994, -113.729418 40.385481, -113.738279 40.376968, -113.747137 40.368454, -113.755993 40.359939, -113.764847 40.351423, -113.773698 40.342907, -113.782547 40.334391, -113.791394 40.325873, -113.800239 40.317355, -113.809082 40.308836, -113.817922 40.300316, -113.826760 40.291796, -113.835596 40.283275, -113.844429 40.274754, -113.853261 40.266232, -113.862090 40.257709, -113.870917 40.249185, -113.879741 40.240661, -113.888564 40.232136, -113.897384 40.223611, -113.906202 40.215084, -113.915018 40.206558, -113.923832 40.198030, -113.932643 40.189502, -113.941452 40.180973, -113.950259 40.172443, -113.959064 40.163913, -113.967866 40.155382, -113.976667 40.146851, -113.985465 40.138318, -113.994261 40.129785, -114.003054 40.121252, -114.011846 40.112718, -114.020635 40.104183, -114.029422 40.095647, -114.038207 40.087111, -114.046990 40.078574, -114.055770 40.070037, -114.064549 40.061498, -114.073325 40.052959, -114.082099 40.044420, -114.090870 40.035880, -114.099640 40.027339, -114.108407 40.018797, -114.117172 40.010255, -114.125935 40.001712, -114.134696 39.993169, -114.143454 39.984625, -114.152210 39.976080, -114.160965 39.967534, -114.169716 39.958988, -114.178466 39.950442, -114.187214 39.941894, -114.195959 39.933346, -114.204702 39.924797, -114.213443 39.916248, -114.222182 39.907698, -114.230919 39.899147, -114.239653 39.890596, -114.248386 39.882044, -114.257116 39.873491, -114.265844 39.864938, -114.274569 39.856384, -114.283293 39.847829, -114.292014 39.839274, -114.300734 39.830718, -114.309451 39.822161, -114.318165 39.813604, -114.326878 39.805046, -114.335589 39.796487, -114.344297 39.787928, -114.353003 39.779368, -114.361707 39.770808, -114.370409 39.762246, -114.379109 39.753685, -114.387807 39.745122, -114.396502 39.736559, -114.405195 39.727995, -114.413886 39.719431, -114.422575 39.710866, -114.431262 39.702300, -114.439947 39.693734, -114.448629 39.685167, -114.457309 39.676599, -114.465987 39.668031, -114.474663 39.659462, -114.483337 39.650892, -114.492009 39.642322, -114.500679 39.633751, -114.509346 39.625180, -114.518011 39.616607, -114.526674 39.608035, -114.535335 39.599461, -114.543994 39.590887, -114.552651 39.582312, -114.561305 39.573737, -114.569958 39.565161, -114.578608 39.556584, -114.587256 39.548007, -114.595902 39.539429, -114.604546 39.530850, -114.613187 39.522271, -114.621827 39.513691, -114.630464 39.505111, -114.639100 39.496530, -114.647733 39.487948, -114.656364 39.479365, -114.664993 39.470782, -114.673620 39.462199, -114.682244 39.453614, -114.690867 39.445029, -114.699487 39.436444, -114.708105 39.427857, -114.716722 39.419271, -114.725336 39.410683, -114.733947 39.402095, -114.742557 39.393506, -114.751165 39.384917, -114.759770 39.376327, -114.768374 39.367736, -114.776975 39.359145, -114.785574 39.350553, -114.794171 39.341960, -114.802766 39.333367, -114.811359 39.324773, -114.819950 39.316179, -114.828539 39.307583, -114.837125 39.298988, -114.845710 39.290391, -114.854292 39.281794, -114.862872 39.273197, -114.871450 39.264598, -114.880026 39.256000, -114.888600 39.247400, -114.902520 39.249103, -114.916442 39.250805, -114.930364 39.252505, -114.944286 39.254204, -114.958209 39.255901, -114.972133 39.257596, -114.986058 39.259290, -114.999983 39.260981, -115.013909 39.262672, -115.027835 39.264360, -115.041762 39.266047, -115.055690 39.267732, -115.069619 39.269416, -115.083548 39.271098, -115.097478 39.272778, -115.111409 39.274457, -115.125340 39.276134, -115.139272 39.277809, -115.153204 39.279483, -115.167138 39.281155, -115.181071 39.282825, -115.195006 39.284494, -115.208941 39.286161, -115.222877 39.287826, -115.236814 39.289490, -115.250751 39.291152, -115.264689 39.292812, -115.278627 39.294471, -115.292567 39.296128, -115.306506 39.297783, -115.320447 39.299437, -115.334388 39.301089, -115.348330 39.302739, -115.362272 39.304388, -115.376216 39.306035, -115.390159 39.307680, -115.404104 39.309324, -115.418049 39.310966, -115.431995 39.312606, -115.445941 39.314245, -115.459888 39.315882, -115.473836 39.317518, -115.487784 39.319151, -115.501733 39.320783, -115.515683 39.322414, -115.529633 39.324042, -115.543584 39.325670, -115.557536 39.327295, -115.571488 39.328919, -115.585441 39.330541, -115.599395 39.332161, -115.613349 39.333780, -115.627304 39.335397, -115.641259 39.337012, -115.655215 39.338626, -115.669172 39.340238, -115.683130 39.341849, -115.697088 39.343457, -115.711046 39.345064, -115.725006 39.346670, -115.738966 39.348274, -115.752926 39.349876, -115.766888 39.351476, -115.780850 39.353075, -115.794812 39.354672, -115.808775 39.356267, -115.822739 39.357861, -115.836704 39.359453, -115.850669 39.361043, -115.864635 39.362632, -115.878601 39.364219, -115.892568 39.365805, -115.906536 39.367388, -115.920504 39.368970, -115.934473 39.370551, -115.948442 39.372129, -115.962413 39.373707, -115.976383 39.375282, -115.990355 39.376856, -116.004327 39.378428, -116.018300 39.379998, -116.032273 39.381567, -116.046247 39.383134, -116.060221 39.384699, -116.074197 39.386263, -116.088173 39.387825, -116.102149 39.389385, -116.116126 39.390944, -116.130104 39.392501, -116.144082 39.394056, -116.158061 39.395610, -116.172041 39.397161, -116.186021 39.398712, -116.200002 39.400260, -116.213983 39.401807, -116.227965 39.403353, -116.241948 39.404896, -116.255931 39.406438, -116.269915 39.407978, -116.283900 39.409517, -116.297885 39.411054, -116.311871 39.412589, -116.325857 39.414123, -116.339844 39.415654, -116.353832 39.417185, -116.367820 39.418713, -116.381809 39.420240, -116.395798 39.421765, -116.409788 39.423289, -116.423779 39.424811, -116.437770 39.426331, -116.451762 39.427849, -116.465754 39.429366, -116.479748 39.430881, -116.493741 39.432395, -116.507736 39.433906, -116.521731 39.435416, -116.535726 39.436925, -116.549722 39.438432, -116.563719 39.439937, -116.577716 39.441440, -116.591714 39.442942, -116.605713 39.444442, -116.619712 39.445940, -116.633712 39.447437, -116.647712 39.448932, -116.661713 39.450425, -116.675715 39.451917, -116.689717 39.453407, -116.703720 39.454895, -116.717723 39.456381, -116.731727 39.457866, -116.745732 39.459350, -116.759737 39.460831, -116.773743 39.462311, -116.787749 39.463789, -116.801756 39.465266, -116.815763 39.466741, -116.829772 39.468214, -116.843780 39.469685, -116.857790 39.471155, -116.871799 39.472623, -116.885810 39.474089, -116.899821 39.475554, -116.913833 39.477017, -116.927845 39.478479, -116.941858 39.479938, -116.955871 39.481396, -116.969885 39.482853, -116.983900 39.484307, -116.997915 39.485760, -117.011931 39.487212, -117.025947 39.488661, -117.039964 39.490109, -117.053982 39.491555, -117.068000 39.493000, -117.082127 39.492946, -117.096254 39.492889, -117.110381 39.492831, -117.124508 39.492772, -117.138635 39.492710, -117.152761 39.492647, -117.166888 39.492583, -117.181015 39.492516, -117.195142 39.492448, -117.209269 39.492378, -117.223395 39.492307, -117.237522 39.492233, -117.251649 39.492158, -117.265775 39.492082, -117.279902 39.492003, -117.294028 39.491923, -117.308155 39.491841, -117.322281 39.491758, -117.336408 39.491673, -117.350534 39.491586, -117.364661 39.491497, -117.378787 39.491407, -117.392913 39.491314, -117.407040 39.491221, -117.421166 39.491125, -117.435292 39.491028, -117.449418 39.490929, -117.463544 39.490828, -117.477670 39.490726, -117.491796 39.490622, -117.505922 39.490516, -117.520048 39.490409, -117.534174 39.490300, -117.548300 39.490189, -117.562426 39.490076, -117.576552 39.489962, -117.590677 39.489846, -117.604803 39.489728, -117.618929 39.489609, -117.633054 39.489487, -117.647180 39.489365, -117.661305 39.489240, -117.675431 39.489114, -117.689556 39.488986, -117.703681 39.488856, -117.717807 39.488725, -117.731932 39.488591, -117.746057 39.488457, -117.760182 39.488320, -117.774307 39.488182, -117.788432 39.488042, -117.802557 39.487900, -117.816682 39.487757, -117.830807 39.487612, -117.844932 39.487465, -117.859056 39.487317, -117.873181 39.487166, -117.887306 39.487014, -117.901430 39.486861, -117.915555 39.486706, -117.929679 39.486549, -117.943803 39.486390, -117.957928 39.486229, -117.972052 39.486067, -117.986176 39.485903, -118.000300 39.485738, -118.014424 39.485570, -118.028548 39.485401, -118.042672 39.485231, -118.056795 39.485058, -118.070919 39.484884, -118.085043 39.484708, -118.099166 39.484531, -118.113290 39.484352, -118.127413 39.484171, -118.141537 39.483988, -118.155660 39.483804, -118.169783 39.483617, -118.183906 39.483430, -118.198029 39.483240, -118.212152 39.483049, -118.226275 39.482856, -118.240398 39.482661, -118.254521 39.482465, -118.268643 39.482267, -118.282766 39.482067, -118.296889 39.481866, -118.311011 39.481663, -118.325133 39.481458, -118.339256 39.481251, -118.353378 39.481043, -118.367500 39.480833, -118.381622 39.480621, -118.395744 39.480408, -118.409865 39.480193, -118.423987 39.479976, -118.438109 39.479757, -118.452230 39.479537, -118.466352 39.479315, -118.480473 39.479091, -118.494595 39.478866, -118.508716 39.478639, -118.522837 39.478410, -118.536958 39.478180, -118.551079 39.477948, -118.565200 39.477714, -118.579320 39.477478, -118.593441 39.477241, -118.607561 39.477002, -118.621682 39.476761, -118.635802 39.476518, -118.649922 39.476274, -118.664043 39.476028, -118.678163 39.475781, -118.692283 39.475532, -118.706402 39.475281, -118.720522 39.475028, -118.734642 39.474773, -118.748761 39.474517, -118.762881 39.474260, -118.777000 39.474000, -118.790089 39.469973, -118.803176 39.465945, -118.816261 39.461915, -118.829345 39.457884, -118.842428 39.453851, -118.855508 39.449816, -118.868588 39.445781, -118.881666 39.441744, -118.894742 39.437705, -118.907817 39.433665, -118.920891 39.429623, -118.933962 39.425580, -118.947033 39.421536, -118.960102 39.417490, -118.973169 39.413442, -118.986235 39.409393, -118.999299 39.405343, -119.012362 39.401291, -119.025423 39.397238, -119.038483 39.393183, -119.051541 39.389127, -119.064598 39.385070, -119.077653 39.381010, -119.090706 39.376950, -119.103759 39.372888, -119.116809 39.368824, -119.129858 39.364759, -119.142906 39.360693, -119.155952 39.356625, -119.168996 39.352556, -119.182039 39.348485, -119.195081 39.344413, -119.208121 39.340339, -119.221159 39.336264, -119.234196 39.332188, -119.247232 39.328109, -119.260266 39.324030, -119.273298 39.319949, -119.286329 39.315867, -119.299358 39.311783, -119.312386 39.307697, -119.325412 39.303611, -119.338437 39.299523, -119.351460 39.295433, -119.364482 39.291342, -119.377502 39.287249, -119.390521 39.283155, -119.403538 39.279060, -119.416554 39.274963, -119.429568 39.270864, -119.442580 39.266765, -119.455591 39.262663, -119.468601 39.258561, -119.481609 39.254457, -119.494616 39.250351, -119.507620 39.246244, -119.520624 39.242135, -119.533626 39.238026, -119.546626 39.233914, -119.559625 39.229801, -119.572623 39.225687, -119.585618 39.221571, -119.598613 39.217454, -119.611605 39.213336, -119.624597 39.209216, -119.637586 39.205094, -119.650575 39.200971, -119.663561 39.196847, -119.676547 39.192721, -119.689530 39.188594, -119.702512 39.184465, -119.715493 39.180335, -119.728472 39.176203, -119.741449 39.172070, -119.754426 39.167936, -119.767400 39.163800, -119.774654 39.154813, -119.781906 39.145826, -119.789156 39.136838, -119.796405 39.127850, -119.803651 39.118862, -119.810896 39.109873, -119.818139 39.100883, -119.825380 39.091893, -119.832619 39.082903, -119.839856 39.073912, -119.847091 39.064921, -119.854325 39.055929, -119.861557 39.046937, -119.868787 39.037945, -119.876015 39.028952, -119.883241 39.019958, -119.890465 39.010964, -119.897688 39.001970, -119.904909 38.992975, -119.912128 38.983980, -119.919345 38.974984, -119.926560 38.965988, -119.933773 38.956992, -119.940985 38.947995, -119.948195 38.938997, -119.955403 38.929999, -119.962609 38.921001, -119.969813 38.912002, -119.977015 38.903003, -119.984216 38.894003, -119.991415 38.885003, -119.998612 38.876002, -120.005807 38.867001, -120.013000 38.858000, -120.026567 38.855831, -120.040133 38.853660, -120.053698 38.851488, -120.067263 38.849314, -120.080826 38.847138, -120.094389 38.844961, -120.107951 38.842783, -120.121512 38.840603, -120.135073 38.838421, -120.148632 38.836238, -120.162191 38.834053, -120.175749 38.831866, -120.189306 38.829678, -120.202862 38.827489, -120.216417 38.825298, -120.229972 38.823105, -120.243525 38.820911, -120.257078 38.818715, -120.270630 38.816517, -120.284181 38.814318, -120.297732 38.812118, -120.311281 38.809916, -120.324830 38.807712, -120.338377 38.805507, -120.351924 38.803300, -120.365470 38.801092, -120.379016 38.798882, -120.392560 38.796670, -120.406104 38.794457, -120.419647 38.792243, -120.433188 38.790027, -120.446729 38.787809, -120.460270 38.785590, -120.473809 38.783369, -120.487348 38.781146, -120.500885 38.778922, -120.514422 38.776697, -120.527958 38.774470, -120.541493 38.772241, -120.555028 38.770011, -120.568561 38.767779, -120.582094 38.765546, -120.595625 38.763311, -120.609156 38.761074, -120.622686 38.758836, -120.636216 38.756597, -120.649744 38.754355, -120.663272 38.752113, -120.676798 38.749868, -120.690324 38.747623, -120.703849 38.745375, -120.717373 38.743126, -120.730896 38.740876, -120.744419 38.738624, -120.757940 38.736370, -120.771461 38.734115, -120.784981 38.731858, -120.798500 38.729600, -120.811910 38.726793, -120.825318 38.723984, -120.838726 38.721174, -120.852133 38.718362, -120.865538 38.715549, -120.878943 38.712734, -120.892346 38.709917, -120.905748 38.707099, -120.919150 38.704280, -120.932550 38.701459, -120.945949 38.698636, -120.959347 38.695812, -120.972744 38.692987, -120.986140 38.690160, -120.999535 38.687331, -121.012929 38.684501, -121.026322 38.681669, -121.039714 38.678836, -121.053104 38.676001, -121.066494 38.673165, -121.079883 38.670327, -121.093270 38.667488, -121.106656 38.664647, -121.120042 38.661805, -121.133426 38.658961, -121.146809 38.656115, -121.160192 38.653268, -121.173573 38.650420, -121.186953 38.647570, -121.200332 38.644718, -121.213710 38.641865, -121.227087 38.639011, -121.240463 38.636155, -121.253837 38.633297, -121.267211 38.630438, -121.280584 38.627577, -121.293955 38.624715, -121.307326 38.621851, -121.320695 38.618986, -121.334063 38.616119, -121.347431 38.613251, -121.360797 38.610381, -121.374162 38.607510, -121.387526 38.604637, -121.400889 38.601763, -121.414251 38.598887, -121.427612 38.596010, -121.440972 38.593131, -121.454330 38.590250, -121.467688 38.587368, -121.481045 38.584485, -121.494400 38.581600, -121.490920 38.571028, -121.487441 38.560457, -121.483963 38.549885, -121.480485 38.539313, -121.477009 38.528741, -121.473534 38.518169, -121.470060 38.507596, -121.466587 38.497024, -121.463115 38.486452, -121.459644 38.475879, -121.456174 38.465306, -121.452705 38.454734, -121.449237 38.444161, -121.445771 38.433588, -121.442305 38.423015, -121.438840 38.412442, -121.435376 38.401868, -121.431913 38.391295, -121.428451 38.380722, -121.424990 38.370148, -121.421530 38.359574, -121.418072 38.349001, -121.414614 38.338427, -121.411157 38.327853, -121.407701 38.317279, -121.404247 38.306704, -121.400793 38.296130, -121.397340 38.285556, -121.393888 38.274981, -121.390437 38.264407, -121.386988 38.253832, -121.383539 38.243257, -121.380091 38.232682, -121.376645 38.222107, -121.373199 38.211532, -121.369754 38.200957, -121.366310 38.190382, -121.362868 38.179806, -121.359426 38.169231, -121.355985 38.158655, -121.352545 38.148080, -121.349107 38.137504, -121.345669 38.126928, -121.342232 38.116352, -121.338796 38.105776, -121.335362 38.095200, -121.331928 38.084623, -121.328495 38.074047, -121.325063 38.063470, -121.321633 38.052894, -121.318203 38.042317, -121.314774 38.031740, -121.311346 38.021163, -121.307919 38.010586, -121.304493 38.000009, -121.301069 37.989432, -121.297645 37.978855, -121.294222 37.968277, -121.290800 37.957700, -121.304258 37.955655, -121.317714 37.953608, -121.331170 37.951560, -121.344626 37.949511, -121.358080 37.947460, -121.371534 37.945407, -121.384987 37.943353, -121.398439 37.941297, -121.411891 37.939240, -121.425341 37.937181, -121.438791 37.935121, -121.452241 37.933059, -121.465689 37.930996, -121.479137 37.928931, -121.492584 37.926864, -121.506030 37.924796, -121.519475 37.922727, -121.532920 37.920656, -121.546364 37.918583, -121.559807 37.916509, -121.573250 37.914434, -121.586691 37.912356, -121.600132 37.910278, -121.613573 37.908198, -121.627012 37.906116, -121.640451 37.904033, -121.653888 37.901948, -121.667326 37.899862, -121.680762 37.897774, -121.694197 37.895684, -121.707632 37.893593, -121.721066 37.891501, -121.734500 37.889407, -121.747932 37.887312, -121.761364 37.885215, -121.774795 37.883116, -121.788225 37.881016, -121.801655 37.878915, -121.815083 37.876811, -121.828511 37.874707, -121.841938 37.872601, -121.855365 37.870493, -121.868791 37.868384, -121.882215 37.866273, -121.895639 37.864161, -121.909063 37.862047, -121.922485 37.859932, -121.935907 37.857815, -121.949328 37.855697, -121.962748 37.853577, -121.976168 37.851455, -121.989587 37.849332, -122.003005 37.847208, -122.016422 37.845082, -122.029838 37.842955, -122.043254 37.840826, -122.056668 37.838695, -122.070083 37.836563, -122.083496 37.834429, -122.096908 37.832294, -122.110320 37.830158, -122.123731 37.828020, -122.137141 37.825880, -122.150551 37.823739, -122.163959 37.821596, -122.177367 37.819452, -122.190774 37.817306, -122.204180 37.815159, -122.217586 37.813010, -122.230991 37.810860, -122.244394 37.808708, -122.257798 37.806555, -122.271200 37.804400), (-122.271200 37.804400, -122.272327 37.804291, -122.273454 37.804182, -122.274581 37.804073, -122.275708 37.803964, -122.276835 37.803854, -122.277962 37.803745, -122.279089 37.803636, -122.280216 37.803527, -122.281343 37.803418, -122.282470 37.803309, -122.283597 37.803199, -122.284724 37.803090, -122.285851 37.802981, -122.286978 37.802872, -122.288105 37.802762, -122.289232 37.802653, -122.290359 37.802544, -122.291486 37.802435, -122.292613 37.802325, -122.293740 37.802216, -122.294867 37.802107, -122.295994 37.801997, -122.297121 37.801888, -122.298248 37.801779, -122.299375 37.801669, -122.300502 37.801560, -122.301629 37.801451, -122.302756 37.801341, -122.303883 37.801232, -122.305010 37.801123, -122.306137 37.801013, -122.307264 37.800904, -122.308391 37.800794, -122.309518 37.800685, -122.310645 37.800575, -122.311771 37.800466, -122.312898 37.800356, -122.314025 37.800247, -122.315152 37.800137, -122.316279 37.800028, -122.317406 37.799918, -122.318533 37.799809, -122.319660 37.799699, -122.320787 37.799590, -122.321914 37.799480, -122.323041 37.799371, -122.324167 37.799261, -122.325294 37.799151, -122.326421 37.799042, -122.327548 37.798932, -122.328675 37.798823, -122.329802 37.798713, -122.330929 37.798603, -122.332056 37.798494, -122.333182 37.798384, -122.334309 37.798274, -122.335436 37.798164, -122.336563 37.798055, -122.337690 37.797945, -122.338817 37.797835, -122.339943 37.797726, -122.341070 37.797616, -122.342197 37.797506, -122.343324 37.797396, -122.344451 37.797287, -122.345578 37.797177, -122.346704 37.797067, -122.347831 37.796957, -122.348958 37.796847, -122.350085 37.796737, -122.351212 37.796628, -122.352339 37.796518, -122.353465 37.796408, -122.354592 37.796298, -122.355719 37.796188, -122.356846 37.796078, -122.357973 37.795968, -122.359099 37.795858, -122.360226 37.795748, -122.361353 37.795639, -122.362480 37.795529, -122.363606 37.795419, -122.364733 37.795309, -122.365860 37.795199, -122.366987 37.795089, -122.368113 37.794979, -122.369240 37.794869, -122.370367 37.794759, -122.371494 37.794649, -122.372620 37.794539, -122.373747 37.794428, -122.374874 37.794318, -122.376001 37.794208, -122.377127 37.794098, -122.378254 37.793988, -122.379381 37.793878, -122.380508 37.793768, -122.381634 37.793658, -122.382761 37.793548, -122.383888 37.793437, -122.385014 37.793327, -122.386141 37.793217, -122.387268 37.793107, -122.388395 37.792997, -122.389521 37.792887, -122.390648 37.792776, -122.391775 37.792666, -122.392901 37.792556, -122.394028 37.792446, -122.395155 37.792335, -122.396281 37.792225, -122.397408 37.792115, -122.398535 37.792004, -122.399661 37.791894, -122.400788 37.791784, -122.401915 37.791673, -122.403041 37.791563, -122.404168 37.791453, -122.405295 37.791342, -122.406421 37.791232, -122.407548 37.791122, -122.408675 37.791011, -122.409801 37.790901, -122.410928 37.790790, -122.412054 37.790680, -122.413181 37.790570, -122.414308 37.790459, -122.415434 37.790349, -122.416561 37.790238, -122.417687 37.790128, -122.418814 37.790017, -122.419941 37.789907, -122.421067 37.789796, -122.422194 37.789686, -122.423320 37.789575, -122.424447 37.789465, -122.425574 37.789354, -122.426700 37.789244, -122.427827 37.789133, -122.428953 37.789022, -122.430080 37.788912, -122.431207 37.788801, -122.432333 37.788691, -122.433460 37.788580, -122.434586 37.788469, -122.435713 37.788359, -122.436839 37.788248, -122.437966 37.788137, -122.439092 37.788027, -122.440219 37.787916, -122.441346 37.787805, -122.442472 37.787695, -122.443599 37.787584, -122.444725 37.787473, -122.445852 37.787362, -122.446978 37.787252, -122.448105 37.787141, -122.449231 37.787030, -122.450358 37.786919, -122.451484 37.786808, -122.452611 37.786698, -122.453737 37.786587, -122.454864 37.786476, -122.455990 37.786365, -122.457117 37.786254, -122.458243 37.786143, -122.459370 37.786033, -122.460496 37.785922, -122.461623 37.785811, -122.462749 37.785700, -122.463876 37.785589, -122.465002 37.785478, -122.466129 37.785367, -122.467255 37.785256, -122.468381 37.785145, -122.469508 37.785034, -122.470634 37.784923, -122.471761 37.784812, -122.472887 37.784701, -122.474014 37.784590, -122.475140 37.784479, -122.476267 37.784368, -122.477393 37.784257, -122.478519 37.784146, -122.479646 37.784035, -122.480772 37.783924, -122.481899 37.783813, -122.483025 37.783702, -122.484152 37.783591, -122.485278 37.783479, -122.486404 37.783368, -122.487531 37.783257, -122.488657 37.783146, -122.489784 37.783035, -122.490910 37.782924, -122.492036 37.782812, -122.493163 37.782701, -122.494289 37.782590, -122.495415 37.782479, -122.496542 37.782368, -122.497668 37.782256, -122.498795 37.782145, -122.499921 37.782034, -122.501047 37.781923, -122.502174 37.781811, -122.503300 37.781700))
