LINESTRING (0.207000 47.956000, 0.207840 47.956540, 0.208680 47.957080, 0.209520 47.957620, 0.210360 47.958160, 0.211200 47.958700, 0.212512 47.958660, 0.213824 47.958620, 0.215136 47.958580, 0.216448 47.958541, 0.217760 47.958501, 0.219072 47.958461, 0.220384 47.958421, 0.221696 47.958381, 0.223008 47.958341, 0.224320 47.958301, 0.225632 47.958261, 0.226944 47.958221, 0.228256 47.958181, 0.229568 47.958141, 0.230880 47.958101, 0.232192 47.958061, 0.233504 47.958021, 0.234816 47.957981, 0.236128 47.957941, 0.237440 47.957901, 0.238752 47.957861, 0.240064 47.957820, 0.241376 47.957780, 0.242688 47.957740, 0.244000 47.957700, 0.244118 47.956826, 0.244235 47.955953, 0.244353 47.955079, 0.244471 47.954206, 0.244589 47.953332, 0.244706 47.952459, 0.244824 47.951585, 0.244942 47.950712, 0.245059 47.949838, 0.245177 47.948965, 0.245295 47.948091, 0.245412 47.947218, 0.245530 47.946344, 0.245648 47.945471, 0.245765 47.944597, 0.245883 47.943724, 0.246001 47.942850, 0.246118 47.941976, 0.246236 47.941103, 0.246353 47.940229, 0.246471 47.939356, 0.246589 47.938482, 0.246706 47.937609, 0.246824 47.936735, 0.246942 47.935862, 0.247059 47.934988, 0.247177 47.934115, 0.247294 47.933241, 0.247412 47.932368, 0.247530 47.931494, 0.247647 47.930621, 0.247765 47.929747, 0.247882 47.928874, 0.248000 47.928000, 0.247694 47.927161, 0.247389 47.926322, 0.247083 47.925483, 0.246778 47.924644, 0.246472 47.923806, 0.246166 47.922967, 0.245861 47.922128, 0.245555 47.921289, 0.245250 47.920450, 0.244944 47.919611, 0.244639 47.918772, 0.244333 47.917933, 0.244027 47.917094, 0.243722 47.916256, 0.243416 47.915417, 0.243111 47.914578, 0.242805 47.913739, 0.242500 47.912900, 0.241289 47.913242, 0.240077 47.913585, 0.238866 47.913927, 0.237655 47.914270, 0.236443 47.914612, 0.235232 47.914955, 0.234020 47.915297, 0.232809 47.915639, 0.231597 47.915982, 0.230386 47.916324, 0.229174 47.916666, 0.227963 47.917009, 0.226751 47.917351, 0.225540 47.917693, 0.224328 47.918036, 0.223117 47.918378, 0.221905 47.918720, 0.220693 47.919062, 0.219482 47.919405, 0.218270 47.919747, 0.217059 47.920089, 0.215847 47.920431, 0.214635 47.920774, 0.213423 47.921116, 0.212212 47.921458, 0.211000 47.921800, 0.210025 47.922150, 0.209050 47.922500, 0.208075 47.922850, 0.207100 47.923200, 0.207633 47.924014, 0.208166 47.924829, 0.208700 47.925643, 0.209233 47.926457, 0.209766 47.927272, 0.210299 47.928086, 0.210833 47.928900, 0.211366 47.929714, 0.211899 47.930529, 0.212432 47.931343, 0.212966 47.932157, 0.213499 47.932972, 0.214032 47.933786, 0.214566 47.934600, 0.215099 47.935414, 0.215633 47.936229, 0.216166 47.937043, 0.216700 47.937857, 0.217233 47.938671, 0.217766 47.939486, 0.218300 47.940300, 0.217735 47.941085, 0.217170 47.941870, 0.216605 47.942655, 0.216041 47.943440, 0.215476 47.944225, 0.214911 47.945010, 0.214346 47.945795, 0.213781 47.946580, 0.213216 47.947365, 0.212651 47.948150, 0.212086 47.948935, 0.211521 47.949720, 0.210956 47.950505, 0.210391 47.951290, 0.209826 47.952075, 0.209261 47.952860, 0.208695 47.953645, 0.208130 47.954430, 0.207565 47.955215, 0.207000 47.956000)
