LINESTRING (0.417000 48.050000, 0.415895 48.049513, 0.414789 48.049025, 0.413684 48.048538, 0.412578 48.048051, 0.411473 48.047563, 0.410368 48.047076, 0.409263 48.046589, 0.408157 48.046101, 0.407052 48.045614, 0.405947 48.045127, 0.404842 48.044639, 0.403736 48.044152, 0.402631 48.043664, 0.401526 48.043177, 0.400421 48.042689, 0.399316 48.042202, 0.398211 48.041715, 0.397106 48.041227, 0.396001 48.040740, 0.394896 48.040252, 0.393791 48.039765, 0.392686 48.039277, 0.391581 48.038790, 0.390476 48.038302, 0.389371 48.037814, 0.388266 48.037327, 0.387161 48.036839, 0.386056 48.036352, 0.384952 48.035864, 0.383847 48.035377, 0.382742 48.034889, 0.381637 48.034401, 0.380533 48.033914, 0.379428 48.033426, 0.378323 48.032938, 0.377218 48.032451, 0.376114 48.031963, 0.375009 48.031475, 0.373905 48.030988, 0.372800 48.030500, 0.371511 48.030279, 0.370222 48.030058, 0.368933 48.029837, 0.367644 48.029616, 0.366355 48.029395, 0.365066 48.029174, 0.363777 48.028953, 0.362488 48.028732, 0.361199 48.028511, 0.359910 48.028290, 0.358621 48.028069, 0.357332 48.027848, 0.356043 48.027626, 0.354754 48.027405, 0.353466 48.027184, 0.352177 48.026963, 0.350888 48.026742, 0.349599 48.026521, 0.348310 48.026299, 0.347021 48.026078, 0.345732 48.025857, 0.344444 48.025636, 0.343155 48.025414, 0.341866 48.025193, 0.340577 48.024972, 0.339289 48.024750, 0.338000 48.024529, 0.336711 48.024308, 0.335422 48.024086, 0.334134 48.023865, 0.332845 48.023644, 0.331556 48.023422, 0.330268 48.023201, 0.328979 48.022979, 0.327690 48.022758, 0.326402 48.022536, 0.325113 48.022315, 0.323824 48.022094, 0.322536 48.021872, 0.321247 48.021650, 0.319958 48.021429, 0.318670 48.021207, 0.317381 48.020986, 0.316093 48.020764, 0.314804 48.020543, 0.313516 48.020321, 0.312227 48.020099, 0.310939 48.019878, 0.309650 48.019656, 0.308362 48.019434, 0.307073 48.019213, 0.305785 48.018991, 0.304496 48.018769, 0.303208 48.018548, 0.301919 48.018326, 0.300631 48.018104, 0.299342 48.017882, 0.298054 48.017661, 0.296766 48.017439, 0.295477 48.017217, 0.294189 48.016995, 0.292900 48.016773, 0.291612 48.016552, 0.290324 48.016330, 0.289035 48.016108, 0.287747 48.015886, 0.286459 48.015664, 0.285171 48.015442, 0.283882 48.015220, 0.282594 48.014998, 0.281306 48.014776, 0.280017 48.014554, 0.278729 48.014332, 0.277441 48.014110, 0.276153 48.013888, 0.274865 48.013666, 0.273576 48.013444, 0.272288 48.013222, 0.271000 48.013000, 0.272309 48.012809, 0.273617 48.012618, 0.274926 48.012427, 0.276234 48.012236, 0.277543 48.012045, 0.278851 48.011854, 0.280160 48.011663, 0.281468 48.011472, 0.282777 48.011281, 0.284085 48.011090, 0.285393 48.010899, 0.286702 48.010708, 0.288010 48.010517, 0.289319 48.010326, 0.290627 48.010135, 0.291936 48.009944, 0.293244 48.009752, 0.294552 48.009561, 0.295861 48.009370, 0.297169 48.009179, 0.298477 48.008988, 0.299786 48.008796, 0.301094 48.008605, 0.302402 48.008414, 0.303711 48.008223, 0.305019 48.008031, 0.306327 48.007840, 0.307636 48.007649, 0.308944 48.007457, 0.310252 48.007266, 0.311560 48.007075, 0.312869 48.006883, 0.314177 48.006692, 0.315485 48.006501, 0.316793 48.006309, 0.318101 48.006118, 0.319410 48.005926, 0.320718 48.005735, 0.322026 48.005543, 0.323334 48.005352, 0.324642 48.005160, 0.325950 48.004969, 0.327259 48.004777, 0.328567 48.004586, 0.329875 48.004394, 0.331183 48.004203, 0.332491 48.004011, 0.333799 48.003819, 0.335107 48.003628, 0.336415 48.003436, 0.337723 48.003244, 0.339031 48.003053, 0.340339 48.002861, 0.341647 48.002669, 0.342955 48.002478, 0.344263 48.002286, 0.345571 48.002094, 0.346879 48.001902, 0.348187 48.001711, 0.349495 48.001519, 0.350803 48.001327, 0.352111 48.001135, 0.353419 48.000943, 0.354727 48.000752, 0.356035 48.000560, 0.357343 48.000368, 0.358651 48.000176, 0.359959 47.999984, 0.361267 47.999792, 0.362575 47.999600, 0.363882 47.999408, 0.365190 47.999216, 0.366498 47.999024, 0.367806 47.998832, 0.369114 47.998640, 0.370422 47.998448, 0.371729 47.998256, 0.373037 47.998064, 0.374345 47.997872, 0.375653 47.997680, 0.376961 47.997488, 0.378268 47.997296, 0.379576 47.997104, 0.380884 47.996911, 0.382192 47.996719, 0.383499 47.996527, 0.384807 47.996335, 0.386115 47.996143, 0.387422 47.995950, 0.388730 47.995758, 0.390038 47.995566, 0.391345 47.995374, 0.392653 47.995181, 0.393961 47.994989, 0.395268 47.994797, 0.396576 47.994604, 0.397884 47.994412, 0.399191 47.994220, 0.400499 47.994027, 0.401806 47.993835, 0.403114 47.993643, 0.404421 47.993450, 0.405729 47.993258, 0.407037 47.993065, 0.408344 47.992873, 0.409652 47.992680, 0.410959 47.992488, 0.412267 47.992295, 0.413574 47.992103, 0.414882 47.991910, 0.416189 47.991718, 0.417496 47.991525, 0.418804 47.991333, 0.420111 47.991140, 0.421419 47.990947, 0.422726 47.990755, 0.424034 47.990562, 0.425341 47.990370, 0.426648 47.990177, 0.427956 47.989984, 0.429263 47.989792, 0.430571 47.989599, 0.431878 47.989406, 0.433185 47.989213, 0.434493 47.989021, 0.435800 47.988828, 0.437107 47.988635, 0.438415 47.988442, 0.439722 47.988249, 0.441029 47.988057, 0.442336 47.987864, 0.443644 47.987671, 0.444951 47.987478, 0.446258 47.987285, 0.447565 47.987092, 0.448873 47.986899, 0.450180 47.986706, 0.451487 47.986513, 0.452794 47.986320, 0.454102 47.986127, 0.455409 47.985934, 0.456716 47.985741, 0.458023 47.985548, 0.459330 47.985355, 0.460637 47.985162, 0.461944 47.984969, 0.463252 47.984776, 0.464559 47.984583, 0.465866 47.984390, 0.467173 47.984197, 0.468480 47.984004, 0.469787 47.983811, 0.471094 47.983617, 0.472401 47.983424, 0.473708 47.983231, 0.475015 47.983038, 0.476322 47.982845, 0.477629 47.982651, 0.478936 47.982458, 0.480243 47.982265, 0.481550 47.982071, 0.482857 47.981878, 0.484164 47.981685, 0.485471 47.981492, 0.486778 47.981298, 0.488085 47.981105, 0.489392 47.980911, 0.490699 47.980718, 0.492006 47.980525, 0.493313 47.980331, 0.494620 47.980138, 0.495926 47.979944, 0.497233 47.979751, 0.498540 47.979557, 0.499847 47.979364, 0.501154 47.979170, 0.502461 47.978977, 0.503768 47.978783, 0.505074 47.978590, 0.506381 47.978396, 0.507688 47.978203, 0.508995 47.978009, 0.510301 47.977815, 0.511608 47.977622, 0.512915 47.977428, 0.514222 47.977234, 0.515528 47.977041, 0.516835 47.976847, 0.518142 47.976653, 0.519449 47.976460, 0.520755 47.976266, 0.522062 47.976072, 0.523369 47.975878, 0.524675 47.975685, 0.525982 47.975491, 0.527289 47.975297, 0.528595 47.975103, 0.529902 47.974909, 0.531208 47.974715, 0.532515 47.974522, 0.533822 47.974328, 0.535128 47.974134, 0.536435 47.973940, 0.537741 47.973746, 0.539048 47.973552, 0.540354 47.973358, 0.541661 47.973164, 0.542968 47.972970, 0.544274 47.972776, 0.545581 47.972582, 0.546887 47.972388, 0.548194 47.972194, 0.549500 47.972000, 0.550742 47.971668, 0.551983 47.971335, 0.553225 47.971003, 0.554466 47.970671, 0.555708 47.970338, 0.556950 47.970006, 0.558191 47.969674, 0.559433 47.969341, 0.560674 47.969009, 0.561916 47.968676, 0.563157 47.968344, 0.564398 47.968012, 0.565640 47.967679, 0.566881 47.967347, 0.568123 47.967014, 0.569364 47.966682, 0.570605 47.966349, 0.571847 47.966017, 0.573088 47.965684, 0.574329 47.965352, 0.575571 47.965019, 0.576812 47.964686, 0.578053 47.964354, 0.579295 47.964021, 0.580536 47.963689, 0.581777 47.963356, 0.583018 47.963023, 0.584259 47.962691, 0.585501 47.962358, 0.586742 47.962025, 0.587983 47.961693, 0.589224 47.961360, 0.590465 47.961027, 0.591706 47.960694, 0.592947 47.960362, 0.594188 47.960029, 0.595429 47.959696, 0.596670 47.959363, 0.597911 47.959030, 0.599152 47.958698, 0.600393 47.958365, 0.601634 47.958032, 0.602875 47.957699, 0.604116 47.957366, 0.605357 47.957033, 0.606598 47.956700, 0.607839 47.956368, 0.609080 47.956035, 0.610321 47.955702, 0.611562 47.955369, 0.612802 47.955036, 0.614043 47.954703, 0.615284 47.954370, 0.616525 47.954037, 0.617766 47.953704, 0.619006 47.953371, 0.620247 47.953038, 0.621488 47.952705, 0.622728 47.952372, 0.623969 47.952038, 0.625210 47.951705, 0.626450 47.951372, 0.627691 47.951039, 0.628932 47.950706, 0.630172 47.950373, 0.631413 47.950040, 0.632653 47.949706, 0.633894 47.949373, 0.635135 47.949040, 0.636375 47.948707, 0.637616 47.948374, 0.638856 47.948040, 0.640097 47.947707, 0.641337 47.947374, 0.642577 47.947041, 0.643818 47.946707, 0.645058 47.946374, 0.646299 47.946041, 0.647539 47.945707, 0.648779 47.945374, 0.650020 47.945041, 0.651260 47.944707, 0.652500 47.944374, 0.653741 47.944040, 0.654981 47.943707, 0.656221 47.943374, 0.657461 47.943040, 0.658702 47.942707, 0.659942 47.942373, 0.661182 47.942040, 0.662422 47.941706, 0.663662 47.941373, 0.664903 47.941039, 0.666143 47.940706, 0.667383 47.940372, 0.668623 47.940038, 0.669863 47.939705, 0.671103 47.939371, 0.672343 47.939038, 0.673583 47.938704, 0.674823 47.938370, 0.676063 47.938037, 0.677303 47.937703, 0.678543 47.937369, 0.679783 47.937036, 0.681023 47.936702, 0.682263 47.936368, 0.683503 47.936035, 0.684743 47.935701, 0.685983 47.935367, 0.687223 47.935033, 0.688463 47.934700, 0.689702 47.934366, 0.690942 47.934032, 0.692182 47.933698, 0.693422 47.933364, 0.694662 47.933030, 0.695901 47.932697, 0.697141 47.932363, 0.698381 47.932029, 0.699620 47.931695, 0.700860 47.931361, 0.702100 47.931027, 0.703339 47.930693, 0.704579 47.930359, 0.705819 47.930025, 0.707058 47.929691, 0.708298 47.929357, 0.709537 47.929023, 0.710777 47.928689, 0.712017 47.928355, 0.713256 47.928021, 0.714496 47.927687, 0.715735 47.927353, 0.716975 47.927019, 0.718214 47.926685, 0.719454 47.926351, 0.720693 47.926017, 0.721932 47.925682, 0.723172 47.925348, 0.724411 47.925014, 0.725651 47.924680, 0.726890 47.924346, 0.728129 47.924012, 0.729369 47.923677, 0.730608 47.923343, 0.731847 47.923009, 0.733086 47.922675, 0.734326 47.922340, 0.735565 47.922006, 0.736804 47.921672, 0.738043 47.921337, 0.739283 47.921003, 0.740522 47.920669, 0.741761 47.920334, 0.743000 47.920000, 0.743338 47.920864, 0.743676 47.921728, 0.744014 47.922591, 0.744352 47.923455, 0.744690 47.924319, 0.745028 47.925183, 0.745366 47.926046, 0.745704 47.926910, 0.746042 47.927774, 0.746380 47.928638, 0.746718 47.929502, 0.747056 47.930365, 0.747394 47.931229, 0.747732 47.932093, 0.748070 47.932957, 0.748409 47.933820, 0.748747 47.934684, 0.749085 47.935548, 0.749423 47.936412, 0.749761 47.937275, 0.750099 47.938139, 0.750438 47.939003, 0.750776 47.939867, 0.751114 47.940730, 0.751452 47.941594, 0.751790 47.942458, 0.752129 47.943322, 0.752467 47.944185, 0.752805 47.945049, 0.753143 47.945913, 0.753482 47.946777, 0.753820 47.947640, 0.754158 47.948504, 0.754497 47.949368, 0.754835 47.950232, 0.755173 47.951095, 0.755512 47.951959, 0.755850 47.952823, 0.756189 47.953687, 0.756527 47.954550, 0.756865 47.955414, 0.757204 47.956278, 0.757542 47.957142, 0.757881 47.958005, 0.758219 47.958869, 0.758558 47.959733, 0.758896 47.960597, 0.759234 47.961460, 0.759573 47.962324, 0.759911 47.963188, 0.760250 47.964052, 0.760589 47.964915, 0.760927 47.965779, 0.761266 47.966643, 0.761604 47.967506, 0.761943 47.968370, 0.762281 47.969234, 0.762620 47.970098, 0.762959 47.970961, 0.763297 47.971825, 0.763636 47.972689, 0.763974 47.973553, 0.764313 47.974416, 0.764652 47.975280, 0.764990 47.976144, 0.765329 47.977007, 0.765668 47.977871, 0.766007 47.978735, 0.766345 47.979599, 0.766684 47.980462, 0.767023 47.981326, 0.767361 47.982190, 0.767700 47.983053, 0.768039 47.983917, 0.768378 47.984781, 0.768717 47.985645, 0.769055 47.986508, 0.769394 47.987372, 0.769733 47.988236, 0.770072 47.989099, 0.770411 47.989963, 0.770750 47.990827, 0.771089 47.991690, 0.771427 47.992554, 0.771766 47.993418, 0.772105 47.994282, 0.772444 47.995145, 0.772783 47.996009, 0.773122 47.996873, 0.773461 47.997736, 0.773800 47.998600, 0.773209 47.999403, 0.772619 48.000206, 0.772028 48.001009, 0.771437 48.001812, 0.770846 48.002615, 0.770256 48.003418, 0.769665 48.004221, 0.769074 48.005024, 0.768483 48.005827, 0.767892 48.006630, 0.767302 48.007433, 0.766711 48.008236, 0.766120 48.009039, 0.765529 48.009842, 0.764938 48.010645, 0.764347 48.011448, 0.763756 48.012251, 0.763165 48.013054, 0.762574 48.013857, 0.761983 48.014659, 0.761392 48.015462, 0.760801 48.016265, 0.760210 48.017068, 0.759619 48.017871, 0.759028 48.018674, 0.758436 48.019477, 0.757845 48.020280, 0.757254 48.021083, 0.756663 48.021886, 0.756072 48.022689, 0.755480 48.023492, 0.754889 48.024295, 0.754298 48.025097, 0.753707 48.025900, 0.753115 48.026703, 0.752524 48.027506, 0.751933 48.028309, 0.751341 48.029112, 0.750750 48.029915, 0.750159 48.030718, 0.749567 48.031521, 0.748976 48.032323, 0.748384 48.033126, 0.747793 48.033929, 0.747201 48.034732, 0.746610 48.035535, 0.746018 48.036338, 0.745427 48.037141, 0.744835 48.037944, 0.744244 48.038746, 0.743652 48.039549, 0.743060 48.040352, 0.742469 48.041155, 0.741877 48.041958, 0.741285 48.042761, 0.740694 48.043563, 0.740102 48.044366, 0.739510 48.045169, 0.738918 48.045972, 0.738327 48.046775, 0.737735 48.047578, 0.737143 48.048380, 0.736551 48.049183, 0.735959 48.049986, 0.735368 48.050789, 0.734776 48.051592, 0.734184 48.052394, 0.733592 48.053197, 0.733000 48.054000, 0.732501 48.054829, 0.732001 48.055658, 0.731502 48.056487, 0.731002 48.057316, 0.730503 48.058145, 0.730004 48.058975, 0.729504 48.059804, 0.729005 48.060633, 0.728505 48.061462, 0.728006 48.062291, 0.727506 48.063120, 0.727007 48.063949, 0.726507 48.064778, 0.726008 48.065607, 0.725508 48.066436, 0.725008 48.067265, 0.724509 48.068094, 0.724009 48.068924, 0.723510 48.069753, 0.723010 48.070582, 0.722510 48.071411, 0.722010 48.072240, 0.721511 48.073069, 0.721011 48.073898, 0.720511 48.074727, 0.720012 48.075556, 0.719512 48.076385, 0.719012 48.077214, 0.718512 48.078043, 0.718012 48.078872, 0.717513 48.079701, 0.717013 48.080530, 0.716513 48.081359, 0.716013 48.082188, 0.715513 48.083017, 0.715013 48.083846, 0.714513 48.084675, 0.714013 48.085504, 0.713513 48.086333, 0.713013 48.087162, 0.712513 48.087991, 0.712013 48.088820, 0.711513 48.089649, 0.711013 48.090478, 0.710513 48.091307, 0.710013 48.092136, 0.709513 48.092965, 0.709013 48.093794, 0.708513 48.094623, 0.708013 48.095452, 0.707512 48.096281, 0.707012 48.097110, 0.706512 48.097939, 0.706012 48.098768, 0.705512 48.099597, 0.705011 48.100426, 0.704511 48.101255, 0.704011 48.102084, 0.703511 48.102913, 0.703010 48.103742, 0.702510 48.104571, 0.702010 48.105400, 0.701509 48.106229, 0.701009 48.107058, 0.700508 48.107887, 0.700008 48.108716, 0.699508 48.109545, 0.699007 48.110374, 0.698507 48.111203, 0.698006 48.112032, 0.697506 48.112861, 0.697005 48.113690, 0.696505 48.114519, 0.696004 48.115348, 0.695504 48.116177, 0.695003 48.117006, 0.694503 48.117835, 0.694002 48.118663, 0.693501 48.119492, 0.693001 48.120321, 0.692500 48.121150, 0.691999 48.121979, 0.691499 48.122808, 0.690998 48.123637, 0.690497 48.124466, 0.689997 48.125295, 0.689496 48.126124, 0.688995 48.126953, 0.688494 48.127782, 0.687994 48.128611, 0.687493 48.129439, 0.686992 48.130268, 0.686491 48.131097, 0.685990 48.131926, 0.685489 48.132755, 0.684988 48.133584, 0.684488 48.134413, 0.683987 48.135242, 0.683486 48.136071, 0.682985 48.136899, 0.682484 48.137728, 0.681983 48.138557, 0.681482 48.139386, 0.680981 48.140215, 0.680480 48.141044, 0.679979 48.141873, 0.679478 48.142702, 0.678977 48.143531, 0.678475 48.144359, 0.677974 48.145188, 0.677473 48.146017, 0.676972 48.146846, 0.676471 48.147675, 0.675970 48.148504, 0.675469 48.149333, 0.674967 48.150161, 0.674466 48.150990, 0.673965 48.151819, 0.673464 48.152648, 0.672962 48.153477, 0.672461 48.154306, 0.671960 48.155134, 0.671458 48.155963, 0.670957 48.156792, 0.670456 48.157621, 0.669954 48.158450, 0.669453 48.159279, 0.668952 48.160107, 0.668450 48.160936, 0.667949 48.161765, 0.667447 48.162594, 0.666946 48.163423, 0.666444 48.164252, 0.665943 48.165080, 0.665441 48.165909, 0.664940 48.166738, 0.664438 48.167567, 0.663937 48.168396, 0.663435 48.169224, 0.662933 48.170053, 0.662432 48.170882, 0.661930 48.171711, 0.661429 48.172540, 0.660927 48.173368, 0.660425 48.174197, 0.659924 48.175026, 0.659422 48.175855, 0.658920 48.176684, 0.658418 48.177512, 0.657917 48.178341, 0.657415 48.179170, 0.656913 48.179999, 0.656411 48.180827, 0.655909 48.181656, 0.655408 48.182485, 0.654906 48.183314, 0.654404 48.184142, 0.653902 48.184971, 0.653400 48.185800, 0.652526 48.185121, 0.651652 48.184441, 0.650779 48.183762, 0.649905 48.183083, 0.649031 48.182403, 0.648157 48.181724, 0.647284 48.181045, 0.646410 48.180366, 0.645536 48.179686, 0.644663 48.179007, 0.643789 48.178327, 0.642915 48.177648, 0.642042 48.176969, 0.641168 48.176289, 0.640295 48.175610, 0.639421 48.174931, 0.638548 48.174251, 0.637674 48.173572, 0.636801 48.172892, 0.635927 48.172213, 0.635054 48.171534, 0.634181 48.170854, 0.633307 48.170175, 0.632434 48.169495, 0.631561 48.168816, 0.630687 48.168136, 0.629814 48.167457, 0.628941 48.166777, 0.628068 48.166098, 0.627194 48.165419, 0.626321 48.164739, 0.625448 48.164060, 0.624575 48.163380, 0.623702 48.162701, 0.622829 48.162021, 0.621956 48.161341, 0.621083 48.160662, 0.620210 48.159982, 0.619337 48.159303, 0.618464 48.158623, 0.617591 48.157944, 0.616718 48.157264, 0.615845 48.156585, 0.614972 48.155905, 0.614100 48.155226, 0.613227 48.154546, 0.612354 48.153866, 0.611481 48.153187, 0.610608 48.152507, 0.609736 48.151828, 0.608863 48.151148, 0.607990 48.150468, 0.607118 48.149789, 0.606245 48.149109, 0.605372 48.148429, 0.604500 48.147750, 0.603627 48.147070, 0.602755 48.146390, 0.601882 48.145711, 0.601010 48.145031, 0.600137 48.144351, 0.599265 48.143672, 0.598392 48.142992, 0.597520 48.142312, 0.596648 48.141633, 0.595775 48.140953, 0.594903 48.140273, 0.594031 48.139593, 0.593158 48.138914, 0.592286 48.138234, 0.591414 48.137554, 0.590542 48.136874, 0.589670 48.136195, 0.588797 48.135515, 0.587925 48.134835, 0.587053 48.134155, 0.586181 48.133476, 0.585309 48.132796, 0.584437 48.132116, 0.583565 48.131436, 0.582693 48.130756, 0.581821 48.130076, 0.580949 48.129397, 0.580077 48.128717, 0.579205 48.128037, 0.578333 48.127357, 0.577461 48.126677, 0.576589 48.125997, 0.575718 48.125318, 0.574846 48.124638, 0.573974 48.123958, 0.573102 48.123278, 0.572231 48.122598, 0.571359 48.121918, 0.570487 48.121238, 0.569616 48.120558, 0.568744 48.119878, 0.567872 48.119198, 0.567001 48.118518, 0.566129 48.117839, 0.565258 48.117159, 0.564386 48.116479, 0.563515 48.115799, 0.562643 48.115119, 0.561772 48.114439, 0.560900 48.113759, 0.560029 48.113079, 0.559157 48.112399, 0.558286 48.111719, 0.557415 48.111039, 0.556543 48.110359, 0.555672 48.109679, 0.554801 48.108999, 0.553930 48.108319, 0.553058 48.107639, 0.552187 48.106959, 0.551316 48.106279, 0.550445 48.105598, 0.549574 48.104918, 0.548703 48.104238, 0.547832 48.103558, 0.546961 48.102878, 0.546090 48.102198, 0.545219 48.101518, 0.544348 48.100838, 0.543477 48.100158, 0.542606 48.099478, 0.541735 48.098798, 0.540864 48.098117, 0.539993 48.097437, 0.539122 48.096757, 0.538251 48.096077, 0.537380 48.095397, 0.536510 48.094717, 0.535639 48.094036, 0.534768 48.093356, 0.533897 48.092676, 0.533027 48.091996, 0.532156 48.091316, 0.531285 48.090636, 0.530415 48.089955, 0.529544 48.089275, 0.528674 48.088595, 0.527803 48.087915, 0.526933 48.087234, 0.526062 48.086554, 0.525192 48.085874, 0.524321 48.085194, 0.523451 48.084513, 0.522580 48.083833, 0.521710 48.083153, 0.520840 48.082473, 0.519969 48.081792, 0.519099 48.081112, 0.518229 48.080432, 0.517358 48.079751, 0.516488 48.079071, 0.515618 48.078391, 0.514748 48.077710, 0.513877 48.077030, 0.513007 48.076350, 0.512137 48.075669, 0.511267 48.074989, 0.510397 48.074309, 0.509527 48.073628, 0.508657 48.072948, 0.507787 48.072267, 0.506917 48.071587, 0.506047 48.070907, 0.505177 48.070226, 0.504307 48.069546, 0.503437 48.068865, 0.502567 48.068185, 0.501697 48.067505, 0.500827 48.066824, 0.499958 48.066144, 0.499088 48.065463, 0.498218 48.064783, 0.497348 48.064102, 0.496479 48.063422, 0.495609 48.062741, 0.494739 48.062061, 0.493870 48.061380, 0.493000 48.060700, 0.491689 48.060516, 0.490379 48.060332, 0.489068 48.060148, 0.487758 48.059964, 0.486447 48.059780, 0.485136 48.059595, 0.483826 48.059411, 0.482515 48.059227, 0.481205 48.059043, 0.479894 48.058859, 0.478584 48.058675, 0.477273 48.058490, 0.475963 48.058306, 0.474652 48.058122, 0.473342 48.057938, 0.472031 48.057753, 0.470721 48.057569, 0.469410 48.057385, 0.468100 48.057200, 0.466790 48.057016, 0.465479 48.056832, 0.464169 48.056647, 0.462858 48.056463, 0.461548 48.056278, 0.460238 48.056094, 0.458927 48.055910, 0.457617 48.055725, 0.456306 48.055541, 0.454996 48.055356, 0.453686 48.055172, 0.452375 48.054987, 0.451065 48.054803, 0.449755 48.054618, 0.448444 48.054434, 0.447134 48.054249, 0.445824 48.054065, 0.444514 48.053880, 0.443203 48.053695, 0.441893 48.053511, 0.440583 48.053326, 0.439273 48.053141, 0.437962 48.052957, 0.436652 48.052772, 0.435342 48.052587, 0.434032 48.052403, 0.432722 48.052218, 0.431411 48.052033, 0.430101 48.051848, 0.428791 48.051664, 0.427481 48.051479, 0.426171 48.051294, 0.424861 48.051109, 0.423550 48.050924, 0.422240 48.050740, 0.420930 48.050555, 0.419620 48.050370, 0.418310 48.050185, 0.417000 48.050000)
