LINESTRING (-74.006000 40.712800, -74.033529 40.697174, -74.061045 40.681541, -74.088548 40.665902, -74.116038 40.650256, -74.143515 40.634603, -74.170980 40.618945, -74.198431 40.603279, -74.225870 40.587607, -74.253296 40.571929, -74.280709 40.556244, -74.308109 40.540553, -74.335496 40.524855, -74.362870 40.509151, -74.390232 40.493440, -74.417581 40.477723, -74.444917 40.461999, -74.472240 40.446269, -74.499550 40.430533, -74.526848 40.414790, -74.554133 40.399040, -74.581405 40.383285, -74.608664 40.367523, -74.635911 40.351754, -74.663145 40.335979, -74.690366 40.320198, -74.717574 40.304410, -74.744770 40.288616, -74.771953 40.272816, -74.799123 40.257009, -74.826281 40.241196, -74.853426 40.225376, -74.880558 40.209551, -74.907677 40.193718, -74.934784 40.177880, -74.961878 40.162035, -74.988960 40.146184, -75.016029 40.130327, -75.043085 40.114463, -75.070129 40.098593, -75.097160 40.082717, -75.124178 40.066834, -75.151184 40.050945, -75.178178 40.035050, -75.205158 40.019149, -75.232126 40.003241, -75.259082 39.987328, -75.286025 39.971407, -75.312955 39.955481, -75.339873 39.939549, -75.366778 39.923610, -75.393671 39.907665, -75.420552 39.891714, -75.447419 39.875756, -75.474275 39.859793, -75.501118 39.843823, -75.527948 39.827847, -75.554766 39.811865, -75.581571 39.795876, -75.608364 39.779882, -75.635144 39.763881, -75.661912 39.747874, -75.688668 39.731861, -75.715411 39.715842, -75.742142 39.699817, -75.768860 39.683786, -75.795566 39.667748, -75.822260 39.651705, -75.848941 39.635655, -75.875609 39.619599, -75.902266 39.603537, -75.928910 39.587470, -75.955541 39.571395, -75.982161 39.555315, -76.008768 39.539229, -76.035362 39.523137, -76.061945 39.507039, -76.088515 39.490934, -76.115072 39.474824, -76.141618 39.458707, -76.168151 39.442585, -76.194671 39.426456, -76.221180 39.410322, -76.247676 39.394181, -76.274160 39.378035, -76.300632 39.361882, -76.327091 39.345724, -76.353539 39.329559, -76.379974 39.313389, -76.406397 39.297212, -76.432807 39.281030, -76.459206 39.264841, -76.485592 39.248647, -76.511966 39.232447, -76.538328 39.216240, -76.564677 39.200028, -76.591015 39.183810, -76.617340 39.167586, -76.643653 39.151356, -76.669955 39.135120, -76.696243 39.118878, -76.722520 39.102631, -76.748785 39.086377, -76.775038 39.070118, -76.801278 39.053852, -76.827507 39.037581, -76.853723 39.021304, -76.879927 39.005021, -76.906120 38.988732, -76.932300 38.972437, -76.958468 38.956137, -76.984624 38.939830, -77.010768 38.923518, -77.036900 38.907200, -77.064210 38.891788, -77.091508 38.876371, -77.118795 38.860946, -77.146069 38.845516, -77.173332 38.830079, -77.200583 38.814636, -77.227822 38.799186, -77.255049 38.783730, -77.282264 38.768268, -77.309468 38.752799, -77.336660 38.737324, -77.363840 38.721843, -77.391008 38.706356, -77.418164 38.690862, -77.445309 38.675362, -77.472442 38.659856, -77.499563 38.644343, -77.526673 38.628825, -77.553770 38.613299, -77.580857 38.597768, -77.607931 38.582231, -77.634993 38.566687, -77.662044 38.551137, -77.689083 38.535581, -77.716111 38.520018, -77.743127 38.504450, -77.770131 38.488875, -77.797123 38.473294, -77.824104 38.457707, -77.851073 38.442113, -77.878031 38.426514, -77.904976 38.410908, -77.931911 38.395296, -77.958833 38.379678, -77.985744 38.364054, -78.012643 38.348423, -78.039531 38.332787, -78.066407 38.317144, -78.093272 38.301495, -78.120125 38.285840, -78.146966 38.270179, -78.173796 38.254512, -78.200614 38.238839, -78.227420 38.223159, -78.254215 38.207474, -78.280999 38.191782, -78.307771 38.176085, -78.334531 38.160381, -78.361280 38.144671, -78.388018 38.128955, -78.414744 38.113234, -78.441458 38.097506, -78.468161 38.081772, -78.494852 38.066032, -78.521532 38.050286, -78.548200 38.034533, -78.574857 38.018775, -78.601503 38.003011, -78.628137 37.987241, -78.654760 37.971465, -78.681371 37.955683, -78.707970 37.939895, -78.734559 37.924101, -78.761135 37.908300, -78.787701 37.892494, -78.814255 37.876682, -78.840798 37.860864, -78.867329 37.845040, -78.893849 37.829211, -78.920357 37.813375, -78.946854 37.797533, -78.973340 37.781685, -78.999814 37.765832, -79.026277 37.749972, -79.052729 37.734107, -79.079169 37.718235, -79.105598 37.702358, -79.132016 37.686475, -79.158423 37.670586, -79.184818 37.654691, -79.211201 37.638790, -79.237574 37.622883, -79.263935 37.606971, -79.290285 37.591052, -79.316624 37.575128, -79.342951 37.559198, -79.369267 37.543262, -79.395572 37.527320, -79.421866 37.511372, -79.448148 37.495419, -79.474419 37.479460, -79.500679 37.463494, -79.526928 37.447523, -79.553166 37.431547, -79.579392 37.415564, -79.605607 37.399576, -79.631811 37.383582, -79.658004 37.367582, -79.684185 37.351576, -79.710356 37.335565, -79.736515 37.319548, -79.762663 37.303525, -79.788800 37.287496, -79.814926 37.271462, -79.841041 37.255422, -79.867144 37.239376, -79.893237 37.223324, -79.919318 37.207267, -79.945389 37.191204, -79.971448 37.175135, -79.997496 37.159060, -80.023533 37.142980, -80.049559 37.126894, -80.075574 37.110803, -80.101578 37.094706, -80.127570 37.078603, -80.153552 37.062494, -80.179523 37.046380, -80.205483 37.030260, -80.231431 37.014134, -80.257369 36.998003, -80.283296 36.981866, -80.309211 36.965724, -80.335116 36.949576, -80.361010 36.933422, -80.386892 36.917263, -80.412764 36.901098, -80.438625 36.884927, -80.464475 36.868751, -80.490314 36.852569, -80.516142 36.836382, -80.541959 36.820189, -80.567765 36.803991, -80.593560 36.787786, -80.619344 36.771577, -80.645118 36.755362, -80.670880 36.739141, -80.696632 36.722914, -80.722372 36.706683, -80.748102 36.690445, -80.773821 36.674202, -80.799529 36.657954, -80.825227 36.641700, -80.850913 36.625440, -80.876589 36.609175, -80.902253 36.592905, -80.927907 36.576629, -80.953550 36.560347, -80.979183 36.544060, -81.004804 36.527768, -81.030415 36.511470, -81.056015 36.495166, -81.081604 36.478857, -81.107182 36.462543, -81.132750 36.446223, -81.158307 36.429898, -81.183853 36.413567, -81.209388 36.397231, -81.234913 36.380889, -81.260427 36.364542, -81.285930 36.348190, -81.311422 36.331832, -81.336904 36.315469, -81.362375 36.299100, -81.387836 36.282726, -81.413285 36.266347, -81.438724 36.249962, -81.464153 36.233572, -81.489570 36.217176, -81.514977 36.200775, -81.540374 36.184369, -81.565760 36.167957, -81.591135 36.151540, -81.616499 36.135117, -81.641853 36.118690, -81.667196 36.102257, -81.692529 36.085818, -81.717851 36.069374, -81.743163 36.052925, -81.768464 36.036471, -81.793754 36.020011, -81.819034 36.003546, -81.844303 35.987076, -81.869562 35.970600, -81.894810 35.954119, -81.920047 35.937633, -81.945274 35.921141, -81.970491 35.904645, -81.995697 35.888143, -82.020893 35.871635, -82.046078 35.855123, -82.071252 35.838605, -82.096416 35.822082, -82.121570 35.805554, -82.146713 35.789020, -82.171846 35.772481, -82.196968 35.755937, -82.222079 35.739388, -82.247181 35.722834, -82.272272 35.706274, -82.297352 35.689709, -82.322422 35.673139, -82.347482 35.656564, -82.372531 35.639983, -82.397570 35.623398, -82.422598 35.606807, -82.447616 35.590211, -82.472624 35.573610, -82.497622 35.557003, -82.522609 35.540392, -82.547585 35.523775, -82.572551 35.507154, -82.597507 35.490527, -82.622453 35.473895, -82.647388 35.457257, -82.672313 35.440615, -82.697228 35.423968, -82.722132 35.407315, -82.747027 35.390658, -82.771910 35.373995, -82.796784 35.357327, -82.821647 35.340654, -82.846500 35.323976, -82.871343 35.307293, -82.896175 35.290605, -82.920998 35.273911, -82.945810 35.257213, -82.970612 35.240510, -82.995403 35.223801, -83.020185 35.207088, -83.044956 35.190369, -83.069717 35.173646, -83.094468 35.156917, -83.119208 35.140183, -83.143939 35.123445, -83.168659 35.106701, -83.193369 35.089952, -83.218069 35.073199, -83.242759 35.056440, -83.267439 35.039676, -83.292109 35.022907, -83.316768 35.006134, -83.341417 34.989355, -83.366057 34.972571, -83.390686 34.955783, -83.415305 34.938989, -83.439914 34.922190, -83.464513 34.905387, -83.489102 34.888578, -83.513680 34.871765, -83.538249 34.854946, -83.562808 34.838123, -83.587357 34.821295, -83.611895 34.804462, -83.636424 34.787623, -83.660942 34.770780, -83.685451 34.753932, -83.709950 34.737080, -83.734438 34.720222, -83.758917 34.703359, -83.783386 34.686492, -83.807844 34.669619, -83.832293 34.652742, -83.856732 34.635860, -83.881160 34.618972, -83.905579 34.602081, -83.929988 34.585184, -83.954387 34.568282, -83.978776 34.551376, -84.003155 34.534464, -84.027525 34.517548, -84.051884 34.500627, -84.076234 34.483701, -84.100573 34.466770, -84.124903 34.449835, -84.149223 34.432894, -84.173533 34.415949, -84.197833 34.398999, -84.222123 34.382045, -84.246404 34.365085, -84.270674 34.348121, -84.294935 34.331151, -84.319186 34.314178, -84.343427 34.297199, -84.367659 34.280215, -84.391880 34.263227, -84.416092 34.246234, -84.440294 34.229236, -84.464487 34.212234, -84.488669 34.195227, -84.512842 34.178215, -84.537005 34.161198, -84.561158 34.144176, -84.585302 34.127150, -84.609436 34.110119, -84.633560 34.093084, -84.657674 34.076043, -84.681779 34.058998, -84.705874 34.041948, -84.729959 34.024894, -84.754035 34.007835, -84.778101 33.990771, -84.802157 33.973702, -84.826204 33.956629, -84.850241 33.939551, -84.874268 33.922469, -84.898286 33.905381, -84.922294 33.888289, -84.946292 33.871193, -84.970281 33.854092, -84.994260 33.836986, -85.018230 33.819875, -85.042190 33.802760, -85.066141 33.785641, -85.090082 33.768516, -85.114013 33.751387, -85.137935 33.734254, -85.161847 33.717115, -85.185750 33.699973, -85.209643 33.682825, -85.233526 33.665673, -85.257400 33.648517, -85.281265 33.631355, -85.305120 33.614190, -85.328966 33.597019, -85.352802 33.579844, -85.376628 33.562665, -85.400445 33.545481, -85.424253 33.528292, -85.448051 33.511099, -85.471840 33.493901, -85.495619 33.476699, -85.519389 33.459492, -85.543149 33.442281, -85.566900 33.425065, -85.590642 33.407845, -85.614374 33.390620, -85.638097 33.373390, -85.661810 33.356156, -85.685514 33.338918, -85.709208 33.321675, -85.732894 33.304428, -85.756569 33.287176, -85.780236 33.269919, -85.803893 33.252658, -85.827541 33.235393, -85.851179 33.218123, -85.874808 33.200849, -85.898428 33.183570, -85.922038 33.166287, -85.945639 33.148999, -85.969231 33.131707, -85.992814 33.114411, -86.016387 33.097110, -86.039951 33.079804, -86.063506 33.062494, -86.087051 33.045180, -86.110587 33.027861, -86.134114 33.010538, -86.157632 32.993210, -86.181140 32.975878, -86.204640 32.958542, -86.228130 32.941201, -86.251610 32.923856, -86.275082 32.906507, -86.298544 32.889153, -86.321997 32.871794, -86.345442 32.854432, -86.368876 32.837065, -86.392302 32.819693, -86.415719 32.802317, -86.439126 32.784937, -86.462524 32.767553, -86.485913 32.750164, -86.509293 32.732771, -86.532664 32.715373, -86.556026 32.697971, -86.579378 32.680565, -86.602722 32.663155, -86.626056 32.645740, -86.649381 32.628321, -86.672698 32.610897, -86.696005 32.593470, -86.719303 32.576038, -86.742592 32.558601, -86.765872 32.541161, -86.789143 32.523716, -86.812405 32.506266, -86.835658 32.488813, -86.858901 32.471355, -86.882136 32.453893, -86.905362 32.436427, -86.928579 32.418956, -86.951787 32.401481, -86.974986 32.384002, -86.998176 32.366519, -87.021357 32.349032, -87.044528 32.331540, -87.067691 32.314044, -87.090846 32.296543, -87.113991 32.279039, -87.137127 32.261530, -87.160254 32.244017, -87.183372 32.226500, -87.206482 32.208979, -87.229582 32.191453, -87.252674 32.173924, -87.275757 32.156390, -87.298831 32.138852, -87.321896 32.121309, -87.344952 32.103763, -87.367999 32.086212, -87.391037 32.068657, -87.414067 32.051098, -87.437088 32.033535, -87.460100 32.015968, -87.483103 31.998396, -87.506097 31.980821, -87.529082 31.963241, -87.552059 31.945657, -87.575027 31.928069, -87.597986 31.910477, -87.620936 31.892881, -87.643878 31.875280, -87.666811 31.857676, -87.689735 31.840067, -87.712650 31.822454, -87.735556 31.804838, -87.758454 31.787217, -87.781343 31.769592, -87.804224 31.751962, -87.827095 31.734329, -87.849958 31.716692, -87.872812 31.699050, -87.895658 31.681405, -87.918495 31.663755, -87.941323 31.646102, -87.964142 31.628444, -87.986953 31.610782, -88.009755 31.593117, -88.032549 31.575447, -88.055334 31.557773, -88.078110 31.540095, -88.100878 31.522413, -88.123637 31.504727, -88.146387 31.487037, -88.169129 31.469343, -88.191862 31.451645, -88.214587 31.433943, -88.237303 31.416237, -88.260010 31.398527, -88.282709 31.380813, -88.305399 31.363095, -88.328081 31.345373, -88.350754 31.327647, -88.373419 31.309917, -88.396075 31.292183, -88.418723 31.274445, -88.441362 31.256703, -88.463993 31.238957, -88.486615 31.221207, -88.509228 31.203453, -88.531833 31.185696, -88.554430 31.167934, -88.577018 31.150168, -88.599598 31.132399, -88.622169 31.114625, -88.644732 31.096847, -88.667286 31.079066, -88.689832 31.061281, -88.712370 31.043491, -88.734899 31.025698, -88.757419 31.007901, -88.779932 30.990100, -88.802435 30.972295, -88.824931 30.954487, -88.847418 30.936674, -88.869897 30.918857, -88.892367 30.901037, -88.914829 30.883212, -88.937282 30.865384, -88.959728 30.847552, -88.982164 30.829716, -89.004593 30.811876, -89.027013 30.794033, -89.049425 30.776185, -89.071829 30.758334, -89.094224 30.740478, -89.116611 30.722619, -89.138990 30.704756, -89.161360 30.686890, -89.183722 30.669019, -89.206076 30.651145, -89.228422 30.633266, -89.250759 30.615384, -89.273088 30.597498, -89.295409 30.579609, -89.317721 30.561715, -89.340026 30.543818, -89.362322 30.525917, -89.384610 30.508012, -89.406890 30.490103, -89.429161 30.472191, -89.451424 30.454274, -89.473679 30.436354, -89.495926 30.418431, -89.518165 30.400503, -89.540396 30.382572, -89.562618 30.364637, -89.584833 30.346698, -89.607039 30.328755, -89.629237 30.310809, -89.651427 30.292859, -89.673609 30.274905, -89.695782 30.256947, -89.717948 30.238986, -89.740105 30.221021, -89.762255 30.203052, -89.784396 30.185079, -89.806529 30.167103, -89.828654 30.149123, -89.850771 30.131140, -89.872880 30.113152, -89.894981 30.095161, -89.917074 30.077166, -89.939159 30.059168, -89.961236 30.041166, -89.983305 30.023160, -90.005366 30.005151, -90.027418 29.987137, -90.049463 29.969121, -90.071500 29.951100, -90.101651 29.950615, -90.131801 29.950124, -90.161951 29.949626, -90.192101 29.949120, -90.222251 29.948608, -90.252400 29.948089, -90.282549 29.947563, -90.312698 29.947031, -90.342846 29.946491, -90.372994 29.945945, -90.403142 29.945392, -90.433289 29.944831, -90.463436 29.944264, -90.493583 29.943691, -90.523729 29.943110, -90.553875 29.942522, -90.584020 29.941928, -90.614166 29.941327, -90.644310 29.940719, -90.674455 29.940104, -90.704599 29.939482, -90.734743 29.938853, -90.764886 29.938217, -90.795029 29.937575, -90.825171 29.936926, -90.855314 29.936270, -90.885455 29.935607, -90.915597 29.934937, -90.945738 29.934260, -90.975878 29.933576, -91.006018 29.932886, -91.036158 29.932189, -91.066297 29.931485, -91.096436 29.930774, -91.126574 29.930056, -91.156712 29.929331, -91.186850 29.928599, -91.216987 29.927861, -91.247124 29.927116, -91.277260 29.926364, -91.307396 29.925605, -91.337531 29.924839, -91.367666 29.924066, -91.397800 29.923287, -91.427934 29.922500, -91.458067 29.921707, -91.488200 29.920907, -91.518332 29.920100, -91.548464 29.919286, -91.578596 29.918465, -91.608727 29.917638, -91.638857 29.916804, -91.668987 29.915962, -91.699116 29.915114, -91.729245 29.914259, -91.759374 29.913398, -91.789501 29.912529, -91.819629 29.911654, -91.849756 29.910771, -91.879882 29.909882, -91.910007 29.908986, -91.940133 29.908083, -91.970257 29.907174, -92.000381 29.906257, -92.030505 29.905334, -92.060628 29.904404, -92.090750 29.903467, -92.120872 29.902523, -92.150993 29.901572, -92.181114 29.900614, -92.211234 29.899650, -92.241353 29.898679, -92.271472 29.897701, -92.301591 29.896716, -92.331708 29.895724, -92.361825 29.894725, -92.391942 29.893720, -92.422058 29.892708, -92.452173 29.891688, -92.482288 29.890662, -92.512402 29.889630, -92.542515 29.888590, -92.572628 29.887543, -92.602740 29.886490, -92.632852 29.885430, -92.662963 29.884363, -92.693073 29.883289, -92.723182 29.882208, -92.753291 29.881121, -92.783400 29.880026, -92.813507 29.878925, -92.843614 29.877817, -92.873720 29.876702, -92.903826 29.875581, -92.933931 29.874452, -92.964035 29.873317, -92.994139 29.872175, -93.024241 29.871026, -93.054344 29.869870, -93.084445 29.868707, -93.114546 29.867538, -93.144646 29.866361, -93.174745 29.865178, -93.204844 29.863988, -93.234942 29.862791, -93.265039 29.861588, -93.295135 29.860377, -93.325231 29.859160, -93.355326 29.857936, -93.385420 29.856705, -93.415514 29.855467, -93.445606 29.854223, -93.475698 29.852971, -93.505790 29.851713, -93.535880 29.850448, -93.565970 29.849176, -93.596059 29.847897, -93.626147 29.846612, -93.656234 29.845319, -93.686321 29.844020, -93.716407 29.842714, -93.746492 29.841401, -93.776576 29.840082, -93.806659 29.838755, -93.836742 29.837422, -93.866824 29.836082, -93.896905 29.834735, -93.926985 29.833381, -93.957064 29.832021, -93.987143 29.830653, -94.017221 29.829279, -94.047298 29.827898, -94.077374 29.826511, -94.107449 29.825116, -94.137523 29.823715, -94.167597 29.822306, -94.197670 29.820891, -94.227741 29.819470, -94.257812 29.818041, -94.287883 29.816605, -94.317952 29.815163, -94.348020 29.813714, -94.378088 29.812258, -94.408154 29.810796, -94.438220 29.809326, -94.468285 29.807850, -94.498349 29.806367, -94.528412 29.804877, -94.558474 29.803380, -94.588536 29.801877, -94.618596 29.800366, -94.648656 29.798849, -94.678714 29.797325, -94.708772 29.795795, -94.738829 29.794257, -94.768884 29.792713, -94.798939 29.791162, -94.828993 29.789604, -94.859046 29.788039, -94.889098 29.786468, -94.919149 29.784889, -94.949200 29.783304, -94.979249 29.781712, -95.009297 29.780114, -95.039344 29.778508, -95.069391 29.776896, -95.099436 29.775277, -95.129480 29.773651, -95.159524 29.772018, -95.189566 29.770379, -95.219608 29.768733, -95.249648 29.767080, -95.279688 29.765420, -95.309726 29.763753, -95.339764 29.762080, -95.369800 29.760400, -95.399024 29.767027, -95.428252 29.773648, -95.457485 29.780263, -95.486720 29.786871, -95.515960 29.793473, -95.545204 29.800068, -95.574451 29.806657, -95.603703 29.813239, -95.632958 29.819815, -95.662217 29.826385, -95.691480 29.832948, -95.720746 29.839504, -95.750017 29.846054, -95.779291 29.852598, -95.808569 29.859135, -95.837851 29.865666, -95.867137 29.872190, -95.896427 29.878708, -95.925721 29.885220, -95.955018 29.891724, -95.984319 29.898223, -96.013624 29.904715, -96.042933 29.911200, -96.072246 29.917679, -96.101562 29.924152, -96.130882 29.930618, -96.160206 29.937077, -96.189534 29.943530, -96.218866 29.949977, -96.248201 29.956417, -96.277541 29.962850, -96.306884 29.969277, -96.336231 29.975698, -96.365581 29.982112, -96.394936 29.988520, -96.424294 29.994921, -96.453656 30.001315, -96.483022 30.007703, -96.512391 30.014084, -96.541765 30.020459, -96.571142 30.026828, -96.600523 30.033190, -96.629908 30.039545, -96.659296 30.045894, -96.688688 30.052236, -96.718084 30.058572, -96.747484 30.064901, -96.776887 30.071224, -96.806295 30.077540, -96.835706 30.083850, -96.865120 30.090153, -96.894539 30.096449, -96.923961 30.102739, -96.953387 30.109022, -96.982817 30.115299, -97.012250 30.121569, -97.041688 30.127833, -97.071129 30.134090, -97.100573 30.140341, -97.130022 30.146585, -97.159474 30.152822, -97.188930 30.159053, -97.218389 30.165277, -97.247853 30.171495, -97.277320 30.177706, -97.306790 30.183911, -97.336265 30.190108, -97.365743 30.196300, -97.395225 30.202485, -97.424710 30.208663, -97.454199 30.214834, -97.483692 30.220999, -97.513189 30.227157, -97.542689 30.233309, -97.572193 30.239454, -97.601701 30.245593, -97.631213 30.251725, -97.660728 30.257850, -97.690246 30.263969, -97.719769 30.270081, -97.749295 30.276186, -97.778825 30.282285, -97.808358 30.288377, -97.837895 30.294462, -97.867436 30.300541, -97.896981 30.306614, -97.926529 30.312679, -97.956080 30.318738, -97.985636 30.324791, -98.015195 30.330836, -98.044758 30.336875, -98.074324 30.342908, -98.103894 30.348933, -98.133468 30.354952, -98.163045 30.360965, -98.192626 30.366971, -98.222210 30.372970, -98.251798 30.378962, -98.281390 30.384948, -98.310986 30.390927, -98.340585 30.396900, -98.370187 30.402865, -98.399794 30.408824, -98.429404 30.414777, -98.459017 30.420722, -98.488634 30.426662, -98.518255 30.432594, -98.547879 30.438520, -98.577507 30.444439, -98.607139 30.450351, -98.636774 30.456256, -98.666412 30.462155, -98.696055 30.468047, -98.725701 30.473933, -98.755350 30.479812, -98.785003 30.485684, -98.814660 30.491549, -98.844320 30.497408, -98.873983 30.503260, -98.903651 30.509105, -98.933322 30.514943, -98.962996 30.520775, -98.992674 30.526600, -99.022356 30.532418, -99.052041 30.538230, -99.081729 30.544035, -99.111422 30.549833, -99.141117 30.555624, -99.170817 30.561409, -99.200520 30.567187, -99.230226 30.572958, -99.259936 30.578723, -99.289649 30.584480, -99.319366 30.590231, -99.349087 30.595975, -99.378811 30.601713, -99.408538 30.607443, -99.438269 30.613167, -99.468004 30.618884, -99.497742 30.624595, -99.527483 30.630298, -99.557229 30.635995, -99.586977 30.641685, -99.616729 30.647369, -99.646485 30.653045, -99.676244 30.658715, -99.706006 30.664378, -99.735772 30.670034, -99.765542 30.675683, -99.795315 30.681326, -99.825091 30.686962, -99.854871 30.692591, -99.884655 30.698213, -99.914442 30.703828, -99.944232 30.709437, -99.974026 30.715039, -100.003823 30.720634, -100.033624 30.726222, -100.063428 30.731803, -100.093236 30.737378, -100.123047 30.742946, -100.152861 30.748507, -100.182679 30.754061, -100.212501 30.759608, -100.242326 30.765149, -100.272154 30.770682, -100.301986 30.776209, -100.331821 30.781729, -100.361659 30.787242, -100.391501 30.792749, -100.421347 30.798248, -100.451195 30.803741, -100.481048 30.809227, -100.510903 30.814706, -100.540762 30.820178, -100.570625 30.825643, -100.600491 30.831102, -100.630360 30.836553, -100.660232 30.841998, -100.690108 30.847436, -100.719988 30.852867, -100.749871 30.858291, -100.779757 30.863708, -100.809646 30.869119, -100.839539 30.874523, -100.869435 30.879919, -100.899335 30.885309, -100.929238 30.890692, -100.959144 30.896068, -100.989054 30.901437, -101.018967 30.906800, -101.048884 30.912155, -101.078803 30.917504, -101.108726 30.922845, -101.138653 30.928180, -101.168583 30.933508, -101.198516 30.938829, -101.228452 30.944143, -101.258392 30.949450, -101.288335 30.954751, -101.318281 30.960044, -101.348231 30.965330, -101.378184 30.970610, -101.408141 30.975883, -101.438100 30.981148, -101.468063 30.986407, -101.498029 30.991659, -101.527999 30.996904, -101.557972 31.002142, -101.587948 31.007373, -101.617927 31.012598, -101.647910 31.017815, -101.677896 31.023025, -101.707886 31.028229, -101.737878 31.033425, -101.767874 31.038615, -101.797873 31.043797, -101.827875 31.048973, -101.857881 31.054142, -101.887890 31.059304, -101.917902 31.064459, -101.947917 31.069607, -101.977936 31.074747, -102.007958 31.079881, -102.037983 31.085009, -102.068011 31.090129, -102.098043 31.095242, -102.128078 31.100348, -102.158116 31.105447, -102.188157 31.110539, -102.218202 31.115625, -102.248249 31.120703, -102.278300 31.125774, -102.308354 31.130839, -102.338412 31.135896, -102.368472 31.140946, -102.398536 31.145990, -102.428603 31.151026, -102.458673 31.156056, -102.488746 31.161078, -102.518823 31.166094, -102.548903 31.171102, -102.578986 31.176104, -102.609072 31.181098, -102.639161 31.186086, -102.669253 31.191066, -102.699349 31.196040, -102.729447 31.201006, -102.759549 31.205965, -102.789654 31.210918, -102.819763 31.215863, -102.849874 31.220802, -102.879988 31.225733, -102.910106 31.230658, -102.940227 31.235575, -102.970351 31.240485, -103.000478 31.245389, -103.030608 31.250285, -103.060741 31.255174, -103.090877 31.260057, -103.121017 31.264932, -103.151159 31.269800, -103.181305 31.274661, -103.211454 31.279515, -103.241606 31.284362, -103.271761 31.289202, -103.301919 31.294035, -103.332080 31.298861, -103.362245 31.303680, -103.392412 31.308492, -103.422582 31.313297, -103.452756 31.318095, -103.482933 31.322885, -103.513112 31.327669, -103.543295 31.332445, -103.573481 31.337215, -103.603670 31.341977, -103.633862 31.346733, -103.664057 31.351481, -103.694255 31.356222, -103.724456 31.360956, -103.754660 31.365683, -103.784867 31.370403, -103.815077 31.375116, -103.845290 31.379822, -103.875506 31.384521, -103.905726 31.389213, -103.935948 31.393897, -103.966173 31.398575, -103.996401 31.403245, -104.026633 31.407908, -104.056867 31.412565, -104.087104 31.417214, -104.117345 31.421856, -104.147588 31.426491, -104.177834 31.431118, -104.208083 31.435739, -104.238336 31.440353, -104.268591 31.444959, -104.298849 31.449559, -104.329110 31.454151, -104.359374 31.458736, -104.389641 31.463314, -104.419911 31.467885, -104.450184 31.472449, -104.480460 31.477005, -104.510739 31.481555, -104.541021 31.486097, -104.571306 31.490633, -104.601593 31.495161, -104.631884 31.499682, -104.662178 31.504196, -104.692474 31.508703, -104.722773 31.513202, -104.753076 31.517695, -104.783381 31.522180, -104.813689 31.526658, -104.844000 31.531129, -104.874314 31.535593, -104.904631 31.540050, -104.934951 31.544499, -104.965273 31.548942, -104.995599 31.553377, -105.025927 31.557805, -105.056258 31.562226, -105.086592 31.566640, -105.116929 31.571047, -105.147269 31.575446, -105.177612 31.579838, -105.207958 31.584224, -105.238306 31.588601, -105.268657 31.592972, -105.299011 31.597336, -105.329368 31.601692, -105.359728 31.606042, -105.390091 31.610384, -105.420456 31.614719, -105.450825 31.619046, -105.481196 31.623367, -105.511570 31.627680, -105.541947 31.631986, -105.572326 31.636285, -105.602708 31.640577, -105.633094 31.644861, -105.663482 31.649139, -105.693872 31.653409, -105.724266 31.657672, -105.754662 31.661928, -105.785061 31.666176, -105.815463 31.670418, -105.845868 31.674652, -105.876275 31.678879, -105.906686 31.683098, -105.937099 31.687311, -105.967514 31.691516, -105.997933 31.695714, -106.028354 31.699905, -106.058778 31.704089, -106.089205 31.708265, -106.119634 31.712434, -106.150066 31.716596, -106.180501 31.720751, -106.210939 31.724898, -106.241379 31.729039, -106.271823 31.733172, -106.302268 31.737297, -106.332717 31.741416, -106.363168 31.745527, -106.393622 31.749631, -106.424079 31.753728, -106.454538 31.757818, -106.485000 31.761900, -106.514633 31.769225, -106.544271 31.776543, -106.573914 31.783855, -106.603562 31.791159, -106.633214 31.798457, -106.662871 31.805747, -106.692532 31.813031, -106.722198 31.820308, -106.751869 31.827578, -106.781545 31.834841, -106.811225 31.842098, -106.840910 31.849347, -106.870599 31.856589, -106.900294 31.863825, -106.929992 31.871054, -106.959696 31.878276, -106.989404 31.885491, -107.019117 31.892698, -107.048834 31.899900, -107.078557 31.907094, -107.108283 31.914281, -107.138015 31.921461, -107.167751 31.928635, -107.197491 31.935801, -107.227237 31.942961, -107.256987 31.950113, -107.286741 31.957259, -107.316500 31.964398, -107.346264 31.971529, -107.376033 31.978654, -107.405806 31.985772, -107.435584 31.992883, -107.465366 31.999987, -107.495153 32.007084, -107.524944 32.014174, -107.554740 32.021257, -107.584541 32.028333, -107.614347 32.035402, -107.644156 32.042465, -107.673971 32.049520, -107.703790 32.056568, -107.733614 32.063609, -107.763442 32.070644, -107.793275 32.077671, -107.823113 32.084691, -107.852955 32.091704, -107.882801 32.098711, -107.912653 32.105710, -107.942508 32.112702, -107.972369 32.119688, -108.002234 32.126666, -108.032103 32.133637, -108.061977 32.140601, -108.091856 32.147559, -108.121739 32.154509, -108.151627 32.161452, -108.181519 32.168388, -108.211416 32.175317, -108.241318 32.182239, -108.271223 32.189154, -108.301134 32.196062, -108.331049 32.202963, -108.360969 32.209857, -108.390893 32.216744, -108.420821 32.223624, -108.450754 32.230497, -108.480692 32.237363, -108.510634 32.244221, -108.540581 32.251073, -108.570532 32.257917, -108.600488 32.264755, -108.630448 32.271585, -108.660413 32.278409, -108.690382 32.285225, -108.720356 32.292034, -108.750335 32.298836, -108.780317 32.305631, -108.810305 32.312419, -108.840296 32.319200, -108.870293 32.325974, -108.900293 32.332740, -108.930299 32.339500, -108.960308 32.346252, -108.990323 32.352997, -109.020341 32.359736, -109.050364 32.366467, -109.080392 32.373191, -109.110424 32.379908, -109.140461 32.386617, -109.170502 32.393320, -109.200547 32.400016, -109.230597 32.406704, -109.260651 32.413385, -109.290710 32.420059, -109.320773 32.426726, -109.350841 32.433386, -109.380913 32.440039, -109.410990 32.446684, -109.441071 32.453323, -109.471156 32.459954, -109.501246 32.466578, -109.531340 32.473195, -109.561439 32.479805, -109.591542 32.486407, -109.621650 32.493003, -109.651762 32.499591, -109.681878 32.506172, -109.711999 32.512746, -109.742124 32.519313, -109.772254 32.525872, -109.802388 32.532425, -109.832526 32.538970, -109.862669 32.545508, -109.892816 32.552039, -109.922967 32.558562, -109.953123 32.565079, -109.983284 32.571588, -110.013448 32.578090, -110.043617 32.584585, -110.073791 32.591072, -110.103969 32.597553, -110.134151 32.604026, -110.164337 32.610492, -110.194528 32.616950, -110.224723 32.623402, -110.254923 32.629846, -110.285127 32.636283, -110.315335 32.642713, -110.345548 32.649136, -110.375764 32.655551, -110.405986 32.661959, -110.436211 32.668360, -110.466441 32.674754, -110.496676 32.681140, -110.526914 32.687519, -110.557157 32.693891, -110.587404 32.700255, -110.617656 32.706613, -110.647912 32.712963, -110.678172 32.719306, -110.708436 32.725641, -110.738705 32.731970, -110.768978 32.738290, -110.799255 32.744604, -110.829537 32.750911, -110.859823 32.757210, -110.890113 32.763502, -110.920407 32.769786, -110.950706 32.776064, -110.981009 32.782334, -111.011316 32.788596, -111.041628 32.794852, -111.071944 32.801100, -111.102264 32.807340, -111.132588 32.813574, -111.162917 32.819800, -111.193249 32.826019, -111.223587 32.832231, -111.253928 32.838435, -111.284273 32.844632, -111.314623 32.850821, -111.344977 32.857003, -111.375335 32.863178, -111.405698 32.869346, -111.436065 32.875506, -111.466436 32.881659, -111.496811 32.887805, -111.527190 32.893943, -111.557574 32.900074, -111.587961 32.906197, -111.618353 32.912314, -111.648749 32.918422, -111.679150 32.924524, -111.709554 32.930618, -111.739963 32.936705, -111.770376 32.942784, -111.800793 32.948856, -111.831214 32.954921, -111.861640 32.960978, -111.892069 32.967028, -111.922503 32.973070, -111.952941 32.979106, -111.983383 32.985133, -112.013829 32.991154, -112.044280 32.997167, -112.074734 33.003172, -112.105193 33.009170, -112.135656 33.015161, -112.166123 33.021145, -112.196594 33.027120, -112.227069 33.033089, -112.257548 33.039050, -112.288032 33.045004, -112.318519 33.050950, -112.349011 33.056889, -112.379507 33.062821, -112.410007 33.068745, -112.440511 33.074661, -112.471019 33.080571, -112.501531 33.086472, -112.532047 33.092367, -112.562568 33.098254, -112.593092 33.104133, -112.623621 33.110005, -112.654154 33.115870, -112.684690 33.121727, -112.715231 33.127577, -112.745776 33.133419, -112.776325 33.139254, -112.806878 33.145081, -112.837435 33.150901, -112.867996 33.156713, -112.898561 33.162518, -112.929130 33.168316, -112.959704 33.174106, -112.990281 33.179888, -113.020862 33.185664, -113.051448 33.191431, -113.082037 33.197191, -113.112630 33.202944, -113.143228 33.208689, -113.173829 33.214427, -113.204435 33.220157, -113.235044 33.225880, -113.265657 33.231595, -113.296275 33.237302, -113.326896 33.243003, -113.357522 33.248695, -113.388151 33.254380, -113.418785 33.260058, -113.449422 33.265728, -113.480063 33.271391, -113.510709 33.277046, -113.541358 33.282693, -113.572011 33.288334, -113.602668 33.293966, -113.633329 33.299591, -113.663995 33.305209, -113.694664 33.310819, -113.725337 33.316421, -113.756014 33.322016, -113.786695 33.327603, -113.817379 33.333183, -113.848068 33.338755, -113.878761 33.344320, -113.909457 33.349877, -113.940158 33.355427, -113.970862 33.360969, -114.001571 33.366503, -114.032283 33.372030, -114.062999 33.377549, -114.093719 33.383061, -114.124443 33.388565, -114.155171 33.394062, -114.185902 33.399551, -114.216638 33.405033, -114.247378 33.410507, -114.278121 33.415973, -114.308868 33.421432, -114.339619 33.426883, -114.370374 33.432326, -114.401133 33.437762, -114.431895 33.443191, -114.462662 33.448612, -114.493432 33.454025, -114.524206 33.459430, -114.554984 33.464828, -114.585766 33.470219, -114.616552 33.475602, -114.647341 33.480977, -114.678135 33.486344, -114.708932 33.491704, -114.739733 33.497057, -114.770537 33.502401, -114.801346 33.507738, -114.832158 33.513068, -114.862974 33.518390, -114.893794 33.523704, -114.924618 33.529010, -114.955445 33.534309, -114.986277 33.539601, -115.017112 33.544884, -115.047950 33.550160, -115.078793 33.555429, -115.109639 33.560689, -115.140489 33.565942, -115.171343 33.571188, -115.202201 33.576425, -115.233062 33.581656, -115.263927 33.586878, -115.294796 33.592093, -115.325668 33.597300, -115.356544 33.602499, -115.387424 33.607691, -115.418308 33.612875, -115.449195 33.618051, -115.480087 33.623220, -115.510981 33.628381, -115.541880 33.633535, -115.572782 33.638680, -115.603688 33.643818, -115.634597 33.648949, -115.665511 33.654071, -115.696428 33.659186, -115.727348 33.664293, -115.758272 33.669393, -115.789200 33.674485, -115.820132 33.679569, -115.851067 33.684645, -115.882006 33.689714, -115.912949 33.694775, -115.943895 33.699828, -115.974845 33.704874, -116.005798 33.709912, -116.036755 33.714942, -116.067716 33.719964, -116.098680 33.724979, -116.129648 33.729986, -116.160620 33.734985, -116.191595 33.739976, -116.222574 33.744960, -116.253556 33.749936, -116.284542 33.754904, -116.315532 33.759865, -116.346525 33.764818, -116.377521 33.769763, -116.408522 33.774700, -116.439526 33.779629, -116.470533 33.784551, -116.501544 33.789465, -116.532558 33.794371, -116.563577 33.799270, -116.594598 33.804161, -116.625623 33.809044, -116.656652 33.813919, -116.687684 33.818786, -116.718720 33.823646, -116.749759 33.828498, -116.780802 33.833342, -116.811849 33.838178, -116.842898 33.843007, -116.873952 33.847827, -116.905009 33.852640, -116.936069 33.857446, -116.967133 33.862243, -116.998200 33.867033, -117.029271 33.871814, -117.060345 33.876588, -117.091423 33.881355, -117.122504 33.886113, -117.153589 33.890864, -117.184677 33.895606, -117.215769 33.900341, -117.246864 33.905069, -117.277963 33.909788, -117.309064 33.914499, -117.340170 33.919203, -117.371279 33.923899, -117.402391 33.928587, -117.433507 33.933267, -117.464626 33.937940, -117.495748 33.942604, -117.526874 33.947261, -117.558004 33.951910, -117.589136 33.956551, -117.620272 33.961184, -117.651412 33.965810, -117.682555 33.970427, -117.713701 33.975037, -117.744851 33.979639, -117.776004 33.984233, -117.807160 33.988819, -117.838320 33.993398, -117.869483 33.997968, -117.900649 34.002531, -117.931819 34.007085, -117.962992 34.011632, -117.994169 34.016171, -118.025349 34.020702, -118.056532 34.025226, -118.087718 34.029741, -118.118908 34.034249, -118.150101 34.038748, -118.181297 34.043240, -118.212497 34.047724, -118.243700 34.052200, -118.264461 34.071950, -118.285232 34.091696, -118.306013 34.111438, -118.326803 34.131178, -118.347604 34.150913, -118.368413 34.170645, -118.389233 34.190374, -118.410062 34.210099, -118.430901 34.229821, -118.451750 34.249539, -118.472609 34.269253, -118.493477 34.288964, -118.514355 34.308672, -118.535243 34.328375, -118.556141 34.348076, -118.577049 34.367773, -118.597966 34.387466, -118.618893 34.407155, -118.639830 34.426842, -118.660777 34.446524, -118.681734 34.466203, -118.702701 34.485878, -118.723678 34.505550, -118.744664 34.525218, -118.765661 34.544883, -118.786667 34.564544, -118.807683 34.584202, -118.828710 34.603855, -118.849746 34.623506, -118.870792 34.643152, -118.891848 34.662795, -118.912914 34.682435, -118.933991 34.702070, -118.955077 34.721702, -118.976173 34.741331, -118.997279 34.760956, -119.018395 34.780577, -119.039521 34.800195, -119.060658 34.819808, -119.081804 34.839419, -119.102961 34.859025, -119.124127 34.878628, -119.145304 34.898227, -119.166491 34.917823, -119.187687 34.937415, -119.208894 34.957003, -119.230112 34.976588, -119.251339 34.996168, -119.272576 35.015745, -119.293824 35.035319, -119.315082 35.054889, -119.336350 35.074455, -119.357628 35.094017, -119.378916 35.113576, -119.400215 35.133130, -119.421524 35.152681, -119.442843 35.172229, -119.464172 35.191773, -119.485512 35.211312, -119.506862 35.230849, -119.528222 35.250381, -119.549592 35.269910, -119.570973 35.289435, -119.592364 35.308956, -119.613765 35.328473, -119.635177 35.347987, -119.656599 35.367497, -119.678032 35.387003, -119.699475 35.406505, -119.720928 35.426003, -119.742391 35.445498, -119.763865 35.464989, -119.785350 35.484476, -119.806844 35.503959, -119.828350 35.523439, -119.849865 35.542914, -119.871392 35.562386, -119.892928 35.581854, -119.914475 35.601318, -119.936033 35.620778, -119.957601 35.640235, -119.979179 35.659687, -120.000768 35.679136, -120.022368 35.698581, -120.043978 35.718022, -120.065599 35.737459, -120.087230 35.756893, -120.108872 35.776322, -120.130524 35.795748, -120.152187 35.815169, -120.173861 35.834587, -120.195545 35.854001, -120.217240 35.873411, -120.238945 35.892817, -120.260661 35.912219, -120.282388 35.931617, -120.304125 35.951012, -120.325873 35.970402, -120.347632 35.989789, -120.369401 36.009171, -120.391181 36.028550, -120.412972 36.047925, -120.434774 36.067295, -120.456586 36.086662, -120.478409 36.106025, -120.500243 36.125384, -120.522088 36.144739, -120.543943 36.164090, -120.565809 36.183437, -120.587686 36.202780, -120.609574 36.222119, -120.631473 36.241454, -120.653382 36.260785, -120.675302 36.280112, -120.697233 36.299435, -120.719176 36.318754, -120.741128 36.338069, -120.763092 36.357380, -120.785067 36.376687, -120.807052 36.395990, -120.829049 36.415289, -120.851056 36.434584, -120.873075 36.453874, -120.895104 36.473161, -120.917144 36.492444, -120.939196 36.511723, -120.961258 36.530997, -120.983331 36.550268, -121.005416 36.569534, -121.027511 36.588797, -121.049617 36.608055, -121.071735 36.627309, -121.093863 36.646559, -121.116003 36.665806, -121.138153 36.685048, -121.160315 36.704285, -121.182487 36.723519, -121.204671 36.742749, -121.226866 36.761974, -121.249072 36.781196, -121.271290 36.800413, -121.293518 36.819626, -121.315758 36.838835, -121.338008 36.858040, -121.360270 36.877241, -121.382543 36.896437, -121.404828 36.915630, -121.427123 36.934818, -121.449430 36.954002, -121.471748 36.973182, -121.494077 36.992357, -121.516418 37.011529, -121.538769 37.030696, -121.561133 37.049859, -121.583507 37.069018, -121.605893 37.088173, -121.628290 37.107324, -121.650698 37.126470, -121.673117 37.145612, -121.695548 37.164750, -121.717991 37.183883, -121.740445 37.203013, -121.762910 37.222138, -121.785386 37.241259, -121.807874 37.260376, -121.830373 37.279488, -121.852884 37.298596, -121.875406 37.317700, -121.897940 37.336800, -121.920485 37.355895, -121.943042 37.374986, -121.965610 37.394073, -121.988189 37.413155, -122.010780 37.432233, -122.033383 37.451307, -122.055997 37.470377, -122.078623 37.489442, -122.101260 37.508503, -122.123909 37.527560, -122.146569 37.546612, -122.169241 37.565660, -122.191925 37.584704, -122.214620 37.603743, -122.237326 37.622778, -122.260045 37.641808, -122.282775 37.660835, -122.305516 37.679856, -122.328270 37.698874, -122.351035 37.717887, -122.373811 37.736896, -122.396600 37.755900, -122.419400 37.774900, -122.420181 37.801139, -122.420963 37.827378, -122.421745 37.853618, -122.422527 37.879857, -122.423310 37.906096, -122.424094 37.932335, -122.424879 37.958574, -122.425663 37.984814, -122.426449 38.011053, -122.427235 38.037292, -122.428021 38.063531, -122.428809 38.089770, -122.429596 38.116009, -122.430385 38.142248, -122.431173 38.168488, -122.431963 38.194727, -122.432753 38.220966, -122.433543 38.247205, -122.434334 38.273444, -122.435126 38.299683, -122.435918 38.325922, -122.436711 38.352161, -122.437505 38.378400, -122.438299 38.404640, -122.439093 38.430879, -122.439888 38.457118, -122.440684 38.483357, -122.441480 38.509596, -122.442277 38.535835, -122.443075 38.562074, -122.443873 38.588313, -122.444671 38.614552, -122.445470 38.640791, -122.446270 38.667030, -122.447071 38.693269, -122.447872 38.719508, -122.448673 38.745747, -122.449475 38.771986, -122.450278 38.798225, -122.451081 38.824464, -122.451885 38.850703, -122.452690 38.876942, -122.453495 38.903181, -122.454300 38.929420, -122.455107 38.955659, -122.455914 38.981898, -122.456721 39.008137, -122.457529 39.034376, -122.458338 39.060615, -122.459147 39.086854, -122.459957 39.113093, -122.460768 39.139332, -122.461579 39.165571, -122.462390 39.191810, -122.463203 39.218048, -122.464016 39.244287, -122.464829 39.270526, -122.465643 39.296765, -122.466458 39.323004, -122.467273 39.349243, -122.468089 39.375482, -122.468906 39.401721, -122.469723 39.427960, -122.470541 39.454198, -122.471359 39.480437, -122.472178 39.506676, -122.472998 39.532915, -122.473818 39.559154, -122.474639 39.585393, -122.475461 39.611632, -122.476283 39.637870, -122.477106 39.664109, -122.477929 39.690348, -122.478753 39.716587, -122.479578 39.742826, -122.480403 39.769064, -122.481229 39.795303, -122.482056 39.821542, -122.482883 39.847781, -122.483711 39.874019, -122.484539 39.900258, -122.485368 39.926497, -122.486198 39.952736, -122.487028 39.978975, -122.487859 40.005213, -122.488691 40.031452, -122.489523 40.057691, -122.490356 40.083929, -122.491190 40.110168, -122.492024 40.136407, -122.492859 40.162646, -122.493694 40.188884, -122.494530 40.215123, -122.495367 40.241362, -122.496204 40.267600, -122.497042 40.293839, -122.497881 40.320078, -122.498721 40.346316, -122.499561 40.372555, -122.500401 40.398794, -122.501243 40.425032, -122.502085 40.451271, -122.502927 40.477510, -122.503771 40.503748, -122.504615 40.529987, -122.505459 40.556225, -122.506305 40.582464, -122.507151 40.608703, -122.507997 40.634941, -122.508844 40.661180, -122.509692 40.687418, -122.510541 40.713657, -122.511390 40.739896, -122.512240 40.766134, -122.513091 40.792373, -122.513942 40.818611, -122.514794 40.844850, -122.515647 40.871088, -122.516500 40.897327, -122.517354 40.923565, -122.518209 40.949804, -122.519064 40.976042, -122.519920 41.002281, -122.520777 41.028519, -122.521635 41.054758, -122.522493 41.080996, -122.523351 41.107235, -122.524211 41.133473, -122.525071 41.159712, -122.525932 41.185950, -122.526793 41.212189, -122.527656 41.238427, -122.528519 41.264666, -122.529382 41.290904, -122.530247 41.317143, -122.531112 41.343381, -122.531977 41.369619, -122.532844 41.395858, -122.533711 41.422096, -122.534579 41.448335, -122.535447 41.474573, -122.536316 41.500811, -122.537186 41.527050, -122.538057 41.553288, -122.538928 41.579527, -122.539800 41.605765, -122.540673 41.632003, -122.541546 41.658242, -122.542421 41.684480, -122.543295 41.710718, -122.544171 41.736957, -122.545047 41.763195, -122.545924 41.789433, -122.546802 41.815672, -122.547681 41.841910, -122.548560 41.868148, -122.549440 41.894386, -122.550320 41.920625, -122.551202 41.946863, -122.552084 41.973101, -122.552967 41.999339, -122.553850 42.025578, -122.554734 42.051816, -122.555619 42.078054, -122.556505 42.104292, -122.557392 42.130531, -122.558279 42.156769, -122.559167 42.183007, -122.560055 42.209245, -122.560945 42.235484, -122.561835 42.261722, -122.562726 42.287960, -122.563618 42.314198, -122.564510 42.340436, -122.565403 42.366674, -122.566297 42.392913, -122.567192 42.419151, -122.568087 42.445389, -122.568983 42.471627, -122.569880 42.497865, -122.570778 42.524103, -122.571676 42.550341, -122.572575 42.576579, -122.573475 42.602818, -122.574376 42.629056, -122.575277 42.655294, -122.576179 42.681532, -122.577082 42.707770, -122.577986 42.734008, -122.578890 42.760246, -122.579795 42.786484, -122.580701 42.812722, -122.581608 42.838960, -122.582516 42.865198, -122.583424 42.891436, -122.584333 42.917674, -122.585243 42.943912, -122.586154 42.970150, -122.587065 42.996388, -122.587977 43.022626, -122.588890 43.048864, -122.589804 43.075102, -122.590718 43.101340, -122.591634 43.127578, -122.592550 43.153816, -122.593467 43.180054, -122.594384 43.206292, -122.595303 43.232530, -122.596222 43.258768, -122.597142 43.285006, -122.598063 43.311244, -122.598985 43.337482, -122.599907 43.363719, -122.600830 43.389957, -122.601754 43.416195, -122.602679 43.442433, -122.603605 43.468671, -122.604531 43.494909, -122.605459 43.521147, -122.606387 43.547384, -122.607315 43.573622, -122.608245 43.599860, -122.609176 43.626098, -122.610107 43.652336, -122.611039 43.678574, -122.611972 43.704811, -122.612906 43.731049, -122.613840 43.757287, -122.614776 43.783525, -122.615712 43.809762, -122.616649 43.836000, -122.617587 43.862238, -122.618525 43.888476, -122.619465 43.914713, -122.620405 43.940951, -122.621346 43.967189, -122.622288 43.993427, -122.623231 44.019664, -122.624175 44.045902, -122.625119 44.072140, -122.626065 44.098377, -122.627011 44.124615, -122.627958 44.150853, -122.628906 44.177090, -122.629854 44.203328, -122.630804 44.229566, -122.631754 44.255803, -122.632706 44.282041, -122.633658 44.308278, -122.634611 44.334516, -122.635564 44.360754, -122.636519 44.386991, -122.637475 44.413229, -122.638431 44.439466, -122.639388 44.465704, -122.640346 44.491942, -122.641305 44.518179, -122.642265 44.544417, -122.643226 44.570654, -122.644187 44.596892, -122.645150 44.623129, -122.646113 44.649367, -122.647077 44.675604, -122.648042 44.701842, -122.649008 44.728079, -122.649975 44.754317, -122.650942 44.780554, -122.651911 44.806792, -122.652880 44.833029, -122.653851 44.859267, -122.654822 44.885504, -122.655794 44.911741, -122.656767 44.937979, -122.657741 44.964216, -122.658715 44.990454, -122.659691 45.016691, -122.660668 45.042928, -122.661645 45.069166, -122.662623 45.095403, -122.663603 45.121641, -122.664583 45.147878, -122.665564 45.174115, -122.666546 45.200353, -122.667529 45.226590, -122.668512 45.252827, -122.669497 45.279065, -122.670482 45.305302, -122.671469 45.331539, -122.672456 45.357776, -122.673445 45.384014, -122.674434 45.410251, -122.675424 45.436488, -122.676415 45.462726, -122.677407 45.488963, -122.678400 45.515200, -122.674284 45.541021, -122.670163 45.566842, -122.666039 45.592663, -122.661912 45.618483, -122.657780 45.644304, -122.653645 45.670124, -122.649505 45.695944, -122.645362 45.721764, -122.641215 45.747584, -122.637065 45.773404, -122.632910 45.799223, -122.628752 45.825043, -122.624589 45.850862, -122.620423 45.876681, -122.616253 45.902500, -122.612079 45.928319, -122.607902 45.954137, -122.603720 45.979956, -122.599534 46.005774, -122.595345 46.031592, -122.591151 46.057410, -122.586954 46.083228, -122.582753 46.109046, -122.578548 46.134863, -122.574338 46.160681, -122.570125 46.186498, -122.565908 46.212315, -122.561687 46.238132, -122.557462 46.263949, -122.553233 46.289765, -122.549000 46.315582, -122.544763 46.341398, -122.540522 46.367214, -122.536277 46.393030, -122.532029 46.418846, -122.527775 46.444662, -122.523518 46.470477, -122.519257 46.496293, -122.514992 46.522108, -122.510723 46.547923, -122.506450 46.573738, -122.502172 46.599553, -122.497891 46.625367, -122.493606 46.651182, -122.489316 46.676996, -122.485022 46.702810, -122.480725 46.728624, -122.476423 46.754438, -122.472117 46.780251, -122.467806 46.806065, -122.463492 46.831878, -122.459174 46.857691, -122.454851 46.883504, -122.450524 46.909317, -122.446193 46.935130, -122.441858 46.960942, -122.437519 46.986754, -122.433176 47.012567, -122.428828 47.038379, -122.424476 47.064190, -122.420120 47.090002, -122.415760 47.115814, -122.411395 47.141625, -122.407026 47.167436, -122.402653 47.193247, -122.398276 47.219058, -122.393894 47.244869, -122.389508 47.270679, -122.385118 47.296489, -122.380724 47.322299, -122.376325 47.348109, -122.371922 47.373919, -122.367515 47.399729, -122.363103 47.425538, -122.358687 47.451348, -122.354267 47.477157, -122.349842 47.502966, -122.345413 47.528775, -122.340980 47.554583, -122.336542 47.580392, -122.332100 47.606200, -122.293226 47.607714, -122.254351 47.609215, -122.215473 47.610703, -122.176592 47.612178, -122.137710 47.613639, -122.098825 47.615087, -122.059939 47.616523, -122.021050 47.617945, -121.982159 47.619354, -121.943266 47.620750, -121.904371 47.622132, -121.865474 47.623502, -121.826575 47.624858, -121.787673 47.626202, -121.748770 47.627532, -121.709865 47.628849, -121.670958 47.630152, -121.632049 47.631443, -121.593138 47.632720, -121.554225 47.633985, -121.515310 47.635236, -121.476394 47.636474, -121.437476 47.637699, -121.398555 47.638910, -121.359633 47.640109, -121.320710 47.641294, -121.281784 47.642466, -121.242857 47.643626, -121.203928 47.644771, -121.164997 47.645904, -121.126065 47.647024, -121.087131 47.648130, -121.048195 47.649223, -121.009258 47.650303, -120.970319 47.651370, -120.931378 47.652423, -120.892436 47.653464, -120.853493 47.654491, -120.814548 47.655505, -120.775601 47.656506, -120.736653 47.657494, -120.697703 47.658469, -120.658753 47.659430, -120.619800 47.660378, -120.580846 47.661313, -120.541891 47.662235, -120.502935 47.663144, -120.463977 47.664039, -120.425017 47.664921, -120.386057 47.665790, -120.347095 47.666646, -120.308132 47.667489, -120.269168 47.668319, -120.230202 47.669135, -120.191235 47.669938, -120.152267 47.670728, -120.113298 47.671505, -120.074328 47.672268, -120.035356 47.673018, -119.996384 47.673756, -119.957410 47.674480, -119.918435 47.675190, -119.879460 47.675888, -119.840483 47.676572, -119.801505 47.677243, -119.762526 47.677901, -119.723547 47.678546, -119.684566 47.679178, -119.645584 47.679796, -119.606602 47.680401, -119.567618 47.680993, -119.528634 47.681572, -119.489649 47.682137, -119.450663 47.682690, -119.411676 47.683229, -119.372688 47.683755, -119.333700 47.684267, -119.294711 47.684767, -119.255721 47.685253, -119.216730 47.685726, -119.177739 47.686186, -119.138747 47.686633, -119.099754 47.687066, -119.060761 47.687487, -119.021767 47.687894, -118.982772 47.688287, -118.943777 47.688668, -118.904782 47.689035, -118.865785 47.689390, -118.826789 47.689731, -118.787791 47.690058, -118.748794 47.690373, -118.709796 47.690674, -118.670797 47.690962, -118.631798 47.691237, -118.592799 47.691499, -118.553799 47.691747, -118.514799 47.691983, -118.475798 47.692205, -118.436797 47.692414, -118.397796 47.692609, -118.358795 47.692792, -118.319793 47.692961, -118.280791 47.693117, -118.241789 47.693260, -118.202787 47.693389, -118.163784 47.693505, -118.124782 47.693609, -118.085779 47.693698, -118.046776 47.693775, -118.007773 47.693839, -117.968770 47.693889, -117.929766 47.693926, -117.890763 47.693950, -117.851760 47.693960, -117.812757 47.693958, -117.773753 47.693942, -117.734750 47.693913, -117.695747 47.693871, -117.656744 47.693815, -117.617741 47.693746, -117.578738 47.693664, -117.539735 47.693569, -117.500732 47.693461, -117.461730 47.693339, -117.422728 47.693205, -117.383726 47.693057, -117.344724 47.692895, -117.305722 47.692721, -117.266721 47.692533, -117.227720 47.692332, -117.188719 47.692118, -117.149719 47.691891, -117.110719 47.691650, -117.071719 47.691397, -117.032720 47.691130, -116.993721 47.690850, -116.954723 47.690556, -116.915725 47.690250, -116.876727 47.689930, -116.837730 47.689597, -116.798734 47.689251, -116.759738 47.688891, -116.720742 47.688519, -116.681747 47.688133, -116.642753 47.687734, -116.603759 47.687321, -116.564766 47.686896, -116.525774 47.686457, -116.486782 47.686005, -116.447791 47.685540, -116.408801 47.685062, -116.369811 47.684570, -116.330822 47.684066, -116.291834 47.683548, -116.252847 47.683016, -116.213860 47.682472, -116.174875 47.681915, -116.135890 47.681344, -116.096906 47.680760, -116.057923 47.680163, -116.018941 47.679552, -115.979959 47.678929, -115.940979 47.678292, -115.902000 47.677642, -115.863021 47.676979, -115.824044 47.676302, -115.785067 47.675613, -115.746092 47.674910, -115.707118 47.674194, -115.668145 47.673465, -115.629173 47.672722, -115.590202 47.671967, -115.551232 47.671198, -115.512263 47.670416, -115.473296 47.669621, -115.434329 47.668812, -115.395364 47.667991, -115.356400 47.667156, -115.317438 47.666308, -115.278476 47.665447, -115.239516 47.664573, -115.200558 47.663685, -115.161600 47.662785, -115.122644 47.661871, -115.083690 47.660944, -115.044736 47.660003, -115.005784 47.659050, -114.966834 47.658083, -114.927885 47.657104, -114.888938 47.656111, -114.849992 47.655104, -114.811047 47.654085, -114.772104 47.653053, -114.733163 47.652007, -114.694223 47.650948, -114.655285 47.649876, -114.616348 47.648791, -114.577413 47.647692, -114.538480 47.646581, -114.499548 47.645456, -114.460618 47.644318, -114.421690 47.643167, -114.382763 47.642003, -114.343838 47.640825, -114.304915 47.639635, -114.265994 47.638431, -114.227074 47.637214, -114.188157 47.635984, -114.149241 47.634741, -114.110327 47.633485, -114.071415 47.632215, -114.032505 47.630932, -113.993596 47.629637, -113.954690 47.628328, -113.915786 47.627005, -113.876883 47.625670, -113.837983 47.624322, -113.799085 47.622960, -113.760188 47.621585, -113.721294 47.620197, -113.682402 47.618796, -113.643512 47.617382, -113.604624 47.615955, -113.565738 47.614514, -113.526854 47.613061, -113.487973 47.611594, -113.449093 47.610114, -113.410216 47.608621, -113.371341 47.607115, -113.332468 47.605595, -113.293598 47.604063, -113.254730 47.602517, -113.215864 47.600959, -113.177001 47.599387, -113.138140 47.597802, -113.099281 47.596204, -113.060424 47.594593, -113.021570 47.592968, -112.982719 47.591331, -112.943870 47.589680, -112.905023 47.588017, -112.866179 47.586340, -112.827337 47.584650, -112.788498 47.582947, -112.749661 47.581231, -112.710827 47.579502, -112.671996 47.577760, -112.633167 47.576004, -112.594341 47.574236, -112.555517 47.572454, -112.516696 47.570659, -112.477878 47.568851, -112.439062 47.567030, -112.400249 47.565196, -112.361439 47.563349, -112.322631 47.561489, -112.283827 47.559616, -112.245025 47.557729, -112.206226 47.555830, -112.167429 47.553917, -112.128636 47.551992, -112.089845 47.550053, -112.051058 47.548101, -112.012273 47.546136, -111.973491 47.544158, -111.934712 47.542167, -111.895936 47.540163, -111.857163 47.538146, -111.818393 47.536116, -111.779626 47.534073, -111.740862 47.532016, -111.702101 47.529947, -111.663343 47.527864, -111.624588 47.525769, -111.585837 47.523660, -111.547088 47.521539, -111.508343 47.519404, -111.469601 47.517256, -111.430862 47.515096, -111.392126 47.512922, -111.353393 47.510735, -111.314664 47.508535, -111.275937 47.506322, -111.237215 47.504096, -111.198495 47.501857, -111.159779 47.499605, -111.121066 47.497340, -111.082356 47.495062, -111.043650 47.492771, -111.004947 47.490467, -110.966248 47.488149, -110.927552 47.485819, -110.888859 47.483476, -110.850170 47.481120, -110.811484 47.478750, -110.772802 47.476368, -110.734124 47.473973, -110.695449 47.471565, -110.656777 47.469143, -110.618109 47.466709, -110.579445 47.464262, -110.540784 47.461802, -110.502127 47.459328, -110.463473 47.456842, -110.424824 47.454343, -110.386177 47.451831, -110.347535 47.449306, -110.308896 47.446767, -110.270261 47.444216, -110.231630 47.441652, -110.193003 47.439075, -110.154379 47.436485, -110.115759 47.433882, -110.077143 47.431266, -110.038531 47.428637, -109.999923 47.425995, -109.961318 47.423340, -109.922718 47.420672, -109.884121 47.417991, -109.845529 47.415297, -109.806940 47.412591, -109.768355 47.409871, -109.729775 47.407138, -109.691198 47.404393, -109.652625 47.401634, -109.614057 47.398863, -109.575492 47.396078, -109.536932 47.393281, -109.498375 47.390471, -109.459823 47.387648, -109.421275 47.384812, -109.382731 47.381963, -109.344191 47.379101, -109.305656 47.376226, -109.267124 47.373338, -109.228597 47.370437, -109.190074 47.367524, -109.151556 47.364597, -109.113041 47.361658, -109.074531 47.358706, -109.036026 47.355741, -108.997524 47.352762, -108.959027 47.349772, -108.920534 47.346768, -108.882046 47.343751, -108.843562 47.340721, -108.805083 47.337679, -108.766608 47.334623, -108.728137 47.331555, -108.689671 47.328474, -108.651210 47.325380, -108.612753 47.322273, -108.574300 47.319154, -108.535852 47.316021, -108.497409 47.312876, -108.458970 47.309717, -108.420536 47.306546, -108.382106 47.303362, -108.343681 47.300165, -108.305261 47.296956, -108.266846 47.293733, -108.228435 47.290498, -108.190028 47.287250, -108.151627 47.283989, -108.113230 47.280715, -108.074838 47.277428, -108.036451 47.274129, -107.998069 47.270816, -107.959691 47.267491, -107.921318 47.264153, -107.882950 47.260803, -107.844587 47.257439, -107.806229 47.254063, -107.767876 47.250674, -107.729527 47.247272, -107.691184 47.243857, -107.652846 47.240429, -107.614512 47.236989, -107.576184 47.233536, -107.537860 47.230070, -107.499542 47.226592, -107.461228 47.223100, -107.422920 47.219596, -107.384616 47.216079, -107.346318 47.212549, -107.308025 47.209007, -107.269737 47.205452, -107.231454 47.201884, -107.193177 47.198303, -107.154904 47.194710, -107.116637 47.191103, -107.078375 47.187484, -107.040118 47.183853, -107.001866 47.180208, -106.963620 47.176551, -106.925379 47.172881, -106.887143 47.169199, -106.848912 47.165503, -106.810687 47.161795, -106.772467 47.158074, -106.734253 47.154341, -106.696044 47.150595, -106.657840 47.146836, -106.619642 47.143064, -106.581449 47.139280, -106.543261 47.135483, -106.505079 47.131674, -106.466903 47.127851, -106.428732 47.124016, -106.390567 47.120168, -106.352407 47.116308, -106.314252 47.112435, -106.276103 47.108549, -106.237960 47.104651, -106.199822 47.100740, -106.161690 47.096816, -106.123564 47.092880, -106.085443 47.088931, -106.047328 47.084969, -106.009219 47.080995, -105.971115 47.077008, -105.933017 47.073009, -105.894925 47.068996, -105.856838 47.064972, -105.818757 47.060934, -105.780682 47.056884, -105.742613 47.052821, -105.704550 47.048746, -105.666492 47.044658, -105.628440 47.040558, -105.590394 47.036445, -105.552354 47.032319, -105.514320 47.028181, -105.476292 47.024030, -105.438270 47.019866, -105.400253 47.015690, -105.362243 47.011502, -105.324239 47.007300, -105.286240 47.003087, -105.248248 46.998860, -105.210261 46.994621, -105.172281 46.990370, -105.134306 46.986106, -105.096338 46.981829, -105.058376 46.977540, -105.020420 46.973239, -104.982470 46.968924, -104.944526 46.964598, -104.906588 46.960258, -104.868657 46.955906, -104.830731 46.951542, -104.792812 46.947165, -104.754899 46.942776, -104.716993 46.938374, -104.679092 46.933960, -104.641198 46.929533, -104.603310 46.925093, -104.565428 46.920641, -104.527553 46.916177, -104.489684 46.911700, -104.451821 46.907211, -104.413965 46.902709, -104.376115 46.898195, -104.338271 46.893668, -104.300434 46.889129, -104.262603 46.884577, -104.224779 46.880013, -104.186961 46.875436, -104.149149 46.870847, -104.111344 46.866245, -104.073546 46.861631, -104.035754 46.857005, -103.997968 46.852366, -103.960189 46.847715, -103.922417 46.843051, -103.884651 46.838375, -103.846892 46.833687, -103.809139 46.828986, -103.771393 46.824272, -103.733653 46.819546, -103.695921 46.814808, -103.658195 46.810058, -103.620475 46.805295, -103.582762 46.800519, -103.545056 46.795732, -103.507357 46.790931, -103.469664 46.786119, -103.431978 46.781294, -103.394299 46.776457, -103.356627 46.771607, -103.318961 46.766745, -103.281303 46.761871, -103.243651 46.756984, -103.206006 46.752085, -103.168368 46.747174, -103.130736 46.742250, -103.093112 46.737314, -103.055494 46.732366, -103.017884 46.727405, -102.980280 46.722432, -102.942683 46.717447, -102.905093 46.712449, -102.867510 46.707439, -102.829934 46.702417, -102.792366 46.697382, -102.754804 46.692335, -102.717249 46.687276, -102.679701 46.682205, -102.642160 46.677121, -102.604627 46.672025, -102.567100 46.666917, -102.529580 46.661797, -102.492068 46.656664, -102.454563 46.651519, -102.417065 46.646362, -102.379574 46.641192, -102.342090 46.636010, -102.304613 46.630816, -102.267144 46.625610, -102.229682 46.620392, -102.192227 46.615161, -102.154779 46.609918, -102.117339 46.604663, -102.079906 46.599396, -102.042480 46.594116, -102.005061 46.588824, -101.967650 46.583520, -101.930246 46.578204, -101.892849 46.572876, -101.855460 46.567535, -101.818078 46.562183, -101.780704 46.556818, -101.743337 46.551441, -101.705977 46.546052, -101.668625 46.540650, -101.631280 46.535237, -101.593943 46.529811, -101.556613 46.524373, -101.519290 46.518923, -101.481975 46.513461, -101.444668 46.507987, -101.407368 46.502501, -101.370076 46.497002, -101.332791 46.491492, -101.295514 46.485969, -101.258244 46.480434, -101.220982 46.474887, -101.183728 46.469328, -101.146481 46.463757, -101.109241 46.458174, -101.072010 46.452579, -101.034786 46.446971, -100.997570 46.441352, -100.960361 46.435720, -100.923160 46.430077, -100.885967 46.424421, -100.848782 46.418754, -100.811604 46.413074, -100.774434 46.407382, -100.737272 46.401678, -100.700118 46.395962, -100.662971 46.390235, -100.625832 46.384495, -100.588701 46.378743, -100.551578 46.372979, -100.514463 46.367203, -100.477355 46.361415, -100.440256 46.355615, -100.403164 46.349803, -100.366080 46.343979, -100.329004 46.338143, -100.291936 46.332295, -100.254876 46.326436, -100.217824 46.320564, -100.180780 46.314680, -100.143744 46.308784, -100.106716 46.302876, -100.069695 46.296957, -100.032683 46.291025, -99.995679 46.285082, -99.958683 46.279126, -99.921695 46.273159, -99.884715 46.267179, -99.847743 46.261188, -99.810779 46.255185, -99.773823 46.249170, -99.736876 46.243143, -99.699936 46.237104, -99.663005 46.231053, -99.626082 46.224991, -99.589167 46.218916, -99.552260 46.212830, -99.515361 46.206731, -99.478471 46.200621, -99.441588 46.194499, -99.404714 46.188365, -99.367848 46.182219, -99.330991 46.176062, -99.294142 46.169892, -99.257301 46.163711, -99.220468 46.157518, -99.183643 46.151313, -99.146827 46.145096, -99.110019 46.138868, -99.073220 46.132627, -99.036429 46.126375, -98.999646 46.120111, -98.962872 46.113835, -98.926106 46.107548, -98.889348 46.101248, -98.852599 46.094937, -98.815858 46.088614, -98.779126 46.082280, -98.742402 46.075933, -98.705686 46.069575, -98.668979 46.063205, -98.632281 46.056823, -98.595591 46.050430, -98.558909 46.044025, -98.522236 46.037608, -98.485572 46.031179, -98.448916 46.024739, -98.412268 46.018287, -98.375629 46.011823, -98.338999 46.005348, -98.302377 45.998860, -98.265764 45.992361, -98.229160 45.985851, -98.192564 45.979329, -98.155977 45.972795, -98.119398 45.966249, -98.082828 45.959692, -98.046267 45.953123, -98.009714 45.946542, -97.973170 45.939950, -97.936635 45.933346, -97.900108 45.926731, -97.863590 45.920104, -97.827081 45.913465, -97.790581 45.906814, -97.754089 45.900152, -97.717606 45.893479, -97.681132 45.886793, -97.644667 45.880097, -97.608211 45.873388, -97.571763 45.866668, -97.535324 45.859936, -97.498894 45.853193, -97.462473 45.846438, -97.426061 45.839672, -97.389657 45.832894, -97.353262 45.826105, -97.316877 45.819304, -97.280500 45.812491, -97.244132 45.805667, -97.207773 45.798831, -97.171423 45.791984, -97.135082 45.785126, -97.098750 45.778255, -97.062426 45.771374, -97.026112 45.764481, -96.989807 45.757576, -96.953511 45.750660, -96.917223 45.743732, -96.880945 45.736793, -96.844676 45.729842, -96.808416 45.722880, -96.772164 45.715906, -96.735922 45.708921, -96.699689 45.701925, -96.663465 45.694917, -96.627250 45.687897, -96.591045 45.680866, -96.554848 45.673824, -96.518660 45.666770, -96.482482 45.659705, -96.446313 45.652629, -96.410152 45.645541, -96.374001 45.638441, -96.337859 45.631331, -96.301727 45.624208, -96.265603 45.617075, -96.229489 45.609930, -96.193384 45.602774, -96.157288 45.595606, -96.121202 45.588427, -96.085124 45.581236, -96.049056 45.574035, -96.012997 45.566822, -95.976947 45.559597, -95.940907 45.552361, -95.904876 45.545114, -95.868854 45.537856, -95.832842 45.530586, -95.796839 45.523305, -95.760845 45.516013, -95.724860 45.508709, -95.688885 45.501394, -95.652919 45.494068, -95.616963 45.486730, -95.581016 45.479381, -95.545078 45.472021, -95.509150 45.464650, -95.473231 45.457267, -95.437322 45.449873, -95.401422 45.442468, -95.365531 45.435052, -95.329650 45.427624, -95.293778 45.420185, -95.257916 45.412735, -95.222063 45.405274, -95.186220 45.397802, -95.150386 45.390318, -95.114562 45.382823, -95.078747 45.375317, -95.042942 45.367800, -95.007146 45.360271, -94.971359 45.352731, -94.935583 45.345181, -94.899816 45.337619, -94.864058 45.330045, -94.828310 45.322461, -94.792571 45.314866, -94.756843 45.307259, -94.721123 45.299641, -94.685414 45.292013, -94.649713 45.284373, -94.614023 45.276721, -94.578342 45.269059, -94.542671 45.261386, -94.507009 45.253701, -94.471358 45.246006, -94.435715 45.238299, -94.400083 45.230582, -94.364460 45.222853, -94.328847 45.215113, -94.293243 45.207362, -94.257650 45.199600, -94.222066 45.191827, -94.186491 45.184043, -94.150927 45.176248, -94.115372 45.168442, -94.079827 45.160625, -94.044291 45.152797, -94.008766 45.144957, -93.973250 45.137107, -93.937744 45.129246, -93.902248 45.121374, -93.866761 45.113490, -93.831285 45.105596, -93.795818 45.097691, -93.760361 45.089775, -93.724914 45.081848, -93.689477 45.073910, -93.654049 45.065961, -93.618632 45.058001, -93.583224 45.050030, -93.547826 45.042048, -93.512438 45.034055, -93.477060 45.026051, -93.441692 45.018037, -93.406334 45.010011, -93.370985 45.001975, -93.335647 44.993927, -93.300319 44.985869, -93.265000 44.977800, -93.234754 44.962712, -93.204524 44.947617, -93.174309 44.932513, -93.144111 44.917401, -93.113928 44.902282, -93.083762 44.887154, -93.053611 44.872019, -93.023476 44.856875, -92.993357 44.841724, -92.963254 44.826565, -92.933166 44.811397, -92.903095 44.796222, -92.873039 44.781039, -92.842999 44.765849, -92.812975 44.750650, -92.782966 44.735443, -92.752974 44.720229, -92.722997 44.705007, -92.693036 44.689777, -92.663090 44.674539, -92.633161 44.659293, -92.603247 44.644040, -92.573349 44.628778, -92.543467 44.613509, -92.513600 44.598232, -92.483749 44.582947, -92.453914 44.567655, -92.424094 44.552355, -92.394290 44.537047, -92.364502 44.521731, -92.334729 44.506407, -92.304973 44.491076, -92.275231 44.475737, -92.245506 44.460391, -92.215796 44.445036, -92.186101 44.429674, -92.156423 44.414304, -92.126759 44.398927, -92.097112 44.383542, -92.067480 44.368149, -92.037863 44.352749, -92.008263 44.337341, -91.978677 44.321925, -91.949108 44.306502, -91.919553 44.291071, -91.890015 44.275632, -91.860491 44.260186, -91.830984 44.244732, -91.801492 44.229271, -91.772015 44.213802, -91.742554 44.198325, -91.713108 44.182841, -91.683678 44.167349, -91.654263 44.151850, -91.624864 44.136344, -91.595480 44.120829, -91.566112 44.105307, -91.536759 44.089778, -91.507421 44.074241, -91.478099 44.058697, -91.448792 44.043145, -91.419500 44.027586, -91.390224 44.012019, -91.360964 43.996445, -91.331718 43.980863, -91.302488 43.965274, -91.273274 43.949677, -91.244075 43.934073, -91.214891 43.918461, -91.185722 43.902842, -91.156569 43.887216, -91.127431 43.871582, -91.098308 43.855941, -91.069200 43.840293, -91.040108 43.824637, -91.011031 43.808973, -90.981969 43.793303, -90.952923 43.777625, -90.923892 43.761939, -90.894876 43.746246, -90.865875 43.730546, -90.836889 43.714839, -90.807919 43.699124, -90.778964 43.683402, -90.750024 43.667673, -90.721099 43.651936, -90.692189 43.636192, -90.663294 43.620441, -90.634415 43.604682, -90.605551 43.588917, -90.576702 43.573144, -90.547867 43.557363, -90.519048 43.541576, -90.490245 43.525781, -90.461456 43.509979, -90.432682 43.494170, -90.403923 43.478354, -90.375180 43.462530, -90.346451 43.446699, -90.317738 43.430861, -90.289039 43.415016, -90.260356 43.399164, -90.231687 43.383304, -90.203034 43.367438, -90.174395 43.351564, -90.145772 43.335683, -90.117163 43.319795, -90.088570 43.303900, -90.059991 43.287997, -90.031428 43.272088, -90.002879 43.256171, -89.974345 43.240248, -89.945826 43.224317, -89.917322 43.208379, -89.888833 43.192434, -89.860359 43.176482, -89.831899 43.160523, -89.803455 43.144557, -89.775025 43.128584, -89.746611 43.112604, -89.718211 43.096617, -89.689826 43.080623, -89.661455 43.064621, -89.633100 43.048613, -89.604759 43.032598, -89.576433 43.016576, -89.548122 43.000547, -89.519826 42.984511, -89.491544 42.968468, -89.463278 42.952418, -89.435025 42.936360, -89.406788 42.920297, -89.378566 42.904226, -89.350358 42.888148, -89.322164 42.872063, -89.293986 42.855971, -89.265822 42.839873, -89.237673 42.823767, -89.209539 42.807655, -89.181419 42.791536, -89.153314 42.775410, -89.125223 42.759277, -89.097147 42.743137, -89.069086 42.726990, -89.041039 42.710837, -89.013007 42.694676, -88.984990 42.678509, -88.956987 42.662335, -88.928998 42.646154, -88.901024 42.629967, -88.873065 42.613772, -88.845121 42.597571, -88.817190 42.581363, -88.789275 42.565148, -88.761374 42.548926, -88.733487 42.532698, -88.705615 42.516463, -88.677757 42.500221, -88.649914 42.483972, -88.622085 42.467717, -88.594271 42.451455, -88.566471 42.435186, -88.538686 42.418911, -88.510915 42.402629, -88.483158 42.386340, -88.455416 42.370044, -88.427688 42.353742, -88.399975 42.337433, -88.372276 42.321117, -88.344591 42.304795, -88.316921 42.288466, -88.289265 42.272130, -88.261623 42.255788, -88.233996 42.239439, -88.206383 42.223084, -88.178784 42.206721, -88.151200 42.190353, -88.123630 42.173977, -88.096074 42.157595, -88.068533 42.141207, -88.041005 42.124812, -88.013492 42.108410, -87.985993 42.092002, -87.958509 42.075587, -87.931039 42.059166, -87.903582 42.042738, -87.876140 42.026303, -87.848713 42.009862, -87.821299 41.993415, -87.793900 41.976961, -87.766514 41.960500, -87.739143 41.944033, -87.711786 41.927560, -87.684443 41.911080, -87.657115 41.894593, -87.629800 41.878100, -87.595071 41.882248, -87.560337 41.886385, -87.525599 41.890512, -87.490857 41.894629, -87.456110 41.898735, -87.421359 41.902831, -87.386603 41.906916, -87.351842 41.910990, -87.317078 41.915055, -87.282308 41.919108, -87.247535 41.923151, -87.212757 41.927184, -87.177974 41.931206, -87.143188 41.935218, -87.108397 41.939219, -87.073601 41.943210, -87.038801 41.947190, -87.003997 41.951160, -86.969188 41.955119, -86.934376 41.959067, -86.899559 41.963005, -86.864737 41.966933, -86.829911 41.970850, -86.795081 41.974757, -86.760247 41.978653, -86.725409 41.982538, -86.690566 41.986413, -86.655719 41.990278, -86.620867 41.994131, -86.586012 41.997975, -86.551152 42.001808, -86.516289 42.005630, -86.481420 42.009441, -86.446548 42.013243, -86.411672 42.017033, -86.376791 42.020813, -86.341907 42.024583, -86.307018 42.028342, -86.272125 42.032090, -86.237228 42.035828, -86.202327 42.039555, -86.167422 42.043271, -86.132512 42.046977, -86.097599 42.050673, -86.062682 42.054358, -86.027760 42.058032, -85.992835 42.061696, -85.957905 42.065349, -85.922972 42.068991, -85.888034 42.072623, -85.853092 42.076245, -85.818147 42.079855, -85.783197 42.083456, -85.748244 42.087045, -85.713287 42.090624, -85.678325 42.094192, -85.643360 42.097750, -85.608391 42.101297, -85.573418 42.104833, -85.538441 42.108359, -85.503460 42.111875, -85.468475 42.115379, -85.433486 42.118873, -85.398494 42.122356, -85.363498 42.125829, -85.328498 42.129291, -85.293494 42.132743, -85.258486 42.136183, -85.223474 42.139613, -85.188459 42.143033, -85.153440 42.146442, -85.118417 42.149840, -85.083390 42.153228, -85.048360 42.156604, -85.013326 42.159971, -84.978288 42.163326, -84.943246 42.166671, -84.908201 42.170005, -84.873152 42.173329, -84.838100 42.176642, -84.803043 42.179944, -84.767983 42.183236, -84.732920 42.186517, -84.697853 42.189787, -84.662782 42.193046, -84.627707 42.196295, -84.592629 42.199533, -84.557548 42.202761, -84.522462 42.205978, -84.487373 42.209184, -84.452281 42.212379, -84.417185 42.215564, -84.382086 42.218738, -84.346983 42.221901, -84.311876 42.225054, -84.276766 42.228196, -84.241653 42.231327, -84.206536 42.234447, -84.171416 42.237557, -84.136292 42.240656, -84.101165 42.243744, -84.066034 42.246822, -84.030900 42.249889, -83.995762 42.252945, -83.960621 42.255990, -83.925477 42.259025, -83.890329 42.262049, -83.855178 42.265062, -83.820023 42.268065, -83.784866 42.271057, -83.749705 42.274038, -83.714540 42.277008, -83.679372 42.279968, -83.644201 42.282916, -83.609027 42.285854, -83.573849 42.288782, -83.538669 42.291698, -83.503484 42.294604, -83.468297 42.297499, -83.433106 42.300383, -83.397913 42.303257, -83.362716 42.306120, -83.327515 42.308972, -83.292312 42.311813, -83.257105 42.314643, -83.221896 42.317463, -83.186683 42.320272, -83.151467 42.323070, -83.116248 42.325858, -83.081025 42.328634, -83.045800 42.331400, -83.010885 42.326647, -82.975976 42.321883, -82.941072 42.317108, -82.906173 42.312323, -82.871279 42.307528, -82.836391 42.302721, -82.801508 42.297905, -82.766631 42.293077, -82.731759 42.288239, -82.696892 42.283391, -82.662031 42.278532, -82.627174 42.273662, -82.592324 42.268782, -82.557479 42.263891, -82.522639 42.258990, -82.487804 42.254078, -82.452975 42.249156, -82.418152 42.244223, -82.383334 42.239280, -82.348521 42.234326, -82.313714 42.229362, -82.278912 42.224387, -82.244116 42.219401, -82.209325 42.214405, -82.174540 42.209399, -82.139761 42.204382, -82.104986 42.199354, -82.070218 42.194316, -82.035455 42.189267, -82.000697 42.184208, -81.965945 42.179139, -81.931199 42.174059, -81.896458 42.168968, -81.861723 42.163868, -81.826994 42.158756, -81.792270 42.153634, -81.757551 42.148502, -81.722839 42.143359, -81.688132 42.138206, -81.653430 42.133042, -81.618734 42.127868, -81.584044 42.122683, -81.549360 42.117488, -81.514681 42.112282, -81.480008 42.107066, -81.445341 42.101840, -81.410680 42.096603, -81.376024 42.091356, -81.341374 42.086098, -81.306729 42.080830, -81.272091 42.075552, -81.237458 42.070263, -81.202831 42.064963, -81.168210 42.059653, -81.133594 42.054333, -81.098985 42.049003, -81.064381 42.043662, -81.029783 42.038310, -80.995191 42.032949, -80.960605 42.027576, -80.926024 42.022194, -80.891449 42.016801, -80.856881 42.011398, -80.822318 42.005984, -80.787761 42.000560, -80.753210 41.995126, -80.718665 41.989681, -80.684125 41.984226, -80.649592 41.978760, -80.615065 41.973285, -80.580543 41.967798, -80.546028 41.962302, -80.511518 41.956795, -80.477014 41.951278, -80.442517 41.945751, -80.408025 41.940213, -80.373540 41.934665, -80.339060 41.929106, -80.304586 41.923537, -80.270119 41.917958, -80.235657 41.912369, -80.201202 41.906769, -80.166752 41.901159, -80.132309 41.895539, -80.097872 41.889909, -80.063440 41.884268, -80.029015 41.878617, -79.994596 41.872955, -79.960183 41.867284, -79.925776 41.861602, -79.891376 41.855910, -79.856981 41.850207, -79.822592 41.844494, -79.788210 41.838771, -79.753834 41.833038, -79.719464 41.827295, -79.685100 41.821541, -79.650742 41.815777, -79.616391 41.810003, -79.582046 41.804218, -79.547707 41.798424, -79.513374 41.792619, -79.479047 41.786804, -79.444727 41.780978, -79.410412 41.775143, -79.376105 41.769297, -79.341803 41.763441, -79.307508 41.757575, -79.273218 41.751699, -79.238936 41.745812, -79.204659 41.739915, -79.170389 41.734008, -79.136125 41.728091, -79.101867 41.722164, -79.067616 41.716227, -79.033371 41.710279, -78.999132 41.704321, -78.964900 41.698353, -78.930674 41.692375, -78.896455 41.686387, -78.862242 41.680389, -78.828035 41.674380, -78.793834 41.668361, -78.759640 41.662333, -78.725453 41.656294, -78.691272 41.650245, -78.657097 41.644185, -78.622929 41.638116, -78.588767 41.632037, -78.554611 41.625947, -78.520462 41.619847, -78.486320 41.613738, -78.452184 41.607618, -78.418054 41.601488, -78.383931 41.595348, -78.349815 41.589198, -78.315705 41.583037, -78.281601 41.576867, -78.247504 41.570687, -78.213413 41.564496, -78.179329 41.558296, -78.145252 41.552085, -78.111181 41.545865, -78.077117 41.539634, -78.043059 41.533393, -78.009008 41.527142, -77.974963 41.520882, -77.940925 41.514611, -77.906894 41.508330, -77.872869 41.502039, -77.838851 41.495738, -77.804840 41.489427, -77.770835 41.483106, -77.736836 41.476775, -77.702845 41.470434, -77.668860 41.464083, -77.634882 41.457722, -77.600910 41.451351, -77.566945 41.444970, -77.532987 41.438579, -77.499035 41.432178, -77.465090 41.425767, -77.431152 41.419346, -77.397221 41.412915, -77.363296 41.406474, -77.329378 41.400024, -77.295467 41.393563, -77.261562 41.387092, -77.227664 41.380611, -77.193773 41.374121, -77.159889 41.367620, -77.126012 41.361110, -77.092141 41.354589, -77.058277 41.348059, -77.024420 41.341518, -76.990570 41.334968, -76.956726 41.328408, -76.922890 41.321838, -76.889060 41.315258, -76.855237 41.308668, -76.821421 41.302068, -76.787611 41.295459, -76.753809 41.288839, -76.720013 41.282210, -76.686225 41.275570, -76.652443 41.268921, -76.618668 41.262262, -76.584900 41.255593, -76.551139 41.248915, -76.517384 41.242226, -76.483637 41.235527, -76.449897 41.228819, -76.416163 41.222101, -76.382437 41.215373, -76.348717 41.208635, -76.315004 41.201887, -76.281299 41.195130, -76.247600 41.188362, -76.213908 41.181585, -76.180223 41.174798, -76.146545 41.168001, -76.112875 41.161195, -76.079211 41.154378, -76.045554 41.147552, -76.011904 41.140716, -75.978261 41.133870, -75.944626 41.127015, -75.910997 41.120149, -75.877375 41.113274, -75.843761 41.106389, -75.810153 41.099494, -75.776553 41.092590, -75.742959 41.085676, -75.709373 41.078752, -75.675793 41.071818, -75.642221 41.064875, -75.608656 41.057921, -75.575098 41.050958, -75.541547 41.043986, -75.508003 41.037003, -75.474467 41.030011, -75.440937 41.023009, -75.407415 41.015998, -75.373899 41.008977, -75.340391 41.001946, -75.306890 40.994905, -75.273396 40.987855, -75.239910 40.980794, -75.206430 40.973725, -75.172958 40.966645, -75.139493 40.959556, -75.106035 40.952457, -75.072584 40.945349, -75.039141 40.938231, -75.005704 40.931103, -74.972275 40.923966, -74.938853 40.916819, -74.905439 40.909662, -74.872031 40.902495, -74.838631 40.895319, -74.805238 40.888134, -74.771853 40.880938, -74.738474 40.873734, -74.705103 40.866519, -74.671739 40.859295, -74.638383 40.852061, -74.605034 40.844818, -74.571692 40.837565, -74.538357 40.830302, -74.505030 40.823030, -74.471710 40.815748, -74.438397 40.808457, -74.405091 40.801156, -74.371793 40.793846, -74.338503 40.786526, -74.305219 40.779196, -74.271943 40.771857, -74.238674 40.764508, -74.205413 40.757150, -74.172159 40.749782, -74.138913 40.742405, -74.105673 40.735018, -74.072441 40.727621, -74.039217 40.720215, -74.006000 40.712800)
