MULTILINESTRING ((-6.820000 53.085300, -6.819019 53.085967, -6.818038 53.086635, -6.817057 53.087302, -6.816076 53.087970, -6.815095 53.088637, -6.814114 53.089305, -6.813132 53.089972, -6.812151 53.090640, -6.811170 53.091307, -6.810189 53.091975, -6.809207 53.092642, -6.808226 53.093309, -6.807245 53.093977, -6.806263 53.094644, -6.805282 53.095312, -6.804300 53.095979, -6.803319 53.096646, -6.802337 53.097314, -6.801356 53.097981, -6.800374 53.098648, -6.799393 53.099316, -6.798411 53.099983, -6.797429 53.100650, -6.796448 53.101318, -6.795466 53.101985, -6.794484 53.102652, -6.793502 53.103319, -6.792521 53.103987, -6.791539 53.104654, -6.790557 53.105321, -6.789575 53.105988, -6.788593 53.106656, -6.787611 53.107323, -6.786629 53.107990, -6.785647 53.108657, -6.784665 53.109325, -6.783683 53.109992, -6.782701 53.110659, -6.781719 53.111326, -6.780736 53.111993, -6.779754 53.112661, -6.778772 53.113328, -6.777790 53.113995, -6.776807 53.114662, -6.775825 53.115329, -6.774843 53.115996, -6.773860 53.116663, -6.772878 53.117330, -6.771895 53.117998, -6.770913 53.118665, -6.769930 53.119332, -6.768948 53.119999, -6.767965 53.120666, -6.766983 53.121333, -6.766000 53.122000, -6.766425 53.121139, -6.766849 53.120278, -6.767273 53.119416, -6.767698 53.118555, -6.768122 53.117694, -6.768547 53.116833, -6.768971 53.115971, -6.769396 53.115110, -6.769820 53.114249, -6.770244 53.113388, -6.770669 53.112527, -6.771093 53.111665, -6.771517 53.110804, -6.771942 53.109943, -6.772366 53.109082, -6.772790 53.108220, -6.773214 53.107359, -6.773639 53.106498, -6.774063 53.105637, -6.774487 53.104775, -6.774911 53.103914, -6.775335 53.103053, -6.775759 53.102192, -6.776184 53.101331, -6.776608 53.100469, -6.777032 53.099608, -6.777456 53.098747, -6.777880 53.097886, -6.778304 53.097024, -6.778728 53.096163, -6.779152 53.095302, -6.779576 53.094440, -6.780000 53.093579, -6.780424 53.092718, -6.780848 53.091857, -6.781272 53.090995, -6.781696 53.090134, -6.782119 53.089273, -6.782543 53.088412, -6.782967 53.087550, -6.783391 53.086689, -6.783815 53.085828, -6.784239 53.084967, -6.784662 53.084105, -6.785086 53.083244, -6.785510 53.082383, -6.785934 53.081521, -6.786357 53.080660, -6.786781 53.079799, -6.787205 53.078938, -6.787628 53.078076, -6.788052 53.077215, -6.788476 53.076354, -6.788899 53.075492, -6.789323 53.074631, -6.789746 53.073770, -6.790170 53.072909, -6.790594 53.072047, -6.791017 53.071186, -6.791441 53.070325, -6.791864 53.069463, -6.792288 53.068602, -6.792711 53.067741, -6.793134 53.066879, -6.793558 53.066018, -6.793981 53.065157, -6.794405 53.064295, -6.794828 53.063434, -6.795251 53.062573, -6.795675 53.061712, -6.796098 53.060850, -6.796521 53.059989, -6.796945 53.059128, -6.797368 53.058266, -6.797791 53.057405, -6.798214 53.056544, -6.798638 53.055682, -6.799061 53.054821, -6.799484 53.053960, -6.799907 53.053098, -6.800330 53.052237, -6.800753 53.051376, -6.801177 53.050514, -6.801600 53.049653, -6.802023 53.048792, -6.802446 53.047930, -6.802869 53.047069, -6.803292 53.046208, -6.803715 53.045346, -6.804138 53.044485, -6.804561 53.043624, -6.804984 53.042762, -6.805407 53.041901, -6.805830 53.041040, -6.806253 53.040178, -6.806676 53.039317, -6.807099 53.038455, -6.807521 53.037594, -6.807944 53.036733, -6.808367 53.035871, -6.808790 53.035010, -6.809213 53.034149, -6.809635 53.033287, -6.810058 53.032426, -6.810481 53.031565, -6.810904 53.030703, -6.811326 53.029842, -6.811749 53.028980, -6.812172 53.028119, -6.812594 53.027258, -6.813017 53.026396, -6.813440 53.025535, -6.813862 53.024674, -6.814285 53.023812, -6.814708 53.022951, -6.815130 53.022089, -6.815553 53.021228, -6.815975 53.020367, -6.816398 53.019505, -6.816820 53.018644, -6.817243 53.017782, -6.817665 53.016921, -6.818088 53.016060, -6.818510 53.015198, -6.818932 53.014337, -6.819355 53.013475, -6.819777 53.012614, -6.820200 53.011753, -6.820622 53.010891, -6.821044 53.010030, -6.821466 53.009168, -6.821889 53.008307, -6.822311 53.007446, -6.822733 53.006584, -6.823156 53.005723, -6.823578 53.004861, -6.824000 53.004000, -6.824166 53.003110, -6.824331 53.002220, -6.824496 53.001330, -6.824662 53.000440, -6.824827 52.999551, -6.824993 52.998661, -6.825158 52.997771, -6.825324 52.996881, -6.825489 52.995991, -6.825655 52.995101, -6.825820 52.994211, -6.825986 52.993321, -6.826151 52.992431, -6.826316 52.991541, -6.826482 52.990652, -6.826647 52.989762, -6.826813 52.988872, -6.826978 52.987982, -6.827143 52.987092, -6.827309 52.986202, -6.827474 52.985312, -6.827640 52.984422, -6.827805 52.983532, -6.827970 52.982642, -6.828136 52.981753, -6.828301 52.980863, -6.828466 52.979973, -6.828632 52.979083, -6.828797 52.978193, -6.828962 52.977303, -6.829127 52.976413, -6.829293 52.975523, -6.829458 52.974633, -6.829623 52.973743, -6.829789 52.972854, -6.829954 52.971964, -6.830119 52.971074, -6.830284 52.970184, -6.830450 52.969294, -6.830615 52.968404, -6.830780 52.967514, -6.830945 52.966624, -6.831111 52.965734, -6.831276 52.964844, -6.831441 52.963954, -6.831606 52.963065, -6.831771 52.962175, -6.831937 52.961285, -6.832102 52.960395, -6.832267 52.959505, -6.832432 52.958615, -6.832597 52.957725, -6.832762 52.956835, -6.832928 52.955945, -6.833093 52.955055, -6.833258 52.954165, -6.833423 52.953276, -6.833588 52.952386, -6.833753 52.951496, -6.833918 52.950606, -6.834083 52.949716, -6.834248 52.948826, -6.834414 52.947936, -6.834579 52.947046, -6.834744 52.946156, -6.834909 52.945266, -6.835074 52.944376, -6.835239 52.943487, -6.835404 52.942597, -6.835569 52.941707, -6.835734 52.940817, -6.835899 52.939927, -6.836064 52.939037, -6.836229 52.938147, -6.836394 52.937257, -6.836559 52.936367, -6.836724 52.935477, -6.836889 52.934587, -6.837054 52.933698, -6.837219 52.932808, -6.837384 52.931918, -6.837549 52.931028, -6.837714 52.930138, -6.837879 52.929248, -6.838044 52.928358, -6.838209 52.927468, -6.838373 52.926578, -6.838538 52.925688, -6.838703 52.924798, -6.838868 52.923908, -6.839033 52.923019, -6.839198 52.922129, -6.839363 52.921239, -6.839528 52.920349, -6.839693 52.919459, -6.839857 52.918569, -6.840022 52.917679, -6.840187 52.916789, -6.840352 52.915899, -6.840517 52.915009, -6.840682 52.914119, -6.840846 52.913229, -6.841011 52.912340, -6.841176 52.911450, -6.841341 52.910560, -6.841506 52.909670, -6.841670 52.908780, -6.841835 52.907890, -6.842000 52.907000, -6.842931 52.906303, -6.843861 52.905607, -6.844792 52.904910, -6.845723 52.904214, -6.846653 52.903517, -6.847584 52.902820, -6.848515 52.902124, -6.849445 52.901427, -6.850376 52.900730, -6.851306 52.900034, -6.852237 52.899337, -6.853167 52.898640, -6.854098 52.897943, -6.855028 52.897247, -6.855958 52.896550, -6.856889 52.895853, -6.857819 52.895157, -6.858749 52.894460, -6.859679 52.893763, -6.860609 52.893066, -6.861540 52.892370, -6.862470 52.891673, -6.863400 52.890976, -6.864330 52.890279, -6.865260 52.889582, -6.866190 52.888886, -6.867120 52.888189, -6.868050 52.887492, -6.868980 52.886795, -6.869910 52.886098, -6.870840 52.885402, -6.871769 52.884705, -6.872699 52.884008, -6.873629 52.883311, -6.874559 52.882614, -6.875488 52.881917, -6.876418 52.881220, -6.877348 52.880524, -6.878277 52.879827, -6.879207 52.879130, -6.880137 52.878433, -6.881066 52.877736, -6.881996 52.877039, -6.882925 52.876342, -6.883854 52.875645, -6.884784 52.874948, -6.885713 52.874251, -6.886643 52.873554, -6.887572 52.872857, -6.888501 52.872160, -6.889430 52.871463, -6.890360 52.870766, -6.891289 52.870069, -6.892218 52.869372, -6.893147 52.868675, -6.894076 52.867978, -6.895005 52.867281, -6.895934 52.866584, -6.896864 52.865887, -6.897793 52.865190, -6.898721 52.864493, -6.899650 52.863796, -6.900579 52.863099, -6.901508 52.862402, -6.902437 52.861705, -6.903366 52.861008, -6.904295 52.860311, -6.905223 52.859614, -6.906152 52.858917, -6.907081 52.858219, -6.908009 52.857522, -6.908938 52.856825, -6.909867 52.856128, -6.910795 52.855431, -6.911724 52.854734, -6.912652 52.854037, -6.913581 52.853339, -6.914509 52.852642, -6.915438 52.851945, -6.916366 52.851248, -6.917294 52.850551, -6.918223 52.849854, -6.919151 52.849156, -6.920079 52.848459, -6.921008 52.847762, -6.921936 52.847065, -6.922864 52.846367, -6.923792 52.845670, -6.924720 52.844973, -6.925648 52.844276, -6.926577 52.843578, -6.927505 52.842881, -6.928433 52.842184, -6.929361 52.841487, -6.930288 52.840789, -6.931216 52.840092, -6.932144 52.839395, -6.933072 52.838697, -6.934000 52.838000, -6.934263 52.838885, -6.934527 52.839770, -6.934790 52.840655, -6.935054 52.841540, -6.935317 52.842426, -6.935581 52.843311, -6.935844 52.844196, -6.936108 52.845081, -6.936371 52.845966, -6.936635 52.846851, -6.936898 52.847736, -6.937162 52.848621, -6.937425 52.849506, -6.937689 52.850391, -6.937953 52.851277, -6.938216 52.852162, -6.938480 52.853047, -6.938743 52.853932, -6.939007 52.854817, -6.939271 52.855702, -6.939534 52.856587, -6.939798 52.857472, -6.940062 52.858357, -6.940325 52.859242, -6.940589 52.860128, -6.940853 52.861013, -6.941117 52.861898, -6.941380 52.862783, -6.941644 52.863668, -6.941908 52.864553, -6.942171 52.865438, -6.942435 52.866323, -6.942699 52.867208, -6.942963 52.868093, -6.943227 52.868978, -6.943490 52.869864, -6.943754 52.870749, -6.944018 52.871634, -6.944282 52.872519, -6.944546 52.873404, -6.944810 52.874289, -6.945074 52.875174, -6.945337 52.876059, -6.945601 52.876944, -6.945865 52.877829, -6.946129 52.878714, -6.946393 52.879599, -6.946657 52.880485, -6.946921 52.881370, -6.947185 52.882255, -6.947449 52.883140, -6.947713 52.884025, -6.947977 52.884910, -6.948241 52.885795, -6.948505 52.886680, -6.948769 52.887565, -6.949033 52.888450, -6.949297 52.889335, -6.949561 52.890220, -6.949825 52.891105, -6.950089 52.891991, -6.950353 52.892876, -6.950617 52.893761, -6.950882 52.894646, -6.951146 52.895531, -6.951410 52.896416, -6.951674 52.897301, -6.951938 52.898186, -6.952202 52.899071, -6.952466 52.899956, -6.952731 52.900841, -6.952995 52.901726, -6.953259 52.902611, -6.953523 52.903496, -6.953787 52.904381, -6.954052 52.905267, -6.954316 52.906152, -6.954580 52.907037, -6.954845 52.907922, -6.955109 52.908807, -6.955373 52.909692, -6.955637 52.910577, -6.955902 52.911462, -6.956166 52.912347, -6.956430 52.913232, -6.956695 52.914117, -6.956959 52.915002, -6.957223 52.915887, -6.957488 52.916772, -6.957752 52.917657, -6.958017 52.918542, -6.958281 52.919428, -6.958546 52.920313, -6.958810 52.921198, -6.959074 52.922083, -6.959339 52.922968, -6.959603 52.923853, -6.959868 52.924738, -6.960132 52.925623, -6.960397 52.926508, -6.960661 52.927393, -6.960926 52.928278, -6.961190 52.929163, -6.961455 52.930048, -6.961719 52.930933, -6.961984 52.931818, -6.962249 52.932703, -6.962513 52.933588, -6.962778 52.934473, -6.963042 52.935358, -6.963307 52.936243, -6.963572 52.937128, -6.963836 52.938014, -6.964101 52.938899, -6.964366 52.939784, -6.964630 52.940669, -6.964895 52.941554, -6.965160 52.942439, -6.965424 52.943324, -6.965689 52.944209, -6.965954 52.945094, -6.966219 52.945979, -6.966483 52.946864, -6.966748 52.947749, -6.967013 52.948634, -6.967278 52.949519, -6.967542 52.950404, -6.967807 52.951289, -6.968072 52.952174, -6.968337 52.953059, -6.968602 52.953944, -6.968867 52.954829, -6.969131 52.955714, -6.969396 52.956599, -6.969661 52.957484, -6.969926 52.958369, -6.970191 52.959254, -6.970456 52.960139, -6.970721 52.961024, -6.970986 52.961909, -6.971251 52.962794, -6.971516 52.963679, -6.971781 52.964565, -6.972046 52.965450, -6.972311 52.966335, -6.972576 52.967220, -6.972841 52.968105, -6.973106 52.968990, -6.973371 52.969875, -6.973636 52.970760, -6.973901 52.971645, -6.974166 52.972530, -6.974431 52.973415, -6.974696 52.974300, -6.974961 52.975185, -6.975226 52.976070, -6.975491 52.976955, -6.975756 52.977840, -6.976022 52.978725, -6.976287 52.979610, -6.976552 52.980495, -6.976817 52.981380, -6.977082 52.982265, -6.977347 52.983150, -6.977613 52.984035, -6.977878 52.984920, -6.978143 52.985805, -6.978408 52.986690, -6.978674 52.987575, -6.978939 52.988460, -6.979204 52.989345, -6.979469 52.990230, -6.979735 52.991115, -6.980000 52.992000, -6.978936 52.992623, -6.977871 52.993245, -6.976807 52.993868, -6.975742 52.994491, -6.974678 52.995113, -6.973613 52.995736, -6.972549 52.996359, -6.971484 52.996981, -6.970420 52.997604, -6.969355 52.998227, -6.968290 52.998849, -6.967225 52.999472, -6.966161 53.000094, -6.965096 53.000717, -6.964031 53.001340, -6.962966 53.001962, -6.961901 53.002585, -6.960837 53.003207, -6.959772 53.003830, -6.958707 53.004452, -6.957642 53.005075, -6.956577 53.005697, -6.955512 53.006320, -6.954447 53.006942, -6.953381 53.007565, -6.952316 53.008187, -6.951251 53.008810, -6.950186 53.009432, -6.949121 53.010055, -6.948055 53.010677, -6.946990 53.011300, -6.945925 53.011922, -6.944859 53.012544, -6.943794 53.013167, -6.942729 53.013789, -6.941663 53.014412, -6.940598 53.015034, -6.939532 53.015656, -6.938467 53.016279, -6.937401 53.016901, -6.936335 53.017523, -6.935270 53.018146, -6.934204 53.018768, -6.933138 53.019390, -6.932073 53.020013, -6.931007 53.020635, -6.929941 53.021257, -6.928875 53.021879, -6.927809 53.022502, -6.926744 53.023124, -6.925678 53.023746, -6.924612 53.024368, -6.923546 53.024991, -6.922480 53.025613, -6.921414 53.026235, -6.920348 53.026857, -6.919282 53.027479, -6.918215 53.028101, -6.917149 53.028724, -6.916083 53.029346, -6.915017 53.029968, -6.913951 53.030590, -6.912884 53.031212, -6.911818 53.031834, -6.910752 53.032456, -6.909685 53.033078, -6.908619 53.033701, -6.907552 53.034323, -6.906486 53.034945, -6.905420 53.035567, -6.904353 53.036189, -6.903286 53.036811, -6.902220 53.037433, -6.901153 53.038055, -6.900087 53.038677, -6.899020 53.039299, -6.897953 53.039921, -6.896886 53.040543, -6.895820 53.041165, -6.894753 53.041787, -6.893686 53.042409, -6.892619 53.043031, -6.891552 53.043653, -6.890485 53.044274, -6.889418 53.044896, -6.888351 53.045518, -6.887284 53.046140, -6.886217 53.046762, -6.885150 53.047384, -6.884083 53.048006, -6.883016 53.048628, -6.881949 53.049249, -6.880882 53.049871, -6.879814 53.050493, -6.878747 53.051115, -6.877680 53.051737, -6.876612 53.052359, -6.875545 53.052980, -6.874478 53.053602, -6.873410 53.054224, -6.872343 53.054846, -6.871275 53.055467, -6.870208 53.056089, -6.869140 53.056711, -6.868073 53.057333, -6.867005 53.057954, -6.865937 53.058576, -6.864870 53.059198, -6.863802 53.059819, -6.862734 53.060441, -6.861667 53.061063, -6.860599 53.061684, -6.859531 53.062306, -6.858463 53.062928, -6.857395 53.063549, -6.856327 53.064171, -6.855259 53.064792, -6.854191 53.065414, -6.853123 53.066036, -6.852055 53.066657, -6.850987 53.067279, -6.849919 53.067900, -6.848851 53.068522, -6.847783 53.069143, -6.846715 53.069765, -6.845647 53.070386, -6.844578 53.071008, -6.843510 53.071629, -6.842442 53.072251, -6.841373 53.072872, -6.840305 53.073494, -6.839237 53.074115, -6.838168 53.074737, -6.837100 53.075358, -6.836031 53.075980, -6.834963 53.076601, -6.833894 53.077223, -6.832826 53.077844, -6.831757 53.078465, -6.830688 53.079087, -6.829620 53.079708, -6.828551 53.080329, -6.827482 53.080951, -6.826413 53.081572, -6.825344 53.082193, -6.824276 53.082815, -6.823207 53.083436, -6.822138 53.084057, -6.821069 53.084679, -6.820000 53.085300), (-6.820000 53.085300, -6.818959 53.085930, -6.817918 53.086560, -6.816876 53.087190, -6.815835 53.087820, -6.814794 53.088449, -6.813752 53.089079, -6.812711 53.089709, -6.811670 53.090339, -6.810628 53.090969, -6.809587 53.091599, -6.808545 53.092228, -6.807504 53.092858, -6.806462 53.093488, -6.805421 53.094118, -6.804379 53.094747, -6.803337 53.095377, -6.802296 53.096007, -6.801254 53.096637, -6.800212 53.097266, -6.799170 53.097896, -6.798129 53.098526, -6.797087 53.099156, -6.796045 53.099785, -6.795003 53.100415, -6.793961 53.101045, -6.792919 53.101674, -6.791877 53.102304, -6.790835 53.102934, -6.789793 53.103563, -6.788751 53.104193, -6.787709 53.104823, -6.786667 53.105452, -6.785625 53.106082, -6.784583 53.106711, -6.783540 53.107341, -6.782498 53.107971, -6.781456 53.108600, -6.780413 53.109230, -6.779371 53.109859, -6.778329 53.110489, -6.777286 53.111118, -6.776244 53.111748, -6.775201 53.112377, -6.774159 53.113007, -6.773116 53.113636, -6.772074 53.114266, -6.771031 53.114895, -6.769989 53.115525, -6.768946 53.116154, -6.767903 53.116784, -6.766861 53.117413, -6.765818 53.118043, -6.764775 53.118672, -6.763732 53.119301, -6.762689 53.119931, -6.761647 53.120560, -6.760604 53.121190, -6.759561 53.121819, -6.758518 53.122448, -6.757475 53.123078, -6.756432 53.123707, -6.755389 53.124336, -6.754346 53.124966, -6.753303 53.125595, -6.752259 53.126224, -6.751216 53.126854, -6.750173 53.127483, -6.749130 53.128112, -6.748087 53.128741, -6.747043 53.129371, -6.746000 53.130000, -6.747378 53.130349, -6.748756 53.130698, -6.750134 53.131047, -6.751512 53.131396, -6.752891 53.131745, -6.754269 53.132094, -6.755647 53.132443, -6.757025 53.132792, -6.758403 53.133140, -6.759782 53.133489, -6.761160 53.133838, -6.762538 53.134187, -6.763917 53.134536, -6.765295 53.134885, -6.766673 53.135233, -6.768052 53.135582, -6.769430 53.135931, -6.770809 53.136280, -6.772187 53.136628, -6.773565 53.136977, -6.774944 53.137326, -6.776323 53.137674, -6.777701 53.138023, -6.779080 53.138372, -6.780458 53.138720, -6.781837 53.139069, -6.783215 53.139417, -6.784594 53.139766, -6.785973 53.140115, -6.787352 53.140463, -6.788730 53.140812, -6.790109 53.141160, -6.791488 53.141509, -6.792867 53.141857, -6.794245 53.142206, -6.795624 53.142554, -6.797003 53.142902, -6.798382 53.143251, -6.799761 53.143599, -6.801140 53.143948, -6.802519 53.144296, -6.803898 53.144644, -6.805277 53.144993, -6.806656 53.145341, -6.808035 53.145689, -6.809414 53.146038, -6.810793 53.146386, -6.812172 53.146734, -6.813551 53.147082, -6.814930 53.147431, -6.816310 53.147779, -6.817689 53.148127, -6.819068 53.148475, -6.820447 53.148823, -6.821827 53.149171, -6.823206 53.149520, -6.824585 53.149868, -6.825965 53.150216, -6.827344 53.150564, -6.828723 53.150912, -6.830103 53.151260, -6.831482 53.151608, -6.832862 53.151956, -6.834241 53.152304, -6.835620 53.152652, -6.837000 53.153000, -6.838490 53.153062, -6.839979 53.153123, -6.841469 53.153185, -6.842959 53.153247, -6.844449 53.153308, -6.845938 53.153370, -6.847428 53.153431, -6.848918 53.153493, -6.850407 53.153554, -6.851897 53.153616, -6.853387 53.153677, -6.854877 53.153739, -6.856366 53.153800, -6.857856 53.153862, -6.859346 53.153923, -6.860836 53.153984, -6.862325 53.154046, -6.863815 53.154107, -6.865305 53.154169, -6.866795 53.154230, -6.868284 53.154291, -6.869774 53.154352, -6.871264 53.154414, -6.872754 53.154475, -6.874244 53.154536, -6.875733 53.154597, -6.877223 53.154659, -6.878713 53.154720, -6.880203 53.154781, -6.881693 53.154842, -6.883182 53.154903, -6.884672 53.154964, -6.886162 53.155025, -6.887652 53.155086, -6.889142 53.155147, -6.890632 53.155208, -6.892122 53.155269, -6.893611 53.155330, -6.895101 53.155391, -6.896591 53.155452, -6.898081 53.155513, -6.899571 53.155574, -6.901061 53.155635, -6.902551 53.155696, -6.904040 53.155757, -6.905530 53.155818, -6.907020 53.155878, -6.908510 53.155939, -6.910000 53.156000, -6.911472 53.155857, -6.912943 53.155713, -6.914415 53.155570, -6.915887 53.155427, -6.917358 53.155283, -6.918830 53.155140, -6.920301 53.154997, -6.921773 53.154853, -6.923245 53.154710, -6.924716 53.154566, -6.926188 53.154423, -6.927659 53.154279, -6.929131 53.154136, -6.930602 53.153992, -6.932074 53.153849, -6.933545 53.153705, -6.935017 53.153561, -6.936488 53.153418, -6.937960 53.153274, -6.939431 53.153131, -6.940903 53.152987, -6.942374 53.152843, -6.943846 53.152700, -6.945317 53.152556, -6.946789 53.152412, -6.948260 53.152268, -6.949731 53.152125, -6.951203 53.151981, -6.952674 53.151837, -6.954146 53.151693, -6.955617 53.151549, -6.957088 53.151406, -6.958560 53.151262, -6.960031 53.151118, -6.961502 53.150974, -6.962974 53.150830, -6.964445 53.150686, -6.965916 53.150542, -6.967388 53.150398, -6.968859 53.150254, -6.970330 53.150110, -6.971801 53.149966, -6.973273 53.149822, -6.974744 53.149678, -6.976215 53.149534, -6.977686 53.149390, -6.979157 53.149245, -6.980629 53.149101, -6.982100 53.148957, -6.983571 53.148813, -6.985042 53.148669, -6.986513 53.148525, -6.987985 53.148380, -6.989456 53.148236, -6.990927 53.148092, -6.992398 53.147947, -6.993869 53.147803, -6.995340 53.147659, -6.996811 53.147514, -6.998282 53.147370, -6.999753 53.147226, -7.001224 53.147081, -7.002695 53.146937, -7.004167 53.146792, -7.005638 53.146648, -7.007109 53.146504, -7.008580 53.146359, -7.010051 53.146214, -7.011522 53.146070, -7.012993 53.145925, -7.014464 53.145781, -7.015934 53.145636, -7.017405 53.145492, -7.018876 53.145347, -7.020347 53.145202, -7.021818 53.145058, -7.023289 53.144913, -7.024760 53.144768, -7.026231 53.144624, -7.027702 53.144479, -7.029173 53.144334, -7.030644 53.144189, -7.032114 53.144045, -7.033585 53.143900, -7.035056 53.143755, -7.036527 53.143610, -7.037998 53.143465, -7.039469 53.143320, -7.040939 53.143176, -7.042410 53.143031, -7.043881 53.142886, -7.045352 53.142741, -7.046822 53.142596, -7.048293 53.142451, -7.049764 53.142306, -7.051235 53.142161, -7.052705 53.142016, -7.054176 53.141871, -7.055647 53.141726, -7.057117 53.141581, -7.058588 53.141435, -7.060059 53.141290, -7.061529 53.141145, -7.063000 53.141000, -7.064214 53.140476, -7.065428 53.139952, -7.066642 53.139427, -7.067856 53.138903, -7.069070 53.138379, -7.070284 53.137854, -7.071497 53.137330, -7.072711 53.136806, -7.073925 53.136282, -7.075139 53.135757, -7.076352 53.135233, -7.077566 53.134709, -7.078780 53.134184, -7.079993 53.133660, -7.081207 53.133135, -7.082420 53.132611, -7.083634 53.132087, -7.084848 53.131562, -7.086061 53.131038, -7.087274 53.130513, -7.088488 53.129989, -7.089701 53.129464, -7.090915 53.128940, -7.092128 53.128415, -7.093341 53.127891, -7.094554 53.127366, -7.095768 53.126842, -7.096981 53.126317, -7.098194 53.125793, -7.099407 53.125268, -7.100620 53.124743, -7.101833 53.124219, -7.103046 53.123694, -7.104259 53.123170, -7.105472 53.122645, -7.106685 53.122120, -7.107898 53.121596, -7.109111 53.121071, -7.110324 53.120546, -7.111537 53.120022, -7.112750 53.119497, -7.113963 53.118972, -7.115175 53.118447, -7.116388 53.117923, -7.117601 53.117398, -7.118813 53.116873, -7.120026 53.116348, -7.121239 53.115824, -7.122451 53.115299, -7.123664 53.114774, -7.124876 53.114249, -7.126089 53.113724, -7.127301 53.113199, -7.128514 53.112674, -7.129726 53.112150, -7.130939 53.111625, -7.132151 53.111100, -7.133363 53.110575, -7.134576 53.110050, -7.135788 53.109525, -7.137000 53.109000, -7.138272 53.108542, -7.139543 53.108083, -7.140815 53.107625, -7.142087 53.107167, -7.143358 53.106709, -7.144630 53.106250, -7.145902 53.105792, -7.147173 53.105334, -7.148445 53.104875, -7.149716 53.104417, -7.150987 53.103958, -7.152259 53.103500, -7.153530 53.103042, -7.154802 53.102583, -7.156073 53.102125, -7.157344 53.101666, -7.158616 53.101208, -7.159887 53.100749, -7.161158 53.100291, -7.162429 53.099832, -7.163701 53.099374, -7.164972 53.098915, -7.166243 53.098457, -7.167514 53.097998, -7.168785 53.097540, -7.170056 53.097081, -7.171327 53.096622, -7.172598 53.096164, -7.173869 53.095705, -7.175140 53.095246, -7.176411 53.094788, -7.177682 53.094329, -7.178953 53.093870, -7.180223 53.093412, -7.181494 53.092953, -7.182765 53.092494, -7.184036 53.092036, -7.185307 53.091577, -7.186577 53.091118, -7.187848 53.090659, -7.189119 53.090200, -7.190389 53.089742, -7.191660 53.089283, -7.192930 53.088824, -7.194201 53.088365, -7.195471 53.087906, -7.196742 53.087447, -7.198012 53.086988, -7.199283 53.086530, -7.200553 53.086071, -7.201823 53.085612, -7.203094 53.085153, -7.204364 53.084694, -7.205634 53.084235, -7.206905 53.083776, -7.208175 53.083317, -7.209445 53.082858, -7.210715 53.082399, -7.211985 53.081940, -7.213256 53.081481, -7.214526 53.081022, -7.215796 53.080563, -7.217066 53.080103, -7.218336 53.079644, -7.219606 53.079185, -7.220876 53.078726, -7.222146 53.078267, -7.223416 53.077808, -7.224686 53.077349, -7.225955 53.076889, -7.227225 53.076430, -7.228495 53.075971, -7.229765 53.075512, -7.231035 53.075053, -7.232304 53.074593, -7.233574 53.074134, -7.234844 53.073675, -7.236113 53.073215, -7.237383 53.072756, -7.238652 53.072297, -7.239922 53.071837, -7.241192 53.071378, -7.242461 53.070919, -7.243731 53.070459, -7.245000 53.070000, -7.243929 53.069384, -7.242858 53.068768, -7.241787 53.068152, -7.240716 53.067536, -7.239645 53.066921, -7.238574 53.066305, -7.237503 53.065689, -7.236432 53.065073, -7.235361 53.064457, -7.234291 53.063841, -7.233220 53.063225, -7.232149 53.062609, -7.231079 53.061993, -7.230008 53.061377, -7.228937 53.060761, -7.227867 53.060145, -7.226796 53.059529, -7.225725 53.058913, -7.224655 53.058297, -7.223584 53.057681, -7.222514 53.057065, -7.221444 53.056449, -7.220373 53.055833, -7.219303 53.055216, -7.218232 53.054600, -7.217162 53.053984, -7.216092 53.053368, -7.215022 53.052752, -7.213951 53.052136, -7.212881 53.051520, -7.211811 53.050904, -7.210741 53.050287, -7.209671 53.049671, -7.208601 53.049055, -7.207531 53.048439, -7.206461 53.047823, -7.205391 53.047206, -7.204321 53.046590, -7.203251 53.045974, -7.202181 53.045358, -7.201111 53.044741, -7.200042 53.044125, -7.198972 53.043509, -7.197902 53.042893, -7.196832 53.042276, -7.195763 53.041660, -7.194693 53.041044, -7.193623 53.040427, -7.192554 53.039811, -7.191484 53.039195, -7.190415 53.038578, -7.189345 53.037962, -7.188276 53.037346, -7.187206 53.036729, -7.186137 53.036113, -7.185067 53.035496, -7.183998 53.034880, -7.182929 53.034264, -7.181859 53.033647, -7.180790 53.033031, -7.179721 53.032414, -7.178652 53.031798, -7.177582 53.031181, -7.176513 53.030565, -7.175444 53.029948, -7.174375 53.029332, -7.173306 53.028715, -7.172237 53.028099, -7.171168 53.027482, -7.170099 53.026866, -7.169030 53.026249, -7.167961 53.025633, -7.166892 53.025016, -7.165824 53.024400, -7.164755 53.023783, -7.163686 53.023166, -7.162617 53.022550, -7.161549 53.021933, -7.160480 53.021317, -7.159411 53.020700, -7.158343 53.020083, -7.157274 53.019467, -7.156205 53.018850, -7.155137 53.018233, -7.154068 53.017617, -7.153000 53.017000, -7.151998 53.016337, -7.150997 53.015674, -7.149995 53.015010, -7.148993 53.014347, -7.147992 53.013684, -7.146990 53.013021, -7.145989 53.012358, -7.144987 53.011694, -7.143986 53.011031, -7.142985 53.010368, -7.141983 53.009705, -7.140982 53.009041, -7.139981 53.008378, -7.138979 53.007715, -7.137978 53.007051, -7.136977 53.006388, -7.135976 53.005725, -7.134975 53.005061, -7.133973 53.004398, -7.132972 53.003735, -7.131971 53.003071, -7.130970 53.002408, -7.129969 53.001745, -7.128968 53.001081, -7.127967 53.000418, -7.126966 52.999755, -7.125966 52.999091, -7.124965 52.998428, -7.123964 52.997764, -7.122963 52.997101, -7.121962 52.996438, -7.120962 52.995774, -7.119961 52.995111, -7.118960 52.994447, -7.117960 52.993784, -7.116959 52.993120, -7.115959 52.992457, -7.114958 52.991793, -7.113957 52.991130, -7.112957 52.990466, -7.111957 52.989803, -7.110956 52.989139, -7.109956 52.988476, -7.108955 52.987812, -7.107955 52.987149, -7.106955 52.986485, -7.105955 52.985822, -7.104954 52.985158, -7.103954 52.984494, -7.102954 52.983831, -7.101954 52.983167, -7.100954 52.982504, -7.099954 52.981840, -7.098954 52.981176, -7.097954 52.980513, -7.096954 52.979849, -7.095954 52.979185, -7.094954 52.978522, -7.093954 52.977858, -7.092954 52.977194, -7.091954 52.976531, -7.090954 52.975867, -7.089955 52.975203, -7.088955 52.974540, -7.087955 52.973876, -7.086955 52.973212, -7.085956 52.972548, -7.084956 52.971885, -7.083957 52.971221, -7.082957 52.970557, -7.081957 52.969893, -7.080958 52.969230, -7.079959 52.968566, -7.078959 52.967902, -7.077960 52.967238, -7.076960 52.966574, -7.075961 52.965911, -7.074962 52.965247, -7.073962 52.964583, -7.072963 52.963919, -7.071964 52.963255, -7.070965 52.962591, -7.069966 52.961928, -7.068966 52.961264, -7.067967 52.960600, -7.066968 52.959936, -7.065969 52.959272, -7.064970 52.958608, -7.063971 52.957944, -7.062972 52.957280, -7.061973 52.956616, -7.060975 52.955952, -7.059976 52.955288, -7.058977 52.954624, -7.057978 52.953961, -7.056979 52.953297, -7.055981 52.952633, -7.054982 52.951969, -7.053983 52.951305, -7.052985 52.950641, -7.051986 52.949977, -7.050987 52.949313, -7.049989 52.948648, -7.048990 52.947984, -7.047992 52.947320, -7.046993 52.946656, -7.045995 52.945992, -7.044997 52.945328, -7.043998 52.944664, -7.043000 52.944000, -7.042088 52.944696, -7.041176 52.945392, -7.040264 52.946088, -7.039352 52.946784, -7.038439 52.947479, -7.037527 52.948175, -7.036615 52.948871, -7.035703 52.949567, -7.034791 52.950263, -7.033878 52.950959, -7.032966 52.951654, -7.032054 52.952350, -7.031141 52.953046, -7.030229 52.953742, -7.029316 52.954438, -7.028404 52.955133, -7.027491 52.955829, -7.026579 52.956525, -7.025666 52.957221, -7.024754 52.957916, -7.023841 52.958612, -7.022928 52.959308, -7.022016 52.960004, -7.021103 52.960699, -7.020190 52.961395, -7.019277 52.962091, -7.018364 52.962787, -7.017452 52.963482, -7.016539 52.964178, -7.015626 52.964874, -7.014713 52.965569, -7.013800 52.966265, -7.012887 52.966961, -7.011974 52.967656, -7.011061 52.968352, -7.010148 52.969048, -7.009235 52.969743, -7.008322 52.970439, -7.007408 52.971135, -7.006495 52.971830, -7.005582 52.972526, -7.004669 52.973221, -7.003756 52.973917, -7.002842 52.974613, -7.001929 52.975308, -7.001016 52.976004, -7.000102 52.976699, -6.999189 52.977395, -6.998275 52.978090, -6.997362 52.978786, -6.996448 52.979481, -6.995535 52.980177, -6.994621 52.980873, -6.993708 52.981568, -6.992794 52.982264, -6.991880 52.982959, -6.990967 52.983655, -6.990053 52.984350, -6.989139 52.985046, -6.988225 52.985741, -6.987312 52.986436, -6.986398 52.987132, -6.985484 52.987827, -6.984570 52.988523, -6.983656 52.989218, -6.982742 52.989914, -6.981828 52.990609, -6.980914 52.991305, -6.980000 52.992000, -6.978936 52.992623, -6.977871 52.993245, -6.976807 52.993868, -6.975742 52.994491, -6.974678 52.995113, -6.973613 52.995736, -6.972549 52.996359, -6.971484 52.996981, -6.970420 52.997604, -6.969355 52.998227, -6.968290 52.998849, -6.967225 52.999472, -6.966161 53.000094, -6.965096 53.000717, -6.964031 53.001340, -6.962966 53.001962, -6.961901 53.002585, -6.960837 53.003207, -6.959772 53.003830, -6.958707 53.004452, -6.957642 53.005075, -6.956577 53.005697, -6.955512 53.006320, -6.954447 53.006942, -6.953381 53.007565, -6.952316 53.008187, -6.951251 53.008810, -6.950186 53.009432, -6.949121 53.010055, -6.948055 53.010677, -6.946990 53.011300, -6.945925 53.011922, -6.944859 53.012544, -6.943794 53.013167, -6.942729 53.013789, -6.941663 53.014412, -6.940598 53.015034, -6.939532 53.015656, -6.938467 53.016279, -6.937401 53.016901, -6.936335 53.017523, -6.935270 53.018146, -6.934204 53.018768, -6.933138 53.019390, -6.932073 53.020013, -6.931007 53.020635, -6.929941 53.021257, -6.928875 53.021879, -6.927809 53.022502, -6.926744 53.023124, -6.925678 53.023746, -6.924612 53.024368, -6.923546 53.024991, -6.922480 53.025613, -6.921414 53.026235, -6.920348 53.026857, -6.919282 53.027479, -6.918215 53.028101, -6.917149 53.028724, -6.916083 53.029346, -6.915017 53.029968, -6.913951 53.030590, -6.912884 53.031212, -6.911818 53.031834, -6.910752 53.032456, -6.909685 53.033078, -6.908619 53.033701, -6.907552 53.034323, -6.906486 53.034945, -6.905420 53.035567, -6.904353 53.036189, -6.903286 53.036811, -6.902220 53.037433, -6.901153 53.038055, -6.900087 53.038677, -6.899020 53.039299, -6.897953 53.039921, -6.896886 53.040543, -6.895820 53.041165, -6.894753 53.041787, -6.893686 53.042409, -6.892619 53.043031, -6.891552 53.043653, -6.890485 53.044274, -6.889418 53.044896, -6.888351 53.045518, -6.887284 53.046140, -6.886217 53.046762, -6.885150 53.047384, -6.884083 53.048006, -6.883016 53.048628, -6.881949 53.049249, -6.880882 53.049871, -6.879814 53.050493, -6.878747 53.051115, -6.877680 53.051737, -6.876612 53.052359, -6.875545 53.052980, -6.874478 53.053602, -6.873410 53.054224, -6.872343 53.054846, -6.871275 53.055467, -6.870208 53.056089, -6.869140 53.056711, -6.868073 53.057333, -6.867005 53.057954, -6.865937 53.058576, -6.864870 53.059198, -6.863802 53.059819, -6.862734 53.060441, -6.861667 53.061063, -6.860599 53.061684, -6.859531 53.062306, -6.858463 53.062928, -6.857395 53.063549, -6.856327 53.064171, -6.855259 53.064792, -6.854191 53.065414, -6.853123 53.066036, -6.852055 53.066657, -6.850987 53.067279, -6.849919 53.067900, -6.848851 53.068522, -6.847783 53.069143, -6.846715 53.069765, -6.845647 53.070386, -6.844578 53.071008, -6.843510 53.071629, -6.842442 53.072251, -6.841373 53.072872, -6.840305 53.073494, -6.839237 53.074115, -6.838168 53.074737, -6.837100 53.075358, -6.836031 53.075980, -6.834963 53.076601, -6.833894 53.077223, -6.832826 53.077844, -6.831757 53.078465, -6.830688 53.079087, -6.829620 53.079708, -6.828551 53.080329, -6.827482 53.080951, -6.826413 53.081572, -6.825344 53.082193, -6.824276 53.082815, -6.823207 53.083436, -6.822138 53.084057, -6.821069 53.084679, -6.820000 53.085300))
