LINESTRING (-0.127800 51.507400, -0.127681 51.506508, -0.127562 51.505616, -0.127443 51.504724, -0.127324 51.503832, -0.127206 51.502940, -0.127087 51.502048, -0.126968 51.501156, -0.126849 51.500264, -0.126730 51.499372, -0.126611 51.498480, -0.126492 51.497588, -0.126374 51.496695, -0.126255 51.495803, -0.126136 51.494911, -0.126017 51.494019, -0.125898 51.493127, -0.125779 51.492235, -0.125661 51.491343, -0.125542 51.490451, -0.125423 51.489559, -0.125304 51.488667, -0.125185 51.487775, -0.125067 51.486883, -0.124948 51.485991, -0.124829 51.485099, -0.124710 51.484207, -0.124592 51.483315, -0.124473 51.482423, -0.124354 51.481531, -0.124235 51.480639, -0.124117 51.479747, -0.123998 51.478855, -0.123879 51.477962, -0.123760 51.477070, -0.123642 51.476178, -0.123523 51.475286, -0.123404 51.474394, -0.123285 51.473502, -0.123167 51.472610, -0.123048 51.471718, -0.122929 51.470826, -0.122811 51.469934, -0.122692 51.469042, -0.122573 51.468150, -0.122455 51.467258, -0.122336 51.466366, -0.122217 51.465474, -0.122098 51.464582, -0.121980 51.463690, -0.121861 51.462798, -0.121742 51.461906, -0.121624 51.461014, -0.121505 51.460122, -0.121387 51.459229, -0.121268 51.458337, -0.121149 51.457445, -0.121031 51.456553, -0.120912 51.455661, -0.120793 51.454769, -0.120675 51.453877, -0.120556 51.452985, -0.120438 51.452093, -0.120319 51.451201, -0.120200 51.450309, -0.120082 51.449417, -0.119963 51.448525, -0.119845 51.447633, -0.119726 51.446741, -0.119607 51.445849, -0.119489 51.444957, -0.119370 51.444065, -0.119252 51.443173, -0.119133 51.442280, -0.119015 51.441388, -0.118896 51.440496, -0.118778 51.439604, -0.118659 51.438712, -0.118540 51.437820, -0.118422 51.436928, -0.118303 51.436036, -0.118185 51.435144, -0.118066 51.434252, -0.117948 51.433360, -0.117829 51.432468, -0.117711 51.431576, -0.117592 51.430684, -0.117474 51.429792, -0.117355 51.428900, -0.117237 51.428008, -0.117118 51.427116, -0.117000 51.426224, -0.116881 51.425331, -0.116763 51.424439, -0.116645 51.423547, -0.116526 51.422655, -0.116408 51.421763, -0.116289 51.420871, -0.116171 51.419979, -0.116052 51.419087, -0.115934 51.418195, -0.115815 51.417303, -0.115697 51.416411, -0.115579 51.415519, -0.115460 51.414627, -0.115342 51.413735, -0.115223 51.412843, -0.115105 51.411951, -0.114987 51.411059, -0.114868 51.410166, -0.114750 51.409274, -0.114631 51.408382, -0.114513 51.407490, -0.114395 51.406598, -0.114276 51.405706, -0.114158 51.404814, -0.114040 51.403922, -0.113921 51.403030, -0.113803 51.402138, -0.113685 51.401246, -0.113566 51.400354, -0.113448 51.399462, -0.113330 51.398570, -0.113211 51.397678, -0.113093 51.396786, -0.112975 51.395894, -0.112856 51.395002, -0.112738 51.394109, -0.112620 51.393217, -0.112501 51.392325, -0.112383 51.391433, -0.112265 51.390541, -0.112147 51.389649, -0.112028 51.388757, -0.111910 51.387865, -0.111792 51.386973, -0.111673 51.386081, -0.111555 51.385189, -0.111437 51.384297, -0.111319 51.383405, -0.111200 51.382513, -0.111082 51.381621, -0.110964 51.380729, -0.110846 51.379836, -0.110727 51.378944, -0.110609 51.378052, -0.110491 51.377160, -0.110373 51.376268, -0.110255 51.375376, -0.110136 51.374484, -0.110018 51.373592, -0.109900 51.372700, -0.110483 51.371880, -0.111066 51.371059, -0.111649 51.370239, -0.112232 51.369419, -0.112814 51.368598, -0.113397 51.367778, -0.113980 51.366957, -0.114563 51.366137, -0.115146 51.365317, -0.115728 51.364496, -0.116311 51.363676, -0.116894 51.362855, -0.117476 51.362035, -0.118059 51.361215, -0.118642 51.360394, -0.119224 51.359574, -0.119807 51.358753, -0.120389 51.357933, -0.120972 51.357112, -0.121554 51.356292, -0.122137 51.355472, -0.122719 51.354651, -0.123302 51.353831, -0.123884 51.353010, -0.124467 51.352190, -0.125049 51.351369, -0.125631 51.350549, -0.126214 51.349729, -0.126796 51.348908, -0.127378 51.348088, -0.127961 51.347267, -0.128543 51.346447, -0.129125 51.345626, -0.129708 51.344806, -0.130290 51.343985, -0.130872 51.343165, -0.131454 51.342344, -0.132036 51.341524, -0.132618 51.340703, -0.133200 51.339883, -0.133783 51.339062, -0.134365 51.338242, -0.134947 51.337421, -0.135529 51.336601, -0.136111 51.335781, -0.136693 51.334960, -0.137275 51.334139, -0.137857 51.333319, -0.138439 51.332498, -0.139020 51.331678, -0.139602 51.330857, -0.140184 51.330037, -0.140766 51.329216, -0.141348 51.328396, -0.141930 51.327575, -0.142511 51.326755, -0.143093 51.325934, -0.143675 51.325114, -0.144257 51.324293, -0.144838 51.323473, -0.145420 51.322652, -0.146002 51.321832, -0.146583 51.321011, -0.147165 51.320191, -0.147746 51.319370, -0.148328 51.318549, -0.148909 51.317729, -0.149491 51.316908, -0.150072 51.316088, -0.150654 51.315267, -0.151235 51.314447, -0.151817 51.313626, -0.152398 51.312805, -0.152980 51.311985, -0.153561 51.311164, -0.154142 51.310344, -0.154724 51.309523, -0.155305 51.308702, -0.155886 51.307882, -0.156468 51.307061, -0.157049 51.306241, -0.157630 51.305420, -0.158211 51.304599, -0.158793 51.303779, -0.159374 51.302958, -0.159955 51.302138, -0.160536 51.301317, -0.161117 51.300496, -0.161698 51.299676, -0.162279 51.298855, -0.162860 51.298035, -0.163441 51.297214, -0.164022 51.296393, -0.164603 51.295573, -0.165184 51.294752, -0.165765 51.293931, -0.166346 51.293111, -0.166927 51.292290, -0.167508 51.291469, -0.168089 51.290649, -0.168670 51.289828, -0.169250 51.289007, -0.169831 51.288187, -0.170412 51.287366, -0.170993 51.286545, -0.171573 51.285725, -0.172154 51.284904, -0.172735 51.284083, -0.173316 51.283263, -0.173896 51.282442, -0.174477 51.281621, -0.175057 51.280801, -0.175638 51.279980, -0.176219 51.279159, -0.176799 51.278339, -0.177380 51.277518, -0.177960 51.276697, -0.178541 51.275876, -0.179121 51.275056, -0.179702 51.274235, -0.180282 51.273414, -0.180862 51.272594, -0.181443 51.271773, -0.182023 51.270952, -0.182603 51.270131, -0.183184 51.269311, -0.183764 51.268490, -0.184344 51.267669, -0.184925 51.266848, -0.185505 51.266028, -0.186085 51.265207, -0.186665 51.264386, -0.187245 51.263566, -0.187826 51.262745, -0.188406 51.261924, -0.188986 51.261103, -0.189566 51.260282, -0.190146 51.259462, -0.190726 51.258641, -0.191306 51.257820, -0.191886 51.256999, -0.192466 51.256179, -0.193046 51.255358, -0.193626 51.254537, -0.194206 51.253716, -0.194786 51.252895, -0.195366 51.252075, -0.195946 51.251254, -0.196525 51.250433, -0.197105 51.249612, -0.197685 51.248792, -0.198265 51.247971, -0.198845 51.247150, -0.199424 51.246329, -0.200004 51.245508, -0.200584 51.244687, -0.201163 51.243867, -0.201743 51.243046, -0.202323 51.242225, -0.202902 51.241404, -0.203482 51.240583, -0.204061 51.239763, -0.204641 51.238942, -0.205220 51.238121, -0.205800 51.237300, -0.205670 51.236410, -0.205541 51.235519, -0.205411 51.234629, -0.205282 51.233739, -0.205152 51.232849, -0.205023 51.231958, -0.204893 51.231068, -0.204764 51.230178, -0.204634 51.229288, -0.204505 51.228397, -0.204376 51.227507, -0.204246 51.226617, -0.204117 51.225727, -0.203987 51.224836, -0.203858 51.223946, -0.203728 51.223056, -0.203599 51.222165, -0.203469 51.221275, -0.203340 51.220385, -0.203210 51.219495, -0.203081 51.218604, -0.202952 51.217714, -0.202822 51.216824, -0.202693 51.215934, -0.202563 51.215043, -0.202434 51.214153, -0.202305 51.213263, -0.202175 51.212372, -0.202046 51.211482, -0.201916 51.210592, -0.201787 51.209702, -0.201658 51.208811, -0.201528 51.207921, -0.201399 51.207031, -0.201270 51.206141, -0.201140 51.205250, -0.201011 51.204360, -0.200882 51.203470, -0.200752 51.202579, -0.200623 51.201689, -0.200494 51.200799, -0.200364 51.199909, -0.200235 51.199018, -0.200106 51.198128, -0.199976 51.197238, -0.199847 51.196348, -0.199718 51.195457, -0.199589 51.194567, -0.199459 51.193677, -0.199330 51.192786, -0.199201 51.191896, -0.199071 51.191006, -0.198942 51.190116, -0.198813 51.189225, -0.198684 51.188335, -0.198554 51.187445, -0.198425 51.186555, -0.198296 51.185664, -0.198167 51.184774, -0.198037 51.183884, -0.197908 51.182993, -0.197779 51.182103, -0.197650 51.181213, -0.197521 51.180323, -0.197391 51.179432, -0.197262 51.178542, -0.197133 51.177652, -0.197004 51.176761, -0.196875 51.175871, -0.196745 51.174981, -0.196616 51.174091, -0.196487 51.173200, -0.196358 51.172310, -0.196229 51.171420, -0.196100 51.170530, -0.195970 51.169639, -0.195841 51.168749, -0.195712 51.167859, -0.195583 51.166968, -0.195454 51.166078, -0.195325 51.165188, -0.195196 51.164298, -0.195067 51.163407, -0.194937 51.162517, -0.194808 51.161627, -0.194679 51.160736, -0.194550 51.159846, -0.194421 51.158956, -0.194292 51.158066, -0.194163 51.157175, -0.194034 51.156285, -0.193905 51.155395, -0.193776 51.154505, -0.193647 51.153614, -0.193518 51.152724, -0.193389 51.151834, -0.193259 51.150943, -0.193130 51.150053, -0.193001 51.149163, -0.192872 51.148273, -0.192743 51.147382, -0.192614 51.146492, -0.192485 51.145602, -0.192356 51.144711, -0.192227 51.143821, -0.192098 51.142931, -0.191969 51.142041, -0.191840 51.141150, -0.191711 51.140260, -0.191582 51.139370, -0.191453 51.138479, -0.191324 51.137589, -0.191195 51.136699, -0.191066 51.135809, -0.190938 51.134918, -0.190809 51.134028, -0.190680 51.133138, -0.190551 51.132247, -0.190422 51.131357, -0.190293 51.130467, -0.190164 51.129577, -0.190035 51.128686, -0.189906 51.127796, -0.189777 51.126906, -0.189648 51.126015, -0.189519 51.125125, -0.189390 51.124235, -0.189262 51.123345, -0.189133 51.122454, -0.189004 51.121564, -0.188875 51.120674, -0.188746 51.119783, -0.188617 51.118893, -0.188488 51.118003, -0.188359 51.117113, -0.188231 51.116222, -0.188102 51.115332, -0.187973 51.114442, -0.187844 51.113551, -0.187715 51.112661, -0.187586 51.111771, -0.187458 51.110881, -0.187329 51.109990, -0.187200 51.109100, -0.187043 51.108207, -0.186887 51.107314, -0.186730 51.106422, -0.186573 51.105529, -0.186416 51.104636, -0.186260 51.103743, -0.186103 51.102850, -0.185946 51.101958, -0.185790 51.101065, -0.185633 51.100172, -0.185476 51.099279, -0.185320 51.098386, -0.185163 51.097494, -0.185006 51.096601, -0.184850 51.095708, -0.184693 51.094815, -0.184537 51.093922, -0.184380 51.093030, -0.184223 51.092137, -0.184067 51.091244, -0.183910 51.090351, -0.183753 51.089458, -0.183597 51.088566, -0.183440 51.087673, -0.183284 51.086780, -0.183127 51.085887, -0.182971 51.084994, -0.182814 51.084101, -0.182657 51.083209, -0.182501 51.082316, -0.182344 51.081423, -0.182188 51.080530, -0.182031 51.079637, -0.181875 51.078745, -0.181718 51.077852, -0.181562 51.076959, -0.181405 51.076066, -0.181249 51.075173, -0.181092 51.074281, -0.180936 51.073388, -0.180779 51.072495, -0.180623 51.071602, -0.180466 51.070709, -0.180310 51.069817, -0.180153 51.068924, -0.179997 51.068031, -0.179840 51.067138, -0.179684 51.066245, -0.179528 51.065352, -0.179371 51.064460, -0.179215 51.063567, -0.179058 51.062674, -0.178902 51.061781, -0.178746 51.060888, -0.178589 51.059996, -0.178433 51.059103, -0.178276 51.058210, -0.178120 51.057317, -0.177964 51.056424, -0.177807 51.055532, -0.177651 51.054639, -0.177494 51.053746, -0.177338 51.052853, -0.177182 51.051960, -0.177025 51.051067, -0.176869 51.050175, -0.176713 51.049282, -0.176556 51.048389, -0.176400 51.047496, -0.176244 51.046603, -0.176088 51.045711, -0.175931 51.044818, -0.175775 51.043925, -0.175619 51.043032, -0.175462 51.042139, -0.175306 51.041246, -0.175150 51.040354, -0.174994 51.039461, -0.174837 51.038568, -0.174681 51.037675, -0.174525 51.036782, -0.174369 51.035890, -0.174212 51.034997, -0.174056 51.034104, -0.173900 51.033211, -0.173744 51.032318, -0.173588 51.031425, -0.173431 51.030533, -0.173275 51.029640, -0.173119 51.028747, -0.172963 51.027854, -0.172807 51.026961, -0.172650 51.026069, -0.172494 51.025176, -0.172338 51.024283, -0.172182 51.023390, -0.172026 51.022497, -0.171870 51.021604, -0.171714 51.020712, -0.171557 51.019819, -0.171401 51.018926, -0.171245 51.018033, -0.171089 51.017140, -0.170933 51.016248, -0.170777 51.015355, -0.170621 51.014462, -0.170465 51.013569, -0.170309 51.012676, -0.170153 51.011783, -0.169996 51.010891, -0.169840 51.009998, -0.169684 51.009105, -0.169528 51.008212, -0.169372 51.007319, -0.169216 51.006426, -0.169060 51.005534, -0.168904 51.004641, -0.168748 51.003748, -0.168592 51.002855, -0.168436 51.001962, -0.168280 51.001069, -0.168124 51.000177, -0.167968 50.999284, -0.167812 50.998391, -0.167656 50.997498, -0.167500 50.996605, -0.167344 50.995713, -0.167188 50.994820, -0.167032 50.993927, -0.166876 50.993034, -0.166720 50.992141, -0.166565 50.991248, -0.166409 50.990356, -0.166253 50.989463, -0.166097 50.988570, -0.165941 50.987677, -0.165785 50.986784, -0.165629 50.985891, -0.165473 50.984999, -0.165317 50.984106, -0.165161 50.983213, -0.165005 50.982320, -0.164850 50.981427, -0.164694 50.980534, -0.164538 50.979642, -0.164382 50.978749, -0.164226 50.977856, -0.164070 50.976963, -0.163915 50.976070, -0.163759 50.975177, -0.163603 50.974285, -0.163447 50.973392, -0.163291 50.972499, -0.163135 50.971606, -0.162980 50.970713, -0.162824 50.969820, -0.162668 50.968928, -0.162512 50.968035, -0.162357 50.967142, -0.162201 50.966249, -0.162045 50.965356, -0.161889 50.964463, -0.161733 50.963571, -0.161578 50.962678, -0.161422 50.961785, -0.161266 50.960892, -0.161111 50.959999, -0.160955 50.959106, -0.160799 50.958214, -0.160643 50.957321, -0.160488 50.956428, -0.160332 50.955535, -0.160176 50.954642, -0.160021 50.953749, -0.159865 50.952857, -0.159709 50.951964, -0.159554 50.951071, -0.159398 50.950178, -0.159242 50.949285, -0.159087 50.948392, -0.158931 50.947500, -0.158775 50.946607, -0.158620 50.945714, -0.158464 50.944821, -0.158309 50.943928, -0.158153 50.943035, -0.157997 50.942142, -0.157842 50.941250, -0.157686 50.940357, -0.157531 50.939464, -0.157375 50.938571, -0.157219 50.937678, -0.157064 50.936785, -0.156908 50.935893, -0.156753 50.935000, -0.156597 50.934107, -0.156442 50.933214, -0.156286 50.932321, -0.156130 50.931428, -0.155975 50.930536, -0.155819 50.929643, -0.155664 50.928750, -0.155508 50.927857, -0.155353 50.926964, -0.155197 50.926071, -0.155042 50.925178, -0.154886 50.924286, -0.154731 50.923393, -0.154575 50.922500, -0.154420 50.921607, -0.154265 50.920714, -0.154109 50.919821, -0.153954 50.918929, -0.153798 50.918036, -0.153643 50.917143, -0.153487 50.916250, -0.153332 50.915357, -0.153176 50.914464, -0.153021 50.913571, -0.152866 50.912679, -0.152710 50.911786, -0.152555 50.910893, -0.152399 50.910000, -0.152244 50.909107, -0.152089 50.908214, -0.151933 50.907322, -0.151778 50.906429, -0.151623 50.905536, -0.151467 50.904643, -0.151312 50.903750, -0.151157 50.902857, -0.151001 50.901964, -0.150846 50.901072, -0.150691 50.900179, -0.150535 50.899286, -0.150380 50.898393, -0.150225 50.897500, -0.150069 50.896607, -0.149914 50.895714, -0.149759 50.894822, -0.149603 50.893929, -0.149448 50.893036, -0.149293 50.892143, -0.149138 50.891250, -0.148982 50.890357, -0.148827 50.889465, -0.148672 50.888572, -0.148517 50.887679, -0.148361 50.886786, -0.148206 50.885893, -0.148051 50.885000, -0.147896 50.884107, -0.147741 50.883215, -0.147585 50.882322, -0.147430 50.881429, -0.147275 50.880536, -0.147120 50.879643, -0.146965 50.878750, -0.146809 50.877857, -0.146654 50.876965, -0.146499 50.876072, -0.146344 50.875179, -0.146189 50.874286, -0.146034 50.873393, -0.145878 50.872500, -0.145723 50.871607, -0.145568 50.870715, -0.145413 50.869822, -0.145258 50.868929, -0.145103 50.868036, -0.144948 50.867143, -0.144793 50.866250, -0.144638 50.865357, -0.144482 50.864465, -0.144327 50.863572, -0.144172 50.862679, -0.144017 50.861786, -0.143862 50.860893, -0.143707 50.860000, -0.143552 50.859107, -0.143397 50.858215, -0.143242 50.857322, -0.143087 50.856429, -0.142932 50.855536, -0.142777 50.854643, -0.142622 50.853750, -0.142467 50.852857, -0.142312 50.851965, -0.142157 50.851072, -0.142002 50.850179, -0.141847 50.849286, -0.141692 50.848393, -0.141537 50.847500, -0.141382 50.846607, -0.141227 50.845714, -0.141072 50.844822, -0.140917 50.843929, -0.140762 50.843036, -0.140607 50.842143, -0.140452 50.841250, -0.140297 50.840357, -0.140142 50.839464, -0.139987 50.838572, -0.139833 50.837679, -0.139678 50.836786, -0.139523 50.835893, -0.139368 50.835000, -0.139213 50.834107, -0.139058 50.833214, -0.138903 50.832322, -0.138748 50.831429, -0.138593 50.830536, -0.138439 50.829643, -0.138284 50.828750, -0.138129 50.827857, -0.137974 50.826964, -0.137819 50.826071, -0.137664 50.825179, -0.137510 50.824286, -0.137355 50.823393, -0.137200 50.822500)
