LINESTRING (10.211800 45.541600, 10.215273 45.539180, 10.218746 45.536759, 10.222218 45.534338, 10.225690 45.531918, 10.229162 45.529497, 10.232633 45.527076, 10.236105 45.524655, 10.239576 45.522234, 10.243046 45.519813, 10.246516 45.517391, 10.249986 45.514970, 10.253456 45.512548, 10.256926 45.510127, 10.260395 45.507705, 10.263864 45.505283, 10.267332 45.502861, 10.270800 45.500439, 10.274268 45.498017, 10.277736 45.495594, 10.281203 45.493172, 10.284670 45.490750, 10.288137 45.488327, 10.291603 45.485904, 10.295069 45.483481, 10.298535 45.481058, 10.302001 45.478635, 10.305466 45.476212, 10.308931 45.473789, 10.312396 45.471366, 10.315860 45.468942, 10.319324 45.466519, 10.322788 45.464095, 10.326251 45.461671, 10.329714 45.459247, 10.333177 45.456823, 10.336640 45.454399, 10.340102 45.451975, 10.343564 45.449551, 10.347026 45.447127, 10.350487 45.444702, 10.353948 45.442277, 10.357409 45.439853, 10.360869 45.437428, 10.364329 45.435003, 10.367789 45.432578, 10.371249 45.430153, 10.374708 45.427728, 10.378167 45.425302, 10.381626 45.422877, 10.385084 45.420451, 10.388542 45.418026, 10.392000 45.415600, 10.391713 45.412188, 10.391426 45.408776, 10.391139 45.405364, 10.390852 45.401952, 10.390565 45.398541, 10.390278 45.395129, 10.389991 45.391717, 10.389704 45.388305, 10.389417 45.384893, 10.389130 45.381481, 10.388843 45.378069, 10.388557 45.374657, 10.388270 45.371246, 10.387983 45.367834, 10.387696 45.364422, 10.387410 45.361010, 10.387123 45.357598, 10.386837 45.354186, 10.386550 45.350774, 10.386264 45.347362, 10.385977 45.343950, 10.385691 45.340539, 10.385404 45.337127, 10.385118 45.333715, 10.384832 45.330303, 10.384545 45.326891, 10.384259 45.323479, 10.383973 45.320067, 10.383687 45.316655, 10.383401 45.313243, 10.383115 45.309832, 10.382829 45.306420, 10.382542 45.303008, 10.382256 45.299596, 10.381971 45.296184, 10.381685 45.292772, 10.381399 45.289360, 10.381113 45.285948, 10.380827 45.282536, 10.380541 45.279124, 10.380255 45.275713, 10.379970 45.272301, 10.379684 45.268889, 10.379398 45.265477, 10.379113 45.262065, 10.378827 45.258653, 10.378542 45.255241, 10.378256 45.251829, 10.377971 45.248417, 10.377685 45.245005, 10.377400 45.241593, 10.377114 45.238182, 10.376829 45.234770, 10.376544 45.231358, 10.376258 45.227946, 10.375973 45.224534, 10.375688 45.221122, 10.375403 45.217710, 10.375118 45.214298, 10.374832 45.210886, 10.374547 45.207474, 10.374262 45.204062, 10.373977 45.200650, 10.373692 45.197239, 10.373407 45.193827, 10.373122 45.190415, 10.372838 45.187003, 10.372553 45.183591, 10.372268 45.180179, 10.371983 45.176767, 10.371698 45.173355, 10.371414 45.169943, 10.371129 45.166531, 10.370844 45.163119, 10.370560 45.159707, 10.370275 45.156295, 10.369991 45.152884, 10.369706 45.149472, 10.369422 45.146060, 10.369137 45.142648, 10.368853 45.139236, 10.368569 45.135824, 10.368284 45.132412, 10.368000 45.129000, 10.367580 45.125589, 10.367160 45.122177, 10.366740 45.118766, 10.366320 45.115354, 10.365900 45.111943, 10.365480 45.108532, 10.365061 45.105120, 10.364641 45.101709, 10.364221 45.098297, 10.363801 45.094886, 10.363382 45.091475, 10.362962 45.088063, 10.362543 45.084652, 10.362123 45.081240, 10.361704 45.077829, 10.361285 45.074418, 10.360866 45.071006, 10.360446 45.067595, 10.360027 45.064183, 10.359608 45.060772, 10.359189 45.057361, 10.358770 45.053949, 10.358351 45.050538, 10.357932 45.047126, 10.357513 45.043715, 10.357094 45.040303, 10.356676 45.036892, 10.356257 45.033481, 10.355838 45.030069, 10.355419 45.026658, 10.355001 45.023246, 10.354582 45.019835, 10.354164 45.016423, 10.353745 45.013012, 10.353327 45.009601, 10.352909 45.006189, 10.352491 45.002778, 10.352072 44.999366, 10.351654 44.995955, 10.351236 44.992543, 10.350818 44.989132, 10.350400 44.985720, 10.349982 44.982309, 10.349564 44.978898, 10.349146 44.975486, 10.348728 44.972075, 10.348310 44.968663, 10.347893 44.965252, 10.347475 44.961840, 10.347057 44.958429, 10.346640 44.955017, 10.346222 44.951606, 10.345805 44.948194, 10.345387 44.944783, 10.344970 44.941372, 10.344553 44.937960, 10.344135 44.934549, 10.343718 44.931137, 10.343301 44.927726, 10.342884 44.924314, 10.342467 44.920903, 10.342050 44.917491, 10.341633 44.914080, 10.341216 44.910668, 10.340799 44.907257, 10.340382 44.903845, 10.339965 44.900434, 10.339549 44.897022, 10.339132 44.893611, 10.338715 44.890199, 10.338299 44.886788, 10.337882 44.883376, 10.337466 44.879965, 10.337049 44.876553, 10.336633 44.873142, 10.336216 44.869730, 10.335800 44.866319, 10.335384 44.862907, 10.334968 44.859496, 10.334552 44.856084, 10.334136 44.852673, 10.333719 44.849261, 10.333303 44.845850, 10.332888 44.842438, 10.332472 44.839027, 10.332056 44.835615, 10.331640 44.832204, 10.331224 44.828792, 10.330809 44.825381, 10.330393 44.821969, 10.329977 44.818558, 10.329562 44.815146, 10.329146 44.811735, 10.328731 44.808323, 10.328315 44.804912, 10.327900 44.801500, 10.332437 44.800342, 10.336974 44.799184, 10.341510 44.798026, 10.346047 44.796867, 10.350583 44.795708, 10.355119 44.794549, 10.359655 44.793390, 10.364191 44.792231, 10.368726 44.791072, 10.373261 44.789912, 10.377797 44.788752, 10.382332 44.787592, 10.386866 44.786432, 10.391401 44.785272, 10.395935 44.784112, 10.400470 44.782951, 10.405004 44.781790, 10.409538 44.780629, 10.414071 44.779468, 10.418605 44.778306, 10.423138 44.777145, 10.427671 44.775983, 10.432204 44.774821, 10.436737 44.773659, 10.441270 44.772497, 10.445802 44.771334, 10.450334 44.770172, 10.454866 44.769009, 10.459398 44.767846, 10.463930 44.766683, 10.468461 44.765519, 10.472993 44.764356, 10.477524 44.763192, 10.482055 44.762028, 10.486585 44.760864, 10.491116 44.759700, 10.495646 44.758535, 10.500177 44.757371, 10.504707 44.756206, 10.509236 44.755041, 10.513766 44.753876, 10.518296 44.752711, 10.522825 44.751545, 10.527354 44.750379, 10.531883 44.749214, 10.536412 44.748048, 10.540940 44.746881, 10.545469 44.745715, 10.549997 44.744548, 10.554525 44.743382, 10.559053 44.742215, 10.563580 44.741048, 10.568108 44.739880, 10.572635 44.738713, 10.577162 44.737545, 10.581689 44.736377, 10.586216 44.735209, 10.590743 44.734041, 10.595269 44.732873, 10.599795 44.731704, 10.604321 44.730535, 10.608847 44.729367, 10.613373 44.728197, 10.617898 44.727028, 10.622423 44.725859, 10.626949 44.724689, 10.631473 44.723519, 10.635998 44.722349, 10.640523 44.721179, 10.645047 44.720009, 10.649571 44.718838, 10.654095 44.717668, 10.658619 44.716497, 10.663143 44.715326, 10.667666 44.714155, 10.672189 44.712983, 10.676713 44.711812, 10.681235 44.710640, 10.685758 44.709468, 10.690281 44.708296, 10.694803 44.707123, 10.699325 44.705951, 10.703847 44.704778, 10.708369 44.703605, 10.712891 44.702432, 10.717412 44.701259, 10.721933 44.700086, 10.726454 44.698912, 10.730975 44.697739, 10.735496 44.696565, 10.740017 44.695391, 10.744537 44.694216, 10.749057 44.693042, 10.753577 44.691867, 10.758097 44.690693, 10.762616 44.689518, 10.767136 44.688342, 10.771655 44.687167, 10.776174 44.685992, 10.780693 44.684816, 10.785212 44.683640, 10.789730 44.682464, 10.794249 44.681288, 10.798767 44.680111, 10.803285 44.678935, 10.807802 44.677758, 10.812320 44.676581, 10.816837 44.675404, 10.821355 44.674227, 10.825872 44.673049, 10.830389 44.671872, 10.834905 44.670694, 10.839422 44.669516, 10.843938 44.668338, 10.848454 44.667159, 10.852970 44.665981, 10.857486 44.664802, 10.862001 44.663623, 10.866517 44.662444, 10.871032 44.661265, 10.875547 44.660085, 10.880062 44.658906, 10.884576 44.657726, 10.889091 44.656546, 10.893605 44.655366, 10.898119 44.654186, 10.902633 44.653005, 10.907147 44.651824, 10.911660 44.650644, 10.916174 44.649463, 10.920687 44.648281, 10.925200 44.647100, 10.929470 44.645555, 10.933740 44.644009, 10.938010 44.642463, 10.942280 44.640918, 10.946549 44.639372, 10.950818 44.637825, 10.955087 44.636279, 10.959355 44.634733, 10.963624 44.633186, 10.967892 44.631639, 10.972160 44.630092, 10.976428 44.628545, 10.980695 44.626998, 10.984962 44.625450, 10.989229 44.623903, 10.993496 44.622355, 10.997763 44.620807, 11.002029 44.619259, 11.006295 44.617711, 11.010561 44.616162, 11.014827 44.614614, 11.019092 44.613065, 11.023357 44.611516, 11.027622 44.609967, 11.031887 44.608418, 11.036152 44.606869, 11.040416 44.605319, 11.044680 44.603770, 11.048944 44.602220, 11.053208 44.600670, 11.057471 44.599120, 11.061734 44.597569, 11.065997 44.596019, 11.070260 44.594468, 11.074522 44.592917, 11.078784 44.591367, 11.083046 44.589815, 11.087308 44.588264, 11.091570 44.586713, 11.095831 44.585161, 11.100092 44.583610, 11.104353 44.582058, 11.108614 44.580506, 11.112874 44.578953, 11.117135 44.577401, 11.121395 44.575849, 11.125654 44.574296, 11.129914 44.572743, 11.134173 44.571190, 11.138432 44.569637, 11.142691 44.568084, 11.146950 44.566530, 11.151208 44.564976, 11.155466 44.563423, 11.159724 44.561869, 11.163982 44.560315, 11.168239 44.558760, 11.172497 44.557206, 11.176754 44.555651, 11.181010 44.554097, 11.185267 44.552542, 11.189523 44.550987, 11.193779 44.549432, 11.198035 44.547876, 11.202291 44.546321, 11.206546 44.544765, 11.210802 44.543209, 11.215056 44.541653, 11.219311 44.540097, 11.223566 44.538541, 11.227820 44.536984, 11.232074 44.535428, 11.236328 44.533871, 11.240582 44.532314, 11.244835 44.530757, 11.249088 44.529200, 11.253341 44.527642, 11.257594 44.526085, 11.261846 44.524527, 11.266098 44.522969, 11.270350 44.521411, 11.274602 44.519853, 11.278854 44.518294, 11.283105 44.516736, 11.287356 44.515177, 11.291607 44.513618, 11.295858 44.512059, 11.300108 44.510500, 11.304358 44.508941, 11.308608 44.507381, 11.312858 44.505822, 11.317108 44.504262, 11.321357 44.502702, 11.325606 44.501142, 11.329855 44.499582, 11.334103 44.498021, 11.338352 44.496461, 11.342600 44.494900, 11.342552 44.491477, 11.342504 44.488053, 11.342456 44.484630, 11.342408 44.481207, 11.342360 44.477784, 11.342313 44.474360, 11.342265 44.470937, 11.342217 44.467514, 11.342169 44.464091, 11.342121 44.460667, 11.342073 44.457244, 11.342025 44.453821, 11.341978 44.450398, 11.341930 44.446974, 11.341882 44.443551, 11.341834 44.440128, 11.341786 44.436705, 11.341738 44.433281, 11.341691 44.429858, 11.341643 44.426435, 11.341595 44.423012, 11.341547 44.419588, 11.341499 44.416165, 11.341452 44.412742, 11.341404 44.409319, 11.341356 44.405895, 11.341308 44.402472, 11.341261 44.399049, 11.341213 44.395626, 11.341165 44.392202, 11.341117 44.388779, 11.341070 44.385356, 11.341022 44.381933, 11.340974 44.378509, 11.340926 44.375086, 11.340879 44.371663, 11.340831 44.368240, 11.340783 44.364816, 11.340736 44.361393, 11.340688 44.357970, 11.340640 44.354547, 11.340593 44.351123, 11.340545 44.347700, 11.340497 44.344277, 11.340450 44.340854, 11.340402 44.337430, 11.340354 44.334007, 11.340307 44.330584, 11.340259 44.327160, 11.340211 44.323737, 11.340164 44.320314, 11.340116 44.316891, 11.340068 44.313467, 11.340021 44.310044, 11.339973 44.306621, 11.339926 44.303198, 11.339878 44.299774, 11.339830 44.296351, 11.339783 44.292928, 11.339735 44.289505, 11.339688 44.286081, 11.339640 44.282658, 11.339592 44.279235, 11.339545 44.275812, 11.339497 44.272388, 11.339450 44.268965, 11.339402 44.265542, 11.339355 44.262119, 11.339307 44.258695, 11.339260 44.255272, 11.339212 44.251849, 11.339165 44.248426, 11.339117 44.245002, 11.339070 44.241579, 11.339022 44.238156, 11.338975 44.234733, 11.338927 44.231309, 11.338880 44.227886, 11.338832 44.224463, 11.338785 44.221040, 11.338737 44.217616, 11.338690 44.214193, 11.338642 44.210770, 11.338595 44.207347, 11.338547 44.203923, 11.338500 44.200500, 11.336654 44.197401, 11.334808 44.194301, 11.332962 44.191201, 11.331117 44.188102, 11.329271 44.185002, 11.327426 44.181903, 11.325581 44.178803, 11.323736 44.175703, 11.321892 44.172603, 11.320047 44.169504, 11.318203 44.166404, 11.316359 44.163304, 11.314515 44.160204, 11.312672 44.157104, 11.310828 44.154004, 11.308985 44.150905, 11.307142 44.147805, 11.305299 44.144705, 11.303456 44.141605, 11.301614 44.138504, 11.299772 44.135404, 11.297929 44.132304, 11.296088 44.129204, 11.294246 44.126104, 11.292404 44.123004, 11.290563 44.119903, 11.288722 44.116803, 11.286881 44.113703, 11.285040 44.110603, 11.283200 44.107502, 11.281359 44.104402, 11.279519 44.101301, 11.277679 44.098201, 11.275840 44.095101, 11.274000 44.092000, 11.273805 44.088570, 11.273611 44.085140, 11.273416 44.081711, 11.273221 44.078281, 11.273027 44.074851, 11.272832 44.071421, 11.272638 44.067992, 11.272443 44.064562, 11.272249 44.061132, 11.272054 44.057702, 11.271860 44.054272, 11.271666 44.050843, 11.271471 44.047413, 11.271277 44.043983, 11.271082 44.040553, 11.270888 44.037124, 11.270694 44.033694, 11.270500 44.030264, 11.270305 44.026834, 11.270111 44.023404, 11.269917 44.019975, 11.269723 44.016545, 11.269529 44.013115, 11.269334 44.009685, 11.269140 44.006256, 11.268946 44.002826, 11.268752 43.999396, 11.268558 43.995966, 11.268364 43.992536, 11.268170 43.989107, 11.267976 43.985677, 11.267782 43.982247, 11.267588 43.978817, 11.267394 43.975388, 11.267200 43.971958, 11.267006 43.968528, 11.266813 43.965098, 11.266619 43.961668, 11.266425 43.958239, 11.266231 43.954809, 11.266037 43.951379, 11.265844 43.947949, 11.265650 43.944520, 11.265456 43.941090, 11.265263 43.937660, 11.265069 43.934230, 11.264875 43.930800, 11.264682 43.927371, 11.264488 43.923941, 11.264295 43.920511, 11.264101 43.917081, 11.263908 43.913651, 11.263714 43.910222, 11.263521 43.906792, 11.263327 43.903362, 11.263134 43.899932, 11.262940 43.896502, 11.262747 43.893073, 11.262554 43.889643, 11.262360 43.886213, 11.262167 43.882783, 11.261974 43.879354, 11.261780 43.875924, 11.261587 43.872494, 11.261394 43.869064, 11.261201 43.865634, 11.261007 43.862205, 11.260814 43.858775, 11.260621 43.855345, 11.260428 43.851915, 11.260235 43.848485, 11.260042 43.845056, 11.259849 43.841626, 11.259656 43.838196, 11.259463 43.834766, 11.259270 43.831336, 11.259077 43.827907, 11.258884 43.824477, 11.258691 43.821047, 11.258498 43.817617, 11.258305 43.814187, 11.258112 43.810758, 11.257920 43.807328, 11.257727 43.803898, 11.257534 43.800468, 11.257341 43.797038, 11.257149 43.793609, 11.256956 43.790179, 11.256763 43.786749, 11.256570 43.783319, 11.256378 43.779889, 11.256185 43.776460, 11.255993 43.773030, 11.255800 43.769600, 11.256372 43.766185, 11.256945 43.762770, 11.257517 43.759355, 11.258089 43.755940, 11.258661 43.752525, 11.259234 43.749110, 11.259806 43.745695, 11.260378 43.742280, 11.260949 43.738865, 11.261521 43.735450, 11.262093 43.732035, 11.262665 43.728620, 11.263236 43.725205, 11.263808 43.721790, 11.264379 43.718375, 11.264951 43.714960, 11.265522 43.711545, 11.266094 43.708130, 11.266665 43.704715, 11.267236 43.701300, 11.267807 43.697885, 11.268378 43.694470, 11.268949 43.691055, 11.269520 43.687640, 11.270091 43.684225, 11.270662 43.680810, 11.271232 43.677395, 11.271803 43.673980, 11.272374 43.670565, 11.272944 43.667150, 11.273515 43.663735, 11.274085 43.660320, 11.274655 43.656905, 11.275226 43.653490, 11.275796 43.650074, 11.276366 43.646659, 11.276936 43.643244, 11.277506 43.639829, 11.278076 43.636414, 11.278646 43.632999, 11.279216 43.629584, 11.279786 43.626169, 11.280355 43.622754, 11.280925 43.619339, 11.281494 43.615924, 11.282064 43.612509, 11.282633 43.609094, 11.283203 43.605678, 11.283772 43.602263, 11.284341 43.598848, 11.284910 43.595433, 11.285480 43.592018, 11.286049 43.588603, 11.286618 43.585188, 11.287186 43.581773, 11.287755 43.578358, 11.288324 43.574942, 11.288893 43.571527, 11.289461 43.568112, 11.290030 43.564697, 11.290599 43.561282, 11.291167 43.557867, 11.291735 43.554452, 11.292304 43.551036, 11.292872 43.547621, 11.293440 43.544206, 11.294008 43.540791, 11.294576 43.537376, 11.295144 43.533961, 11.295712 43.530545, 11.296280 43.527130, 11.296848 43.523715, 11.297416 43.520300, 11.297984 43.516885, 11.298551 43.513470, 11.299119 43.510054, 11.299686 43.506639, 11.300254 43.503224, 11.300821 43.499809, 11.301388 43.496394, 11.301956 43.492979, 11.302523 43.489563, 11.303090 43.486148, 11.303657 43.482733, 11.304224 43.479318, 11.304791 43.475903, 11.305358 43.472487, 11.305924 43.469072, 11.306491 43.465657, 11.307058 43.462242, 11.307624 43.458826, 11.308191 43.455411, 11.308757 43.451996, 11.309324 43.448581, 11.309890 43.445166, 11.310456 43.441750, 11.311023 43.438335, 11.311589 43.434920, 11.312155 43.431505, 11.312721 43.428089, 11.313287 43.424674, 11.313853 43.421259, 11.314419 43.417844, 11.314984 43.414428, 11.315550 43.411013, 11.316116 43.407598, 11.316681 43.404183, 11.317247 43.400767, 11.317812 43.397352, 11.318378 43.393937, 11.318943 43.390521, 11.319508 43.387106, 11.320073 43.383691, 11.320639 43.380276, 11.321204 43.376860, 11.321769 43.373445, 11.322334 43.370030, 11.322898 43.366614, 11.323463 43.363199, 11.324028 43.359784, 11.324593 43.356369, 11.325157 43.352953, 11.325722 43.349538, 11.326286 43.346123, 11.326851 43.342707, 11.327415 43.339292, 11.327979 43.335877, 11.328544 43.332461, 11.329108 43.329046, 11.329672 43.325631, 11.330236 43.322215, 11.330800 43.318800, 11.333645 43.316077, 11.336489 43.313354, 11.339333 43.310631, 11.342177 43.307908, 11.345021 43.305184, 11.347864 43.302461, 11.350707 43.299737, 11.353550 43.297014, 11.356393 43.294290, 11.359235 43.291567, 11.362077 43.288843, 11.364919 43.286119, 11.367760 43.283395, 11.370602 43.280671, 11.373443 43.277947, 11.376284 43.275223, 11.379124 43.272499, 11.381964 43.269775, 11.384804 43.267051, 11.387644 43.264326, 11.390484 43.261602, 11.393323 43.258878, 11.396162 43.256153, 11.399001 43.253428, 11.401839 43.250704, 11.404678 43.247979, 11.407516 43.245254, 11.410353 43.242529, 11.413191 43.239804, 11.416028 43.237079, 11.418865 43.234354, 11.421702 43.231629, 11.424539 43.228904, 11.427375 43.226178, 11.430211 43.223453, 11.433046 43.220727, 11.435882 43.218002, 11.438717 43.215276, 11.441552 43.212550, 11.444387 43.209825, 11.447221 43.207099, 11.450056 43.204373, 11.452890 43.201647, 11.455723 43.198921, 11.458557 43.196195, 11.461390 43.193469, 11.464223 43.190743, 11.467056 43.188016, 11.469888 43.185290, 11.472720 43.182563, 11.475552 43.179837, 11.478384 43.177110, 11.481215 43.174384, 11.484046 43.171657, 11.486877 43.168930, 11.489708 43.166203, 11.492538 43.163476, 11.495369 43.160749, 11.498198 43.158022, 11.501028 43.155295, 11.503858 43.152568, 11.506687 43.149841, 11.509516 43.147113, 11.512344 43.144386, 11.515173 43.141658, 11.518001 43.138931, 11.520829 43.136203, 11.523656 43.133475, 11.526484 43.130748, 11.529311 43.128020, 11.532138 43.125292, 11.534964 43.122564, 11.537791 43.119836, 11.540617 43.117108, 11.543443 43.114379, 11.546268 43.111651, 11.549094 43.108923, 11.551919 43.106195, 11.554744 43.103466, 11.557568 43.100737, 11.560393 43.098009, 11.563217 43.095280, 11.566041 43.092551, 11.568864 43.089823, 11.571688 43.087094, 11.574511 43.084365, 11.577334 43.081636, 11.580156 43.078907, 11.582979 43.076178, 11.585801 43.073448, 11.588623 43.070719, 11.591444 43.067990, 11.594265 43.065260, 11.597087 43.062531, 11.599907 43.059801, 11.602728 43.057071, 11.605548 43.054342, 11.608368 43.051612, 11.611188 43.048882, 11.614008 43.046152, 11.616827 43.043422, 11.619646 43.040692, 11.622465 43.037962, 11.625284 43.035232, 11.628102 43.032501, 11.630920 43.029771, 11.633738 43.027041, 11.636556 43.024310, 11.639373 43.021580, 11.642190 43.018849, 11.645007 43.016118, 11.647823 43.013388, 11.650640 43.010657, 11.653456 43.007926, 11.656272 43.005195, 11.659087 43.002464, 11.661903 42.999733, 11.664718 42.997002, 11.667532 42.994270, 11.670347 42.991539, 11.673161 42.988808, 11.675975 42.986076, 11.678789 42.983345, 11.681603 42.980613, 11.684416 42.977882, 11.687229 42.975150, 11.690042 42.972418, 11.692855 42.969686, 11.695667 42.966954, 11.698479 42.964222, 11.701291 42.961490, 11.704103 42.958758, 11.706914 42.956026, 11.709725 42.953294, 11.712536 42.950561, 11.715346 42.947829, 11.718157 42.945096, 11.720967 42.942364, 11.723777 42.939631, 11.726586 42.936899, 11.729395 42.934166, 11.732205 42.931433, 11.735013 42.928700, 11.737822 42.925967, 11.740630 42.923234, 11.743438 42.920501, 11.746246 42.917768, 11.749054 42.915035, 11.751861 42.912301, 11.754668 42.909568, 11.757475 42.906834, 11.760282 42.904101, 11.763088 42.901367, 11.765894 42.898634, 11.768700 42.895900, 11.770858 42.892852, 11.773016 42.889804, 11.775173 42.886756, 11.777330 42.883708, 11.779487 42.880660, 11.781644 42.877612, 11.783801 42.874564, 11.785957 42.871516, 11.788113 42.868468, 11.790269 42.865420, 11.792425 42.862372, 11.794580 42.859323, 11.796736 42.856275, 11.798891 42.853227, 11.801046 42.850178, 11.803200 42.847130, 11.805355 42.844081, 11.807509 42.841033, 11.809663 42.837984, 11.811817 42.834936, 11.813971 42.831887, 11.816124 42.828838, 11.818277 42.825790, 11.820430 42.822741, 11.822583 42.819692, 11.824735 42.816643, 11.826888 42.813594, 11.829040 42.810546, 11.831192 42.807497, 11.833344 42.804448, 11.835495 42.801399, 11.837646 42.798349, 11.839797 42.795300, 11.841948 42.792251, 11.844099 42.789202, 11.846249 42.786153, 11.848400 42.783103, 11.850550 42.780054, 11.852699 42.777005, 11.854849 42.773955, 11.856998 42.770906, 11.859147 42.767856, 11.861296 42.764807, 11.863445 42.761757, 11.865594 42.758708, 11.867742 42.755658, 11.869890 42.752608, 11.872038 42.749559, 11.874186 42.746509, 11.876333 42.743459, 11.878480 42.740409, 11.880627 42.737359, 11.882774 42.734309, 11.884921 42.731260, 11.887067 42.728210, 11.889214 42.725159, 11.891360 42.722109, 11.893505 42.719059, 11.895651 42.716009, 11.897796 42.712959, 11.899941 42.709909, 11.902086 42.706858, 11.904231 42.703808, 11.906376 42.700758, 11.908520 42.697707, 11.910664 42.694657, 11.912808 42.691606, 11.914952 42.688556, 11.917095 42.685505, 11.919238 42.682455, 11.921381 42.679404, 11.923524 42.676353, 11.925667 42.673303, 11.927809 42.670252, 11.929951 42.667201, 11.932093 42.664150, 11.934235 42.661099, 11.936377 42.658048, 11.938518 42.654997, 11.940659 42.651946, 11.942800 42.648895, 11.944941 42.645844, 11.947081 42.642793, 11.949222 42.639742, 11.951362 42.636691, 11.953502 42.633640, 11.955641 42.630588, 11.957781 42.627537, 11.959920 42.624486, 11.962059 42.621434, 11.964198 42.618383, 11.966337 42.615331, 11.968475 42.612280, 11.970613 42.609228, 11.972751 42.606177, 11.974889 42.603125, 11.977027 42.600073, 11.979164 42.597022, 11.981301 42.593970, 11.983438 42.590918, 11.985575 42.587866, 11.987711 42.584814, 11.989848 42.581762, 11.991984 42.578710, 11.994120 42.575658, 11.996256 42.572606, 11.998391 42.569554, 12.000526 42.566502, 12.002661 42.563450, 12.004796 42.560398, 12.006931 42.557346, 12.009065 42.554293, 12.011200 42.551241, 12.013334 42.548189, 12.015467 42.545136, 12.017601 42.542084, 12.019734 42.539031, 12.021868 42.535979, 12.024001 42.532926, 12.026133 42.529874, 12.028266 42.526821, 12.030398 42.523768, 12.032530 42.520716, 12.034662 42.517663, 12.036794 42.514610, 12.038926 42.511557, 12.041057 42.508504, 12.043188 42.505451, 12.045319 42.502399, 12.047450 42.499346, 12.049580 42.496293, 12.051710 42.493239, 12.053841 42.490186, 12.055970 42.487133, 12.058100 42.484080, 12.060230 42.481027, 12.062359 42.477974, 12.064488 42.474920, 12.066617 42.471867, 12.068745 42.468814, 12.070874 42.465760, 12.073002 42.462707, 12.075130 42.459653, 12.077258 42.456600, 12.079385 42.453546, 12.081513 42.450492, 12.083640 42.447439, 12.085767 42.444385, 12.087893 42.441331, 12.090020 42.438278, 12.092146 42.435224, 12.094272 42.432170, 12.096398 42.429116, 12.098524 42.426062, 12.100650 42.423008, 12.102775 42.419954, 12.104900 42.416900, 12.107195 42.413915, 12.109489 42.410930, 12.111783 42.407945, 12.114077 42.404959, 12.116371 42.401974, 12.118665 42.398989, 12.120958 42.396003, 12.123251 42.393018, 12.125544 42.390033, 12.127837 42.387047, 12.130129 42.384062, 12.132421 42.381076, 12.134713 42.378090, 12.137005 42.375105, 12.139297 42.372119, 12.141588 42.369133, 12.143879 42.366147, 12.146170 42.363161, 12.148461 42.360176, 12.150751 42.357190, 12.153042 42.354204, 12.155332 42.351218, 12.157622 42.348231, 12.159911 42.345245, 12.162201 42.342259, 12.164490 42.339273, 12.166779 42.336287, 12.169068 42.333300, 12.171356 42.330314, 12.173644 42.327328, 12.175933 42.324341, 12.178220 42.321355, 12.180508 42.318368, 12.182796 42.315381, 12.185083 42.312395, 12.187370 42.309408, 12.189657 42.306421, 12.191943 42.303435, 12.194230 42.300448, 12.196516 42.297461, 12.198802 42.294474, 12.201087 42.291487, 12.203373 42.288500, 12.205658 42.285513, 12.207943 42.282526, 12.210228 42.279539, 12.212513 42.276552, 12.214797 42.273564, 12.217081 42.270577, 12.219365 42.267590, 12.221649 42.264603, 12.223933 42.261615, 12.226216 42.258628, 12.228499 42.255640, 12.230782 42.252653, 12.233065 42.249665, 12.235347 42.246677, 12.237630 42.243690, 12.239912 42.240702, 12.242193 42.237714, 12.244475 42.234726, 12.246756 42.231739, 12.249038 42.228751, 12.251319 42.225763, 12.253599 42.222775, 12.255880 42.219787, 12.258160 42.216799, 12.260440 42.213810, 12.262720 42.210822, 12.265000 42.207834, 12.267279 42.204846, 12.269559 42.201857, 12.271838 42.198869, 12.274116 42.195881, 12.276395 42.192892, 12.278673 42.189904, 12.280951 42.186915, 12.283229 42.183927, 12.285507 42.180938, 12.287785 42.177949, 12.290062 42.174961, 12.292339 42.171972, 12.294616 42.168983, 12.296893 42.165994, 12.299169 42.163005, 12.301445 42.160016, 12.303721 42.157027, 12.305997 42.154038, 12.308273 42.151049, 12.310548 42.148060, 12.312823 42.145071, 12.315098 42.142082, 12.317373 42.139093, 12.319647 42.136103, 12.321922 42.133114, 12.324196 42.130124, 12.326469 42.127135, 12.328743 42.124146, 12.331017 42.121156, 12.333290 42.118166, 12.335563 42.115177, 12.337836 42.112187, 12.340108 42.109197, 12.342380 42.106208, 12.344653 42.103218, 12.346925 42.100228, 12.349196 42.097238, 12.351468 42.094248, 12.353739 42.091258, 12.356010 42.088268, 12.358281 42.085278, 12.360552 42.082288, 12.362822 42.079298, 12.365092 42.076308, 12.367362 42.073318, 12.369632 42.070327, 12.371902 42.067337, 12.374171 42.064347, 12.376440 42.061356, 12.378709 42.058366, 12.380978 42.055375, 12.383246 42.052385, 12.385515 42.049394, 12.387783 42.046403, 12.390051 42.043413, 12.392318 42.040422, 12.394586 42.037431, 12.396853 42.034440, 12.399120 42.031449, 12.401387 42.028459, 12.403653 42.025468, 12.405920 42.022477, 12.408186 42.019486, 12.410452 42.016494, 12.412717 42.013503, 12.414983 42.010512, 12.417248 42.007521, 12.419513 42.004530, 12.421778 42.001538, 12.424043 41.998547, 12.426307 41.995556, 12.428572 41.992564, 12.430836 41.989573, 12.433099 41.986581, 12.435363 41.983589, 12.437626 41.980598, 12.439890 41.977606, 12.442153 41.974614, 12.444415 41.971623, 12.446678 41.968631, 12.448940 41.965639, 12.451202 41.962647, 12.453464 41.959655, 12.455726 41.956663, 12.457987 41.953671, 12.460249 41.950679, 12.462510 41.947687, 12.464771 41.944695, 12.467031 41.941703, 12.469292 41.938710, 12.471552 41.935718, 12.473812 41.932726, 12.476072 41.929733, 12.478331 41.926741, 12.480590 41.923749, 12.482850 41.920756, 12.485109 41.917763, 12.487367 41.914771, 12.489626 41.911778, 12.491884 41.908786, 12.494142 41.905793, 12.496400 41.902800, 12.497134 41.906192, 12.497868 41.909583, 12.498602 41.912975, 12.499336 41.916367, 12.500070 41.919759, 12.500804 41.923150, 12.501539 41.926542, 12.502273 41.929934, 12.503008 41.933326, 12.503742 41.936717, 12.504477 41.940109, 12.505212 41.943501, 12.505946 41.946892, 12.506681 41.950284, 12.507416 41.953676, 12.508151 41.957067, 12.508886 41.960459, 12.509621 41.963851, 12.510357 41.967242, 12.511092 41.970634, 12.511828 41.974026, 12.512563 41.977417, 12.513299 41.980809, 12.514034 41.984201, 12.514770 41.987592, 12.515506 41.990984, 12.516242 41.994375, 12.516978 41.997767, 12.517714 42.001159, 12.518450 42.004550, 12.519186 42.007942, 12.519922 42.011333, 12.520659 42.014725, 12.521395 42.018117, 12.522132 42.021508, 12.522868 42.024900, 12.523605 42.028291, 12.524342 42.031683, 12.525079 42.035074, 12.525816 42.038466, 12.526553 42.041858, 12.527290 42.045249, 12.528027 42.048641, 12.528764 42.052032, 12.529501 42.055424, 12.530239 42.058815, 12.530976 42.062207, 12.531714 42.065598, 12.532451 42.068990, 12.533189 42.072381, 12.533927 42.075773, 12.534665 42.079164, 12.535403 42.082556, 12.536141 42.085947, 12.536879 42.089339, 12.537617 42.092730, 12.538355 42.096122, 12.539094 42.099513, 12.539832 42.102905, 12.540570 42.106296, 12.541309 42.109688, 12.542048 42.113079, 12.542786 42.116471, 12.543525 42.119862, 12.544264 42.123253, 12.545003 42.126645, 12.545742 42.130036, 12.546481 42.133428, 12.547220 42.136819, 12.547960 42.140211, 12.548699 42.143602, 12.549439 42.146993, 12.550178 42.150385, 12.550918 42.153776, 12.551657 42.157168, 12.552397 42.160559, 12.553137 42.163950, 12.553877 42.167342, 12.554617 42.170733, 12.555357 42.174125, 12.556097 42.177516, 12.556837 42.180907, 12.557578 42.184299, 12.558318 42.187690, 12.559059 42.191081, 12.559799 42.194473, 12.560540 42.197864, 12.561280 42.201255, 12.562021 42.204647, 12.562762 42.208038, 12.563503 42.211429, 12.564244 42.214821, 12.564985 42.218212, 12.565726 42.221603, 12.566468 42.224994, 12.567209 42.228386, 12.567950 42.231777, 12.568692 42.235168, 12.569434 42.238560, 12.570175 42.241951, 12.570917 42.245342, 12.571659 42.248733, 12.572401 42.252125, 12.573143 42.255516, 12.573885 42.258907, 12.574627 42.262298, 12.575369 42.265690, 12.576111 42.269081, 12.576854 42.272472, 12.577596 42.275863, 12.578339 42.279255, 12.579082 42.282646, 12.579824 42.286037, 12.580567 42.289428, 12.581310 42.292819, 12.582053 42.296211, 12.582796 42.299602, 12.583539 42.302993, 12.584282 42.306384, 12.585025 42.309775, 12.585769 42.313167, 12.586512 42.316558, 12.587256 42.319949, 12.587999 42.323340, 12.588743 42.326731, 12.589487 42.330122, 12.590231 42.333513, 12.590974 42.336905, 12.591718 42.340296, 12.592462 42.343687, 12.593207 42.347078, 12.593951 42.350469, 12.594695 42.353860, 12.595440 42.357251, 12.596184 42.360642, 12.596929 42.364034, 12.597673 42.367425, 12.598418 42.370816, 12.599163 42.374207, 12.599908 42.377598, 12.600653 42.380989, 12.601398 42.384380, 12.602143 42.387771, 12.602888 42.391162, 12.603633 42.394553, 12.604379 42.397944, 12.605124 42.401335, 12.605869 42.404726, 12.606615 42.408117, 12.607361 42.411508, 12.608107 42.414900, 12.608852 42.418291, 12.609598 42.421682, 12.610344 42.425073, 12.611090 42.428464, 12.611837 42.431855, 12.612583 42.435246, 12.613329 42.438637, 12.614075 42.442028, 12.614822 42.445419, 12.615569 42.448810, 12.616315 42.452201, 12.617062 42.455591, 12.617809 42.458982, 12.618556 42.462373, 12.619303 42.465764, 12.620050 42.469155, 12.620797 42.472546, 12.621544 42.475937, 12.622291 42.479328, 12.623039 42.482719, 12.623786 42.486110, 12.624534 42.489501, 12.625281 42.492892, 12.626029 42.496283, 12.626777 42.499674, 12.627525 42.503065, 12.628273 42.506455, 12.629021 42.509846, 12.629769 42.513237, 12.630517 42.516628, 12.631265 42.520019, 12.632013 42.523410, 12.632762 42.526801, 12.633510 42.530192, 12.634259 42.533582, 12.635008 42.536973, 12.635756 42.540364, 12.636505 42.543755, 12.637254 42.547146, 12.638003 42.550537, 12.638752 42.553928, 12.639501 42.557318, 12.640251 42.560709, 12.641000 42.564100, 12.642791 42.567266, 12.644583 42.570431, 12.646375 42.573597, 12.648167 42.576762, 12.649959 42.579928, 12.651751 42.583093, 12.653544 42.586258, 12.655337 42.589424, 12.657130 42.592589, 12.658923 42.595754, 12.660716 42.598920, 12.662510 42.602085, 12.664303 42.605250, 12.666097 42.608415, 12.667891 42.611580, 12.669685 42.614746, 12.671480 42.617911, 12.673274 42.621076, 12.675069 42.624241, 12.676864 42.627406, 12.678659 42.630571, 12.680454 42.633736, 12.682250 42.636901, 12.684045 42.640066, 12.685841 42.643231, 12.687637 42.646395, 12.689433 42.649560, 12.691230 42.652725, 12.693026 42.655890, 12.694823 42.659055, 12.696620 42.662219, 12.698417 42.665384, 12.700214 42.668549, 12.702012 42.671713, 12.703810 42.674878, 12.705607 42.678042, 12.707405 42.681207, 12.709204 42.684372, 12.711002 42.687536, 12.712801 42.690700, 12.714599 42.693865, 12.716398 42.697029, 12.718197 42.700194, 12.719997 42.703358, 12.721796 42.706522, 12.723596 42.709687, 12.725396 42.712851, 12.727196 42.716015, 12.728996 42.719179, 12.730797 42.722344, 12.732597 42.725508, 12.734398 42.728672, 12.736199 42.731836, 12.738000 42.735000, 12.735386 42.737850, 12.732771 42.740700, 12.730156 42.743550, 12.727541 42.746400, 12.724925 42.749250, 12.722310 42.752100, 12.719694 42.754950, 12.717078 42.757799, 12.714461 42.760649, 12.711845 42.763499, 12.709228 42.766348, 12.706611 42.769198, 12.703993 42.772047, 12.701376 42.774897, 12.698758 42.777746, 12.696140 42.780595, 12.693522 42.783444, 12.690903 42.786293, 12.688284 42.789142, 12.685665 42.791991, 12.683046 42.794840, 12.680427 42.797689, 12.677807 42.800538, 12.675187 42.803387, 12.672567 42.806236, 12.669946 42.809084, 12.667326 42.811933, 12.664705 42.814781, 12.662083 42.817630, 12.659462 42.820478, 12.656840 42.823327, 12.654218 42.826175, 12.651596 42.829023, 12.648974 42.831871, 12.646351 42.834719, 12.643728 42.837567, 12.641105 42.840415, 12.638482 42.843263, 12.635858 42.846111, 12.633234 42.848959, 12.630610 42.851807, 12.627986 42.854655, 12.625361 42.857502, 12.622737 42.860350, 12.620112 42.863197, 12.617486 42.866045, 12.614861 42.868892, 12.612235 42.871739, 12.609609 42.874587, 12.606983 42.877434, 12.604356 42.880281, 12.601729 42.883128, 12.599102 42.885975, 12.596475 42.888822, 12.593848 42.891669, 12.591220 42.894516, 12.588592 42.897363, 12.585964 42.900209, 12.583335 42.903056, 12.580707 42.905903, 12.578078 42.908749, 12.575448 42.911596, 12.572819 42.914442, 12.570189 42.917289, 12.567559 42.920135, 12.564929 42.922981, 12.562299 42.925827, 12.559668 42.928673, 12.557037 42.931520, 12.554406 42.934366, 12.551775 42.937212, 12.549143 42.940057, 12.546511 42.942903, 12.543879 42.945749, 12.541247 42.948595, 12.538614 42.951440, 12.535982 42.954286, 12.533349 42.957131, 12.530715 42.959977, 12.528082 42.962822, 12.525448 42.965668, 12.522814 42.968513, 12.520180 42.971358, 12.517545 42.974203, 12.514910 42.977048, 12.512275 42.979894, 12.509640 42.982738, 12.507004 42.985583, 12.504369 42.988428, 12.501733 42.991273, 12.499096 42.994118, 12.496460 42.996962, 12.493823 42.999807, 12.491186 43.002652, 12.488549 43.005496, 12.485912 43.008341, 12.483274 43.011185, 12.480636 43.014029, 12.477998 43.016874, 12.475359 43.019718, 12.472721 43.022562, 12.470082 43.025406, 12.467443 43.028250, 12.464803 43.031094, 12.462163 43.033938, 12.459524 43.036782, 12.456883 43.039625, 12.454243 43.042469, 12.451602 43.045313, 12.448961 43.048156, 12.446320 43.051000, 12.443679 43.053843, 12.441037 43.056687, 12.438395 43.059530, 12.435753 43.062373, 12.433111 43.065217, 12.430468 43.068060, 12.427826 43.070903, 12.425182 43.073746, 12.422539 43.076589, 12.419896 43.079432, 12.417252 43.082275, 12.414608 43.085118, 12.411963 43.087960, 12.409319 43.090803, 12.406674 43.093646, 12.404029 43.096488, 12.401384 43.099331, 12.398738 43.102173, 12.396092 43.105015, 12.393446 43.107858, 12.390800 43.110700, 12.393094 43.113706, 12.395387 43.116711, 12.397681 43.119717, 12.399976 43.122722, 12.402270 43.125727, 12.404565 43.128733, 12.406860 43.131738, 12.409155 43.134743, 12.411450 43.137748, 12.413746 43.140754, 12.416042 43.143759, 12.418338 43.146764, 12.420634 43.149769, 12.422930 43.152774, 12.425227 43.155779, 12.427524 43.158784, 12.429821 43.161788, 12.432119 43.164793, 12.434416 43.167798, 12.436714 43.170803, 12.439012 43.173807, 12.441310 43.176812, 12.443609 43.179816, 12.445908 43.182821, 12.448207 43.185825, 12.450506 43.188830, 12.452805 43.191834, 12.455105 43.194839, 12.457405 43.197843, 12.459705 43.200847, 12.462005 43.203851, 12.464306 43.206855, 12.466607 43.209860, 12.468908 43.212864, 12.471209 43.215868, 12.473510 43.218872, 12.475812 43.221875, 12.478114 43.224879, 12.480416 43.227883, 12.482718 43.230887, 12.485021 43.233891, 12.487324 43.236894, 12.489627 43.239898, 12.491930 43.242902, 12.494234 43.245905, 12.496537 43.248909, 12.498841 43.251912, 12.501146 43.254915, 12.503450 43.257919, 12.505755 43.260922, 12.508060 43.263925, 12.510365 43.266929, 12.512670 43.269932, 12.514976 43.272935, 12.517281 43.275938, 12.519587 43.278941, 12.521894 43.281944, 12.524200 43.284947, 12.526507 43.287950, 12.528814 43.290953, 12.531121 43.293956, 12.533428 43.296958, 12.535736 43.299961, 12.538044 43.302964, 12.540352 43.305966, 12.542660 43.308969, 12.544968 43.311971, 12.547277 43.314974, 12.549586 43.317976, 12.551895 43.320979, 12.554205 43.323981, 12.556515 43.326983, 12.558824 43.329986, 12.561135 43.332988, 12.563445 43.335990, 12.565755 43.338992, 12.568066 43.341994, 12.570377 43.344996, 12.572689 43.347998, 12.575000 43.351000, 12.579715 43.350807, 12.584431 43.350613, 12.589146 43.350419, 12.593861 43.350226, 12.598576 43.350031, 12.603292 43.349837, 12.608007 43.349643, 12.612722 43.349448, 12.617437 43.349253, 12.622152 43.349058, 12.626867 43.348863, 12.631582 43.348667, 12.636297 43.348472, 12.641012 43.348276, 12.645727 43.348080, 12.650442 43.347884, 12.655157 43.347687, 12.659872 43.347491, 12.664586 43.347294, 12.669301 43.347097, 12.674016 43.346900, 12.678731 43.346702, 12.683445 43.346505, 12.688160 43.346307, 12.692875 43.346109, 12.697589 43.345911, 12.702304 43.345712, 12.707018 43.345514, 12.711733 43.345315, 12.716447 43.345116, 12.721162 43.344917, 12.725876 43.344718, 12.730590 43.344518, 12.735305 43.344318, 12.740019 43.344119, 12.744733 43.343918, 12.749448 43.343718, 12.754162 43.343518, 12.758876 43.343317, 12.763590 43.343116, 12.768304 43.342915, 12.773018 43.342714, 12.777732 43.342512, 12.782446 43.342311, 12.787160 43.342109, 12.791874 43.341907, 12.796588 43.341705, 12.801302 43.341502, 12.806016 43.341300, 12.810730 43.341097, 12.815444 43.340894, 12.820157 43.340691, 12.824871 43.340487, 12.829585 43.340284, 12.834299 43.340080, 12.839012 43.339876, 12.843726 43.339672, 12.848439 43.339467, 12.853153 43.339263, 12.857867 43.339058, 12.862580 43.338853, 12.867293 43.338648, 12.872007 43.338443, 12.876720 43.338237, 12.881434 43.338031, 12.886147 43.337826, 12.890860 43.337619, 12.895574 43.337413, 12.900287 43.337207, 12.905000 43.337000, 12.909687 43.336695, 12.914373 43.336390, 12.919060 43.336084, 12.923746 43.335778, 12.928432 43.335472, 12.933119 43.335166, 12.937805 43.334860, 12.942491 43.334553, 12.947177 43.334247, 12.951863 43.333940, 12.956550 43.333633, 12.961236 43.333326, 12.965922 43.333018, 12.970607 43.332710, 12.975293 43.332403, 12.979979 43.332095, 12.984665 43.331786, 12.989351 43.331478, 12.994036 43.331169, 12.998722 43.330861, 13.003408 43.330552, 13.008093 43.330242, 13.012779 43.329933, 13.017464 43.329624, 13.022150 43.329314, 13.026835 43.329004, 13.031520 43.328694, 13.036206 43.328383, 13.040891 43.328073, 13.045576 43.327762, 13.050261 43.327451, 13.054946 43.327140, 13.059631 43.326829, 13.064316 43.326518, 13.069001 43.326206, 13.073686 43.325894, 13.078371 43.325582, 13.083056 43.325270, 13.087741 43.324957, 13.092425 43.324645, 13.097110 43.324332, 13.101794 43.324019, 13.106479 43.323706, 13.111164 43.323392, 13.115848 43.323079, 13.120532 43.322765, 13.125217 43.322451, 13.129901 43.322137, 13.134585 43.321823, 13.139270 43.321508, 13.143954 43.321193, 13.148638 43.320879, 13.153322 43.320563, 13.158006 43.320248, 13.162690 43.319933, 13.167374 43.319617, 13.172058 43.319301, 13.176742 43.318985, 13.181425 43.318669, 13.186109 43.318352, 13.190793 43.318036, 13.195476 43.317719, 13.200160 43.317402, 13.204843 43.317085, 13.209527 43.316767, 13.214210 43.316450, 13.218894 43.316132, 13.223577 43.315814, 13.228260 43.315496, 13.232944 43.315178, 13.237627 43.314859, 13.242310 43.314540, 13.246993 43.314221, 13.251676 43.313902, 13.256359 43.313583, 13.261042 43.313264, 13.265725 43.312944, 13.270408 43.312624, 13.275091 43.312304, 13.279773 43.311984, 13.284456 43.311663, 13.289139 43.311343, 13.293821 43.311022, 13.298504 43.310701, 13.303186 43.310380, 13.307869 43.310058, 13.312551 43.309737, 13.317234 43.309415, 13.321916 43.309093, 13.326598 43.308771, 13.331280 43.308448, 13.335962 43.308126, 13.340645 43.307803, 13.345327 43.307480, 13.350009 43.307157, 13.354691 43.306834, 13.359372 43.306510, 13.364054 43.306186, 13.368736 43.305863, 13.373418 43.305538, 13.378100 43.305214, 13.382781 43.304890, 13.387463 43.304565, 13.392144 43.304240, 13.396826 43.303915, 13.401507 43.303590, 13.406189 43.303265, 13.410870 43.302939, 13.415551 43.302613, 13.420233 43.302287, 13.424914 43.301961, 13.429595 43.301635, 13.434276 43.301308, 13.438957 43.300981, 13.443638 43.300654, 13.448319 43.300327, 13.453000 43.300000, 13.453705 43.303396, 13.454410 43.306792, 13.455115 43.310188, 13.455820 43.313584, 13.456526 43.316979, 13.457231 43.320375, 13.457936 43.323771, 13.458642 43.327167, 13.459347 43.330563, 13.460053 43.333959, 13.460759 43.337355, 13.461465 43.340751, 13.462171 43.344146, 13.462877 43.347542, 13.463583 43.350938, 13.464289 43.354334, 13.464995 43.357730, 13.465701 43.361126, 13.466408 43.364521, 13.467114 43.367917, 13.467821 43.371313, 13.468527 43.374709, 13.469234 43.378105, 13.469941 43.381500, 13.470648 43.384896, 13.471354 43.388292, 13.472061 43.391688, 13.472769 43.395084, 13.473476 43.398479, 13.474183 43.401875, 13.474890 43.405271, 13.475598 43.408667, 13.476305 43.412062, 13.477013 43.415458, 13.477720 43.418854, 13.478428 43.422250, 13.479136 43.425645, 13.479844 43.429041, 13.480552 43.432437, 13.481260 43.435833, 13.481968 43.439228, 13.482676 43.442624, 13.483384 43.446020, 13.484093 43.449415, 13.484801 43.452811, 13.485510 43.456207, 13.486218 43.459603, 13.486927 43.462998, 13.487636 43.466394, 13.488345 43.469790, 13.489053 43.473185, 13.489762 43.476581, 13.490472 43.479977, 13.491181 43.483372, 13.491890 43.486768, 13.492599 43.490164, 13.493309 43.493559, 13.494018 43.496955, 13.494728 43.500351, 13.495437 43.503746, 13.496147 43.507142, 13.496857 43.510538, 13.497567 43.513933, 13.498277 43.517329, 13.498987 43.520724, 13.499697 43.524120, 13.500407 43.527516, 13.501117 43.530911, 13.501828 43.534307, 13.502538 43.537702, 13.503248 43.541098, 13.503959 43.544494, 13.504670 43.547889, 13.505380 43.551285, 13.506091 43.554680, 13.506802 43.558076, 13.507513 43.561472, 13.508224 43.564867, 13.508935 43.568263, 13.509647 43.571658, 13.510358 43.575054, 13.511069 43.578449, 13.511781 43.581845, 13.512492 43.585240, 13.513204 43.588636, 13.513916 43.592031, 13.514628 43.595427, 13.515339 43.598822, 13.516051 43.602218, 13.516763 43.605613, 13.517476 43.609009, 13.518188 43.612405, 13.518900 43.615800, 13.515001 43.617737, 13.511102 43.619674, 13.507203 43.621610, 13.503303 43.623547, 13.499403 43.625483, 13.495503 43.627419, 13.491602 43.629355, 13.487702 43.631291, 13.483801 43.633227, 13.479900 43.635162, 13.475998 43.637098, 13.472097 43.639033, 13.468195 43.640968, 13.464292 43.642904, 13.460390 43.644839, 13.456487 43.646773, 13.452584 43.648708, 13.448681 43.650643, 13.444778 43.652577, 13.440874 43.654511, 13.436970 43.656446, 13.433066 43.658380, 13.429162 43.660314, 13.425257 43.662247, 13.421352 43.664181, 13.417447 43.666114, 13.413541 43.668048, 13.409636 43.669981, 13.405730 43.671914, 13.401824 43.673847, 13.397917 43.675780, 13.394010 43.677713, 13.390103 43.679645, 13.386196 43.681578, 13.382289 43.683510, 13.378381 43.685442, 13.374473 43.687374, 13.370565 43.689306, 13.366656 43.691238, 13.362748 43.693170, 13.358839 43.695101, 13.354930 43.697033, 13.351020 43.698964, 13.347110 43.700895, 13.343200 43.702826, 13.339290 43.704757, 13.335380 43.706687, 13.331469 43.708618, 13.327558 43.710548, 13.323647 43.712479, 13.319735 43.714409, 13.315824 43.716339, 13.311912 43.718269, 13.307999 43.720199, 13.304087 43.722128, 13.300174 43.724058, 13.296261 43.725987, 13.292348 43.727916, 13.288434 43.729846, 13.284521 43.731775, 13.280607 43.733703, 13.276692 43.735632, 13.272778 43.737561, 13.268863 43.739489, 13.264948 43.741417, 13.261033 43.743346, 13.257117 43.745274, 13.253201 43.747202, 13.249285 43.749129, 13.245369 43.751057, 13.241453 43.752985, 13.237536 43.754912, 13.233619 43.756839, 13.229702 43.758766, 13.225784 43.760693, 13.221866 43.762620, 13.217948 43.764547, 13.214030 43.766473, 13.210111 43.768400, 13.206193 43.770326, 13.202273 43.772252, 13.198354 43.774178, 13.194435 43.776104, 13.190515 43.778030, 13.186595 43.779956, 13.182674 43.781881, 13.178754 43.783807, 13.174833 43.785732, 13.170912 43.787657, 13.166991 43.789582, 13.163069 43.791507, 13.159147 43.793431, 13.155225 43.795356, 13.151303 43.797280, 13.147380 43.799205, 13.143457 43.801129, 13.139534 43.803053, 13.135611 43.804977, 13.131687 43.806900, 13.127764 43.808824, 13.123839 43.810748, 13.119915 43.812671, 13.115991 43.814594, 13.112066 43.816517, 13.108141 43.818440, 13.104215 43.820363, 13.100290 43.822286, 13.096364 43.824208, 13.092438 43.826131, 13.088511 43.828053, 13.084585 43.829975, 13.080658 43.831897, 13.076731 43.833819, 13.072803 43.835741, 13.068875 43.837662, 13.064948 43.839584, 13.061019 43.841505, 13.057091 43.843426, 13.053162 43.845347, 13.049233 43.847268, 13.045304 43.849189, 13.041375 43.851110, 13.037445 43.853030, 13.033515 43.854951, 13.029585 43.856871, 13.025655 43.858791, 13.021724 43.860711, 13.017793 43.862631, 13.013862 43.864551, 13.009931 43.866470, 13.005999 43.868390, 13.002067 43.870309, 12.998135 43.872228, 12.994202 43.874147, 12.990270 43.876066, 12.986337 43.877985, 12.982403 43.879904, 12.978470 43.881822, 12.974536 43.883741, 12.970602 43.885659, 12.966668 43.887577, 12.962733 43.889495, 12.958799 43.891413, 12.954864 43.893330, 12.950929 43.895248, 12.946993 43.897165, 12.943057 43.899083, 12.939121 43.901000, 12.935185 43.902917, 12.931249 43.904834, 12.927312 43.906751, 12.923375 43.908667, 12.919438 43.910584, 12.915500 43.912500, 12.911487 43.914312, 12.907474 43.916123, 12.903461 43.917935, 12.899447 43.919746, 12.895433 43.921558, 12.891419 43.923369, 12.887405 43.925180, 12.883390 43.926990, 12.879375 43.928801, 12.875360 43.930612, 12.871345 43.932422, 12.867330 43.934232, 12.863314 43.936042, 12.859298 43.937852, 12.855281 43.939662, 12.851265 43.941472, 12.847248 43.943282, 12.843231 43.945091, 12.839214 43.946900, 12.835196 43.948709, 12.831179 43.950518, 12.827161 43.952327, 12.823142 43.954136, 12.819124 43.955944, 12.815105 43.957753, 12.811086 43.959561, 12.807067 43.961369, 12.803048 43.963177, 12.799028 43.964985, 12.795008 43.966793, 12.790988 43.968601, 12.786967 43.970408, 12.782947 43.972215, 12.778926 43.974022, 12.774905 43.975829, 12.770883 43.977636, 12.766861 43.979443, 12.762840 43.981250, 12.758817 43.983056, 12.754795 43.984862, 12.750772 43.986669, 12.746749 43.988475, 12.742726 43.990281, 12.738703 43.992086, 12.734679 43.993892, 12.730655 43.995697, 12.726631 43.997503, 12.722607 43.999308, 12.718582 44.001113, 12.714558 44.002918, 12.710532 44.004723, 12.706507 44.006527, 12.702482 44.008332, 12.698456 44.010136, 12.694430 44.011940, 12.690403 44.013744, 12.686377 44.015548, 12.682350 44.017352, 12.678323 44.019156, 12.674296 44.020959, 12.670268 44.022762, 12.666240 44.024566, 12.662212 44.026369, 12.658184 44.028172, 12.654156 44.029974, 12.650127 44.031777, 12.646098 44.033579, 12.642068 44.035382, 12.638039 44.037184, 12.634009 44.038986, 12.629979 44.040788, 12.625949 44.042590, 12.621919 44.044391, 12.617888 44.046193, 12.613857 44.047994, 12.609826 44.049796, 12.605794 44.051597, 12.601762 44.053398, 12.597731 44.055198, 12.593698 44.056999, 12.589666 44.058800, 12.585633 44.060600, 12.581600 44.062400, 12.577567 44.064200, 12.573534 44.066000, 12.569500 44.067800, 12.565105 44.069100, 12.560709 44.070400, 12.556314 44.071700, 12.551918 44.072999, 12.547522 44.074299, 12.543126 44.075598, 12.538730 44.076897, 12.534333 44.078196, 12.529936 44.079494, 12.525539 44.080793, 12.521142 44.082091, 12.516745 44.083390, 12.512347 44.084688, 12.507950 44.085986, 12.503552 44.087283, 12.499154 44.088581, 12.494755 44.089878, 12.490357 44.091175, 12.485958 44.092472, 12.481559 44.093769, 12.477160 44.095066, 12.472761 44.096362, 12.468362 44.097659, 12.463962 44.098955, 12.459562 44.100251, 12.455162 44.101547, 12.450762 44.102842, 12.446362 44.104138, 12.441961 44.105433, 12.437560 44.106728, 12.433159 44.108023, 12.428758 44.109318, 12.424357 44.110613, 12.419955 44.111907, 12.415553 44.113202, 12.411151 44.114496, 12.406749 44.115790, 12.402347 44.117084, 12.397944 44.118377, 12.393542 44.119671, 12.389139 44.120964, 12.384736 44.122257, 12.380332 44.123550, 12.375929 44.124843, 12.371525 44.126136, 12.367121 44.127428, 12.362717 44.128720, 12.358313 44.130013, 12.353908 44.131305, 12.349504 44.132596, 12.345099 44.133888, 12.340694 44.135179, 12.336289 44.136471, 12.331883 44.137762, 12.327478 44.139053, 12.323072 44.140344, 12.318666 44.141634, 12.314260 44.142925, 12.309853 44.144215, 12.305447 44.145505, 12.301040 44.146795, 12.296633 44.148085, 12.292226 44.149374, 12.287818 44.150664, 12.283411 44.151953, 12.279003 44.153242, 12.274595 44.154531, 12.270187 44.155820, 12.265779 44.157108, 12.261370 44.158397, 12.256962 44.159685, 12.252553 44.160973, 12.248144 44.162261, 12.243734 44.163548, 12.239325 44.164836, 12.234915 44.166123, 12.230505 44.167411, 12.226095 44.168698, 12.221685 44.169984, 12.217275 44.171271, 12.212864 44.172558, 12.208453 44.173844, 12.204042 44.175130, 12.199631 44.176416, 12.195220 44.177702, 12.190808 44.178988, 12.186396 44.180273, 12.181984 44.181559, 12.177572 44.182844, 12.173160 44.184129, 12.168747 44.185414, 12.164335 44.186698, 12.159922 44.187983, 12.155509 44.189267, 12.151095 44.190551, 12.146682 44.191835, 12.142268 44.193119, 12.137854 44.194403, 12.133440 44.195686, 12.129026 44.196970, 12.124611 44.198253, 12.120197 44.199536, 12.115782 44.200818, 12.111367 44.202101, 12.106952 44.203384, 12.102536 44.204666, 12.098121 44.205948, 12.093705 44.207230, 12.089289 44.208512, 12.084873 44.209793, 12.080456 44.211075, 12.076040 44.212356, 12.071623 44.213637, 12.067206 44.214918, 12.062789 44.216199, 12.058371 44.217479, 12.053954 44.218760, 12.049536 44.220040, 12.045118 44.221320, 12.040700 44.222600, 12.036514 44.224253, 12.032328 44.225906, 12.028141 44.227559, 12.023955 44.229211, 12.019768 44.230864, 12.015580 44.232516, 12.011393 44.234168, 12.007205 44.235820, 12.003017 44.237472, 11.998829 44.239124, 11.994641 44.240775, 11.990452 44.242427, 11.986264 44.244078, 11.982075 44.245729, 11.977885 44.247380, 11.973696 44.249030, 11.969506 44.250681, 11.965316 44.252332, 11.961126 44.253982, 11.956935 44.255632, 11.952745 44.257282, 11.948554 44.258932, 11.944362 44.260581, 11.940171 44.262231, 11.935979 44.263880, 11.931787 44.265530, 11.927595 44.267179, 11.923403 44.268828, 11.919210 44.270476, 11.915018 44.272125, 11.910824 44.273773, 11.906631 44.275422, 11.902438 44.277070, 11.898244 44.278718, 11.894050 44.280366, 11.889856 44.282013, 11.885661 44.283661, 11.881466 44.285308, 11.877272 44.286956, 11.873076 44.288603, 11.868881 44.290250, 11.864685 44.291896, 11.860489 44.293543, 11.856293 44.295189, 11.852097 44.296836, 11.847900 44.298482, 11.843704 44.300128, 11.839506 44.301774, 11.835309 44.303419, 11.831112 44.305065, 11.826914 44.306710, 11.822716 44.308356, 11.818518 44.310001, 11.814319 44.311646, 11.810120 44.313290, 11.805922 44.314935, 11.801722 44.316579, 11.797523 44.318224, 11.793323 44.319868, 11.789123 44.321512, 11.784923 44.323156, 11.780723 44.324799, 11.776522 44.326443, 11.772322 44.328086, 11.768120 44.329730, 11.763919 44.331373, 11.759718 44.333016, 11.755516 44.334658, 11.751314 44.336301, 11.747112 44.337943, 11.742909 44.339586, 11.738706 44.341228, 11.734503 44.342870, 11.730300 44.344512, 11.726097 44.346153, 11.721893 44.347795, 11.717689 44.349436, 11.713485 44.351078, 11.709281 44.352719, 11.705076 44.354360, 11.700871 44.356000, 11.696666 44.357641, 11.692461 44.359281, 11.688256 44.360922, 11.684050 44.362562, 11.679844 44.364202, 11.675638 44.365842, 11.671431 44.367481, 11.667224 44.369121, 11.663017 44.370760, 11.658810 44.372400, 11.654603 44.374039, 11.650395 44.375678, 11.646187 44.377316, 11.641979 44.378955, 11.637771 44.380593, 11.633562 44.382232, 11.629353 44.383870, 11.625144 44.385508, 11.620935 44.387146, 11.616725 44.388783, 11.612516 44.390421, 11.608306 44.392058, 11.604095 44.393695, 11.599885 44.395332, 11.595674 44.396969, 11.591463 44.398606, 11.587252 44.400243, 11.583041 44.401879, 11.578829 44.403515, 11.574617 44.405152, 11.570405 44.406788, 11.566193 44.408423, 11.561980 44.410059, 11.557767 44.411695, 11.553554 44.413330, 11.549341 44.414965, 11.545127 44.416600, 11.540913 44.418235, 11.536699 44.419870, 11.532485 44.421504, 11.528271 44.423139, 11.524056 44.424773, 11.519841 44.426407, 11.515626 44.428041, 11.511410 44.429675, 11.507195 44.431309, 11.502979 44.432942, 11.498763 44.434575, 11.494546 44.436209, 11.490330 44.437842, 11.486113 44.439475, 11.481896 44.441107, 11.477679 44.442740, 11.473461 44.444372, 11.469243 44.446005, 11.465025 44.447637, 11.460807 44.449269, 11.456588 44.450900, 11.452370 44.452532, 11.448151 44.454164, 11.443932 44.455795, 11.439712 44.457426, 11.435492 44.459057, 11.431273 44.460688, 11.427052 44.462319, 11.422832 44.463949, 11.418611 44.465580, 11.414391 44.467210, 11.410169 44.468840, 11.405948 44.470470, 11.401727 44.472100, 11.397505 44.473729, 11.393283 44.475359, 11.389060 44.476988, 11.384838 44.478617, 11.380615 44.480246, 11.376392 44.481875, 11.372169 44.483504, 11.367946 44.485132, 11.363722 44.486760, 11.359498 44.488389, 11.355274 44.490017, 11.351049 44.491645, 11.346825 44.493272, 11.342600 44.494900, 11.344976 44.497861, 11.347352 44.500823, 11.349728 44.503784, 11.352104 44.506746, 11.354481 44.509707, 11.356858 44.512668, 11.359235 44.515629, 11.361612 44.518590, 11.363990 44.521551, 11.366368 44.524513, 11.368746 44.527474, 11.371124 44.530434, 11.373503 44.533395, 11.375881 44.536356, 11.378261 44.539317, 11.380640 44.542278, 11.383019 44.545238, 11.385399 44.548199, 11.387779 44.551160, 11.390159 44.554120, 11.392540 44.557081, 11.394921 44.560041, 11.397302 44.563001, 11.399683 44.565962, 11.402064 44.568922, 11.404446 44.571882, 11.406828 44.574843, 11.409210 44.577803, 11.411593 44.580763, 11.413976 44.583723, 11.416358 44.586683, 11.418742 44.589643, 11.421125 44.592603, 11.423509 44.595562, 11.425893 44.598522, 11.428277 44.601482, 11.430661 44.604442, 11.433046 44.607401, 11.435431 44.610361, 11.437816 44.613320, 11.440201 44.616280, 11.442587 44.619239, 11.444973 44.622199, 11.447359 44.625158, 11.449745 44.628117, 11.452132 44.631077, 11.454519 44.634036, 11.456906 44.636995, 11.459293 44.639954, 11.461680 44.642913, 11.464068 44.645872, 11.466456 44.648831, 11.468845 44.651790, 11.471233 44.654749, 11.473622 44.657708, 11.476011 44.660666, 11.478400 44.663625, 11.480790 44.666584, 11.483179 44.669542, 11.485569 44.672501, 11.487960 44.675459, 11.490350 44.678418, 11.492741 44.681376, 11.495132 44.684335, 11.497523 44.687293, 11.499915 44.690251, 11.502306 44.693209, 11.504698 44.696168, 11.507090 44.699126, 11.509483 44.702084, 11.511876 44.705042, 11.514268 44.708000, 11.516662 44.710958, 11.519055 44.713915, 11.521449 44.716873, 11.523843 44.719831, 11.526237 44.722789, 11.528631 44.725746, 11.531026 44.728704, 11.533421 44.731662, 11.535816 44.734619, 11.538211 44.737576, 11.540607 44.740534, 11.543003 44.743491, 11.545399 44.746449, 11.547795 44.749406, 11.550192 44.752363, 11.552589 44.755320, 11.554986 44.758277, 11.557383 44.761234, 11.559781 44.764191, 11.562178 44.767148, 11.564576 44.770105, 11.566975 44.773062, 11.569373 44.776019, 11.571772 44.778976, 11.574171 44.781932, 11.576571 44.784889, 11.578970 44.787845, 11.581370 44.790802, 11.583770 44.793759, 11.586170 44.796715, 11.588571 44.799671, 11.590971 44.802628, 11.593373 44.805584, 11.595774 44.808540, 11.598175 44.811496, 11.600577 44.814453, 11.602979 44.817409, 11.605381 44.820365, 11.607784 44.823321, 11.610187 44.826277, 11.612590 44.829233, 11.614993 44.832188, 11.617396 44.835144, 11.619800 44.838100, 11.621262 44.841368, 11.622725 44.844635, 11.624188 44.847903, 11.625651 44.851171, 11.627114 44.854438, 11.628577 44.857706, 11.630041 44.860974, 11.631504 44.864241, 11.632968 44.867509, 11.634432 44.870776, 11.635896 44.874044, 11.637361 44.877312, 11.638825 44.880579, 11.640290 44.883846, 11.641755 44.887114, 11.643220 44.890381, 11.644685 44.893649, 11.646150 44.896916, 11.647615 44.900184, 11.649081 44.903451, 11.650547 44.906718, 11.652013 44.909986, 11.653479 44.913253, 11.654945 44.916520, 11.656412 44.919788, 11.657878 44.923055, 11.659345 44.926322, 11.660812 44.929589, 11.662279 44.932857, 11.663747 44.936124, 11.665214 44.939391, 11.666682 44.942658, 11.668150 44.945925, 11.669617 44.949192, 11.671086 44.952459, 11.672554 44.955726, 11.674022 44.958993, 11.675491 44.962261, 11.676960 44.965528, 11.678429 44.968795, 11.679898 44.972061, 11.681367 44.975328, 11.682837 44.978595, 11.684306 44.981862, 11.685776 44.985129, 11.687246 44.988396, 11.688716 44.991663, 11.690187 44.994930, 11.691657 44.998197, 11.693128 45.001463, 11.694599 45.004730, 11.696070 45.007997, 11.697541 45.011264, 11.699012 45.014530, 11.700484 45.017797, 11.701955 45.021064, 11.703427 45.024331, 11.704899 45.027597, 11.706371 45.030864, 11.707843 45.034130, 11.709316 45.037397, 11.710789 45.040664, 11.712261 45.043930, 11.713734 45.047197, 11.715208 45.050463, 11.716681 45.053730, 11.718154 45.056996, 11.719628 45.060263, 11.721102 45.063529, 11.722576 45.066796, 11.724050 45.070062, 11.725525 45.073328, 11.726999 45.076595, 11.728474 45.079861, 11.729949 45.083128, 11.731424 45.086394, 11.732899 45.089660, 11.734374 45.092926, 11.735850 45.096193, 11.737325 45.099459, 11.738801 45.102725, 11.740277 45.105991, 11.741753 45.109258, 11.743230 45.112524, 11.744706 45.115790, 11.746183 45.119056, 11.747660 45.122322, 11.749137 45.125588, 11.750614 45.128854, 11.752092 45.132120, 11.753569 45.135386, 11.755047 45.138652, 11.756525 45.141918, 11.758003 45.145184, 11.759481 45.148450, 11.760960 45.151716, 11.762438 45.154982, 11.763917 45.158248, 11.765396 45.161514, 11.766875 45.164780, 11.768354 45.168046, 11.769833 45.171311, 11.771313 45.174577, 11.772793 45.177843, 11.774273 45.181109, 11.775753 45.184374, 11.777233 45.187640, 11.778714 45.190906, 11.780194 45.194172, 11.781675 45.197437, 11.783156 45.200703, 11.784637 45.203969, 11.786118 45.207234, 11.787600 45.210500, 11.789081 45.213765, 11.790563 45.217031, 11.792045 45.220296, 11.793527 45.223562, 11.795010 45.226827, 11.796492 45.230093, 11.797975 45.233358, 11.799458 45.236624, 11.800941 45.239889, 11.802424 45.243155, 11.803907 45.246420, 11.805391 45.249685, 11.806874 45.252951, 11.808358 45.256216, 11.809842 45.259481, 11.811326 45.262747, 11.812811 45.266012, 11.814295 45.269277, 11.815780 45.272542, 11.817265 45.275808, 11.818750 45.279073, 11.820235 45.282338, 11.821720 45.285603, 11.823206 45.288868, 11.824692 45.292133, 11.826178 45.295398, 11.827664 45.298663, 11.829150 45.301928, 11.830636 45.305194, 11.832123 45.308459, 11.833610 45.311724, 11.835096 45.314989, 11.836584 45.318253, 11.838071 45.321518, 11.839558 45.324783, 11.841046 45.328048, 11.842534 45.331313, 11.844022 45.334578, 11.845510 45.337843, 11.846998 45.341108, 11.848486 45.344372, 11.849975 45.347637, 11.851464 45.350902, 11.852953 45.354167, 11.854442 45.357431, 11.855931 45.360696, 11.857421 45.363961, 11.858911 45.367226, 11.860400 45.370490, 11.861890 45.373755, 11.863381 45.377019, 11.864871 45.380284, 11.866361 45.383549, 11.867852 45.386813, 11.869343 45.390078, 11.870834 45.393342, 11.872325 45.396607, 11.873817 45.399871, 11.875308 45.403136, 11.876800 45.406400, 11.880207 45.408840, 11.883614 45.411280, 11.887021 45.413720, 11.890429 45.416159, 11.893837 45.418599, 11.897245 45.421038, 11.900653 45.423478, 11.904062 45.425917, 11.907471 45.428356, 11.910881 45.430795, 11.914291 45.433234, 11.917701 45.435673, 11.921111 45.438112, 11.924521 45.440550, 11.927932 45.442989, 11.931343 45.445428, 11.934755 45.447866, 11.938167 45.450304, 11.941579 45.452742, 11.944991 45.455180, 11.948404 45.457618, 11.951817 45.460056, 11.955230 45.462494, 11.958644 45.464932, 11.962057 45.467369, 11.965471 45.469807, 11.968886 45.472244, 11.972301 45.474681, 11.975716 45.477118, 11.979131 45.479555, 11.982547 45.481992, 11.985962 45.484429, 11.989379 45.486866, 11.992795 45.489302, 11.996212 45.491739, 11.999629 45.494175, 12.003046 45.496612, 12.006464 45.499048, 12.009882 45.501484, 12.013300 45.503920, 12.016719 45.506356, 12.020138 45.508792, 12.023557 45.511227, 12.026976 45.513663, 12.030396 45.516099, 12.033816 45.518534, 12.037236 45.520969, 12.040657 45.523404, 12.044078 45.525840, 12.047499 45.528275, 12.050921 45.530709, 12.054343 45.533144, 12.057765 45.535579, 12.061187 45.538014, 12.064610 45.540448, 12.068033 45.542882, 12.071456 45.545317, 12.074880 45.547751, 12.078304 45.550185, 12.081728 45.552619, 12.085152 45.555053, 12.088577 45.557487, 12.092002 45.559920, 12.095428 45.562354, 12.098853 45.564787, 12.102279 45.567221, 12.105705 45.569654, 12.109132 45.572087, 12.112559 45.574520, 12.115986 45.576953, 12.119414 45.579386, 12.122841 45.581819, 12.126269 45.584251, 12.129698 45.586684, 12.133126 45.589116, 12.136555 45.591549, 12.139984 45.593981, 12.143414 45.596413, 12.146844 45.598845, 12.150274 45.601277, 12.153704 45.603709, 12.157135 45.606140, 12.160566 45.608572, 12.163997 45.611004, 12.167429 45.613435, 12.170861 45.615866, 12.174293 45.618297, 12.177726 45.620729, 12.181159 45.623160, 12.184592 45.625590, 12.188025 45.628021, 12.191459 45.630452, 12.194893 45.632883, 12.198327 45.635313, 12.201762 45.637743, 12.205197 45.640174, 12.208632 45.642604, 12.212067 45.645034, 12.215503 45.647464, 12.218939 45.649894, 12.222375 45.652324, 12.225812 45.654753, 12.229249 45.657183, 12.232686 45.659612, 12.236124 45.662042, 12.239562 45.664471, 12.243000 45.666900, 12.240278 45.669763, 12.237556 45.672627, 12.234833 45.675490, 12.232111 45.678353, 12.229388 45.681216, 12.226664 45.684079, 12.223941 45.686942, 12.221217 45.689805, 12.218493 45.692668, 12.215768 45.695530, 12.213044 45.698393, 12.210319 45.701256, 12.207593 45.704118, 12.204868 45.706981, 12.202142 45.709843, 12.199416 45.712705, 12.196690 45.715568, 12.193963 45.718430, 12.191236 45.721292, 12.188509 45.724154, 12.185781 45.727016, 12.183054 45.729878, 12.180325 45.732740, 12.177597 45.735602, 12.174869 45.738464, 12.172140 45.741325, 12.169410 45.744187, 12.166681 45.747049, 12.163951 45.749910, 12.161221 45.752772, 12.158491 45.755633, 12.155760 45.758494, 12.153030 45.761356, 12.150298 45.764217, 12.147567 45.767078, 12.144835 45.769939, 12.142103 45.772800, 12.139371 45.775661, 12.136639 45.778522, 12.133906 45.781382, 12.131173 45.784243, 12.128439 45.787104, 12.125706 45.789964, 12.122972 45.792825, 12.120238 45.795685, 12.117503 45.798546, 12.114768 45.801406, 12.112033 45.804266, 12.109298 45.807127, 12.106562 45.809987, 12.103826 45.812847, 12.101090 45.815707, 12.098354 45.818567, 12.095617 45.821427, 12.092880 45.824287, 12.090143 45.827146, 12.087405 45.830006, 12.084667 45.832866, 12.081929 45.835725, 12.079191 45.838585, 12.076452 45.841444, 12.073713 45.844303, 12.070974 45.847163, 12.068234 45.850022, 12.065494 45.852881, 12.062754 45.855740, 12.060014 45.858599, 12.057273 45.861458, 12.054532 45.864317, 12.051791 45.867176, 12.049049 45.870035, 12.046307 45.872893, 12.043565 45.875752, 12.040823 45.878611, 12.038080 45.881469, 12.035337 45.884328, 12.032594 45.887186, 12.029851 45.890044, 12.027107 45.892902, 12.024363 45.895761, 12.021618 45.898619, 12.018874 45.901477, 12.016129 45.904335, 12.013384 45.907193, 12.010638 45.910051, 12.007893 45.912908, 12.005146 45.915766, 12.002400 45.918624, 11.999654 45.921481, 11.996907 45.924339, 11.994159 45.927196, 11.991412 45.930054, 11.988664 45.932911, 11.985916 45.935768, 11.983168 45.938625, 11.980419 45.941483, 11.977670 45.944340, 11.974921 45.947197, 11.972172 45.950054, 11.969422 45.952910, 11.966672 45.955767, 11.963922 45.958624, 11.961171 45.961481, 11.958420 45.964337, 11.955669 45.967194, 11.952918 45.970050, 11.950166 45.972907, 11.947414 45.975763, 11.944662 45.978619, 11.941909 45.981475, 11.939156 45.984332, 11.936403 45.987188, 11.933650 45.990044, 11.930896 45.992900, 11.928142 45.995755, 11.925388 45.998611, 11.922633 46.001467, 11.919878 46.004323, 11.917123 46.007178, 11.914368 46.010034, 11.911612 46.012889, 11.908856 46.015745, 11.906100 46.018600, 11.903927 46.015528, 11.901754 46.012457, 11.899581 46.009385, 11.897409 46.006314, 11.895237 46.003242, 11.893065 46.000170, 11.890893 45.997099, 11.888722 45.994027, 11.886550 45.990955, 11.884379 45.987883, 11.882209 45.984811, 11.880038 45.981739, 11.877868 45.978667, 11.875698 45.975595, 11.873528 45.972523, 11.871359 45.969451, 11.869189 45.966379, 11.867020 45.963306, 11.864852 45.960234, 11.862683 45.957162, 11.860515 45.954090, 11.858347 45.951017, 11.856179 45.947945, 11.854011 45.944872, 11.851844 45.941800, 11.849677 45.938727, 11.847510 45.935655, 11.845343 45.932582, 11.843177 45.929509, 11.841011 45.926437, 11.838845 45.923364, 11.836679 45.920291, 11.834514 45.917218, 11.832348 45.914146, 11.830183 45.911073, 11.828019 45.908000, 11.825854 45.904927, 11.823690 45.901854, 11.821526 45.898781, 11.819362 45.895707, 11.817199 45.892634, 11.815035 45.889561, 11.812872 45.886488, 11.810710 45.883415, 11.808547 45.880341, 11.806385 45.877268, 11.804223 45.874195, 11.802061 45.871121, 11.799899 45.868048, 11.797738 45.864974, 11.795577 45.861901, 11.793416 45.858827, 11.791255 45.855753, 11.789095 45.852680, 11.786935 45.849606, 11.784775 45.846532, 11.782615 45.843458, 11.780456 45.840384, 11.778296 45.837311, 11.776137 45.834237, 11.773979 45.831163, 11.771820 45.828089, 11.769662 45.825015, 11.767504 45.821941, 11.765346 45.818866, 11.763188 45.815792, 11.761031 45.812718, 11.758874 45.809644, 11.756717 45.806569, 11.754561 45.803495, 11.752404 45.800421, 11.750248 45.797346, 11.748092 45.794272, 11.745937 45.791197, 11.743781 45.788123, 11.741626 45.785048, 11.739471 45.781974, 11.737316 45.778899, 11.735162 45.775824, 11.733008 45.772750, 11.730854 45.769675, 11.728700 45.766600, 11.726147 45.763693, 11.723594 45.760786, 11.721041 45.757879, 11.718488 45.754971, 11.715936 45.752064, 11.713384 45.749157, 11.710832 45.746249, 11.708281 45.743342, 11.705729 45.740434, 11.703178 45.737527, 11.700628 45.734619, 11.698077 45.731711, 11.695527 45.728803, 11.692977 45.725896, 11.690428 45.722988, 11.687878 45.720080, 11.685329 45.717172, 11.682780 45.714264, 11.680232 45.711356, 11.677683 45.708447, 11.675135 45.705539, 11.672588 45.702631, 11.670040 45.699723, 11.667493 45.696814, 11.664946 45.693906, 11.662399 45.690997, 11.659853 45.688089, 11.657307 45.685180, 11.654761 45.682271, 11.652215 45.679363, 11.649670 45.676454, 11.647124 45.673545, 11.644580 45.670636, 11.642035 45.667727, 11.639491 45.664818, 11.636947 45.661909, 11.634403 45.659000, 11.631859 45.656091, 11.629316 45.653182, 11.626773 45.650272, 11.624230 45.647363, 11.621688 45.644453, 11.619145 45.641544, 11.616603 45.638634, 11.614062 45.635725, 11.611520 45.632815, 11.608979 45.629906, 11.606438 45.626996, 11.603898 45.624086, 11.601357 45.621176, 11.598817 45.618266, 11.596277 45.615356, 11.593738 45.612446, 11.591198 45.609536, 11.588659 45.606626, 11.586121 45.603716, 11.583582 45.600806, 11.581044 45.597895, 11.578506 45.594985, 11.575968 45.592074, 11.573431 45.589164, 11.570893 45.586253, 11.568356 45.583343, 11.565820 45.580432, 11.563283 45.577521, 11.560747 45.574611, 11.558211 45.571700, 11.555676 45.568789, 11.553140 45.565878, 11.550605 45.562967, 11.548070 45.560056, 11.545536 45.557145, 11.543001 45.554234, 11.540467 45.551323, 11.537934 45.548411, 11.535400 45.545500, 11.530703 45.544588, 11.526007 45.543675, 11.521310 45.542763, 11.516614 45.541850, 11.511918 45.540937, 11.507222 45.540024, 11.502526 45.539110, 11.497830 45.538197, 11.493135 45.537283, 11.488439 45.536369, 11.483744 45.535455, 11.479049 45.534540, 11.474354 45.533626, 11.469659 45.532711, 11.464965 45.531796, 11.460270 45.530881, 11.455576 45.529966, 11.450882 45.529050, 11.446188 45.528135, 11.441494 45.527219, 11.436800 45.526303, 11.432107 45.525386, 11.427413 45.524470, 11.422720 45.523553, 11.418027 45.522636, 11.413334 45.521719, 11.408641 45.520802, 11.403949 45.519885, 11.399256 45.518967, 11.394564 45.518049, 11.389872 45.517131, 11.385180 45.516213, 11.380488 45.515295, 11.375796 45.514376, 11.371105 45.513457, 11.366413 45.512538, 11.361722 45.511619, 11.357031 45.510700, 11.352340 45.509780, 11.347649 45.508861, 11.342959 45.507941, 11.338268 45.507021, 11.333578 45.506100, 11.328888 45.505180, 11.324198 45.504259, 11.319508 45.503338, 11.314818 45.502417, 11.310129 45.501496, 11.305439 45.500574, 11.300750 45.499653, 11.296061 45.498731, 11.291372 45.497809, 11.286683 45.496887, 11.281994 45.495964, 11.277306 45.495042, 11.272618 45.494119, 11.267929 45.493196, 11.263241 45.492273, 11.258554 45.491349, 11.253866 45.490426, 11.249178 45.489502, 11.244491 45.488578, 11.239804 45.487654, 11.235117 45.486729, 11.230430 45.485805, 11.225743 45.484880, 11.221056 45.483955, 11.216370 45.483030, 11.211683 45.482105, 11.206997 45.481179, 11.202311 45.480254, 11.197625 45.479328, 11.192940 45.478402, 11.188254 45.477475, 11.183569 45.476549, 11.178883 45.475622, 11.174198 45.474696, 11.169513 45.473769, 11.164829 45.472841, 11.160144 45.471914, 11.155459 45.470986, 11.150775 45.470059, 11.146091 45.469131, 11.141407 45.468202, 11.136723 45.467274, 11.132039 45.466345, 11.127356 45.465417, 11.122672 45.464488, 11.117989 45.463559, 11.113306 45.462629, 11.108623 45.461700, 11.103940 45.460770, 11.099258 45.459840, 11.094575 45.458910, 11.089893 45.457980, 11.085211 45.457049, 11.080529 45.456119, 11.075847 45.455188, 11.071165 45.454257, 11.066484 45.453326, 11.061802 45.452394, 11.057121 45.451463, 11.052440 45.450531, 11.047759 45.449599, 11.043078 45.448667, 11.038398 45.447734, 11.033717 45.446802, 11.029037 45.445869, 11.024357 45.444936, 11.019677 45.444003, 11.014997 45.443070, 11.010317 45.442136, 11.005638 45.441202, 11.000958 45.440268, 10.996279 45.439334, 10.991600 45.438400, 10.986795 45.439053, 10.981990 45.439706, 10.977185 45.440359, 10.972380 45.441012, 10.967575 45.441664, 10.962770 45.442317, 10.957964 45.442969, 10.953159 45.443621, 10.948353 45.444272, 10.943547 45.444924, 10.938742 45.445575, 10.933936 45.446226, 10.929130 45.446877, 10.924323 45.447528, 10.919517 45.448178, 10.914711 45.448829, 10.909904 45.449479, 10.905097 45.450128, 10.900291 45.450778, 10.895484 45.451428, 10.890677 45.452077, 10.885870 45.452726, 10.881063 45.453375, 10.876255 45.454023, 10.871448 45.454672, 10.866640 45.455320, 10.861833 45.455968, 10.857025 45.456616, 10.852217 45.457264, 10.847409 45.457911, 10.842601 45.458558, 10.837793 45.459205, 10.832985 45.459852, 10.828176 45.460499, 10.823368 45.461145, 10.818559 45.461792, 10.813750 45.462438, 10.808941 45.463083, 10.804133 45.463729, 10.799323 45.464374, 10.794514 45.465020, 10.789705 45.465665, 10.784896 45.466310, 10.780086 45.466954, 10.775276 45.467599, 10.770467 45.468243, 10.765657 45.468887, 10.760847 45.469531, 10.756037 45.470174, 10.751227 45.470818, 10.746416 45.471461, 10.741606 45.472104, 10.736796 45.472747, 10.731985 45.473389, 10.727174 45.474032, 10.722363 45.474674, 10.717552 45.475316, 10.712741 45.475958, 10.707930 45.476599, 10.703119 45.477241, 10.698308 45.477882, 10.693496 45.478523, 10.688685 45.479164, 10.683873 45.479804, 10.679061 45.480445, 10.674249 45.481085, 10.669437 45.481725, 10.664625 45.482365, 10.659813 45.483004, 10.655000 45.483643, 10.650188 45.484283, 10.645375 45.484922, 10.640563 45.485560, 10.635750 45.486199, 10.630937 45.486837, 10.626124 45.487475, 10.621311 45.488113, 10.616498 45.488751, 10.611684 45.489389, 10.606871 45.490026, 10.602057 45.490663, 10.597244 45.491300, 10.592430 45.491937, 10.587616 45.492573, 10.582802 45.493210, 10.577988 45.493846, 10.573174 45.494482, 10.568359 45.495118, 10.563545 45.495753, 10.558730 45.496388, 10.553916 45.497024, 10.549101 45.497659, 10.544286 45.498293, 10.539471 45.498928, 10.534656 45.499562, 10.529841 45.500196, 10.525025 45.500830, 10.520210 45.501464, 10.515395 45.502097, 10.510579 45.502731, 10.505763 45.503364, 10.500947 45.503997, 10.496131 45.504629, 10.491315 45.505262, 10.486499 45.505894, 10.481683 45.506526, 10.476867 45.507158, 10.472050 45.507790, 10.467233 45.508421, 10.462417 45.509053, 10.457600 45.509684, 10.452783 45.510314, 10.447966 45.510945, 10.443149 45.511576, 10.438332 45.512206, 10.433514 45.512836, 10.428697 45.513466, 10.423879 45.514096, 10.419062 45.514725, 10.414244 45.515354, 10.409426 45.515983, 10.404608 45.516612, 10.399790 45.517241, 10.394972 45.517869, 10.390153 45.518497, 10.385335 45.519126, 10.380516 45.519753, 10.375698 45.520381, 10.370879 45.521008, 10.366060 45.521636, 10.361241 45.522263, 10.356422 45.522889, 10.351603 45.523516, 10.346784 45.524143, 10.341964 45.524769, 10.337145 45.525395, 10.332325 45.526021, 10.327505 45.526646, 10.322685 45.527272, 10.317866 45.527897, 10.313046 45.528522, 10.308225 45.529147, 10.303405 45.529771, 10.298585 45.530396, 10.293764 45.531020, 10.288944 45.531644, 10.284123 45.532268, 10.279302 45.532891, 10.274481 45.533515, 10.269660 45.534138, 10.264839 45.534761, 10.260018 45.535383, 10.255197 45.536006, 10.250375 45.536628, 10.245554 45.537251, 10.240732 45.537873, 10.235910 45.538494, 10.231088 45.539116, 10.226267 45.539737, 10.221444 45.540358, 10.216622 45.540979, 10.211800 45.541600)
