LINESTRING (7.420500 43.734500, 7.420760 43.735200, 7.421020 43.735900, 7.421280 43.736600, 7.421540 43.737300, 7.421800 43.738000, 7.422680 43.738480, 7.423560 43.738960, 7.424440 43.739440, 7.425320 43.739920, 7.426200 43.740400, 7.426900 43.740000, 7.427600 43.739600, 7.428067 43.740133, 7.428533 43.740667, 7.429000 43.741200, 7.430100 43.741000, 7.431200 43.740800, 7.431500 43.740350, 7.431800 43.739900, 7.431833 43.739300, 7.431867 43.738700, 7.431900 43.738100, 7.431000 43.737500, 7.430100 43.736900, 7.429200 43.736300, 7.428300 43.735700, 7.427400 43.735100, 7.426400 43.734975, 7.425400 43.734850, 7.424400 43.734725, 7.423400 43.734600, 7.422567 43.734067, 7.421733 43.733533, 7.420900 43.733000, 7.420700 43.733750, 7.420500 43.734500)
