LINESTRING (10.211800 45.541600, 10.216622 45.540979, 10.221444 45.540358, 10.226267 45.539737, 10.231088 45.539116, 10.235910 45.538494, 10.240732 45.537873, 10.245554 45.537251, 10.250375 45.536628, 10.255197 45.536006, 10.260018 45.535383, 10.264839 45.534761, 10.269660 45.534138, 10.274481 45.533515, 10.279302 45.532891, 10.284123 45.532268, 10.288944 45.531644, 10.293764 45.531020, 10.298585 45.530396, 10.303405 45.529771, 10.308225 45.529147, 10.313046 45.528522, 10.317866 45.527897, 10.322685 45.527272, 10.327505 45.526646, 10.332325 45.526021, 10.337145 45.525395, 10.341964 45.524769, 10.346784 45.524143, 10.351603 45.523516, 10.356422 45.522889, 10.361241 45.522263, 10.366060 45.521636, 10.370879 45.521008, 10.375698 45.520381, 10.380516 45.519753, 10.385335 45.519126, 10.390153 45.518497, 10.394972 45.517869, 10.399790 45.517241, 10.404608 45.516612, 10.409426 45.515983, 10.414244 45.515354, 10.419062 45.514725, 10.423879 45.514096, 10.428697 45.513466, 10.433514 45.512836, 10.438332 45.512206, 10.443149 45.511576, 10.447966 45.510945, 10.452783 45.510314, 10.457600 45.509684, 10.462417 45.509053, 10.467233 45.508421, 10.472050 45.507790, 10.476867 45.507158, 10.481683 45.506526, 10.486499 45.505894, 10.491315 45.505262, 10.496131 45.504629, 10.500947 45.503997, 10.505763 45.503364, 10.510579 45.502731, 10.515395 45.502097, 10.520210 45.501464, 10.525025 45.500830, 10.529841 45.500196, 10.534656 45.499562, 10.539471 45.498928, 10.544286 45.498293, 10.549101 45.497659, 10.553916 45.497024, 10.558730 45.496388, 10.563545 45.495753, 10.568359 45.495118, 10.573174 45.494482, 10.577988 45.493846, 10.582802 45.493210, 10.587616 45.492573, 10.592430 45.491937, 10.597244 45.491300, 10.602057 45.490663, 10.606871 45.490026, 10.611684 45.489389, 10.616498 45.488751, 10.621311 45.488113, 10.626124 45.487475, 10.630937 45.486837, 10.635750 45.486199, 10.640563 45.485560, 10.645375 45.484922, 10.650188 45.484283, 10.655000 45.483643, 10.659813 45.483004, 10.664625 45.482365, 10.669437 45.481725, 10.674249 45.481085, 10.679061 45.480445, 10.683873 45.479804, 10.688685 45.479164, 10.693496 45.478523, 10.698308 45.477882, 10.703119 45.477241, 10.707930 45.476599, 10.712741 45.475958, 10.717552 45.475316, 10.722363 45.474674, 10.727174 45.474032, 10.731985 45.473389, 10.736796 45.472747, 10.741606 45.472104, 10.746416 45.471461, 10.751227 45.470818, 10.756037 45.470174, 10.760847 45.469531, 10.765657 45.468887, 10.770467 45.468243, 10.775276 45.467599, 10.780086 45.466954, 10.784896 45.466310, 10.789705 45.465665, 10.794514 45.465020, 10.799323 45.464374, 10.804133 45.463729, 10.808941 45.463083, 10.813750 45.462438, 10.818559 45.461792, 10.823368 45.461145, 10.828176 45.460499, 10.832985 45.459852, 10.837793 45.459205, 10.842601 45.458558, 10.847409 45.457911, 10.852217 45.457264, 10.857025 45.456616, 10.861833 45.455968, 10.866640 45.455320, 10.871448 45.454672, 10.876255 45.454023, 10.881063 45.453375, 10.885870 45.452726, 10.890677 45.452077, 10.895484 45.451428, 10.900291 45.450778, 10.905097 45.450128, 10.909904 45.449479, 10.914711 45.448829, 10.919517 45.448178, 10.924323 45.447528, 10.929130 45.446877, 10.933936 45.446226, 10.938742 45.445575, 10.943547 45.444924, 10.948353 45.444272, 10.953159 45.443621, 10.957964 45.442969, 10.962770 45.442317, 10.967575 45.441664, 10.972380 45.441012, 10.977185 45.440359, 10.981990 45.439706, 10.986795 45.439053, 10.991600 45.438400, 10.996279 45.439334, 11.000958 45.440268, 11.005638 45.441202, 11.010317 45.442136, 11.014997 45.443070, 11.019677 45.444003, 11.024357 45.444936, 11.029037 45.445869, 11.033717 45.446802, 11.038398 45.447734, 11.043078 45.448667, 11.047759 45.449599, 11.052440 45.450531, 11.057121 45.451463, 11.061802 45.452394, 11.066484 45.453326, 11.071165 45.454257, 11.075847 45.455188, 11.080529 45.456119, 11.085211 45.457049, 11.089893 45.457980, 11.094575 45.458910, 11.099258 45.459840, 11.103940 45.460770, 11.108623 45.461700, 11.113306 45.462629, 11.117989 45.463559, 11.122672 45.464488, 11.127356 45.465417, 11.132039 45.466345, 11.136723 45.467274, 11.141407 45.468202, 11.146091 45.469131, 11.150775 45.470059, 11.155459 45.470986, 11.160144 45.471914, 11.164829 45.472841, 11.169513 45.473769, 11.174198 45.474696, 11.178883 45.475622, 11.183569 45.476549, 11.188254 45.477475, 11.192940 45.478402, 11.197625 45.479328, 11.202311 45.480254, 11.206997 45.481179, 11.211683 45.482105, 11.216370 45.483030, 11.221056 45.483955, 11.225743 45.484880, 11.230430 45.485805, 11.235117 45.486729, 11.239804 45.487654, 11.244491 45.488578, 11.249178 45.489502, 11.253866 45.490426, 11.258554 45.491349, 11.263241 45.492273, 11.267929 45.493196, 11.272618 45.494119, 11.277306 45.495042, 11.281994 45.495964, 11.286683 45.496887, 11.291372 45.497809, 11.296061 45.498731, 11.300750 45.499653, 11.305439 45.500574, 11.310129 45.501496, 11.314818 45.502417, 11.319508 45.503338, 11.324198 45.504259, 11.328888 45.505180, 11.333578 45.506100, 11.338268 45.507021, 11.342959 45.507941, 11.347649 45.508861, 11.352340 45.509780, 11.357031 45.510700, 11.361722 45.511619, 11.366413 45.512538, 11.371105 45.513457, 11.375796 45.514376, 11.380488 45.515295, 11.385180 45.516213, 11.389872 45.517131, 11.394564 45.518049, 11.399256 45.518967, 11.403949 45.519885, 11.408641 45.520802, 11.413334 45.521719, 11.418027 45.522636, 11.422720 45.523553, 11.427413 45.524470, 11.432107 45.525386, 11.436800 45.526303, 11.441494 45.527219, 11.446188 45.528135, 11.450882 45.529050, 11.455576 45.529966, 11.460270 45.530881, 11.464965 45.531796, 11.469659 45.532711, 11.474354 45.533626, 11.479049 45.534540, 11.483744 45.535455, 11.488439 45.536369, 11.493135 45.537283, 11.497830 45.538197, 11.502526 45.539110, 11.507222 45.540024, 11.511918 45.540937, 11.516614 45.541850, 11.521310 45.542763, 11.526007 45.543675, 11.530703 45.544588, 11.535400 45.545500, 11.539625 45.543789, 11.543850 45.542078, 11.548075 45.540366, 11.552299 45.538655, 11.556523 45.536943, 11.560747 45.535231, 11.564970 45.533519, 11.569194 45.531807, 11.573417 45.530095, 11.577639 45.528382, 11.581862 45.526670, 11.586084 45.524957, 11.590306 45.523244, 11.594528 45.521531, 11.598749 45.519818, 11.602971 45.518104, 11.607192 45.516391, 11.611412 45.514677, 11.615633 45.512963, 11.619853 45.511249, 11.624073 45.509535, 11.628293 45.507820, 11.632512 45.506106, 11.636731 45.504391, 11.640950 45.502676, 11.645169 45.500962, 11.649387 45.499246, 11.653605 45.497531, 11.657823 45.495816, 11.662041 45.494100, 11.666258 45.492384, 11.670475 45.490668, 11.674692 45.488952, 11.678909 45.487236, 11.683125 45.485520, 11.687341 45.483803, 11.691557 45.482087, 11.695773 45.480370, 11.699988 45.478653, 11.704203 45.476936, 11.708418 45.475218, 11.712633 45.473501, 11.716847 45.471783, 11.721061 45.470066, 11.725275 45.468348, 11.729488 45.466630, 11.733702 45.464911, 11.737915 45.463193, 11.742127 45.461475, 11.746340 45.459756, 11.750552 45.458037, 11.754764 45.456318, 11.758976 45.454599, 11.763187 45.452880, 11.767398 45.451160, 11.771609 45.449441, 11.775820 45.447721, 11.780031 45.446001, 11.784241 45.444281, 11.788451 45.442561, 11.792660 45.440840, 11.796870 45.439120, 11.801079 45.437399, 11.805288 45.435678, 11.809497 45.433957, 11.813705 45.432236, 11.817913 45.430515, 11.822121 45.428793, 11.826329 45.427072, 11.830536 45.425350, 11.834743 45.423628, 11.838950 45.421906, 11.843156 45.420183, 11.847363 45.418461, 11.851569 45.416739, 11.855775 45.415016, 11.859980 45.413293, 11.864186 45.411570, 11.868391 45.409847, 11.872595 45.408123, 11.876800 45.406400, 11.875929 45.403034, 11.875058 45.399669, 11.874187 45.396303, 11.873316 45.392937, 11.872446 45.389572, 11.871575 45.386206, 11.870704 45.382840, 11.869834 45.379474, 11.868964 45.376109, 11.868094 45.372743, 11.867224 45.369377, 11.866354 45.366011, 11.865484 45.362646, 11.864614 45.359280, 11.863744 45.355914, 11.862875 45.352548, 11.862005 45.349183, 11.861136 45.345817, 11.860267 45.342451, 11.859398 45.339085, 11.858529 45.335719, 11.857660 45.332354, 11.856791 45.328988, 11.855922 45.325622, 11.855054 45.322256, 11.854185 45.318890, 11.853317 45.315524, 11.852448 45.312159, 11.851580 45.308793, 11.850712 45.305427, 11.849844 45.302061, 11.848976 45.298695, 11.848108 45.295329, 11.847241 45.291963, 11.846373 45.288597, 11.845506 45.285232, 11.844638 45.281866, 11.843771 45.278500, 11.842904 45.275134, 11.842037 45.271768, 11.841170 45.268402, 11.840303 45.265036, 11.839436 45.261670, 11.838570 45.258304, 11.837703 45.254938, 11.836837 45.251572, 11.835970 45.248206, 11.835104 45.244840, 11.834238 45.241474, 11.833372 45.238108, 11.832506 45.234742, 11.831640 45.231376, 11.830774 45.228010, 11.829909 45.224644, 11.829043 45.221278, 11.828178 45.217912, 11.827312 45.214546, 11.826447 45.211180, 11.825582 45.207814, 11.824717 45.204448, 11.823852 45.201082, 11.822987 45.197716, 11.822123 45.194350, 11.821258 45.190984, 11.820393 45.187617, 11.819529 45.184251, 11.818665 45.180885, 11.817801 45.177519, 11.816936 45.174153, 11.816072 45.170787, 11.815209 45.167421, 11.814345 45.164055, 11.813481 45.160688, 11.812617 45.157322, 11.811754 45.153956, 11.810891 45.150590, 11.810027 45.147224, 11.809164 45.143858, 11.808301 45.140491, 11.807438 45.137125, 11.806575 45.133759, 11.805712 45.130393, 11.804850 45.127027, 11.803987 45.123660, 11.803125 45.120294, 11.802262 45.116928, 11.801400 45.113562, 11.800538 45.110195, 11.799676 45.106829, 11.798814 45.103463, 11.797952 45.100097, 11.797090 45.096730, 11.796229 45.093364, 11.795367 45.089998, 11.794506 45.086632, 11.793644 45.083265, 11.792783 45.079899, 11.791922 45.076533, 11.791061 45.073166, 11.790200 45.069800, 11.787978 45.066793, 11.785757 45.063785, 11.783535 45.060777, 11.781314 45.057770, 11.779093 45.054762, 11.776873 45.051755, 11.774652 45.048747, 11.772432 45.045739, 11.770212 45.042731, 11.767992 45.039723, 11.765773 45.036716, 11.763553 45.033708, 11.761334 45.030700, 11.759116 45.027692, 11.756897 45.024684, 11.754679 45.021675, 11.752461 45.018667, 11.750243 45.015659, 11.748025 45.012651, 11.745808 45.009643, 11.743591 45.006634, 11.741374 45.003626, 11.739157 45.000617, 11.736941 44.997609, 11.734724 44.994601, 11.732508 44.991592, 11.730293 44.988583, 11.728077 44.985575, 11.725862 44.982566, 11.723647 44.979557, 11.721432 44.976549, 11.719217 44.973540, 11.717003 44.970531, 11.714789 44.967522, 11.712575 44.964513, 11.710361 44.961504, 11.708148 44.958495, 11.705935 44.955486, 11.703722 44.952477, 11.701509 44.949468, 11.699296 44.946459, 11.697084 44.943450, 11.694872 44.940440, 11.692660 44.937431, 11.690449 44.934422, 11.688237 44.931412, 11.686026 44.928403, 11.683815 44.925393, 11.681605 44.922384, 11.679394 44.919374, 11.677184 44.916365, 11.674974 44.913355, 11.672764 44.910345, 11.670555 44.907336, 11.668345 44.904326, 11.666136 44.901316, 11.663928 44.898306, 11.661719 44.895296, 11.659511 44.892286, 11.657303 44.889276, 11.655095 44.886266, 11.652887 44.883256, 11.650680 44.880246, 11.648472 44.877236, 11.646265 44.874226, 11.644059 44.871215, 11.641852 44.868205, 11.639646 44.865195, 11.637440 44.862184, 11.635234 44.859174, 11.633029 44.856164, 11.630823 44.853153, 11.628618 44.850143, 11.626413 44.847132, 11.624209 44.844121, 11.622004 44.841111, 11.619800 44.838100, 11.623218 44.835669, 11.626636 44.833237, 11.630053 44.830805, 11.633471 44.828373, 11.636888 44.825942, 11.640304 44.823510, 11.643721 44.821077, 11.647137 44.818645, 11.650552 44.816213, 11.653968 44.813781, 11.657383 44.811348, 11.660798 44.808915, 11.664213 44.806483, 11.667627 44.804050, 11.671041 44.801617, 11.674455 44.799184, 11.677868 44.796751, 11.681282 44.794318, 11.684694 44.791884, 11.688107 44.789451, 11.691519 44.787017, 11.694931 44.784584, 11.698343 44.782150, 11.701755 44.779716, 11.705166 44.777282, 11.708577 44.774848, 11.711987 44.772414, 11.715398 44.769980, 11.718808 44.767546, 11.722217 44.765111, 11.725627 44.762677, 11.729036 44.760242, 11.732445 44.757807, 11.735853 44.755372, 11.739262 44.752938, 11.742670 44.750503, 11.746077 44.748067, 11.749485 44.745632, 11.752892 44.743197, 11.756299 44.740761, 11.759706 44.738326, 11.763112 44.735890, 11.766518 44.733454, 11.769924 44.731019, 11.773329 44.728583, 11.776734 44.726147, 11.780139 44.723710, 11.783544 44.721274, 11.786948 44.718838, 11.790352 44.716401, 11.793756 44.713965, 11.797159 44.711528, 11.800562 44.709091, 11.803965 44.706654, 11.807368 44.704218, 11.810770 44.701780, 11.814172 44.699343, 11.817574 44.696906, 11.820975 44.694469, 11.824376 44.692031, 11.827777 44.689594, 11.831177 44.687156, 11.834578 44.684718, 11.837978 44.682280, 11.841377 44.679842, 11.844777 44.677404, 11.848176 44.674966, 11.851575 44.672528, 11.854973 44.670089, 11.858372 44.667651, 11.861770 44.665212, 11.865167 44.662774, 11.868565 44.660335, 11.871962 44.657896, 11.875359 44.655457, 11.878755 44.653018, 11.882152 44.650579, 11.885548 44.648139, 11.888943 44.645700, 11.892339 44.643261, 11.895734 44.640821, 11.899129 44.638381, 11.902523 44.635942, 11.905917 44.633502, 11.909311 44.631062, 11.912705 44.628622, 11.916099 44.626181, 11.919492 44.623741, 11.922885 44.621301, 11.926277 44.618860, 11.929669 44.616420, 11.933061 44.613979, 11.936453 44.611538, 11.939845 44.609097, 11.943236 44.606656, 11.946626 44.604215, 11.950017 44.601774, 11.953407 44.599333, 11.956797 44.596891, 11.960187 44.594450, 11.963576 44.592008, 11.966966 44.589567, 11.970354 44.587125, 11.973743 44.584683, 11.977131 44.582241, 11.980519 44.579799, 11.983907 44.577357, 11.987294 44.574914, 11.990682 44.572472, 11.994068 44.570029, 11.997455 44.567587, 12.000841 44.565144, 12.004227 44.562701, 12.007613 44.560258, 12.010999 44.557815, 12.014384 44.555372, 12.017769 44.552929, 12.021153 44.550486, 12.024537 44.548042, 12.027921 44.545599, 12.031305 44.543155, 12.034689 44.540712, 12.038072 44.538268, 12.041455 44.535824, 12.044837 44.533380, 12.048220 44.530936, 12.051602 44.528492, 12.054983 44.526047, 12.058365 44.523603, 12.061746 44.521159, 12.065127 44.518714, 12.068508 44.516269, 12.071888 44.513824, 12.075268 44.511380, 12.078648 44.508935, 12.082027 44.506489, 12.085406 44.504044, 12.088785 44.501599, 12.092164 44.499154, 12.095542 44.496708, 12.098920 44.494263, 12.102298 44.491817, 12.105676 44.489371, 12.109053 44.486925, 12.112430 44.484479, 12.115806 44.482033, 12.119183 44.479587, 12.122559 44.477141, 12.125935 44.474694, 12.129310 44.472248, 12.132685 44.469801, 12.136060 44.467355, 12.139435 44.464908, 12.142809 44.462461, 12.146184 44.460014, 12.149557 44.457567, 12.152931 44.455120, 12.156304 44.452672, 12.159677 44.450225, 12.163050 44.447777, 12.166422 44.445330, 12.169794 44.442882, 12.173166 44.440434, 12.176538 44.437987, 12.179909 44.435539, 12.183280 44.433091, 12.186651 44.430642, 12.190021 44.428194, 12.193391 44.425746, 12.196761 44.423297, 12.200131 44.420849, 12.203500 44.418400, 12.206376 44.415665, 12.209252 44.412931, 12.212128 44.410196, 12.215004 44.407462, 12.217879 44.404727, 12.220754 44.401992, 12.223629 44.399257, 12.226503 44.396522, 12.229377 44.393787, 12.232251 44.391052, 12.235125 44.388316, 12.237998 44.385581, 12.240871 44.382846, 12.243744 44.380110, 12.246617 44.377375, 12.249489 44.374639, 12.252361 44.371903, 12.255233 44.369168, 12.258105 44.366432, 12.260976 44.363696, 12.263847 44.360960, 12.266717 44.358224, 12.269588 44.355488, 12.272458 44.352752, 12.275328 44.350015, 12.278198 44.347279, 12.281067 44.344543, 12.283936 44.341806, 12.286805 44.339070, 12.289673 44.336333, 12.292542 44.333597, 12.295410 44.330860, 12.298277 44.328123, 12.301145 44.325386, 12.304012 44.322649, 12.306879 44.319912, 12.309746 44.317175, 12.312612 44.314438, 12.315478 44.311701, 12.318344 44.308963, 12.321210 44.306226, 12.324075 44.303488, 12.326940 44.300751, 12.329805 44.298013, 12.332670 44.295276, 12.335534 44.292538, 12.338398 44.289800, 12.341262 44.287062, 12.344125 44.284324, 12.346988 44.281586, 12.349851 44.278848, 12.352714 44.276110, 12.355576 44.273372, 12.358439 44.270633, 12.361300 44.267895, 12.364162 44.265156, 12.367023 44.262418, 12.369884 44.259679, 12.372745 44.256941, 12.375606 44.254202, 12.378466 44.251463, 12.381326 44.248724, 12.384186 44.245985, 12.387045 44.243246, 12.389905 44.240507, 12.392763 44.237768, 12.395622 44.235029, 12.398481 44.232289, 12.401339 44.229550, 12.404197 44.226810, 12.407054 44.224071, 12.409912 44.221331, 12.412769 44.218592, 12.415625 44.215852, 12.418482 44.213112, 12.421338 44.210372, 12.424194 44.207632, 12.427050 44.204892, 12.429906 44.202152, 12.432761 44.199412, 12.435616 44.196672, 12.438470 44.193931, 12.441325 44.191191, 12.444179 44.188450, 12.447033 44.185710, 12.449887 44.182969, 12.452740 44.180229, 12.455593 44.177488, 12.458446 44.174747, 12.461298 44.172006, 12.464151 44.169265, 12.467003 44.166524, 12.469855 44.163783, 12.472706 44.161042, 12.475557 44.158301, 12.478408 44.155559, 12.481259 44.152818, 12.484109 44.150076, 12.486960 44.147335, 12.489810 44.144593, 12.492659 44.141852, 12.495509 44.139110, 12.498358 44.136368, 12.501207 44.133626, 12.504055 44.130884, 12.506904 44.128142, 12.509752 44.125400, 12.512599 44.122658, 12.515447 44.119916, 12.518294 44.117174, 12.521141 44.114431, 12.523988 44.111689, 12.526834 44.108946, 12.529681 44.106204, 12.532527 44.103461, 12.535372 44.100718, 12.538218 44.097975, 12.541063 44.095233, 12.543908 44.092490, 12.546752 44.089747, 12.549597 44.087004, 12.552441 44.084260, 12.555285 44.081517, 12.558128 44.078774, 12.560972 44.076031, 12.563815 44.073287, 12.566657 44.070544, 12.569500 44.067800, 12.573502 44.065925, 12.577505 44.064050, 12.581507 44.062175, 12.585508 44.060300, 12.589510 44.058425, 12.593511 44.056549, 12.597512 44.054674, 12.601512 44.052798, 12.605513 44.050922, 12.609513 44.049046, 12.613513 44.047170, 12.617512 44.045294, 12.621512 44.043417, 12.625511 44.041541, 12.629510 44.039664, 12.633508 44.037787, 12.637507 44.035910, 12.641505 44.034033, 12.645503 44.032156, 12.649500 44.030278, 12.653498 44.028401, 12.657495 44.026523, 12.661492 44.024645, 12.665488 44.022767, 12.669485 44.020889, 12.673481 44.019011, 12.677476 44.017133, 12.681472 44.015254, 12.685467 44.013375, 12.689462 44.011497, 12.693457 44.009618, 12.697452 44.007739, 12.701446 44.005859, 12.705440 44.003980, 12.709434 44.002101, 12.713428 44.000221, 12.717421 43.998341, 12.721414 43.996461, 12.725407 43.994581, 12.729399 43.992701, 12.733392 43.990821, 12.737384 43.988940, 12.741375 43.987060, 12.745367 43.985179, 12.749358 43.983298, 12.753349 43.981417, 12.757340 43.979536, 12.761331 43.977654, 12.765321 43.975773, 12.769311 43.973891, 12.773301 43.972010, 12.777290 43.970128, 12.781279 43.968246, 12.785268 43.966364, 12.789257 43.964481, 12.793246 43.962599, 12.797234 43.960716, 12.801222 43.958834, 12.805210 43.956951, 12.809197 43.955068, 12.813184 43.953185, 12.817171 43.951302, 12.821158 43.949418, 12.825144 43.947535, 12.829131 43.945651, 12.833117 43.943767, 12.837102 43.941883, 12.841088 43.939999, 12.845073 43.938115, 12.849058 43.936231, 12.853043 43.934346, 12.857027 43.932462, 12.861011 43.930577, 12.864995 43.928692, 12.868979 43.926807, 12.872963 43.924922, 12.876946 43.923036, 12.880929 43.921151, 12.884911 43.919265, 12.888894 43.917380, 12.892876 43.915494, 12.896858 43.913608, 12.900840 43.911721, 12.904821 43.909835, 12.908802 43.907949, 12.912783 43.906062, 12.916764 43.904175, 12.920744 43.902289, 12.924724 43.900402, 12.928704 43.898515, 12.932684 43.896627, 12.936663 43.894740, 12.940642 43.892852, 12.944621 43.890965, 12.948600 43.889077, 12.952578 43.887189, 12.956557 43.885301, 12.960534 43.883413, 12.964512 43.881524, 12.968490 43.879636, 12.972467 43.877747, 12.976444 43.875858, 12.980420 43.873969, 12.984397 43.872080, 12.988373 43.870191, 12.992349 43.868302, 12.996324 43.866412, 13.000300 43.864523, 13.004275 43.862633, 13.008250 43.860743, 13.012224 43.858853, 13.016199 43.856963, 13.020173 43.855073, 13.024147 43.853182, 13.028120 43.851292, 13.032093 43.849401, 13.036067 43.847510, 13.040039 43.845619, 13.044012 43.843728, 13.047984 43.841837, 13.051957 43.839945, 13.055928 43.838054, 13.059900 43.836162, 13.063871 43.834270, 13.067842 43.832378, 13.071813 43.830486, 13.075784 43.828594, 13.079754 43.826702, 13.083724 43.824809, 13.087694 43.822917, 13.091664 43.821024, 13.095633 43.819131, 13.099602 43.817238, 13.103571 43.815345, 13.107539 43.813451, 13.111508 43.811558, 13.115476 43.809664, 13.119444 43.807771, 13.123411 43.805877, 13.127379 43.803983, 13.131346 43.802089, 13.135312 43.800194, 13.139279 43.798300, 13.143245 43.796405, 13.147211 43.794511, 13.151177 43.792616, 13.155143 43.790721, 13.159108 43.788826, 13.163073 43.786931, 13.167038 43.785035, 13.171002 43.783140, 13.174967 43.781244, 13.178931 43.779348, 13.182895 43.777452, 13.186858 43.775556, 13.190821 43.773660, 13.194784 43.771764, 13.198747 43.769867, 13.202710 43.767971, 13.206672 43.766074, 13.210634 43.764177, 13.214596 43.762280, 13.218557 43.760383, 13.222519 43.758486, 13.226480 43.756588, 13.230441 43.754691, 13.234401 43.752793, 13.238361 43.750895, 13.242321 43.748997, 13.246281 43.747099, 13.250241 43.745201, 13.254200 43.743302, 13.258159 43.741404, 13.262118 43.739505, 13.266076 43.737606, 13.270035 43.735707, 13.273993 43.733808, 13.277950 43.731909, 13.281908 43.730010, 13.285865 43.728110, 13.289822 43.726211, 13.293779 43.724311, 13.297735 43.722411, 13.301692 43.720511, 13.305648 43.718611, 13.309603 43.716711, 13.313559 43.714810, 13.317514 43.712910, 13.321469 43.711009, 13.325424 43.709108, 13.329378 43.707207, 13.333333 43.705306, 13.337287 43.703405, 13.341240 43.701503, 13.345194 43.699602, 13.349147 43.697700, 13.353100 43.695798, 13.357053 43.693896, 13.361005 43.691994, 13.364958 43.690092, 13.368910 43.688190, 13.372861 43.686287, 13.376813 43.684385, 13.380764 43.682482, 13.384715 43.680579, 13.388666 43.678676, 13.392616 43.676773, 13.396567 43.674870, 13.400517 43.672966, 13.404466 43.671063, 13.408416 43.669159, 13.412365 43.667255, 13.416314 43.665351, 13.420263 43.663447, 13.424211 43.661543, 13.428160 43.659638, 13.432108 43.657734, 13.436055 43.655829, 13.440003 43.653924, 13.443950 43.652019, 13.447897 43.650114, 13.451844 43.648209, 13.455790 43.646304, 13.459736 43.644398, 13.463682 43.642493, 13.467628 43.640587, 13.471574 43.638681, 13.475519 43.636775, 13.479464 43.634869, 13.483409 43.632963, 13.487353 43.631056, 13.491297 43.629150, 13.495241 43.627243, 13.499185 43.625336, 13.503129 43.623429, 13.507072 43.621522, 13.511015 43.619615, 13.514958 43.617708, 13.518900 43.615800, 13.520831 43.612670, 13.522761 43.609540, 13.524691 43.606410, 13.526621 43.603280, 13.528551 43.600149, 13.530480 43.597019, 13.532410 43.593889, 13.534339 43.590759, 13.536268 43.587628, 13.538196 43.584498, 13.540125 43.581368, 13.542053 43.578237, 13.543981 43.575107, 13.545909 43.571976, 13.547837 43.568846, 13.549765 43.565715, 13.551692 43.562585, 13.553619 43.559454, 13.555546 43.556323, 13.557473 43.553193, 13.559399 43.550062, 13.561326 43.546931, 13.563252 43.543800, 13.565178 43.540670, 13.567103 43.537539, 13.569029 43.534408, 13.570954 43.531277, 13.572879 43.528146, 13.574804 43.525015, 13.576729 43.521884, 13.578654 43.518753, 13.580578 43.515622, 13.582502 43.512491, 13.584426 43.509360, 13.586350 43.506229, 13.588273 43.503097, 13.590197 43.499966, 13.592120 43.496835, 13.594043 43.493704, 13.595965 43.490572, 13.597888 43.487441, 13.599810 43.484310, 13.601732 43.481178, 13.603654 43.478047, 13.605576 43.474915, 13.607498 43.471784, 13.609419 43.468652, 13.611340 43.465521, 13.613261 43.462389, 13.615182 43.459257, 13.617102 43.456126, 13.619023 43.452994, 13.620943 43.449862, 13.622863 43.446730, 13.624783 43.443599, 13.626702 43.440467, 13.628622 43.437335, 13.630541 43.434203, 13.632460 43.431071, 13.634378 43.427939, 13.636297 43.424807, 13.638215 43.421675, 13.640133 43.418543, 13.642051 43.415411, 13.643969 43.412279, 13.645887 43.409147, 13.647804 43.406014, 13.649721 43.402882, 13.651638 43.399750, 13.653555 43.396618, 13.655472 43.393485, 13.657388 43.390353, 13.659304 43.387221, 13.661220 43.384088, 13.663136 43.380956, 13.665052 43.377823, 13.666967 43.374691, 13.668882 43.371558, 13.670797 43.368426, 13.672712 43.365293, 13.674626 43.362160, 13.676541 43.359028, 13.678455 43.355895, 13.680369 43.352762, 13.682283 43.349630, 13.684197 43.346497, 13.686110 43.343364, 13.688023 43.340231, 13.689936 43.337098, 13.691849 43.333965, 13.693762 43.330832, 13.695674 43.327699, 13.697586 43.324566, 13.699498 43.321433, 13.701410 43.318300, 13.703322 43.315167, 13.705233 43.312034, 13.707144 43.308901, 13.709055 43.305767, 13.710966 43.302634, 13.712877 43.299501, 13.714787 43.296368, 13.716698 43.293234, 13.718608 43.290101, 13.720518 43.286968, 13.722427 43.283834, 13.724337 43.280701, 13.726246 43.277567, 13.728155 43.274434, 13.730064 43.271300, 13.731973 43.268166, 13.733881 43.265033, 13.735789 43.261899, 13.737698 43.258766, 13.739605 43.255632, 13.741513 43.252498, 13.743421 43.249364, 13.745328 43.246230, 13.747235 43.243097, 13.749142 43.239963, 13.751049 43.236829, 13.752955 43.233695, 13.754862 43.230561, 13.756768 43.227427, 13.758674 43.224293, 13.760579 43.221159, 13.762485 43.218025, 13.764390 43.214891, 13.766295 43.211756, 13.768200 43.208622, 13.770105 43.205488, 13.772010 43.202354, 13.773914 43.199219, 13.775818 43.196085, 13.777722 43.192951, 13.779626 43.189816, 13.781530 43.186682, 13.783433 43.183548, 13.785336 43.180413, 13.787239 43.177279, 13.789142 43.174144, 13.791045 43.171009, 13.792947 43.167875, 13.794849 43.164740, 13.796751 43.161605, 13.798653 43.158471, 13.800555 43.155336, 13.802456 43.152201, 13.804357 43.149067, 13.806258 43.145932, 13.808159 43.142797, 13.810060 43.139662, 13.811960 43.136527, 13.813861 43.133392, 13.815761 43.130257, 13.817661 43.127122, 13.819560 43.123987, 13.821460 43.120852, 13.823359 43.117717, 13.825258 43.114582, 13.827157 43.111447, 13.829056 43.108311, 13.830954 43.105176, 13.832853 43.102041, 13.834751 43.098906, 13.836649 43.095770, 13.838546 43.092635, 13.840444 43.089499, 13.842341 43.086364, 13.844238 43.083229, 13.846135 43.080093, 13.848032 43.076958, 13.849929 43.073822, 13.851825 43.070686, 13.853721 43.067551, 13.855617 43.064415, 13.857513 43.061280, 13.859409 43.058144, 13.861304 43.055008, 13.863199 43.051872, 13.865094 43.048737, 13.866989 43.045601, 13.868884 43.042465, 13.870778 43.039329, 13.872673 43.036193, 13.874567 43.033057, 13.876460 43.029921, 13.878354 43.026785, 13.880248 43.023649, 13.882141 43.020513, 13.884034 43.017377, 13.885927 43.014241, 13.887820 43.011105, 13.889712 43.007968, 13.891604 43.004832, 13.893496 43.001696, 13.895388 42.998560, 13.897280 42.995423, 13.899172 42.992287, 13.901063 42.989150, 13.902954 42.986014, 13.904845 42.982878, 13.906736 42.979741, 13.908626 42.976605, 13.910517 42.973468, 13.912407 42.970331, 13.914297 42.967195, 13.916187 42.964058, 13.918076 42.960922, 13.919966 42.957785, 13.921855 42.954648, 13.923744 42.951511, 13.925633 42.948375, 13.927522 42.945238, 13.929410 42.942101, 13.931298 42.938964, 13.933186 42.935827, 13.935074 42.932690, 13.936962 42.929553, 13.938850 42.926416, 13.940737 42.923279, 13.942624 42.920142, 13.944511 42.917005, 13.946398 42.913868, 13.948284 42.910731, 13.950170 42.907593, 13.952057 42.904456, 13.953943 42.901319, 13.955828 42.898182, 13.957714 42.895044, 13.959599 42.891907, 13.961484 42.888770, 13.963369 42.885632, 13.965254 42.882495, 13.967139 42.879357, 13.969023 42.876220, 13.970908 42.873082, 13.972792 42.869945, 13.974675 42.866807, 13.976559 42.863669, 13.978443 42.860532, 13.980326 42.857394, 13.982209 42.854256, 13.984092 42.851119, 13.985975 42.847981, 13.987857 42.844843, 13.989739 42.841705, 13.991621 42.838567, 13.993503 42.835429, 13.995385 42.832291, 13.997267 42.829153, 13.999148 42.826015, 14.001029 42.822877, 14.002910 42.819739, 14.004791 42.816601, 14.006672 42.813463, 14.008552 42.810325, 14.010432 42.807187, 14.012312 42.804049, 14.014192 42.800910, 14.016072 42.797772, 14.017951 42.794634, 14.019830 42.791495, 14.021710 42.788357, 14.023588 42.785219, 14.025467 42.782080, 14.027346 42.778942, 14.029224 42.775803, 14.031102 42.772665, 14.032980 42.769526, 14.034858 42.766388, 14.036735 42.763249, 14.038613 42.760110, 14.040490 42.756972, 14.042367 42.753833, 14.044244 42.750694, 14.046120 42.747555, 14.047997 42.744417, 14.049873 42.741278, 14.051749 42.738139, 14.053625 42.735000, 14.055500 42.731861, 14.057376 42.728722, 14.059251 42.725583, 14.061126 42.722444, 14.063001 42.719305, 14.064876 42.716166, 14.066750 42.713027, 14.068625 42.709888, 14.070499 42.706749, 14.072373 42.703609, 14.074246 42.700470, 14.076120 42.697331, 14.077993 42.694192, 14.079866 42.691052, 14.081739 42.687913, 14.083612 42.684774, 14.085485 42.681634, 14.087357 42.678495, 14.089230 42.675355, 14.091102 42.672216, 14.092973 42.669076, 14.094845 42.665937, 14.096717 42.662797, 14.098588 42.659657, 14.100459 42.656518, 14.102330 42.653378, 14.104201 42.650238, 14.106071 42.647099, 14.107942 42.643959, 14.109812 42.640819, 14.111682 42.637679, 14.113551 42.634539, 14.115421 42.631399, 14.117290 42.628260, 14.119160 42.625120, 14.121029 42.621980, 14.122898 42.618840, 14.124766 42.615700, 14.126635 42.612559, 14.128503 42.609419, 14.130371 42.606279, 14.132239 42.603139, 14.134107 42.599999, 14.135974 42.596859, 14.137841 42.593718, 14.139709 42.590578, 14.141576 42.587438, 14.143442 42.584297, 14.145309 42.581157, 14.147175 42.578017, 14.149042 42.574876, 14.150908 42.571736, 14.152773 42.568595, 14.154639 42.565455, 14.156504 42.562314, 14.158370 42.559173, 14.160235 42.556033, 14.162100 42.552892, 14.163964 42.549751, 14.165829 42.546611, 14.167693 42.543470, 14.169557 42.540329, 14.171421 42.537188, 14.173285 42.534048, 14.175149 42.530907, 14.177012 42.527766, 14.178875 42.524625, 14.180738 42.521484, 14.182601 42.518343, 14.184464 42.515202, 14.186326 42.512061, 14.188188 42.508920, 14.190051 42.505779, 14.191912 42.502638, 14.193774 42.499496, 14.195636 42.496355, 14.197497 42.493214, 14.199358 42.490073, 14.201219 42.486931, 14.203080 42.483790, 14.204940 42.480649, 14.206801 42.477507, 14.208661 42.474366, 14.210521 42.471225, 14.212381 42.468083, 14.214241 42.464942, 14.216100 42.461800, 14.211530 42.461190, 14.206960 42.460581, 14.202390 42.459971, 14.197820 42.459361, 14.193251 42.458750, 14.188681 42.458140, 14.184112 42.457529, 14.179542 42.456918, 14.174973 42.456307, 14.170403 42.455696, 14.165834 42.455085, 14.161265 42.454473, 14.156696 42.453861, 14.152127 42.453249, 14.147559 42.452637, 14.142990 42.452025, 14.138421 42.451412, 14.133853 42.450800, 14.129284 42.450187, 14.124716 42.449574, 14.120148 42.448961, 14.115579 42.448347, 14.111011 42.447734, 14.106443 42.447120, 14.101875 42.446506, 14.097308 42.445892, 14.092740 42.445278, 14.088172 42.444663, 14.083605 42.444048, 14.079037 42.443434, 14.074470 42.442819, 14.069903 42.442203, 14.065335 42.441588, 14.060768 42.440972, 14.056201 42.440357, 14.051634 42.439741, 14.047068 42.439125, 14.042501 42.438508, 14.037934 42.437892, 14.033368 42.437275, 14.028801 42.436658, 14.024235 42.436041, 14.019668 42.435424, 14.015102 42.434807, 14.010536 42.434189, 14.005970 42.433572, 14.001404 42.432954, 13.996838 42.432335, 13.992273 42.431717, 13.987707 42.431099, 13.983141 42.430480, 13.978576 42.429861, 13.974010 42.429242, 13.969445 42.428623, 13.964880 42.428004, 13.960315 42.427384, 13.955750 42.426764, 13.951185 42.426144, 13.946620 42.425524, 13.942055 42.424904, 13.937491 42.424284, 13.932926 42.423663, 13.928361 42.423042, 13.923797 42.422421, 13.919233 42.421800, 13.914669 42.421179, 13.910104 42.420557, 13.905540 42.419935, 13.900976 42.419313, 13.896413 42.418691, 13.891849 42.418069, 13.887285 42.417447, 13.882722 42.416824, 13.878158 42.416201, 13.873595 42.415578, 13.869031 42.414955, 13.864468 42.414332, 13.859905 42.413708, 13.855342 42.413084, 13.850779 42.412460, 13.846216 42.411836, 13.841653 42.411212, 13.837091 42.410588, 13.832528 42.409963, 13.827966 42.409338, 13.823403 42.408713, 13.818841 42.408088, 13.814279 42.407463, 13.809717 42.406837, 13.805155 42.406212, 13.800593 42.405586, 13.796031 42.404960, 13.791469 42.404333, 13.786907 42.403707, 13.782346 42.403080, 13.777784 42.402454, 13.773223 42.401827, 13.768661 42.401199, 13.764100 42.400572, 13.759539 42.399945, 13.754978 42.399317, 13.750417 42.398689, 13.745856 42.398061, 13.741296 42.397433, 13.736735 42.396804, 13.732174 42.396176, 13.727614 42.395547, 13.723053 42.394918, 13.718493 42.394289, 13.713933 42.393659, 13.709373 42.393030, 13.704813 42.392400, 13.700253 42.391770, 13.695693 42.391140, 13.691133 42.390510, 13.686573 42.389880, 13.682014 42.389249, 13.677454 42.388618, 13.672895 42.387987, 13.668336 42.387356, 13.663776 42.386725, 13.659217 42.386093, 13.654658 42.385462, 13.650099 42.384830, 13.645541 42.384198, 13.640982 42.383566, 13.636423 42.382933, 13.631865 42.382301, 13.627306 42.381668, 13.622748 42.381035, 13.618189 42.380402, 13.613631 42.379769, 13.609073 42.379135, 13.604515 42.378501, 13.599957 42.377868, 13.595399 42.377234, 13.590842 42.376599, 13.586284 42.375965, 13.581726 42.375330, 13.577169 42.374696, 13.572612 42.374061, 13.568054 42.373426, 13.563497 42.372790, 13.558940 42.372155, 13.554383 42.371519, 13.549826 42.370883, 13.545269 42.370247, 13.540713 42.369611, 13.536156 42.368975, 13.531599 42.368338, 13.527043 42.367702, 13.522487 42.367065, 13.517930 42.366428, 13.513374 42.365790, 13.508818 42.365153, 13.504262 42.364515, 13.499706 42.363877, 13.495150 42.363239, 13.490595 42.362601, 13.486039 42.361963, 13.481484 42.361324, 13.476928 42.360686, 13.472373 42.360047, 13.467818 42.359408, 13.463262 42.358768, 13.458707 42.358129, 13.454152 42.357489, 13.449597 42.356850, 13.445043 42.356210, 13.440488 42.355569, 13.435933 42.354929, 13.431379 42.354289, 13.426825 42.353648, 13.422270 42.353007, 13.417716 42.352366, 13.413162 42.351725, 13.408608 42.351083, 13.404054 42.350442, 13.399500 42.349800, 13.394904 42.350274, 13.390308 42.350748, 13.385712 42.351222, 13.381116 42.351696, 13.376519 42.352170, 13.371923 42.352643, 13.367327 42.353116, 13.362730 42.353589, 13.358134 42.354062, 13.353537 42.354535, 13.348940 42.355007, 13.344343 42.355480, 13.339747 42.355952, 13.335150 42.356424, 13.330553 42.356895, 13.325956 42.357367, 13.321359 42.357838, 13.316761 42.358309, 13.312164 42.358780, 13.307567 42.359251, 13.302969 42.359722, 13.298372 42.360192, 13.293775 42.360663, 13.289177 42.361133, 13.284579 42.361603, 13.279982 42.362072, 13.275384 42.362542, 13.270786 42.363011, 13.266188 42.363480, 13.261590 42.363949, 13.256992 42.364418, 13.252394 42.364887, 13.247796 42.365355, 13.243197 42.365824, 13.238599 42.366292, 13.234001 42.366759, 13.229402 42.367227, 13.224803 42.367695, 13.220205 42.368162, 13.215606 42.368629, 13.211007 42.369096, 13.206409 42.369563, 13.201810 42.370030, 13.197211 42.370496, 13.192612 42.370962, 13.188013 42.371428, 13.183413 42.371894, 13.178814 42.372360, 13.174215 42.372825, 13.169616 42.373291, 13.165016 42.373756, 13.160417 42.374221, 13.155817 42.374685, 13.151217 42.375150, 13.146618 42.375614, 13.142018 42.376079, 13.137418 42.376543, 13.132818 42.377006, 13.128218 42.377470, 13.123618 42.377934, 13.119018 42.378397, 13.114418 42.378860, 13.109818 42.379323, 13.105217 42.379786, 13.100617 42.380248, 13.096016 42.380710, 13.091416 42.381173, 13.086815 42.381635, 13.082215 42.382096, 13.077614 42.382558, 13.073013 42.383020, 13.068412 42.383481, 13.063811 42.383942, 13.059210 42.384403, 13.054609 42.384864, 13.050008 42.385324, 13.045407 42.385784, 13.040806 42.386245, 13.036204 42.386705, 13.031603 42.387164, 13.027001 42.387624, 13.022400 42.388083, 13.017798 42.388543, 13.013197 42.389002, 13.008595 42.389461, 13.003993 42.389919, 12.999391 42.390378, 12.994789 42.390836, 12.990187 42.391294, 12.985585 42.391752, 12.980983 42.392210, 12.976381 42.392667, 12.971779 42.393125, 12.967176 42.393582, 12.962574 42.394039, 12.957971 42.394496, 12.953369 42.394953, 12.948766 42.395409, 12.944164 42.395865, 12.939561 42.396321, 12.934958 42.396777, 12.930355 42.397233, 12.925752 42.397689, 12.921149 42.398144, 12.916546 42.398599, 12.911943 42.399054, 12.907340 42.399509, 12.902736 42.399964, 12.898133 42.400418, 12.893530 42.400872, 12.888926 42.401327, 12.884323 42.401780, 12.879719 42.402234, 12.875115 42.402688, 12.870512 42.403141, 12.865908 42.403594, 12.861304 42.404047, 12.856700 42.404500, 12.854512 42.401481, 12.852325 42.398462, 12.850138 42.395443, 12.847951 42.392424, 12.845764 42.389405, 12.843577 42.386386, 12.841391 42.383367, 12.839205 42.380348, 12.837019 42.377328, 12.834833 42.374309, 12.832647 42.371290, 12.830462 42.368271, 12.828277 42.365251, 12.826092 42.362232, 12.823907 42.359212, 12.821722 42.356193, 12.819538 42.353173, 12.817354 42.350154, 12.815170 42.347134, 12.812987 42.344114, 12.810803 42.341094, 12.808620 42.338075, 12.806437 42.335055, 12.804254 42.332035, 12.802071 42.329015, 12.799889 42.325995, 12.797707 42.322975, 12.795525 42.319955, 12.793343 42.316935, 12.791161 42.313915, 12.788980 42.310895, 12.786799 42.307875, 12.784618 42.304855, 12.782437 42.301834, 12.780256 42.298814, 12.778076 42.295794, 12.775896 42.292773, 12.773716 42.289753, 12.771536 42.286732, 12.769357 42.283712, 12.767178 42.280691, 12.764999 42.277671, 12.762820 42.274650, 12.760641 42.271629, 12.758463 42.268609, 12.756284 42.265588, 12.754106 42.262567, 12.751929 42.259546, 12.749751 42.256525, 12.747574 42.253504, 12.745396 42.250483, 12.743219 42.247462, 12.741043 42.244441, 12.738866 42.241420, 12.736690 42.238399, 12.734513 42.235378, 12.732338 42.232357, 12.730162 42.229336, 12.727986 42.226314, 12.725811 42.223293, 12.723636 42.220272, 12.721461 42.217250, 12.719286 42.214229, 12.717112 42.211207, 12.714937 42.208186, 12.712763 42.205164, 12.710590 42.202142, 12.708416 42.199121, 12.706242 42.196099, 12.704069 42.193077, 12.701896 42.190056, 12.699723 42.187034, 12.697551 42.184012, 12.695378 42.180990, 12.693206 42.177968, 12.691034 42.174946, 12.688862 42.171924, 12.686691 42.168902, 12.684519 42.165880, 12.682348 42.162858, 12.680177 42.159835, 12.678007 42.156813, 12.675836 42.153791, 12.673666 42.150769, 12.671496 42.147746, 12.669326 42.144724, 12.667156 42.141701, 12.664986 42.138679, 12.662817 42.135656, 12.660648 42.132634, 12.658479 42.129611, 12.656310 42.126589, 12.654142 42.123566, 12.651974 42.120543, 12.649806 42.117520, 12.647638 42.114498, 12.645470 42.111475, 12.643303 42.108452, 12.641135 42.105429, 12.638968 42.102406, 12.636802 42.099383, 12.634635 42.096360, 12.632469 42.093337, 12.630302 42.090314, 12.628136 42.087290, 12.625971 42.084267, 12.623805 42.081244, 12.621640 42.078221, 12.619475 42.075197, 12.617310 42.072174, 12.615145 42.069151, 12.612980 42.066127, 12.610816 42.063104, 12.608652 42.060080, 12.606488 42.057056, 12.604324 42.054033, 12.602161 42.051009, 12.599997 42.047985, 12.597834 42.044962, 12.595671 42.041938, 12.593509 42.038914, 12.591346 42.035890, 12.589184 42.032866, 12.587022 42.029842, 12.584860 42.026818, 12.582698 42.023794, 12.580537 42.020770, 12.578376 42.017746, 12.576215 42.014722, 12.574054 42.011698, 12.571893 42.008674, 12.569733 42.005649, 12.567572 42.002625, 12.565412 41.999601, 12.563253 41.996576, 12.561093 41.993552, 12.558934 41.990527, 12.556774 41.987503, 12.554615 41.984478, 12.552457 41.981454, 12.550298 41.978429, 12.548140 41.975404, 12.545981 41.972380, 12.543824 41.969355, 12.541666 41.966330, 12.539508 41.963305, 12.537351 41.960280, 12.535194 41.957255, 12.533037 41.954230, 12.530880 41.951205, 12.528723 41.948180, 12.526567 41.945155, 12.524411 41.942130, 12.522255 41.939105, 12.520099 41.936080, 12.517944 41.933055, 12.515789 41.930029, 12.513633 41.927004, 12.511479 41.923979, 12.509324 41.920953, 12.507169 41.917928, 12.505015 41.914902, 12.502861 41.911877, 12.500707 41.908851, 12.498553 41.905826, 12.496400 41.902800, 12.494142 41.905793, 12.491884 41.908786, 12.489626 41.911778, 12.487367 41.914771, 12.485109 41.917763, 12.482850 41.920756, 12.480590 41.923749, 12.478331 41.926741, 12.476072 41.929733, 12.473812 41.932726, 12.471552 41.935718, 12.469292 41.938710, 12.467031 41.941703, 12.464771 41.944695, 12.462510 41.947687, 12.460249 41.950679, 12.457987 41.953671, 12.455726 41.956663, 12.453464 41.959655, 12.451202 41.962647, 12.448940 41.965639, 12.446678 41.968631, 12.444415 41.971623, 12.442153 41.974614, 12.439890 41.977606, 12.437626 41.980598, 12.435363 41.983589, 12.433099 41.986581, 12.430836 41.989573, 12.428572 41.992564, 12.426307 41.995556, 12.424043 41.998547, 12.421778 42.001538, 12.419513 42.004530, 12.417248 42.007521, 12.414983 42.010512, 12.412717 42.013503, 12.410452 42.016494, 12.408186 42.019486, 12.405920 42.022477, 12.403653 42.025468, 12.401387 42.028459, 12.399120 42.031449, 12.396853 42.034440, 12.394586 42.037431, 12.392318 42.040422, 12.390051 42.043413, 12.387783 42.046403, 12.385515 42.049394, 12.383246 42.052385, 12.380978 42.055375, 12.378709 42.058366, 12.376440 42.061356, 12.374171 42.064347, 12.371902 42.067337, 12.369632 42.070327, 12.367362 42.073318, 12.365092 42.076308, 12.362822 42.079298, 12.360552 42.082288, 12.358281 42.085278, 12.356010 42.088268, 12.353739 42.091258, 12.351468 42.094248, 12.349196 42.097238, 12.346925 42.100228, 12.344653 42.103218, 12.342380 42.106208, 12.340108 42.109197, 12.337836 42.112187, 12.335563 42.115177, 12.333290 42.118166, 12.331017 42.121156, 12.328743 42.124146, 12.326469 42.127135, 12.324196 42.130124, 12.321922 42.133114, 12.319647 42.136103, 12.317373 42.139093, 12.315098 42.142082, 12.312823 42.145071, 12.310548 42.148060, 12.308273 42.151049, 12.305997 42.154038, 12.303721 42.157027, 12.301445 42.160016, 12.299169 42.163005, 12.296893 42.165994, 12.294616 42.168983, 12.292339 42.171972, 12.290062 42.174961, 12.287785 42.177949, 12.285507 42.180938, 12.283229 42.183927, 12.280951 42.186915, 12.278673 42.189904, 12.276395 42.192892, 12.274116 42.195881, 12.271838 42.198869, 12.269559 42.201857, 12.267279 42.204846, 12.265000 42.207834, 12.262720 42.210822, 12.260440 42.213810, 12.258160 42.216799, 12.255880 42.219787, 12.253599 42.222775, 12.251319 42.225763, 12.249038 42.228751, 12.246756 42.231739, 12.244475 42.234726, 12.242193 42.237714, 12.239912 42.240702, 12.237630 42.243690, 12.235347 42.246677, 12.233065 42.249665, 12.230782 42.252653, 12.228499 42.255640, 12.226216 42.258628, 12.223933 42.261615, 12.221649 42.264603, 12.219365 42.267590, 12.217081 42.270577, 12.214797 42.273564, 12.212513 42.276552, 12.210228 42.279539, 12.207943 42.282526, 12.205658 42.285513, 12.203373 42.288500, 12.201087 42.291487, 12.198802 42.294474, 12.196516 42.297461, 12.194230 42.300448, 12.191943 42.303435, 12.189657 42.306421, 12.187370 42.309408, 12.185083 42.312395, 12.182796 42.315381, 12.180508 42.318368, 12.178220 42.321355, 12.175933 42.324341, 12.173644 42.327328, 12.171356 42.330314, 12.169068 42.333300, 12.166779 42.336287, 12.164490 42.339273, 12.162201 42.342259, 12.159911 42.345245, 12.157622 42.348231, 12.155332 42.351218, 12.153042 42.354204, 12.150751 42.357190, 12.148461 42.360176, 12.146170 42.363161, 12.143879 42.366147, 12.141588 42.369133, 12.139297 42.372119, 12.137005 42.375105, 12.134713 42.378090, 12.132421 42.381076, 12.130129 42.384062, 12.127837 42.387047, 12.125544 42.390033, 12.123251 42.393018, 12.120958 42.396003, 12.118665 42.398989, 12.116371 42.401974, 12.114077 42.404959, 12.111783 42.407945, 12.109489 42.410930, 12.107195 42.413915, 12.104900 42.416900, 12.102775 42.419954, 12.100650 42.423008, 12.098524 42.426062, 12.096398 42.429116, 12.094272 42.432170, 12.092146 42.435224, 12.090020 42.438278, 12.087893 42.441331, 12.085767 42.444385, 12.083640 42.447439, 12.081513 42.450492, 12.079385 42.453546, 12.077258 42.456600, 12.075130 42.459653, 12.073002 42.462707, 12.070874 42.465760, 12.068745 42.468814, 12.066617 42.471867, 12.064488 42.474920, 12.062359 42.477974, 12.060230 42.481027, 12.058100 42.484080, 12.055970 42.487133, 12.053841 42.490186, 12.051710 42.493239, 12.049580 42.496293, 12.047450 42.499346, 12.045319 42.502399, 12.043188 42.505451, 12.041057 42.508504, 12.038926 42.511557, 12.036794 42.514610, 12.034662 42.517663, 12.032530 42.520716, 12.030398 42.523768, 12.028266 42.526821, 12.026133 42.529874, 12.024001 42.532926, 12.021868 42.535979, 12.019734 42.539031, 12.017601 42.542084, 12.015467 42.545136, 12.013334 42.548189, 12.011200 42.551241, 12.009065 42.554293, 12.006931 42.557346, 12.004796 42.560398, 12.002661 42.563450, 12.000526 42.566502, 11.998391 42.569554, 11.996256 42.572606, 11.994120 42.575658, 11.991984 42.578710, 11.989848 42.581762, 11.987711 42.584814, 11.985575 42.587866, 11.983438 42.590918, 11.981301 42.593970, 11.979164 42.597022, 11.977027 42.600073, 11.974889 42.603125, 11.972751 42.606177, 11.970613 42.609228, 11.968475 42.612280, 11.966337 42.615331, 11.964198 42.618383, 11.962059 42.621434, 11.959920 42.624486, 11.957781 42.627537, 11.955641 42.630588, 11.953502 42.633640, 11.951362 42.636691, 11.949222 42.639742, 11.947081 42.642793, 11.944941 42.645844, 11.942800 42.648895, 11.940659 42.651946, 11.938518 42.654997, 11.936377 42.658048, 11.934235 42.661099, 11.932093 42.664150, 11.929951 42.667201, 11.927809 42.670252, 11.925667 42.673303, 11.923524 42.676353, 11.921381 42.679404, 11.919238 42.682455, 11.917095 42.685505, 11.914952 42.688556, 11.912808 42.691606, 11.910664 42.694657, 11.908520 42.697707, 11.906376 42.700758, 11.904231 42.703808, 11.902086 42.706858, 11.899941 42.709909, 11.897796 42.712959, 11.895651 42.716009, 11.893505 42.719059, 11.891360 42.722109, 11.889214 42.725159, 11.887067 42.728210, 11.884921 42.731260, 11.882774 42.734309, 11.880627 42.737359, 11.878480 42.740409, 11.876333 42.743459, 11.874186 42.746509, 11.872038 42.749559, 11.869890 42.752608, 11.867742 42.755658, 11.865594 42.758708, 11.863445 42.761757, 11.861296 42.764807, 11.859147 42.767856, 11.856998 42.770906, 11.854849 42.773955, 11.852699 42.777005, 11.850550 42.780054, 11.848400 42.783103, 11.846249 42.786153, 11.844099 42.789202, 11.841948 42.792251, 11.839797 42.795300, 11.837646 42.798349, 11.835495 42.801399, 11.833344 42.804448, 11.831192 42.807497, 11.829040 42.810546, 11.826888 42.813594, 11.824735 42.816643, 11.822583 42.819692, 11.820430 42.822741, 11.818277 42.825790, 11.816124 42.828838, 11.813971 42.831887, 11.811817 42.834936, 11.809663 42.837984, 11.807509 42.841033, 11.805355 42.844081, 11.803200 42.847130, 11.801046 42.850178, 11.798891 42.853227, 11.796736 42.856275, 11.794580 42.859323, 11.792425 42.862372, 11.790269 42.865420, 11.788113 42.868468, 11.785957 42.871516, 11.783801 42.874564, 11.781644 42.877612, 11.779487 42.880660, 11.777330 42.883708, 11.775173 42.886756, 11.773016 42.889804, 11.770858 42.892852, 11.768700 42.895900, 11.765894 42.898634, 11.763088 42.901367, 11.760282 42.904101, 11.757475 42.906834, 11.754668 42.909568, 11.751861 42.912301, 11.749054 42.915035, 11.746246 42.917768, 11.743438 42.920501, 11.740630 42.923234, 11.737822 42.925967, 11.735013 42.928700, 11.732205 42.931433, 11.729395 42.934166, 11.726586 42.936899, 11.723777 42.939631, 11.720967 42.942364, 11.718157 42.945096, 11.715346 42.947829, 11.712536 42.950561, 11.709725 42.953294, 11.706914 42.956026, 11.704103 42.958758, 11.701291 42.961490, 11.698479 42.964222, 11.695667 42.966954, 11.692855 42.969686, 11.690042 42.972418, 11.687229 42.975150, 11.684416 42.977882, 11.681603 42.980613, 11.678789 42.983345, 11.675975 42.986076, 11.673161 42.988808, 11.670347 42.991539, 11.667532 42.994270, 11.664718 42.997002, 11.661903 42.999733, 11.659087 43.002464, 11.656272 43.005195, 11.653456 43.007926, 11.650640 43.010657, 11.647823 43.013388, 11.645007 43.016118, 11.642190 43.018849, 11.639373 43.021580, 11.636556 43.024310, 11.633738 43.027041, 11.630920 43.029771, 11.628102 43.032501, 11.625284 43.035232, 11.622465 43.037962, 11.619646 43.040692, 11.616827 43.043422, 11.614008 43.046152, 11.611188 43.048882, 11.608368 43.051612, 11.605548 43.054342, 11.602728 43.057071, 11.599907 43.059801, 11.597087 43.062531, 11.594265 43.065260, 11.591444 43.067990, 11.588623 43.070719, 11.585801 43.073448, 11.582979 43.076178, 11.580156 43.078907, 11.577334 43.081636, 11.574511 43.084365, 11.571688 43.087094, 11.568864 43.089823, 11.566041 43.092551, 11.563217 43.095280, 11.560393 43.098009, 11.557568 43.100737, 11.554744 43.103466, 11.551919 43.106195, 11.549094 43.108923, 11.546268 43.111651, 11.543443 43.114379, 11.540617 43.117108, 11.537791 43.119836, 11.534964 43.122564, 11.532138 43.125292, 11.529311 43.128020, 11.526484 43.130748, 11.523656 43.133475, 11.520829 43.136203, 11.518001 43.138931, 11.515173 43.141658, 11.512344 43.144386, 11.509516 43.147113, 11.506687 43.149841, 11.503858 43.152568, 11.501028 43.155295, 11.498198 43.158022, 11.495369 43.160749, 11.492538 43.163476, 11.489708 43.166203, 11.486877 43.168930, 11.484046 43.171657, 11.481215 43.174384, 11.478384 43.177110, 11.475552 43.179837, 11.472720 43.182563, 11.469888 43.185290, 11.467056 43.188016, 11.464223 43.190743, 11.461390 43.193469, 11.458557 43.196195, 11.455723 43.198921, 11.452890 43.201647, 11.450056 43.204373, 11.447221 43.207099, 11.444387 43.209825, 11.441552 43.212550, 11.438717 43.215276, 11.435882 43.218002, 11.433046 43.220727, 11.430211 43.223453, 11.427375 43.226178, 11.424539 43.228904, 11.421702 43.231629, 11.418865 43.234354, 11.416028 43.237079, 11.413191 43.239804, 11.410353 43.242529, 11.407516 43.245254, 11.404678 43.247979, 11.401839 43.250704, 11.399001 43.253428, 11.396162 43.256153, 11.393323 43.258878, 11.390484 43.261602, 11.387644 43.264326, 11.384804 43.267051, 11.381964 43.269775, 11.379124 43.272499, 11.376284 43.275223, 11.373443 43.277947, 11.370602 43.280671, 11.367760 43.283395, 11.364919 43.286119, 11.362077 43.288843, 11.359235 43.291567, 11.356393 43.294290, 11.353550 43.297014, 11.350707 43.299737, 11.347864 43.302461, 11.345021 43.305184, 11.342177 43.307908, 11.339333 43.310631, 11.336489 43.313354, 11.333645 43.316077, 11.330800 43.318800, 11.330240 43.322190, 11.329680 43.325579, 11.329121 43.328969, 11.328561 43.332359, 11.328001 43.335748, 11.327441 43.339138, 11.326880 43.342528, 11.326320 43.345917, 11.325760 43.349307, 11.325200 43.352696, 11.324639 43.356086, 11.324079 43.359476, 11.323518 43.362865, 11.322958 43.366255, 11.322397 43.369645, 11.321837 43.373034, 11.321276 43.376424, 11.320715 43.379813, 11.320154 43.383203, 11.319593 43.386593, 11.319032 43.389982, 11.318471 43.393372, 11.317910 43.396761, 11.317349 43.400151, 11.316788 43.403541, 11.316226 43.406930, 11.315665 43.410320, 11.315103 43.413709, 11.314542 43.417099, 11.313980 43.420488, 11.313419 43.423878, 11.312857 43.427268, 11.312295 43.430657, 11.311734 43.434047, 11.311172 43.437436, 11.310610 43.440826, 11.310048 43.444215, 11.309486 43.447605, 11.308924 43.450995, 11.308361 43.454384, 11.307799 43.457774, 11.307237 43.461163, 11.306674 43.464553, 11.306112 43.467942, 11.305549 43.471332, 11.304987 43.474721, 11.304424 43.478111, 11.303862 43.481500, 11.303299 43.484890, 11.302736 43.488279, 11.302173 43.491669, 11.301610 43.495058, 11.301047 43.498448, 11.300484 43.501837, 11.299921 43.505227, 11.299358 43.508616, 11.298794 43.512006, 11.298231 43.515395, 11.297668 43.518785, 11.297104 43.522174, 11.296541 43.525564, 11.295977 43.528953, 11.295413 43.532343, 11.294850 43.535732, 11.294286 43.539122, 11.293722 43.542511, 11.293158 43.545901, 11.292594 43.549290, 11.292030 43.552680, 11.291466 43.556069, 11.290902 43.559459, 11.290338 43.562848, 11.289774 43.566238, 11.289209 43.569627, 11.288645 43.573017, 11.288080 43.576406, 11.287516 43.579795, 11.286951 43.583185, 11.286387 43.586574, 11.285822 43.589964, 11.285257 43.593353, 11.284692 43.596743, 11.284127 43.600132, 11.283562 43.603522, 11.282997 43.606911, 11.282432 43.610300, 11.281867 43.613690, 11.281302 43.617079, 11.280736 43.620469, 11.280171 43.623858, 11.279606 43.627247, 11.279040 43.630637, 11.278475 43.634026, 11.277909 43.637416, 11.277343 43.640805, 11.276778 43.644194, 11.276212 43.647584, 11.275646 43.650973, 11.275080 43.654363, 11.274514 43.657752, 11.273948 43.661141, 11.273382 43.664531, 11.272816 43.667920, 11.272249 43.671309, 11.271683 43.674699, 11.271117 43.678088, 11.270550 43.681478, 11.269984 43.684867, 11.269417 43.688256, 11.268850 43.691646, 11.268284 43.695035, 11.267717 43.698424, 11.267150 43.701814, 11.266583 43.705203, 11.266016 43.708592, 11.265449 43.711982, 11.264882 43.715371, 11.264315 43.718760, 11.263748 43.722150, 11.263180 43.725539, 11.262613 43.728928, 11.262046 43.732318, 11.261478 43.735707, 11.260911 43.739096, 11.260343 43.742486, 11.259775 43.745875, 11.259208 43.749264, 11.258640 43.752654, 11.258072 43.756043, 11.257504 43.759432, 11.256936 43.762821, 11.256368 43.766211, 11.255800 43.769600, 11.255993 43.773030, 11.256185 43.776460, 11.256378 43.779889, 11.256570 43.783319, 11.256763 43.786749, 11.256956 43.790179, 11.257149 43.793609, 11.257341 43.797038, 11.257534 43.800468, 11.257727 43.803898, 11.257920 43.807328, 11.258112 43.810758, 11.258305 43.814187, 11.258498 43.817617, 11.258691 43.821047, 11.258884 43.824477, 11.259077 43.827907, 11.259270 43.831336, 11.259463 43.834766, 11.259656 43.838196, 11.259849 43.841626, 11.260042 43.845056, 11.260235 43.848485, 11.260428 43.851915, 11.260621 43.855345, 11.260814 43.858775, 11.261007 43.862205, 11.261201 43.865634, 11.261394 43.869064, 11.261587 43.872494, 11.261780 43.875924, 11.261974 43.879354, 11.262167 43.882783, 11.262360 43.886213, 11.262554 43.889643, 11.262747 43.893073, 11.262940 43.896502, 11.263134 43.899932, 11.263327 43.903362, 11.263521 43.906792, 11.263714 43.910222, 11.263908 43.913651, 11.264101 43.917081, 11.264295 43.920511, 11.264488 43.923941, 11.264682 43.927371, 11.264875 43.930800, 11.265069 43.934230, 11.265263 43.937660, 11.265456 43.941090, 11.265650 43.944520, 11.265844 43.947949, 11.266037 43.951379, 11.266231 43.954809, 11.266425 43.958239, 11.266619 43.961668, 11.266813 43.965098, 11.267006 43.968528, 11.267200 43.971958, 11.267394 43.975388, 11.267588 43.978817, 11.267782 43.982247, 11.267976 43.985677, 11.268170 43.989107, 11.268364 43.992536, 11.268558 43.995966, 11.268752 43.999396, 11.268946 44.002826, 11.269140 44.006256, 11.269334 44.009685, 11.269529 44.013115, 11.269723 44.016545, 11.269917 44.019975, 11.270111 44.023404, 11.270305 44.026834, 11.270500 44.030264, 11.270694 44.033694, 11.270888 44.037124, 11.271082 44.040553, 11.271277 44.043983, 11.271471 44.047413, 11.271666 44.050843, 11.271860 44.054272, 11.272054 44.057702, 11.272249 44.061132, 11.272443 44.064562, 11.272638 44.067992, 11.272832 44.071421, 11.273027 44.074851, 11.273221 44.078281, 11.273416 44.081711, 11.273611 44.085140, 11.273805 44.088570, 11.274000 44.092000, 11.275840 44.095101, 11.277679 44.098201, 11.279519 44.101301, 11.281359 44.104402, 11.283200 44.107502, 11.285040 44.110603, 11.286881 44.113703, 11.288722 44.116803, 11.290563 44.119903, 11.292404 44.123004, 11.294246 44.126104, 11.296088 44.129204, 11.297929 44.132304, 11.299772 44.135404, 11.301614 44.138504, 11.303456 44.141605, 11.305299 44.144705, 11.307142 44.147805, 11.308985 44.150905, 11.310828 44.154004, 11.312672 44.157104, 11.314515 44.160204, 11.316359 44.163304, 11.318203 44.166404, 11.320047 44.169504, 11.321892 44.172603, 11.323736 44.175703, 11.325581 44.178803, 11.327426 44.181903, 11.329271 44.185002, 11.331117 44.188102, 11.332962 44.191201, 11.334808 44.194301, 11.336654 44.197401, 11.338500 44.200500, 11.338547 44.203923, 11.338595 44.207347, 11.338642 44.210770, 11.338690 44.214193, 11.338737 44.217616, 11.338785 44.221040, 11.338832 44.224463, 11.338880 44.227886, 11.338927 44.231309, 11.338975 44.234733, 11.339022 44.238156, 11.339070 44.241579, 11.339117 44.245002, 11.339165 44.248426, 11.339212 44.251849, 11.339260 44.255272, 11.339307 44.258695, 11.339355 44.262119, 11.339402 44.265542, 11.339450 44.268965, 11.339497 44.272388, 11.339545 44.275812, 11.339592 44.279235, 11.339640 44.282658, 11.339688 44.286081, 11.339735 44.289505, 11.339783 44.292928, 11.339830 44.296351, 11.339878 44.299774, 11.339926 44.303198, 11.339973 44.306621, 11.340021 44.310044, 11.340068 44.313467, 11.340116 44.316891, 11.340164 44.320314, 11.340211 44.323737, 11.340259 44.327160, 11.340307 44.330584, 11.340354 44.334007, 11.340402 44.337430, 11.340450 44.340854, 11.340497 44.344277, 11.340545 44.347700, 11.340593 44.351123, 11.340640 44.354547, 11.340688 44.357970, 11.340736 44.361393, 11.340783 44.364816, 11.340831 44.368240, 11.340879 44.371663, 11.340926 44.375086, 11.340974 44.378509, 11.341022 44.381933, 11.341070 44.385356, 11.341117 44.388779, 11.341165 44.392202, 11.341213 44.395626, 11.341261 44.399049, 11.341308 44.402472, 11.341356 44.405895, 11.341404 44.409319, 11.341452 44.412742, 11.341499 44.416165, 11.341547 44.419588, 11.341595 44.423012, 11.341643 44.426435, 11.341691 44.429858, 11.341738 44.433281, 11.341786 44.436705, 11.341834 44.440128, 11.341882 44.443551, 11.341930 44.446974, 11.341978 44.450398, 11.342025 44.453821, 11.342073 44.457244, 11.342121 44.460667, 11.342169 44.464091, 11.342217 44.467514, 11.342265 44.470937, 11.342313 44.474360, 11.342360 44.477784, 11.342408 44.481207, 11.342456 44.484630, 11.342504 44.488053, 11.342552 44.491477, 11.342600 44.494900, 11.338352 44.496461, 11.334103 44.498021, 11.329855 44.499582, 11.325606 44.501142, 11.321357 44.502702, 11.317108 44.504262, 11.312858 44.505822, 11.308608 44.507381, 11.304358 44.508941, 11.300108 44.510500, 11.295858 44.512059, 11.291607 44.513618, 11.287356 44.515177, 11.283105 44.516736, 11.278854 44.518294, 11.274602 44.519853, 11.270350 44.521411, 11.266098 44.522969, 11.261846 44.524527, 11.257594 44.526085, 11.253341 44.527642, 11.249088 44.529200, 11.244835 44.530757, 11.240582 44.532314, 11.236328 44.533871, 11.232074 44.535428, 11.227820 44.536984, 11.223566 44.538541, 11.219311 44.540097, 11.215056 44.541653, 11.210802 44.543209, 11.206546 44.544765, 11.202291 44.546321, 11.198035 44.547876, 11.193779 44.549432, 11.189523 44.550987, 11.185267 44.552542, 11.181010 44.554097, 11.176754 44.555651, 11.172497 44.557206, 11.168239 44.558760, 11.163982 44.560315, 11.159724 44.561869, 11.155466 44.563423, 11.151208 44.564976, 11.146950 44.566530, 11.142691 44.568084, 11.138432 44.569637, 11.134173 44.571190, 11.129914 44.572743, 11.125654 44.574296, 11.121395 44.575849, 11.117135 44.577401, 11.112874 44.578953, 11.108614 44.580506, 11.104353 44.582058, 11.100092 44.583610, 11.095831 44.585161, 11.091570 44.586713, 11.087308 44.588264, 11.083046 44.589815, 11.078784 44.591367, 11.074522 44.592917, 11.070260 44.594468, 11.065997 44.596019, 11.061734 44.597569, 11.057471 44.599120, 11.053208 44.600670, 11.048944 44.602220, 11.044680 44.603770, 11.040416 44.605319, 11.036152 44.606869, 11.031887 44.608418, 11.027622 44.609967, 11.023357 44.611516, 11.019092 44.613065, 11.014827 44.614614, 11.010561 44.616162, 11.006295 44.617711, 11.002029 44.619259, 10.997763 44.620807, 10.993496 44.622355, 10.989229 44.623903, 10.984962 44.625450, 10.980695 44.626998, 10.976428 44.628545, 10.972160 44.630092, 10.967892 44.631639, 10.963624 44.633186, 10.959355 44.634733, 10.955087 44.636279, 10.950818 44.637825, 10.946549 44.639372, 10.942280 44.640918, 10.938010 44.642463, 10.933740 44.644009, 10.929470 44.645555, 10.925200 44.647100, 10.920687 44.648281, 10.916174 44.649463, 10.911660 44.650644, 10.907147 44.651824, 10.902633 44.653005, 10.898119 44.654186, 10.893605 44.655366, 10.889091 44.656546, 10.884576 44.657726, 10.880062 44.658906, 10.875547 44.660085, 10.871032 44.661265, 10.866517 44.662444, 10.862001 44.663623, 10.857486 44.664802, 10.852970 44.665981, 10.848454 44.667159, 10.843938 44.668338, 10.839422 44.669516, 10.834905 44.670694, 10.830389 44.671872, 10.825872 44.673049, 10.821355 44.674227, 10.816837 44.675404, 10.812320 44.676581, 10.807802 44.677758, 10.803285 44.678935, 10.798767 44.680111, 10.794249 44.681288, 10.789730 44.682464, 10.785212 44.683640, 10.780693 44.684816, 10.776174 44.685992, 10.771655 44.687167, 10.767136 44.688342, 10.762616 44.689518, 10.758097 44.690693, 10.753577 44.691867, 10.749057 44.693042, 10.744537 44.694216, 10.740017 44.695391, 10.735496 44.696565, 10.730975 44.697739, 10.726454 44.698912, 10.721933 44.700086, 10.717412 44.701259, 10.712891 44.702432, 10.708369 44.703605, 10.703847 44.704778, 10.699325 44.705951, 10.694803 44.707123, 10.690281 44.708296, 10.685758 44.709468, 10.681235 44.710640, 10.676713 44.711812, 10.672189 44.712983, 10.667666 44.714155, 10.663143 44.715326, 10.658619 44.716497, 10.654095 44.717668, 10.649571 44.718838, 10.645047 44.720009, 10.640523 44.721179, 10.635998 44.722349, 10.631473 44.723519, 10.626949 44.724689, 10.622423 44.725859, 10.617898 44.727028, 10.613373 44.728197, 10.608847 44.729367, 10.604321 44.730535, 10.599795 44.731704, 10.595269 44.732873, 10.590743 44.734041, 10.586216 44.735209, 10.581689 44.736377, 10.577162 44.737545, 10.572635 44.738713, 10.568108 44.739880, 10.563580 44.741048, 10.559053 44.742215, 10.554525 44.743382, 10.549997 44.744548, 10.545469 44.745715, 10.540940 44.746881, 10.536412 44.748048, 10.531883 44.749214, 10.527354 44.750379, 10.522825 44.751545, 10.518296 44.752711, 10.513766 44.753876, 10.509236 44.755041, 10.504707 44.756206, 10.500177 44.757371, 10.495646 44.758535, 10.491116 44.759700, 10.486585 44.760864, 10.482055 44.762028, 10.477524 44.763192, 10.472993 44.764356, 10.468461 44.765519, 10.463930 44.766683, 10.459398 44.767846, 10.454866 44.769009, 10.450334 44.770172, 10.445802 44.771334, 10.441270 44.772497, 10.436737 44.773659, 10.432204 44.774821, 10.427671 44.775983, 10.423138 44.777145, 10.418605 44.778306, 10.414071 44.779468, 10.409538 44.780629, 10.405004 44.781790, 10.400470 44.782951, 10.395935 44.784112, 10.391401 44.785272, 10.386866 44.786432, 10.382332 44.787592, 10.377797 44.788752, 10.373261 44.789912, 10.368726 44.791072, 10.364191 44.792231, 10.359655 44.793390, 10.355119 44.794549, 10.350583 44.795708, 10.346047 44.796867, 10.341510 44.798026, 10.336974 44.799184, 10.332437 44.800342, 10.327900 44.801500, 10.323686 44.803186, 10.319471 44.804871, 10.315256 44.806556, 10.311041 44.808242, 10.306826 44.809927, 10.302611 44.811611, 10.298395 44.813296, 10.294179 44.814981, 10.289962 44.816665, 10.285746 44.818349, 10.281529 44.820033, 10.277312 44.821717, 10.273095 44.823401, 10.268877 44.825084, 10.264660 44.826768, 10.260442 44.828451, 10.256223 44.830134, 10.252005 44.831817, 10.247786 44.833500, 10.243567 44.835183, 10.239348 44.836865, 10.235129 44.838548, 10.230909 44.840230, 10.226689 44.841912, 10.222469 44.843594, 10.218248 44.845276, 10.214027 44.846957, 10.209807 44.848639, 10.205585 44.850320, 10.201364 44.852001, 10.197142 44.853682, 10.192920 44.855363, 10.188698 44.857043, 10.184476 44.858724, 10.180253 44.860404, 10.176030 44.862084, 10.171807 44.863764, 10.167584 44.865444, 10.163360 44.867124, 10.159136 44.868803, 10.154912 44.870483, 10.150687 44.872162, 10.146463 44.873841, 10.142238 44.875520, 10.138013 44.877199, 10.133787 44.878878, 10.129562 44.880556, 10.125336 44.882234, 10.121110 44.883912, 10.116883 44.885590, 10.112657 44.887268, 10.108430 44.888946, 10.104203 44.890624, 10.099975 44.892301, 10.095748 44.893978, 10.091520 44.895655, 10.087292 44.897332, 10.083063 44.899009, 10.078835 44.900685, 10.074606 44.902362, 10.070377 44.904038, 10.066148 44.905714, 10.061918 44.907390, 10.057688 44.909066, 10.053458 44.910742, 10.049228 44.912417, 10.044997 44.914093, 10.040766 44.915768, 10.036535 44.917443, 10.032304 44.919118, 10.028073 44.920792, 10.023841 44.922467, 10.019609 44.924141, 10.015376 44.925816, 10.011144 44.927490, 10.006911 44.929164, 10.002678 44.930837, 9.998445 44.932511, 9.994211 44.934185, 9.989977 44.935858, 9.985743 44.937531, 9.981509 44.939204, 9.977275 44.940877, 9.973040 44.942550, 9.968805 44.944222, 9.964570 44.945894, 9.960334 44.947567, 9.956098 44.949239, 9.951862 44.950911, 9.947626 44.952582, 9.943390 44.954254, 9.939153 44.955925, 9.934916 44.957597, 9.930679 44.959268, 9.926441 44.960939, 9.922204 44.962610, 9.917966 44.964280, 9.913727 44.965951, 9.909489 44.967621, 9.905250 44.969291, 9.901011 44.970961, 9.896772 44.972631, 9.892533 44.974301, 9.888293 44.975970, 9.884053 44.977640, 9.879813 44.979309, 9.875572 44.980978, 9.871332 44.982647, 9.867091 44.984316, 9.862850 44.985984, 9.858608 44.987653, 9.854366 44.989321, 9.850125 44.990989, 9.845882 44.992657, 9.841640 44.994325, 9.837397 44.995993, 9.833154 44.997660, 9.828911 44.999328, 9.824668 45.000995, 9.820424 45.002662, 9.816180 45.004329, 9.811936 45.005996, 9.807692 45.007662, 9.803447 45.009329, 9.799202 45.010995, 9.794957 45.012661, 9.790712 45.014327, 9.786466 45.015993, 9.782220 45.017658, 9.777974 45.019324, 9.773728 45.020989, 9.769481 45.022654, 9.765234 45.024319, 9.760987 45.025984, 9.756740 45.027649, 9.752492 45.029313, 9.748244 45.030978, 9.743996 45.032642, 9.739748 45.034306, 9.735499 45.035970, 9.731251 45.037633, 9.727002 45.039297, 9.722752 45.040960, 9.718503 45.042624, 9.714253 45.044287, 9.710003 45.045950, 9.705752 45.047613, 9.701502 45.049275, 9.697251 45.050938, 9.693000 45.052600, 9.697573 45.053726, 9.702146 45.054852, 9.706719 45.055977, 9.711292 45.057103, 9.715866 45.058228, 9.720439 45.059353, 9.725013 45.060478, 9.729587 45.061602, 9.734162 45.062727, 9.738736 45.063851, 9.743311 45.064975, 9.747885 45.066099, 9.752460 45.067223, 9.757035 45.068346, 9.761611 45.069470, 9.766186 45.070593, 9.770762 45.071716, 9.775338 45.072839, 9.779914 45.073962, 9.784490 45.075084, 9.789066 45.076206, 9.793643 45.077328, 9.798220 45.078450, 9.802797 45.079572, 9.807374 45.080694, 9.811951 45.081815, 9.816528 45.082936, 9.821106 45.084057, 9.825684 45.085178, 9.830262 45.086299, 9.834840 45.087419, 9.839418 45.088539, 9.843997 45.089659, 9.848576 45.090779, 9.853155 45.091899, 9.857734 45.093019, 9.862313 45.094138, 9.866892 45.095257, 9.871472 45.096376, 9.876052 45.097495, 9.880632 45.098614, 9.885212 45.099732, 9.889792 45.100850, 9.894373 45.101968, 9.898953 45.103086, 9.903534 45.104204, 9.908115 45.105321, 9.912697 45.106439, 9.917278 45.107556, 9.921860 45.108673, 9.926441 45.109790, 9.931023 45.110906, 9.935605 45.112023, 9.940188 45.113139, 9.944770 45.114255, 9.949353 45.115371, 9.953936 45.116487, 9.958519 45.117602, 9.963102 45.118717, 9.967685 45.119833, 9.972269 45.120948, 9.976853 45.122062, 9.981437 45.123177, 9.986021 45.124291, 9.990605 45.125406, 9.995189 45.126520, 9.999774 45.127633, 10.004359 45.128747, 10.008944 45.129861, 10.013529 45.130974, 10.018114 45.132087, 10.022700 45.133200, 10.027563 45.133363, 10.032426 45.133526, 10.037290 45.133689, 10.042153 45.133851, 10.047016 45.134013, 10.051879 45.134175, 10.056743 45.134337, 10.061606 45.134499, 10.066469 45.134660, 10.071333 45.134821, 10.076196 45.134982, 10.081060 45.135143, 10.085923 45.135303, 10.090787 45.135464, 10.095650 45.135624, 10.100514 45.135784, 10.105377 45.135944, 10.110241 45.136103, 10.115105 45.136263, 10.119968 45.136422, 10.124832 45.136581, 10.129696 45.136739, 10.134559 45.136898, 10.139423 45.137056, 10.144287 45.137214, 10.149151 45.137372, 10.154015 45.137530, 10.158879 45.137687, 10.163743 45.137845, 10.168606 45.138002, 10.173470 45.138158, 10.178334 45.138315, 10.183198 45.138472, 10.188063 45.138628, 10.192927 45.138784, 10.197791 45.138940, 10.202655 45.139095, 10.207519 45.139251, 10.212383 45.139406, 10.217247 45.139561, 10.222112 45.139716, 10.226976 45.139870, 10.231840 45.140025, 10.236704 45.140179, 10.241569 45.140333, 10.246433 45.140486, 10.251298 45.140640, 10.256162 45.140793, 10.261026 45.140946, 10.265891 45.141099, 10.270755 45.141252, 10.275620 45.141405, 10.280484 45.141557, 10.285349 45.141709, 10.290214 45.141861, 10.295078 45.142013, 10.299943 45.142164, 10.304808 45.142315, 10.309672 45.142467, 10.314537 45.142617, 10.319402 45.142768, 10.324267 45.142918, 10.329131 45.143069, 10.333996 45.143219, 10.338861 45.143369, 10.343726 45.143518, 10.348591 45.143668, 10.353456 45.143817, 10.358321 45.143966, 10.363186 45.144115, 10.368051 45.144263, 10.372916 45.144412, 10.377781 45.144560, 10.382646 45.144708, 10.387511 45.144856, 10.392376 45.145003, 10.397241 45.145150, 10.402107 45.145298, 10.406972 45.145445, 10.411837 45.145591, 10.416702 45.145738, 10.421568 45.145884, 10.426433 45.146030, 10.431298 45.146176, 10.436164 45.146322, 10.441029 45.146467, 10.445894 45.146613, 10.450760 45.146758, 10.455625 45.146903, 10.460491 45.147047, 10.465356 45.147192, 10.470222 45.147336, 10.475087 45.147480, 10.479953 45.147624, 10.484819 45.147768, 10.489684 45.147911, 10.494550 45.148054, 10.499416 45.148197, 10.504281 45.148340, 10.509147 45.148483, 10.514013 45.148625, 10.518879 45.148767, 10.523744 45.148909, 10.528610 45.149051, 10.533476 45.149193, 10.538342 45.149334, 10.543208 45.149475, 10.548074 45.149616, 10.552940 45.149757, 10.557806 45.149897, 10.562672 45.150038, 10.567538 45.150178, 10.572404 45.150318, 10.577270 45.150457, 10.582136 45.150597, 10.587002 45.150736, 10.591868 45.150875, 10.596734 45.151014, 10.601601 45.151153, 10.606467 45.151291, 10.611333 45.151430, 10.616199 45.151568, 10.621066 45.151705, 10.625932 45.151843, 10.630798 45.151981, 10.635665 45.152118, 10.640531 45.152255, 10.645397 45.152392, 10.650264 45.152528, 10.655130 45.152665, 10.659997 45.152801, 10.664863 45.152937, 10.669730 45.153073, 10.674596 45.153208, 10.679463 45.153344, 10.684329 45.153479, 10.689196 45.153614, 10.694063 45.153748, 10.698929 45.153883, 10.703796 45.154017, 10.708663 45.154151, 10.713529 45.154285, 10.718396 45.154419, 10.723263 45.154553, 10.728130 45.154686, 10.732996 45.154819, 10.737863 45.154952, 10.742730 45.155085, 10.747597 45.155217, 10.752464 45.155349, 10.757331 45.155481, 10.762198 45.155613, 10.767065 45.155745, 10.771932 45.155876, 10.776799 45.156008, 10.781666 45.156139, 10.786533 45.156269, 10.791400 45.156400, 10.787850 45.158720, 10.784300 45.161041, 10.780749 45.163361, 10.777198 45.165681, 10.773647 45.168001, 10.770096 45.170321, 10.766544 45.172641, 10.762992 45.174960, 10.759440 45.177280, 10.755887 45.179599, 10.752335 45.181919, 10.748781 45.184238, 10.745228 45.186557, 10.741674 45.188876, 10.738120 45.191195, 10.734566 45.193514, 10.731011 45.195832, 10.727457 45.198151, 10.723901 45.200469, 10.720346 45.202788, 10.716790 45.205106, 10.713234 45.207424, 10.709678 45.209742, 10.706121 45.212060, 10.702564 45.214378, 10.699007 45.216695, 10.695450 45.219013, 10.691892 45.221330, 10.688334 45.223648, 10.684775 45.225965, 10.681217 45.228282, 10.677658 45.230599, 10.674099 45.232916, 10.670539 45.235233, 10.666979 45.237549, 10.663419 45.239866, 10.659859 45.242182, 10.656298 45.244499, 10.652737 45.246815, 10.649176 45.249131, 10.645614 45.251447, 10.642053 45.253763, 10.638490 45.256079, 10.634928 45.258394, 10.631365 45.260710, 10.627802 45.263026, 10.624239 45.265341, 10.620675 45.267656, 10.617111 45.269971, 10.613547 45.272286, 10.609983 45.274601, 10.606418 45.276916, 10.602853 45.279231, 10.599288 45.281545, 10.595722 45.283860, 10.592156 45.286174, 10.588590 45.288488, 10.585024 45.290802, 10.581457 45.293116, 10.577890 45.295430, 10.574322 45.297744, 10.570755 45.300058, 10.567187 45.302371, 10.563618 45.304685, 10.560050 45.306998, 10.556481 45.309311, 10.552912 45.311625, 10.549343 45.313938, 10.545773 45.316250, 10.542203 45.318563, 10.538633 45.320876, 10.535062 45.323189, 10.531491 45.325501, 10.527920 45.327813, 10.524349 45.330126, 10.520777 45.332438, 10.517205 45.334750, 10.513633 45.337062, 10.510060 45.339373, 10.506487 45.341685, 10.502914 45.343997, 10.499340 45.346308, 10.495767 45.348619, 10.492193 45.350931, 10.488618 45.353242, 10.485044 45.355553, 10.481469 45.357864, 10.477893 45.360175, 10.474318 45.362485, 10.470742 45.364796, 10.467166 45.367106, 10.463589 45.369417, 10.460013 45.371727, 10.456436 45.374037, 10.452859 45.376347, 10.449281 45.378657, 10.445703 45.380967, 10.442125 45.383276, 10.438546 45.385586, 10.434968 45.387895, 10.431389 45.390205, 10.427809 45.392514, 10.424230 45.394823, 10.420650 45.397132, 10.417070 45.399441, 10.413489 45.401750, 10.409908 45.404058, 10.406327 45.406367, 10.402746 45.408675, 10.399164 45.410984, 10.395582 45.413292, 10.392000 45.415600, 10.388542 45.418026, 10.385084 45.420451, 10.381626 45.422877, 10.378167 45.425302, 10.374708 45.427728, 10.371249 45.430153, 10.367789 45.432578, 10.364329 45.435003, 10.360869 45.437428, 10.357409 45.439853, 10.353948 45.442277, 10.350487 45.444702, 10.347026 45.447127, 10.343564 45.449551, 10.340102 45.451975, 10.336640 45.454399, 10.333177 45.456823, 10.329714 45.459247, 10.326251 45.461671, 10.322788 45.464095, 10.319324 45.466519, 10.315860 45.468942, 10.312396 45.471366, 10.308931 45.473789, 10.305466 45.476212, 10.302001 45.478635, 10.298535 45.481058, 10.295069 45.483481, 10.291603 45.485904, 10.288137 45.488327, 10.284670 45.490750, 10.281203 45.493172, 10.277736 45.495594, 10.274268 45.498017, 10.270800 45.500439, 10.267332 45.502861, 10.263864 45.505283, 10.260395 45.507705, 10.256926 45.510127, 10.253456 45.512548, 10.249986 45.514970, 10.246516 45.517391, 10.243046 45.519813, 10.239576 45.522234, 10.236105 45.524655, 10.232633 45.527076, 10.229162 45.529497, 10.225690 45.531918, 10.222218 45.534338, 10.218746 45.536759, 10.215273 45.539180, 10.211800 45.541600)
