LINESTRING (116.407400 39.904200, 116.385347 39.917875, 116.363286 39.931546, 116.341216 39.945213, 116.319136 39.958875, 116.297049 39.972534, 116.274952 39.986188, 116.252846 39.999838, 116.230732 40.013484, 116.208608 40.027125, 116.186476 40.040763, 116.164335 40.054396, 116.142186 40.068025, 116.120027 40.081649, 116.097859 40.095270, 116.075683 40.108886, 116.053497 40.122498, 116.031303 40.136106, 116.009100 40.149710, 115.986888 40.163309, 115.964667 40.176904, 115.942438 40.190495, 115.920199 40.204081, 115.897951 40.217664, 115.875695 40.231242, 115.853429 40.244815, 115.831155 40.258385, 115.808871 40.271950, 115.786579 40.285511, 115.764278 40.299068, 115.741968 40.312620, 115.719649 40.326168, 115.697321 40.339712, 115.674984 40.353252, 115.652638 40.366787, 115.630283 40.380318, 115.607919 40.393845, 115.585546 40.407367, 115.563164 40.420885, 115.540773 40.434399, 115.518373 40.447908, 115.495964 40.461413, 115.473546 40.474914, 115.451119 40.488410, 115.428683 40.501902, 115.406238 40.515390, 115.383784 40.528873, 115.361321 40.542352, 115.338849 40.555827, 115.316368 40.569297, 115.293877 40.582763, 115.271378 40.596225, 115.248870 40.609682, 115.226352 40.623135, 115.203826 40.636583, 115.181290 40.650027, 115.158746 40.663467, 115.136192 40.676902, 115.113629 40.690333, 115.091057 40.703760, 115.068476 40.717182, 115.045886 40.730599, 115.023287 40.744013, 115.000679 40.757422, 114.978061 40.770826, 114.955435 40.784226, 114.932799 40.797622, 114.910154 40.811013, 114.887500 40.824400, 114.870512 40.842065, 114.853514 40.859727, 114.836507 40.877387, 114.819492 40.895045, 114.802467 40.912700, 114.785433 40.930352, 114.768390 40.948002, 114.751338 40.965649, 114.734277 40.983294, 114.717206 41.000937, 114.700127 41.018577, 114.683038 41.036214, 114.665941 41.053849, 114.648834 41.071481, 114.631718 41.089111, 114.614592 41.106738, 114.597458 41.124363, 114.580314 41.141985, 114.563161 41.159605, 114.545999 41.177222, 114.528828 41.194836, 114.511647 41.212448, 114.494457 41.230057, 114.477258 41.247664, 114.460049 41.265269, 114.442832 41.282870, 114.425605 41.300469, 114.408369 41.318066, 114.391123 41.335660, 114.373868 41.353252, 114.356604 41.370840, 114.339330 41.388427, 114.322047 41.406010, 114.304755 41.423591, 114.287453 41.441170, 114.270142 41.458746, 114.252822 41.476319, 114.235492 41.493890, 114.218153 41.511458, 114.200804 41.529024, 114.183446 41.546587, 114.166079 41.564147, 114.148702 41.581704, 114.131316 41.599260, 114.113920 41.616812, 114.096514 41.634362, 114.079100 41.651909, 114.061675 41.669454, 114.044242 41.686996, 114.026798 41.704535, 114.009346 41.722071, 113.991883 41.739605, 113.974411 41.757137, 113.956930 41.774666, 113.939439 41.792192, 113.921938 41.809715, 113.904428 41.827236, 113.886909 41.844754, 113.869379 41.862269, 113.851841 41.879782, 113.834292 41.897292, 113.816734 41.914800, 113.799166 41.932304, 113.781589 41.949806, 113.764002 41.967306, 113.746405 41.984802, 113.728799 42.002297, 113.711182 42.019788, 113.693557 42.037276, 113.675921 42.054762, 113.658276 42.072246, 113.640621 42.089726, 113.622956 42.107204, 113.605282 42.124679, 113.587598 42.142151, 113.569904 42.159621, 113.552200 42.177088, 113.534487 42.194552, 113.516764 42.212014, 113.499031 42.229473, 113.481288 42.246929, 113.463535 42.264382, 113.445773 42.281832, 113.428000 42.299280, 113.410218 42.316725, 113.392426 42.334168, 113.374624 42.351607, 113.356812 42.369044, 113.338990 42.386478, 113.321159 42.403909, 113.303317 42.421338, 113.285466 42.438764, 113.267604 42.456187, 113.249733 42.473607, 113.231852 42.491024, 113.213961 42.508439, 113.196059 42.525851, 113.178148 42.543260, 113.160227 42.560666, 113.142296 42.578070, 113.124355 42.595470, 113.106404 42.612868, 113.088442 42.630263, 113.070471 42.647656, 113.052490 42.665045, 113.034498 42.682432, 113.016497 42.699816, 112.998485 42.717197, 112.980464 42.734575, 112.962432 42.751950, 112.944390 42.769323, 112.926338 42.786693, 112.908276 42.804060, 112.890204 42.821424, 112.872121 42.838785, 112.854029 42.856143, 112.835926 42.873499, 112.817813 42.890851, 112.799690 42.908201, 112.781557 42.925548, 112.763413 42.942892, 112.745260 42.960233, 112.727096 42.977572, 112.708921 42.994907, 112.690737 43.012240, 112.672542 43.029569, 112.654337 43.046896, 112.636122 43.064220, 112.617896 43.081541, 112.599660 43.098859, 112.581414 43.116174, 112.563157 43.133487, 112.544891 43.150796, 112.526613 43.168103, 112.508326 43.185406, 112.490028 43.202707, 112.471719 43.220005, 112.453401 43.237300, 112.435071 43.254592, 112.416732 43.271881, 112.398382 43.289167, 112.380021 43.306450, 112.361651 43.323730, 112.343269 43.341007, 112.324877 43.358282, 112.306475 43.375553, 112.288062 43.392822, 112.269639 43.410087, 112.251205 43.427350, 112.232761 43.444609, 112.214306 43.461866, 112.195841 43.479119, 112.177365 43.496370, 112.158879 43.513618, 112.140382 43.530862, 112.121874 43.548104, 112.103356 43.565343, 112.084827 43.582578, 112.066288 43.599811, 112.047738 43.617041, 112.029177 43.634268, 112.010606 43.651491, 111.992024 43.668712, 111.973432 43.685930, 111.954828 43.703144, 111.936214 43.720356, 111.917590 43.737565, 111.898954 43.754770, 111.880308 43.771973, 111.861651 43.789172, 111.842984 43.806369, 111.824306 43.823562, 111.805616 43.840753, 111.786917 43.857940, 111.768206 43.875125, 111.749485 43.892306, 111.730752 43.909484, 111.712009 43.926659, 111.693256 43.943831, 111.674491 43.961000, 111.655715 43.978166, 111.636929 43.995329, 111.618132 44.012489, 111.599324 44.029646, 111.580505 44.046799, 111.561675 44.063950, 111.542834 44.081097, 111.523982 44.098242, 111.505119 44.115383, 111.486246 44.132521, 111.467361 44.149656, 111.448465 44.166788, 111.429559 44.183917, 111.410641 44.201043, 111.391713 44.218165, 111.372773 44.235285, 111.353823 44.252401, 111.334861 44.269514, 111.315888 44.286624, 111.296905 44.303731, 111.277910 44.320835, 111.258904 44.337935, 111.239887 44.355033, 111.220859 44.372127, 111.201820 44.389218, 111.182770 44.406306, 111.163708 44.423391, 111.144636 44.440473, 111.125552 44.457551, 111.106457 44.474626, 111.087351 44.491698, 111.068234 44.508767, 111.049106 44.525833, 111.029966 44.542895, 111.010815 44.559955, 110.991653 44.577011, 110.972480 44.594064, 110.953295 44.611113, 110.934099 44.628160, 110.914892 44.645203, 110.895674 44.662243, 110.876444 44.679280, 110.857203 44.696314, 110.837951 44.713344, 110.818687 44.730371, 110.799412 44.747395, 110.780125 44.764416, 110.760828 44.781433, 110.741519 44.798447, 110.722198 44.815458, 110.702866 44.832466, 110.683523 44.849470, 110.664168 44.866471, 110.644802 44.883469, 110.625424 44.900463, 110.606035 44.917455, 110.586635 44.934443, 110.567222 44.951427, 110.547799 44.968409, 110.528364 44.985387, 110.508917 45.002362, 110.489459 45.019333, 110.469990 45.036301, 110.450508 45.053266, 110.431016 45.070228, 110.411511 45.087186, 110.391996 45.104141, 110.372468 45.121093, 110.352929 45.138041, 110.333378 45.154986, 110.313816 45.171927, 110.294242 45.188866, 110.274656 45.205801, 110.255059 45.222732, 110.235450 45.239660, 110.215829 45.256585, 110.196197 45.273507, 110.176553 45.290425, 110.156897 45.307340, 110.137230 45.324251, 110.117551 45.341159, 110.097860 45.358064, 110.078157 45.374965, 110.058442 45.391863, 110.038716 45.408757, 110.018978 45.425648, 109.999228 45.442536, 109.979466 45.459420, 109.959692 45.476301, 109.939907 45.493179, 109.920109 45.510053, 109.900300 45.526923, 109.880479 45.543791, 109.860646 45.560654, 109.840801 45.577515, 109.820944 45.594371, 109.801076 45.611225, 109.781195 45.628075, 109.761302 45.644921, 109.741398 45.661764, 109.721481 45.678604, 109.701553 45.695440, 109.681612 45.712273, 109.661659 45.729102, 109.641695 45.745928, 109.621718 45.762750, 109.601729 45.779569, 109.581729 45.796384, 109.561716 45.813196, 109.541691 45.830004, 109.521654 45.846809, 109.501605 45.863610, 109.481543 45.880408, 109.461470 45.897203, 109.441384 45.913993, 109.421287 45.930781, 109.401177 45.947564, 109.381055 45.964344, 109.360921 45.981121, 109.340774 45.997894, 109.320616 46.014664, 109.300445 46.031430, 109.280262 46.048192, 109.260066 46.064951, 109.239858 46.081707, 109.219639 46.098458, 109.199406 46.115207, 109.179162 46.131951, 109.158905 46.148692, 109.138636 46.165430, 109.118354 46.182164, 109.098061 46.198894, 109.077754 46.215621, 109.057436 46.232344, 109.037105 46.249064, 109.016762 46.265780, 108.996406 46.282492, 108.976038 46.299201, 108.955657 46.315906, 108.935264 46.332607, 108.914858 46.349305, 108.894440 46.365999, 108.874010 46.382690, 108.853567 46.399377, 108.833112 46.416060, 108.812644 46.432740, 108.792163 46.449416, 108.771670 46.466088, 108.751164 46.482757, 108.730646 46.499422, 108.710116 46.516083, 108.689572 46.532741, 108.669016 46.549395, 108.648448 46.566045, 108.627866 46.582692, 108.607273 46.599334, 108.586666 46.615974, 108.566047 46.632609, 108.545415 46.649241, 108.524771 46.665869, 108.504113 46.682493, 108.483443 46.699114, 108.462761 46.715731, 108.442065 46.732344, 108.421357 46.748954, 108.400636 46.765559, 108.379902 46.782161, 108.359156 46.798760, 108.338397 46.815354, 108.317625 46.831945, 108.296840 46.848532, 108.276042 46.865115, 108.255231 46.881695, 108.234408 46.898270, 108.213571 46.914842, 108.192722 46.931410, 108.171860 46.947975, 108.150985 46.964535, 108.130097 46.981092, 108.109196 46.997645, 108.088282 47.014194, 108.067355 47.030739, 108.046415 47.047281, 108.025462 47.063818, 108.004497 47.080352, 107.983518 47.096882, 107.962526 47.113409, 107.941521 47.129931, 107.920503 47.146449, 107.899472 47.162964, 107.878428 47.179475, 107.857371 47.195982, 107.836300 47.212485, 107.815217 47.228984, 107.794120 47.245480, 107.773011 47.261971, 107.751888 47.278459, 107.730752 47.294942, 107.709602 47.311422, 107.688440 47.327898, 107.667264 47.344370, 107.646076 47.360839, 107.624874 47.377303, 107.603658 47.393763, 107.582430 47.410220, 107.561188 47.426672, 107.539933 47.443121, 107.518665 47.459565, 107.497383 47.476006, 107.476088 47.492443, 107.454779 47.508876, 107.433458 47.525304, 107.412123 47.541729, 107.390774 47.558150, 107.369412 47.574567, 107.348037 47.590980, 107.326649 47.607389, 107.305247 47.623794, 107.283831 47.640196, 107.262402 47.656593, 107.240960 47.672986, 107.219504 47.689375, 107.198035 47.705760, 107.176552 47.722141, 107.155055 47.738518, 107.133546 47.754891, 107.112022 47.771260, 107.090485 47.787625, 107.068935 47.803986, 107.047371 47.820343, 107.025793 47.836696, 107.004202 47.853045, 106.982597 47.869390, 106.960978 47.885731, 106.939346 47.902067, 106.917700 47.918400, 106.913754 47.939972, 106.909805 47.961543, 106.905853 47.983115, 106.901898 48.004686, 106.897939 48.026257, 106.893977 48.047829, 106.890011 48.069399, 106.886042 48.090970, 106.882070 48.112541, 106.878095 48.134112, 106.874116 48.155682, 106.870134 48.177252, 106.866148 48.198822, 106.862159 48.220392, 106.858167 48.241962, 106.854171 48.263532, 106.850172 48.285101, 106.846170 48.306671, 106.842164 48.328240, 106.838155 48.349809, 106.834142 48.371378, 106.830126 48.392947, 106.826107 48.414516, 106.822084 48.436085, 106.818058 48.457653, 106.814029 48.479221, 106.809996 48.500790, 106.805959 48.522358, 106.801919 48.543925, 106.797876 48.565493, 106.793829 48.587061, 106.789779 48.608628, 106.785725 48.630196, 106.781668 48.651763, 106.777607 48.673330, 106.773543 48.694897, 106.769475 48.716463, 106.765404 48.738030, 106.761330 48.759597, 106.757252 48.781163, 106.753170 48.802729, 106.749085 48.824295, 106.744996 48.845861, 106.740904 48.867427, 106.736808 48.888992, 106.732709 48.910558, 106.728606 48.932123, 106.724500 48.953688, 106.720390 48.975253, 106.716277 48.996818, 106.712160 49.018383, 106.708039 49.039947, 106.703915 49.061512, 106.699788 49.083076, 106.695656 49.104640, 106.691521 49.126204, 106.687383 49.147768, 106.683241 49.169332, 106.679095 49.190895, 106.674946 49.212459, 106.670793 49.234022, 106.666636 49.255585, 106.662476 49.277148, 106.658312 49.298711, 106.654145 49.320274, 106.649974 49.341836, 106.645799 49.363398, 106.641620 49.384961, 106.637438 49.406523, 106.633253 49.428085, 106.629063 49.449646, 106.624870 49.471208, 106.620673 49.492769, 106.616473 49.514331, 106.612268 49.535892, 106.608060 49.557453, 106.603849 49.579014, 106.599633 49.600574, 106.595414 49.622135, 106.591191 49.643695, 106.586965 49.665256, 106.582734 49.686816, 106.578500 49.708375, 106.574262 49.729935, 106.570021 49.751495, 106.565775 49.773054, 106.561526 49.794614, 106.557273 49.816173, 106.553016 49.837732, 106.548756 49.859291, 106.544491 49.880849, 106.540223 49.902408, 106.535951 49.923966, 106.531675 49.945524, 106.527396 49.967082, 106.523112 49.988640, 106.518825 50.010198, 106.514534 50.031756, 106.510239 50.053313, 106.505940 50.074870, 106.501637 50.096427, 106.497330 50.117984, 106.493020 50.139541, 106.488706 50.161098, 106.484387 50.182654, 106.480065 50.204210, 106.475739 50.225767, 106.471409 50.247323, 106.467075 50.268878, 106.462737 50.290434, 106.458395 50.311989, 106.454050 50.333545, 106.449700 50.355100, 106.430653 50.373162, 106.411591 50.391221, 106.392515 50.409277, 106.373424 50.427330, 106.354318 50.445380, 106.335198 50.463426, 106.316064 50.481470, 106.296914 50.499510, 106.277751 50.517547, 106.258572 50.535581, 106.239379 50.553612, 106.220171 50.571640, 106.200949 50.589665, 106.181711 50.607686, 106.162459 50.625704, 106.143192 50.643719, 106.123911 50.661731, 106.104615 50.679740, 106.085303 50.697745, 106.065977 50.715748, 106.046637 50.733747, 106.027281 50.751743, 106.007910 50.769735, 105.988525 50.787725, 105.969124 50.805711, 105.949709 50.823694, 105.930279 50.841674, 105.910833 50.859651, 105.891373 50.877624, 105.871898 50.895594, 105.852407 50.913561, 105.832902 50.931525, 105.813381 50.949485, 105.793846 50.967442, 105.774295 50.985396, 105.754729 51.003347, 105.735148 51.021294, 105.715552 51.039238, 105.695941 51.057179, 105.676314 51.075116, 105.656673 51.093051, 105.637016 51.110982, 105.617343 51.128909, 105.597656 51.146833, 105.577953 51.164754, 105.558235 51.182672, 105.538502 51.200587, 105.518753 51.218498, 105.498989 51.236405, 105.479209 51.254310, 105.459414 51.272211, 105.439604 51.290109, 105.419778 51.308003, 105.399937 51.325894, 105.380080 51.343782, 105.360207 51.361666, 105.340320 51.379547, 105.320416 51.397424, 105.300497 51.415299, 105.280563 51.433169, 105.260613 51.451037, 105.240647 51.468901, 105.220666 51.486762, 105.200669 51.504619, 105.180656 51.522473, 105.160627 51.540323, 105.140583 51.558170, 105.120523 51.576014, 105.100448 51.593854, 105.080356 51.611691, 105.060249 51.629524, 105.040126 51.647354, 105.019987 51.665181, 104.999833 51.683004, 104.979662 51.700823, 104.959476 51.718639, 104.939273 51.736452, 104.919055 51.754261, 104.898821 51.772067, 104.878571 51.789869, 104.858304 51.807668, 104.838022 51.825463, 104.817724 51.843255, 104.797410 51.861043, 104.777079 51.878828, 104.756733 51.896609, 104.736370 51.914387, 104.715992 51.932161, 104.695597 51.949932, 104.675186 51.967699, 104.654759 51.985463, 104.634315 52.003223, 104.613856 52.020980, 104.593380 52.038733, 104.572887 52.056482, 104.552379 52.074228, 104.531854 52.091970, 104.511313 52.109709, 104.490756 52.127444, 104.470182 52.145176, 104.449592 52.162904, 104.428985 52.180629, 104.408362 52.198350, 104.387723 52.216067, 104.367067 52.233781, 104.346394 52.251491, 104.325705 52.269197, 104.305000 52.286900, 104.275306 52.299008, 104.245597 52.311109, 104.215870 52.323202, 104.186128 52.335288, 104.156370 52.347367, 104.126595 52.359438, 104.096804 52.371501, 104.066996 52.383557, 104.037173 52.395606, 104.007333 52.407647, 103.977476 52.419680, 103.947604 52.431706, 103.917715 52.443724, 103.887810 52.455735, 103.857888 52.467738, 103.827951 52.479734, 103.797997 52.491722, 103.768026 52.503703, 103.738039 52.515676, 103.708036 52.527641, 103.678017 52.539599, 103.647981 52.551550, 103.617929 52.563492, 103.587860 52.575427, 103.557776 52.587355, 103.527674 52.599275, 103.497557 52.611187, 103.467423 52.623091, 103.437272 52.634988, 103.407105 52.646877, 103.376922 52.658759, 103.346722 52.670633, 103.316506 52.682499, 103.286274 52.694358, 103.256025 52.706208, 103.225760 52.718052, 103.195478 52.729887, 103.165180 52.741715, 103.134865 52.753535, 103.104534 52.765347, 103.074187 52.777151, 103.043823 52.788948, 103.013442 52.800737, 102.983045 52.812518, 102.952632 52.824292, 102.922202 52.836058, 102.891756 52.847815, 102.861293 52.859566, 102.830813 52.871308, 102.800318 52.883042, 102.769805 52.894769, 102.739276 52.906488, 102.708731 52.918199, 102.678169 52.929902, 102.647591 52.941598, 102.616996 52.953285, 102.586384 52.964965, 102.555756 52.976637, 102.525111 52.988300, 102.494450 52.999956, 102.463773 53.011605, 102.433078 53.023245, 102.402368 53.034877, 102.371640 53.046502, 102.340896 53.058118, 102.310136 53.069727, 102.279359 53.081327, 102.248565 53.092920, 102.217755 53.104505, 102.186928 53.116081, 102.156084 53.127650, 102.125224 53.139211, 102.094348 53.150764, 102.063454 53.162309, 102.032544 53.173846, 102.001618 53.185375, 101.970675 53.196895, 101.939715 53.208408, 101.908738 53.219913, 101.877745 53.231410, 101.846736 53.242899, 101.815709 53.254379, 101.784666 53.265852, 101.753606 53.277316, 101.722530 53.288773, 101.691437 53.300221, 101.660327 53.311662, 101.629201 53.323094, 101.598058 53.334518, 101.566898 53.345934, 101.535722 53.357342, 101.504529 53.368741, 101.473319 53.380133, 101.442093 53.391517, 101.410850 53.402892, 101.379590 53.414259, 101.348313 53.425618, 101.317020 53.436969, 101.285710 53.448311, 101.254383 53.459646, 101.223040 53.470972, 101.191679 53.482290, 101.160303 53.493600, 101.128909 53.504902, 101.097498 53.516195, 101.066071 53.527480, 101.034627 53.538757, 101.003167 53.550026, 100.971689 53.561286, 100.940195 53.572538, 100.908684 53.583782, 100.877157 53.595017, 100.845612 53.606245, 100.814051 53.617464, 100.782473 53.628674, 100.750878 53.639877, 100.719267 53.651071, 100.687639 53.662256, 100.655994 53.673434, 100.624332 53.684603, 100.592653 53.695763, 100.560958 53.706916, 100.529245 53.718060, 100.497516 53.729195, 100.465770 53.740322, 100.434008 53.751441, 100.402228 53.762551, 100.370432 53.773653, 100.338619 53.784747, 100.306789 53.795832, 100.274942 53.806909, 100.243078 53.817977, 100.211198 53.829037, 100.179301 53.840088, 100.147387 53.851131, 100.115456 53.862165, 100.083508 53.873191, 100.051543 53.884209, 100.019562 53.895218, 99.987563 53.906218, 99.955548 53.917210, 99.923516 53.928193, 99.891467 53.939168, 99.859402 53.950135, 99.827319 53.961092, 99.795220 53.972042, 99.763103 53.982982, 99.730970 53.993914, 99.698820 54.004838, 99.666653 54.015753, 99.634469 54.026659, 99.602268 54.037557, 99.570051 54.048446, 99.537816 54.059327, 99.505565 54.070199, 99.473297 54.081062, 99.441012 54.091917, 99.408710 54.102763, 99.376391 54.113600, 99.344055 54.124429, 99.311702 54.135249, 99.279333 54.146060, 99.246946 54.156863, 99.214543 54.167657, 99.182122 54.178442, 99.149685 54.189219, 99.117231 54.199986, 99.084760 54.210746, 99.052272 54.221496, 99.019767 54.232238, 98.987245 54.242971, 98.954707 54.253695, 98.922151 54.264410, 98.889579 54.275117, 98.856989 54.285814, 98.824383 54.296503, 98.791759 54.307184, 98.759119 54.317855, 98.726462 54.328518, 98.693788 54.339171, 98.661097 54.349816, 98.628389 54.360452, 98.595664 54.371080, 98.562922 54.381698, 98.530163 54.392308, 98.497388 54.402908, 98.464595 54.413500, 98.431785 54.424083, 98.398959 54.434657, 98.366115 54.445222, 98.333255 54.455778, 98.300378 54.466326, 98.267483 54.476864, 98.234572 54.487393, 98.201644 54.497914, 98.168699 54.508425, 98.135736 54.518928, 98.102757 54.529422, 98.069761 54.539906, 98.036748 54.550382, 98.003719 54.560848, 97.970672 54.571306, 97.937608 54.581755, 97.904527 54.592194, 97.871429 54.602625, 97.838315 54.613047, 97.805183 54.623459, 97.772034 54.633863, 97.738869 54.644257, 97.705686 54.654642, 97.672487 54.665019, 97.639270 54.675386, 97.606037 54.685744, 97.572787 54.696093, 97.539519 54.706433, 97.506235 54.716764, 97.472934 54.727085, 97.439616 54.737398, 97.406281 54.747701, 97.372928 54.757996, 97.339559 54.768281, 97.306173 54.778557, 97.272770 54.788823, 97.239350 54.799081, 97.205913 54.809329, 97.172460 54.819569, 97.138989 54.829799, 97.105501 54.840019, 97.071996 54.850231, 97.038475 54.860433, 97.004936 54.870626, 96.971380 54.880810, 96.937808 54.890985, 96.904218 54.901150, 96.870612 54.911306, 96.836988 54.921453, 96.803348 54.931591, 96.769691 54.941719, 96.736016 54.951838, 96.702325 54.961947, 96.668617 54.972048, 96.634892 54.982139, 96.601150 54.992220, 96.567390 55.002293, 96.533614 55.012356, 96.499822 55.022409, 96.466012 55.032454, 96.432185 55.042488, 96.398341 55.052514, 96.364480 55.062530, 96.330603 55.072537, 96.296708 55.082534, 96.262796 55.092522, 96.228868 55.102500, 96.194922 55.112469, 96.160960 55.122429, 96.126981 55.132379, 96.092984 55.142320, 96.058971 55.152251, 96.024941 55.162172, 95.990894 55.172085, 95.956830 55.181987, 95.922749 55.191881, 95.888651 55.201764, 95.854537 55.211639, 95.820405 55.221503, 95.786256 55.231359, 95.752091 55.241204, 95.717909 55.251040, 95.683709 55.260867, 95.649493 55.270684, 95.615260 55.280491, 95.581010 55.290289, 95.546743 55.300077, 95.512459 55.309856, 95.478158 55.319625, 95.443840 55.329384, 95.409506 55.339134, 95.375154 55.348874, 95.340786 55.358605, 95.306401 55.368326, 95.271999 55.378037, 95.237580 55.387739, 95.203144 55.397430, 95.168691 55.407113, 95.134221 55.416785, 95.099735 55.426448, 95.065231 55.436101, 95.030711 55.445745, 94.996174 55.455378, 94.961620 55.465002, 94.927049 55.474617, 94.892461 55.484221, 94.857856 55.493816, 94.823235 55.503401, 94.788597 55.512976, 94.753941 55.522541, 94.719269 55.532097, 94.684580 55.541643, 94.649875 55.551179, 94.615152 55.560705, 94.580413 55.570222, 94.545657 55.579728, 94.510884 55.589225, 94.476094 55.598712, 94.441287 55.608189, 94.406464 55.617656, 94.371623 55.627113, 94.336766 55.636561, 94.301892 55.645998, 94.267002 55.655426, 94.232094 55.664844, 94.197170 55.674252, 94.162229 55.683650, 94.127271 55.693038, 94.092296 55.702416, 94.057305 55.711784, 94.022296 55.721142, 93.987271 55.730490, 93.952229 55.739828, 93.917171 55.749157, 93.882096 55.758475, 93.847004 55.767783, 93.811895 55.777082, 93.776769 55.786370, 93.741627 55.795648, 93.706468 55.804916, 93.671292 55.814175, 93.636100 55.823423, 93.600890 55.832661, 93.565664 55.841889, 93.530422 55.851107, 93.495162 55.860315, 93.459886 55.869513, 93.424593 55.878700, 93.389284 55.887878, 93.353958 55.897046, 93.318615 55.906203, 93.283255 55.915350, 93.247879 55.924488, 93.212486 55.933615, 93.177076 55.942731, 93.141650 55.951838, 93.106207 55.960935, 93.070748 55.970021, 93.035271 55.979097, 92.999778 55.988163, 92.964269 55.997219, 92.928743 56.006265, 92.893200 56.015300, 92.854180 56.016379, 92.815159 56.017445, 92.776135 56.018499, 92.737109 56.019541, 92.698080 56.020571, 92.659050 56.021588, 92.620018 56.022593, 92.580984 56.023585, 92.541947 56.024565, 92.502909 56.025533, 92.463869 56.026489, 92.424827 56.027432, 92.385783 56.028363, 92.346737 56.029281, 92.307689 56.030187, 92.268639 56.031081, 92.229588 56.031963, 92.190535 56.032832, 92.151480 56.033689, 92.112423 56.034534, 92.073365 56.035366, 92.034305 56.036186, 91.995244 56.036993, 91.956180 56.037788, 91.917116 56.038571, 91.878049 56.039342, 91.838981 56.040100, 91.799912 56.040846, 91.760841 56.041579, 91.721768 56.042300, 91.682694 56.043009, 91.643619 56.043706, 91.604542 56.044390, 91.565464 56.045061, 91.526385 56.045721, 91.487304 56.046368, 91.448222 56.047003, 91.409139 56.047625, 91.370054 56.048235, 91.330968 56.048833, 91.291881 56.049418, 91.252793 56.049991, 91.213704 56.050551, 91.174613 56.051100, 91.135522 56.051635, 91.096429 56.052159, 91.057336 56.052670, 91.018241 56.053169, 90.979145 56.053655, 90.940049 56.054129, 90.900951 56.054591, 90.861852 56.055041, 90.822753 56.055478, 90.783653 56.055902, 90.744551 56.056315, 90.705450 56.056714, 90.666347 56.057102, 90.627243 56.057477, 90.588139 56.057840, 90.549034 56.058191, 90.509928 56.058529, 90.470822 56.058854, 90.431715 56.059168, 90.392607 56.059469, 90.353499 56.059757, 90.314390 56.060034, 90.275281 56.060298, 90.236171 56.060549, 90.197060 56.060788, 90.157949 56.061015, 90.118838 56.061230, 90.079726 56.061432, 90.040614 56.061622, 90.001502 56.061799, 89.962389 56.061964, 89.923276 56.062117, 89.884162 56.062257, 89.845048 56.062385, 89.805934 56.062500, 89.766820 56.062603, 89.727706 56.062694, 89.688591 56.062773, 89.649476 56.062839, 89.610361 56.062892, 89.571246 56.062934, 89.532131 56.062963, 89.493016 56.062979, 89.453901 56.062984, 89.414786 56.062975, 89.375671 56.062955, 89.336556 56.062922, 89.297441 56.062877, 89.258326 56.062819, 89.219212 56.062749, 89.180097 56.062667, 89.140983 56.062572, 89.101869 56.062465, 89.062755 56.062345, 89.023641 56.062214, 88.984528 56.062069, 88.945415 56.061913, 88.906302 56.061744, 88.867189 56.061563, 88.828077 56.061369, 88.788966 56.061163, 88.749855 56.060944, 88.710744 56.060714, 88.671634 56.060471, 88.632524 56.060215, 88.593415 56.059947, 88.554306 56.059667, 88.515198 56.059374, 88.476090 56.059069, 88.436984 56.058752, 88.397877 56.058422, 88.358772 56.058080, 88.319667 56.057726, 88.280563 56.057359, 88.241460 56.056980, 88.202357 56.056589, 88.163255 56.056185, 88.124155 56.055768, 88.085055 56.055340, 88.045955 56.054899, 88.006857 56.054446, 87.967760 56.053980, 87.928663 56.053502, 87.889568 56.053012, 87.850474 56.052509, 87.811380 56.051994, 87.772288 56.051466, 87.733197 56.050926, 87.694107 56.050374, 87.655018 56.049810, 87.615930 56.049233, 87.576843 56.048644, 87.537758 56.048042, 87.498674 56.047428, 87.459591 56.046802, 87.420509 56.046163, 87.381429 56.045512, 87.342350 56.044849, 87.303272 56.044173, 87.264196 56.043485, 87.225121 56.042785, 87.186048 56.042072, 87.146976 56.041347, 87.107905 56.040610, 87.068836 56.039860, 87.029769 56.039098, 86.990703 56.038323, 86.951639 56.037537, 86.912576 56.036738, 86.873515 56.035926, 86.834455 56.035102, 86.795398 56.034266, 86.756341 56.033418, 86.717287 56.032557, 86.678235 56.031684, 86.639184 56.030798, 86.600135 56.029900, 86.561088 56.028990, 86.522042 56.028068, 86.482999 56.027133, 86.443957 56.026186, 86.404918 56.025226, 86.365880 56.024255, 86.326845 56.023271, 86.287811 56.022274, 86.248779 56.021265, 86.209750 56.020244, 86.170722 56.019211, 86.131697 56.018165, 86.092673 56.017107, 86.053652 56.016037, 86.014633 56.014954, 85.975617 56.013859, 85.936602 56.012752, 85.897590 56.011632, 85.858580 56.010500, 85.819572 56.009356, 85.780567 56.008200, 85.741564 56.007031, 85.702563 56.005850, 85.663565 56.004656, 85.624569 56.003450, 85.585576 56.002232, 85.546585 56.001002, 85.507596 55.999759, 85.468610 55.998504, 85.429627 55.997237, 85.390646 55.995957, 85.351668 55.994666, 85.312692 55.993361, 85.273719 55.992045, 85.234749 55.990716, 85.195782 55.989375, 85.156817 55.988022, 85.117855 55.986656, 85.078895 55.985278, 85.039939 55.983888, 85.000985 55.982486, 84.962034 55.981071, 84.923086 55.979644, 84.884141 55.978205, 84.845198 55.976753, 84.806259 55.975289, 84.767323 55.973813, 84.728389 55.972325, 84.689459 55.970824, 84.650531 55.969311, 84.611607 55.967786, 84.572686 55.966249, 84.533768 55.964699, 84.494853 55.963137, 84.455941 55.961563, 84.417032 55.959976, 84.378127 55.958378, 84.339225 55.956767, 84.300326 55.955143, 84.261430 55.953508, 84.222538 55.951860, 84.183649 55.950200, 84.144763 55.948528, 84.105881 55.946844, 84.067002 55.945147, 84.028126 55.943438, 83.989254 55.941717, 83.950385 55.939983, 83.911520 55.938238, 83.872658 55.936480, 83.833800 55.934710, 83.794946 55.932927, 83.756095 55.931133, 83.717248 55.929326, 83.678404 55.927507, 83.639564 55.925676, 83.600728 55.923832, 83.561895 55.921977, 83.523066 55.920109, 83.484241 55.918229, 83.445419 55.916336, 83.406602 55.914432, 83.367788 55.912515, 83.328978 55.910586, 83.290172 55.908645, 83.251370 55.906692, 83.212572 55.904726, 83.173778 55.902749, 83.134987 55.900759, 83.096201 55.898757, 83.057419 55.896742, 83.018640 55.894716, 82.979866 55.892677, 82.941096 55.890627, 82.902330 55.888564, 82.863568 55.886488, 82.824810 55.884401, 82.786057 55.882301, 82.747308 55.880190, 82.708562 55.878066, 82.669822 55.875930, 82.631085 55.873782, 82.592353 55.871621, 82.553625 55.869449, 82.514901 55.867264, 82.476182 55.865067, 82.437467 55.862858, 82.398757 55.860637, 82.360051 55.858404, 82.321349 55.856159, 82.282652 55.853901, 82.243960 55.851631, 82.205272 55.849349, 82.166588 55.847055, 82.127909 55.844749, 82.089235 55.842431, 82.050565 55.840101, 82.011900 55.837758, 81.973240 55.835404, 81.934584 55.833037, 81.895933 55.830658, 81.857287 55.828267, 81.818646 55.825864, 81.780009 55.823449, 81.741377 55.821022, 81.702750 55.818582, 81.664128 55.816131, 81.625511 55.813667, 81.586899 55.811191, 81.548291 55.808704, 81.509689 55.806204, 81.471091 55.803692, 81.432499 55.801168, 81.393911 55.798632, 81.355329 55.796083, 81.316751 55.793523, 81.278179 55.790951, 81.239612 55.788366, 81.201050 55.785770, 81.162493 55.783161, 81.123941 55.780541, 81.085394 55.777908, 81.046853 55.775263, 81.008317 55.772606, 80.969786 55.769937, 80.931260 55.767257, 80.892740 55.764564, 80.854225 55.761859, 80.815716 55.759142, 80.777211 55.756412, 80.738713 55.753671, 80.700219 55.750918, 80.661731 55.748153, 80.623249 55.745376, 80.584772 55.742587, 80.546301 55.739785, 80.507835 55.736972, 80.469374 55.734147, 80.430920 55.731310, 80.392470 55.728460, 80.354027 55.725599, 80.315589 55.722726, 80.277157 55.719840, 80.238730 55.716943, 80.200309 55.714034, 80.161894 55.711113, 80.123485 55.708179, 80.085081 55.705234, 80.046683 55.702277, 80.008292 55.699308, 79.969905 55.696326, 79.931525 55.693333, 79.893151 55.690328, 79.854782 55.687311, 79.816420 55.684282, 79.778063 55.681241, 79.739713 55.678188, 79.701368 55.675123, 79.663030 55.672046, 79.624697 55.668957, 79.586371 55.665857, 79.548050 55.662744, 79.509736 55.659619, 79.471428 55.656483, 79.433126 55.653334, 79.394830 55.650174, 79.356540 55.647002, 79.318257 55.643817, 79.279980 55.640621, 79.241709 55.637413, 79.203444 55.634193, 79.165186 55.630961, 79.126934 55.627718, 79.088688 55.624462, 79.050449 55.621194, 79.012216 55.617915, 78.973990 55.614623, 78.935769 55.611320, 78.897556 55.608005, 78.859349 55.604678, 78.821148 55.601339, 78.782954 55.597988, 78.744766 55.594626, 78.706585 55.591251, 78.668411 55.587865, 78.630243 55.584467, 78.592082 55.581057, 78.553927 55.577635, 78.515779 55.574201, 78.477638 55.570756, 78.439503 55.567298, 78.401375 55.563829, 78.363254 55.560348, 78.325140 55.556855, 78.287032 55.553350, 78.248931 55.549834, 78.210838 55.546305, 78.172750 55.542765, 78.134670 55.539213, 78.096597 55.535649, 78.058531 55.532074, 78.020471 55.528486, 77.982419 55.524887, 77.944373 55.521276, 77.906334 55.517653, 77.868303 55.514019, 77.830278 55.510372, 77.792261 55.506714, 77.754251 55.503044, 77.716247 55.499363, 77.678251 55.495669, 77.640262 55.491964, 77.602280 55.488247, 77.564306 55.484518, 77.526338 55.480778, 77.488378 55.477026, 77.450425 55.473262, 77.412479 55.469486, 77.374541 55.465699, 77.336609 55.461900, 77.298685 55.458089, 77.260769 55.454266, 77.222860 55.450432, 77.184958 55.446586, 77.147064 55.442728, 77.109177 55.438859, 77.071297 55.434978, 77.033425 55.431085, 76.995560 55.427180, 76.957703 55.423264, 76.919854 55.419336, 76.882012 55.415397, 76.844177 55.411445, 76.806350 55.407482, 76.768531 55.403508, 76.730719 55.399522, 76.692915 55.395524, 76.655119 55.391514, 76.617330 55.387493, 76.579549 55.383460, 76.541776 55.379415, 76.504010 55.375359, 76.466252 55.371291, 76.428502 55.367212, 76.390760 55.363121, 76.353026 55.359018, 76.315299 55.354904, 76.277580 55.350778, 76.239869 55.346641, 76.202166 55.342491, 76.164471 55.338331, 76.126784 55.334158, 76.089105 55.329974, 76.051434 55.325779, 76.013770 55.321572, 75.976115 55.317353, 75.938468 55.313123, 75.900829 55.308881, 75.863198 55.304628, 75.825574 55.300363, 75.787960 55.296086, 75.750353 55.291798, 75.712754 55.287498, 75.675163 55.283187, 75.637581 55.278864, 75.600007 55.274530, 75.562441 55.270184, 75.524883 55.265827, 75.487334 55.261458, 75.449793 55.257078, 75.412260 55.252686, 75.374735 55.248282, 75.337219 55.243867, 75.299711 55.239441, 75.262211 55.235003, 75.224720 55.230554, 75.187237 55.226093, 75.149763 55.221620, 75.112297 55.217137, 75.074839 55.212641, 75.037390 55.208134, 74.999950 55.203616, 74.962518 55.199086, 74.925094 55.194545, 74.887679 55.189993, 74.850273 55.185428, 74.812875 55.180853, 74.775486 55.176266, 74.738105 55.171667, 74.700733 55.167058, 74.663370 55.162436, 74.626015 55.157804, 74.588669 55.153159, 74.551332 55.148504, 74.514003 55.143837, 74.476683 55.139159, 74.439372 55.134469, 74.402070 55.129768, 74.364776 55.125055, 74.327492 55.120331, 74.290216 55.115596, 74.252949 55.110849, 74.215691 55.106091, 74.178442 55.101322, 74.141201 55.096541, 74.103970 55.091749, 74.066747 55.086946, 74.029534 55.082131, 73.992329 55.077305, 73.955134 55.072467, 73.917947 55.067618, 73.880769 55.062758, 73.843601 55.057887, 73.806441 55.053004, 73.769291 55.048110, 73.732150 55.043204, 73.695017 55.038288, 73.657894 55.033360, 73.620780 55.028420, 73.583676 55.023470, 73.546580 55.018508, 73.509494 55.013535, 73.472416 55.008550, 73.435348 55.003555, 73.398290 54.998548, 73.361240 54.993529, 73.324200 54.988500, 73.288409 54.995874, 73.252605 55.003237, 73.216788 55.010590, 73.180957 55.017932, 73.145114 55.025264, 73.109257 55.032585, 73.073388 55.039895, 73.037505 55.047195, 73.001609 55.054485, 72.965700 55.061764, 72.929778 55.069032, 72.893843 55.076290, 72.857895 55.083537, 72.821934 55.090774, 72.785960 55.098000, 72.749973 55.105215, 72.713973 55.112420, 72.677960 55.119614, 72.641934 55.126798, 72.605895 55.133971, 72.569843 55.141133, 72.533778 55.148285, 72.497700 55.155426, 72.461610 55.162556, 72.425506 55.169676, 72.389389 55.176785, 72.353260 55.183883, 72.317118 55.190971, 72.280963 55.198048, 72.244795 55.205114, 72.208614 55.212170, 72.172421 55.219214, 72.136214 55.226249, 72.099995 55.233272, 72.063763 55.240285, 72.027519 55.247287, 71.991261 55.254278, 71.954991 55.261258, 71.918708 55.268228, 71.882412 55.275187, 71.846104 55.282135, 71.809783 55.289073, 71.773449 55.295999, 71.737103 55.302915, 71.700743 55.309820, 71.664372 55.316714, 71.627987 55.323598, 71.591590 55.330470, 71.555181 55.337332, 71.518758 55.344183, 71.482323 55.351023, 71.445876 55.357853, 71.409416 55.364671, 71.372943 55.371479, 71.336458 55.378275, 71.299961 55.385061, 71.263450 55.391836, 71.226928 55.398600, 71.190393 55.405354, 71.153845 55.412096, 71.117285 55.418827, 71.080712 55.425548, 71.044127 55.432258, 71.007530 55.438956, 70.970920 55.445644, 70.934298 55.452321, 70.897663 55.458987, 70.861016 55.465642, 70.824357 55.472286, 70.787685 55.478919, 70.751001 55.485541, 70.714305 55.492152, 70.677596 55.498752, 70.640875 55.505341, 70.604142 55.511920, 70.567396 55.518487, 70.530639 55.525043, 70.493869 55.531588, 70.457086 55.538122, 70.420292 55.544645, 70.383485 55.551158, 70.346666 55.557659, 70.309835 55.564149, 70.272992 55.570628, 70.236137 55.577096, 70.199269 55.583553, 70.162390 55.589998, 70.125498 55.596433, 70.088594 55.602857, 70.051678 55.609269, 70.014750 55.615671, 69.977810 55.622061, 69.940858 55.628441, 69.903894 55.634809, 69.866918 55.641166, 69.829930 55.647512, 69.792930 55.653847, 69.755918 55.660170, 69.718894 55.666483, 69.681858 55.672784, 69.644810 55.679075, 69.607751 55.685354, 69.570679 55.691622, 69.533596 55.697878, 69.496500 55.704124, 69.459393 55.710358, 69.422274 55.716582, 69.385143 55.722794, 69.348001 55.728994, 69.310846 55.735184, 69.273680 55.741362, 69.236502 55.747530, 69.199312 55.753686, 69.162111 55.759830, 69.124898 55.765964, 69.087673 55.772086, 69.050436 55.778197, 69.013188 55.784297, 68.975928 55.790385, 68.938657 55.796462, 68.901373 55.802528, 68.864079 55.808583, 68.826772 55.814626, 68.789455 55.820658, 68.752125 55.826679, 68.714784 55.832689, 68.677431 55.838687, 68.640067 55.844673, 68.602692 55.850649, 68.565305 55.856613, 68.527906 55.862566, 68.490496 55.868507, 68.453075 55.874438, 68.415642 55.880356, 68.378198 55.886264, 68.340742 55.892160, 68.303275 55.898045, 68.265797 55.903918, 68.228307 55.909780, 68.190806 55.915630, 68.153294 55.921469, 68.115770 55.927297, 68.078235 55.933113, 68.040689 55.938918, 68.003132 55.944712, 67.965563 55.950494, 67.927983 55.956265, 67.890392 55.962024, 67.852790 55.967772, 67.815177 55.973508, 67.777552 55.979233, 67.739916 55.984946, 67.702270 55.990648, 67.664612 55.996339, 67.626943 56.002017, 67.589263 56.007685, 67.551572 56.013341, 67.513870 56.018985, 67.476157 56.024618, 67.438433 56.030240, 67.400698 56.035850, 67.362952 56.041448, 67.325195 56.047035, 67.287427 56.052611, 67.249648 56.058175, 67.211858 56.063727, 67.174058 56.069268, 67.136246 56.074797, 67.098424 56.080315, 67.060591 56.085821, 67.022747 56.091315, 66.984892 56.096798, 66.947027 56.102270, 66.909151 56.107729, 66.871264 56.113178, 66.833366 56.118614, 66.795458 56.124039, 66.757539 56.129453, 66.719609 56.134854, 66.681669 56.140245, 66.643718 56.145623, 66.605756 56.150990, 66.567784 56.156345, 66.529801 56.161689, 66.491808 56.167021, 66.453804 56.172341, 66.415790 56.177650, 66.377765 56.182947, 66.339729 56.188232, 66.301684 56.193506, 66.263627 56.198768, 66.225561 56.204018, 66.187483 56.209256, 66.149396 56.214483, 66.111298 56.219698, 66.073190 56.224902, 66.035071 56.230094, 65.996942 56.235274, 65.958803 56.240442, 65.920654 56.245598, 65.882494 56.250743, 65.844324 56.255876, 65.806144 56.260998, 65.767953 56.266107, 65.729752 56.271205, 65.691542 56.276291, 65.653321 56.281365, 65.615090 56.286428, 65.576848 56.291478, 65.538597 56.296517, 65.500336 56.301545, 65.462064 56.306560, 65.423783 56.311563, 65.385491 56.316555, 65.347190 56.321535, 65.308878 56.326503, 65.270557 56.331459, 65.232225 56.336404, 65.193884 56.341336, 65.155533 56.346257, 65.117172 56.351166, 65.078801 56.356063, 65.040420 56.360948, 65.002029 56.365822, 64.963629 56.370683, 64.925219 56.375533, 64.886799 56.380371, 64.848369 56.385197, 64.809930 56.390010, 64.771480 56.394813, 64.733022 56.399603, 64.694553 56.404381, 64.656075 56.409147, 64.617587 56.413902, 64.579090 56.418644, 64.540583 56.423375, 64.502066 56.428094, 64.463540 56.432801, 64.425004 56.437495, 64.386459 56.442178, 64.347905 56.446849, 64.309340 56.451508, 64.270767 56.456155, 64.232184 56.460790, 64.193592 56.465413, 64.154990 56.470025, 64.116379 56.474624, 64.077758 56.479211, 64.039128 56.483786, 64.000489 56.488349, 63.961841 56.492900, 63.923183 56.497440, 63.884516 56.501967, 63.845840 56.506482, 63.807155 56.510985, 63.768460 56.515476, 63.729757 56.519955, 63.691044 56.524422, 63.652322 56.528877, 63.613591 56.533320, 63.574851 56.537751, 63.536102 56.542170, 63.497344 56.546577, 63.458576 56.550972, 63.419800 56.555354, 63.381015 56.559725, 63.342221 56.564084, 63.303418 56.568430, 63.264606 56.572764, 63.225785 56.577087, 63.186956 56.581397, 63.148117 56.585695, 63.109270 56.589981, 63.070413 56.594255, 63.031549 56.598517, 62.992675 56.602766, 62.953792 56.607004, 62.914901 56.611229, 62.876002 56.615443, 62.837093 56.619644, 62.798176 56.623833, 62.759250 56.628010, 62.720316 56.632174, 62.681373 56.636327, 62.642421 56.640467, 62.603461 56.644595, 62.564493 56.648711, 62.525516 56.652815, 62.486530 56.656907, 62.447536 56.660987, 62.408534 56.665054, 62.369523 56.669109, 62.330504 56.673152, 62.291476 56.677183, 62.252440 56.681201, 62.213396 56.685207, 62.174343 56.689202, 62.135283 56.693183, 62.096214 56.697153, 62.057136 56.701111, 62.018051 56.705056, 61.978957 56.708989, 61.939855 56.712909, 61.900745 56.716818, 61.861627 56.720714, 61.822501 56.724598, 61.783367 56.728470, 61.744225 56.732329, 61.705074 56.736176, 61.665916 56.740011, 61.626750 56.743834, 61.587575 56.747644, 61.548393 56.751442, 61.509203 56.755228, 61.470005 56.759002, 61.430799 56.762763, 61.391585 56.766512, 61.352364 56.770248, 61.313135 56.773973, 61.273897 56.777685, 61.234653 56.781384, 61.195400 56.785072, 61.156140 56.788747, 61.116872 56.792409, 61.077596 56.796060, 61.038313 56.799698, 60.999022 56.803323, 60.959724 56.806937, 60.920418 56.810538, 60.881104 56.814126, 60.841783 56.817702, 60.802454 56.821266, 60.763118 56.824818, 60.723775 56.828357, 60.684424 56.831884, 60.645066 56.835398, 60.605700 56.838900, 60.565885 56.840728, 60.526067 56.842543, 60.486245 56.844345, 60.446419 56.846135, 60.406589 56.847912, 60.366755 56.849676, 60.326918 56.851428, 60.287077 56.853167, 60.247232 56.854893, 60.207384 56.856607, 60.167532 56.858307, 60.127676 56.859996, 60.087817 56.861671, 60.047954 56.863334, 60.008088 56.864984, 59.968218 56.866622, 59.928344 56.868246, 59.888468 56.869858, 59.848587 56.871458, 59.808704 56.873044, 59.768817 56.874618, 59.728927 56.876179, 59.689033 56.877728, 59.649136 56.879264, 59.609236 56.880787, 59.569332 56.882297, 59.529426 56.883795, 59.489516 56.885280, 59.449603 56.886752, 59.409687 56.888211, 59.369768 56.889658, 59.329845 56.891092, 59.289920 56.892513, 59.249992 56.893922, 59.210060 56.895318, 59.170126 56.896701, 59.130189 56.898071, 59.090248 56.899429, 59.050305 56.900774, 59.010359 56.902106, 58.970410 56.903425, 58.930459 56.904732, 58.890504 56.906026, 58.850547 56.907307, 58.810587 56.908575, 58.770625 56.909831, 58.730660 56.911074, 58.690692 56.912304, 58.650721 56.913522, 58.610748 56.914726, 58.570772 56.915918, 58.530794 56.917097, 58.490814 56.918264, 58.450830 56.919417, 58.410845 56.920558, 58.370857 56.921686, 58.330866 56.922802, 58.290873 56.923904, 58.250878 56.924994, 58.210880 56.926071, 58.170881 56.927135, 58.130878 56.928187, 58.090874 56.929226, 58.050868 56.930252, 58.010859 56.931265, 57.970848 56.932265, 57.930835 56.933253, 57.890820 56.934228, 57.850802 56.935190, 57.810783 56.936139, 57.770762 56.937076, 57.730739 56.937999, 57.690713 56.938910, 57.650686 56.939808, 57.610657 56.940694, 57.570626 56.941566, 57.530593 56.942426, 57.490558 56.943273, 57.450522 56.944107, 57.410484 56.944929, 57.370443 56.945738, 57.330402 56.946533, 57.290358 56.947316, 57.250313 56.948087, 57.210266 56.948844, 57.170218 56.949589, 57.130168 56.950321, 57.090116 56.951040, 57.050063 56.951746, 57.010009 56.952440, 56.969953 56.953120, 56.929895 56.953788, 56.889836 56.954443, 56.849776 56.955085, 56.809714 56.955715, 56.769651 56.956332, 56.729587 56.956935, 56.689522 56.957527, 56.649455 56.958105, 56.609387 56.958670, 56.569317 56.959223, 56.529247 56.959763, 56.489175 56.960290, 56.449102 56.960804, 56.409029 56.961305, 56.368954 56.961794, 56.328878 56.962270, 56.288801 56.962733, 56.248723 56.963183, 56.208644 56.963620, 56.168564 56.964045, 56.128484 56.964456, 56.088402 56.964855, 56.048320 56.965241, 56.008236 56.965615, 55.968152 56.965975, 55.928068 56.966323, 55.887982 56.966658, 55.847896 56.966980, 55.807809 56.967289, 55.767721 56.967585, 55.727633 56.967869, 55.687544 56.968139, 55.647455 56.968397, 55.607365 56.968642, 55.567275 56.968875, 55.527184 56.969094, 55.487092 56.969301, 55.447001 56.969495, 55.406908 56.969676, 55.366816 56.969844, 55.326723 56.969999, 55.286630 56.970142, 55.246536 56.970271, 55.206442 56.970388, 55.166348 56.970492, 55.126254 56.970584, 55.086160 56.970662, 55.046065 56.970728, 55.005971 56.970780, 54.965876 56.970820, 54.925781 56.970848, 54.885686 56.970862, 54.845591 56.970863, 54.805496 56.970852, 54.765401 56.970828, 54.725306 56.970791, 54.685212 56.970741, 54.645117 56.970679, 54.605023 56.970603, 54.564928 56.970515, 54.524834 56.970414, 54.484740 56.970300, 54.444647 56.970173, 54.404554 56.970034, 54.364461 56.969881, 54.324368 56.969716, 54.284276 56.969538, 54.244184 56.969347, 54.204092 56.969144, 54.164001 56.968927, 54.123911 56.968698, 54.083821 56.968456, 54.043731 56.968201, 54.003642 56.967933, 53.963554 56.967653, 53.923466 56.967359, 53.883379 56.967053, 53.843293 56.966734, 53.803207 56.966402, 53.763122 56.966058, 53.723038 56.965700, 53.682955 56.965330, 53.642872 56.964947, 53.602790 56.964551, 53.562709 56.964142, 53.522629 56.963721, 53.482550 56.963286, 53.442472 56.962839, 53.402395 56.962379, 53.362319 56.961906, 53.322244 56.961421, 53.282170 56.960922, 53.242097 56.960411, 53.202025 56.959887, 53.161954 56.959350, 53.121884 56.958800, 53.081816 56.958238, 53.041749 56.957663, 53.001683 56.957075, 52.961618 56.956474, 52.921555 56.955860, 52.881493 56.955234, 52.841432 56.954594, 52.801373 56.953942, 52.761315 56.953277, 52.721259 56.952600, 52.681204 56.951909, 52.641151 56.951206, 52.601099 56.950490, 52.561048 56.949761, 52.521000 56.949019, 52.480952 56.948265, 52.440907 56.947498, 52.400863 56.946717, 52.360821 56.945925, 52.320781 56.945119, 52.280742 56.944300, 52.240705 56.943469, 52.200670 56.942625, 52.160636 56.941768, 52.120605 56.940899, 52.080575 56.940016, 52.040548 56.939121, 52.000522 56.938213, 51.960498 56.937292, 51.920476 56.936359, 51.880457 56.935413, 51.840439 56.934454, 51.800423 56.933482, 51.760410 56.932497, 51.720398 56.931500, 51.680389 56.930489, 51.640382 56.929466, 51.600377 56.928431, 51.560375 56.927382, 51.520374 56.926321, 51.480376 56.925247, 51.440380 56.924160, 51.400387 56.923060, 51.360396 56.921948, 51.320407 56.920823, 51.280421 56.919685, 51.240437 56.918534, 51.200456 56.917371, 51.160477 56.916195, 51.120501 56.915006, 51.080527 56.913804, 51.040556 56.912590, 51.000587 56.911363, 50.960622 56.910123, 50.920658 56.908870, 50.880698 56.907604, 50.840740 56.906326, 50.800785 56.905035, 50.760833 56.903732, 50.720883 56.902415, 50.680937 56.901086, 50.640993 56.899744, 50.601052 56.898390, 50.561114 56.897022, 50.521179 56.895642, 50.481247 56.894249, 50.441318 56.892844, 50.401392 56.891425, 50.361469 56.889994, 50.321549 56.888550, 50.281632 56.887094, 50.241718 56.885625, 50.201808 56.884143, 50.161900 56.882648, 50.121996 56.881141, 50.082095 56.879621, 50.042198 56.878088, 50.002303 56.876542, 49.962412 56.874984, 49.922524 56.873413, 49.882640 56.871829, 49.842759 56.870233, 49.802881 56.868624, 49.763007 56.867002, 49.723137 56.865368, 49.683269 56.863721, 49.643406 56.862061, 49.603546 56.860388, 49.563689 56.858703, 49.523836 56.857005, 49.483987 56.855294, 49.444141 56.853571, 49.404299 56.851835, 49.364461 56.850086, 49.324627 56.848325, 49.284796 56.846551, 49.244969 56.844764, 49.205146 56.842965, 49.165327 56.841153, 49.125511 56.839328, 49.085700 56.837491, 49.045892 56.835641, 49.006088 56.833778, 48.966289 56.831902, 48.926493 56.830014, 48.886701 56.828114, 48.846914 56.826200, 48.807130 56.824274, 48.767351 56.822336, 48.727576 56.820384, 48.687804 56.818420, 48.648037 56.816444, 48.608275 56.814455, 48.568516 56.812453, 48.528762 56.810438, 48.489012 56.808411, 48.449266 56.806371, 48.409525 56.804319, 48.369788 56.802254, 48.330056 56.800176, 48.290327 56.798086, 48.250604 56.795983, 48.210885 56.793867, 48.171170 56.791739, 48.131460 56.789598, 48.091754 56.787445, 48.052053 56.785279, 48.012356 56.783100, 47.972665 56.780909, 47.932977 56.778705, 47.893295 56.776489, 47.853617 56.774260, 47.813944 56.772018, 47.774275 56.769764, 47.734612 56.767497, 47.694953 56.765218, 47.655299 56.762926, 47.615650 56.760622, 47.576006 56.758305, 47.536366 56.755975, 47.496732 56.753633, 47.457103 56.751278, 47.417478 56.748911, 47.377859 56.746531, 47.338244 56.744138, 47.298635 56.741733, 47.259031 56.739315, 47.219432 56.736885, 47.179838 56.734443, 47.140249 56.731987, 47.100665 56.729519, 47.061087 56.727039, 47.021513 56.724546, 46.981945 56.722041, 46.942383 56.719523, 46.902825 56.716992, 46.863273 56.714449, 46.823726 56.711894, 46.784185 56.709326, 46.744649 56.706745, 46.705119 56.704152, 46.665594 56.701547, 46.626074 56.698928, 46.586560 56.696298, 46.547052 56.693655, 46.507549 56.690999, 46.468052 56.688331, 46.428560 56.685650, 46.389074 56.682957, 46.349593 56.680252, 46.310119 56.677534, 46.270650 56.674803, 46.231186 56.672060, 46.191729 56.669304, 46.152277 56.666536, 46.112831 56.663756, 46.073391 56.660963, 46.033957 56.658158, 45.994529 56.655340, 45.955106 56.652509, 45.915690 56.649667, 45.876279 56.646811, 45.836874 56.643944, 45.797476 56.641064, 45.758083 56.638171, 45.718697 56.635266, 45.679316 56.632349, 45.639942 56.629419, 45.600574 56.626477, 45.561212 56.623522, 45.521856 56.620555, 45.482506 56.617575, 45.443163 56.614583, 45.403826 56.611579, 45.364495 56.608562, 45.325170 56.605533, 45.285852 56.602491, 45.246540 56.599437, 45.207234 56.596371, 45.167935 56.593292, 45.128642 56.590201, 45.089356 56.587098, 45.050076 56.583982, 45.010803 56.580853, 44.971536 56.577713, 44.932275 56.574560, 44.893022 56.571394, 44.853774 56.568217, 44.814534 56.565026, 44.775300 56.561824, 44.736073 56.558609, 44.696852 56.555382, 44.657638 56.552142, 44.618431 56.548891, 44.579230 56.545626, 44.540037 56.542350, 44.500850 56.539061, 44.461670 56.535760, 44.422496 56.532446, 44.383330 56.529120, 44.344171 56.525782, 44.305018 56.522432, 44.265872 56.519069, 44.226734 56.515694, 44.187602 56.512307, 44.148477 56.508907, 44.109360 56.505495, 44.070249 56.502071, 44.031146 56.498634, 43.992049 56.495186, 43.952960 56.491724, 43.913878 56.488251, 43.874803 56.484765, 43.835735 56.481268, 43.796674 56.477757, 43.757621 56.474235, 43.718575 56.470700, 43.679536 56.467153, 43.640505 56.463594, 43.601480 56.460023, 43.562464 56.456439, 43.523454 56.452843, 43.484452 56.449235, 43.445457 56.445615, 43.406470 56.441982, 43.367490 56.438338, 43.328518 56.434681, 43.289553 56.431011, 43.250596 56.427330, 43.211647 56.423636, 43.172705 56.419931, 43.133770 56.416213, 43.094843 56.412482, 43.055924 56.408740, 43.017013 56.404985, 42.978109 56.401219, 42.939213 56.397440, 42.900324 56.393649, 42.861443 56.389845, 42.822571 56.386030, 42.783706 56.382202, 42.744848 56.378363, 42.705999 56.374511, 42.667157 56.370647, 42.628324 56.366771, 42.589498 56.362883, 42.550680 56.358982, 42.511870 56.355070, 42.473068 56.351145, 42.434275 56.347208, 42.395489 56.343259, 42.356711 56.339298, 42.317941 56.335325, 42.279179 56.331340, 42.240426 56.327343, 42.201680 56.323333, 42.162943 56.319312, 42.124214 56.315278, 42.085493 56.311233, 42.046780 56.307175, 42.008076 56.303105, 41.969380 56.299023, 41.930692 56.294929, 41.892012 56.290823, 41.853341 56.286705, 41.814678 56.282575, 41.776023 56.278433, 41.737377 56.274279, 41.698739 56.270113, 41.660110 56.265935, 41.621489 56.261744, 41.582876 56.257542, 41.544272 56.253328, 41.505677 56.249101, 41.467090 56.244863, 41.428511 56.240613, 41.389942 56.236351, 41.351380 56.232076, 41.312828 56.227790, 41.274284 56.223492, 41.235749 56.219181, 41.197222 56.214859, 41.158704 56.210525, 41.120195 56.206179, 41.081694 56.201821, 41.043203 56.197451, 41.004720 56.193069, 40.966245 56.188675, 40.927780 56.184269, 40.889324 56.179851, 40.850876 56.175421, 40.812437 56.170979, 40.774008 56.166526, 40.735587 56.162060, 40.697175 56.157583, 40.658772 56.153093, 40.620378 56.148592, 40.581993 56.144079, 40.543617 56.139554, 40.505250 56.135017, 40.466892 56.130468, 40.428543 56.125907, 40.390203 56.121335, 40.351873 56.116750, 40.313552 56.112154, 40.275239 56.107546, 40.236936 56.102925, 40.198642 56.098294, 40.160358 56.093650, 40.122082 56.088994, 40.083816 56.084327, 40.045559 56.079647, 40.007312 56.074956, 39.969074 56.070253, 39.930845 56.065539, 39.892625 56.060812, 39.854415 56.056074, 39.816214 56.051324, 39.778023 56.046562, 39.739841 56.041788, 39.701669 56.037003, 39.663506 56.032205, 39.625352 56.027396, 39.587209 56.022575, 39.549074 56.017743, 39.510949 56.012898, 39.472834 56.008042, 39.434728 56.003174, 39.396632 55.998295, 39.358546 55.993403, 39.320469 55.988500, 39.282402 55.983585, 39.244345 55.978659, 39.206297 55.973721, 39.168259 55.968771, 39.130231 55.963809, 39.092212 55.958835, 39.054203 55.953850, 39.016205 55.948854, 38.978215 55.943845, 38.940236 55.938825, 38.902267 55.933793, 38.864307 55.928750, 38.826358 55.923694, 38.788418 55.918628, 38.750488 55.913549, 38.712568 55.908459, 38.674658 55.903357, 38.636758 55.898244, 38.598869 55.893119, 38.560989 55.887982, 38.523119 55.882834, 38.485259 55.877674, 38.447409 55.872502, 38.409570 55.867319, 38.371740 55.862124, 38.333921 55.856918, 38.296111 55.851700, 38.258312 55.846470, 38.220523 55.841229, 38.182745 55.835976, 38.144976 55.830712, 38.107218 55.825436, 38.069470 55.820149, 38.031732 55.814850, 37.994005 55.809539, 37.956288 55.804217, 37.918581 55.798884, 37.880884 55.793538, 37.843198 55.788182, 37.805523 55.782814, 37.767857 55.777434, 37.730202 55.772043, 37.692558 55.766640, 37.654924 55.761226, 37.617300 55.755800, 37.578508 55.754727, 37.539718 55.753642, 37.500930 55.752544, 37.462144 55.751434, 37.423361 55.750312, 37.384580 55.749178, 37.345801 55.748032, 37.307024 55.746873, 37.268250 55.745703, 37.229478 55.744520, 37.190708 55.743324, 37.151941 55.742117, 37.113176 55.740897, 37.074414 55.739665, 37.035654 55.738421, 36.996896 55.737165, 36.958141 55.735897, 36.919389 55.734616, 36.880639 55.733323, 36.841892 55.732018, 36.803147 55.730701, 36.764405 55.729372, 36.725666 55.728030, 36.686929 55.726677, 36.648195 55.725311, 36.609463 55.723933, 36.570735 55.722542, 36.532009 55.721140, 36.493286 55.719725, 36.454566 55.718298, 36.415849 55.716859, 36.377134 55.715408, 36.338423 55.713945, 36.299714 55.712469, 36.261008 55.710981, 36.222305 55.709481, 36.183606 55.707969, 36.144909 55.706445, 36.106215 55.704909, 36.067524 55.703360, 36.028837 55.701799, 35.990152 55.700227, 35.951471 55.698642, 35.912792 55.697044, 35.874117 55.695435, 35.835446 55.693814, 35.796777 55.692180, 35.758111 55.690534, 35.719449 55.688876, 35.680790 55.687206, 35.642135 55.685524, 35.603483 55.683829, 35.564834 55.682123, 35.526188 55.680404, 35.487546 55.678673, 35.448908 55.676931, 35.410273 55.675175, 35.371641 55.673408, 35.333013 55.671629, 35.294388 55.669837, 35.255767 55.668034, 35.217149 55.666218, 35.178535 55.664390, 35.139925 55.662550, 35.101318 55.660698, 35.062715 55.658834, 35.024116 55.656958, 34.985520 55.655070, 34.946928 55.653169, 34.908340 55.651256, 34.869756 55.649332, 34.831175 55.647395, 34.792599 55.645446, 34.754026 55.643485, 34.715457 55.641512, 34.676892 55.639527, 34.638331 55.637529, 34.599773 55.635520, 34.561220 55.633498, 34.522671 55.631465, 34.484126 55.629419, 34.445584 55.627361, 34.407047 55.625292, 34.368514 55.623210, 34.329985 55.621116, 34.291460 55.619010, 34.252940 55.616892, 34.214423 55.614761, 34.175911 55.612619, 34.137403 55.610465, 34.098899 55.608299, 34.060399 55.606120, 34.021904 55.603930, 33.983413 55.601727, 33.944926 55.599512, 33.906444 55.597286, 33.867966 55.595047, 33.829492 55.592796, 33.791023 55.590534, 33.752559 55.588259, 33.714098 55.585972, 33.675643 55.583673, 33.637192 55.581362, 33.598745 55.579039, 33.560303 55.576704, 33.521865 55.574357, 33.483433 55.571998, 33.445004 55.569627, 33.406581 55.567244, 33.368162 55.564849, 33.329747 55.562442, 33.291338 55.560023, 33.252933 55.557592, 33.214533 55.555148, 33.176138 55.552693, 33.137748 55.550226, 33.099362 55.547747, 33.060981 55.545256, 33.022605 55.542753, 32.984234 55.540238, 32.945868 55.537711, 32.907507 55.535171, 32.869151 55.532620, 32.830800 55.530057, 32.792454 55.527482, 32.754113 55.524895, 32.715777 55.522296, 32.677446 55.519685, 32.639120 55.517063, 32.600799 55.514428, 32.562483 55.511781, 32.524173 55.509122, 32.485868 55.506451, 32.447568 55.503769, 32.409273 55.501074, 32.370983 55.498367, 32.332699 55.495649, 32.294420 55.492918, 32.256146 55.490176, 32.217878 55.487422, 32.179615 55.484656, 32.141357 55.481877, 32.103105 55.479087, 32.064858 55.476285, 32.026617 55.473471, 31.988381 55.470645, 31.950151 55.467808, 31.911926 55.464958, 31.873707 55.462096, 31.835493 55.459223, 31.797285 55.456337, 31.759082 55.453440, 31.720885 55.450531, 31.682694 55.447610, 31.644508 55.444677, 31.606328 55.441732, 31.568154 55.438775, 31.529986 55.435806, 31.491823 55.432826, 31.453666 55.429834, 31.415515 55.426829, 31.377369 55.423813, 31.339230 55.420785, 31.301096 55.417745, 31.262968 55.414694, 31.224847 55.411630, 31.186731 55.408555, 31.148621 55.405467, 31.110517 55.402368, 31.072418 55.399257, 31.034326 55.396134, 30.996240 55.393000, 30.958160 55.389853, 30.920087 55.386695, 30.882019 55.383525, 30.843957 55.380343, 30.805901 55.377149, 30.767852 55.373944, 30.729809 55.370726, 30.691772 55.367497, 30.653741 55.364256, 30.615716 55.361003, 30.577698 55.357739, 30.539686 55.354462, 30.501680 55.351174, 30.463681 55.347874, 30.425688 55.344562, 30.387701 55.341239, 30.349721 55.337903, 30.311747 55.334556, 30.273779 55.331197, 30.235818 55.327827, 30.197864 55.324444, 30.159916 55.321050, 30.121974 55.317644, 30.084039 55.314226, 30.046111 55.310797, 30.008189 55.307356, 29.970273 55.303903, 29.932365 55.300438, 29.894462 55.296962, 29.856567 55.293474, 29.818678 55.289974, 29.780796 55.286462, 29.742921 55.282939, 29.705052 55.279404, 29.667190 55.275857, 29.629335 55.272299, 29.591487 55.268728, 29.553645 55.265147, 29.515811 55.261553, 29.477983 55.257948, 29.440162 55.254331, 29.402348 55.250702, 29.364541 55.247062, 29.326741 55.243410, 29.288948 55.239746, 29.251161 55.236071, 29.213382 55.232384, 29.175610 55.228685, 29.137845 55.224974, 29.100086 55.221252, 29.062335 55.217519, 29.024591 55.213773, 28.986854 55.210016, 28.949125 55.206248, 28.911402 55.202467, 28.873687 55.198676, 28.835979 55.194872, 28.798278 55.191057, 28.760584 55.187230, 28.722897 55.183392, 28.685218 55.179542, 28.647546 55.175680, 28.609881 55.171807, 28.572224 55.167922, 28.534574 55.164025, 28.496931 55.160117, 28.459296 55.156198, 28.421668 55.152266, 28.384048 55.148323, 28.346435 55.144369, 28.308830 55.140403, 28.271232 55.136425, 28.233641 55.132436, 28.196058 55.128436, 28.158483 55.124423, 28.120915 55.120400, 28.083355 55.116364, 28.045802 55.112317, 28.008257 55.108259, 27.970720 55.104189, 27.933190 55.100107, 27.895668 55.096014, 27.858153 55.091909, 27.820647 55.087793, 27.783148 55.083666, 27.745656 55.079526, 27.708173 55.075376, 27.670697 55.071214, 27.633229 55.067040, 27.595769 55.062855, 27.558317 55.058658, 27.520873 55.054450, 27.483437 55.050230, 27.446008 55.045999, 27.408587 55.041756, 27.371175 55.037502, 27.333770 55.033237, 27.296373 55.028960, 27.258985 55.024671, 27.221604 55.020371, 27.184231 55.016060, 27.146866 55.011737, 27.109510 55.007403, 27.072161 55.003057, 27.034821 54.998700, 26.997489 54.994331, 26.960164 54.989951, 26.922848 54.985559, 26.885541 54.981157, 26.848241 54.976742, 26.810950 54.972317, 26.773666 54.967879, 26.736391 54.963431, 26.699125 54.958971, 26.661866 54.954500, 26.624616 54.950017, 26.587374 54.945523, 26.550141 54.941018, 26.512916 54.936501, 26.475699 54.931972, 26.438491 54.927433, 26.401291 54.922882, 26.364099 54.918320, 26.326916 54.913746, 26.289742 54.909161, 26.252576 54.904565, 26.215418 54.899957, 26.178269 54.895338, 26.141128 54.890708, 26.103996 54.886066, 26.066873 54.881413, 26.029758 54.876749, 25.992652 54.872073, 25.955554 54.867386, 25.918465 54.862688, 25.881385 54.857979, 25.844313 54.853258, 25.807250 54.848526, 25.770196 54.843782, 25.733150 54.839028, 25.696113 54.834262, 25.659085 54.829485, 25.622066 54.824696, 25.585055 54.819896, 25.548053 54.815085, 25.511060 54.810263, 25.474076 54.805430, 25.437101 54.800585, 25.400135 54.795729, 25.363177 54.790862, 25.326229 54.785984, 25.289289 54.781094, 25.252359 54.776193, 25.215437 54.771281, 25.178524 54.766358, 25.141620 54.761423, 25.104726 54.756478, 25.067840 54.751521, 25.030963 54.746553, 24.994095 54.741573, 24.957237 54.736583, 24.920387 54.731581, 24.883547 54.726569, 24.846716 54.721545, 24.809894 54.716510, 24.773081 54.711463, 24.736277 54.706406, 24.699482 54.701338, 24.662697 54.696258, 24.625921 54.691167, 24.589154 54.686065, 24.552396 54.680952, 24.515648 54.675828, 24.478909 54.670693, 24.442179 54.665546, 24.405458 54.660389, 24.368747 54.655220, 24.332045 54.650040, 24.295353 54.644849, 24.258670 54.639648, 24.221996 54.634435, 24.185332 54.629210, 24.148677 54.623975, 24.112032 54.618729, 24.075396 54.613472, 24.038769 54.608204, 24.002152 54.602924, 23.965545 54.597634, 23.928947 54.592332, 23.892358 54.587020, 23.855779 54.581696, 23.819210 54.576362, 23.782650 54.571016, 23.746100 54.565660, 23.709560 54.560292, 23.673029 54.554913, 23.636508 54.549524, 23.599996 54.544123, 23.563494 54.538712, 23.527002 54.533289, 23.490519 54.527855, 23.454047 54.522411, 23.417584 54.516955, 23.381130 54.511489, 23.344687 54.506011, 23.308253 54.500523, 23.271829 54.495024, 23.235415 54.489513, 23.199010 54.483992, 23.162616 54.478460, 23.126231 54.472917, 23.089856 54.467363, 23.053492 54.461798, 23.017137 54.456222, 22.980791 54.450635, 22.944456 54.445038, 22.908131 54.439429, 22.871816 54.433810, 22.835511 54.428180, 22.799215 54.422538, 22.762930 54.416886, 22.726655 54.411223, 22.690389 54.405549, 22.654134 54.399865, 22.617889 54.394169, 22.581654 54.388463, 22.545429 54.382746, 22.509214 54.377017, 22.473009 54.371279, 22.436814 54.365529, 22.400630 54.359768, 22.364456 54.353997, 22.328291 54.348215, 22.292137 54.342422, 22.255994 54.336618, 22.219860 54.330803, 22.183737 54.324978, 22.147623 54.319142, 22.111521 54.313295, 22.075428 54.307437, 22.039346 54.301568, 22.003274 54.295689, 21.967212 54.289799, 21.931160 54.283898, 21.895119 54.277987, 21.859089 54.272065, 21.823068 54.266132, 21.787058 54.260188, 21.751059 54.254233, 21.715069 54.248268, 21.679091 54.242292, 21.643122 54.236306, 21.607164 54.230308, 21.571217 54.224300, 21.535280 54.218281, 21.499353 54.212252, 21.463437 54.206212, 21.427532 54.200161, 21.391637 54.194100, 21.355753 54.188028, 21.319879 54.181945, 21.284015 54.175851, 21.248163 54.169747, 21.212320 54.163633, 21.176489 54.157507, 21.140668 54.151371, 21.104858 54.145225, 21.069058 54.139067, 21.033269 54.132900, 20.997491 54.126721, 20.961723 54.120532, 20.925966 54.114332, 20.890220 54.108122, 20.854484 54.101901, 20.818759 54.095670, 20.783045 54.089428, 20.747342 54.083175, 20.711649 54.076912, 20.675967 54.070638, 20.640296 54.064354, 20.604636 54.058059, 20.568987 54.051754, 20.533348 54.045438, 20.497720 54.039111, 20.462104 54.032774, 20.426498 54.026427, 20.390902 54.020069, 20.355318 54.013700, 20.319745 54.007321, 20.284182 54.000932, 20.248631 53.994532, 20.213090 53.988121, 20.177561 53.981700, 20.142042 53.975269, 20.106534 53.968827, 20.071038 53.962375, 20.035552 53.955912, 20.000077 53.949438, 19.964614 53.942955, 19.929161 53.936461, 19.893719 53.929956, 19.858289 53.923441, 19.822869 53.916915, 19.787461 53.910379, 19.752063 53.903833, 19.716677 53.897276, 19.681302 53.890709, 19.645938 53.884132, 19.610585 53.877544, 19.575244 53.870946, 19.539913 53.864337, 19.504594 53.857718, 19.469286 53.851088, 19.433989 53.844449, 19.398703 53.837799, 19.363428 53.831138, 19.328165 53.824467, 19.292913 53.817786, 19.257672 53.811095, 19.222442 53.804393, 19.187224 53.797681, 19.152017 53.790958, 19.116821 53.784225, 19.081636 53.777482, 19.046463 53.770729, 19.011301 53.763965, 18.976151 53.757192, 18.941012 53.750407, 18.905884 53.743613, 18.870768 53.736808, 18.835662 53.729993, 18.800569 53.723168, 18.765487 53.716332, 18.730416 53.709487, 18.695356 53.702631, 18.660308 53.695764, 18.625272 53.688888, 18.590247 53.682001, 18.555233 53.675104, 18.520231 53.668197, 18.485240 53.661280, 18.450261 53.654352, 18.415293 53.647415, 18.380337 53.640467, 18.345392 53.633509, 18.310459 53.626541, 18.275537 53.619562, 18.240627 53.612574, 18.205729 53.605575, 18.170842 53.598566, 18.135967 53.591547, 18.101103 53.584518, 18.066251 53.577479, 18.031410 53.570429, 17.996581 53.563370, 17.961764 53.556300, 17.926958 53.549220, 17.892164 53.542131, 17.857382 53.535031, 17.822611 53.527921, 17.787852 53.520800, 17.753105 53.513670, 17.718370 53.506530, 17.683646 53.499380, 17.648934 53.492219, 17.614233 53.485049, 17.579544 53.477868, 17.544868 53.470678, 17.510202 53.463477, 17.475549 53.456267, 17.440907 53.449046, 17.406277 53.441816, 17.371659 53.434575, 17.337053 53.427324, 17.302459 53.420064, 17.267876 53.412793, 17.233305 53.405512, 17.198746 53.398222, 17.164199 53.390921, 17.129664 53.383611, 17.095141 53.376290, 17.060629 53.368960, 17.026129 53.361619, 16.991642 53.354269, 16.957166 53.346909, 16.922702 53.339539, 16.888250 53.332158, 16.853810 53.324768, 16.819382 53.317368, 16.784965 53.309959, 16.750561 53.302539, 16.716169 53.295109, 16.681789 53.287669, 16.647420 53.280220, 16.613064 53.272761, 16.578719 53.265292, 16.544387 53.257812, 16.510067 53.250324, 16.475758 53.242825, 16.441462 53.235316, 16.407178 53.227798, 16.372906 53.220269, 16.338646 53.212731, 16.304397 53.205183, 16.270161 53.197626, 16.235937 53.190058, 16.201726 53.182481, 16.167526 53.174893, 16.133338 53.167297, 16.099163 53.159690, 16.064999 53.152073, 16.030848 53.144447, 15.996709 53.136811, 15.962582 53.129165, 15.928467 53.121510, 15.894364 53.113844, 15.860273 53.106169, 15.826195 53.098484, 15.792129 53.090790, 15.758075 53.083086, 15.724033 53.075372, 15.690003 53.067648, 15.655986 53.059915, 15.621981 53.052172, 15.587988 53.044419, 15.554007 53.036656, 15.520039 53.028884, 15.486082 53.021102, 15.452138 53.013311, 15.418207 53.005510, 15.384287 52.997699, 15.350380 52.989879, 15.316485 52.982048, 15.282602 52.974209, 15.248732 52.966359, 15.214874 52.958500, 15.181028 52.950632, 15.147195 52.942754, 15.113374 52.934866, 15.079565 52.926969, 15.045769 52.919062, 15.011985 52.911145, 14.978213 52.903219, 14.944454 52.895283, 14.910707 52.887338, 14.876972 52.879383, 14.843250 52.871419, 14.809540 52.863445, 14.775843 52.855461, 14.742158 52.847468, 14.708485 52.839466, 14.674825 52.831453, 14.641177 52.823432, 14.607542 52.815401, 14.573919 52.807360, 14.540309 52.799310, 14.506711 52.791250, 14.473125 52.783181, 14.439552 52.775103, 14.405992 52.767015, 14.372443 52.758917, 14.338908 52.750810, 14.305385 52.742694, 14.271874 52.734568, 14.238376 52.726433, 14.204890 52.718288, 14.171417 52.710134, 14.137956 52.701970, 14.104508 52.693797, 14.071072 52.685615, 14.037649 52.677423, 14.004239 52.669222, 13.970841 52.661011, 13.937455 52.652791, 13.904082 52.644562, 13.870722 52.636323, 13.837374 52.628075, 13.804039 52.619817, 13.770717 52.611551, 13.737407 52.603274, 13.704109 52.594989, 13.670824 52.586694, 13.637552 52.578390, 13.604293 52.570076, 13.571046 52.561754, 13.537811 52.553421, 13.504589 52.545080, 13.471380 52.536729, 13.438184 52.528369, 13.405000 52.520000, 13.372001 52.511364, 13.339015 52.502719, 13.306043 52.494065, 13.273083 52.485402, 13.240136 52.476730, 13.207202 52.468048, 13.174281 52.459357, 13.141374 52.450658, 13.108479 52.441949, 13.075597 52.433231, 13.042728 52.424503, 13.009872 52.415767, 12.977030 52.407022, 12.944200 52.398267, 12.911383 52.389504, 12.878579 52.380731, 12.845789 52.371949, 12.813011 52.363158, 12.780247 52.354359, 12.747495 52.345550, 12.714757 52.336732, 12.682031 52.327905, 12.649319 52.319069, 12.616620 52.310224, 12.583934 52.301369, 12.551261 52.292506, 12.518601 52.283634, 12.485954 52.274753, 12.453320 52.265863, 12.420699 52.256964, 12.388091 52.248055, 12.355497 52.239138, 12.322915 52.230212, 12.290347 52.221277, 12.257792 52.212333, 12.225250 52.203380, 12.192721 52.194418, 12.160205 52.185447, 12.127702 52.176468, 12.095212 52.167479, 12.062736 52.158481, 12.030272 52.149475, 11.997822 52.140459, 11.965385 52.131435, 11.932961 52.122402, 11.900550 52.113359, 11.868153 52.104308, 11.835768 52.095249, 11.803397 52.086180, 11.771038 52.077102, 11.738693 52.068016, 11.706362 52.058920, 11.674043 52.049816, 11.641737 52.040703, 11.609445 52.031581, 11.577166 52.022451, 11.544900 52.013311, 11.512647 52.004163, 11.480407 51.995006, 11.448181 51.985840, 11.415968 51.976665, 11.383768 51.967482, 11.351581 51.958289, 11.319407 51.949088, 11.287247 51.939878, 11.255100 51.930660, 11.222966 51.921433, 11.190845 51.912196, 11.158737 51.902952, 11.126643 51.893698, 11.094562 51.884436, 11.062494 51.875165, 11.030439 51.865885, 10.998398 51.856597, 10.966370 51.847300, 10.934355 51.837994, 10.902353 51.828679, 10.870365 51.819356, 10.838389 51.810024, 10.806427 51.800684, 10.774479 51.791335, 10.742543 51.781977, 10.710621 51.772611, 10.678712 51.763235, 10.646816 51.753852, 10.614933 51.744459, 10.583064 51.735058, 10.551208 51.725649, 10.519366 51.716230, 10.487536 51.706804, 10.455720 51.697368, 10.423917 51.687924, 10.392127 51.678472, 10.360351 51.669010, 10.328588 51.659541, 10.296838 51.650062, 10.265102 51.640576, 10.233378 51.631080, 10.201668 51.621576, 10.169972 51.612064, 10.138288 51.602543, 10.106618 51.593013, 10.074961 51.583475, 10.043318 51.573928, 10.011688 51.564373, 9.980071 51.554810, 9.948467 51.545238, 9.916877 51.535657, 9.885300 51.526068, 9.853736 51.516471, 9.822186 51.506865, 9.790649 51.497250, 9.759125 51.487627, 9.727614 51.477996, 9.696117 51.468356, 9.664633 51.458708, 9.633163 51.449051, 9.601706 51.439386, 9.570262 51.429713, 9.538831 51.420031, 9.507414 51.410341, 9.476010 51.400642, 9.444619 51.390935, 9.413242 51.381219, 9.381878 51.371496, 9.350527 51.361763, 9.319190 51.352023, 9.287866 51.342274, 9.256555 51.332517, 9.225258 51.322751, 9.193974 51.312977, 9.162703 51.303195, 9.131446 51.293404, 9.100202 51.283605, 9.068971 51.273798, 9.037754 51.263982, 9.006550 51.254159, 8.975359 51.244326, 8.944181 51.234486, 8.913017 51.224637, 8.881867 51.214780, 8.850729 51.204915, 8.819605 51.195042, 8.788495 51.185160, 8.757398 51.175270, 8.726314 51.165372, 8.695243 51.155465, 8.664186 51.145551, 8.633142 51.135628, 8.602111 51.125696, 8.571094 51.115757, 8.540090 51.105810, 8.509100 51.095854, 8.478122 51.085890, 8.447158 51.075918, 8.416208 51.065938, 8.385271 51.055949, 8.354347 51.045952, 8.323437 51.035948, 8.292539 51.025935, 8.261656 51.015914, 8.230785 51.005885, 8.199928 50.995847, 8.169085 50.985802, 8.138254 50.975748, 8.107437 50.965687, 8.076634 50.955617, 8.045843 50.945539, 8.015066 50.935453, 7.984303 50.925359, 7.953553 50.915257, 7.922816 50.905146, 7.892092 50.895028, 7.861382 50.884902, 7.830685 50.874767, 7.800002 50.864625, 7.769332 50.854474, 7.738675 50.844316, 7.708032 50.834149, 7.677401 50.823975, 7.646785 50.813792, 7.616181 50.803602, 7.585591 50.793403, 7.555015 50.783196, 7.524451 50.772982, 7.493902 50.762759, 7.463365 50.752529, 7.432842 50.742290, 7.402332 50.732044, 7.371835 50.721789, 7.341352 50.711527, 7.310882 50.701257, 7.280426 50.690978, 7.249983 50.680692, 7.219553 50.670398, 7.189136 50.660096, 7.158733 50.649786, 7.128343 50.639468, 7.097967 50.629142, 7.067604 50.618809, 7.037254 50.608467, 7.006918 50.598118, 6.976595 50.587760, 6.946285 50.577395, 6.915989 50.567022, 6.885706 50.556641, 6.855436 50.546253, 6.825180 50.535856, 6.794937 50.525452, 6.764707 50.515039, 6.734491 50.504619, 6.704288 50.494191, 6.674098 50.483756, 6.643922 50.473312, 6.613759 50.462861, 6.583609 50.452402, 6.553473 50.441935, 6.523350 50.431460, 6.493240 50.420978, 6.463144 50.410488, 6.433061 50.399990, 6.402991 50.389484, 6.372935 50.378970, 6.342892 50.368449, 6.312862 50.357920, 6.282846 50.347384, 6.252843 50.336839, 6.222853 50.326287, 6.192877 50.315727, 6.162914 50.305160, 6.132964 50.294585, 6.103028 50.284002, 6.073105 50.273411, 6.043195 50.262813, 6.013298 50.252207, 5.983415 50.241593, 5.953545 50.230972, 5.923689 50.220343, 5.893845 50.209706, 5.864015 50.199062, 5.834199 50.188410, 5.804395 50.177751, 5.774605 50.167084, 5.744829 50.156409, 5.715065 50.145727, 5.685315 50.135037, 5.655578 50.124339, 5.625854 50.113634, 5.596144 50.102921, 5.566447 50.092201, 5.536763 50.081473, 5.507093 50.070738, 5.477436 50.059995, 5.447792 50.049244, 5.418162 50.038486, 5.388544 50.027721, 5.358940 50.016948, 5.329350 50.006167, 5.299772 49.995379, 5.270208 49.984583, 5.240657 49.973780, 5.211119 49.962969, 5.181595 49.952151, 5.152084 49.941325, 5.122586 49.930492, 5.093102 49.919651, 5.063630 49.908803, 5.034172 49.897948, 5.004727 49.887085, 4.975296 49.876214, 4.945878 49.865336, 4.916473 49.854451, 4.887081 49.843558, 4.857702 49.832658, 4.828337 49.821750, 4.798985 49.810835, 4.769646 49.799912, 4.740320 49.788982, 4.711008 49.778045, 4.681709 49.767100, 4.652423 49.756148, 4.623150 49.745189, 4.593891 49.734222, 4.564645 49.723248, 4.535412 49.712266, 4.506192 49.701277, 4.476986 49.690281, 4.447792 49.679277, 4.418612 49.668267, 4.389445 49.657248, 4.360292 49.646223, 4.331151 49.635190, 4.302024 49.624150, 4.272910 49.613102, 4.243809 49.602047, 4.214721 49.590985, 4.185647 49.579916, 4.156586 49.568839, 4.127537 49.557755, 4.098503 49.546664, 4.069481 49.535565, 4.040472 49.524460, 4.011477 49.513347, 3.982495 49.502226, 3.953526 49.491099, 3.924570 49.479964, 3.895627 49.468822, 3.866698 49.457673, 3.837781 49.446517, 3.808878 49.435353, 3.779988 49.424183, 3.751111 49.413005, 3.722248 49.401820, 3.693397 49.390627, 3.664560 49.379428, 3.635735 49.368221, 3.606924 49.357007, 3.578126 49.345786, 3.549341 49.334558, 3.520570 49.323323, 3.491811 49.312081, 3.463066 49.300831, 3.434333 49.289574, 3.405614 49.278311, 3.376908 49.267040, 3.348215 49.255762, 3.319535 49.244476, 3.290868 49.233184, 3.262215 49.221885, 3.233574 49.210579, 3.204947 49.199265, 3.176332 49.187945, 3.147731 49.176617, 3.119143 49.165282, 3.090568 49.153941, 3.062006 49.142592, 3.033457 49.131236, 3.004921 49.119873, 2.976398 49.108503, 2.947889 49.097126, 2.919392 49.085743, 2.890909 49.074352, 2.862438 49.062954, 2.833981 49.051549, 2.805536 49.040137, 2.777105 49.028718, 2.748687 49.017292, 2.720282 49.005859, 2.691890 48.994419, 2.663510 48.982973, 2.635144 48.971519, 2.606791 48.960058, 2.578451 48.948590, 2.550124 48.937116, 2.521810 48.925634, 2.493509 48.914146, 2.465222 48.902651, 2.436947 48.891148, 2.408685 48.879639, 2.380436 48.868123, 2.352200 48.856600)
