LINESTRING (-105.010000 38.938000, -105.010889 38.937445, -105.011778 38.936889, -105.012667 38.936334, -105.013556 38.935778, -105.014446 38.935223, -105.015335 38.934667, -105.016224 38.934112, -105.017113 38.933556, -105.018002 38.933001, -105.018891 38.932445, -105.019780 38.931890, -105.020669 38.931334, -105.021558 38.930779, -105.022447 38.930223, -105.023336 38.929668, -105.024224 38.929112, -105.025113 38.928557, -105.026002 38.928001, -105.026891 38.927446, -105.027780 38.926890, -105.028669 38.926334, -105.029558 38.925779, -105.030447 38.925223, -105.031335 38.924668, -105.032224 38.924112, -105.033113 38.923556, -105.034002 38.923001, -105.034890 38.922445, -105.035779 38.921890, -105.036668 38.921334, -105.037557 38.920778, -105.038445 38.920223, -105.039334 38.919667, -105.040223 38.919111, -105.041111 38.918556, -105.042000 38.918000, -105.042835 38.917378, -105.043670 38.916757, -105.044505 38.916135, -105.045340 38.915513, -105.046175 38.914892, -105.047009 38.914270, -105.047844 38.913648, -105.048679 38.913026, -105.049514 38.912405, -105.050349 38.911783, -105.051184 38.911161, -105.052018 38.910540, -105.052853 38.909918, -105.053688 38.909296, -105.054523 38.908674, -105.055357 38.908053, -105.056192 38.907431, -105.057027 38.906809, -105.057861 38.906187, -105.058696 38.905565, -105.059531 38.904944, -105.060365 38.904322, -105.061200 38.903700, -105.061542 38.902862, -105.061885 38.902023, -105.062227 38.901185, -105.062570 38.900346, -105.062912 38.899508, -105.063254 38.898669, -105.063597 38.897831, -105.063939 38.896992, -105.064281 38.896154, -105.064624 38.895315, -105.064966 38.894477, -105.065308 38.893639, -105.065651 38.892800, -105.065993 38.891962, -105.066335 38.891123, -105.066678 38.890285, -105.067020 38.889446, -105.067362 38.888608, -105.067704 38.887769, -105.068047 38.886931, -105.068389 38.886092, -105.068731 38.885254, -105.069073 38.884415, -105.069416 38.883577, -105.069758 38.882738, -105.070100 38.881900, -105.069565 38.881112, -105.069030 38.880323, -105.068495 38.879535, -105.067960 38.878746, -105.067426 38.877958, -105.066891 38.877170, -105.066356 38.876381, -105.065821 38.875593, -105.065286 38.874804, -105.064751 38.874016, -105.064217 38.873227, -105.063682 38.872439, -105.063147 38.871651, -105.062612 38.870862, -105.062077 38.870074, -105.061543 38.869285, -105.061008 38.868497, -105.060473 38.867708, -105.059939 38.866920, -105.059404 38.866132, -105.058869 38.865343, -105.058335 38.864555, -105.057800 38.863766, -105.057265 38.862978, -105.056731 38.862189, -105.056196 38.861401, -105.055661 38.860612, -105.055127 38.859824, -105.054592 38.859035, -105.054058 38.858247, -105.053523 38.857458, -105.052989 38.856670, -105.052454 38.855882, -105.051919 38.855093, -105.051385 38.854305, -105.050850 38.853516, -105.050316 38.852728, -105.049781 38.851939, -105.049247 38.851151, -105.048713 38.850362, -105.048178 38.849574, -105.047644 38.848785, -105.047109 38.847997, -105.046575 38.847208, -105.046040 38.846420, -105.045506 38.845631, -105.044972 38.844843, -105.044437 38.844054, -105.043903 38.843266, -105.043369 38.842477, -105.042834 38.841689, -105.042300 38.840900)
