LINESTRING (13.905000 37.990000, 13.904280 37.989308, 13.903561 37.988616, 13.902841 37.987924, 13.902121 37.987233, 13.901401 37.986541, 13.900682 37.985849, 13.899962 37.985157, 13.899242 37.984465, 13.898523 37.983773, 13.897803 37.983081, 13.897083 37.982389, 13.896364 37.981698, 13.895644 37.981006, 13.894925 37.980314, 13.894205 37.979622, 13.893486 37.978930, 13.892766 37.978238, 13.892047 37.977546, 13.891327 37.976854, 13.890608 37.976162, 13.889888 37.975470, 13.889169 37.974778, 13.888449 37.974086, 13.887730 37.973394, 13.887010 37.972702, 13.886291 37.972010, 13.885571 37.971319, 13.884852 37.970627, 13.884133 37.969935, 13.883413 37.969243, 13.882694 37.968551, 13.881975 37.967859, 13.881255 37.967167, 13.880536 37.966475, 13.879817 37.965783, 13.879097 37.965091, 13.878378 37.964399, 13.877659 37.963707, 13.876940 37.963015, 13.876221 37.962323, 13.875501 37.961631, 13.874782 37.960939, 13.874063 37.960246, 13.873344 37.959554, 13.872625 37.958862, 13.871905 37.958170, 13.871186 37.957478, 13.870467 37.956786, 13.869748 37.956094, 13.869029 37.955402, 13.868310 37.954710, 13.867591 37.954018, 13.866872 37.953326, 13.866153 37.952634, 13.865434 37.951942, 13.864715 37.951250, 13.863996 37.950558, 13.863277 37.949865, 13.862558 37.949173, 13.861839 37.948481, 13.861120 37.947789, 13.860401 37.947097, 13.859682 37.946405, 13.858963 37.945713, 13.858244 37.945021, 13.857525 37.944328, 13.856807 37.943636, 13.856088 37.942944, 13.855369 37.942252, 13.854650 37.941560, 13.853931 37.940868, 13.853213 37.940176, 13.852494 37.939483, 13.851775 37.938791, 13.851056 37.938099, 13.850338 37.937407, 13.849619 37.936715, 13.848900 37.936023, 13.848181 37.935330, 13.847463 37.934638, 13.846744 37.933946, 13.846025 37.933254, 13.845307 37.932562, 13.844588 37.931869, 13.843870 37.931177, 13.843151 37.930485, 13.842432 37.929793, 13.841714 37.929100, 13.840995 37.928408, 13.840277 37.927716, 13.839558 37.927024, 13.838840 37.926331, 13.838121 37.925639, 13.837403 37.924947, 13.836684 37.924255, 13.835966 37.923562, 13.835247 37.922870, 13.834529 37.922178, 13.833810 37.921486, 13.833092 37.920793, 13.832374 37.920101, 13.831655 37.919409, 13.830937 37.918716, 13.830218 37.918024, 13.829500 37.917332, 13.828782 37.916640, 13.828063 37.915947, 13.827345 37.915255, 13.826627 37.914563, 13.825909 37.913870, 13.825190 37.913178, 13.824472 37.912486, 13.823754 37.911793, 13.823036 37.911101, 13.822317 37.910409, 13.821599 37.909716, 13.820881 37.909024, 13.820163 37.908331, 13.819445 37.907639, 13.818727 37.906947, 13.818008 37.906254, 13.817290 37.905562, 13.816572 37.904870, 13.815854 37.904177, 13.815136 37.903485, 13.814418 37.902792, 13.813700 37.902100, 13.814370 37.901380, 13.815040 37.900660, 13.815710 37.899940, 13.816380 37.899220, 13.817050 37.898500, 13.817720 37.897780, 13.818390 37.897060, 13.819060 37.896340, 13.819730 37.895620, 13.820400 37.894900, 13.821070 37.894180, 13.821740 37.893460, 13.822409 37.892740, 13.823079 37.892020, 13.823749 37.891300, 13.824419 37.890580, 13.825089 37.889860, 13.825759 37.889140, 13.826428 37.888420, 13.827098 37.887700, 13.827768 37.886980, 13.828438 37.886260, 13.829108 37.885540, 13.829777 37.884820, 13.830447 37.884100, 13.831117 37.883380, 13.831786 37.882660, 13.832456 37.881940, 13.833126 37.881220, 13.833795 37.880500, 13.834465 37.879779, 13.835135 37.879059, 13.835804 37.878339, 13.836474 37.877619, 13.837144 37.876899, 13.837813 37.876179, 13.838483 37.875459, 13.839152 37.874739, 13.839822 37.874019, 13.840491 37.873299, 13.841161 37.872578, 13.841830 37.871858, 13.842500 37.871138, 13.843169 37.870418, 13.843839 37.869698, 13.844508 37.868978, 13.845178 37.868258, 13.845847 37.867538, 13.846516 37.866817, 13.847186 37.866097, 13.847855 37.865377, 13.848525 37.864657, 13.849194 37.863937, 13.849863 37.863217, 13.850533 37.862496, 13.851202 37.861776, 13.851871 37.861056, 13.852541 37.860336, 13.853210 37.859616, 13.853879 37.858896, 13.854548 37.858175, 13.855218 37.857455, 13.855887 37.856735, 13.856556 37.856015, 13.857225 37.855295, 13.857894 37.854574, 13.858564 37.853854, 13.859233 37.853134, 13.859902 37.852414, 13.860571 37.851694, 13.861240 37.850973, 13.861909 37.850253, 13.862578 37.849533, 13.863247 37.848813, 13.863916 37.848092, 13.864586 37.847372, 13.865255 37.846652, 13.865924 37.845932, 13.866593 37.845211, 13.867262 37.844491, 13.867931 37.843771, 13.868600 37.843051, 13.869269 37.842330, 13.869938 37.841610, 13.870606 37.840890, 13.871275 37.840169, 13.871944 37.839449, 13.872613 37.838729, 13.873282 37.838009, 13.873951 37.837288, 13.874620 37.836568, 13.875289 37.835848, 13.875958 37.835127, 13.876626 37.834407, 13.877295 37.833687, 13.877964 37.832966, 13.878633 37.832246, 13.879301 37.831526, 13.879970 37.830805, 13.880639 37.830085, 13.881308 37.829365, 13.881976 37.828644, 13.882645 37.827924, 13.883314 37.827204, 13.883982 37.826483, 13.884651 37.825763, 13.885320 37.825043, 13.885988 37.824322, 13.886657 37.823602, 13.887326 37.822882, 13.887994 37.822161, 13.888663 37.821441, 13.889331 37.820720, 13.890000 37.820000, 13.891087 37.819754, 13.892175 37.819507, 13.893262 37.819261, 13.894350 37.819014, 13.895437 37.818768, 13.896525 37.818521, 13.897612 37.818275, 13.898699 37.818028, 13.899787 37.817782, 13.900874 37.817535, 13.901962 37.817289, 13.903049 37.817042, 13.904136 37.816796, 13.905224 37.816549, 13.906311 37.816303, 13.907398 37.816056, 13.908486 37.815810, 13.909573 37.815563, 13.910660 37.815316, 13.911748 37.815070, 13.912835 37.814823, 13.913922 37.814577, 13.915010 37.814330, 13.916097 37.814083, 13.917184 37.813837, 13.918271 37.813590, 13.919359 37.813343, 13.920446 37.813097, 13.921533 37.812850, 13.922620 37.812603, 13.923708 37.812356, 13.924795 37.812110, 13.925882 37.811863, 13.926969 37.811616, 13.928057 37.811369, 13.929144 37.811123, 13.930231 37.810876, 13.931318 37.810629, 13.932405 37.810382, 13.933493 37.810136, 13.934580 37.809889, 13.935667 37.809642, 13.936754 37.809395, 13.937841 37.809148, 13.938928 37.808901, 13.940015 37.808654, 13.941103 37.808408, 13.942190 37.808161, 13.943277 37.807914, 13.944364 37.807667, 13.945451 37.807420, 13.946538 37.807173, 13.947625 37.806926, 13.948712 37.806679, 13.949799 37.806432, 13.950886 37.806185, 13.951973 37.805938, 13.953060 37.805691, 13.954147 37.805444, 13.955234 37.805197, 13.956321 37.804950, 13.957408 37.804703, 13.958495 37.804456, 13.959582 37.804209, 13.960669 37.803962, 13.961756 37.803715, 13.962843 37.803468, 13.963930 37.803221, 13.965017 37.802974, 13.966104 37.802727, 13.967191 37.802480, 13.968278 37.802232, 13.969365 37.801985, 13.970452 37.801738, 13.971539 37.801491, 13.972626 37.801244, 13.973713 37.800997, 13.974800 37.800749, 13.975887 37.800502, 13.976973 37.800255, 13.978060 37.800008, 13.979147 37.799761, 13.980234 37.799513, 13.981321 37.799266, 13.982408 37.799019, 13.983495 37.798772, 13.984581 37.798524, 13.985668 37.798277, 13.986755 37.798030, 13.987842 37.797782, 13.988929 37.797535, 13.990015 37.797288, 13.991102 37.797040, 13.992189 37.796793, 13.993276 37.796546, 13.994362 37.796298, 13.995449 37.796051, 13.996536 37.795804, 13.997623 37.795556, 13.998709 37.795309, 13.999796 37.795061, 14.000883 37.794814, 14.001970 37.794567, 14.003056 37.794319, 14.004143 37.794072, 14.005230 37.793824, 14.006316 37.793577, 14.007403 37.793329, 14.008490 37.793082, 14.009576 37.792834, 14.010663 37.792587, 14.011750 37.792339, 14.012836 37.792092, 14.013923 37.791844, 14.015010 37.791597, 14.016096 37.791349, 14.017183 37.791101, 14.018269 37.790854, 14.019356 37.790606, 14.020443 37.790359, 14.021529 37.790111, 14.022616 37.789863, 14.023702 37.789616, 14.024789 37.789368, 14.025875 37.789120, 14.026962 37.788873, 14.028049 37.788625, 14.029135 37.788377, 14.030222 37.788130, 14.031308 37.787882, 14.032395 37.787634, 14.033481 37.787387, 14.034568 37.787139, 14.035654 37.786891, 14.036741 37.786643, 14.037827 37.786396, 14.038914 37.786148, 14.040000 37.785900, 14.040963 37.786365, 14.041925 37.786830, 14.042888 37.787295, 14.043851 37.787760, 14.044813 37.788225, 14.045776 37.788690, 14.046739 37.789155, 14.047701 37.789620, 14.048664 37.790085, 14.049627 37.790550, 14.050590 37.791015, 14.051553 37.791480, 14.052515 37.791945, 14.053478 37.792410, 14.054441 37.792875, 14.055404 37.793339, 14.056367 37.793804, 14.057329 37.794269, 14.058292 37.794734, 14.059255 37.795199, 14.060218 37.795664, 14.061181 37.796129, 14.062144 37.796594, 14.063107 37.797058, 14.064070 37.797523, 14.065033 37.797988, 14.065996 37.798453, 14.066959 37.798918, 14.067922 37.799382, 14.068885 37.799847, 14.069848 37.800312, 14.070811 37.800777, 14.071774 37.801242, 14.072737 37.801706, 14.073700 37.802171, 14.074663 37.802636, 14.075626 37.803101, 14.076589 37.803565, 14.077552 37.804030, 14.078515 37.804495, 14.079478 37.804959, 14.080441 37.805424, 14.081405 37.805889, 14.082368 37.806354, 14.083331 37.806818, 14.084294 37.807283, 14.085257 37.807748, 14.086220 37.808212, 14.087184 37.808677, 14.088147 37.809142, 14.089110 37.809606, 14.090073 37.810071, 14.091037 37.810535, 14.092000 37.811000, 14.092911 37.810511, 14.093821 37.810021, 14.094732 37.809532, 14.095642 37.809042, 14.096553 37.808553, 14.097464 37.808063, 14.098374 37.807574, 14.099285 37.807085, 14.100195 37.806595, 14.101106 37.806106, 14.102016 37.805616, 14.102927 37.805127, 14.103837 37.804637, 14.104748 37.804148, 14.105658 37.803658, 14.106569 37.803169, 14.107479 37.802679, 14.108390 37.802190, 14.109300 37.801700, 14.109882 37.802464, 14.110464 37.803228, 14.111047 37.803992, 14.111629 37.804756, 14.112211 37.805521, 14.112794 37.806285, 14.113376 37.807049, 14.113958 37.807813, 14.114540 37.808577, 14.115123 37.809341, 14.115705 37.810105, 14.116287 37.810869, 14.116870 37.811633, 14.117452 37.812397, 14.118035 37.813161, 14.118617 37.813925, 14.119199 37.814689, 14.119782 37.815453, 14.120364 37.816218, 14.120947 37.816982, 14.121529 37.817746, 14.122112 37.818510, 14.122694 37.819274, 14.123277 37.820038, 14.123859 37.820802, 14.124442 37.821566, 14.125024 37.822330, 14.125607 37.823094, 14.126189 37.823858, 14.126772 37.824622, 14.127354 37.825386, 14.127937 37.826150, 14.128520 37.826914, 14.129102 37.827678, 14.129685 37.828442, 14.130268 37.829206, 14.130850 37.829970, 14.131433 37.830734, 14.132016 37.831498, 14.132598 37.832262, 14.133181 37.833026, 14.133764 37.833790, 14.134346 37.834554, 14.134929 37.835318, 14.135512 37.836082, 14.136095 37.836846, 14.136677 37.837610, 14.137260 37.838374, 14.137843 37.839138, 14.138426 37.839902, 14.139009 37.840666, 14.139591 37.841430, 14.140174 37.842194, 14.140757 37.842958, 14.141340 37.843722, 14.141923 37.844486, 14.142506 37.845249, 14.143089 37.846013, 14.143672 37.846777, 14.144255 37.847541, 14.144838 37.848305, 14.145420 37.849069, 14.146003 37.849833, 14.146586 37.850597, 14.147169 37.851361, 14.147752 37.852125, 14.148335 37.852889, 14.148918 37.853653, 14.149502 37.854417, 14.150085 37.855181, 14.150668 37.855944, 14.151251 37.856708, 14.151834 37.857472, 14.152417 37.858236, 14.153000 37.859000, 14.152341 37.859730, 14.151681 37.860460, 14.151022 37.861191, 14.150363 37.861921, 14.149703 37.862651, 14.149044 37.863381, 14.148384 37.864111, 14.147725 37.864841, 14.147065 37.865572, 14.146406 37.866302, 14.145746 37.867032, 14.145087 37.867762, 14.144427 37.868492, 14.143768 37.869222, 14.143108 37.869952, 14.142449 37.870682, 14.141789 37.871413, 14.141130 37.872143, 14.140470 37.872873, 14.139810 37.873603, 14.139151 37.874333, 14.138491 37.875063, 14.137832 37.875793, 14.137172 37.876523, 14.136512 37.877253, 14.135853 37.877984, 14.135193 37.878714, 14.134533 37.879444, 14.133873 37.880174, 14.133214 37.880904, 14.132554 37.881634, 14.131894 37.882364, 14.131234 37.883094, 14.130575 37.883824, 14.129915 37.884554, 14.129255 37.885284, 14.128595 37.886014, 14.127935 37.886744, 14.127276 37.887474, 14.126616 37.888204, 14.125956 37.888934, 14.125296 37.889664, 14.124636 37.890395, 14.123976 37.891125, 14.123316 37.891855, 14.122656 37.892585, 14.121996 37.893315, 14.121336 37.894045, 14.120676 37.894775, 14.120016 37.895505, 14.119356 37.896235, 14.118696 37.896965, 14.118036 37.897695, 14.117376 37.898425, 14.116716 37.899155, 14.116056 37.899885, 14.115396 37.900615, 14.114736 37.901344, 14.114076 37.902074, 14.113416 37.902804, 14.112756 37.903534, 14.112095 37.904264, 14.111435 37.904994, 14.110775 37.905724, 14.110115 37.906454, 14.109455 37.907184, 14.108794 37.907914, 14.108134 37.908644, 14.107474 37.909374, 14.106814 37.910104, 14.106153 37.910834, 14.105493 37.911564, 14.104833 37.912294, 14.104173 37.913024, 14.103512 37.913753, 14.102852 37.914483, 14.102192 37.915213, 14.101531 37.915943, 14.100871 37.916673, 14.100210 37.917403, 14.099550 37.918133, 14.098890 37.918863, 14.098229 37.919593, 14.097569 37.920322, 14.096908 37.921052, 14.096248 37.921782, 14.095587 37.922512, 14.094927 37.923242, 14.094266 37.923972, 14.093606 37.924702, 14.092945 37.925432, 14.092285 37.926161, 14.091624 37.926891, 14.090964 37.927621, 14.090303 37.928351, 14.089643 37.929081, 14.088982 37.929811, 14.088321 37.930540, 14.087661 37.931270, 14.087000 37.932000, 14.085891 37.932178, 14.084781 37.932357, 14.083672 37.932535, 14.082562 37.932714, 14.081453 37.932892, 14.080344 37.933071, 14.079234 37.933249, 14.078125 37.933427, 14.077015 37.933606, 14.075906 37.933784, 14.074796 37.933962, 14.073687 37.934141, 14.072577 37.934319, 14.071468 37.934497, 14.070359 37.934676, 14.069249 37.934854, 14.068140 37.935032, 14.067030 37.935211, 14.065921 37.935389, 14.064811 37.935567, 14.063702 37.935745, 14.062592 37.935924, 14.061483 37.936102, 14.060373 37.936280, 14.059264 37.936458, 14.058154 37.936637, 14.057044 37.936815, 14.055935 37.936993, 14.054825 37.937171, 14.053716 37.937349, 14.052606 37.937527, 14.051497 37.937705, 14.050387 37.937884, 14.049278 37.938062, 14.048168 37.938240, 14.047058 37.938418, 14.045949 37.938596, 14.044839 37.938774, 14.043730 37.938952, 14.042620 37.939130, 14.041510 37.939308, 14.040401 37.939486, 14.039291 37.939664, 14.038182 37.939842, 14.037072 37.940020, 14.035962 37.940198, 14.034853 37.940376, 14.033743 37.940554, 14.032633 37.940732, 14.031524 37.940910, 14.030414 37.941088, 14.029304 37.941266, 14.028195 37.941444, 14.027085 37.941622, 14.025975 37.941800, 14.024866 37.941978, 14.023756 37.942155, 14.022646 37.942333, 14.021536 37.942511, 14.020427 37.942689, 14.019317 37.942867, 14.018207 37.943045, 14.017098 37.943222, 14.015988 37.943400, 14.014878 37.943578, 14.013768 37.943756, 14.012659 37.943934, 14.011549 37.944111, 14.010439 37.944289, 14.009329 37.944467, 14.008220 37.944645, 14.007110 37.944822, 14.006000 37.945000, 14.004971 37.944615, 14.003942 37.944229, 14.002913 37.943844, 14.001884 37.943458, 14.000855 37.943073, 13.999826 37.942687, 13.998798 37.942302, 13.997769 37.941917, 13.996740 37.941531, 13.995711 37.941146, 13.994682 37.940760, 13.993653 37.940375, 13.992625 37.939989, 13.991596 37.939604, 13.990567 37.939218, 13.989538 37.938832, 13.988509 37.938447, 13.987481 37.938061, 13.986452 37.937676, 13.985423 37.937290, 13.984394 37.936905, 13.983366 37.936519, 13.982337 37.936133, 13.981308 37.935748, 13.980280 37.935362, 13.979251 37.934977, 13.978222 37.934591, 13.977194 37.934205, 13.976165 37.933820, 13.975136 37.933434, 13.974108 37.933048, 13.973079 37.932663, 13.972051 37.932277, 13.971022 37.931891, 13.969993 37.931505, 13.968965 37.931120, 13.967936 37.930734, 13.966908 37.930348, 13.965879 37.929963, 13.964851 37.929577, 13.963822 37.929191, 13.962794 37.928805, 13.961765 37.928419, 13.960737 37.928034, 13.959708 37.927648, 13.958680 37.927262, 13.957651 37.926876, 13.956623 37.926490, 13.955594 37.926105, 13.954566 37.925719, 13.953538 37.925333, 13.952509 37.924947, 13.951481 37.924561, 13.950452 37.924175, 13.949424 37.923789, 13.948396 37.923404, 13.947367 37.923018, 13.946339 37.922632, 13.945311 37.922246, 13.944282 37.921860, 13.943254 37.921474, 13.942226 37.921088, 13.941198 37.920702, 13.940169 37.920316, 13.939141 37.919930, 13.938113 37.919544, 13.937085 37.919158, 13.936056 37.918772, 13.935028 37.918386, 13.934000 37.918000, 13.933659 37.918847, 13.933318 37.919694, 13.932977 37.920541, 13.932637 37.921388, 13.932296 37.922235, 13.931955 37.923083, 13.931614 37.923930, 13.931273 37.924777, 13.930932 37.925624, 13.930591 37.926471, 13.930250 37.927318, 13.929909 37.928165, 13.929568 37.929012, 13.929227 37.929859, 13.928886 37.930706, 13.928546 37.931553, 13.928205 37.932401, 13.927864 37.933248, 13.927523 37.934095, 13.927182 37.934942, 13.926841 37.935789, 13.926500 37.936636, 13.926159 37.937483, 13.925818 37.938330, 13.925476 37.939177, 13.925135 37.940024, 13.924794 37.940871, 13.924453 37.941718, 13.924112 37.942566, 13.923771 37.943413, 13.923430 37.944260, 13.923089 37.945107, 13.922748 37.945954, 13.922407 37.946801, 13.922066 37.947648, 13.921725 37.948495, 13.921383 37.949342, 13.921042 37.950189, 13.920701 37.951036, 13.920360 37.951883, 13.920019 37.952730, 13.919678 37.953577, 13.919337 37.954424, 13.918995 37.955271, 13.918654 37.956119, 13.918313 37.956966, 13.917972 37.957813, 13.917631 37.958660, 13.917289 37.959507, 13.916948 37.960354, 13.916607 37.961201, 13.916266 37.962048, 13.915924 37.962895, 13.915583 37.963742, 13.915242 37.964589, 13.914901 37.965436, 13.914559 37.966283, 13.914218 37.967130, 13.913877 37.967977, 13.913535 37.968824, 13.913194 37.969671, 13.912853 37.970518, 13.912511 37.971365, 13.912170 37.972212, 13.911829 37.973059, 13.911487 37.973907, 13.911146 37.974754, 13.910805 37.975601, 13.910463 37.976448, 13.910122 37.977295, 13.909780 37.978142, 13.909439 37.978989, 13.909098 37.979836, 13.908756 37.980683, 13.908415 37.981530, 13.908073 37.982377, 13.907732 37.983224, 13.907390 37.984071, 13.907049 37.984918, 13.906707 37.985765, 13.906366 37.986612, 13.906024 37.987459, 13.905683 37.988306, 13.905342 37.989153, 13.905000 37.990000)
