LINESTRING (-73.740830 45.470560, -73.861638 45.462258, -73.982411 45.453829, -74.103147 45.445273, -74.223846 45.436590, -74.344508 45.427779, -74.465131 45.418842, -74.585717 45.409777, -74.706263 45.400586, -74.826770 45.391268, -74.947237 45.381823, -75.067663 45.372252, -75.188049 45.362554, -75.308393 45.352730, -75.428695 45.342780, -75.548954 45.332703, -75.669170 45.322500, -75.777140 45.369890, -75.885292 45.417178, -75.993624 45.464364, -76.102138 45.511447, -76.210833 45.558427, -76.319710 45.605304, -76.428769 45.652077, -76.538010 45.698747, -76.647433 45.745312, -76.757039 45.791772, -76.866828 45.838128, -76.976799 45.884378, -77.086953 45.930523, -77.197291 45.976561, -77.307812 46.022494, -77.418517 46.068319, -77.529405 46.114038, -77.640477 46.159649, -77.751734 46.205152, -77.863174 46.250547, -77.974799 46.295834, -78.086609 46.341012, -78.198603 46.386081, -78.310782 46.431040, -78.423146 46.475889, -78.535696 46.520629, -78.648430 46.565257, -78.761350 46.609775, -78.874456 46.654181, -78.987747 46.698476, -79.101224 46.742659, -79.214887 46.786729, -79.328736 46.830687, -79.442771 46.874532, -79.556992 46.918263, -79.671400 46.961881, -79.785994 47.005384, -79.900774 47.048773, -80.015742 47.092047, -80.130896 47.135205, -80.246236 47.178249, -80.361764 47.221176, -80.477479 47.263987, -80.593381 47.306681, -80.709470 47.349258, -80.825746 47.391718, -80.942209 47.434060, -81.058860 47.476284, -81.175698 47.518389, -81.292723 47.560376, -81.409936 47.602243, -81.527336 47.643991, -81.644924 47.685619, -81.762700 47.727126, -81.880663 47.768513, -81.998813 47.809779, -82.117152 47.850923, -82.235678 47.891945, -82.354391 47.932846, -82.473293 47.973623, -82.592381 48.014278, -82.711658 48.054810, -82.831122 48.095218, -82.950774 48.135502, -83.070613 48.175661, -83.190640 48.215696, -83.310855 48.255606, -83.431257 48.295390, -83.551847 48.335049, -83.672624 48.374581, -83.793588 48.413986, -83.914740 48.453265, -84.036079 48.492416, -84.157605 48.531439, -84.279319 48.570334, -84.401219 48.609101, -84.523307 48.647739, -84.645581 48.686248, -84.768042 48.724627, -84.890690 48.762876, -85.013525 48.800995, -85.136546 48.838984, -85.259754 48.876841, -85.383148 48.914566, -85.506728 48.952160, -85.630494 48.989622, -85.754446 49.026951, -85.878584 49.064147, -86.002907 49.101209, -86.127416 49.138138, -86.252110 49.174933, -86.376990 49.211594, -86.502054 49.248120, -86.627304 49.284510, -86.752738 49.320765, -86.878356 49.356884, -87.004159 49.392867, -87.130146 49.428713, -87.256316 49.464422, -87.382671 49.499993, -87.509209 49.535427, -87.635930 49.570722, -87.762834 49.605879, -87.889921 49.640897, -88.017190 49.675776, -88.144642 49.710515, -88.272276 49.745114, -88.400092 49.779572, -88.528089 49.813890, -88.656268 49.848067, -88.784627 49.882102, -88.913168 49.915995, -89.041888 49.949746, -89.170789 49.983354, -89.299870 50.016819, -89.429130 50.050141, -89.558570 50.083320, -89.688188 50.116354, -89.817985 50.149243, -89.947961 50.181988, -90.078114 50.214587, -90.208445 50.247041, -90.338953 50.279349, -90.469638 50.311511, -90.600499 50.343526, -90.731537 50.375394, -90.862750 50.407114, -90.994139 50.438687, -91.125702 50.470111, -91.257441 50.501388, -91.389353 50.532515, -91.521439 50.563493, -91.653699 50.594321, -91.786131 50.625000, -91.918736 50.655528, -92.051513 50.685905, -92.184462 50.716132, -92.317582 50.746207, -92.450872 50.776130, -92.584333 50.805901, -92.717963 50.835520, -92.851763 50.864986, -92.985732 50.894299, -93.119869 50.923458, -93.254173 50.952464, -93.388645 50.981315, -93.523284 51.010012, -93.658089 51.038553, -93.793060 51.066940, -93.920350 51.034799, -94.047463 51.002521, -94.174398 50.970104, -94.301157 50.937550, -94.427737 50.904860, -94.554140 50.872032, -94.680364 50.839068, -94.806410 50.805968, -94.932277 50.772733, -95.057965 50.739362, -95.183473 50.705857, -95.308802 50.672217, -95.433951 50.638442, -95.558920 50.604534, -95.683709 50.570492, -95.808317 50.536318, -95.932744 50.502010, -96.056990 50.467570, -96.175487 50.494620, -96.294120 50.521550, -96.412888 50.548359, -96.531791 50.575047, -96.650828 50.601614, -96.770000 50.628060, -96.906665 50.628140, -97.043330 50.628060)
