LINESTRING (-52.748000 47.591000, -52.689425 47.612391, -52.630801 47.633753, -52.572130 47.655084, -52.513411 47.676386, -52.454644 47.697657, -52.395829 47.718899, -52.336966 47.740110, -52.278055 47.761291, -52.219096 47.782442, -52.160089 47.803563, -52.101034 47.824654, -52.041931 47.845714, -51.982780 47.866744, -51.923582 47.887744, -51.864335 47.908713, -51.805040 47.929652, -51.745697 47.950560, -51.686306 47.971437, -51.626868 47.992284, -51.567381 48.013100, -51.507846 48.033886, -51.448263 48.054641, -51.388633 48.075364, -51.328954 48.096057, -51.269227 48.116719, -51.209452 48.137350, -51.149629 48.157950, -51.089758 48.178519, -51.029839 48.199057, -50.969872 48.219564, -50.909857 48.240039, -50.849794 48.260484, -50.789683 48.280897, -50.729524 48.301278, -50.669317 48.321628, -50.609062 48.341947, -50.548759 48.362234, -50.488407 48.382490, -50.428008 48.402714, -50.367561 48.422907, -50.307066 48.443067, -50.246523 48.463196, -50.185932 48.483294, -50.125292 48.503359, -50.064605 48.523393, -50.003870 48.543394, -49.943087 48.563364, -49.882256 48.583302, -49.821377 48.603207, -49.760450 48.623081, -49.699474 48.642922, -49.638451 48.662731, -49.577381 48.682508, -49.516262 48.702253, -49.455095 48.721965, -49.393880 48.741645, -49.332617 48.761292, -49.271307 48.780907, -49.209948 48.800489, -49.148542 48.820039, -49.087088 48.839556, -49.025586 48.859040, -48.964036 48.878492, -48.902438 48.897911, -48.840792 48.917297, -48.779099 48.936650, -48.717358 48.955971, -48.655569 48.975258, -48.593732 48.994512, -48.531847 49.013733, -48.469915 49.032921, -48.407934 49.052076, -48.345907 49.071198, -48.283831 49.090286, -48.221708 49.109341, -48.159537 49.128363, -48.097318 49.147351, -48.035051 49.166306, -47.972737 49.185228, -47.910376 49.204116, -47.847966 49.222970, -47.785510 49.241790, -47.723005 49.260577, -47.660453 49.279330, -47.597854 49.298050, -47.535206 49.316735, -47.472512 49.335387, -47.409770 49.354005, -47.346980 49.372588, -47.284143 49.391138, -47.221259 49.409654, -47.158327 49.428135, -47.095348 49.446582, -47.032321 49.464996, -46.969247 49.483374, -46.906126 49.501719, -46.842957 49.520029, -46.779741 49.538305, -46.716478 49.556546, -46.653168 49.574753, -46.589810 49.592925, -46.526406 49.611062, -46.462954 49.629165, -46.399455 49.647234, -46.335908 49.665267, -46.272315 49.683266, -46.208675 49.701230, -46.144988 49.719158, -46.081253 49.737052, -46.017472 49.754911, -45.953644 49.772735, -45.889769 49.790524, -45.825847 49.808278, -45.761878 49.825997, -45.697862 49.843680, -45.633800 49.861328, -45.569690 49.878941, -45.505534 49.896518, -45.441331 49.914060, -45.377082 49.931566, -45.312786 49.949037, -45.248443 49.966473, -45.184054 49.983872, -45.119618 50.001237, -45.055136 50.018565, -44.990607 50.035858, -44.926032 50.053114, -44.861410 50.070335, -44.796742 50.087520, -44.732027 50.104670, -44.667267 50.121783, -44.602460 50.138860, -44.537607 50.155901, -44.472707 50.172906, -44.407762 50.189874, -44.342770 50.206807, -44.277732 50.223703, -44.212648 50.240563, -44.147518 50.257386, -44.082343 50.274173, -44.017121 50.290924, -43.951853 50.307638, -43.886540 50.324316, -43.821181 50.340957, -43.755776 50.357561, -43.690325 50.374128, -43.624828 50.390659, -43.559286 50.407153, -43.493699 50.423610, -43.428065 50.440030, -43.362387 50.456414, -43.296663 50.472760, -43.230893 50.489069, -43.165078 50.505342, -43.099218 50.521577, -43.033312 50.537774, -42.967362 50.553935, -42.901366 50.570059, -42.835325 50.586145, -42.769238 50.602193, -42.703107 50.618205, -42.636931 50.634178, -42.570710 50.650115, -42.504444 50.666014, -42.438133 50.681875, -42.371777 50.697698, -42.305377 50.713484, -42.238932 50.729232, -42.172442 50.744943, -42.105908 50.760615, -42.039329 50.776250, -41.972706 50.791846, -41.906038 50.807405, -41.839326 50.822926, -41.772570 50.838408, -41.705769 50.853853, -41.638924 50.869259, -41.572035 50.884627, -41.505102 50.899957, -41.438125 50.915249, -41.371104 50.930502, -41.304039 50.945717, -41.236930 50.960894, -41.169777 50.976032, -41.102581 50.991131, -41.035341 51.006192, -40.968057 51.021214, -40.900730 51.036198, -40.833359 51.051143, -40.765945 51.066049, -40.698487 51.080916, -40.630986 51.095745, -40.563442 51.110534, -40.495855 51.125285, -40.428224 51.139997, -40.360551 51.154669, -40.292834 51.169303, -40.225075 51.183897, -40.157273 51.198453, -40.089428 51.212969, -40.021540 51.227446, -39.953609 51.241883, -39.885636 51.256281, -39.817620 51.270640, -39.749562 51.284960, -39.681462 51.299240, -39.613319 51.313480, -39.545134 51.327681, -39.476907 51.341842, -39.408637 51.355964, -39.340326 51.370046, -39.271973 51.384088, -39.203577 51.398090, -39.135140 51.412052, -39.066661 51.425975, -38.998141 51.439858, -38.929579 51.453701, -38.860975 51.467503, -38.792330 51.481266, -38.723643 51.494989, -38.654915 51.508671, -38.586146 51.522313, -38.517336 51.535915, -38.448485 51.549477, -38.379593 51.562998, -38.310659 51.576480, -38.241685 51.589920, -38.172670 51.603320, -38.103615 51.616680, -38.034519 51.629999, -37.965382 51.643278, -37.896205 51.656516, -37.826988 51.669713, -37.757730 51.682870, -37.688432 51.695986, -37.619094 51.709061, -37.549716 51.722095, -37.480298 51.735089, -37.410840 51.748041, -37.341342 51.760953, -37.271805 51.773823, -37.202228 51.786653, -37.132611 51.799441, -37.062955 51.812188, -36.993260 51.824894, -36.923526 51.837559, -36.853752 51.850183, -36.783939 51.862765, -36.714087 51.875306, -36.644197 51.887805, -36.574267 51.900264, -36.504299 51.912680, -36.434292 51.925055, -36.364246 51.937389, -36.294162 51.949681, -36.224040 51.961932, -36.153879 51.974140, -36.083681 51.986307, -36.013444 51.998433, -35.943169 52.010516, -35.872856 52.022558, -35.802506 52.034557, -35.732118 52.046515, -35.661692 52.058431, -35.591228 52.070305, -35.520728 52.082137, -35.450189 52.093927, -35.379614 52.105674, -35.309002 52.117380, -35.238352 52.129043, -35.167666 52.140664, -35.096943 52.152243, -35.026183 52.163779, -34.955386 52.175274, -34.884553 52.186725, -34.813683 52.198134, -34.742777 52.209501, -34.671835 52.220826, -34.600857 52.232107, -34.529843 52.243346, -34.458793 52.254543, -34.387707 52.265697, -34.316585 52.276808, -34.245428 52.287876, -34.174235 52.298902, -34.103007 52.309885, -34.031743 52.320825, -33.960445 52.331722, -33.889111 52.342576, -33.817742 52.353387, -33.746339 52.364155, -33.674901 52.374880, -33.603428 52.385562, -33.531920 52.396201, -33.460378 52.406796, -33.388802 52.417349, -33.317192 52.427858, -33.245548 52.438324, -33.173869 52.448747, -33.102157 52.459126, -33.030411 52.469462, -32.958631 52.479754, -32.886818 52.490003, -32.814972 52.500209, -32.743092 52.510371, -32.671179 52.520489, -32.599233 52.530564, -32.527254 52.540595, -32.455242 52.550583, -32.383197 52.560526, -32.311120 52.570426, -32.239010 52.580283, -32.166868 52.590095, -32.094694 52.599864, -32.022488 52.609588, -31.950249 52.619269, -31.877979 52.628906, -31.805677 52.638499, -31.733343 52.648048, -31.660978 52.657552, -31.588581 52.667013, -31.516153 52.676429, -31.443694 52.685802, -31.371204 52.695130, -31.298683 52.704414, -31.226132 52.713654, -31.153549 52.722849, -31.080936 52.732000, -31.008293 52.741107, -30.935619 52.750169, -30.862915 52.759187, -30.790181 52.768160, -30.717417 52.777089, -30.644624 52.785973, -30.571801 52.794813, -30.498948 52.803608, -30.426066 52.812359, -30.353154 52.821065, -30.280214 52.829726, -30.207244 52.838342, -30.134245 52.846914, -30.061218 52.855441, -29.988162 52.863923, -29.915078 52.872360, -29.841965 52.880753, -29.768824 52.889100, -29.695655 52.897403, -29.622458 52.905660, -29.549233 52.913873, -29.475981 52.922040, -29.402701 52.930163, -29.329393 52.938240, -29.256058 52.946273, -29.182696 52.954260, -29.109307 52.962202, -29.035891 52.970098, -28.962449 52.977950, -28.888979 52.985756, -28.815483 52.993517, -28.741961 53.001232, -28.668413 53.008902, -28.594839 53.016527, -28.521238 53.024107, -28.447612 53.031641, -28.373960 53.039129, -28.300283 53.046572, -28.226580 53.053969, -28.152853 53.061321, -28.079100 53.068628, -28.005322 53.075888, -27.931519 53.083103, -27.857692 53.090273, -27.783840 53.097396, -27.709963 53.104474, -27.636063 53.111506, -27.562138 53.118493, -27.488190 53.125433, -27.414217 53.132328, -27.340221 53.139177, -27.266201 53.145980, -27.192158 53.152737, -27.118092 53.159448, -27.044003 53.166114, -26.969891 53.172733, -26.895756 53.179306, -26.821598 53.185833, -26.747418 53.192315, -26.673216 53.198750, -26.598991 53.205139, -26.524744 53.211481, -26.450475 53.217778, -26.376185 53.224029, -26.301873 53.230233, -26.227539 53.236391, -26.153185 53.242503, -26.078809 53.248568, -26.004412 53.254587, -25.929994 53.260560, -25.855555 53.266487, -25.781096 53.272367, -25.706617 53.278201, -25.632117 53.283988, -25.557597 53.289729, -25.483057 53.295424, -25.408498 53.301072, -25.333919 53.306673, -25.259320 53.312228, -25.184702 53.317737, -25.110065 53.323199, -25.035408 53.328614, -24.960733 53.333983, -24.886039 53.339305, -24.811327 53.344580, -24.736596 53.349809, -24.661847 53.354991, -24.587080 53.360126, -24.512295 53.365215, -24.437492 53.370256, -24.362671 53.375252, -24.287833 53.380200, -24.212978 53.385101, -24.138105 53.389956, -24.063216 53.394764, -23.988309 53.399525, -23.913386 53.404239, -23.838447 53.408906, -23.763491 53.413526, -23.688519 53.418099, -23.613531 53.422626, -23.538527 53.427105, -23.463507 53.431537, -23.388472 53.435923, -23.313421 53.440261, -23.238355 53.444552, -23.163274 53.448796, -23.088178 53.452993, -23.013067 53.457143, -22.937942 53.461246, -22.862802 53.465302, -22.787648 53.469311, -22.712480 53.473272, -22.637298 53.477186, -22.562102 53.481054, -22.486893 53.484873, -22.411670 53.488646, -22.336433 53.492372, -22.261184 53.496050, -22.185921 53.499681, -22.110646 53.503264, -22.035358 53.506801, -21.960058 53.510290, -21.884746 53.513731, -21.809421 53.517126, -21.734084 53.520473, -21.658735 53.523773, -21.583375 53.527025, -21.508003 53.530230, -21.432620 53.533387, -21.357226 53.536497, -21.281821 53.539560, -21.206405 53.542575, -21.130978 53.545543, -21.055541 53.548463, -20.980093 53.551336, -20.904636 53.554162, -20.829168 53.556939, -20.753691 53.559670, -20.678203 53.562353, -20.602707 53.564988, -20.527201 53.567576, -20.451686 53.570116, -20.376162 53.572609, -20.300629 53.575054, -20.225087 53.577451, -20.149537 53.579801, -20.073979 53.582104, -19.998412 53.584358, -19.922838 53.586565, -19.847255 53.588725, -19.771665 53.590837, -19.696068 53.592901, -19.620463 53.594917, -19.544851 53.596886, -19.469232 53.598808, -19.393607 53.600681, -19.317975 53.602507, -19.242336 53.604285, -19.166691 53.606016, -19.091040 53.607698, -19.015383 53.609334, -18.939720 53.610921, -18.864052 53.612461, -18.788378 53.613952, -18.712699 53.615397, -18.637014 53.616793, -18.561325 53.618142, -18.485631 53.619443, -18.409933 53.620696, -18.334230 53.621901, -18.258523 53.623059, -18.182812 53.624169, -18.107097 53.625231, -18.031378 53.626245, -17.955656 53.627212, -17.879930 53.628131, -17.804201 53.629002, -17.728469 53.629825, -17.652734 53.630600, -17.576997 53.631328, -17.501256 53.632007, -17.425514 53.632639, -17.349769 53.633224, -17.274023 53.633760, -17.198274 53.634248, -17.122524 53.634689, -17.046773 53.635082, -16.971020 53.635427, -16.895266 53.635724, -16.819510 53.635974, -16.743755 53.636175, -16.667998 53.636329, -16.592241 53.636435, -16.516484 53.636493, -16.440726 53.636504, -16.364969 53.636466, -16.289212 53.636381, -16.213455 53.636247, -16.137699 53.636066, -16.061943 53.635838, -15.986189 53.635561, -15.910435 53.635237, -15.834683 53.634864, -15.758932 53.634444, -15.683183 53.633976, -15.607436 53.633461, -15.531690 53.632897, -15.455947 53.632286, -15.380206 53.631626, -15.304467 53.630920, -15.228731 53.630165, -15.152998 53.629362, -15.077267 53.628512, -15.001540 53.627614, -14.925817 53.626668, -14.850096 53.625674, -14.774379 53.624632, -14.698667 53.623543, -14.622958 53.622406, -14.547253 53.621221, -14.471553 53.619989, -14.395857 53.618708, -14.320166 53.617380, -14.244479 53.616004, -14.168798 53.614581, -14.093122 53.613109, -14.017451 53.611590, -13.941786 53.610024, -13.866126 53.608409, -13.790473 53.606747, -13.714825 53.605037, -13.639183 53.603279, -13.563548 53.601474, -13.487920 53.599621, -13.412298 53.597720, -13.336683 53.595772, -13.261075 53.593776, -13.185475 53.591732, -13.109882 53.589641, -13.034296 53.587502, -12.958718 53.585315, -12.883148 53.583081, -12.807586 53.580799, -12.732033 53.578470, -12.656487 53.576093, -12.580951 53.573668, -12.505423 53.571196, -12.429904 53.568676, -12.354394 53.566109, -12.278893 53.563494, -12.203402 53.560832, -12.127920 53.558122, -12.052448 53.555365, -11.976986 53.552560, -11.901534 53.549707, -11.826093 53.546807, -11.750661 53.543860, -11.675241 53.540865, -11.599831 53.537823, -11.524432 53.534733, -11.449044 53.531596, -11.373667 53.528412, -11.298302 53.525180, -11.222948 53.521901, -11.147607 53.518574, -11.072277 53.515200, -10.996959 53.511779, -10.921653 53.508310, -10.846360 53.504794, -10.771079 53.501231, -10.695811 53.497620, -10.620556 53.493963, -10.545314 53.490257, -10.470085 53.486505, -10.394870 53.482706, -10.319668 53.478859, -10.244480 53.474965, -10.169306 53.471024, -10.094146 53.467035, -10.019000 53.463000)
