LINESTRING (-117.883700 34.905400, -117.884285 34.907119, -117.884869 34.908839, -117.885454 34.910558, -117.886039 34.912278, -117.886624 34.913997, -117.887209 34.915717, -117.887794 34.917436, -117.888379 34.919155, -117.888964 34.920875, -117.889548 34.922594, -117.890133 34.924314, -117.890718 34.926033, -117.891303 34.927753, -117.891889 34.929472, -117.892474 34.931191, -117.893059 34.932911, -117.893644 34.934630, -117.894229 34.936349, -117.894814 34.938069, -117.895399 34.939788, -117.895985 34.941508, -117.896570 34.943227, -117.897155 34.944946, -117.897740 34.946666, -117.898326 34.948385, -117.898911 34.950105, -117.899496 34.951824, -117.900082 34.953543, -117.900667 34.955263, -117.901253 34.956982, -117.901838 34.958701, -117.902424 34.960421, -117.903009 34.962140, -117.903595 34.963859, -117.904180 34.965579, -117.904766 34.967298, -117.905352 34.969017, -117.905937 34.970737, -117.906523 34.972456, -117.907109 34.974175, -117.907694 34.975895, -117.908280 34.977614, -117.908866 34.979333, -117.909452 34.981053, -117.910037 34.982772, -117.910623 34.984491, -117.911209 34.986211, -117.911795 34.987930, -117.912381 34.989649, -117.912967 34.991369, -117.913553 34.993088, -117.914139 34.994807, -117.914725 34.996526, -117.915311 34.998246, -117.915897 34.999965, -117.916483 35.001684, -117.917069 35.003404, -117.917655 35.005123, -117.918241 35.006842, -117.918828 35.008561, -117.919414 35.010281, -117.920000 35.012000, -117.917895 35.012405, -117.915791 35.012809, -117.913686 35.013213, -117.911581 35.013618, -117.909476 35.014022, -117.907372 35.014427, -117.905267 35.014831, -117.903162 35.015235, -117.901057 35.015639, -117.898952 35.016044, -117.896847 35.016448, -117.894742 35.016852, -117.892638 35.017256, -117.890533 35.017660, -117.888428 35.018064, -117.886323 35.018468, -117.884218 35.018872, -117.882113 35.019276, -117.880008 35.019680, -117.877902 35.020084, -117.875797 35.020487, -117.873692 35.020891, -117.871587 35.021295, -117.869482 35.021699, -117.867377 35.022102, -117.865272 35.022506, -117.863166 35.022909, -117.861061 35.023313, -117.858956 35.023717, -117.856851 35.024120, -117.854745 35.024523, -117.852640 35.024927, -117.850535 35.025330, -117.848429 35.025734, -117.846324 35.026137, -117.844218 35.026540, -117.842113 35.026943, -117.840008 35.027346, -117.837902 35.027750, -117.835797 35.028153, -117.833691 35.028556, -117.831585 35.028959, -117.829480 35.029362, -117.827374 35.029765, -117.825269 35.030168, -117.823163 35.030571, -117.821058 35.030973, -117.818952 35.031376, -117.816846 35.031779, -117.814740 35.032182, -117.812635 35.032585, -117.810529 35.032987, -117.808423 35.033390, -117.806317 35.033792, -117.804212 35.034195, -117.802106 35.034598, -117.800000 35.035000, -117.801310 35.033564, -117.802621 35.032128, -117.803931 35.030692, -117.805241 35.029256, -117.806551 35.027820, -117.807861 35.026384, -117.809171 35.024948, -117.810481 35.023512, -117.811791 35.022076, -117.813101 35.020640, -117.814411 35.019203, -117.815721 35.017767, -117.817031 35.016331, -117.818340 35.014895, -117.819650 35.013459, -117.820960 35.012023, -117.822269 35.010586, -117.823579 35.009150, -117.824888 35.007714, -117.826198 35.006278, -117.827507 35.004841, -117.828817 35.003405, -117.830126 35.001969, -117.831435 35.000533, -117.832745 34.999096, -117.834054 34.997660, -117.835363 34.996223, -117.836672 34.994787, -117.837981 34.993351, -117.839290 34.991914, -117.840599 34.990478, -117.841908 34.989042, -117.843217 34.987605, -117.844525 34.986169, -117.845834 34.984732, -117.847143 34.983296, -117.848452 34.981859, -117.849760 34.980423, -117.851069 34.978986, -117.852377 34.977550, -117.853686 34.976113, -117.854994 34.974677, -117.856303 34.973240, -117.857611 34.971803, -117.858919 34.970367, -117.860228 34.968930, -117.861536 34.967494, -117.862844 34.966057, -117.864152 34.964620, -117.865460 34.963184, -117.866768 34.961747, -117.868076 34.960310, -117.869384 34.958873, -117.870692 34.957437, -117.872000 34.956000)
