LINESTRING (-0.454300 51.470000, -0.384090 51.459640, -0.313913 51.449239, -0.243767 51.438795, -0.173654 51.428310, -0.103573 51.417783, -0.033524 51.407214, 0.036492 51.396603, 0.106476 51.385951, 0.176428 51.375257, 0.246346 51.364521, 0.316232 51.353744, 0.386084 51.342925, 0.455904 51.332065, 0.525691 51.321163, 0.595444 51.310220, 0.665164 51.299235, 0.734851 51.288209, 0.804504 51.277141, 0.874123 51.266033, 0.943709 51.254883, 1.013261 51.243692, 1.082779 51.232459, 1.152263 51.221186, 1.221713 51.209871, 1.291128 51.198515, 1.360510 51.187118, 1.429857 51.175680, 1.499170 51.164202, 1.568448 51.152682, 1.637691 51.141121, 1.706900 51.129520, 1.776074 51.117877, 1.845213 51.106194, 1.914317 51.094470, 1.983386 51.082706, 2.052420 51.070901, 2.121418 51.059055, 2.190381 51.047168, 2.259309 51.035241, 2.328201 51.023274, 2.397057 51.011266, 2.465878 50.999217, 2.534663 50.987128, 2.603412 50.974999, 2.672125 50.962829, 2.740803 50.950619, 2.809443 50.938369, 2.878048 50.926079, 2.946617 50.913748, 3.015149 50.901378, 3.083644 50.888967, 3.152103 50.876516, 3.220526 50.864025, 3.288912 50.851494, 3.357260 50.838923, 3.425573 50.826313, 3.493848 50.813662, 3.562086 50.800972, 3.630287 50.788242, 3.698450 50.775472, 3.766577 50.762662, 3.834666 50.749813, 3.902718 50.736924, 3.970732 50.723995, 4.038709 50.711027, 4.106648 50.698020, 4.174549 50.684973, 4.242412 50.671886, 4.310238 50.658761, 4.378025 50.645596, 4.445775 50.632391, 4.513486 50.619147, 4.581160 50.605864, 4.648795 50.592542, 4.716391 50.579181, 4.783950 50.565781, 4.851470 50.552341, 4.918951 50.538863, 4.986394 50.525346, 5.053798 50.511789, 5.121163 50.498194, 5.188489 50.484560, 5.255777 50.470887, 5.323025 50.457175, 5.390235 50.443425, 5.457405 50.429636, 5.524537 50.415808, 5.591629 50.401942, 5.658681 50.388037, 5.725695 50.374094, 5.792669 50.360112, 5.859603 50.346091, 5.926498 50.332033, 5.993353 50.317936, 6.060169 50.303800, 6.126944 50.289627, 6.193680 50.275415, 6.260377 50.261165, 6.327033 50.246876, 6.393649 50.232550, 6.460225 50.218186, 6.526761 50.203783, 6.593256 50.189343, 6.659712 50.174865, 6.726127 50.160348, 6.792502 50.145794, 6.858836 50.131203, 6.925130 50.116573, 6.991383 50.101906, 7.057596 50.087201, 7.123768 50.072458, 7.189899 50.057678, 7.255990 50.042860, 7.322040 50.028005, 7.388048 50.013112, 7.454016 49.998182, 7.519943 49.983214, 7.585829 49.968210, 7.651673 49.953167, 7.717477 49.938088, 7.783239 49.922971, 7.848960 49.907818, 7.914640 49.892627, 7.980278 49.877399, 8.045875 49.862134, 8.111430 49.846832, 8.176944 49.831493, 8.242416 49.816117, 8.307846 49.800704, 8.373235 49.785255, 8.438582 49.769769, 8.503888 49.754246, 8.569151 49.738686, 8.634373 49.723090, 8.699552 49.707457, 8.764690 49.691787, 8.829786 49.676081, 8.894839 49.660339, 8.959851 49.644560, 9.024820 49.628745, 9.089747 49.612893, 9.154632 49.597005, 9.219474 49.581081, 9.284274 49.565121, 9.349032 49.549125, 9.413747 49.533092, 9.478420 49.517023, 9.543050 49.500919, 9.607637 49.484778, 9.672182 49.468602, 9.736685 49.452389, 9.801144 49.436141, 9.865561 49.419857, 9.929936 49.403537, 9.994267 49.387181, 10.058555 49.370790, 10.122801 49.354363, 10.187003 49.337901, 10.251163 49.321403, 10.315280 49.304869, 10.379353 49.288300, 10.443384 49.271696, 10.507371 49.255056, 10.571315 49.238381, 10.635216 49.221671, 10.699074 49.204926, 10.762888 49.188145, 10.826659 49.171329, 10.890387 49.154478, 10.954071 49.137592, 11.017712 49.120672, 11.081309 49.103716, 11.144863 49.086725, 11.208374 49.069699, 11.271841 49.052639, 11.335264 49.035543, 11.398644 49.018413, 11.461980 49.001249, 11.525272 48.984049, 11.588521 48.966816, 11.651725 48.949547, 11.714887 48.932244, 11.778004 48.914907, 11.841077 48.897535, 11.904107 48.880129, 11.967093 48.862688, 12.030034 48.845213, 12.092932 48.827704, 12.155786 48.810161, 12.218596 48.792583, 12.281361 48.774972, 12.344083 48.757326, 12.406761 48.739647, 12.469394 48.721933, 12.531984 48.704186, 12.594529 48.686404, 12.657030 48.668589, 12.719487 48.650740, 12.781899 48.632858, 12.844267 48.614941, 12.906591 48.596991, 12.968871 48.579008, 13.031106 48.560990, 13.093297 48.542940, 13.155444 48.524855, 13.217546 48.506738, 13.279604 48.488587, 13.341617 48.470402, 13.403586 48.452185, 13.465510 48.433934, 13.527390 48.415650, 13.589225 48.397333, 13.651016 48.378982, 13.712762 48.360599, 13.774464 48.342182, 13.836121 48.323733, 13.897733 48.305251, 13.959301 48.286735, 14.020824 48.268187, 14.082302 48.249607, 14.143736 48.230993, 14.205124 48.212347, 14.266469 48.193668, 14.327768 48.174956, 14.389023 48.156212, 14.450233 48.137435, 14.511398 48.118626, 14.572518 48.099785, 14.633594 48.080911, 14.694624 48.062004, 14.755610 48.043066, 14.816551 48.024095, 14.877447 48.005092, 14.938298 47.986057, 14.999104 47.966990, 15.059866 47.947890, 15.120582 47.928759, 15.181254 47.909595, 15.241880 47.890400, 15.302462 47.871173, 15.362998 47.851914, 15.423490 47.832623, 15.483936 47.813300, 15.544338 47.793946, 15.604695 47.774560, 15.665006 47.755143, 15.725273 47.735693, 15.785494 47.716213, 15.845671 47.696701, 15.905802 47.677157, 15.965888 47.657582, 16.025929 47.637976, 16.085926 47.618338, 16.145877 47.598669, 16.205783 47.578969, 16.265643 47.559238, 16.325459 47.539475, 16.385230 47.519682, 16.444955 47.499857, 16.504636 47.480002, 16.564271 47.460115, 16.623861 47.440198, 16.683406 47.420250, 16.742906 47.400271, 16.802361 47.380261, 16.861771 47.360221, 16.921135 47.340149, 16.980454 47.320048, 17.039728 47.299915, 17.098957 47.279752, 17.158141 47.259559, 17.217280 47.239335, 17.276373 47.219081, 17.335422 47.198796, 17.394425 47.178481, 17.453383 47.158136, 17.512296 47.137761, 17.571163 47.117355, 17.629986 47.096919, 17.688763 47.076454, 17.747495 47.055958, 17.806182 47.035432, 17.864824 47.014876, 17.923421 46.994290, 17.981972 46.973675, 18.040479 46.953029, 18.098940 46.932354, 18.157356 46.911649, 18.215727 46.890914, 18.274052 46.870150, 18.332333 46.849356, 18.390569 46.828533, 18.448759 46.807680, 18.506904 46.786797, 18.565004 46.765886, 18.623059 46.744944, 18.681069 46.723974, 18.739034 46.702974, 18.796953 46.681945, 18.854828 46.660887, 18.912657 46.639799, 18.970441 46.618683, 19.028181 46.597537, 19.085875 46.576362, 19.143524 46.555159, 19.201128 46.533926, 19.258687 46.512665, 19.316201 46.491374, 19.373670 46.470055, 19.431094 46.448707, 19.488472 46.427331, 19.545806 46.405925, 19.603095 46.384492, 19.660339 46.363029, 19.717538 46.341538, 19.774691 46.320018, 19.831800 46.298470, 19.888864 46.276894, 19.945883 46.255289, 20.002857 46.233656, 20.059786 46.211995, 20.116670 46.190305, 20.173510 46.168588, 20.230304 46.146842, 20.287053 46.125068, 20.343758 46.103265, 20.400418 46.081435, 20.457033 46.059577, 20.513603 46.037691, 20.570128 46.015777, 20.626608 45.993836, 20.683044 45.971866, 20.739435 45.949869, 20.795781 45.927844, 20.852082 45.905791, 20.908339 45.883711, 20.964551 45.861603, 21.020718 45.839467, 21.076840 45.817304, 21.132918 45.795114, 21.188951 45.772896, 21.244940 45.750651, 21.300883 45.728379, 21.356783 45.706079, 21.412637 45.683752, 21.468447 45.661398, 21.524213 45.639016, 21.579933 45.616608, 21.635610 45.594172, 21.691241 45.571710, 21.746829 45.549220, 21.802371 45.526704, 21.857870 45.504160, 21.913324 45.481590, 21.968733 45.458993, 22.024098 45.436369, 22.079419 45.413719, 22.134695 45.391042, 22.189927 45.368338, 22.245114 45.345607, 22.300257 45.322850, 22.355356 45.300067, 22.410411 45.277257, 22.465421 45.254421, 22.520387 45.231558, 22.575309 45.208669, 22.630186 45.185753, 22.685020 45.162811, 22.739809 45.139844, 22.794554 45.116849, 22.849255 45.093829, 22.903912 45.070783, 22.958525 45.047711, 23.013093 45.024612, 23.067618 45.001488, 23.122099 44.978338, 23.176535 44.955161, 23.230928 44.931959, 23.285277 44.908732, 23.339581 44.885478, 23.393842 44.862199, 23.448059 44.838894, 23.502232 44.815563, 23.556362 44.792207, 23.610447 44.768826, 23.664489 44.745418, 23.718487 44.721986, 23.772441 44.698528, 23.826351 44.675044, 23.880218 44.651535, 23.934041 44.628001, 23.987820 44.604442, 24.041556 44.580857, 24.095248 44.557248, 24.148897 44.533613, 24.202502 44.509953, 24.256063 44.486268, 24.309581 44.462558, 24.363056 44.438823, 24.416487 44.415063, 24.469875 44.391278, 24.523219 44.367468, 24.576520 44.343634, 24.629777 44.319775, 24.682992 44.295891, 24.736163 44.271982, 24.789290 44.248049, 24.842375 44.224091, 24.895416 44.200108, 24.948414 44.176101, 25.001369 44.152070, 25.054281 44.128014, 25.107149 44.103934, 25.159975 44.079829, 25.212757 44.055700, 25.265497 44.031547, 25.318193 44.007369, 25.370847 43.983168, 25.423457 43.958942, 25.476025 43.934692, 25.528550 43.910418, 25.581032 43.886120, 25.633471 43.861798, 25.685867 43.837451, 25.738221 43.813081, 25.790532 43.788688, 25.842800 43.764270, 25.895026 43.739828, 25.947209 43.715363, 25.999349 43.690874, 26.051446 43.666362, 26.103502 43.641825, 26.155514 43.617265, 26.207484 43.592682, 26.259412 43.568075, 26.311297 43.543445, 26.363140 43.518791, 26.414940 43.494113, 26.466699 43.469413, 26.518414 43.444689, 26.570088 43.419941, 26.621719 43.395171, 26.673308 43.370377, 26.724855 43.345560, 26.776360 43.320720, 26.827822 43.295857, 26.879243 43.270971, 26.930621 43.246062, 26.981958 43.221130, 27.033252 43.196174, 27.084505 43.171196, 27.135716 43.146196, 27.186884 43.121172, 27.238011 43.096125, 27.289096 43.071056, 27.340139 43.045964, 27.391141 43.020850, 27.442101 42.995713, 27.493019 42.970553, 27.543895 42.945370, 27.594730 42.920166, 27.645523 42.894938, 27.696275 42.869689, 27.746985 42.844416, 27.797653 42.819122, 27.848280 42.793805, 27.898866 42.768466, 27.949410 42.743105, 27.999913 42.717721, 28.050375 42.692315, 28.100795 42.666888, 28.151175 42.641438, 28.201513 42.615966, 28.251809 42.590472, 28.302065 42.564956, 28.352279 42.539418, 28.402453 42.513858, 28.452585 42.488276, 28.502676 42.462672, 28.552727 42.437047, 28.602736 42.411400, 28.652705 42.385731, 28.702632 42.360041, 28.752519 42.334329, 28.802365 42.308595, 28.852171 42.282839, 28.901935 42.257063, 28.951659 42.231264, 29.001343 42.205444, 29.050985 42.179603, 29.100587 42.153741, 29.150149 42.127857, 29.199670 42.101951, 29.249150 42.076025, 29.298591 42.050077, 29.347990 42.024108, 29.397350 41.998118, 29.446669 41.972107, 29.495948 41.946074, 29.545186 41.920021, 29.594384 41.893946, 29.643543 41.867851, 29.692661 41.841735, 29.741739 41.815597, 29.790777 41.789439, 29.839774 41.763260, 29.888732 41.737061, 29.937650 41.710840, 29.986528 41.684599, 30.035367 41.658337, 30.084165 41.632054, 30.132923 41.605751, 30.181642 41.579427, 30.230321 41.553083, 30.278961 41.526718, 30.327561 41.500332, 30.376121 41.473927, 30.424641 41.447500, 30.473122 41.421054, 30.521564 41.394587, 30.569966 41.368100, 30.618329 41.341592, 30.666652 41.315065, 30.714936 41.288517, 30.763181 41.261949, 30.811387 41.235360, 30.859553 41.208752, 30.907680 41.182124, 30.955768 41.155475, 31.003817 41.128807, 31.051827 41.102119, 31.099797 41.075411, 31.147729 41.048683, 31.195622 41.021935, 31.243476 40.995167, 31.291291 40.968380, 31.339068 40.941572, 31.386805 40.914745, 31.434504 40.887899, 31.482164 40.861033, 31.529785 40.834147, 31.577368 40.807241, 31.624912 40.780316, 31.672418 40.753372, 31.719885 40.726408, 31.767314 40.699425, 31.814704 40.672422, 31.862056 40.645400, 31.909370 40.618359, 31.956645 40.591298, 32.003882 40.564218, 32.051081 40.537119, 32.098241 40.510001, 32.145364 40.482863, 32.192448 40.455706, 32.239494 40.428531, 32.286503 40.401336, 32.333473 40.374122, 32.380405 40.346889, 32.427300 40.319638, 32.474156 40.292367, 32.520975 40.265077, 32.567756 40.237769, 32.614499 40.210442, 32.661205 40.183096, 32.707873 40.155731, 32.754503 40.128348, 32.801096 40.100945, 32.847651 40.073525, 32.894169 40.046085, 32.940649 40.018627, 32.987092 39.991151, 33.033498 39.963655, 33.079866 39.936142, 33.126197 39.908610, 33.172491 39.881059, 33.218747 39.853491, 33.264966 39.825903, 33.311149 39.798298, 33.357294 39.770674, 33.403402 39.743032, 33.449473 39.715372, 33.495507 39.687693, 33.541505 39.659996, 33.587465 39.632282, 33.633389 39.604549, 33.679275 39.576798, 33.725125 39.549029, 33.770939 39.521242, 33.816716 39.493437, 33.862456 39.465614, 33.908159 39.437773, 33.953826 39.409915, 33.999457 39.382038, 34.045051 39.354144, 34.090608 39.326232, 34.136130 39.298302, 34.181615 39.270354, 34.227063 39.242389, 34.272476 39.214406, 34.317852 39.186406, 34.363192 39.158388, 34.408496 39.130352, 34.453764 39.102299, 34.498996 39.074228, 34.544192 39.046140, 34.589352 39.018035, 34.634476 38.989912, 34.679565 38.961771, 34.724617 38.933614, 34.769634 38.905439, 34.814615 38.877247, 34.859560 38.849037, 34.904469 38.820811, 34.949344 38.792567, 34.994182 38.764306, 35.038985 38.736028, 35.083752 38.707733, 35.128484 38.679420, 35.173181 38.651091, 35.217842 38.622745, 35.262468 38.594382, 35.307059 38.566001, 35.351615 38.537604, 35.396135 38.509190, 35.440620 38.480760, 35.485070 38.452312, 35.529485 38.423848, 35.573866 38.395367, 35.618211 38.366869, 35.662521 38.338354, 35.706796 38.309823, 35.751037 38.281275, 35.795242 38.252711, 35.839413 38.224130, 35.883550 38.195532, 35.927651 38.166918, 35.971718 38.138288, 36.015751 38.109641, 36.059748 38.080977, 36.103712 38.052298, 36.147641 38.023602, 36.191535 37.994889, 36.235395 37.966160, 36.279221 37.937415, 36.323013 37.908654, 36.366770 37.879877, 36.410493 37.851083, 36.454182 37.822273, 36.497837 37.793447, 36.541458 37.764605, 36.585045 37.735747, 36.628598 37.706873, 36.672117 37.677983, 36.715602 37.649077, 36.759053 37.620155, 36.802470 37.591217, 36.845854 37.562263, 36.889204 37.533293, 36.932520 37.504307, 36.975802 37.475306, 37.019051 37.446289, 37.062267 37.417256, 37.105449 37.388207, 37.148597 37.359143, 37.191712 37.330063, 37.234794 37.300967, 37.277842 37.271856, 37.320858 37.242729, 37.363839 37.213587, 37.406788 37.184429, 37.449704 37.155256, 37.492586 37.126067, 37.535435 37.096863, 37.578251 37.067643, 37.621035 37.038408, 37.663785 37.009158, 37.706503 36.979892, 37.749187 36.950611, 37.791839 36.921315, 37.834458 36.892003, 37.877044 36.862677, 37.919598 36.833335, 37.962119 36.803978, 38.004607 36.774606, 38.047063 36.745219, 38.089486 36.715816, 38.131877 36.686399, 38.174235 36.656966, 38.216561 36.627519, 38.258855 36.598057, 38.301117 36.568580, 38.343346 36.539087, 38.385543 36.509580, 38.427707 36.480059, 38.469840 36.450522, 38.511940 36.420970, 38.554009 36.391404, 38.596045 36.361823, 38.638050 36.332227, 38.680023 36.302617, 38.721963 36.272992, 38.763872 36.243352, 38.805750 36.213698, 38.847595 36.184029, 38.889409 36.154346, 38.931191 36.124648, 38.972941 36.094935, 39.014660 36.065208, 39.056348 36.035467, 39.098004 36.005711, 39.139628 35.975941, 39.181221 35.946156, 39.222783 35.916357, 39.264313 35.886544, 39.305812 35.856717, 39.347280 35.826875, 39.388717 35.797019, 39.430123 35.767149, 39.471497 35.737265, 39.512841 35.707366, 39.554153 35.677453, 39.595435 35.647527, 39.636685 35.617586, 39.677905 35.587631, 39.719094 35.557662, 39.760252 35.527679, 39.801379 35.497682, 39.842476 35.467671, 39.883542 35.437647, 39.924577 35.407608, 39.965582 35.377556, 40.006556 35.347489, 40.047499 35.317409, 40.088413 35.287315, 40.129295 35.257208, 40.170148 35.227086, 40.210970 35.196951, 40.251762 35.166802, 40.292523 35.136640, 40.333255 35.106463, 40.373956 35.076274, 40.414627 35.046070, 40.455268 35.015853, 40.495879 34.985623, 40.536460 34.955379, 40.577011 34.925122, 40.617533 34.894851, 40.658024 34.864566, 40.698485 34.834268, 40.738917 34.803957, 40.779319 34.773633, 40.819691 34.743295, 40.860034 34.712944, 40.900347 34.682579, 40.940631 34.652202, 40.980885 34.621811, 41.021109 34.591407, 41.061304 34.560989, 41.101470 34.530559, 41.141606 34.500115, 41.181713 34.469658, 41.221791 34.439188, 41.261839 34.408705, 41.301859 34.378210, 41.341849 34.347701, 41.381810 34.317179, 41.421742 34.286644, 41.461645 34.256096, 41.501519 34.225535, 41.541364 34.194961, 41.581180 34.164375, 41.620968 34.133775, 41.660726 34.103163, 41.700456 34.072538, 41.740157 34.041900, 41.779830 34.011250, 41.819473 33.980586, 41.859089 33.949910, 41.898675 33.919222, 41.938233 33.888520, 41.977763 33.857806, 42.017264 33.827080, 42.056737 33.796341, 42.096181 33.765589, 42.135598 33.734825, 42.174985 33.704048, 42.214345 33.673259, 42.253677 33.642457, 42.292980 33.611643, 42.332255 33.580816, 42.371503 33.549977, 42.410722 33.519126, 42.449913 33.488262, 42.489076 33.457386, 42.528212 33.426498, 42.567319 33.395597, 42.606399 33.364684, 42.645451 33.333759, 42.684475 33.302822, 42.723472 33.271872, 42.762441 33.240910, 42.801382 33.209937, 42.840296 33.178951, 42.879182 33.147953, 42.918041 33.116942, 42.956872 33.085920, 42.995676 33.054886, 43.034453 33.023840, 43.073202 32.992782, 43.111924 32.961711, 43.150619 32.930629, 43.189287 32.899535, 43.227927 32.868429, 43.266541 32.837312, 43.305127 32.806182, 43.343686 32.775041, 43.382219 32.743887, 43.420724 32.712722, 43.459203 32.681546, 43.497654 32.650357, 43.536079 32.619157, 43.574477 32.587945, 43.612848 32.556721, 43.651193 32.525486, 43.689511 32.494239, 43.727802 32.462981, 43.766067 32.431711, 43.804305 32.400429, 43.842517 32.369136, 43.880702 32.337831, 43.918861 32.306515, 43.956993 32.275187, 43.995099 32.243848, 44.033179 32.212498, 44.071233 32.181136, 44.109260 32.149763, 44.147261 32.118378, 44.185237 32.086982, 44.223185 32.055575, 44.261108 32.024156, 44.299005 31.992726, 44.336876 31.961285, 44.374721 31.929833, 44.412541 31.898369, 44.450334 31.866894, 44.488101 31.835408, 44.525843 31.803911, 44.563559 31.772403, 44.601249 31.740883, 44.638914 31.709353, 44.676553 31.677812, 44.714167 31.646259, 44.751754 31.614695, 44.789317 31.583121, 44.826854 31.551535, 44.864366 31.519939, 44.901852 31.488331, 44.939313 31.456713, 44.976748 31.425084, 45.014159 31.393444, 45.051544 31.361793, 45.088904 31.330131, 45.126239 31.298458, 45.163549 31.266775, 45.200833 31.235081, 45.238093 31.203376, 45.275328 31.171660, 45.312538 31.139934, 45.349722 31.108197, 45.386882 31.076449, 45.424018 31.044690, 45.461128 31.012921, 45.498214 30.981142, 45.535275 30.949352, 45.572311 30.917551, 45.609323 30.885740, 45.646310 30.853918, 45.683273 30.822085, 45.720211 30.790243, 45.757125 30.758389, 45.794014 30.726526, 45.830879 30.694651, 45.867719 30.662767, 45.904536 30.630872, 45.941328 30.598967, 45.978095 30.567051, 46.014839 30.535125, 46.051558 30.503189, 46.088253 30.471242, 46.124925 30.439285, 46.161572 30.407318, 46.198195 30.375341, 46.234794 30.343353, 46.271370 30.311356, 46.307921 30.279348, 46.344449 30.247330, 46.380952 30.215301, 46.417432 30.183263, 46.453889 30.151215, 46.490321 30.119156, 46.526730 30.087088, 46.563116 30.055010, 46.599477 30.022921, 46.635816 29.990823, 46.672130 29.958714, 46.708422 29.926596, 46.744689 29.894467, 46.780934 29.862329, 46.817155 29.830181, 46.853353 29.798023, 46.889528 29.765855, 46.925679 29.733677, 46.961807 29.701490, 46.997912 29.669292, 47.033994 29.637085, 47.070053 29.604868, 47.106089 29.572642, 47.142101 29.540406, 47.178091 29.508159, 47.214058 29.475904, 47.250002 29.443638, 47.285923 29.411363, 47.321822 29.379079, 47.357697 29.346784, 47.393550 29.314481, 47.429380 29.282167, 47.465188 29.249844, 47.500973 29.217512, 47.536735 29.185170, 47.572475 29.152818, 47.608192 29.120457, 47.643887 29.088087, 47.679559 29.055707, 47.715209 29.023317, 47.750837 28.990919, 47.786442 28.958510, 47.822025 28.926093, 47.857586 28.893666, 47.893124 28.861230, 47.928641 28.828784, 47.964135 28.796330, 47.999607 28.763866, 48.035057 28.731392, 48.070485 28.698910, 48.105891 28.666418, 48.141275 28.633917, 48.176637 28.601407, 48.211978 28.568887, 48.247296 28.536359, 48.282593 28.503821, 48.317868 28.471275, 48.353121 28.438719, 48.388352 28.406154, 48.423562 28.373580, 48.458750 28.340997, 48.493917 28.308405, 48.529062 28.275804, 48.564185 28.243194, 48.599287 28.210575, 48.634368 28.177947, 48.669427 28.145310, 48.704465 28.112664, 48.739482 28.080010, 48.774477 28.047346, 48.809451 28.014674, 48.844404 27.981992, 48.879335 27.949302, 48.914246 27.916603, 48.949135 27.883895, 48.984003 27.851179, 49.018851 27.818454, 49.053677 27.785720, 49.088482 27.752977, 49.123267 27.720226, 49.158030 27.687465, 49.192773 27.654697, 49.227494 27.621919, 49.262195 27.589133, 49.296876 27.556338, 49.331535 27.523535, 49.366174 27.490723, 49.400792 27.457903, 49.435390 27.425074, 49.469967 27.392236, 49.504523 27.359390, 49.539059 27.326535, 49.573575 27.293672, 49.608070 27.260801, 49.642545 27.227921, 49.676999 27.195032, 49.711433 27.162136, 49.745847 27.129230, 49.780240 27.096317, 49.814614 27.063395, 49.848967 27.030464, 49.883300 26.997526, 49.917613 26.964579, 49.951905 26.931623, 49.986178 26.898660, 50.020431 26.865688, 50.054664 26.832708, 50.088877 26.799720, 50.123070 26.766723, 50.157243 26.733718, 50.191396 26.700705, 50.225529 26.667684, 50.259643 26.634655, 50.293737 26.601618, 50.327811 26.568572, 50.361866 26.535519, 50.395901 26.502457, 50.429917 26.469387, 50.463912 26.436309, 50.497889 26.403223, 50.531846 26.370130, 50.565783 26.337028, 50.599701 26.303918, 50.633600 26.270800)
