LINESTRING (-53.278000 47.560000, -53.221651 47.583925, -53.165250 47.607822, -53.108798 47.631691, -53.052295 47.655533, -52.995740 47.679347, -52.939133 47.703133, -52.882474 47.726892, -52.825764 47.750622, -52.769002 47.774325, -52.712189 47.797999, -52.655323 47.821646, -52.598406 47.845264, -52.541437 47.868854, -52.484416 47.892416, -52.427344 47.915950, -52.370219 47.939455, -52.313043 47.962932, -52.255814 47.986381, -52.198533 48.009801, -52.141201 48.033192, -52.083816 48.056555, -52.026380 48.079890, -51.968891 48.103196, -51.911350 48.126473, -51.853757 48.149721, -51.796112 48.172941, -51.738414 48.196132, -51.680665 48.219294, -51.622863 48.242427, -51.565009 48.265530, -51.507102 48.288605, -51.449144 48.311651, -51.391133 48.334668, -51.333069 48.357655, -51.274953 48.380613, -51.216785 48.403542, -51.158564 48.426442, -51.100291 48.449312, -51.041966 48.472153, -50.983588 48.494964, -50.925157 48.517746, -50.866674 48.540498, -50.808138 48.563220, -50.749550 48.585913, -50.690909 48.608576, -50.632215 48.631209, -50.573469 48.653813, -50.514670 48.676386, -50.455818 48.698929, -50.396914 48.721443, -50.337957 48.743926, -50.278948 48.766380, -50.219885 48.788803, -50.160770 48.811196, -50.101602 48.833559, -50.042381 48.855891, -49.983107 48.878193, -49.923781 48.900465, -49.864401 48.922706, -49.804969 48.944917, -49.745484 48.967097, -49.685946 48.989246, -49.626355 49.011365, -49.566711 49.033453, -49.507014 49.055511, -49.447264 49.077537, -49.387462 49.099533, -49.327606 49.121498, -49.267697 49.143432, -49.207735 49.165335, -49.147720 49.187206, -49.087653 49.209047, -49.027532 49.230856, -48.967358 49.252635, -48.907131 49.274382, -48.846850 49.296097, -48.786517 49.317781, -48.726131 49.339434, -48.665691 49.361055, -48.605199 49.382645, -48.544653 49.404203, -48.484054 49.425730, -48.423402 49.447225, -48.362696 49.468688, -48.301938 49.490119, -48.241126 49.511519, -48.180262 49.532886, -48.119344 49.554222, -48.058372 49.575525, -47.997348 49.596797, -47.936270 49.618036, -47.875139 49.639244, -47.813955 49.660419, -47.752718 49.681561, -47.691427 49.702672, -47.630084 49.723750, -47.568686 49.744796, -47.507236 49.765809, -47.445733 49.786790, -47.384176 49.807738, -47.322566 49.828653, -47.260902 49.849536, -47.199186 49.870386, -47.137416 49.891203, -47.075593 49.911988, -47.013716 49.932739, -46.951787 49.953458, -46.889804 49.974143, -46.827767 49.994796, -46.765678 50.015415, -46.703535 50.036002, -46.641339 50.056555, -46.579090 50.077074, -46.516787 50.097561, -46.454431 50.118014, -46.392022 50.138434, -46.329560 50.158820, -46.267044 50.179173, -46.204476 50.199492, -46.141853 50.219777, -46.079178 50.240029, -46.016450 50.260247, -45.953668 50.280432, -45.890833 50.300582, -45.827945 50.320699, -45.765003 50.340781, -45.702009 50.360830, -45.638961 50.380844, -45.575860 50.400825, -45.512706 50.420771, -45.449498 50.440683, -45.386238 50.460561, -45.322924 50.480404, -45.259557 50.500213, -45.196137 50.519988, -45.132664 50.539728, -45.069138 50.559434, -45.005559 50.579105, -44.941927 50.598741, -44.878241 50.618343, -44.814503 50.637910, -44.750711 50.657442, -44.686867 50.676940, -44.622969 50.696402, -44.559019 50.715830, -44.495015 50.735222, -44.430959 50.754580, -44.366849 50.773902, -44.302687 50.793189, -44.238471 50.812441, -44.174203 50.831658, -44.109882 50.850839, -44.045508 50.869985, -43.981081 50.889095, -43.916602 50.908170, -43.852069 50.927210, -43.787484 50.946214, -43.722846 50.965182, -43.658155 50.984115, -43.593411 51.003011, -43.528615 51.021872, -43.463766 51.040697, -43.398864 51.059487, -43.333910 51.078240, -43.268903 51.096957, -43.203843 51.115638, -43.138731 51.134283, -43.073566 51.152892, -43.008349 51.171464, -42.943080 51.190001, -42.877757 51.208501, -42.812383 51.226964, -42.746956 51.245391, -42.681476 51.263782, -42.615944 51.282136, -42.550360 51.300453, -42.484724 51.318734, -42.419035 51.336978, -42.353294 51.355185, -42.287501 51.373356, -42.221655 51.391489, -42.155758 51.409586, -42.089808 51.427646, -42.023806 51.445668, -41.957752 51.463654, -41.891646 51.481602, -41.825488 51.499514, -41.759279 51.517388, -41.693017 51.535224, -41.626703 51.553024, -41.560337 51.570786, -41.493920 51.588510, -41.427451 51.606197, -41.360930 51.623846, -41.294357 51.641458, -41.227733 51.659032, -41.161057 51.676569, -41.094329 51.694067, -41.027550 51.711528, -40.960720 51.728951, -40.893837 51.746336, -40.826904 51.763683, -40.759919 51.780992, -40.692882 51.798263, -40.625795 51.815495, -40.558656 51.832690, -40.491466 51.849846, -40.424224 51.866964, -40.356932 51.884044, -40.289588 51.901085, -40.222194 51.918088, -40.154748 51.935052, -40.087251 51.951977, -40.019704 51.968864, -39.952105 51.985713, -39.884456 52.002522, -39.816756 52.019293, -39.749005 52.036025, -39.681204 52.052718, -39.613352 52.069372, -39.545449 52.085988, -39.477496 52.102564, -39.409493 52.119101, -39.341439 52.135599, -39.273334 52.152057, -39.205180 52.168477, -39.136975 52.184857, -39.068720 52.201198, -39.000414 52.217499, -38.932059 52.233761, -38.863653 52.249984, -38.795198 52.266166, -38.726693 52.282310, -38.658137 52.298413, -38.589532 52.314477, -38.520878 52.330501, -38.452173 52.346485, -38.383419 52.362430, -38.314615 52.378334, -38.245762 52.394199, -38.176859 52.410023, -38.107907 52.425808, -38.038906 52.441552, -37.969855 52.457256, -37.900755 52.472920, -37.831606 52.488543, -37.762408 52.504126, -37.693161 52.519669, -37.623865 52.535172, -37.554520 52.550634, -37.485126 52.566055, -37.415684 52.581436, -37.346192 52.596776, -37.276653 52.612075, -37.207064 52.627334, -37.137427 52.642552, -37.067742 52.657729, -36.998008 52.672865, -36.928227 52.687960, -36.858397 52.703014, -36.788518 52.718027, -36.718592 52.732999, -36.648618 52.747930, -36.578596 52.762820, -36.508526 52.777668, -36.438408 52.792475, -36.368243 52.807241, -36.298030 52.821965, -36.227769 52.836648, -36.157461 52.851289, -36.087106 52.865889, -36.016703 52.880447, -35.946253 52.894964, -35.875756 52.909439, -35.805212 52.923872, -35.734621 52.938263, -35.663983 52.952612, -35.593298 52.966920, -35.522567 52.981185, -35.451788 52.995409, -35.380964 53.009591, -35.310092 53.023730, -35.239175 53.037827, -35.168211 53.051882, -35.097200 53.065895, -35.026144 53.079866, -34.955042 53.093794, -34.883893 53.107679, -34.812699 53.121523, -34.741459 53.135324, -34.670173 53.149082, -34.598842 53.162797, -34.527465 53.176471, -34.456042 53.190101, -34.384575 53.203689, -34.313062 53.217233, -34.241503 53.230735, -34.169900 53.244194, -34.098252 53.257611, -34.026559 53.270984, -33.954821 53.284314, -33.883038 53.297601, -33.811211 53.310845, -33.739339 53.324046, -33.667423 53.337204, -33.595463 53.350318, -33.523458 53.363389, -33.451409 53.376417, -33.379316 53.389401, -33.307180 53.402342, -33.234999 53.415239, -33.162775 53.428093, -33.090507 53.440903, -33.018196 53.453670, -32.945841 53.466393, -32.873443 53.479072, -32.801001 53.491707, -32.728517 53.504299, -32.655989 53.516846, -32.583419 53.529350, -32.510806 53.541810, -32.438150 53.554226, -32.365452 53.566597, -32.292711 53.578925, -32.219928 53.591208, -32.147102 53.603448, -32.074235 53.615643, -32.001325 53.627794, -31.928373 53.639900, -31.855380 53.651962, -31.782345 53.663980, -31.709268 53.675953, -31.636150 53.687882, -31.562991 53.699766, -31.489790 53.711605, -31.416548 53.723400, -31.343265 53.735150, -31.269941 53.746856, -31.196577 53.758517, -31.123171 53.770133, -31.049726 53.781704, -30.976239 53.793230, -30.902713 53.804711, -30.829146 53.816147, -30.755539 53.827538, -30.681892 53.838884, -30.608206 53.850185, -30.534479 53.861441, -30.460713 53.872652, -30.386908 53.883817, -30.313063 53.894937, -30.239179 53.906012, -30.165256 53.917041, -30.091294 53.928025, -30.017293 53.938964, -29.943253 53.949857, -29.869175 53.960704, -29.795058 53.971506, -29.720903 53.982262, -29.646709 53.992972, -29.572478 54.003637, -29.498208 54.014256, -29.423901 54.024829, -29.349556 54.035357, -29.275173 54.045838, -29.200753 54.056274, -29.126296 54.066664, -29.051801 54.077007, -28.977270 54.087305, -28.902701 54.097556, -28.828096 54.107762, -28.753454 54.117921, -28.678776 54.128034, -28.604061 54.138101, -28.529310 54.148122, -28.454523 54.158096, -28.379699 54.168024, -28.304840 54.177905, -28.229946 54.187740, -28.155015 54.197529, -28.080050 54.207271, -28.005049 54.216966, -27.930013 54.226615, -27.854942 54.236217, -27.779836 54.245773, -27.704695 54.255282, -27.629520 54.264744, -27.554310 54.274159, -27.479066 54.283528, -27.403788 54.292849, -27.328476 54.302124, -27.253130 54.311352, -27.177750 54.320533, -27.102337 54.329667, -27.026890 54.338754, -26.951410 54.347793, -26.875897 54.356786, -26.800351 54.365732, -26.724772 54.374630, -26.649161 54.383481, -26.573517 54.392285, -26.497840 54.401041, -26.422132 54.409750, -26.346391 54.418412, -26.270618 54.427027, -26.194814 54.435594, -26.118978 54.444113, -26.043110 54.452585, -25.967211 54.461010, -25.891281 54.469387, -25.815320 54.477716, -25.739328 54.485998, -25.663306 54.494232, -25.587252 54.502418, -25.511169 54.510556, -25.435055 54.518647, -25.358911 54.526690, -25.282737 54.534685, -25.206534 54.542632, -25.130301 54.550532, -25.054038 54.558383, -24.977746 54.566186, -24.901425 54.573942, -24.825075 54.581649, -24.748697 54.589308, -24.672289 54.596920, -24.595854 54.604483, -24.519389 54.611998, -24.442897 54.619464, -24.366377 54.626883, -24.289829 54.634253, -24.213253 54.641575, -24.136650 54.648848, -24.060019 54.656074, -23.983361 54.663251, -23.906676 54.670379, -23.829965 54.677459, -23.753227 54.684491, -23.676462 54.691474, -23.599671 54.698408, -23.522853 54.705294, -23.446010 54.712132, -23.369141 54.718920, -23.292246 54.725660, -23.215326 54.732352, -23.138381 54.738995, -23.061410 54.745589, -22.984414 54.752134, -22.907394 54.758631, -22.830349 54.765078, -22.753279 54.771477, -22.676185 54.777827, -22.599067 54.784128, -22.521925 54.790380, -22.444760 54.796584, -22.367570 54.802738, -22.290358 54.808843, -22.213122 54.814899, -22.135863 54.820907, -22.058581 54.826865, -21.981276 54.832774, -21.903949 54.838634, -21.826599 54.844445, -21.749228 54.850206, -21.671834 54.855919, -21.594418 54.861582, -21.516981 54.867196, -21.439523 54.872760, -21.362043 54.878276, -21.284541 54.883742, -21.207019 54.889159, -21.129477 54.894526, -21.051913 54.899844, -20.974330 54.905112, -20.896726 54.910332, -20.819102 54.915501, -20.741458 54.920621, -20.663794 54.925692, -20.586111 54.930713, -20.508409 54.935685, -20.430688 54.940607, -20.352947 54.945479, -20.275188 54.950302, -20.197410 54.955076, -20.119614 54.959799, -20.041800 54.964473, -19.963968 54.969097, -19.886118 54.973672, -19.808250 54.978197, -19.730365 54.982672, -19.652462 54.987097, -19.574543 54.991473, -19.496606 54.995798, -19.418653 55.000074, -19.340684 55.004300, -19.262698 55.008476, -19.184696 55.012603, -19.106677 55.016679, -19.028644 55.020706, -18.950594 55.024682, -18.872529 55.028609, -18.794449 55.032486, -18.716354 55.036312, -18.638244 55.040089, -18.560120 55.043816, -18.481981 55.047492, -18.403828 55.051119, -18.325660 55.054695, -18.247479 55.058222, -18.169284 55.061698, -18.091076 55.065124, -18.012855 55.068500, -17.934620 55.071826, -17.856372 55.075102, -17.778112 55.078328, -17.699839 55.081503, -17.621554 55.084628, -17.543257 55.087704, -17.464947 55.090728, -17.386626 55.093703, -17.308294 55.096627, -17.229950 55.099501, -17.151595 55.102325, -17.073229 55.105099, -16.994852 55.107822, -16.916464 55.110495, -16.838067 55.113117, -16.759659 55.115690, -16.681241 55.118212, -16.602813 55.120683, -16.524375 55.123104, -16.445928 55.125475, -16.367472 55.127796, -16.289007 55.130066, -16.210533 55.132285, -16.132051 55.134454, -16.053560 55.136573, -15.975061 55.138641, -15.896554 55.140659, -15.818038 55.142627, -15.739516 55.144544, -15.660986 55.146410, -15.582448 55.148226, -15.503904 55.149992, -15.425352 55.151707, -15.346794 55.153371, -15.268230 55.154985, -15.189659 55.156549, -15.111083 55.158061, -15.032500 55.159524, -14.953912 55.160936, -14.875318 55.162297, -14.796719 55.163608, -14.718115 55.164868, -14.639506 55.166078, -14.560892 55.167237, -14.482274 55.168345, -14.403652 55.169403, -14.325026 55.170411, -14.246395 55.171367, -14.167761 55.172274, -14.089124 55.173129, -14.010483 55.173934, -13.931839 55.174688, -13.853193 55.175392, -13.774543 55.176045, -13.695892 55.176648, -13.617237 55.177200, -13.538581 55.177701, -13.459923 55.178152, -13.381263 55.178552, -13.302602 55.178901, -13.223940 55.179200, -13.145276 55.179448, -13.066612 55.179646, -12.987946 55.179793, -12.909281 55.179889, -12.830615 55.179935, -12.751949 55.179930, -12.673283 55.179874, -12.594618 55.179768, -12.515953 55.179611, -12.437288 55.179404, -12.358625 55.179146, -12.279963 55.178837, -12.201302 55.178478, -12.122642 55.178068, -12.043984 55.177607, -11.965329 55.177096, -11.886675 55.176534, -11.808024 55.175922, -11.729375 55.175259, -11.650729 55.174545, -11.572085 55.173781, -11.493445 55.172966, -11.414809 55.172100, -11.336175 55.171184, -11.257546 55.170218, -11.178920 55.169200, -11.100299 55.168133, -11.021681 55.167014, -10.943069 55.165845, -10.864461 55.164626, -10.785858 55.163356, -10.707260 55.162035, -10.628667 55.160664, -10.550080 55.159242, -10.471498 55.157770, -10.392923 55.156247, -10.314353 55.154674, -10.235790 55.153050, -10.157233 55.151375, -10.078683 55.149650, -10.000140 55.147875, -9.921604 55.146049, -9.843076 55.144173, -9.764554 55.142246, -9.686041 55.140269, -9.607535 55.138241, -9.529038 55.136163, -9.450548 55.134034, -9.372067 55.131855, -9.293595 55.129626, -9.215132 55.127346, -9.136678 55.125016, -9.058233 55.122635, -8.979797 55.120204, -8.901371 55.117723, -8.822955 55.115191, -8.744549 55.112609, -8.666153 55.109976, -8.587768 55.107294, -8.509393 55.104560, -8.431029 55.101777, -8.352676 55.098944, -8.274334 55.096060, -8.196004 55.093125, -8.117685 55.090141, -8.039378 55.087106, -7.961084 55.084021, -7.882801 55.080886, -7.804530 55.077701, -7.726272 55.074466, -7.648027 55.071180, -7.569795 55.067844, -7.491576 55.064458, -7.413371 55.061022, -7.335178 55.057536, -7.257000 55.054000)
