LINESTRING (1.190000 51.067000, 1.192813 51.065615, 1.195626 51.064229, 1.198439 51.062844, 1.201252 51.061458, 1.204064 51.060072, 1.206877 51.058687, 1.209689 51.057301, 1.212501 51.055915, 1.215312 51.054529, 1.218124 51.053143, 1.220936 51.051757, 1.223747 51.050371, 1.226558 51.048985, 1.229369 51.047599, 1.232180 51.046212, 1.234991 51.044826, 1.237801 51.043440, 1.240611 51.042053, 1.243421 51.040666, 1.246231 51.039280, 1.249041 51.037893, 1.251851 51.036506, 1.254660 51.035119, 1.257470 51.033733, 1.260279 51.032346, 1.263088 51.030958, 1.265897 51.029571, 1.268705 51.028184, 1.271514 51.026797, 1.274322 51.025410, 1.277130 51.024022, 1.279938 51.022635, 1.282746 51.021247, 1.285553 51.019860, 1.288361 51.018472, 1.291168 51.017084, 1.293975 51.015696, 1.296782 51.014309, 1.299589 51.012921, 1.302396 51.011533, 1.305202 51.010145, 1.308008 51.008756, 1.310814 51.007368, 1.313620 51.005980, 1.316426 51.004592, 1.319232 51.003203, 1.322037 51.001815, 1.324843 51.000426, 1.327648 50.999038, 1.330453 50.997649, 1.333257 50.996260, 1.336062 50.994871, 1.338866 50.993483, 1.341671 50.992094, 1.344475 50.990705, 1.347279 50.989316, 1.350082 50.987926, 1.352886 50.986537, 1.355689 50.985148, 1.358493 50.983759, 1.361296 50.982369, 1.364099 50.980980, 1.366901 50.979590, 1.369704 50.978201, 1.372506 50.976811, 1.375309 50.975421, 1.378111 50.974031, 1.380913 50.972641, 1.383714 50.971252, 1.386516 50.969862, 1.389317 50.968471, 1.392119 50.967081, 1.394920 50.965691, 1.397721 50.964301, 1.400521 50.962910, 1.403322 50.961520, 1.406122 50.960130, 1.408923 50.958739, 1.411723 50.957348, 1.414523 50.955958, 1.417322 50.954567, 1.420122 50.953176, 1.422921 50.951785, 1.425720 50.950394, 1.428520 50.949003, 1.431318 50.947612, 1.434117 50.946221, 1.436916 50.944830, 1.439714 50.943439, 1.442512 50.942047, 1.445310 50.940656, 1.448108 50.939264, 1.450906 50.937873, 1.453704 50.936481, 1.456501 50.935090, 1.459298 50.933698, 1.462095 50.932306, 1.464892 50.930914, 1.467689 50.929522, 1.470485 50.928130, 1.473282 50.926738, 1.476078 50.925346, 1.478874 50.923954, 1.481670 50.922561, 1.484466 50.921169, 1.487261 50.919777, 1.490057 50.918384, 1.492852 50.916992, 1.495647 50.915599, 1.498442 50.914206, 1.501236 50.912814, 1.504031 50.911421, 1.506825 50.910028, 1.509620 50.908635, 1.512414 50.907242, 1.515207 50.905849, 1.518001 50.904456, 1.520795 50.903062, 1.523588 50.901669, 1.526381 50.900276, 1.529174 50.898882, 1.531967 50.897489, 1.534760 50.896095, 1.537552 50.894702, 1.540345 50.893308, 1.543137 50.891914, 1.545929 50.890520, 1.548721 50.889127, 1.551513 50.887733, 1.554304 50.886339, 1.557096 50.884945, 1.559887 50.883550, 1.562678 50.882156, 1.565469 50.880762, 1.568259 50.879367, 1.571050 50.877973, 1.573840 50.876579, 1.576630 50.875184, 1.579420 50.873789, 1.582210 50.872395, 1.585000 50.871000)
