LINESTRING (-82.632000 27.771000, -82.630339 27.772693, -82.628678 27.774387, -82.627017 27.776080, -82.625357 27.777773, -82.623696 27.779466, -82.622034 27.781160, -82.620373 27.782853, -82.618712 27.784546, -82.617051 27.786239, -82.615390 27.787932, -82.613728 27.789626, -82.612067 27.791319, -82.610406 27.793012, -82.608744 27.794705, -82.607083 27.796398, -82.605421 27.798091, -82.603760 27.799784, -82.602098 27.801477, -82.600436 27.803170, -82.598774 27.804863, -82.597113 27.806556, -82.595451 27.808249, -82.593789 27.809942, -82.592127 27.811635, -82.590465 27.813327, -82.588803 27.815020, -82.587140 27.816713, -82.585478 27.818406, -82.583816 27.820099, -82.582154 27.821791, -82.580491 27.823484, -82.578829 27.825177, -82.577167 27.826870, -82.575504 27.828562, -82.573842 27.830255, -82.572179 27.831947, -82.570516 27.833640, -82.568854 27.835333, -82.567191 27.837025, -82.565528 27.838718, -82.563865 27.840410, -82.562202 27.842103, -82.560539 27.843795, -82.558876 27.845488, -82.557213 27.847180, -82.555550 27.848873, -82.553887 27.850565, -82.552224 27.852258, -82.550560 27.853950, -82.548897 27.855642, -82.547234 27.857335, -82.545570 27.859027, -82.543907 27.860719, -82.542243 27.862412, -82.540580 27.864104, -82.538916 27.865796, -82.537252 27.867488, -82.535589 27.869180, -82.533925 27.870873, -82.532261 27.872565, -82.530597 27.874257, -82.528933 27.875949, -82.527269 27.877641, -82.525605 27.879333, -82.523941 27.881025, -82.522277 27.882717, -82.520612 27.884409, -82.518948 27.886101, -82.517284 27.887793, -82.515620 27.889485, -82.513955 27.891177, -82.512291 27.892869, -82.510626 27.894561, -82.508962 27.896253, -82.507297 27.897945, -82.505632 27.899637, -82.503967 27.901328, -82.502303 27.903020, -82.500638 27.904712, -82.498973 27.906404, -82.497308 27.908096, -82.495643 27.909787, -82.493978 27.911479, -82.492313 27.913171, -82.490648 27.914862, -82.488983 27.916554, -82.487317 27.918246, -82.485652 27.919937, -82.483987 27.921629, -82.482321 27.923320, -82.480656 27.925012, -82.478990 27.926703, -82.477325 27.928395, -82.475659 27.930086, -82.473993 27.931778, -82.472328 27.933469, -82.470662 27.935161, -82.468996 27.936852, -82.467330 27.938543, -82.465664 27.940235, -82.463998 27.941926, -82.462332 27.943617, -82.460666 27.945309, -82.459000 27.947000)
