LINESTRING (-73.607500 40.740830, -73.402744 40.829650, -73.197439 40.918107, -72.991585 41.006199, -72.785182 41.093924, -72.578227 41.181280, -72.370721 41.268264, -72.162662 41.354875, -71.954051 41.441110, -71.744885 41.526967, -71.535164 41.612444, -71.324889 41.697539, -71.114057 41.782249, -70.902669 41.866573, -70.690724 41.950509, -70.478221 42.034053, -70.265160 42.117205, -70.051541 42.199962, -69.837363 42.282321, -69.622625 42.364280, -69.407328 42.445838, -69.191471 42.526992, -68.975053 42.607740, -68.758076 42.688079, -68.540537 42.768008, -68.322438 42.847524, -68.103779 42.926625, -67.884558 43.005309, -67.664777 43.083573, -67.444435 43.161416, -67.223532 43.238835, -67.002069 43.315827, -66.780046 43.392392, -66.557462 43.468526, -66.334318 43.544226, -66.110615 43.619492, -65.886353 43.694321, -65.661532 43.768710, -65.436153 43.842657, -65.210216 43.916161, -64.983722 43.989218, -64.756672 44.061826, -64.529066 44.133984, -64.300904 44.205689, -64.072188 44.276939, -63.842919 44.347731, -63.613096 44.418063, -63.382723 44.487934, -63.151798 44.557340, -62.920324 44.626280, -62.688301 44.694751, -62.455731 44.762752, -62.222614 44.830279, -61.988953 44.897331, -61.754747 44.963905, -61.520000 45.030000, -61.289448 45.097452, -61.058352 45.164439, -60.826714 45.230959, -60.594535 45.297009, -60.361817 45.362588, -60.128560 45.427694, -59.894767 45.492323, -59.660438 45.556475, -59.425576 45.620146, -59.190182 45.683335, -58.954258 45.746040, -58.717805 45.808258, -58.480825 45.869987, -58.243320 45.931225, -58.005293 45.991970, -57.766744 46.052220, -57.527677 46.111972, -57.288093 46.171225, -57.047994 46.229977, -56.807383 46.288224, -56.566262 46.345966, -56.324633 46.403200, -56.082499 46.459925, -55.839862 46.516137, -55.596725 46.571835, -55.353091 46.627017, -55.108961 46.681680, -54.864340 46.735824, -54.619229 46.789445, -54.373631 46.842542, -54.127550 46.895112, -53.880989 46.947154, -53.633950 46.998666, -53.386437 47.049646, -53.138452 47.100091, -52.890000 47.150000, -52.651964 47.228260, -52.413227 47.306025, -52.173788 47.383293, -51.933648 47.460061, -51.692809 47.536326, -51.451270 47.612085, -51.209033 47.687336, -50.966098 47.762076, -50.722466 47.836302, -50.478139 47.910010, -50.233118 47.983199, -49.987403 48.055866, -49.740996 48.128007, -49.493898 48.199620, -49.246112 48.270702, -48.997637 48.341250, -48.748477 48.411261, -48.498632 48.480733, -48.248104 48.549663, -47.996896 48.618048, -47.745008 48.685885, -47.492444 48.753172, -47.239206 48.819905, -46.985295 48.886082, -46.730714 48.951700, -46.475465 49.016756, -46.219551 49.081248, -45.962975 49.145173, -45.705739 49.208528, -45.447845 49.271310, -45.189298 49.333516, -44.930099 49.395145, -44.670252 49.456193, -44.409760 49.516657, -44.148626 49.576535, -43.886853 49.635824, -43.624446 49.694521, -43.361407 49.752624, -43.097741 49.810130, -42.833451 49.867037, -42.568540 49.923341, -42.303013 49.979041, -42.036874 50.034133, -41.770127 50.088615, -41.502777 50.142485, -41.234827 50.195739, -40.966282 50.248376, -40.697146 50.300393, -40.427425 50.351787, -40.157123 50.402556, -39.886245 50.452697, -39.614796 50.502208, -39.342780 50.551087, -39.070204 50.599330, -38.797072 50.646937, -38.523389 50.693903, -38.249162 50.740228, -37.974395 50.785908, -37.699095 50.830942, -37.423267 50.875327, -37.146917 50.919060, -36.870051 50.962140, -36.592674 51.004564, -36.314794 51.046330, -36.036417 51.087436, -35.757548 51.127880, -35.478194 51.167660, -35.198362 51.206773, -34.918058 51.245217, -34.637290 51.282991, -34.356063 51.320093, -34.074386 51.356520, -33.792264 51.392270, -33.509705 51.427343, -33.226716 51.461734, -32.943304 51.495444, -32.659478 51.528470, -32.375243 51.560809, -32.090609 51.592462, -31.805581 51.623424, -31.520169 51.653696, -31.234380 51.683276, -30.948221 51.712160, -30.661701 51.740349, -30.374828 51.767841, -30.087609 51.794633, -29.800054 51.820725, -29.512170 51.846114, -29.223965 51.870800, -28.935448 51.894782, -28.646628 51.918057, -28.357513 51.940624, -28.068111 51.962483, -27.778431 51.983632, -27.488482 52.004069, -27.198273 52.023794, -26.907813 52.042805, -26.617110 52.061101, -26.326173 52.078682, -26.035012 52.095546, -25.743636 52.111692, -25.452052 52.127120, -25.160272 52.141828, -24.868304 52.155815, -24.576156 52.169081, -24.283840 52.181625, -23.991363 52.193447, -23.698735 52.204545, -23.405966 52.214918, -23.113064 52.224568, -22.820041 52.233491, -22.526904 52.241689, -22.233663 52.249161, -21.940329 52.255906, -21.646910 52.261923, -21.353417 52.267214, -21.059858 52.271776, -20.766244 52.275610, -20.472583 52.278717, -20.178886 52.281094, -19.885163 52.282743, -19.591423 52.283663, -19.297675 52.283855, -19.003929 52.283317, -18.710196 52.282051, -18.416484 52.280056, -18.122803 52.277333, -17.829163 52.273881, -17.535574 52.269701, -17.242045 52.264793, -16.948586 52.259158, -16.655206 52.252795, -16.361915 52.245705, -16.068723 52.237888, -15.775638 52.229346, -15.482671 52.220078, -15.189832 52.210084, -14.897128 52.199367, -14.604571 52.187925, -14.312169 52.175761, -14.019932 52.162874, -13.727868 52.149265, -13.435988 52.134936, -13.144300 52.119886, -12.852814 52.104117, -12.561538 52.087630, -12.270482 52.070426, -11.979656 52.052505, -11.689067 52.033869, -11.398724 52.014519, -11.108638 51.994456, -10.818816 51.973681, -10.529267 51.952195, -10.240000 51.930000, -9.966315 51.868895, -9.693377 51.807156, -9.421189 51.744787, -9.149756 51.681791, -8.879080 51.618172, -8.609166 51.553932, -8.340017 51.489074, -8.071636 51.423602, -7.804027 51.357519, -7.537192 51.290828, -7.271134 51.223533, -7.005857 51.155636, -6.741363 51.087141, -6.477655 51.018051, -6.214734 50.948369, -5.952604 50.878099, -5.691267 50.807243, -5.430725 50.735805, -5.170979 50.663789, -4.912032 50.591197, -4.653885 50.518032, -4.396541 50.444299, -4.140000 50.370000, -3.884564 50.299474, -3.629888 50.228390, -3.375972 50.156752, -3.122819 50.084561, -2.870431 50.011822, -2.618808 49.938537, -2.367952 49.864709, -2.117865 49.790341, -1.868547 49.715437, -1.620000 49.640000, -1.363002 49.602291, -1.106403 49.564013, -0.850210 49.525169, -0.594426 49.485760, -0.339057 49.445789, -0.084107 49.405256, 0.170420 49.364163, 0.424519 49.322512, 0.678185 49.280306, 0.931415 49.237545, 1.184204 49.194231, 1.436547 49.150367, 1.688442 49.105954, 1.939883 49.060994, 2.190867 49.015489, 2.441390 48.969440)
