LINESTRING (-118.210000 33.743000, -118.209900 33.743033, -118.209800 33.743067, -118.209700 33.743100, -118.209600 33.743133, -118.209500 33.743167, -118.209400 33.743200, -118.209300 33.743233, -118.209200 33.743267, -118.209100 33.743300, -118.209000 33.743333, -118.208900 33.743367, -118.208800 33.743400, -118.208700 33.743433, -118.208600 33.743467, -118.208500 33.743500, -118.208400 33.743533, -118.208300 33.743567, -118.208200 33.743600, -118.208100 33.743633, -118.208000 33.743667, -118.207900 33.743700, -118.207800 33.743733, -118.207700 33.743767, -118.207600 33.743800, -118.207500 33.743833, -118.207400 33.743867, -118.207300 33.743900, -118.207200 33.743933, -118.207100 33.743967, -118.207000 33.744000, -118.206900 33.744033, -118.206800 33.744067, -118.206700 33.744100, -118.206600 33.744133, -118.206500 33.744167, -118.206400 33.744200, -118.206300 33.744233, -118.206200 33.744267, -118.206100 33.744300, -118.206000 33.744333, -118.205900 33.744367, -118.205800 33.744400, -118.205700 33.744433, -118.205600 33.744467, -118.205500 33.744500, -118.205400 33.744533, -118.205300 33.744567, -118.205200 33.744600, -118.205100 33.744633, -118.205000 33.744667, -118.204900 33.744700, -118.204800 33.744733, -118.204700 33.744767, -118.204600 33.744800, -118.204500 33.744833, -118.204400 33.744867, -118.204300 33.744900, -118.204200 33.744933, -118.204100 33.744967, -118.204000 33.745000, -118.203900 33.745033, -118.203800 33.745067, -118.203700 33.745100, -118.203600 33.745133, -118.203500 33.745167, -118.203400 33.745200, -118.203300 33.745233, -118.203200 33.745267, -118.203100 33.745300, -118.203000 33.745333, -118.202900 33.745367, -118.202800 33.745400, -118.202700 33.745433, -118.202600 33.745467, -118.202500 33.745500)
