LINESTRING (-118.084600 34.629400, -118.127349 34.614100, -118.174100 34.599649, -118.224344 34.585875, -118.277571 34.572609, -118.333270 34.559682, -118.390932 34.546926, -118.450047 34.534173, -118.510104 34.521257, -118.570594 34.508012, -118.631005 34.494274, -118.690827 34.479879, -118.749549 34.464664, -118.806660 34.448468, -118.861649 34.431131, -118.914006 34.412492, -118.963220 34.392391, -119.008782 34.370672, -119.050183 34.347175, -119.086913 34.321742, -119.118465 34.294216, -119.144334 34.264439, -119.164013 34.232254, -119.177000 34.197500, -119.179319 34.163186, -119.168134 34.132707, -119.144794 34.105925, -119.110644 34.082698, -119.067024 34.062883, -119.015272 34.046334, -118.956721 34.032908, -118.892703 34.022461, -118.824545 34.014852, -118.753577 34.009943, -118.681122 34.007598, -118.608508 34.007683, -118.537059 34.010070, -118.468099 34.014631, -118.402955 34.021245, -118.342955 34.029789, -118.289426 34.040146, -118.243700 34.052200, -118.201254 34.065394, -118.158688 34.078622, -118.116004 34.091886, -118.073202 34.105183, -118.030282 34.118514, -117.987245 34.131879, -117.944090 34.145277, -117.900818 34.158707, -117.857429 34.172171, -117.813923 34.185666, -117.770302 34.199193, -117.726565 34.212752, -117.682712 34.226342, -117.638744 34.239963, -117.594662 34.253615, -117.550464 34.267296, -117.506153 34.281008, -117.461727 34.294749, -117.417188 34.308519, -117.372536 34.322319, -117.327770 34.336146, -117.282892 34.350002, -117.237902 34.363886, -117.192800 34.377798, -117.147586 34.391736, -117.102260 34.405702, -117.056824 34.419694, -117.011277 34.433713, -116.965619 34.447757, -116.919852 34.461827, -116.873974 34.475922, -116.827988 34.490042, -116.781892 34.504187, -116.735687 34.518356, -116.689375 34.532549, -116.642954 34.546765, -116.596425 34.561005, -116.549790 34.575267, -116.503047 34.589552, -116.456197 34.603860, -116.409241 34.618189, -116.362180 34.632540, -116.315012 34.646912, -116.267740 34.661305, -116.220362 34.675719, -116.172880 34.690153, -116.125293 34.704607, -116.077603 34.719080, -116.029810 34.733573, -115.981913 34.748085, -115.933913 34.762615, -115.885811 34.777164, -115.837607 34.791730, -115.789301 34.806314, -115.740894 34.820916, -115.692386 34.835534, -115.643777 34.850169, -115.595068 34.864820, -115.546260 34.879487, -115.497352 34.894170, -115.448344 34.908868, -115.399238 34.923581, -115.350034 34.938309, -115.300732 34.953051, -115.251332 34.967807, -115.201835 34.982577, -115.152241 34.997360, -115.102550 35.012156, -115.052764 35.026964, -115.002882 35.041785, -114.952904 35.056618, -114.902832 35.071463, -114.852665 35.086318, -114.802405 35.101185, -114.752050 35.116063, -114.701602 35.130951, -114.651061 35.145849, -114.600428 35.160757, -114.549703 35.175674, -114.498886 35.190600, -114.447977 35.205534, -114.396978 35.220478, -114.345889 35.235429, -114.294709 35.250388, -114.243439 35.265354, -114.192081 35.280328, -114.140633 35.295308, -114.089097 35.310295, -114.037473 35.325288, -113.985762 35.340286, -113.933963 35.355290, -113.882078 35.370300, -113.830106 35.385314, -113.778049 35.400332, -113.725906 35.415355, -113.673678 35.430382, -113.621365 35.445412, -113.568968 35.460445, -113.516488 35.475481, -113.463924 35.490520, -113.411277 35.505561, -113.358548 35.520604, -113.305737 35.535649, -113.252844 35.550694, -113.199870 35.565741, -113.146816 35.580789, -113.093681 35.595837, -113.040467 35.610884, -112.987173 35.625932, -112.933801 35.640979, -112.880350 35.656025, -112.826821 35.671070, -112.773215 35.686113, -112.719531 35.701154, -112.665771 35.716194, -112.611935 35.731230, -112.558023 35.746264, -112.504036 35.761295, -112.449974 35.776322, -112.395839 35.791346, -112.341629 35.806365, -112.287346 35.821380, -112.232990 35.836391, -112.178562 35.851396, -112.124061 35.866397, -112.069490 35.881391, -112.014847 35.896380, -111.960134 35.911362, -111.905351 35.926338, -111.850499 35.941308, -111.795577 35.956270, -111.740587 35.971224, -111.685529 35.986171, -111.630404 36.001110, -111.575211 36.016040, -111.519952 36.030962, -111.464627 36.045875, -111.409236 36.060779, -111.353780 36.075673, -111.298259 36.090557, -111.242675 36.105431, -111.187027 36.120295, -111.131316 36.135148, -111.075542 36.149990, -111.019706 36.164821, -110.963809 36.179640, -110.907850 36.194447, -110.851831 36.209242, -110.795752 36.224024, -110.739614 36.238794, -110.683417 36.253551, -110.627161 36.268294, -110.570847 36.283024, -110.514476 36.297739, -110.458048 36.312441, -110.401563 36.327128, -110.345023 36.341800, -110.288427 36.356457, -110.231777 36.371098, -110.175072 36.385724, -110.118314 36.400334, -110.061502 36.414928, -110.004638 36.429506, -109.947721 36.444066, -109.890753 36.458610, -109.833734 36.473136, -109.776664 36.487645, -109.719545 36.502135, -109.662376 36.516608, -109.605158 36.531062, -109.547892 36.545497, -109.490578 36.559914, -109.433217 36.574311, -109.375809 36.588689, -109.318355 36.603047, -109.260855 36.617385, -109.203310 36.631702, -109.145721 36.645999, -109.088088 36.660275, -109.030412 36.674530, -108.972693 36.688763, -108.914931 36.702975, -108.857128 36.717165, -108.799284 36.731333, -108.741399 36.745478, -108.683474 36.759601, -108.625510 36.773701, -108.567507 36.787777, -108.509466 36.801830, -108.451387 36.815860, -108.393271 36.829865, -108.335119 36.843846, -108.276930 36.857803, -108.218706 36.871735, -108.160447 36.885642, -108.102154 36.899524, -108.043828 36.913380, -107.985468 36.927211, -107.927076 36.941015, -107.868652 36.954794, -107.810196 36.968546, -107.751710 36.982271, -107.693194 36.995969, -107.634648 37.009640, -107.576073 37.023284, -107.517470 37.036900, -107.458839 37.050489, -107.400181 37.064049, -107.341496 37.077581, -107.282786 37.091084, -107.224050 37.104558, -107.165289 37.118004, -107.106504 37.131420, -107.047695 37.144806, -106.988864 37.158163, -106.930010 37.171490, -106.871134 37.184787, -106.812237 37.198053, -106.753319 37.211289, -106.694382 37.224494, -106.635425 37.237668, -106.576449 37.250810, -106.517456 37.263921, -106.458444 37.277001, -106.399416 37.290048, -106.340372 37.303063, -106.281312 37.316046, -106.222237 37.328997, -106.163147 37.341914, -106.104043 37.354799, -106.044927 37.367650, -105.985797 37.380468, -105.926656 37.393253, -105.867504 37.406003, -105.808340 37.418720, -105.749167 37.431402, -105.689984 37.444050, -105.630792 37.456664, -105.571592 37.469243, -105.512384 37.481786, -105.453170 37.494295, -105.393949 37.506768, -105.334722 37.519205, -105.275490 37.531607, -105.216254 37.543973, -105.157014 37.556302, -105.097770 37.568596, -105.038524 37.580853, -104.979276 37.593073, -104.920027 37.605256, -104.860777 37.617402, -104.801527 37.629511, -104.742278 37.641583, -104.683030 37.653617, -104.623783 37.665613, -104.564540 37.677571, -104.505299 37.689491, -104.446062 37.701373, -104.386830 37.713216, -104.327602 37.725021, -104.268381 37.736787, -104.209165 37.748514, -104.149957 37.760202, -104.090756 37.771851, -104.031564 37.783460, -103.972380 37.795029, -103.913206 37.806559, -103.854042 37.818049, -103.794889 37.829498, -103.735747 37.840908, -103.676618 37.852277, -103.617501 37.863605, -103.558398 37.874893, -103.499309 37.886140, -103.440234 37.897346, -103.381175 37.908511, -103.322132 37.919634, -103.263105 37.930716, -103.204096 37.941757, -103.145105 37.952756, -103.086132 37.963712, -103.027179 37.974627, -102.968245 37.985500, -102.909332 37.996330, -102.850441 38.007118, -102.791571 38.017864, -102.732723 38.028567, -102.673899 38.039227, -102.615098 38.049844, -102.556322 38.060417, -102.497571 38.070948, -102.438846 38.081436, -102.380147 38.091880, -102.321475 38.102280, -102.262831 38.112637, -102.204215 38.122950, -102.145628 38.133218, -102.087071 38.143443, -102.028544 38.153624, -101.970048 38.163761, -101.911584 38.173853, -101.853152 38.183900, -101.794753 38.193903, -101.736388 38.203861, -101.678056 38.213775, -101.619760 38.223643, -101.561499 38.233466, -101.503274 38.243245, -101.445086 38.252978, -101.386936 38.262665, -101.328824 38.272307, -101.270750 38.281904, -101.212716 38.291455, -101.154722 38.300960, -101.096769 38.310420, -101.038857 38.319833, -100.980987 38.329200, -100.923160 38.338522, -100.865376 38.347797, -100.807636 38.357026, -100.749941 38.366208, -100.692291 38.375344, -100.634687 38.384433, -100.577130 38.393476, -100.519620 38.402472, -100.462158 38.411421, -100.404744 38.420324, -100.347380 38.429179, -100.290065 38.437988, -100.232801 38.446749, -100.175588 38.455463, -100.118427 38.464130, -100.061318 38.472750, -100.004262 38.481322, -99.947261 38.489847, -99.890313 38.498324, -99.833420 38.506753, -99.776583 38.515135, -99.719803 38.523470, -99.663079 38.531756, -99.606413 38.539995, -99.549805 38.548186, -99.493257 38.556328, -99.436767 38.564423, -99.380338 38.572470, -99.323970 38.580468, -99.267663 38.588419, -99.211418 38.596321, -99.155236 38.604175, -99.099117 38.611980, -99.043062 38.619738, -98.987072 38.627446, -98.931147 38.635107, -98.875289 38.642718, -98.819496 38.650282, -98.763771 38.657796, -98.708114 38.665262, -98.652525 38.672679, -98.597006 38.680048, -98.541556 38.687368, -98.486177 38.694639, -98.430868 38.701861, -98.375631 38.709034, -98.320467 38.716158, -98.265375 38.723234, -98.210357 38.730260, -98.155413 38.737238, -98.100544 38.744166, -98.045750 38.751046, -97.991033 38.757876, -97.936392 38.764657, -97.881828 38.771389, -97.827342 38.778072, -97.772935 38.784706, -97.718607 38.791290, -97.664359 38.797826, -97.610192 38.804312, -97.556105 38.810749, -97.502100 38.817136, -97.448177 38.823474, -97.394337 38.829763, -97.340581 38.836003, -97.286909 38.842193, -97.233322 38.848334, -97.179820 38.854426, -97.126404 38.860468, -97.073075 38.866461, -97.019833 38.872405, -96.966678 38.878299, -96.913613 38.884144, -96.860636 38.889939, -96.807749 38.895685, -96.754952 38.901381, -96.702246 38.907029, -96.649632 38.912626, -96.597110 38.918175, -96.544680 38.923673, -96.492344 38.929123, -96.440102 38.934523, -96.387954 38.939874, -96.335901 38.945175, -96.283944 38.950427, -96.232084 38.955630, -96.180320 38.960783, -96.128654 38.965887, -96.077086 38.970941, -96.025617 38.975946, -95.974247 38.980902, -95.922977 38.985808, -95.871807 38.990666, -95.820739 38.995473, -95.769772 39.000232, -95.718908 39.004941, -95.668146 39.009601, -95.617488 39.014212, -95.566934 39.018774, -95.516485 39.023286, -95.466140 39.027749, -95.415902 39.032163, -95.365770 39.036528, -95.315745 39.040844, -95.265828 39.045110, -95.216018 39.049328, -95.166318 39.053496, -95.116726 39.057615, -95.067245 39.061686, -95.017874 39.065707, -94.968614 39.069680, -94.919466 39.073603, -94.870429 39.077478, -94.821506 39.081304, -94.772696 39.085080, -94.724000 39.088809, -94.675418 39.092488, -94.626951 39.096118, -94.578600 39.099700, -94.530015 39.102929, -94.480768 39.105518, -94.430878 39.107483, -94.380363 39.108839, -94.329242 39.109602, -94.277532 39.109786, -94.225251 39.109407, -94.172419 39.108480, -94.119052 39.107022, -94.065169 39.105047, -94.010789 39.102570, -93.955928 39.099608, -93.900606 39.096175, -93.844841 39.092287, -93.788649 39.087960, -93.732050 39.083208, -93.675061 39.078048, -93.617701 39.072496, -93.559986 39.066565, -93.501936 39.060273, -93.443567 39.053634, -93.384898 39.046665, -93.325946 39.039381, -93.266729 39.031798, -93.207264 39.023931, -93.147571 39.015797, -93.087665 39.007410, -93.027564 38.998787, -92.967287 38.989944, -92.906851 38.980897, -92.846272 38.971661, -92.785569 38.962253, -92.724759 38.952688, -92.663859 38.942983, -92.602886 38.933154, -92.541858 38.923216, -92.480792 38.913187, -92.419705 38.903081, -92.358615 38.892917, -92.297538 38.882708, -92.236491 38.872473, -92.175491 38.862227, -92.114556 38.851988, -92.053702 38.841770, -91.992946 38.831591, -91.932305 38.821468, -91.871796 38.811416, -91.811435 38.801453, -91.751239 38.791595, -91.691225 38.781859, -91.631409 38.772261, -91.571809 38.762819, -91.512439 38.753549, -91.453318 38.744467, -91.394462 38.735592, -91.335886 38.726940, -91.277607 38.718527, -91.219642 38.710371, -91.162008 38.702488, -91.104719 38.694897, -91.047792 38.687613, -90.991245 38.680654, -90.935092 38.674038, -90.879350 38.667781, -90.824035 38.661900, -90.769163 38.656413, -90.714751 38.651337, -90.660814 38.646690, -90.607368 38.642488, -90.554429 38.638749, -90.502013 38.635490, -90.450137 38.632729, -90.398816 38.630483, -90.348066 38.628770, -90.297902 38.627607, -90.248342 38.627011, -90.199400 38.627000, -90.150722 38.627415, -90.101565 38.628083, -90.051940 38.629000, -90.001854 38.630159, -89.951319 38.631555, -89.900342 38.633184, -89.848932 38.635038, -89.797101 38.637114, -89.744856 38.639406, -89.692207 38.641908, -89.639163 38.644615, -89.585733 38.647521, -89.531928 38.650622, -89.477756 38.653911, -89.423226 38.657385, -89.368349 38.661036, -89.313133 38.664861, -89.257588 38.668854, -89.201723 38.673009, -89.145547 38.677322, -89.089071 38.681786, -89.032303 38.686398, -88.975254 38.691151, -88.917932 38.696041, -88.860347 38.701063, -88.802508 38.706210, -88.744426 38.711479, -88.686109 38.716864, -88.627567 38.722360, -88.568811 38.727963, -88.509848 38.733665, -88.450690 38.739464, -88.391345 38.745354, -88.331824 38.751330, -88.272136 38.757386, -88.212290 38.763519, -88.152297 38.769722, -88.092166 38.775992, -88.031908 38.782323, -87.971530 38.788710, -87.911044 38.795149, -87.850460 38.801635, -87.789786 38.808162, -87.729034 38.814726, -87.668212 38.821323, -87.607331 38.827948, -87.546401 38.834595, -87.485431 38.841260, -87.424431 38.847939, -87.363412 38.854626, -87.302383 38.861318, -87.241354 38.868009, -87.180336 38.874695, -87.119338 38.881372, -87.058371 38.888034, -86.997444 38.894677, -86.936567 38.901297, -86.875751 38.907889, -86.815006 38.914449, -86.754341 38.920972, -86.693768 38.927454, -86.633295 38.933890, -86.572934 38.940277, -86.512694 38.946609, -86.452586 38.952882, -86.392620 38.959092, -86.332806 38.965235, -86.273155 38.971306, -86.213676 38.977302, -86.154380 38.983217, -86.095277 38.989048, -86.036378 38.994790, -85.977692 39.000439, -85.919231 39.005992, -85.861004 39.011443, -85.803022 39.016789, -85.745295 39.022026, -85.687834 39.027149, -85.630648 39.032155, -85.573749 39.037039, -85.517147 39.041798, -85.460852 39.046427, -85.404875 39.050922, -85.349225 39.055280, -85.293915 39.059496, -85.238953 39.063567, -85.184350 39.067488, -85.130118 39.071256, -85.076266 39.074866, -85.022804 39.078316, -84.969744 39.081600, -84.917096 39.084716, -84.864871 39.087658, -84.813078 39.090424, -84.761728 39.093010, -84.710833 39.095412, -84.660402 39.097625, -84.610445 39.099647, -84.560975 39.101473, -84.512000 39.103100, -84.462632 39.104613, -84.412843 39.106073, -84.362638 39.107480, -84.312026 39.108833, -84.261013 39.110133, -84.209606 39.111379, -84.157812 39.112571, -84.105638 39.113710, -84.053091 39.114794, -84.000178 39.115825, -83.946905 39.116801, -83.893281 39.117724, -83.839311 39.118592, -83.785003 39.119405, -83.730364 39.120165, -83.675401 39.120870, -83.620120 39.121520, -83.564529 39.122116, -83.508635 39.122658, -83.452445 39.123146, -83.395966 39.123579, -83.339204 39.123957, -83.282167 39.124281, -83.224862 39.124552, -83.167297 39.124767, -83.109477 39.124929, -83.051410 39.125037, -82.993103 39.125091, -82.934564 39.125091, -82.875799 39.125038, -82.816814 39.124931, -82.757619 39.124770, -82.698219 39.124556, -82.638621 39.124290, -82.578833 39.123970, -82.518861 39.123598, -82.458713 39.123174, -82.398397 39.122697, -82.337918 39.122169, -82.277284 39.121589, -82.216502 39.120957, -82.155580 39.120275, -82.094524 39.119541, -82.033341 39.118758, -81.972039 39.117924, -81.910625 39.117040, -81.849106 39.116107, -81.787489 39.115125, -81.725780 39.114094, -81.663988 39.113015, -81.602120 39.111889, -81.540182 39.110715, -81.478181 39.109494, -81.416125 39.108226, -81.354021 39.106913, -81.291876 39.105554, -81.229698 39.104150, -81.167492 39.102702, -81.105267 39.101210, -81.043030 39.099675, -80.980787 39.098097, -80.918546 39.096476, -80.856315 39.094815, -80.794099 39.093112, -80.731907 39.091369, -80.669745 39.089586, -80.607620 39.087764, -80.545541 39.085904, -80.483513 39.084007, -80.421544 39.082072, -80.359641 39.080102, -80.297812 39.078096, -80.236062 39.076055, -80.174401 39.073980, -80.112834 39.071872, -80.051369 39.069732, -79.990012 39.067561, -79.928772 39.065358, -79.867654 39.063126, -79.806667 39.060865, -79.745818 39.058576, -79.685113 39.056260, -79.624559 39.053917, -79.564164 39.051549, -79.503935 39.049156, -79.443878 39.046740, -79.384002 39.044301, -79.324313 39.041841, -79.264818 39.039360, -79.205524 39.036860, -79.146438 39.034340, -79.087568 39.031804, -79.028920 39.029251, -78.970502 39.026682, -78.912320 39.024099, -78.854382 39.021502, -78.796695 39.018893, -78.739265 39.016273, -78.682100 39.013643, -78.625207 39.011004, -78.568593 39.008358, -78.512264 39.005704, -78.456229 39.003045, -78.400493 39.000382, -78.345064 38.997716, -78.289950 38.995047, -78.235156 38.992378, -78.180690 38.989710, -78.126559 38.987043, -78.072769 38.984379, -78.019329 38.981719, -77.966245 38.979064, -77.913523 38.976417, -77.861171 38.973777, -77.809196 38.971146, -77.757604 38.968526, -77.706403 38.965918, -77.655600 38.963323, -77.605201 38.960742, -77.555213 38.958177, -77.505644 38.955629, -77.456500 38.953100)
