LINESTRING (-73.944000 40.586000, -73.962565 40.622288, -73.980208 40.661299, -73.997140 40.702678, -74.013572 40.746067, -74.029716 40.791109, -74.045783 40.837447, -74.061984 40.884724, -74.078533 40.932583, -74.095640 40.980667, -74.113520 41.028619, -74.132384 41.076080, -74.152445 41.122693, -74.173917 41.168102, -74.197013 41.211947, -74.221947 41.253872, -74.248930 41.293517, -74.278175 41.330525, -74.309894 41.364537, -74.344298 41.395193, -74.381597 41.422134, -74.422000 41.445000, -74.464473 41.465878, -74.507628 41.486988, -74.551453 41.508316, -74.595934 41.529850, -74.641059 41.551579, -74.686813 41.573491, -74.733185 41.595573, -74.780160 41.617814, -74.827726 41.640201, -74.875868 41.662722, -74.924575 41.685366, -74.973831 41.708120, -75.023624 41.730973, -75.073941 41.753912, -75.124767 41.776926, -75.176089 41.800003, -75.227893 41.823131, -75.280166 41.846297, -75.332894 41.869491, -75.386063 41.892700, -75.439659 41.915912, -75.493669 41.939116, -75.548077 41.962300, -75.602870 41.985453, -75.658035 42.008562, -75.713556 42.031615, -75.769420 42.054602, -75.825612 42.077511, -75.882118 42.100330, -75.938924 42.123047, -75.996015 42.145651, -76.053376 42.168130, -76.110994 42.190473, -76.168852 42.212669, -76.226938 42.234705, -76.285235 42.256572, -76.343729 42.278256, -76.402406 42.299748, -76.461249 42.321035, -76.520245 42.342106, -76.579378 42.362951, -76.638634 42.383558, -76.697996 42.403916, -76.757449 42.424013, -76.816980 42.443839, -76.876571 42.463382, -76.936208 42.482632, -76.995875 42.501578, -77.055557 42.520208, -77.115238 42.538512, -77.174903 42.556478, -77.234536 42.574097, -77.294120 42.591356, -77.353642 42.608246, -77.413084 42.624756, -77.472430 42.640874, -77.531666 42.656590, -77.590775 42.671894, -77.649740 42.686775, -77.708547 42.701222, -77.767178 42.715225, -77.825619 42.728773, -77.883852 42.741856, -77.941861 42.754463, -77.999631 42.766584, -78.057144 42.778208, -78.114386 42.789326, -78.171339 42.799926, -78.227987 42.809999, -78.284313 42.819533, -78.340302 42.828520, -78.395937 42.836948, -78.451202 42.844808, -78.506079 42.852089, -78.560553 42.858781, -78.614607 42.864874, -78.668225 42.870358, -78.721389 42.875223, -78.774084 42.879458, -78.826293 42.883054, -78.878000 42.886000, -78.929993 42.888571, -78.982385 42.891012, -79.035168 42.893322, -79.088336 42.895502, -79.141885 42.897550, -79.195809 42.899467, -79.250100 42.901253, -79.304754 42.902906, -79.359765 42.904426, -79.415126 42.905814, -79.470832 42.907068, -79.526876 42.908188, -79.583254 42.909175, -79.639958 42.910028, -79.696984 42.910746, -79.754324 42.911330, -79.811974 42.911778, -79.869926 42.912091, -79.928176 42.912269, -79.986717 42.912311, -80.045542 42.912216, -80.104647 42.911986, -80.164026 42.911619, -80.223671 42.911115, -80.283577 42.910474, -80.343739 42.909696, -80.404150 42.908781, -80.464803 42.907728, -80.525694 42.906538, -80.586815 42.905210, -80.648162 42.903744, -80.709727 42.902140, -80.771505 42.900398, -80.833490 42.898518, -80.895676 42.896499, -80.958056 42.894342, -81.020625 42.892047, -81.083376 42.889613, -81.146303 42.887040, -81.209401 42.884329, -81.272663 42.881479, -81.336083 42.878491, -81.399655 42.875364, -81.463374 42.872098, -81.527231 42.868694, -81.591223 42.865151, -81.655342 42.861470, -81.719583 42.857651, -81.783939 42.853693, -81.848405 42.849597, -81.912973 42.845363, -81.977639 42.840991, -82.042396 42.836481, -82.107238 42.831834, -82.172158 42.827049, -82.237151 42.822126, -82.302211 42.817067, -82.367331 42.811871, -82.432505 42.806537, -82.497728 42.801068, -82.562993 42.795462, -82.628294 42.789720, -82.693625 42.783843, -82.758979 42.777830, -82.824352 42.771682, -82.889736 42.765400, -82.955125 42.758983, -83.020515 42.752432, -83.085897 42.745747, -83.151267 42.738928, -83.216618 42.731977, -83.281944 42.724893, -83.347240 42.717677, -83.412498 42.710329, -83.477713 42.702850, -83.542880 42.695240, -83.607991 42.687500, -83.673041 42.679630, -83.738024 42.671630, -83.802933 42.663502, -83.867763 42.655245, -83.932508 42.646860, -83.997162 42.638348, -84.061719 42.629709, -84.126172 42.620944, -84.190515 42.612053, -84.254744 42.603038, -84.318851 42.593898, -84.382831 42.584634, -84.446678 42.575247, -84.510386 42.565738, -84.573948 42.556107, -84.637360 42.546355, -84.700615 42.536482, -84.763706 42.526490, -84.826629 42.516379, -84.889377 42.506149, -84.951945 42.495802, -85.014326 42.485338, -85.076515 42.474758, -85.138506 42.464063, -85.200292 42.453253, -85.261869 42.442330, -85.323230 42.431294, -85.384369 42.420145, -85.445281 42.408886, -85.505960 42.397516, -85.566400 42.386037, -85.626595 42.374448, -85.686539 42.362753, -85.746227 42.350950, -85.805654 42.339041, -85.864812 42.327027, -85.923697 42.314909, -85.982303 42.302687, -86.040624 42.290363, -86.098654 42.277938, -86.156388 42.265412, -86.213820 42.252787, -86.270945 42.240063, -86.327756 42.227242, -86.384248 42.214324, -86.440416 42.201310, -86.496254 42.188202, -86.551757 42.175000, -86.606918 42.161706, -86.661732 42.148320, -86.716194 42.134843, -86.770298 42.121277, -86.824038 42.107623, -86.877410 42.093881, -86.930407 42.080053, -86.983024 42.066140, -87.035256 42.052142, -87.087097 42.038062, -87.138542 42.023899, -87.189585 42.009655, -87.240220 41.995332, -87.290443 41.980929, -87.340248 41.966449, -87.389630 41.951893, -87.438583 41.937260, -87.487102 41.922554, -87.535181 41.907774, -87.582816 41.892923, -87.630000 41.878000, -87.676057 41.862111, -87.721038 41.844184, -87.764977 41.824292, -87.807909 41.802507, -87.849867 41.778902, -87.890887 41.753548, -87.931004 41.726519, -87.970254 41.697886, -88.008672 41.667721, -88.046294 41.636096, -88.083156 41.603083, -88.119294 41.568754, -88.154746 41.533180, -88.189547 41.496434, -88.223734 41.458586, -88.257343 41.419709, -88.290413 41.379873, -88.322980 41.339151, -88.355080 41.297614, -88.386752 41.255333, -88.418032 41.212379, -88.448958 41.168825, -88.479567 41.124740, -88.509897 41.080196, -88.539984 41.035265, -88.569867 40.990017, -88.599583 40.944525, -88.629169 40.898858, -88.658663 40.853087, -88.688103 40.807285, -88.717526 40.761521, -88.746970 40.715868, -88.776472 40.670395, -88.806070 40.625173, -88.835802 40.580274, -88.865705 40.535769, -88.895817 40.491727, -88.926177 40.448221, -88.956821 40.405320, -88.987787 40.363095, -89.019114 40.321617, -89.050840 40.280957, -89.083001 40.241185, -89.115638 40.202371, -89.148787 40.164586, -89.182487 40.127901, -89.216777 40.092386, -89.251695 40.058111, -89.287279 40.025146, -89.323569 39.993562, -89.360603 39.963429, -89.398421 39.934816, -89.437062 39.907795, -89.476565 39.882435, -89.516970 39.858805, -89.558317 39.836976, -89.600647 39.817018, -89.644000 39.799000, -89.688442 39.782334, -89.733833 39.766435, -89.780149 39.751282, -89.827368 39.736855, -89.875467 39.723133, -89.924424 39.710095, -89.974216 39.697722, -90.024819 39.685991, -90.076212 39.674883, -90.128372 39.664376, -90.181275 39.654451, -90.234900 39.645087, -90.289223 39.636263, -90.344222 39.627959, -90.399874 39.620155, -90.456156 39.612829, -90.513045 39.605963, -90.570518 39.599534, -90.628552 39.593524, -90.687125 39.587911, -90.746214 39.582676, -90.805794 39.577799, -90.865844 39.573259, -90.926339 39.569035, -90.987258 39.565109, -91.048575 39.561460, -91.110269 39.558069, -91.172316 39.554914, -91.234691 39.551977, -91.297372 39.549237, -91.360335 39.546675, -91.423557 39.544271, -91.487013 39.542006, -91.550680 39.539859, -91.614534 39.537811, -91.678550 39.535843, -91.742706 39.533935, -91.806976 39.532067, -91.871338 39.530221, -91.935765 39.528377, -92.000235 39.526516, -92.064723 39.524618, -92.129204 39.522665, -92.193653 39.520637, -92.258047 39.518515, -92.322361 39.516280, -92.386570 39.513914, -92.450648 39.511397, -92.514572 39.508710, -92.578317 39.505835, -92.641857 39.502754, -92.705167 39.499446, -92.768223 39.495895, -92.830998 39.492080, -92.893469 39.487985, -92.955610 39.483589, -93.017395 39.478875, -93.078799 39.473825, -93.139797 39.468420, -93.200363 39.462641, -93.260472 39.456472, -93.320099 39.449892, -93.379217 39.442885, -93.437802 39.435433, -93.495828 39.427516, -93.553268 39.419118, -93.610098 39.410220, -93.666292 39.400805, -93.721824 39.390854, -93.776668 39.380350, -93.830800 39.369275, -93.884192 39.357611, -93.936820 39.345340, -93.988658 39.332446, -94.039679 39.318909, -94.089860 39.304713, -94.139173 39.289839, -94.187593 39.274271, -94.235095 39.257990, -94.281654 39.240980, -94.327243 39.223222, -94.371837 39.204699, -94.415411 39.185394, -94.457940 39.165289, -94.499398 39.144367, -94.539759 39.122610, -94.579000 39.100000, -94.616810 39.076000, -94.652612 39.050308, -94.686462 39.022981, -94.718416 38.994072, -94.748528 38.963636, -94.776854 38.931728, -94.803450 38.898401, -94.828373 38.863710, -94.851677 38.827709, -94.873420 38.790450, -94.893657 38.751989, -94.912446 38.712379, -94.929843 38.671673, -94.945904 38.629925, -94.960686 38.587187, -94.974246 38.543514, -94.986640 38.498959, -94.997925 38.453574, -95.008157 38.407414, -95.017393 38.360530, -95.025690 38.312977, -95.033103 38.264807, -95.039689 38.216073, -95.045504 38.166828, -95.050604 38.117126, -95.055046 38.067018, -95.058884 38.016559, -95.062176 37.965800, -95.064975 37.914796, -95.067339 37.863598, -95.069321 37.812260, -95.070978 37.760835, -95.072365 37.709375, -95.073535 37.657934, -95.074544 37.606565, -95.075447 37.555319, -95.076298 37.504251, -95.077151 37.453414, -95.078061 37.402859, -95.079081 37.352640, -95.080265 37.302811, -95.081667 37.253423, -95.083341 37.204530, -95.085339 37.156184, -95.087716 37.108440, -95.090525 37.061348, -95.093818 37.014964, -95.097649 36.969338, -95.102071 36.924524, -95.107136 36.880575, -95.112898 36.837544, -95.119410 36.795484, -95.126723 36.754446, -95.134890 36.714485, -95.143965 36.675652, -95.154000 36.638000, -95.164609 36.600705, -95.175507 36.562461, -95.186690 36.523320, -95.198154 36.483337, -95.209896 36.442564, -95.221910 36.401055, -95.234195 36.358863, -95.246746 36.316042, -95.259560 36.272645, -95.272632 36.228725, -95.285960 36.184336, -95.299539 36.139532, -95.313367 36.094365, -95.327439 36.048889, -95.341753 36.003157, -95.356305 35.957223, -95.371091 35.911141, -95.386109 35.864963, -95.401355 35.818743, -95.416826 35.772534, -95.432518 35.726391, -95.448429 35.680365, -95.464555 35.634511, -95.480894 35.588883, -95.497443 35.543532, -95.514198 35.498514, -95.531157 35.453880, -95.548317 35.409686, -95.565676 35.365983, -95.583230 35.322826, -95.600978 35.280268, -95.618916 35.238362, -95.637042 35.197161, -95.655354 35.156720, -95.673850 35.117091, -95.692526 35.078327, -95.711381 35.040483, -95.730414 35.003612, -95.749620 34.967766, -95.769000 34.933000, -95.789006 34.898572, -95.810015 34.863805, -95.831984 34.828709, -95.854872 34.793296, -95.878639 34.757576, -95.903243 34.721560, -95.928643 34.685259, -95.954799 34.648683, -95.981669 34.611843, -96.009213 34.574751, -96.037390 34.537417, -96.066159 34.499851, -96.095480 34.462066, -96.125312 34.424071, -96.155615 34.385879, -96.186348 34.347500, -96.217472 34.308944, -96.248946 34.270224, -96.280729 34.231351, -96.312783 34.192335, -96.345066 34.153188, -96.377540 34.113921, -96.410164 34.074546, -96.442899 34.035073, -96.475706 33.995516, -96.508544 33.955884, -96.541374 33.916190, -96.574158 33.876444, -96.606856 33.836660, -96.639428 33.796847, -96.671836 33.757019, -96.704041 33.717186, -96.736004 33.677361, -96.767686 33.637555, -96.799049 33.597780, -96.830054 33.558049, -96.860662 33.518372, -96.890835 33.478763, -96.920535 33.439232, -96.949724 33.399792, -96.978363 33.360456, -97.006414 33.321234, -97.033840 33.282140, -97.060602 33.243185, -97.086663 33.204382, -97.111984 33.165742, -97.136528 33.127279, -97.160258 33.089003, -97.183136 33.050927, -97.205124 33.013064, -97.226186 32.975426, -97.246283 32.938025, -97.265378 32.900873, -97.283435 32.863982, -97.300415 32.827365, -97.316283 32.791033, -97.331000 32.755000, -97.342689 32.719129, -97.350364 32.681679, -97.354337 32.642769, -97.354915 32.602521, -97.352410 32.561057, -97.347129 32.518496, -97.339381 32.474959, -97.329475 32.430566, -97.317718 32.385438, -97.304417 32.339695, -97.289879 32.293457, -97.274409 32.246845, -97.258312 32.199980, -97.241893 32.152981, -97.225455 32.105971, -97.209301 32.059071, -97.193733 32.012400, -97.179054 31.966082, -97.165563 31.920237, -97.153561 31.874987, -97.143347 31.830454, -97.135221 31.786759, -97.129481 31.744024, -97.126426 31.702371, -97.126352 31.661920, -97.129559 31.622795, -97.136342 31.585114, -97.147000 31.549000, -97.160333 31.512141, -97.174128 31.474436, -97.188385 31.435928, -97.203102 31.396660, -97.218276 31.356677, -97.233907 31.316021, -97.249991 31.274736, -97.266529 31.232865, -97.283517 31.190453, -97.300954 31.147541, -97.318839 31.104175, -97.337170 31.060396, -97.355945 31.016250, -97.375163 30.971778, -97.394822 30.927026, -97.414920 30.882035, -97.435457 30.836850, -97.456430 30.791513, -97.477838 30.746069, -97.499681 30.700561, -97.521956 30.655033, -97.544662 30.609527, -97.567797 30.564087, -97.591362 30.518757, -97.615354 30.473580, -97.639773 30.428599, -97.664617 30.383858, -97.689885 30.339401, -97.715577 30.295270, -97.741691 30.251510, -97.768227 30.208162, -97.795183 30.165272, -97.822560 30.122882, -97.850357 30.081036, -97.878572 30.039777, -97.907206 29.999148, -97.936257 29.959193, -97.965726 29.919955, -97.995613 29.881477, -98.025916 29.843803, -98.056636 29.806976, -98.087773 29.771040, -98.119326 29.736037, -98.151297 29.702011, -98.183684 29.669005, -98.216489 29.637062, -98.249711 29.606227, -98.283350 29.576541, -98.317409 29.548049, -98.351886 29.520793, -98.386783 29.494817, -98.422100 29.470164, -98.457839 29.446877, -98.494000 29.425000, -98.530971 29.404539, -98.569582 29.385179, -98.609762 29.366900, -98.651444 29.349685, -98.694558 29.333515, -98.739035 29.318373, -98.784807 29.304240, -98.831807 29.291098, -98.879964 29.278930, -98.929211 29.267717, -98.979480 29.257442, -99.030703 29.248086, -99.082811 29.239633, -99.135736 29.232065, -99.189410 29.225364, -99.243765 29.219513, -99.298734 29.214494, -99.354247 29.210291, -99.410238 29.206886, -99.466637 29.204263, -99.523378 29.202404, -99.580392 29.201293, -99.637611 29.200913, -99.694967 29.201248, -99.752392 29.202282, -99.809818 29.203997, -99.867177 29.206379, -99.924400 29.209410, -99.981421 29.213075, -100.038169 29.217358, -100.094578 29.222244, -100.150579 29.227717, -100.206103 29.233762, -100.261082 29.240363, -100.315448 29.247504, -100.369132 29.255172, -100.422066 29.263350, -100.474181 29.272025, -100.525408 29.281180, -100.575679 29.290802, -100.624925 29.300876, -100.673076 29.311387, -100.720064 29.322321, -100.765819 29.333664, -100.810273 29.345401, -100.853357 29.357517, -100.895000 29.370000, -100.936265 29.382887, -100.977794 29.396080, -101.019582 29.409574, -101.061626 29.423364, -101.103922 29.437445, -101.146465 29.451812, -101.189252 29.466461, -101.232277 29.481387, -101.275538 29.496584, -101.319029 29.512048, -101.362747 29.527774, -101.406687 29.543757, -101.450846 29.559993, -101.495219 29.576475, -101.539801 29.593200, -101.584590 29.610163, -101.629579 29.627359, -101.674766 29.644783, -101.720146 29.662430, -101.765714 29.680295, -101.811467 29.698373, -101.857399 29.716660, -101.903508 29.735151, -101.949788 29.753841, -101.996235 29.772725, -102.042845 29.791799, -102.089613 29.811057, -102.136536 29.830494, -102.183608 29.850107, -102.230826 29.869890, -102.278184 29.889838, -102.325680 29.909946, -102.373307 29.930211, -102.421062 29.950626, -102.468940 29.971188, -102.516938 29.991891, -102.565049 30.012730, -102.613270 30.033702, -102.661597 30.054801, -102.710025 30.076022, -102.758549 30.097361, -102.807164 30.118813, -102.855867 30.140373, -102.904653 30.162037, -102.953517 30.183799, -103.002454 30.205656, -103.051460 30.227602, -103.100530 30.249632, -103.149660 30.271743, -103.198845 30.293929, -103.248080 30.316185, -103.297361 30.338507, -103.346683 30.360891, -103.396041 30.383331, -103.445430 30.405823, -103.494847 30.428362, -103.544285 30.450944, -103.593740 30.473564, -103.643208 30.496218, -103.692684 30.518900, -103.742162 30.541606, -103.791639 30.564331, -103.841109 30.587072, -103.890567 30.609823, -103.940009 30.632579, -103.989429 30.655337, -104.038823 30.678092, -104.088186 30.700838, -104.137512 30.723572, -104.186798 30.746288, -104.236038 30.768983, -104.285226 30.791652, -104.334359 30.814290, -104.383431 30.836893, -104.432437 30.859456, -104.481372 30.881975, -104.530232 30.904445, -104.579010 30.926862, -104.627702 30.949221, -104.676303 30.971518, -104.724808 30.993748, -104.773211 31.015907, -104.821508 31.037991, -104.869694 31.059994, -104.917763 31.081913, -104.965710 31.103744, -105.013530 31.125481, -105.061218 31.147120, -105.108769 31.168657, -105.156177 31.190087, -105.203438 31.211407, -105.250546 31.232611, -105.297496 31.253696, -105.344282 31.274657, -105.390900 31.295489, -105.437343 31.316189, -105.483608 31.336751, -105.529688 31.357173, -105.575579 31.377448, -105.621275 31.397574, -105.666770 31.417545, -105.712060 31.437357, -105.757138 31.457007, -105.802001 31.476489, -105.846642 31.495800, -105.891056 31.514935, -105.935237 31.533891, -105.979181 31.552662, -106.022882 31.571244, -106.066334 31.589634, -106.109532 31.607826, -106.152471 31.625818, -106.195146 31.643604, -106.237550 31.661180, -106.279679 31.678542, -106.321527 31.695687, -106.363088 31.712609, -106.404358 31.729305, -106.445330 31.745770, -106.486000 31.762000, -106.526580 31.778594, -106.568355 31.796509, -106.611244 31.815603, -106.655167 31.835740, -106.700042 31.856778, -106.745788 31.878580, -106.792322 31.901007, -106.839563 31.923921, -106.887427 31.947181, -106.935831 31.970651, -106.984692 31.994192, -107.033927 32.017665, -107.083451 32.040932, -107.133179 32.063855, -107.183026 32.086298, -107.232908 32.108120, -107.282737 32.129186, -107.332428 32.149357, -107.381894 32.168496, -107.431047 32.186465, -107.479802 32.203129, -107.528069 32.218348, -107.575760 32.231987, -107.622788 32.243908, -107.669063 32.253975, -107.714497 32.262051, -107.759000 32.268000, -107.803872 32.272515, -107.849602 32.276304, -107.896160 32.279395, -107.943514 32.281816, -107.991632 32.283593, -108.040485 32.284754, -108.090041 32.285328, -108.140270 32.285340, -108.191140 32.284819, -108.242620 32.283792, -108.294680 32.282287, -108.347290 32.280331, -108.400417 32.277952, -108.454032 32.275179, -108.508103 32.272038, -108.562601 32.268558, -108.617495 32.264766, -108.672754 32.260690, -108.728348 32.256359, -108.784247 32.251800, -108.840420 32.247042, -108.896837 32.242112, -108.953468 32.237039, -109.010283 32.231851, -109.067251 32.226577, -109.124344 32.221244, -109.181532 32.215881, -109.238783 32.210517, -109.296070 32.205180, -109.353362 32.199899, -109.410629 32.194702, -109.467843 32.189618, -109.524974 32.184676, -109.581992 32.179904, -109.638869 32.175332, -109.695575 32.170988, -109.752081 32.166901, -109.808359 32.163100, -109.864379 32.159614, -109.920113 32.156473, -109.975532 32.153705, -110.030607 32.151340, -110.085309 32.149406, -110.139611 32.147934, -110.193483 32.146951, -110.246897 32.146489, -110.299825 32.146576, -110.352239 32.147241, -110.404110 32.148514, -110.455410 32.150425, -110.506111 32.153003, -110.556184 32.156278, -110.605603 32.160279, -110.654338 32.165036, -110.702362 32.170578, -110.749646 32.176936, -110.796163 32.184140, -110.841885 32.192218, -110.886784 32.201201, -110.930831 32.211118, -110.974000 32.222000, -111.015132 32.235163, -111.054526 32.252115, -111.092290 32.272630, -111.128533 32.296481, -111.163363 32.323441, -111.196887 32.353283, -111.229210 32.385781, -111.260441 32.420706, -111.290685 32.457831, -111.320046 32.496928, -111.348632 32.537771, -111.376547 32.580131, -111.403896 32.623779, -111.430784 32.668490, -111.457316 32.714033, -111.483596 32.760181, -111.509730 32.806707, -111.535823 32.853381, -111.561978 32.899975, -111.588300 32.946262, -111.614894 32.992011, -111.641865 33.036996, -111.669316 33.080987, -111.697353 33.123756, -111.726078 33.165073, -111.755597 33.204710, -111.786013 33.242438, -111.817430 33.278027, -111.849951 33.311249, -111.883678 33.341874, -111.918716 33.369672, -111.955166 33.394414, -111.993129 33.415869, -112.032707 33.433808, -112.074000 33.448000, -112.117181 33.460400, -112.160842 33.472681, -112.204975 33.484841, -112.249572 33.496881, -112.294627 33.508801, -112.340129 33.520601, -112.386072 33.532280, -112.432448 33.543840, -112.479249 33.555279, -112.526467 33.566598, -112.574094 33.577797, -112.622122 33.588876, -112.670542 33.599835, -112.719348 33.610673, -112.768531 33.621392, -112.818083 33.631990, -112.867996 33.642469, -112.918261 33.652828, -112.968872 33.663067, -113.019820 33.673186, -113.071097 33.683186, -113.122694 33.693066, -113.174605 33.702827, -113.226819 33.712469, -113.279331 33.721991, -113.332131 33.731395, -113.385212 33.740680, -113.438564 33.749846, -113.492181 33.758894, -113.546054 33.767824, -113.600175 33.776636, -113.654536 33.785330, -113.709128 33.793907, -113.763944 33.802366, -113.818975 33.810708, -113.874213 33.818934, -113.929650 33.827043, -113.985278 33.835036, -114.041088 33.842914, -114.097073 33.850675, -114.153224 33.858322, -114.209532 33.865854, -114.265991 33.873271, -114.322591 33.880575, -114.379324 33.887765, -114.436183 33.894841, -114.493158 33.901805, -114.550242 33.908657, -114.607426 33.915396, -114.664703 33.922025, -114.722063 33.928542, -114.779499 33.934949, -114.837002 33.941247, -114.894564 33.947434, -114.952177 33.953514, -115.009832 33.959485, -115.067522 33.965348, -115.125238 33.971104, -115.182972 33.976754, -115.240715 33.982298, -115.298459 33.987737, -115.356196 33.993072, -115.413918 33.998302, -115.471616 34.003430, -115.529282 34.008455, -115.586909 34.013379, -115.644486 34.018201, -115.702007 34.022924, -115.759463 34.027547, -115.816846 34.032071, -115.874147 34.036498, -115.931358 34.040827, -115.988471 34.045061, -116.045478 34.049199, -116.102370 34.053242, -116.159139 34.057192, -116.215777 34.061049, -116.272275 34.064815, -116.328626 34.068489, -116.384821 34.072074, -116.440852 34.075570, -116.496710 34.078977, -116.552388 34.082298, -116.607876 34.085532, -116.663168 34.088681, -116.718254 34.091747, -116.773126 34.094729, -116.827777 34.097629, -116.882197 34.100449, -116.936380 34.103188, -116.990315 34.105849, -117.043996 34.108433, -117.097414 34.110939, -117.150561 34.113371, -117.203429 34.115728, -117.256009 34.118012, -117.308294 34.120224, -117.360275 34.122365, -117.411943 34.124436, -117.463292 34.126440, -117.514312 34.128376, -117.564996 34.130246, -117.615335 34.132051, -117.665322 34.133793, -117.714947 34.135473, -117.764204 34.137092, -117.813083 34.138650, -117.861578 34.140151, -117.909679 34.141594, -117.957378 34.142982, -118.004668 34.144315, -118.051540 34.145595, -118.097987 34.146823, -118.144000 34.148000, -118.181682 34.139062, -118.205682 34.112511, -118.218679 34.072168, -118.223360 34.021847, -118.222416 33.965360, -118.218533 33.906520, -118.214390 33.849137, -118.212657 33.797026, -118.216000 33.754000)
