MULTILINESTRING ((-73.890000 40.591000, -73.719012 40.715164, -73.547385 40.839076, -73.375116 40.962731, -73.202201 41.086130, -73.028636 41.209269, -72.854417 41.332147, -72.679540 41.454760, -72.504002 41.577108, -72.327798 41.699188, -72.150925 41.820998, -71.973378 41.942535, -71.795154 42.063798, -71.616248 42.184784, -71.436658 42.305491, -71.256378 42.425917, -71.075404 42.546059, -70.893734 42.665916, -70.711363 42.785484, -70.528287 42.904761, -70.344502 43.023746, -70.160004 43.142436, -69.974789 43.260828, -69.788853 43.378920, -69.602192 43.496710, -69.414803 43.614194, -69.226681 43.731372, -69.037823 43.848240, -68.848224 43.964795, -68.657881 44.081036, -68.466789 44.196960, -68.274945 44.312564, -68.082344 44.427845, -67.888984 44.542802, -67.694859 44.657431, -67.499967 44.771730, -67.304302 44.885696, -67.107862 44.999327, -66.910643 45.112619, -66.712640 45.225571, -66.513850 45.338179, -66.314269 45.450442, -66.113893 45.562355, -65.912718 45.673916, -65.710741 45.785123, -65.507958 45.895973, -65.304365 46.006463, -65.099959 46.116589, -64.894735 46.226350, -64.688690 46.335743, -64.481820 46.444763, -64.274123 46.553409, -64.065593 46.661678, -63.856228 46.769567, -63.646025 46.877072, -63.434978 46.984190, -63.223086 47.090920, -63.010345 47.197257, -62.796750 47.303199, -62.582300 47.408742, -62.366990 47.513884, -62.150817 47.618621, -61.933778 47.722951, -61.715869 47.826869, -61.497088 47.930374, -61.277432 48.033461, -61.056896 48.136128, -60.835479 48.238372, -60.613176 48.340188, -60.389986 48.441575, -60.165905 48.542528, -59.940930 48.643045, -59.715059 48.743122, -59.488288 48.842756, -59.260615 48.941943, -59.032038 49.040680, -58.802553 49.138964, -58.572158 49.236792, -58.340851 49.334159, -58.108630 49.431063, -57.875491 49.527501, -57.641433 49.623468, -57.406454 49.718961, -57.170550 49.813977, -56.933721 49.908513, -56.695964 50.002564, -56.457278 50.096128, -56.217660 50.189200, -55.977108 50.281778, -55.735621 50.373857, -55.493198 50.465434, -55.249837 50.556506, -55.005536 50.647069, -54.760294 50.737119, -54.514110 50.826652, -54.266983 50.915666, -54.018911 51.004156, -53.769894 51.092119, -53.519931 51.179551, -53.269021 51.266448, -53.017163 51.352807, -52.764356 51.438624, -52.510601 51.523895, -52.255897 51.608616, -52.000244 51.692785, -51.743641 51.776396, -51.486088 51.859447, -51.227587 51.941933, -50.968136 52.023852, -50.707736 52.105198, -50.446388 52.185968, -50.184093 52.266159, -49.920850 52.345767, -49.656661 52.424788, -49.391526 52.503218, -49.125448 52.581053, -48.858427 52.658290, -48.590464 52.734924, -48.321561 52.810953, -48.051719 52.886371, -47.780941 52.961176, -47.509228 53.035364, -47.236583 53.108930, -46.963007 53.181872, -46.688503 53.254184, -46.413074 53.325864, -46.136721 53.396908, -45.859449 53.467311, -45.581260 53.537071, -45.302156 53.606182, -45.022142 53.674643, -44.741221 53.742448, -44.459396 53.809594, -44.176671 53.876077, -43.893051 53.941894, -43.608538 54.007041, -43.323139 54.071514, -43.036856 54.135309, -42.749694 54.198423, -42.461659 54.260853, -42.172755 54.322593, -41.882988 54.383642, -41.592362 54.443994, -41.300883 54.503647, -41.008557 54.562597, -40.715390 54.620841, -40.421387 54.678374, -40.126555 54.735194, -39.830900 54.791296, -39.534429 54.846678, -39.237148 54.901336, -38.939064 54.955266, -38.640185 55.008465, -38.340517 55.060929, -38.040068 55.112656, -37.738846 55.163642, -37.436858 55.213883, -37.134112 55.263377, -36.830617 55.312120, -36.526381 55.360109, -36.221412 55.407340, -35.915719 55.453811, -35.609310 55.499518, -35.302196 55.544459, -34.994385 55.588630, -34.685886 55.632028, -34.376709 55.674651, -34.066864 55.716495, -33.756360 55.757557, -33.445208 55.797835, -33.133418 55.837326, -32.821001 55.876027, -32.507967 55.913935, -32.194326 55.951048, -31.880090 55.987363, -31.565269 56.022877, -31.249876 56.057588, -30.933921 56.091494, -30.617415 56.124591, -30.300371 56.156878, -29.982801 56.188352, -29.664716 56.219011, -29.346129 56.248852, -29.027051 56.277874, -28.707495 56.306074, -28.387475 56.333451, -28.067001 56.360001, -27.746089 56.385724, -27.424749 56.410617, -27.102995 56.434678, -26.780842 56.457906, -26.458301 56.480298, -26.135386 56.501854, -25.812111 56.522571, -25.488490 56.542448, -25.164536 56.561483, -24.840263 56.579675, -24.515685 56.597023, -24.190816 56.613525, -23.865670 56.629180, -23.540262 56.643986, -23.214605 56.657944, -22.888715 56.671050, -22.562605 56.683305, -22.236290 56.694708, -21.909785 56.705257, -21.583104 56.714952, -21.256262 56.723792, -20.929274 56.731777, -20.602155 56.738905, -20.274919 56.745176, -19.947581 56.750590, -19.620156 56.755146, -19.292659 56.758844, -18.965105 56.761684, -18.637509 56.763666, -18.309886 56.764788, -17.982251 56.765052, -17.654618 56.764456, -17.327004 56.763002, -16.999423 56.760689, -16.671889 56.757518, -16.344418 56.753488, -16.017025 56.748601, -15.689725 56.742856, -15.362532 56.736253, -15.035461 56.728795, -14.708528 56.720480, -14.381746 56.711309, -14.055132 56.701284, -13.728698 56.690406, -13.402461 56.678674, -13.076434 56.666090, -12.750632 56.652654, -12.425070 56.638369, -12.099761 56.623235, -11.774721 56.607253, -11.449963 56.590424, -11.125501 56.572750, -10.801349 56.554232, -10.477522 56.534871, -10.154033 56.514670, -9.830895 56.493629, -9.508123 56.471750, -9.185730 56.449034, -8.863730 56.425485, -8.542135 56.401102, -8.220958 56.375889, -7.900213 56.349846, -7.579914 56.322976, -7.260071 56.295282, -6.940699 56.266764, -6.621809 56.237425, -6.303414 56.207268, -5.985526 56.176294, -5.668158 56.144506, -5.351320 56.111905, -5.035026 56.078496, -4.719286 56.044279, -4.404113 56.009257, -4.089517 55.973434, -3.775509 55.936810, -3.462101 55.899390, -3.149304 55.861175, -2.837128 55.822169, -2.525583 55.782374, -2.214680 55.741793, -1.904430 55.700428, -1.594842 55.658283, -1.285925 55.615361, -0.977691 55.571664, -0.670148 55.527195, -0.363305 55.481958, -0.057172 55.435955, 0.248243 55.389190, 0.552930 55.341666, 0.856881 55.293386, 1.160088 55.244353, 1.462542 55.194570, 1.764235 55.144040, 2.065160 55.092768, 2.365308 55.040756, 2.664672 54.988007, 2.963245 54.934525, 3.261020 54.880314, 3.557989 54.825376, 3.854145 54.769716, 4.149483 54.713336, 4.443996 54.656240, 4.737677 54.598432, 5.030520 54.539916, 5.322519 54.480694, 5.613669 54.420770, 5.903964 54.360148, 6.193399 54.298832, 6.481968 54.236825, 6.769666 54.174131, 7.056489 54.110753, 7.342431 54.046696, 7.627489 53.981962, 7.911657 53.916556, 8.194932 53.850482, 8.477310 53.783742, 8.758786 53.716341, 9.039358 53.648282, 9.319020 53.579570, 9.597771 53.510208, 9.875607 53.440199, 10.152524 53.369548, 10.428521 53.298258, 10.703593 53.226333, 10.977739 53.153778, 11.250955 53.080594, 11.523241 53.006788, 11.794593 52.932361, 12.065010 52.857319, 12.334489 52.781664, 12.603029 52.705401, 12.870629 52.628534, 13.137286 52.551065, 13.403000 52.473000, 13.652455 52.563122, 13.902935 52.652718, 14.154439 52.741783, 14.406971 52.830315, 14.660532 52.918308, 14.915121 53.005760, 15.170741 53.092665, 15.427392 53.179021, 15.685076 53.264823, 15.943792 53.350067, 16.203542 53.434749, 16.464325 53.518866, 16.726142 53.602413, 16.988994 53.685387, 17.252880 53.767782, 17.517800 53.849596, 17.783753 53.930824, 18.050741 54.011463, 18.318761 54.091507, 18.587814 54.170954, 18.857898 54.249799, 19.129013 54.328038, 19.401157 54.405667, 19.674330 54.482681, 19.948529 54.559078, 20.223753 54.634852, 20.500000 54.710000, 20.800406 54.750037, 21.101402 54.789329, 21.402977 54.827876, 21.705123 54.865673, 22.007831 54.902720, 22.311090 54.939012, 22.614892 54.974549, 22.919226 55.009327, 23.224083 55.043344, 23.529452 55.076598, 23.835323 55.109088, 24.141686 55.140809, 24.448531 55.171762, 24.755846 55.201942, 25.063622 55.231349, 25.371847 55.259981, 25.680511 55.287835, 25.989602 55.314909, 26.299110 55.341202, 26.609022 55.366712, 26.919328 55.391437, 27.230017 55.415376, 27.541075 55.438526, 27.852493 55.460886, 28.164258 55.482455, 28.476358 55.503231, 28.788781 55.523213, 29.101516 55.542399, 29.414549 55.560788, 29.727870 55.578378, 30.041464 55.595169, 30.355321 55.611159, 30.669428 55.626347, 30.983771 55.640732, 31.298339 55.654313, 31.613119 55.667088, 31.928098 55.679058, 32.243264 55.690221, 32.558603 55.700577, 32.874102 55.710124, 33.189749 55.718862, 33.505531 55.726790, 33.821435 55.733908, 34.137447 55.740216, 34.453555 55.745712, 34.769745 55.750397, 35.086005 55.754269, 35.402321 55.757330, 35.718680 55.759578, 36.035069 55.761013, 36.351474 55.761636, 36.667883 55.761446, 36.984283 55.760443, 37.300659 55.758628, 37.617000 55.756000, 37.921644 55.809222, 38.227117 55.861688, 38.533409 55.913397, 38.840514 55.964343, 39.148423 56.014524, 39.457126 56.063935, 39.766615 56.112575, 40.076882 56.160438, 40.387916 56.207523, 40.699709 56.253825, 41.012250 56.299342, 41.325531 56.344070, 41.639540 56.388005, 41.954268 56.431146, 42.269705 56.473488, 42.585839 56.515029, 42.902661 56.555766, 43.220158 56.595695, 43.538320 56.634814, 43.857136 56.673119, 44.176594 56.710609, 44.496683 56.747280, 44.817389 56.783129, 45.138703 56.818154, 45.460610 56.852352, 45.783099 56.885720, 46.106157 56.918257, 46.429772 56.949959, 46.753931 56.980824, 47.078620 57.010850, 47.403826 57.040034, 47.729536 57.068374, 48.055737 57.095868, 48.382414 57.122513, 48.709554 57.148309, 49.037144 57.173252, 49.365168 57.197340, 49.693612 57.220573, 50.022463 57.242947, 50.351706 57.264461, 50.681325 57.285114, 51.011308 57.304904, 51.341637 57.323828, 51.672300 57.341887, 52.003279 57.359077, 52.334561 57.375398, 52.666131 57.390849, 52.997972 57.405428, 53.330069 57.419134, 53.662407 57.431966, 53.994971 57.443923, 54.327743 57.455004, 54.660710 57.465208, 54.993855 57.474534, 55.327161 57.482982, 55.660614 57.490550, 55.994197 57.497238, 56.327894 57.503046, 56.661690 57.507973, 56.995567 57.512019, 57.329511 57.515182, 57.663504 57.517464, 57.997531 57.518864, 58.331576 57.519382, 58.665622 57.519017, 58.999653 57.517771, 59.333653 57.515642, 59.667606 57.512631, 60.001497 57.508738, 60.335307 57.503964, 60.669023 57.498309, 61.002627 57.491773, 61.336103 57.484358, 61.669436 57.476063, 62.002610 57.466889, 62.335609 57.456838, 62.668416 57.445909, 63.001017 57.434104, 63.333396 57.421424, 63.665536 57.407869, 63.997422 57.393441, 64.329040 57.378142, 64.660373 57.361971, 64.991406 57.344932, 65.322125 57.327024, 65.652513 57.308249, 65.982557 57.288610, 66.312240 57.268106, 66.641550 57.246741, 66.970469 57.224516, 67.298986 57.201433, 67.627084 57.177493, 67.954749 57.152698, 68.281968 57.127050, 68.608727 57.100552, 68.935011 57.073205, 69.260808 57.045011, 69.586102 57.015974, 69.910882 56.986094, 70.235133 56.955374, 70.558843 56.923817, 70.881999 56.891426, 71.204588 56.858201, 71.526597 56.824147, 71.848015 56.789265, 72.168827 56.753559, 72.489024 56.717030, 72.808592 56.679683, 73.127520 56.641518, 73.445797 56.602540, 73.763410 56.562752, 74.080350 56.522155, 74.396604 56.480754, 74.712163 56.438550, 75.027015 56.395548, 75.341149 56.351750, 75.654557 56.307159, 75.967228 56.261779, 76.279151 56.215613, 76.590317 56.168664, 76.900718 56.120935, 77.210343 56.072430, 77.519183 56.023152, 77.827230 55.973105, 78.134475 55.922291, 78.440909 55.870715, 78.746524 55.818379, 79.051313 55.765288, 79.355266 55.711445, 79.658378 55.656854, 79.960639 55.601518, 80.262043 55.545440, 80.562583 55.488625, 80.862251 55.431076, 81.161042 55.372797, 81.458948 55.313792, 81.755964 55.254063, 82.052083 55.193616, 82.347299 55.132454, 82.641606 55.070581, 82.935000 55.008000, 83.246863 54.997140, 83.558552 54.985483, 83.870053 54.973030, 84.181355 54.959781, 84.492445 54.945738, 84.803313 54.930901, 85.113944 54.915271, 85.424329 54.898850, 85.734454 54.881639, 86.044309 54.863638, 86.353881 54.844849, 86.663158 54.825274, 86.972130 54.804914, 87.280785 54.783769, 87.589111 54.761842, 87.897098 54.739134, 88.204733 54.715646, 88.512006 54.691381, 88.818907 54.666339, 89.125423 54.640522, 89.431544 54.613933, 89.737260 54.586573, 90.042560 54.558443, 90.347433 54.529545, 90.651869 54.499882, 90.955857 54.469456, 91.259389 54.438268, 91.562452 54.406320, 91.865039 54.373615, 92.167138 54.340154, 92.468740 54.305940, 92.769836 54.270976, 93.070416 54.235262, 93.370471 54.198802, 93.669991 54.161597, 93.968968 54.123651, 94.267392 54.084965, 94.565256 54.045542, 94.862549 54.005385, 95.159264 53.964496, 95.455393 53.922877, 95.750926 53.880531, 96.045856 53.837460, 96.340176 53.793668, 96.633876 53.749157, 96.926949 53.703930, 97.219389 53.657988, 97.511186 53.611336, 97.802335 53.563976, 98.092827 53.515910, 98.382657 53.467142, 98.671816 53.417674, 98.960299 53.367510, 99.248098 53.316651, 99.535208 53.265102, 99.821622 53.212865, 100.107333 53.159943, 100.392337 53.106338, 100.676626 53.052055, 100.960196 52.997096, 101.243040 52.941464, 101.525154 52.885163, 101.806531 52.828194, 102.087168 52.770562, 102.367058 52.712270, 102.646196 52.653321, 102.924579 52.593717, 103.202202 52.533463, 103.479059 52.472560, 103.755148 52.411014, 104.030463 52.348826, 104.305000 52.286000, 104.587693 52.335309, 104.871012 52.383941, 105.154952 52.431894, 105.439506 52.479167, 105.724668 52.525755, 106.010431 52.571656, 106.296788 52.616868, 106.583733 52.661388, 106.871258 52.705213, 107.159357 52.748342, 107.448022 52.790771, 107.737246 52.832499, 108.027022 52.873522, 108.317341 52.913839, 108.608197 52.953447, 108.899581 52.992343, 109.191486 53.030526, 109.483903 53.067994, 109.776825 53.104743, 110.070242 53.140772, 110.364147 53.176078, 110.658532 53.210660, 110.953387 53.244515, 111.248704 53.277642, 111.544473 53.310038, 111.840688 53.341702, 112.137337 53.372631, 112.434412 53.402823, 112.731904 53.432278, 113.029803 53.460992, 113.328101 53.488964, 113.626786 53.516192, 113.925851 53.542676, 114.225285 53.568412, 114.525078 53.593400, 114.825221 53.617637, 115.125703 53.641123, 115.426515 53.663855, 115.727646 53.685833, 116.029086 53.707055, 116.330825 53.727520, 116.632852 53.747226, 116.935157 53.766172, 117.237730 53.784357, 117.540559 53.801779, 117.843635 53.818438, 118.146946 53.834333, 118.450482 53.849462, 118.754232 53.863824, 119.058186 53.877419, 119.362331 53.890246, 119.666657 53.902304, 119.971153 53.913591, 120.275809 53.924108, 120.580612 53.933854, 120.885552 53.942828, 121.190618 53.951029, 121.495798 53.958457, 121.801081 53.965111, 122.106456 53.970991, 122.411912 53.976097, 122.717436 53.980428, 123.023019 53.983984, 123.328648 53.986765, 123.634312 53.988770, 123.940000 53.990000, 124.189831 53.890875, 124.438476 53.791234, 124.685940 53.691081, 124.932226 53.590420, 125.177339 53.489256, 125.421282 53.387593, 125.664060 53.285435, 125.905678 53.182787, 126.146139 53.079652, 126.385447 52.976034, 126.623609 52.871939, 126.860627 52.767369, 127.096507 52.662329, 127.331254 52.556824, 127.564872 52.450856, 127.797365 52.344430, 128.028740 52.237550, 128.259001 52.130220, 128.488153 52.022444, 128.716201 51.914225, 128.943150 51.805568, 129.169006 51.696475, 129.393773 51.586952, 129.617457 51.477002, 129.840063 51.366628, 130.061597 51.255835, 130.282063 51.144625, 130.501468 51.033003, 130.719816 50.920972, 130.937114 50.808536, 131.153366 50.695699, 131.368578 50.582463, 131.582756 50.468832, 131.795906 50.354810, 132.008032 50.240401, 132.219141 50.125607, 132.429238 50.010433, 132.638328 49.894881, 132.846418 49.778955, 133.053513 49.662657, 133.259619 49.545993, 133.464742 49.428964, 133.668886 49.311574, 133.872059 49.193826, 134.074265 49.075723, 134.275510 48.957269, 134.475801 48.838467, 134.675142 48.719319, 134.873540 48.599829, 135.071000 48.480000, 135.256891 48.610419, 135.443743 48.740537, 135.631564 48.870352, 135.820361 48.999860, 136.010141 49.129058, 136.200912 49.257944, 136.392680 49.386514, 136.585453 49.514765, 136.779239 49.642694, 136.974045 49.770298, 137.169877 49.897574, 137.366744 50.024518, 137.564653 50.151127, 137.763612 50.277398, 137.963627 50.403328, 138.164706 50.528913, 138.366858 50.654150, 138.570088 50.779036, 138.774406 50.903566, 138.979817 51.027738, 139.186331 51.151548, 139.393954 51.274992, 139.602694 51.398068, 139.812559 51.520770, 140.023556 51.643096, 140.235693 51.765042, 140.448977 51.886603, 140.663416 52.007778, 140.879017 52.128560, 141.095789 52.248948, 141.313738 52.368936, 141.532873 52.488521, 141.753201 52.607700, 141.974728 52.726467, 142.197464 52.844819, 142.421415 52.962752, 142.646590 53.080262, 142.872994 53.197345, 143.100636 53.313996, 143.329524 53.430211, 143.559664 53.545987, 143.791065 53.661318, 144.023732 53.776201, 144.257675 53.890631, 144.492899 54.004603, 144.729413 54.118114, 144.967223 54.231159, 145.206336 54.343733, 145.446760 54.455832, 145.688502 54.567451, 145.931568 54.678585, 146.175965 54.789230, 146.421701 54.899382, 146.668781 55.009035, 146.917213 55.118185, 147.167004 55.226827, 147.418159 55.334955, 147.670686 55.442566, 147.924590 55.549654, 148.179878 55.656215, 148.436557 55.762242, 148.694631 55.867732, 148.954107 55.972679, 149.214992 56.077078, 149.477290 56.180924, 149.741007 56.284212, 150.006149 56.386936, 150.272721 56.489092, 150.540729 56.590673, 150.810177 56.691676, 151.081071 56.792093, 151.353414 56.891921, 151.627213 56.991153, 151.902471 57.089784, 152.179193 57.187809, 152.457382 57.285222, 152.737043 57.382017, 153.018180 57.478190, 153.300797 57.573734, 153.584896 57.668643, 153.870480 57.762913, 154.157554 57.856537, 154.446120 57.949509, 154.736179 58.041825, 155.027736 58.133478, 155.320791 58.224462, 155.615348 58.314772, 155.911406 58.404401, 156.208969 58.493344, 156.508037 58.581595, 156.808611 58.669148, 157.110691 58.755998, 157.414279 58.842137, 157.719374 58.927561, 158.025976 59.012263, 158.334084 59.096237, 158.643699 59.179478, 158.954818 59.261979, 159.267441 59.343734, 159.581565 59.424737, 159.897190 59.504983, 160.214312 59.584464, 160.532929 59.663176, 160.853038 59.741112, 161.174636 59.818265, 161.497719 59.894631, 161.822283 59.970202, 162.148323 60.044973, 162.475836 60.118938, 162.804815 60.192091, 163.135256 60.264425, 163.467152 60.335935, 163.800497 60.406614, 164.135286 60.476457, 164.471509 60.545457, 164.809161 60.613609, 165.148234 60.680907, 165.488718 60.747344, 165.830606 60.812915, 166.173889 60.877615, 166.518556 60.941436, 166.864598 61.004373, 167.212006 61.066421, 167.560767 61.127573, 167.910871 61.187824, 168.262306 61.247169, 168.615060 61.305601, 168.969120 61.363114, 169.324475 61.419704, 169.681109 61.475365, 170.039010 61.530091, 170.398163 61.583878, 170.758554 61.636718, 171.120167 61.688608, 171.482986 61.739541, 171.846996 61.789514, 172.212181 61.838519, 172.578522 61.886554, 172.946003 61.933611, 173.314607 61.979687, 173.684313 62.024777, 174.055106 62.068876, 174.426964 62.111978, 174.799868 62.154080, 175.173799 62.195177, 175.548736 62.235265, 175.924658 62.274338, 176.301544 62.312393, 176.679373 62.349425, 177.058122 62.385430, 177.437769 62.420405, 177.818291 62.454345, 178.199665 62.487247, 178.581868 62.519106, 178.964876 62.549919, 179.348664 62.579683, 179.733207 62.608394, 180.000000 62.627544), (-180.000000 62.627544, -179.881519 62.636048, -179.495539 62.662643, -179.108879 62.688176, -178.721566 62.712642, -178.333624 62.736041, -177.945082 62.758368, -177.555965 62.779621, -177.166301 62.799797, -176.776116 62.818895, -176.385439 62.836912, -175.994298 62.853845, -175.602719 62.869693, -175.210732 62.884454, -174.818366 62.898126, -174.425647 62.910707, -174.032606 62.922196, -173.639272 62.932591, -173.245672 62.941891, -172.851837 62.950096, -172.457796 62.957203, -172.063578 62.963212, -171.669213 62.968123, -171.274731 62.971935, -170.880160 62.974646, -170.485531 62.976258, -170.090873 62.976770, -169.696216 62.976181, -169.301590 62.974492, -168.907024 62.971703, -168.512549 62.967815, -168.118193 62.962827, -167.723987 62.956740, -167.329959 62.949556, -166.936140 62.941275, -166.542558 62.931898, -166.149243 62.921426, -165.756224 62.909861, -165.363529 62.897203, -164.971188 62.883455, -164.579229 62.868618, -164.187680 62.852694, -163.796570 62.835684, -163.405927 62.817592, -163.015778 62.798418, -162.626151 62.778166, -162.237074 62.756837, -161.848573 62.734435, -161.460674 62.710962, -161.073406 62.686420, -160.686793 62.660814, -160.300862 62.634144, -159.915638 62.606416, -159.531147 62.577631, -159.147413 62.547793, -158.764461 62.516907, -158.382315 62.484974, -158.001000 62.452000, -157.675244 62.545968, -157.347433 62.639173, -157.017563 62.731607, -156.685630 62.823264, -156.351632 62.914134, -156.015564 63.004210, -155.677425 63.093484, -155.337213 63.181948, -154.994926 63.269593, -154.650563 63.356412, -154.304124 63.442396, -153.955609 63.527537, -153.605018 63.611828, -153.252352 63.695259, -152.897613 63.777823, -152.540804 63.859511, -152.181927 63.940315, -151.820985 64.020227, -151.457983 64.099239, -151.092925 64.177342, -150.725817 64.254527, -150.356665 64.330787, -149.985475 64.406114, -149.612254 64.480498, -149.237011 64.553932, -148.859754 64.626408, -148.480493 64.697916, -148.099238 64.768450, -147.716000 64.838000, -147.313261 64.784725, -146.912125 64.730363, -146.512615 64.674922, -146.114751 64.618408, -145.718553 64.560829, -145.324041 64.502191, -144.931234 64.442502, -144.540149 64.381770, -144.150805 64.320002, -143.763216 64.257205, -143.377400 64.193387, -142.993371 64.128555, -142.611144 64.062718, -142.230732 63.995882, -141.852149 63.928056, -141.475406 63.859247, -141.100516 63.789463, -140.727489 63.718712, -140.356335 63.647002, -139.987064 63.574340, -139.619686 63.500735, -139.254208 63.426193, -138.890637 63.350724, -138.528982 63.274335, -138.169249 63.197034, -137.811443 63.118828, -137.455569 63.039727, -137.101633 62.959737, -136.749639 62.878866, -136.399589 62.797123, -136.051488 62.714515, -135.705337 62.631051, -135.361138 62.546737, -135.018894 62.461583, -134.678605 62.375595, -134.340271 62.288781, -134.003892 62.201150, -133.669469 62.112709, -133.337000 62.023465, -133.006483 61.933427, -132.677917 61.842602, -132.351300 61.750998, -132.026629 61.658622, -131.703902 61.565482, -131.383114 61.471585, -131.064262 61.376939, -130.747342 61.281552, -130.432350 61.185431, -130.119280 61.088582, -129.808128 60.991014, -129.498888 60.892734, -129.191554 60.793749, -128.886121 60.694066, -128.582581 60.593693, -128.280930 60.492635, -127.981158 60.390902, -127.683261 60.288498, -127.387229 60.185433, -127.093056 60.081711, -126.800734 59.977341, -126.510255 59.872329, -126.221610 59.766681, -125.934792 59.660405, -125.649790 59.553507, -125.366598 59.445993, -125.085205 59.337871, -124.805603 59.229146, -124.527783 59.119825, -124.251734 59.009915, -123.977447 58.899421, -123.704914 58.788350, -123.434123 58.676709, -123.165064 58.564502, -122.897729 58.451737, -122.632106 58.338420, -122.368186 58.224556, -122.105958 58.110151, -121.845411 57.995211, -121.586535 57.879742, -121.329320 57.763750, -121.073755 57.647240, -120.819829 57.530218, -120.567531 57.412689, -120.316851 57.294660, -120.067777 57.176135, -119.820299 57.057120, -119.574406 56.937621, -119.330086 56.817642, -119.087329 56.697189, -118.846125 56.576267, -118.606460 56.454881, -118.368326 56.333036, -118.131710 56.210738, -117.896601 56.087990, -117.662989 55.964799, -117.430862 55.841169, -117.200209 55.717105, -116.971019 55.592612, -116.743282 55.467693, -116.516985 55.342355, -116.292119 55.216601, -116.068671 55.090436, -115.846631 54.963865, -115.625988 54.836892, -115.406732 54.709521, -115.188850 54.581758, -114.972332 54.453605, -114.757168 54.325068, -114.543346 54.196150, -114.330857 54.066856, -114.119688 53.937190, -113.909829 53.807156, -113.701270 53.676758, -113.494000 53.546000, -113.196676 53.514957, -112.899792 53.483177, -112.603358 53.450663, -112.307382 53.417417, -112.011874 53.383439, -111.716842 53.348733, -111.422296 53.313301, -111.128243 53.277145, -110.834691 53.240266, -110.541651 53.202668, -110.249128 53.164352, -109.957133 53.125321, -109.665672 53.085577, -109.374754 53.045122, -109.084386 53.003959, -108.794576 52.962090, -108.505332 52.919517, -108.216660 52.876243, -107.928568 52.832271, -107.641064 52.787603, -107.354154 52.742242, -107.067846 52.696190, -106.782145 52.649449, -106.497059 52.602023, -106.212593 52.553914, -105.928756 52.505125, -105.645552 52.455658, -105.362988 52.405517, -105.081070 52.354703, -104.799804 52.303220, -104.519195 52.251070, -104.239249 52.198257, -103.959972 52.144783, -103.681369 52.090651, -103.403445 52.035864, -103.126206 51.980425, -102.849656 51.924336, -102.573801 51.867601, -102.298644 51.810222, -102.024191 51.752203, -101.750446 51.693547, -101.477413 51.634256, -101.205097 51.574333, -100.933502 51.513782, -100.662632 51.452606, -100.392491 51.390807, -100.123081 51.328388, -99.854408 51.265354, -99.586475 51.201706, -99.319284 51.137448, -99.052840 51.072583, -98.787144 51.007113, -98.522202 50.941044, -98.258014 50.874376, -97.994585 50.807114, -97.731916 50.739260, -97.470011 50.670818, -97.208872 50.601791, -96.948501 50.532181, -96.688900 50.461993, -96.430072 50.391229, -96.172018 50.319892, -95.914741 50.247987, -95.658242 50.175514, -95.402523 50.102479, -95.147585 50.028884, -94.893431 49.954732, -94.640061 49.880026, -94.387477 49.804770, -94.135680 49.728967, -93.884670 49.652620, -93.634450 49.575732, -93.385020 49.498306, -93.136380 49.420346, -92.888532 49.341854, -92.641476 49.262834, -92.395212 49.183289, -92.149742 49.103222, -91.905065 49.022636, -91.661181 48.941535, -91.418092 48.859921, -91.175796 48.777798, -90.934294 48.695169, -90.693586 48.612036, -90.453672 48.528404, -90.214551 48.444274, -89.976223 48.359651, -89.738688 48.274538, -89.501946 48.188937, -89.265995 48.102851, -89.030836 48.016284, -88.796466 47.929239, -88.562887 47.841718, -88.330097 47.753726, -88.098094 47.665264, -87.866879 47.576336, -87.636450 47.486945, -87.406806 47.397094, -87.177945 47.306786, -86.949868 47.216023, -86.722571 47.124810, -86.496055 47.033149, -86.270317 46.941043, -86.045357 46.848494, -85.821172 46.755506, -85.597761 46.662082, -85.375123 46.568225, -85.153256 46.473938, -84.932158 46.379222, -84.711828 46.284082, -84.492263 46.188521, -84.273462 46.092540, -84.055423 45.996144, -83.838144 45.899334, -83.621622 45.802114, -83.405857 45.704487, -83.190845 45.606455, -82.976586 45.508020, -82.763075 45.409187, -82.550313 45.309957, -82.338295 45.210334, -82.127020 45.110320, -81.916486 45.009917, -81.706690 44.909129, -81.497630 44.807959, -81.289303 44.706408, -81.081708 44.604480, -80.874840 44.502177, -80.668699 44.399502, -80.463282 44.296458, -80.258585 44.193047, -80.054607 44.089271, -79.851345 43.985134, -79.648795 43.880638, -79.446956 43.775786, -79.245825 43.670579, -79.045399 43.565021, -78.845676 43.459114, -78.646652 43.352861, -78.448324 43.246264, -78.250691 43.139326, -78.053749 43.032048, -77.857495 42.924434, -77.661927 42.816486, -77.467041 42.708207, -77.272836 42.599598, -77.079307 42.490662, -76.886452 42.381402, -76.694268 42.271820, -76.502752 42.161918, -76.311901 42.051698, -76.121712 41.941164, -75.932183 41.830317, -75.743310 41.719159, -75.555089 41.607693, -75.367519 41.495921, -75.180596 41.383846, -74.994318 41.271469, -74.808680 41.158792, -74.623680 41.045819, -74.439315 40.932551, -74.255582 40.818991, -74.072478 40.705139, -73.890000 40.591000))
