MULTILINESTRING ((140.830000 35.740000, 140.843689 35.746077, 140.857379 35.752153, 140.871072 35.758227, 140.884767 35.764299, 140.898464 35.770370, 140.912163 35.776440, 140.925864 35.782508, 140.939567 35.788574, 140.953273 35.794639, 140.966980 35.800702, 140.980690 35.806763, 140.994401 35.812824, 141.008115 35.818882, 141.021831 35.824939, 141.035548 35.830994, 141.049268 35.837048, 141.062990 35.843101, 141.076715 35.849151, 141.090441 35.855200, 141.104169 35.861248, 141.117900 35.867294, 141.131632 35.873339, 141.145367 35.879381, 141.159104 35.885423, 141.172842 35.891463, 141.186583 35.897501, 141.200326 35.903537, 141.214071 35.909573, 141.227819 35.915606, 141.241568 35.921638, 141.255319 35.927668, 141.269073 35.933697, 141.282828 35.939725, 141.296586 35.945750, 141.310346 35.951774, 141.324108 35.957797, 141.337872 35.963818, 141.351638 35.969837, 141.365406 35.975855, 141.379176 35.981871, 141.392949 35.987886, 141.406723 35.993899, 141.420500 35.999911, 141.434278 36.005921, 141.448059 36.011929, 141.461842 36.017936, 141.475627 36.023941, 141.489414 36.029945, 141.503203 36.035947, 141.516995 36.041947, 141.530788 36.047946, 141.544584 36.053943, 141.558381 36.059939, 141.572181 36.065933, 141.585983 36.071926, 141.599787 36.077917, 141.613593 36.083906, 141.627401 36.089894, 141.641211 36.095880, 141.655023 36.101865, 141.668838 36.107848, 141.682654 36.113830, 141.696473 36.119810, 141.710294 36.125788, 141.724116 36.131765, 141.737941 36.137740, 141.751768 36.143713, 141.765598 36.149685, 141.779429 36.155656, 141.793262 36.161624, 141.807098 36.167592, 141.820935 36.173557, 141.834775 36.179521, 141.848617 36.185484, 141.862461 36.191444, 141.876307 36.197404, 141.890155 36.203361, 141.904005 36.209317, 141.917857 36.215272, 141.931712 36.221225, 141.945568 36.227176, 141.959427 36.233126, 141.973288 36.239074, 141.987151 36.245020, 142.001016 36.250965, 142.014883 36.256908, 142.028752 36.262850, 142.042623 36.268790, 142.056497 36.274728, 142.070372 36.280665, 142.084250 36.286600, 142.098130 36.292534, 142.112012 36.298466, 142.125896 36.304396, 142.139782 36.310325, 142.153670 36.316253, 142.167560 36.322178, 142.181453 36.328102, 142.195347 36.334025, 142.209244 36.339945, 142.223143 36.345865, 142.237043 36.351782, 142.250946 36.357698, 142.264852 36.363612, 142.278759 36.369525, 142.292668 36.375436, 142.306580 36.381346, 142.320493 36.387254, 142.334409 36.393160, 142.348327 36.399065, 142.362247 36.404968, 142.376169 36.410869, 142.390093 36.416769, 142.404019 36.422667, 142.417947 36.428564, 142.431878 36.434459, 142.445810 36.440352, 142.459745 36.446244, 142.473682 36.452134, 142.487621 36.458022, 142.501562 36.463909, 142.515505 36.469795, 142.529450 36.475678, 142.543398 36.481560, 142.557347 36.487441, 142.571299 36.493319, 142.585253 36.499196, 142.599209 36.505072, 142.613167 36.510946, 142.627127 36.516818, 142.641089 36.522689, 142.655053 36.528558, 142.669020 36.534425, 142.682989 36.540291, 142.696959 36.546155, 142.710932 36.552017, 142.724907 36.557878, 142.738884 36.563738, 142.752863 36.569595, 142.766845 36.575451, 142.780828 36.581305, 142.794814 36.587158, 142.808801 36.593009, 142.822791 36.598859, 142.836783 36.604706, 142.850777 36.610553, 142.864773 36.616397, 142.878772 36.622240, 142.892772 36.628081, 142.906774 36.633921, 142.920779 36.639759, 142.934786 36.645595, 142.948795 36.651430, 142.962806 36.657263, 142.976819 36.663094, 142.990834 36.668924, 143.004852 36.674752, 143.018871 36.680579, 143.032893 36.686403, 143.046917 36.692227, 143.060942 36.698048, 143.074970 36.703868, 143.089001 36.709686, 143.103033 36.715503, 143.117067 36.721318, 143.131104 36.727131, 143.145142 36.732943, 143.159183 36.738753, 143.173226 36.744561, 143.187271 36.750368, 143.201318 36.756173, 143.215367 36.761976, 143.229419 36.767778, 143.243472 36.773578, 143.257528 36.779377, 143.271586 36.785174, 143.285646 36.790969, 143.299708 36.796762, 143.313772 36.802554, 143.327838 36.808344, 143.341906 36.814133, 143.355977 36.819920, 143.370050 36.825705, 143.384124 36.831488, 143.398201 36.837270, 143.412280 36.843050, 143.426362 36.848829, 143.440445 36.854606, 143.454530 36.860381, 143.468618 36.866155, 143.482707 36.871927, 143.496799 36.877697, 143.510893 36.883466, 143.524989 36.889232, 143.539088 36.894998, 143.553188 36.900761, 143.567290 36.906523, 143.581395 36.912283, 143.595502 36.918042, 143.609610 36.923799, 143.623721 36.929554, 143.637835 36.935308, 143.651950 36.941060, 143.666067 36.946810, 143.680187 36.952559, 143.694308 36.958306, 143.708432 36.964051, 143.722558 36.969794, 143.736686 36.975536, 143.750816 36.981276, 143.764948 36.987015, 143.779083 36.992752, 143.793219 36.998487, 143.807358 37.004221, 143.821499 37.009952, 143.835642 37.015683, 143.849787 37.021411, 143.863934 37.027138, 143.878084 37.032863, 143.892235 37.038586, 143.906389 37.044308, 143.920544 37.050028, 143.934702 37.055747, 143.948862 37.061463, 143.963025 37.067178, 143.977189 37.072892, 143.991355 37.078603, 144.005524 37.084313, 144.019694 37.090022, 144.033867 37.095728, 144.048042 37.101433, 144.062219 37.107136, 144.076399 37.112838, 144.090580 37.118538, 144.104763 37.124236, 144.118949 37.129932, 144.133137 37.135627, 144.147327 37.141320, 144.161519 37.147012, 144.175713 37.152701, 144.189909 37.158389, 144.204108 37.164076, 144.218308 37.169760, 144.232511 37.175443, 144.246716 37.181125, 144.260923 37.186804, 144.275132 37.192482, 144.289343 37.198158, 144.303557 37.203832, 144.317772 37.209505, 144.331990 37.215176, 144.346210 37.220846, 144.360432 37.226513, 144.374656 37.232179, 144.388882 37.237844, 144.403110 37.243506, 144.417341 37.249167, 144.431574 37.254826, 144.445808 37.260483, 144.460045 37.266139, 144.474284 37.271793, 144.488526 37.277446, 144.502769 37.283096, 144.517014 37.288745, 144.531262 37.294392, 144.545512 37.300038, 144.559764 37.305682, 144.574018 37.311324, 144.588274 37.316964, 144.602532 37.322603, 144.616793 37.328240, 144.631055 37.333875, 144.645320 37.339508, 144.659587 37.345140, 144.673856 37.350770, 144.688127 37.356399, 144.702400 37.362025, 144.716676 37.367650, 144.730953 37.373274, 144.745233 37.378895, 144.759515 37.384515, 144.773799 37.390133, 144.788085 37.395749, 144.802373 37.401364, 144.816664 37.406977, 144.830956 37.412588, 144.845251 37.418198, 144.859548 37.423805, 144.873847 37.429411, 144.888148 37.435016, 144.902451 37.440618, 144.916757 37.446219, 144.931064 37.451818, 144.945374 37.457416, 144.959686 37.463011, 144.974000 37.468605, 144.988316 37.474198, 145.002634 37.479788, 145.016954 37.485377, 145.031277 37.490964, 145.045602 37.496549, 145.059928 37.502133, 145.074257 37.507715, 145.088588 37.513295, 145.102922 37.518873, 145.117257 37.524450, 145.131595 37.530025, 145.145934 37.535598, 145.160276 37.541170, 145.174620 37.546739, 145.188966 37.552307, 145.203315 37.557874, 145.217665 37.563438, 145.232017 37.569001, 145.246372 37.574562, 145.260729 37.580121, 145.275088 37.585679, 145.289449 37.591235, 145.303812 37.596789, 145.318178 37.602341, 145.332545 37.607892, 145.346915 37.613441, 145.361287 37.618988, 145.375661 37.624533, 145.390037 37.630077, 145.404415 37.635619, 145.418796 37.641159, 145.433178 37.646698, 145.447563 37.652234, 145.461950 37.657769, 145.476339 37.663302, 145.490730 37.668834, 145.505123 37.674363, 145.519519 37.679891, 145.533916 37.685417, 145.548316 37.690942, 145.562718 37.696465, 145.577122 37.701985, 145.591528 37.707505, 145.605936 37.713022, 145.620347 37.718538, 145.634759 37.724052, 145.649174 37.729564, 145.663591 37.735074, 145.678010 37.740583, 145.692431 37.746090, 145.706854 37.751595, 145.721280 37.757098, 145.735708 37.762600, 145.750137 37.768100, 145.764569 37.773598, 145.779003 37.779094, 145.793439 37.784589, 145.807878 37.790082, 145.822318 37.795573, 145.836761 37.801062, 145.851206 37.806549, 145.865653 37.812035, 145.880102 37.817519, 145.894553 37.823001, 145.909006 37.828482, 145.923462 37.833961, 145.937920 37.839437, 145.952379 37.844913, 145.966841 37.850386, 145.981305 37.855858, 145.995772 37.861327, 146.010240 37.866796, 146.024711 37.872262, 146.039183 37.877726, 146.053658 37.883189, 146.068135 37.888650, 146.082614 37.894109, 146.097096 37.899567, 146.111579 37.905023, 146.126065 37.910476, 146.140552 37.915929, 146.155042 37.921379, 146.169534 37.926828, 146.184028 37.932274, 146.198525 37.937719, 146.213023 37.943163, 146.227524 37.948604, 146.242026 37.954044, 146.256531 37.959482, 146.271038 37.964918, 146.285548 37.970352, 146.300059 37.975785, 146.314573 37.981215, 146.329088 37.986644, 146.343606 37.992072, 146.358126 37.997497, 146.372648 38.002921, 146.387172 38.008342, 146.401699 38.013763, 146.416227 38.019181, 146.430758 38.024597, 146.445291 38.030012, 146.459826 38.035425, 146.474363 38.040836, 146.488902 38.046245, 146.503443 38.051653, 146.517987 38.057059, 146.532533 38.062463, 146.547081 38.067865, 146.561631 38.073265, 146.576183 38.078664, 146.590737 38.084060, 146.605294 38.089455, 146.619852 38.094849, 146.634413 38.100240, 146.648976 38.105630, 146.663541 38.111017, 146.678108 38.116403, 146.692677 38.121788, 146.707249 38.127170, 146.721823 38.132551, 146.736398 38.137929, 146.750976 38.143306, 146.765556 38.148682, 146.780139 38.154055, 146.794723 38.159427, 146.809310 38.164796, 146.823898 38.170164, 146.838489 38.175531, 146.853082 38.180895, 146.867677 38.186257, 146.882275 38.191618, 146.896874 38.196977, 146.911476 38.202334, 146.926079 38.207690, 146.940685 38.213043, 146.955293 38.218395, 146.969903 38.223745, 146.984516 38.229093, 146.999130 38.234439, 147.013747 38.239784, 147.028366 38.245126, 147.042987 38.250467, 147.057610 38.255806, 147.072235 38.261143, 147.086862 38.266479, 147.101492 38.271812, 147.116123 38.277144, 147.130757 38.282474, 147.145393 38.287802, 147.160031 38.293129, 147.174672 38.298453, 147.189314 38.303776, 147.203958 38.309097, 147.218605 38.314416, 147.233254 38.319733, 147.247905 38.325048, 147.262558 38.330362, 147.277213 38.335674, 147.291871 38.340983, 147.306531 38.346292, 147.321192 38.351598, 147.335856 38.356902, 147.350522 38.362205, 147.365190 38.367506, 147.379861 38.372805, 147.394533 38.378102, 147.409208 38.383397, 147.423885 38.388690, 147.438564 38.393982, 147.453245 38.399272, 147.467928 38.404560, 147.482613 38.409846, 147.497301 38.415130, 147.511990 38.420413, 147.526682 38.425694, 147.541376 38.430972, 147.556072 38.436249, 147.570771 38.441524, 147.585471 38.446798, 147.600174 38.452069, 147.614878 38.457339, 147.629585 38.462607, 147.644294 38.467873, 147.659005 38.473137, 147.673719 38.478399, 147.688434 38.483659, 147.703152 38.488918, 147.717871 38.494175, 147.732593 38.499430, 147.747317 38.504683, 147.762044 38.509934, 147.776772 38.515183, 147.791502 38.520431, 147.806235 38.525677, 147.820970 38.530920, 147.835707 38.536162, 147.850446 38.541403, 147.865187 38.546641, 147.879930 38.551877, 147.894676 38.557112, 147.909424 38.562345, 147.924173 38.567576, 147.938925 38.572805, 147.953679 38.578032, 147.968436 38.583257, 147.983194 38.588481, 147.997955 38.593702, 148.012717 38.598922, 148.027482 38.604140, 148.042249 38.609356, 148.057018 38.614570, 148.071790 38.619783, 148.086563 38.624993, 148.101339 38.630202, 148.116116 38.635409, 148.130896 38.640614, 148.145678 38.645817, 148.160462 38.651018, 148.175249 38.656217, 148.190037 38.661415, 148.204828 38.666610, 148.219620 38.671804, 148.234415 38.676996, 148.249212 38.682186, 148.264012 38.687374, 148.278813 38.692560, 148.293616 38.697745, 148.308422 38.702927, 148.323230 38.708108, 148.338040 38.713287, 148.352852 38.718464, 148.367666 38.723639, 148.382482 38.728812, 148.397301 38.733984, 148.412121 38.739153, 148.426944 38.744321, 148.441769 38.749486, 148.456596 38.754650, 148.471425 38.759812, 148.486257 38.764972, 148.501090 38.770131, 148.515926 38.775287, 148.530764 38.780442, 148.545604 38.785594, 148.560446 38.790745, 148.575290 38.795894, 148.590136 38.801041, 148.604985 38.806186, 148.619836 38.811329, 148.634688 38.816470, 148.649543 38.821610, 148.664401 38.826747, 148.679260 38.831883, 148.694121 38.837017, 148.708985 38.842149, 148.723850 38.847279, 148.738718 38.852407, 148.753588 38.857533, 148.768460 38.862658, 148.783335 38.867780, 148.798211 38.872901, 148.813089 38.878020, 148.827970 38.883137, 148.842853 38.888252, 148.857738 38.893365, 148.872625 38.898476, 148.887514 38.903585, 148.902406 38.908693, 148.917299 38.913798, 148.932195 38.918902, 148.947093 38.924003, 148.961993 38.929103, 148.976895 38.934201, 148.991799 38.939297, 149.006705 38.944391, 149.021614 38.949484, 149.036525 38.954574, 149.051437 38.959662, 149.066352 38.964749, 149.081270 38.969834, 149.096189 38.974916, 149.111110 38.979997, 149.126034 38.985076, 149.140959 38.990153, 149.155887 38.995228, 149.170817 39.000302, 149.185749 39.005373, 149.200683 39.010442, 149.215620 39.015510, 149.230558 39.020576, 149.245499 39.025639, 149.260442 39.030701, 149.275387 39.035761, 149.290334 39.040819, 149.305283 39.045875, 149.320234 39.050929, 149.335188 39.055982, 149.350143 39.061032, 149.365101 39.066081, 149.380061 39.071127, 149.395023 39.076172, 149.409987 39.081214, 149.424954 39.086255, 149.439922 39.091294, 149.454893 39.096331, 149.469866 39.101366, 149.484840 39.106399, 149.499817 39.111431, 149.514797 39.116460, 149.529778 39.121487, 149.544761 39.126513, 149.559747 39.131536, 149.574735 39.136558, 149.589724 39.141578, 149.604716 39.146596, 149.619711 39.151612, 149.634707 39.156626, 149.649705 39.161638, 149.664706 39.166648, 149.679708 39.171656, 149.694713 39.176662, 149.709720 39.181667, 149.724729 39.186669, 149.739740 39.191670, 149.754754 39.196668, 149.769769 39.201665, 149.784787 39.206659, 149.799807 39.211652, 149.814829 39.216643, 149.829853 39.221632, 149.844879 39.226619, 149.859907 39.231604, 149.874938 39.236587, 149.889970 39.241569, 149.905005 39.246548, 149.920042 39.251525, 149.935081 39.256501, 149.950122 39.261474, 149.965165 39.266446, 149.980210 39.271415, 149.995258 39.276383, 150.010308 39.281349, 150.025359 39.286312, 150.040413 39.291274, 150.055469 39.296234, 150.070527 39.301192, 150.085588 39.306148, 150.100650 39.311102, 150.115715 39.316055, 150.130781 39.321005, 150.145850 39.325953, 150.160921 39.330899, 150.175994 39.335844, 150.191070 39.340786, 150.206147 39.345727, 150.221226 39.350665, 150.236308 39.355602, 150.251392 39.360536, 150.266478 39.365469, 150.281566 39.370400, 150.296656 39.375329, 150.311748 39.380256, 150.326843 39.385181, 150.341939 39.390104, 150.357038 39.395025, 150.372139 39.399944, 150.387242 39.404861, 150.402347 39.409776, 150.417454 39.414689, 150.432563 39.419600, 150.447675 39.424510, 150.462788 39.429417, 150.477904 39.434322, 150.493022 39.439226, 150.508142 39.444127, 150.523264 39.449027, 150.538388 39.453924, 150.553514 39.458820, 150.568643 39.463714, 150.583773 39.468605, 150.598906 39.473495, 150.614041 39.478383, 150.629178 39.483269, 150.644317 39.488152, 150.659458 39.493034, 150.674602 39.497914, 150.689747 39.502792, 150.704895 39.507668, 150.720045 39.512542, 150.735196 39.517414, 150.750350 39.522284, 150.765507 39.527152, 150.780665 39.532018, 150.795825 39.536883, 150.810988 39.541745, 150.826152 39.546605, 150.841319 39.551463, 150.856488 39.556320, 150.871659 39.561174, 150.886832 39.566026, 150.902007 39.570877, 150.917185 39.575725, 150.932364 39.580571, 150.947546 39.585416, 150.962729 39.590258, 150.977915 39.595099, 150.993103 39.599937, 151.008293 39.604774, 151.023485 39.609608, 151.038680 39.614441, 151.053876 39.619272, 151.069075 39.624100, 151.084275 39.628927, 151.099478 39.633751, 151.114683 39.638574, 151.129890 39.643395, 151.145099 39.648213, 151.160311 39.653030, 151.175524 39.657845, 151.190740 39.662658, 151.205957 39.667468, 151.221177 39.672277, 151.236399 39.677084, 151.251623 39.681889, 151.266849 39.686692, 151.282077 39.691493, 151.297308 39.696291, 151.312540 39.701088, 151.327775 39.705883, 151.343012 39.710676, 151.358250 39.715467, 151.373491 39.720256, 151.388734 39.725043, 151.403980 39.729828, 151.419227 39.734610, 151.434476 39.739391, 151.449728 39.744170, 151.464981 39.748947, 151.480237 39.753722, 151.495495 39.758495, 151.510755 39.763266, 151.526017 39.768035, 151.541281 39.772802, 151.556548 39.777567, 151.571816 39.782330, 151.587087 39.787091, 151.602359 39.791850, 151.617634 39.796606, 151.632911 39.801361, 151.648190 39.806114, 151.663471 39.810865, 151.678754 39.815614, 151.694040 39.820361, 151.709327 39.825106, 151.724617 39.829849, 151.739908 39.834590, 151.755202 39.839329, 151.770498 39.844065, 151.785796 39.848800, 151.801096 39.853533, 151.816398 39.858264, 151.831703 39.862993, 151.847009 39.867720, 151.862318 39.872444, 151.877628 39.877167, 151.892941 39.881888, 151.908256 39.886607, 151.923573 39.891324, 151.938892 39.896038, 151.954213 39.900751, 151.969537 39.905462, 151.984862 39.910170, 152.000190 39.914877, 152.015519 39.919582, 152.030851 39.924284, 152.046185 39.928985, 152.061521 39.933684, 152.076859 39.938380, 152.092199 39.943075, 152.107541 39.947767, 152.122886 39.952458, 152.138232 39.957146, 152.153581 39.961833, 152.168931 39.966517, 152.184284 39.971199, 152.199639 39.975880, 152.214996 39.980558, 152.230355 39.985235, 152.245716 39.989909, 152.261080 39.994581, 152.276445 39.999251, 152.291813 40.003920, 152.307182 40.008586, 152.322554 40.013250, 152.337928 40.017912, 152.353304 40.022572, 152.368682 40.027230, 152.384062 40.031886, 152.399444 40.036540, 152.414828 40.041192, 152.430215 40.045842, 152.445603 40.050490, 152.460994 40.055136, 152.476386 40.059780, 152.491781 40.064421, 152.507178 40.069061, 152.522577 40.073699, 152.537978 40.078335, 152.553381 40.082968, 152.568787 40.087600, 152.584194 40.092229, 152.599603 40.096857, 152.615015 40.101482, 152.630429 40.106106, 152.645844 40.110727, 152.661262 40.115346, 152.676682 40.119964, 152.692104 40.124579, 152.707528 40.129192, 152.722955 40.133803, 152.738383 40.138412, 152.753813 40.143019, 152.769246 40.147624, 152.784680 40.152227, 152.800117 40.156828, 152.815556 40.161427, 152.830997 40.166024, 152.846440 40.170619, 152.861885 40.175211, 152.877332 40.179802, 152.892781 40.184391, 152.908232 40.188977, 152.923686 40.193562, 152.939141 40.198144, 152.954599 40.202725, 152.970059 40.207303, 152.985520 40.211879, 153.000984 40.216453, 153.016450 40.221025, 153.031918 40.225596, 153.047388 40.230164, 153.062861 40.234730, 153.078335 40.239293, 153.093811 40.243855, 153.109290 40.248415, 153.124770 40.252973, 153.140253 40.257529, 153.155738 40.262082, 153.171224 40.266634, 153.186713 40.271183, 153.202204 40.275731, 153.217697 40.280276, 153.233192 40.284819, 153.248690 40.289360, 153.264189 40.293899, 153.279690 40.298437, 153.295194 40.302972, 153.310699 40.307504, 153.326207 40.312035, 153.341717 40.316564, 153.357228 40.321091, 153.372742 40.325615, 153.388258 40.330138, 153.403776 40.334659, 153.419296 40.339177, 153.434818 40.343693, 153.450343 40.348208, 153.465869 40.352720, 153.481397 40.357230, 153.496928 40.361738, 153.512460 40.366244, 153.527995 40.370748, 153.543532 40.375250, 153.559071 40.379749, 153.574611 40.384247, 153.590154 40.388743, 153.605699 40.393236, 153.621247 40.397728, 153.636796 40.402217, 153.652347 40.406704, 153.667900 40.411189, 153.683456 40.415672, 153.699013 40.420153, 153.714573 40.424632, 153.730134 40.429109, 153.745698 40.433584, 153.761264 40.438056, 153.776831 40.442527, 153.792401 40.446995, 153.807973 40.451462, 153.823547 40.455926, 153.839123 40.460388, 153.854702 40.464848, 153.870282 40.469306, 153.885864 40.473762, 153.901448 40.478216, 153.917035 40.482668, 153.932623 40.487118, 153.948214 40.491565, 153.963807 40.496011, 153.979401 40.500454, 153.994998 40.504895, 154.010597 40.509334, 154.026198 40.513771, 154.041801 40.518206, 154.057406 40.522639, 154.073013 40.527070, 154.088622 40.531499, 154.104233 40.535925, 154.119847 40.540350, 154.135462 40.544772, 154.151079 40.549192, 154.166699 40.553611, 154.182320 40.558027, 154.197944 40.562441, 154.213569 40.566852, 154.229197 40.571262, 154.244827 40.575670, 154.260459 40.580075, 154.276093 40.584479, 154.291729 40.588880, 154.307367 40.593279, 154.323007 40.597676, 154.338649 40.602071, 154.354293 40.606464, 154.369939 40.610855, 154.385587 40.615244, 154.401238 40.619630, 154.416890 40.624015, 154.432545 40.628397, 154.448201 40.632777, 154.463860 40.637155, 154.479520 40.641531, 154.495183 40.645905, 154.510848 40.650277, 154.526514 40.654646, 154.542183 40.659014, 154.557854 40.663379, 154.573527 40.667743, 154.589202 40.672104, 154.604879 40.676463, 154.620558 40.680820, 154.636239 40.685174, 154.651922 40.689527, 154.667608 40.693878, 154.683295 40.698226, 154.698984 40.702572, 154.714675 40.706917, 154.730369 40.711259, 154.746064 40.715599, 154.761762 40.719936, 154.777461 40.724272, 154.793163 40.728606, 154.808867 40.732937, 154.824572 40.737266, 154.840280 40.741593, 154.855990 40.745918, 154.871702 40.750241, 154.887415 40.754562, 154.903131 40.758881, 154.918849 40.763197, 154.934569 40.767512, 154.950291 40.771824, 154.966015 40.776134, 154.981741 40.780442, 154.997469 40.784748, 155.013200 40.789051, 155.028932 40.793353, 155.044666 40.797652, 155.060402 40.801950, 155.076141 40.806245, 155.091881 40.810538, 155.107623 40.814829, 155.123368 40.819117, 155.139114 40.823404, 155.154863 40.827688, 155.170613 40.831971, 155.186366 40.836251, 155.202121 40.840529, 155.217877 40.844805, 155.233636 40.849079, 155.249397 40.853350, 155.265159 40.857620, 155.280924 40.861887, 155.296691 40.866152, 155.312460 40.870415, 155.328231 40.874676, 155.344003 40.878935, 155.359778 40.883191, 155.375555 40.887446, 155.391334 40.891698, 155.407115 40.895948, 155.422898 40.900196, 155.438683 40.904442, 155.454471 40.908685, 155.470260 40.912927, 155.486051 40.917166, 155.501844 40.921403, 155.517639 40.925638, 155.533436 40.929871, 155.549236 40.934102, 155.565037 40.938331, 155.580840 40.942557, 155.596645 40.946781, 155.612453 40.951003, 155.628262 40.955223, 155.644073 40.959441, 155.659887 40.963657, 155.675702 40.967870, 155.691520 40.972082, 155.707339 40.976291, 155.723161 40.980498, 155.738984 40.984702, 155.754810 40.988905, 155.770637 40.993106, 155.786467 40.997304, 155.802298 41.001500, 155.818132 41.005694, 155.833967 41.009886, 155.849805 41.014075, 155.865644 41.018263, 155.881486 41.022448, 155.897330 41.026631, 155.913175 41.030812, 155.929023 41.034991, 155.944873 41.039168, 155.960724 41.043342, 155.976578 41.047515, 155.992434 41.051685, 156.008291 41.055853, 156.024151 41.060018, 156.040013 41.064182, 156.055877 41.068343, 156.071742 41.072503, 156.087610 41.076660, 156.103480 41.080815, 156.119352 41.084967, 156.135225 41.089118, 156.151101 41.093266, 156.166979 41.097412, 156.182859 41.101556, 156.198741 41.105698, 156.214624 41.109838, 156.230510 41.113975, 156.246398 41.118110, 156.262288 41.122244, 156.278180 41.126374, 156.294073 41.130503, 156.309969 41.134630, 156.325867 41.138754, 156.341767 41.142876, 156.357668 41.146996, 156.373572 41.151114, 156.389478 41.155230, 156.405386 41.159343, 156.421296 41.163454, 156.437207 41.167563, 156.453121 41.171670, 156.469037 41.175775, 156.484955 41.179877, 156.500874 41.183977, 156.516796 41.188076, 156.532720 41.192171, 156.548646 41.196265, 156.564573 41.200357, 156.580503 41.204446, 156.596435 41.208533, 156.612369 41.212618, 156.628304 41.216701, 156.644242 41.220781, 156.660182 41.224860, 156.676123 41.228936, 156.692067 41.233010, 156.708012 41.237081, 156.723960 41.241151, 156.739910 41.245218, 156.755861 41.249283, 156.771815 41.253346, 156.787770 41.257407, 156.803728 41.261465, 156.819687 41.265522, 156.835649 41.269576, 156.851612 41.273628, 156.867578 41.277677, 156.883545 41.281725, 156.899515 41.285770, 156.915486 41.289813, 156.931460 41.293854, 156.947435 41.297893, 156.963412 41.301929, 156.979392 41.305964, 156.995373 41.309996, 157.011356 41.314025, 157.027341 41.318053, 157.043329 41.322078, 157.059318 41.326102, 157.075309 41.330123, 157.091302 41.334141, 157.107297 41.338158, 157.123294 41.342172, 157.139293 41.346184, 157.155294 41.350194, 157.171297 41.354202, 157.187302 41.358207, 157.203309 41.362211, 157.219318 41.366212, 157.235329 41.370210, 157.251342 41.374207, 157.267357 41.378201, 157.283374 41.382194, 157.299392 41.386184, 157.315413 41.390171, 157.331436 41.394157, 157.347460 41.398140, 157.363487 41.402121, 157.379516 41.406100, 157.395546 41.410076, 157.411579 41.414051, 157.427613 41.418023, 157.443649 41.421993, 157.459688 41.425961, 157.475728 41.429926, 157.491770 41.433889, 157.507815 41.437850, 157.523861 41.441809, 157.539909 41.445766, 157.555959 41.449720, 157.572011 41.453672, 157.588065 41.457622, 157.604121 41.461569, 157.620179 41.465515, 157.636239 41.469458, 157.652301 41.473399, 157.668365 41.477338, 157.684431 41.481274, 157.700498 41.485208, 157.716568 41.489140, 157.732640 41.493070, 157.748713 41.496997, 157.764789 41.500923, 157.780866 41.504846, 157.796945 41.508767, 157.813027 41.512685, 157.829110 41.516601, 157.845195 41.520515, 157.861283 41.524427, 157.877372 41.528337, 157.893463 41.532244, 157.909556 41.536149, 157.925651 41.540052, 157.941748 41.543953, 157.957847 41.547851, 157.973947 41.551747, 157.990050 41.555641, 158.006155 41.559533, 158.022261 41.563422, 158.038370 41.567309, 158.054480 41.571194, 158.070593 41.575077, 158.086707 41.578957, 158.102823 41.582835, 158.118942 41.586711, 158.135062 41.590585, 158.151184 41.594456, 158.167308 41.598325, 158.183434 41.602192, 158.199562 41.606057, 158.215692 41.609919, 158.231823 41.613779, 158.247957 41.617637, 158.264093 41.621493, 158.280230 41.625346, 158.296370 41.629197, 158.312511 41.633046, 158.328654 41.636892, 158.344800 41.640737, 158.360947 41.644579, 158.377096 41.648419, 158.393247 41.652256, 158.409400 41.656091, 158.425555 41.659924, 158.441712 41.663755, 158.457870 41.667584, 158.474031 41.671410, 158.490194 41.675234, 158.506358 41.679056, 158.522525 41.682875, 158.538693 41.686692, 158.554863 41.690507, 158.571035 41.694320, 158.587209 41.698130, 158.603385 41.701938, 158.619563 41.705744, 158.635743 41.709547, 158.651925 41.713349, 158.668109 41.717148, 158.684294 41.720945, 158.700482 41.724739, 158.716671 41.728531, 158.732862 41.732321, 158.749055 41.736109, 158.765251 41.739894, 158.781448 41.743677, 158.797647 41.747458, 158.813847 41.751237, 158.830050 41.755013, 158.846255 41.758787, 158.862461 41.762559, 158.878670 41.766328, 158.894880 41.770095, 158.911092 41.773860, 158.927307 41.777623, 158.943523 41.781383, 158.959741 41.785141, 158.975961 41.788897, 158.992182 41.792650, 159.008406 41.796402, 159.024632 41.800150, 159.040859 41.803897, 159.057089 41.807641, 159.073320 41.811384, 159.089553 41.815123, 159.105788 41.818861, 159.122025 41.822596, 159.138264 41.826329, 159.154505 41.830060, 159.170747 41.833788, 159.186992 41.837514, 159.203238 41.841238, 159.219486 41.844959, 159.235737 41.848678, 159.251989 41.852395, 159.268243 41.856110, 159.284499 41.859822, 159.300756 41.863532, 159.317016 41.867240, 159.333278 41.870946, 159.349541 41.874649, 159.365806 41.878349, 159.382073 41.882048, 159.398342 41.885744, 159.414613 41.889438, 159.430886 41.893130, 159.447161 41.896819, 159.463438 41.900506, 159.479716 41.904191, 159.495996 41.907874, 159.512279 41.911554, 159.528563 41.915232, 159.544849 41.918907, 159.561136 41.922581, 159.577426 41.926251, 159.593718 41.929920, 159.610011 41.933587, 159.626307 41.937251, 159.642604 41.940912, 159.658903 41.944572, 159.675204 41.948229, 159.691507 41.951884, 159.707811 41.955536, 159.724118 41.959187, 159.740426 41.962834, 159.756737 41.966480, 159.773049 41.970123, 159.789363 41.973764, 159.805679 41.977403, 159.821997 41.981039, 159.838316 41.984673, 159.854638 41.988305, 159.870961 41.991935, 159.887286 41.995562, 159.903613 41.999187, 159.919942 42.002809, 159.936273 42.006429, 159.952606 42.010047, 159.968940 42.013663, 159.985276 42.017276, 160.001615 42.020887, 160.017955 42.024495, 160.034297 42.028102, 160.050640 42.031706, 160.066986 42.035307, 160.083334 42.038907, 160.099683 42.042504, 160.116034 42.046098, 160.132387 42.049691, 160.148742 42.053281, 160.165099 42.056868, 160.181457 42.060454, 160.197818 42.064037, 160.214180 42.067618, 160.230544 42.071196, 160.246910 42.074772, 160.263278 42.078346, 160.279648 42.081917, 160.296019 42.085487, 160.312392 42.089053, 160.328768 42.092618, 160.345145 42.096180, 160.361523 42.099740, 160.377904 42.103297, 160.394287 42.106852, 160.410671 42.110405, 160.427057 42.113956, 160.443445 42.117504, 160.459835 42.121050, 160.476227 42.124593, 160.492620 42.128134, 160.509016 42.131673, 160.525413 42.135210, 160.541812 42.138744, 160.558213 42.142276, 160.574616 42.145805, 160.591020 42.149332, 160.607426 42.152857, 160.623835 42.156380, 160.640245 42.159900, 160.656656 42.163418, 160.673070 42.166933, 160.689486 42.170446, 160.705903 42.173957, 160.722322 42.177465, 160.738743 42.180971, 160.755166 42.184475, 160.771590 42.187977, 160.788017 42.191476, 160.804445 42.194972, 160.820875 42.198467, 160.837307 42.201959, 160.853740 42.205449, 160.870176 42.208936, 160.886613 42.212421, 160.903052 42.215904, 160.919493 42.219384, 160.935936 42.222862, 160.952381 42.226337, 160.968827 42.229811, 160.985275 42.233282, 161.001725 42.236750, 161.018177 42.240216, 161.034630 42.243680, 161.051086 42.247142, 161.067543 42.250601, 161.084002 42.254058, 161.100463 42.257512, 161.116925 42.260964, 161.133390 42.264414, 161.149856 42.267861, 161.166324 42.271306, 161.182794 42.274749, 161.199265 42.278189, 161.215739 42.281627, 161.232214 42.285063, 161.248691 42.288496, 161.265170 42.291927, 161.281651 42.295356, 161.298133 42.298782, 161.314617 42.302206, 161.331103 42.305627, 161.347591 42.309046, 161.364080 42.312463, 161.380572 42.315877, 161.397065 42.319289, 161.413560 42.322699, 161.430057 42.326106, 161.446555 42.329511, 161.463055 42.332913, 161.479557 42.336314, 161.496061 42.339711, 161.512567 42.343107, 161.529074 42.346500, 161.545583 42.349891, 161.562094 42.353279, 161.578607 42.356665, 161.595122 42.360049, 161.611638 42.363430, 161.628156 42.366809, 161.644676 42.370185, 161.661198 42.373559, 161.677721 42.376931, 161.694246 42.380300, 161.710773 42.383667, 161.727302 42.387032, 161.743833 42.390394, 161.760365 42.393754, 161.776899 42.397112, 161.793435 42.400467, 161.809972 42.403819, 161.826512 42.407170, 161.843053 42.410518, 161.859596 42.413863, 161.876140 42.417207, 161.892687 42.420547, 161.909235 42.423886, 161.925785 42.427222, 161.942337 42.430556, 161.958890 42.433887, 161.975445 42.437216, 161.992002 42.440543, 162.008561 42.443867, 162.025121 42.447188, 162.041684 42.450508, 162.058248 42.453825, 162.074813 42.457140, 162.091381 42.460452, 162.107950 42.463762, 162.124521 42.467069, 162.141094 42.470374, 162.157668 42.473677, 162.174245 42.476977, 162.190823 42.480275, 162.207402 42.483571, 162.223984 42.486864, 162.240567 42.490155, 162.257152 42.493443, 162.273739 42.496729, 162.290327 42.500013, 162.306918 42.503294, 162.323510 42.506573, 162.340103 42.509849, 162.356699 42.513123, 162.373296 42.516395, 162.389895 42.519664, 162.406496 42.522931, 162.423098 42.526195, 162.439702 42.529457, 162.456308 42.532717, 162.472915 42.535974, 162.489525 42.539229, 162.506136 42.542481, 162.522749 42.545731, 162.539363 42.548979, 162.555979 42.552224, 162.572597 42.555467, 162.589217 42.558708, 162.605838 42.561946, 162.622462 42.565181, 162.639086 42.568414, 162.655713 42.571645, 162.672341 42.574874, 162.688971 42.578100, 162.705603 42.581323, 162.722237 42.584545, 162.738872 42.587763, 162.755509 42.590980, 162.772147 42.594194, 162.788788 42.597405, 162.805430 42.600615, 162.822074 42.603821, 162.838719 42.607026, 162.855366 42.610228, 162.872015 42.613427, 162.888666 42.616624, 162.905318 42.619819, 162.921972 42.623011, 162.938628 42.626201, 162.955285 42.629389, 162.971944 42.632574, 162.988605 42.635756, 163.005268 42.638937, 163.021932 42.642114, 163.038598 42.645290, 163.055266 42.648463, 163.071935 42.651633, 163.088606 42.654802, 163.105279 42.657967, 163.121953 42.661131, 163.138630 42.664292, 163.155307 42.667450, 163.171987 42.670606, 163.188668 42.673760, 163.205351 42.676911, 163.222036 42.680060, 163.238722 42.683206, 163.255410 42.686350, 163.272100 42.689492, 163.288791 42.692631, 163.305484 42.695767, 163.322179 42.698902, 163.338875 42.702034, 163.355573 42.705163, 163.372273 42.708290, 163.388975 42.711415, 163.405678 42.714537, 163.422383 42.717656, 163.439089 42.720774, 163.455797 42.723889, 163.472507 42.727001, 163.489219 42.730111, 163.505932 42.733219, 163.522647 42.736324, 163.539364 42.739426, 163.556082 42.742527, 163.572802 42.745625, 163.589523 42.748720, 163.606247 42.751813, 163.622972 42.754903, 163.639698 42.757992, 163.656426 42.761077, 163.673156 42.764160, 163.689888 42.767241, 163.706621 42.770320, 163.723356 42.773396, 163.740093 42.776469, 163.756831 42.779540, 163.773571 42.782609, 163.790312 42.785675, 163.807056 42.788739, 163.823801 42.791800, 163.840547 42.794859, 163.857295 42.797915, 163.874045 42.800969, 163.890797 42.804021, 163.907550 42.807070, 163.924305 42.810117, 163.941061 42.813161, 163.957819 42.816203, 163.974579 42.819242, 163.991340 42.822279, 164.008103 42.825313, 164.024868 42.828345, 164.041634 42.831375, 164.058402 42.834402, 164.075172 42.837427, 164.091943 42.840449, 164.108716 42.843469, 164.125491 42.846486, 164.142267 42.849501, 164.159045 42.852513, 164.175824 42.855523, 164.192605 42.858531, 164.209388 42.861536, 164.226172 42.864538, 164.242958 42.867538, 164.259746 42.870536, 164.276535 42.873531, 164.293326 42.876524, 164.310118 42.879515, 164.326912 42.882502, 164.343708 42.885488, 164.360506 42.888471, 164.377305 42.891451, 164.394105 42.894429, 164.410907 42.897405, 164.427711 42.900378, 164.444517 42.903349, 164.461324 42.906317, 164.478133 42.909283, 164.494943 42.912246, 164.511755 42.915207, 164.528569 42.918166, 164.545384 42.921121, 164.562200 42.924075, 164.579019 42.927026, 164.595839 42.929975, 164.612661 42.932921, 164.629484 42.935864, 164.646309 42.938805, 164.663135 42.941744, 164.679963 42.944680, 164.696793 42.947614, 164.713624 42.950545, 164.730457 42.953474, 164.747291 42.956401, 164.764128 42.959325, 164.780965 42.962246, 164.797804 42.965165, 164.814645 42.968082, 164.831488 42.970996, 164.848332 42.973907, 164.865177 42.976816, 164.882025 42.979723, 164.898874 42.982627, 164.915724 42.985529, 164.932576 42.988428, 164.949430 42.991325, 164.966285 42.994219, 164.983142 42.997111, 165.000000 43.000000, 165.016123 43.004635, 165.032249 43.009268, 165.048377 43.013899, 165.064507 43.018527, 165.080640 43.023153, 165.096775 43.027777, 165.112913 43.032399, 165.129053 43.037018, 165.145196 43.041635, 165.161341 43.046250, 165.177489 43.050863, 165.193638 43.055473, 165.209791 43.060081, 165.225946 43.064687, 165.242103 43.069290, 165.258262 43.073892, 165.274424 43.078490, 165.290589 43.083087, 165.306756 43.087681, 165.322925 43.092274, 165.339097 43.096863, 165.355271 43.101451, 165.371447 43.106036, 165.387626 43.110619, 165.403808 43.115200, 165.419992 43.119778, 165.436178 43.124354, 165.452367 43.128928, 165.468558 43.133500, 165.484751 43.138069, 165.500947 43.142636, 165.517146 43.147201, 165.533347 43.151763, 165.549550 43.156324, 165.565755 43.160881, 165.581963 43.165437, 165.598174 43.169990, 165.614387 43.174541, 165.630602 43.179090, 165.646820 43.183636, 165.663040 43.188181, 165.679262 43.192722, 165.695487 43.197262, 165.711715 43.201799, 165.727945 43.206334, 165.744177 43.210867, 165.760411 43.215397, 165.776648 43.219925, 165.792888 43.224451, 165.809130 43.228975, 165.825374 43.233496, 165.841621 43.238015, 165.857870 43.242531, 165.874121 43.247046, 165.890375 43.251558, 165.906631 43.256067, 165.922890 43.260575, 165.939151 43.265080, 165.955415 43.269582, 165.971681 43.274083, 165.987949 43.278581, 166.004220 43.283077, 166.020493 43.287571, 166.036768 43.292062, 166.053046 43.296551, 166.069327 43.301037, 166.085609 43.305522, 166.101894 43.310004, 166.118182 43.314483, 166.134472 43.318961, 166.150764 43.323436, 166.167059 43.327909, 166.183356 43.332379, 166.199656 43.336847, 166.215958 43.341313, 166.232262 43.345777, 166.248569 43.350238, 166.264878 43.354697, 166.281189 43.359153, 166.297503 43.363607, 166.313820 43.368059, 166.330138 43.372509, 166.346460 43.376956, 166.362783 43.381401, 166.379109 43.385844, 166.395437 43.390284, 166.411768 43.394722, 166.428101 43.399158, 166.444437 43.403591, 166.460774 43.408022, 166.477115 43.412451, 166.493457 43.416877, 166.509802 43.421301, 166.526150 43.425723, 166.542500 43.430142, 166.558852 43.434559, 166.575206 43.438974, 166.591563 43.443386, 166.607923 43.447796, 166.624284 43.452204, 166.640648 43.456610, 166.657015 43.461013, 166.673384 43.465413, 166.689755 43.469812, 166.706129 43.474208, 166.722505 43.478602, 166.738883 43.482993, 166.755264 43.487382, 166.771647 43.491769, 166.788033 43.496153, 166.804421 43.500535, 166.820811 43.504915, 166.837204 43.509292, 166.853599 43.513667, 166.869996 43.518040, 166.886396 43.522410, 166.902798 43.526778, 166.919203 43.531144, 166.935610 43.535507, 166.952019 43.539868, 166.968431 43.544226, 166.984845 43.548583, 167.001261 43.552936, 167.017680 43.557288, 167.034101 43.561637, 167.050525 43.565984, 167.066951 43.570328, 167.083379 43.574671, 167.099810 43.579010, 167.116243 43.583348, 167.132678 43.587683, 167.149116 43.592016, 167.165556 43.596346, 167.181998 43.600674, 167.198443 43.605000, 167.214891 43.609323, 167.231340 43.613644, 167.247792 43.617962, 167.264246 43.622279, 167.280703 43.626593, 167.297162 43.630904, 167.313624 43.635213, 167.330087 43.639520, 167.346553 43.643824, 167.363022 43.648126, 167.379493 43.652426, 167.395966 43.656723, 167.412441 43.661018, 167.428919 43.665311, 167.445400 43.669601, 167.461882 43.673889, 167.478367 43.678174, 167.494855 43.682458, 167.511344 43.686738, 167.527836 43.691017, 167.544331 43.695293, 167.560827 43.699566, 167.577326 43.703837, 167.593828 43.708106, 167.610332 43.712373, 167.626838 43.716637, 167.643346 43.720899, 167.659857 43.725158, 167.676370 43.729415, 167.692886 43.733670, 167.709404 43.737922, 167.725924 43.742172, 167.742447 43.746419, 167.758971 43.750664, 167.775499 43.754907, 167.792028 43.759147, 167.808560 43.763385, 167.825095 43.767621, 167.841631 43.771854, 167.858170 43.776085, 167.874711 43.780313, 167.891255 43.784539, 167.907801 43.788763, 167.924349 43.792984, 167.940900 43.797203, 167.957453 43.801420, 167.974008 43.805634, 167.990566 43.809846, 168.007126 43.814055, 168.023688 43.818262, 168.040253 43.822466, 168.056820 43.826668, 168.073389 43.830868, 168.089961 43.835066, 168.106535 43.839261, 168.123111 43.843453, 168.139690 43.847643, 168.156271 43.851831, 168.172854 43.856016, 168.189440 43.860199, 168.206028 43.864380, 168.222618 43.868558, 168.239211 43.872734, 168.255806 43.876907, 168.272403 43.881078, 168.289003 43.885247, 168.305605 43.889413, 168.322209 43.893577, 168.338815 43.897738, 168.355424 43.901897, 168.372035 43.906054, 168.388649 43.910208, 168.405265 43.914359, 168.421883 43.918509, 168.438503 43.922656, 168.455126 43.926800, 168.471751 43.930942, 168.488379 43.935082, 168.505008 43.939219, 168.521640 43.943354, 168.538275 43.947487, 168.554911 43.951617, 168.571550 43.955744, 168.588192 43.959869, 168.604835 43.963992, 168.621481 43.968113, 168.638129 43.972231, 168.654780 43.976346, 168.671433 43.980459, 168.688088 43.984570, 168.704745 43.988678, 168.721405 43.992784, 168.738067 43.996887, 168.754732 44.000988, 168.771398 44.005087, 168.788067 44.009183, 168.804738 44.013277, 168.821412 44.017368, 168.838088 44.021457, 168.854766 44.025544, 168.871447 44.029628, 168.888129 44.033709, 168.904814 44.037789, 168.921502 44.041865, 168.938191 44.045940, 168.954883 44.050012, 168.971578 44.054081, 168.988274 44.058148, 169.004973 44.062213, 169.021674 44.066275, 169.038378 44.070335, 169.055083 44.074392, 169.071791 44.078447, 169.088502 44.082499, 169.105214 44.086549, 169.121929 44.090597, 169.138646 44.094642, 169.155366 44.098685, 169.172087 44.102725, 169.188811 44.106763, 169.205538 44.110798, 169.222266 44.114831, 169.238997 44.118862, 169.255730 44.122890, 169.272466 44.126915, 169.289203 44.130939, 169.305943 44.134959, 169.322686 44.138978, 169.339430 44.142993, 169.356177 44.147007, 169.372926 44.151018, 169.389677 44.155026, 169.406431 44.159032, 169.423187 44.163036, 169.439945 44.167037, 169.456706 44.171036, 169.473468 44.175032, 169.490233 44.179026, 169.507001 44.183017, 169.523770 44.187006, 169.540542 44.190992, 169.557316 44.194976, 169.574093 44.198958, 169.590871 44.202937, 169.607652 44.206914, 169.624435 44.210888, 169.641221 44.214860, 169.658008 44.218829, 169.674798 44.222796, 169.691591 44.226760, 169.708385 44.230722, 169.725182 44.234681, 169.741981 44.238638, 169.758782 44.242593, 169.775586 44.246545, 169.792391 44.250494, 169.809199 44.254441, 169.826010 44.258386, 169.842822 44.262328, 169.859637 44.266268, 169.876454 44.270205, 169.893273 44.274140, 169.910095 44.278072, 169.926919 44.282002, 169.943745 44.285929, 169.960573 44.289854, 169.977403 44.293777, 169.994236 44.297696, 170.011071 44.301614, 170.027909 44.305529, 170.044748 44.309441, 170.061590 44.313352, 170.078434 44.317259, 170.095280 44.321164, 170.112129 44.325067, 170.128979 44.328967, 170.145832 44.332865, 170.162688 44.336760, 170.179545 44.340653, 170.196405 44.344543, 170.213267 44.348431, 170.230131 44.352316, 170.246997 44.356199, 170.263866 44.360079, 170.280737 44.363957, 170.297610 44.367832, 170.314485 44.371705, 170.331363 44.375575, 170.348243 44.379443, 170.365125 44.383309, 170.382009 44.387172, 170.398895 44.391032, 170.415784 44.394890, 170.432675 44.398745, 170.449568 44.402598, 170.466464 44.406449, 170.483361 44.410297, 170.500261 44.414142, 170.517163 44.417985, 170.534068 44.421826, 170.550974 44.425664, 170.567883 44.429499, 170.584794 44.433332, 170.601707 44.437163, 170.618622 44.440991, 170.635540 44.444816, 170.652460 44.448639, 170.669382 44.452460, 170.686306 44.456278, 170.703232 44.460094, 170.720161 44.463907, 170.737092 44.467717, 170.754025 44.471525, 170.770960 44.475331, 170.787898 44.479134, 170.804837 44.482934, 170.821779 44.486732, 170.838724 44.490528, 170.855670 44.494321, 170.872618 44.498111, 170.889569 44.501899, 170.906522 44.505685, 170.923477 44.509468, 170.940435 44.513248, 170.957394 44.517026, 170.974356 44.520802, 170.991320 44.524575, 171.008286 44.528345, 171.025254 44.532113, 171.042225 44.535878, 171.059197 44.539641, 171.076172 44.543402, 171.093149 44.547160, 171.110129 44.550915, 171.127110 44.554668, 171.144094 44.558418, 171.161080 44.562166, 171.178068 44.565911, 171.195058 44.569654, 171.212050 44.573394, 171.229045 44.577132, 171.246042 44.580867, 171.263041 44.584600, 171.280042 44.588330, 171.297045 44.592058, 171.314051 44.595783, 171.331058 44.599505, 171.348068 44.603225, 171.365080 44.606943, 171.382095 44.610658, 171.399111 44.614370, 171.416130 44.618080, 171.433150 44.621788, 171.450173 44.625493, 171.467198 44.629195, 171.484226 44.632895, 171.501255 44.636592, 171.518287 44.640287, 171.535320 44.643979, 171.552356 44.647669, 171.569395 44.651356, 171.586435 44.655041, 171.603477 44.658723, 171.620522 44.662403, 171.637569 44.666080, 171.654618 44.669754, 171.671669 44.673426, 171.688722 44.677096, 171.705777 44.680763, 171.722835 44.684427, 171.739895 44.688089, 171.756957 44.691748, 171.774021 44.695405, 171.791087 44.699059, 171.808155 44.702711, 171.825226 44.706360, 171.842298 44.710006, 171.859373 44.713650, 171.876450 44.717292, 171.893529 44.720931, 171.910610 44.724567, 171.927694 44.728201, 171.944779 44.731833, 171.961867 44.735461, 171.978957 44.739087, 171.996049 44.742711, 172.013143 44.746332, 172.030239 44.749951, 172.047338 44.753567, 172.064438 44.757180, 172.081541 44.760791, 172.098646 44.764400, 172.115753 44.768005, 172.132862 44.771609, 172.149973 44.775209, 172.167086 44.778807, 172.184202 44.782403, 172.201319 44.785996, 172.218439 44.789587, 172.235561 44.793174, 172.252685 44.796760, 172.269811 44.800343, 172.286939 44.803923, 172.304070 44.807501, 172.321202 44.811076, 172.338337 44.814648, 172.355474 44.818218, 172.372613 44.821786, 172.389754 44.825350, 172.406897 44.828913, 172.424042 44.832473, 172.441189 44.836030, 172.458339 44.839584, 172.475490 44.843136, 172.492644 44.846686, 172.509800 44.850233, 172.526958 44.853777, 172.544118 44.857319, 172.561280 44.860858, 172.578444 44.864395, 172.595610 44.867929, 172.612779 44.871460, 172.629950 44.874989, 172.647122 44.878515, 172.664297 44.882039, 172.681474 44.885560, 172.698653 44.889079, 172.715834 44.892595, 172.733017 44.896108, 172.750202 44.899619, 172.767390 44.903128, 172.784579 44.906633, 172.801771 44.910136, 172.818965 44.913637, 172.836160 44.917135, 172.853358 44.920630, 172.870558 44.924123, 172.887760 44.927614, 172.904964 44.931101, 172.922171 44.934586, 172.939379 44.938069, 172.956589 44.941549, 172.973802 44.945026, 172.991016 44.948501, 173.008233 44.951973, 173.025452 44.955442, 173.042673 44.958909, 173.059895 44.962374, 173.077120 44.965836, 173.094347 44.969295, 173.111577 44.972751, 173.128808 44.976205, 173.146041 44.979657, 173.163276 44.983106, 173.180514 44.986552, 173.197753 44.989996, 173.214995 44.993437, 173.232239 44.996875, 173.249484 45.000311, 173.266732 45.003744, 173.283982 45.007175, 173.301234 45.010603, 173.318488 45.014029, 173.335744 45.017452, 173.353002 45.020872, 173.370262 45.024289, 173.387524 45.027705, 173.404789 45.031117, 173.422055 45.034527, 173.439323 45.037934, 173.456594 45.041339, 173.473866 45.044741, 173.491141 45.048141, 173.508417 45.051537, 173.525696 45.054932, 173.542977 45.058323, 173.560260 45.061712, 173.577544 45.065099, 173.594831 45.068483, 173.612120 45.071864, 173.629411 45.075243, 173.646704 45.078619, 173.663999 45.081992, 173.681296 45.085363, 173.698595 45.088731, 173.715897 45.092097, 173.733200 45.095459, 173.750505 45.098820, 173.767812 45.102178, 173.785122 45.105533, 173.802433 45.108885, 173.819746 45.112235, 173.837062 45.115582, 173.854379 45.118927, 173.871699 45.122269, 173.889020 45.125608, 173.906344 45.128945, 173.923669 45.132279, 173.940997 45.135611, 173.958326 45.138940, 173.975658 45.142266, 173.992992 45.145590, 174.010327 45.148911, 174.027665 45.152230, 174.045005 45.155545, 174.062346 45.158859, 174.079690 45.162169, 174.097036 45.165477, 174.114384 45.168782, 174.131733 45.172085, 174.149085 45.175385, 174.166439 45.178683, 174.183795 45.181977, 174.201153 45.185270, 174.218512 45.188559, 174.235874 45.191846, 174.253238 45.195130, 174.270604 45.198412, 174.287972 45.201691, 174.305342 45.204968, 174.322714 45.208241, 174.340087 45.211513, 174.357463 45.214781, 174.374841 45.218047, 174.392221 45.221310, 174.409603 45.224571, 174.426986 45.227829, 174.444372 45.231084, 174.461760 45.234337, 174.479150 45.237587, 174.496542 45.240834, 174.513935 45.244079, 174.531331 45.247321, 174.548729 45.250561, 174.566129 45.253797, 174.583530 45.257032, 174.600934 45.260263, 174.618340 45.263492, 174.635747 45.266718, 174.653157 45.269942, 174.670569 45.273163, 174.687982 45.276381, 174.705398 45.279597, 174.722815 45.282810, 174.740235 45.286020, 174.757656 45.289228, 174.775080 45.292433, 174.792505 45.295636, 174.809932 45.298836, 174.827362 45.302033, 174.844793 45.305227, 174.862226 45.308419, 174.879662 45.311608, 174.897099 45.314795, 174.914538 45.317979, 174.931979 45.321160, 174.949422 45.324339, 174.966867 45.327514, 174.984314 45.330688, 175.001763 45.333858, 175.019214 45.337026, 175.036667 45.340192, 175.054122 45.343354, 175.071578 45.346514, 175.089037 45.349672, 175.106498 45.352826, 175.123960 45.355978, 175.141425 45.359128, 175.158891 45.362274, 175.176360 45.365418, 175.193830 45.368560, 175.211302 45.371698, 175.228776 45.374834, 175.246253 45.377968, 175.263731 45.381098, 175.281211 45.384226, 175.298693 45.387352, 175.316177 45.390474, 175.333663 45.393594, 175.351150 45.396712, 175.368640 45.399826, 175.386132 45.402939, 175.403625 45.406048, 175.421121 45.409155, 175.438618 45.412259, 175.456117 45.415360, 175.473619 45.418459, 175.491122 45.421555, 175.508627 45.424648, 175.526134 45.427739, 175.543643 45.430826, 175.561154 45.433912, 175.578666 45.436994, 175.596181 45.440074, 175.613698 45.443152, 175.631216 45.446226, 175.648736 45.449298, 175.666259 45.452367, 175.683783 45.455434, 175.701309 45.458498, 175.718837 45.461559, 175.736367 45.464617, 175.753899 45.467673, 175.771433 45.470726, 175.788968 45.473777, 175.806506 45.476825, 175.824045 45.479870, 175.841586 45.482912, 175.859130 45.485952, 175.876675 45.488989, 175.894222 45.492023, 175.911770 45.495055, 175.929321 45.498084, 175.946874 45.501110, 175.964428 45.504134, 175.981985 45.507155, 175.999543 45.510173, 176.017103 45.513189, 176.034665 45.516201, 176.052229 45.519212, 176.069795 45.522219, 176.087363 45.525224, 176.104932 45.528226, 176.122504 45.531225, 176.140077 45.534222, 176.157652 45.537216, 176.175230 45.540207, 176.192808 45.543196, 176.210389 45.546182, 176.227972 45.549165, 176.245556 45.552145, 176.263143 45.555123, 176.280731 45.558098, 176.298321 45.561071, 176.315913 45.564040, 176.333507 45.567008, 176.351103 45.569972, 176.368700 45.572933, 176.386300 45.575892, 176.403901 45.578849, 176.421504 45.581802, 176.439109 45.584753, 176.456716 45.587701, 176.474325 45.590646, 176.491935 45.593589, 176.509548 45.596529, 176.527162 45.599466, 176.544778 45.602401, 176.562396 45.605333, 176.580015 45.608262, 176.597637 45.611188, 176.615260 45.614112, 176.632886 45.617033, 176.650513 45.619951, 176.668142 45.622867, 176.685772 45.625780, 176.703405 45.628690, 176.721039 45.631597, 176.738676 45.634502, 176.756314 45.637404, 176.773954 45.640304, 176.791595 45.643200, 176.809239 45.646094, 176.826884 45.648985, 176.844532 45.651874, 176.862181 45.654759, 176.879831 45.657642, 176.897484 45.660523, 176.915138 45.663400, 176.932795 45.666275, 176.950453 45.669147, 176.968113 45.672017, 176.985774 45.674883, 177.003438 45.677747, 177.021103 45.680609, 177.038770 45.683467, 177.056439 45.686323, 177.074110 45.689176, 177.091783 45.692027, 177.109457 45.694874, 177.127133 45.697719, 177.144811 45.700561, 177.162491 45.703401, 177.180172 45.706237, 177.197856 45.709071, 177.215541 45.711903, 177.233228 45.714731, 177.250916 45.717557, 177.268607 45.720380, 177.286299 45.723201, 177.303993 45.726018, 177.321689 45.728833, 177.339387 45.731645, 177.357086 45.734455, 177.374787 45.737261, 177.392490 45.740065, 177.410195 45.742867, 177.427901 45.745665, 177.445610 45.748461, 177.463320 45.751254, 177.481032 45.754044, 177.498745 45.756832, 177.516461 45.759617, 177.534178 45.762399, 177.551897 45.765178, 177.569617 45.767955, 177.587340 45.770728, 177.605064 45.773499, 177.622790 45.776268, 177.640518 45.779034, 177.658247 45.781796, 177.675978 45.784557, 177.693711 45.787314, 177.711446 45.790069, 177.729183 45.792821, 177.746921 45.795570, 177.764661 45.798316, 177.782403 45.801060, 177.800146 45.803801, 177.817891 45.806539, 177.835638 45.809274, 177.853387 45.812007, 177.871138 45.814737, 177.888890 45.817464, 177.906644 45.820189, 177.924399 45.822910, 177.942157 45.825629, 177.959916 45.828346, 177.977677 45.831059, 177.995439 45.833770, 178.013204 45.836478, 178.030970 45.839183, 178.048738 45.841885, 178.066507 45.844585, 178.084278 45.847282, 178.102051 45.849976, 178.119826 45.852668, 178.137602 45.855356, 178.155381 45.858042, 178.173160 45.860725, 178.190942 45.863406, 178.208725 45.866083, 178.226510 45.868758, 178.244297 45.871430, 178.262085 45.874100, 178.279875 45.876766, 178.297667 45.879430, 178.315461 45.882091, 178.333256 45.884749, 178.351053 45.887405, 178.368852 45.890058, 178.386652 45.892708, 178.404454 45.895355, 178.422258 45.898000, 178.440063 45.900641, 178.457870 45.903280, 178.475679 45.905916, 178.493489 45.908550, 178.511302 45.911181, 178.529116 45.913808, 178.546931 45.916434, 178.564748 45.919056, 178.582567 45.921676, 178.600388 45.924292, 178.618210 45.926906, 178.636034 45.929518, 178.653860 45.932126, 178.671687 45.934732, 178.689516 45.937335, 178.707347 45.939935, 178.725179 45.942533, 178.743013 45.945127, 178.760849 45.947719, 178.778686 45.950308, 178.796525 45.952894, 178.814366 45.955478, 178.832208 45.958059, 178.850052 45.960637, 178.867898 45.963212, 178.885745 45.965784, 178.903594 45.968354, 178.921445 45.970921, 178.939297 45.973485, 178.957151 45.976046, 178.975007 45.978605, 178.992864 45.981161, 179.010723 45.983714, 179.028583 45.986264, 179.046445 45.988811, 179.064309 45.991356, 179.082175 45.993898, 179.100042 45.996437, 179.117910 45.998973, 179.135781 46.001507, 179.153653 46.004037, 179.171526 46.006565, 179.189402 46.009090, 179.207279 46.011613, 179.225157 46.014132, 179.243037 46.016649, 179.260919 46.019163, 179.278803 46.021674, 179.296688 46.024183, 179.314574 46.026688, 179.332463 46.029191, 179.350353 46.031691, 179.368244 46.034188, 179.386137 46.036683, 179.404032 46.039175, 179.421928 46.041663, 179.439826 46.044149, 179.457726 46.046633, 179.475627 46.049113, 179.493530 46.051591, 179.511434 46.054066, 179.529340 46.056538, 179.547248 46.059007, 179.565157 46.061474, 179.583068 46.063937, 179.600980 46.066398, 179.618894 46.068856, 179.636810 46.071312, 179.654727 46.073764, 179.672646 46.076214, 179.690566 46.078661, 179.708488 46.081105, 179.726412 46.083546, 179.744337 46.085985, 179.762264 46.088421, 179.780192 46.090854, 179.798122 46.093284, 179.816053 46.095711, 179.833986 46.098135, 179.851921 46.100557, 179.869857 46.102976, 179.887795 46.105392, 179.905734 46.107805, 179.923675 46.110216, 179.941618 46.112623, 179.959562 46.115028, 179.977507 46.117430, 179.995455 46.119830, 180.000000 46.120437), (-180.000000 46.120437, -179.986597 46.122226, -179.968646 46.124620, -179.950695 46.127010, -179.932741 46.129398, -179.914786 46.131784, -179.896830 46.134166, -179.878872 46.136546, -179.860912 46.138922, -179.842951 46.141296, -179.824988 46.143667, -179.807024 46.146036, -179.789058 46.148401, -179.771091 46.150764, -179.753122 46.153124, -179.735151 46.155481, -179.717179 46.157835, -179.699206 46.160186, -179.681231 46.162535, -179.663254 46.164881, -179.645276 46.167224, -179.627296 46.169564, -179.609315 46.171901, -179.591332 46.174236, -179.573348 46.176568, -179.555362 46.178896, -179.537375 46.181222, -179.519386 46.183546, -179.501396 46.185866, -179.483404 46.188184, -179.465411 46.190498, -179.447416 46.192810, -179.429420 46.195119, -179.411422 46.197426, -179.393422 46.199729, -179.375421 46.202030, -179.357419 46.204328, -179.339415 46.206623, -179.321410 46.208915, -179.303403 46.211204, -179.285394 46.213491, -179.267384 46.215774, -179.249373 46.218055, -179.231360 46.220333, -179.213346 46.222608, -179.195330 46.224881, -179.177312 46.227150, -179.159293 46.229417, -179.141273 46.231681, -179.123251 46.233942, -179.105228 46.236200, -179.087203 46.238456, -179.069177 46.240708, -179.051149 46.242958, -179.033120 46.245205, -179.015089 46.247449, -178.997057 46.249690, -178.979023 46.251928, -178.960988 46.254164, -178.942951 46.256397, -178.924913 46.258626, -178.906874 46.260854, -178.888833 46.263078, -178.870790 46.265299, -178.852746 46.267518, -178.834701 46.269733, -178.816654 46.271946, -178.798606 46.274156, -178.780556 46.276363, -178.762505 46.278568, -178.744452 46.280769, -178.726398 46.282968, -178.708342 46.285163, -178.690285 46.287356, -178.672227 46.289547, -178.654167 46.291734, -178.636105 46.293918, -178.618043 46.296100, -178.599978 46.298279, -178.581913 46.300454, -178.563846 46.302627, -178.545777 46.304798, -178.527707 46.306965, -178.509636 46.309130, -178.491563 46.311291, -178.473489 46.313450, -178.455413 46.315606, -178.437336 46.317759, -178.419257 46.319909, -178.401177 46.322057, -178.383096 46.324201, -178.365013 46.326343, -178.346929 46.328482, -178.328843 46.330618, -178.310756 46.332751, -178.292668 46.334881, -178.274578 46.337009, -178.256487 46.339133, -178.238394 46.341255, -178.220300 46.343374, -178.202205 46.345490, -178.184108 46.347603, -178.166009 46.349714, -178.147910 46.351821, -178.129809 46.353926, -178.111706 46.356028, -178.093602 46.358126, -178.075497 46.360223, -178.057391 46.362316, -178.039283 46.364406, -178.021173 46.366494, -178.003062 46.368578, -177.984950 46.370660, -177.966837 46.372739, -177.948722 46.374815, -177.930606 46.376888, -177.912488 46.378958, -177.894369 46.381026, -177.876249 46.383090, -177.858127 46.385152, -177.840004 46.387211, -177.821879 46.389267, -177.803753 46.391320, -177.785626 46.393370, -177.767497 46.395418, -177.749367 46.397462, -177.731236 46.399504, -177.713103 46.401543, -177.694969 46.403579, -177.676834 46.405612, -177.658697 46.407642, -177.640559 46.409670, -177.622420 46.411694, -177.604279 46.413716, -177.586137 46.415734, -177.567994 46.417750, -177.549849 46.419763, -177.531703 46.421773, -177.513555 46.423781, -177.495406 46.425785, -177.477256 46.427787, -177.459105 46.429785, -177.440952 46.431781, -177.422798 46.433774, -177.404642 46.435764, -177.386486 46.437751, -177.368327 46.439735, -177.350168 46.441717, -177.332007 46.443695, -177.313845 46.445671, -177.295682 46.447644, -177.277517 46.449614, -177.259351 46.451581, -177.241184 46.453545, -177.223015 46.455506, -177.204845 46.457465, -177.186674 46.459420, -177.168501 46.461373, -177.150328 46.463323, -177.132152 46.465270, -177.113976 46.467214, -177.095798 46.469155, -177.077619 46.471093, -177.059439 46.473028, -177.041257 46.474961, -177.023074 46.476891, -177.004890 46.478817, -176.986705 46.480741, -176.968518 46.482662, -176.950330 46.484580, -176.932140 46.486495, -176.913950 46.488408, -176.895758 46.490317, -176.877565 46.492224, -176.859370 46.494127, -176.841175 46.496028, -176.822978 46.497926, -176.804779 46.499821, -176.786580 46.501713, -176.768379 46.503603, -176.750177 46.505489, -176.731974 46.507372, -176.713769 46.509253, -176.695563 46.511131, -176.677356 46.513005, -176.659148 46.514877, -176.640938 46.516746, -176.622727 46.518613, -176.604515 46.520476, -176.586302 46.522336, -176.568087 46.524194, -176.549871 46.526048, -176.531654 46.527900, -176.513436 46.529749, -176.495216 46.531595, -176.476995 46.533438, -176.458773 46.535278, -176.440550 46.537115, -176.422326 46.538949, -176.404100 46.540781, -176.385873 46.542609, -176.367645 46.544435, -176.349415 46.546258, -176.331185 46.548077, -176.312953 46.549894, -176.294720 46.551708, -176.276485 46.553520, -176.258250 46.555328, -176.240013 46.557133, -176.221775 46.558936, -176.203536 46.560735, -176.185296 46.562532, -176.167054 46.564326, -176.148811 46.566116, -176.130567 46.567904, -176.112322 46.569690, -176.094076 46.571472, -176.075828 46.573251, -176.057579 46.575027, -176.039329 46.576801, -176.021078 46.578571, -176.002826 46.580339, -175.984572 46.582104, -175.966317 46.583866, -175.948061 46.585625, -175.929804 46.587381, -175.911546 46.589134, -175.893287 46.590884, -175.875026 46.592631, -175.856764 46.594376, -175.838501 46.596117, -175.820237 46.597856, -175.801972 46.599592, -175.783705 46.601324, -175.765437 46.603054, -175.747169 46.604781, -175.728899 46.606505, -175.710627 46.608226, -175.692355 46.609945, -175.674082 46.611660, -175.655807 46.613372, -175.637531 46.615082, -175.619254 46.616789, -175.600976 46.618492, -175.582697 46.620193, -175.564416 46.621891, -175.546135 46.623586, -175.527852 46.625278, -175.509568 46.626967, -175.491283 46.628653, -175.472997 46.630337, -175.454710 46.632017, -175.436422 46.633695, -175.418132 46.635369, -175.399841 46.637041, -175.381550 46.638710, -175.363257 46.640375, -175.344963 46.642038, -175.326667 46.643698, -175.308371 46.645355, -175.290074 46.647010, -175.271775 46.648661, -175.253476 46.650309, -175.235175 46.651955, -175.216873 46.653597, -175.198570 46.655237, -175.180266 46.656873, -175.161961 46.658507, -175.143655 46.660138, -175.125347 46.661766, -175.107039 46.663391, -175.088729 46.665013, -175.070418 46.666632, -175.052107 46.668248, -175.033794 46.669862, -175.015480 46.671472, -174.997165 46.673079, -174.978849 46.674684, -174.960531 46.676285, -174.942213 46.677884, -174.923894 46.679480, -174.905573 46.681073, -174.887251 46.682663, -174.868929 46.684250, -174.850605 46.685834, -174.832280 46.687415, -174.813954 46.688993, -174.795628 46.690568, -174.777300 46.692141, -174.758970 46.693710, -174.740640 46.695277, -174.722309 46.696840, -174.703977 46.698401, -174.685644 46.699959, -174.667309 46.701513, -174.648974 46.703065, -174.630637 46.704614, -174.612300 46.706160, -174.593961 46.707703, -174.575621 46.709244, -174.557281 46.710781, -174.538939 46.712315, -174.520596 46.713846, -174.502253 46.715375, -174.483908 46.716900, -174.465562 46.718423, -174.447215 46.719943, -174.428867 46.721459, -174.410518 46.722973, -174.392168 46.724484, -174.373817 46.725992, -174.355465 46.727497, -174.337112 46.728999, -174.318758 46.730498, -174.300403 46.731994, -174.282046 46.733487, -174.263689 46.734978, -174.245331 46.736465, -174.226972 46.737949, -174.208612 46.739431, -174.190251 46.740909, -174.171888 46.742385, -174.153525 46.743858, -174.135161 46.745328, -174.116796 46.746794, -174.098430 46.748258, -174.080062 46.749719, -174.061694 46.751177, -174.043325 46.752632, -174.024955 46.754084, -174.006584 46.755533, -173.988211 46.756980, -173.969838 46.758423, -173.951464 46.759863, -173.933089 46.761301, -173.914713 46.762735, -173.896336 46.764167, -173.877958 46.765595, -173.859579 46.767021, -173.841199 46.768444, -173.822818 46.769863, -173.804436 46.771280, -173.786053 46.772694, -173.767669 46.774105, -173.749284 46.775513, -173.730899 46.776918, -173.712512 46.778320, -173.694124 46.779719, -173.675736 46.781116, -173.657346 46.782509, -173.638955 46.783899, -173.620564 46.785287, -173.602172 46.786671, -173.583778 46.788052, -173.565384 46.789431, -173.546989 46.790807, -173.528592 46.792179, -173.510195 46.793549, -173.491797 46.794916, -173.473398 46.796279, -173.454998 46.797640, -173.436597 46.798998, -173.418195 46.800353, -173.399793 46.801705, -173.381389 46.803054, -173.362984 46.804400, -173.344579 46.805743, -173.326172 46.807084, -173.307765 46.808421, -173.289357 46.809755, -173.270948 46.811087, -173.252538 46.812415, -173.234127 46.813740, -173.215715 46.815063, -173.197302 46.816382, -173.178888 46.817699, -173.160474 46.819013, -173.142058 46.820323, -173.123642 46.821631, -173.105225 46.822936, -173.086806 46.824238, -173.068387 46.825536, -173.049967 46.826832, -173.031546 46.828125, -173.013125 46.829415, -172.994702 46.830702, -172.976279 46.831986, -172.957854 46.833268, -172.939429 46.834546, -172.921003 46.835821, -172.902576 46.837093, -172.884148 46.838363, -172.865719 46.839629, -172.847290 46.840892, -172.828859 46.842153, -172.810428 46.843410, -172.791996 46.844665, -172.773563 46.845916, -172.755129 46.847165, -172.736694 46.848410, -172.718258 46.849653, -172.699822 46.850893, -172.681384 46.852130, -172.662946 46.853363, -172.644507 46.854594, -172.626067 46.855822, -172.607627 46.857047, -172.589185 46.858269, -172.570743 46.859488, -172.552299 46.860704, -172.533855 46.861917, -172.515410 46.863127, -172.496965 46.864334, -172.478518 46.865538, -172.460071 46.866740, -172.441623 46.867938, -172.423174 46.869133, -172.404724 46.870326, -172.386273 46.871515, -172.367822 46.872701, -172.349369 46.873885, -172.330916 46.875065, -172.312462 46.876243, -172.294007 46.877417, -172.275552 46.878589, -172.257096 46.879757, -172.238638 46.880923, -172.220181 46.882086, -172.201722 46.883245, -172.183262 46.884402, -172.164802 46.885556, -172.146341 46.886707, -172.127879 46.887855, -172.109416 46.888999, -172.090953 46.890141, -172.072488 46.891280, -172.054023 46.892416, -172.035557 46.893549, -172.017091 46.894679, -171.998623 46.895806, -171.980155 46.896930, -171.961686 46.898051, -171.943217 46.899170, -171.924746 46.900285, -171.906275 46.901397, -171.887803 46.902506, -171.869330 46.903612, -171.850856 46.904716, -171.832382 46.905816, -171.813907 46.906913, -171.795431 46.908008, -171.776955 46.909099, -171.758477 46.910187, -171.739999 46.911273, -171.721520 46.912355, -171.703041 46.913435, -171.684560 46.914511, -171.666079 46.915585, -171.647598 46.916656, -171.629115 46.917723, -171.610632 46.918788, -171.592148 46.919849, -171.573663 46.920908, -171.555178 46.921964, -171.536691 46.923017, -171.518205 46.924066, -171.499717 46.925113, -171.481229 46.926157, -171.462739 46.927198, -171.444250 46.928236, -171.425759 46.929271, -171.407268 46.930302, -171.388776 46.931331, -171.370283 46.932357, -171.351790 46.933380, -171.333296 46.934400, -171.314801 46.935417, -171.296306 46.936431, -171.277809 46.937442, -171.259313 46.938450, -171.240815 46.939455, -171.222317 46.940458, -171.203818 46.941457, -171.185318 46.942453, -171.166818 46.943446, -171.148317 46.944436, -171.129815 46.945423, -171.111313 46.946408, -171.092810 46.947389, -171.074306 46.948367, -171.055802 46.949343, -171.037297 46.950315, -171.018791 46.951284, -171.000284 46.952251, -170.981777 46.953214, -170.963270 46.954174, -170.944761 46.955132, -170.926252 46.956086, -170.907742 46.957038, -170.889232 46.957986, -170.870721 46.958931, -170.852209 46.959874, -170.833697 46.960813, -170.815184 46.961750, -170.796670 46.962684, -170.778156 46.963614, -170.759641 46.964542, -170.741125 46.965466, -170.722609 46.966388, -170.704092 46.967306, -170.685575 46.968222, -170.667057 46.969135, -170.648538 46.970044, -170.630019 46.970951, -170.611499 46.971855, -170.592978 46.972755, -170.574457 46.973653, -170.555935 46.974548, -170.537412 46.975440, -170.518889 46.976328, -170.500366 46.977214, -170.481841 46.978097, -170.463316 46.978977, -170.444791 46.979854, -170.426265 46.980727, -170.407738 46.981598, -170.389210 46.982466, -170.370682 46.983331, -170.352154 46.984193, -170.333625 46.985052, -170.315095 46.985907, -170.296565 46.986760, -170.278034 46.987610, -170.259502 46.988457, -170.240970 46.989301, -170.222437 46.990142, -170.203904 46.990980, -170.185370 46.991815, -170.166836 46.992647, -170.148301 46.993476, -170.129765 46.994302, -170.111229 46.995125, -170.092692 46.995945, -170.074155 46.996762, -170.055617 46.997576, -170.037079 46.998387, -170.018540 46.999195, -170.000000 47.000000, -170.011958 47.009695, -170.023920 47.019389, -170.035887 47.029081, -170.047857 47.038772, -170.059833 47.048462, -170.071812 47.058151, -170.083796 47.067838, -170.095784 47.077524, -170.107777 47.087209, -170.119774 47.096893, -170.131775 47.106575, -170.143781 47.116256, -170.155791 47.125936, -170.167806 47.135615, -170.179825 47.145292, -170.191848 47.154968, -170.203875 47.164643, -170.215907 47.174317, -170.227944 47.183989, -170.239984 47.193660, -170.252030 47.203330, -170.264079 47.212999, -170.276133 47.222666, -170.288191 47.232332, -170.300254 47.241997, -170.312321 47.251660, -170.324393 47.261323, -170.336469 47.270984, -170.348549 47.280643, -170.360634 47.290302, -170.372723 47.299959, -170.384817 47.309615, -170.396915 47.319269, -170.409017 47.328923, -170.421124 47.338575, -170.433235 47.348226, -170.445351 47.357875, -170.457471 47.367523, -170.469596 47.377170, -170.481725 47.386816, -170.493858 47.396460, -170.505996 47.406104, -170.518138 47.415745, -170.530285 47.425386, -170.542436 47.435025, -170.554592 47.444663, -170.566752 47.454300, -170.578917 47.463935, -170.591086 47.473570, -170.603259 47.483202, -170.615437 47.492834, -170.627620 47.502464, -170.639807 47.512093, -170.651998 47.521721, -170.664194 47.531347, -170.676394 47.540972, -170.688599 47.550596, -170.700808 47.560219, -170.713022 47.569840, -170.725241 47.579460, -170.737463 47.589078, -170.749691 47.598696, -170.761922 47.608312, -170.774159 47.617926, -170.786399 47.627540, -170.798645 47.637152, -170.810894 47.646763, -170.823149 47.656372, -170.835408 47.665980, -170.847671 47.675587, -170.859939 47.685193, -170.872211 47.694797, -170.884488 47.704400, -170.896769 47.714002, -170.909055 47.723602, -170.921346 47.733201, -170.933641 47.742799, -170.945940 47.752395, -170.958244 47.761991, -170.970553 47.771584, -170.982866 47.781177, -170.995184 47.790768, -171.007506 47.800358, -171.019833 47.809946, -171.032164 47.819533, -171.044500 47.829119, -171.056840 47.838704, -171.069185 47.848287, -171.081535 47.857869, -171.093889 47.867450, -171.106248 47.877029, -171.118611 47.886607, -171.130979 47.896183, -171.143351 47.905759, -171.155728 47.915333, -171.168110 47.924905, -171.180496 47.934476, -171.192886 47.944046, -171.205282 47.953615, -171.217682 47.963182, -171.230086 47.972748, -171.242495 47.982313, -171.254909 47.991876, -171.267327 48.001438, -171.279750 48.010999, -171.292178 48.020558, -171.304610 48.030116, -171.317047 48.039672, -171.329488 48.049228, -171.341934 48.058781, -171.354385 48.068334, -171.366840 48.077885, -171.379300 48.087435, -171.391764 48.096983, -171.404233 48.106531, -171.416707 48.116076, -171.429185 48.125621, -171.441668 48.135164, -171.454156 48.144706, -171.466648 48.154246, -171.479145 48.163785, -171.491647 48.173323, -171.504153 48.182859, -171.516664 48.192394, -171.529179 48.201928, -171.541700 48.211460, -171.554224 48.220991, -171.566754 48.230520, -171.579288 48.240049, -171.591827 48.249575, -171.604371 48.259101, -171.616919 48.268625, -171.629472 48.278148, -171.642029 48.287669, -171.654591 48.297189, -171.667158 48.306708, -171.679730 48.316225, -171.692306 48.325741, -171.704887 48.335255, -171.717473 48.344768, -171.730063 48.354280, -171.742659 48.363790, -171.755258 48.373299, -171.767863 48.382807, -171.780472 48.392313, -171.793086 48.401818, -171.805705 48.411322, -171.818328 48.420824, -171.830956 48.430325, -171.843589 48.439824, -171.856227 48.449322, -171.868869 48.458818, -171.881516 48.468314, -171.894168 48.477807, -171.906824 48.487300, -171.919485 48.496791, -171.932151 48.506281, -171.944822 48.515769, -171.957497 48.525256, -171.970177 48.534741, -171.982862 48.544225, -171.995552 48.553708, -172.008247 48.563189, -172.020946 48.572669, -172.033650 48.582148, -172.046358 48.591625, -172.059072 48.601100, -172.071790 48.610575, -172.084513 48.620048, -172.097241 48.629519, -172.109974 48.638989, -172.122711 48.648458, -172.135453 48.657925, -172.148200 48.667391, -172.160952 48.676856, -172.173709 48.686319, -172.186470 48.695780, -172.199236 48.705241, -172.212007 48.714699, -172.224783 48.724157, -172.237563 48.733613, -172.250349 48.743067, -172.263139 48.752521, -172.275934 48.761972, -172.288733 48.771423, -172.301538 48.780872, -172.314347 48.790319, -172.327162 48.799765, -172.339981 48.809210, -172.352805 48.818653, -172.365633 48.828095, -172.378467 48.837535, -172.391305 48.846974, -172.404149 48.856412, -172.416997 48.865848, -172.429850 48.875283, -172.442707 48.884716, -172.455570 48.894148, -172.468438 48.903578, -172.481310 48.913007, -172.494187 48.922435, -172.507069 48.931861, -172.519956 48.941286, -172.532848 48.950709, -172.545745 48.960131, -172.558646 48.969551, -172.571553 48.978970, -172.584464 48.988387, -172.597380 48.997804, -172.610301 49.007218, -172.623227 49.016631, -172.636158 49.026043, -172.649094 49.035453, -172.662034 49.044862, -172.674980 49.054269, -172.687930 49.063675, -172.700886 49.073080, -172.713846 49.082483, -172.726811 49.091884, -172.739781 49.101285, -172.752756 49.110683, -172.765736 49.120080, -172.778721 49.129476, -172.791710 49.138871, -172.804705 49.148263, -172.817705 49.157655, -172.830709 49.167045, -172.843719 49.176433, -172.856733 49.185820, -172.869752 49.195206, -172.882777 49.204590, -172.895806 49.213972, -172.908840 49.223354, -172.921879 49.232733, -172.934923 49.242111, -172.947972 49.251488, -172.961026 49.260863, -172.974085 49.270237, -172.987149 49.279610, -173.000218 49.288980, -173.013292 49.298350, -173.026370 49.307718, -173.039454 49.317084, -173.052543 49.326449, -173.065637 49.335813, -173.078735 49.345175, -173.091839 49.354535, -173.104948 49.363894, -173.118061 49.373252, -173.131180 49.382608, -173.144304 49.391962, -173.157432 49.401315, -173.170566 49.410667, -173.183705 49.420017, -173.196848 49.429366, -173.209997 49.438713, -173.223151 49.448059, -173.236309 49.457403, -173.249473 49.466745, -173.262642 49.476087, -173.275816 49.485426, -173.288994 49.494764, -173.302178 49.504101, -173.315367 49.513436, -173.328561 49.522770, -173.341760 49.532102, -173.354964 49.541433, -173.368173 49.550762, -173.381387 49.560090, -173.394606 49.569416, -173.407830 49.578740, -173.421060 49.588064, -173.434294 49.597385, -173.447533 49.606705, -173.460778 49.616024, -173.474027 49.625341, -173.487282 49.634657, -173.500541 49.643971, -173.513806 49.653283, -173.527076 49.662594, -173.540350 49.671904, -173.553630 49.681212, -173.566915 49.690518, -173.580205 49.699823, -173.593501 49.709127, -173.606801 49.718429, -173.620106 49.727729, -173.633417 49.737028, -173.646732 49.746325, -173.660053 49.755621, -173.673379 49.764916, -173.686710 49.774208, -173.700046 49.783500, -173.713387 49.792789, -173.726733 49.802078, -173.740084 49.811364, -173.753441 49.820649, -173.766802 49.829933, -173.780169 49.839215, -173.793541 49.848495, -173.806918 49.857774, -173.820300 49.867052, -173.833687 49.876328, -173.847080 49.885602, -173.860477 49.894875, -173.873880 49.904146, -173.887288 49.913416, -173.900701 49.922684, -173.914119 49.931951, -173.927543 49.941216, -173.940971 49.950479, -173.954405 49.959741, -173.967844 49.969002, -173.981288 49.978261, -173.994737 49.987518, -174.008191 49.996774, -174.021651 50.006028, -174.035116 50.015280, -174.048586 50.024532, -174.062061 50.033781, -174.075541 50.043029, -174.089026 50.052275, -174.102517 50.061520, -174.116013 50.070764, -174.129514 50.080005, -174.143020 50.089245, -174.156532 50.098484, -174.170049 50.107721, -174.183571 50.116956, -174.197098 50.126190, -174.210630 50.135423, -174.224168 50.144653, -174.237711 50.153883, -174.251259 50.163110, -174.264812 50.172336, -174.278370 50.181561, -174.291934 50.190783, -174.305503 50.200005, -174.319077 50.209224, -174.332657 50.218442, -174.346242 50.227659, -174.359832 50.236874, -174.373427 50.246087, -174.387027 50.255299, -174.400633 50.264509, -174.414244 50.273718, -174.427861 50.282925, -174.441482 50.292130, -174.455109 50.301334, -174.468741 50.310536, -174.482378 50.319737, -174.496021 50.328936, -174.509669 50.338133, -174.523322 50.347329, -174.536981 50.356523, -174.550645 50.365716, -174.564314 50.374907, -174.577988 50.384096, -174.591668 50.393284, -174.605353 50.402470, -174.619043 50.411655, -174.632739 50.420838, -174.646440 50.430019, -174.660146 50.439199, -174.673857 50.448377, -174.687574 50.457554, -174.701296 50.466729, -174.715024 50.475902, -174.728757 50.485074, -174.742495 50.494244, -174.756238 50.503413, -174.769987 50.512579, -174.783742 50.521745, -174.797501 50.530908, -174.811266 50.540070, -174.825036 50.549231, -174.838812 50.558389, -174.852593 50.567547, -174.866379 50.576702, -174.880171 50.585856, -174.893968 50.595008, -174.907770 50.604159, -174.921578 50.613308, -174.935391 50.622455, -174.949209 50.631601, -174.963033 50.640745, -174.976863 50.649888, -174.990697 50.659028, -175.004537 50.668167, -175.018383 50.677305, -175.032233 50.686441, -175.046090 50.695575, -175.059951 50.704708, -175.073818 50.713839, -175.087691 50.722968, -175.101568 50.732096, -175.115452 50.741222, -175.129340 50.750346, -175.143234 50.759469, -175.157134 50.768590, -175.171039 50.777709, -175.184949 50.786827, -175.198865 50.795943, -175.212786 50.805058, -175.226712 50.814171, -175.240644 50.823282, -175.254582 50.832391, -175.268525 50.841499, -175.282473 50.850605, -175.296427 50.859710, -175.310386 50.868813, -175.324351 50.877914, -175.338321 50.887013, -175.352297 50.896111, -175.366278 50.905207, -175.380264 50.914302, -175.394256 50.923394, -175.408254 50.932486, -175.422257 50.941575, -175.436265 50.950663, -175.450279 50.959749, -175.464298 50.968833, -175.478323 50.977916, -175.492354 50.986997, -175.506389 50.996077, -175.520431 51.005154, -175.534478 51.014231, -175.548530 51.023305, -175.562588 51.032378, -175.576651 51.041449, -175.590720 51.050518, -175.604794 51.059585, -175.618874 51.068651, -175.632959 51.077716, -175.647050 51.086778, -175.661147 51.095839, -175.675249 51.104898, -175.689356 51.113956, -175.703469 51.123011, -175.717588 51.132065, -175.731712 51.141118, -175.745841 51.150168, -175.759977 51.159217, -175.774117 51.168264, -175.788264 51.177310, -175.802415 51.186354, -175.816573 51.195396, -175.830736 51.204436, -175.844904 51.213475, -175.859078 51.222512, -175.873258 51.231547, -175.887443 51.240581, -175.901634 51.249613, -175.915830 51.258643, -175.930032 51.267671, -175.944239 51.276698, -175.958453 51.285723, -175.972671 51.294746, -175.986895 51.303768, -176.001125 51.312788, -176.015361 51.321806, -176.029602 51.330822, -176.043848 51.339837, -176.058101 51.348849, -176.072358 51.357861, -176.086622 51.366870, -176.100891 51.375878, -176.115166 51.384884, -176.129446 51.393888, -176.143732 51.402890, -176.158023 51.411891, -176.172321 51.420890, -176.186623 51.429888, -176.200932 51.438883, -176.215246 51.447877, -176.229566 51.456869, -176.243891 51.465859, -176.258222 51.474848, -176.272559 51.483835, -176.286901 51.492820, -176.301249 51.501803, -176.315603 51.510785, -176.329962 51.519764, -176.344327 51.528742, -176.358697 51.537719, -176.373074 51.546693, -176.387456 51.555666, -176.401843 51.564637, -176.416236 51.573606, -176.430635 51.582574, -176.445040 51.591540, -176.459450 51.600504, -176.473867 51.609466, -176.488288 51.618426, -176.502716 51.627385, -176.517149 51.636342, -176.531588 51.645297, -176.546032 51.654251, -176.560482 51.663202, -176.574938 51.672152, -176.589400 51.681100), (-176.589400 51.681100, -176.589591 51.681991, -176.589781 51.682882, -176.589972 51.683773, -176.590163 51.684664, -176.590354 51.685555, -176.590544 51.686446, -176.590735 51.687337, -176.590926 51.688229, -176.591117 51.689120, -176.591307 51.690011, -176.591498 51.690902, -176.591689 51.691793, -176.591880 51.692684, -176.592071 51.693575, -176.592261 51.694466, -176.592452 51.695357, -176.592643 51.696248, -176.592834 51.697139, -176.593025 51.698030, -176.593216 51.698921, -176.593407 51.699812, -176.593597 51.700703, -176.593788 51.701595, -176.593979 51.702486, -176.594170 51.703377, -176.594361 51.704268, -176.594552 51.705159, -176.594743 51.706050, -176.594934 51.706941, -176.595125 51.707832, -176.595316 51.708723, -176.595507 51.709614, -176.595698 51.710505, -176.595888 51.711396, -176.596079 51.712287, -176.596270 51.713178, -176.596461 51.714069, -176.596652 51.714960, -176.596843 51.715852, -176.597034 51.716743, -176.597225 51.717634, -176.597416 51.718525, -176.597607 51.719416, -176.597799 51.720307, -176.597990 51.721198, -176.598181 51.722089, -176.598372 51.722980, -176.598563 51.723871, -176.598754 51.724762, -176.598945 51.725653, -176.599136 51.726544, -176.599327 51.727435, -176.599518 51.728326, -176.599709 51.729217, -176.599900 51.730108, -176.600092 51.730999, -176.600283 51.731891, -176.600474 51.732782, -176.600665 51.733673, -176.600856 51.734564, -176.601047 51.735455, -176.601238 51.736346, -176.601430 51.737237, -176.601621 51.738128, -176.601812 51.739019, -176.602003 51.739910, -176.602194 51.740801, -176.602386 51.741692, -176.602577 51.742583, -176.602768 51.743474, -176.602959 51.744365, -176.603151 51.745256, -176.603342 51.746147, -176.603533 51.747038, -176.603724 51.747929, -176.603916 51.748820, -176.604107 51.749712, -176.604298 51.750603, -176.604490 51.751494, -176.604681 51.752385, -176.604872 51.753276, -176.605063 51.754167, -176.605255 51.755058, -176.605446 51.755949, -176.605638 51.756840, -176.605829 51.757731, -176.606020 51.758622, -176.606212 51.759513, -176.606403 51.760404, -176.606594 51.761295, -176.606786 51.762186, -176.606977 51.763077, -176.607169 51.763968, -176.607360 51.764859, -176.607551 51.765750, -176.607743 51.766641, -176.607934 51.767532, -176.608126 51.768423, -176.608317 51.769314, -176.608509 51.770206, -176.608700 51.771097, -176.608892 51.771988, -176.609083 51.772879, -176.609275 51.773770, -176.609466 51.774661, -176.609658 51.775552, -176.609849 51.776443, -176.610041 51.777334, -176.610232 51.778225, -176.610424 51.779116, -176.610615 51.780007, -176.610807 51.780898, -176.610998 51.781789, -176.611190 51.782680, -176.611381 51.783571, -176.611573 51.784462, -176.611765 51.785353, -176.611956 51.786244, -176.612148 51.787135, -176.612339 51.788026, -176.612531 51.788917, -176.612723 51.789808, -176.612914 51.790699, -176.613106 51.791590, -176.613298 51.792481, -176.613489 51.793372, -176.613681 51.794263, -176.613873 51.795155, -176.614064 51.796046, -176.614256 51.796937, -176.614448 51.797828, -176.614639 51.798719, -176.614831 51.799610, -176.615023 51.800501, -176.615214 51.801392, -176.615406 51.802283, -176.615598 51.803174, -176.615790 51.804065, -176.615981 51.804956, -176.616173 51.805847, -176.616365 51.806738, -176.616557 51.807629, -176.616749 51.808520, -176.616940 51.809411, -176.617132 51.810302, -176.617324 51.811193, -176.617516 51.812084, -176.617708 51.812975, -176.617899 51.813866, -176.618091 51.814757, -176.618283 51.815648, -176.618475 51.816539, -176.618667 51.817430, -176.618859 51.818321, -176.619051 51.819212, -176.619242 51.820103, -176.619434 51.820994, -176.619626 51.821885, -176.619818 51.822776, -176.620010 51.823667, -176.620202 51.824558, -176.620394 51.825449, -176.620586 51.826340, -176.620778 51.827231, -176.620970 51.828122, -176.621162 51.829013, -176.621354 51.829904, -176.621546 51.830795, -176.621738 51.831687, -176.621930 51.832578, -176.622122 51.833469, -176.622314 51.834360, -176.622506 51.835251, -176.622698 51.836142, -176.622890 51.837033, -176.623082 51.837924, -176.623274 51.838815, -176.623466 51.839706, -176.623658 51.840597, -176.623850 51.841488, -176.624042 51.842379, -176.624234 51.843270, -176.624426 51.844161, -176.624618 51.845052, -176.624810 51.845943, -176.625002 51.846834, -176.625195 51.847725, -176.625387 51.848616, -176.625579 51.849507, -176.625771 51.850398, -176.625963 51.851289, -176.626155 51.852180, -176.626347 51.853071, -176.626540 51.853962, -176.626732 51.854853, -176.626924 51.855744, -176.627116 51.856635, -176.627308 51.857526, -176.627501 51.858417, -176.627693 51.859308, -176.627885 51.860199, -176.628077 51.861090, -176.628269 51.861981, -176.628462 51.862872, -176.628654 51.863763, -176.628846 51.864654, -176.629039 51.865545, -176.629231 51.866436, -176.629423 51.867327, -176.629615 51.868218, -176.629808 51.869109, -176.630000 51.870000))
