LINESTRING (-16.560000 28.450000, -16.573770 28.447685, -16.587540 28.445368, -16.601309 28.443050, -16.615077 28.440730, -16.628845 28.438409, -16.642612 28.436087, -16.656378 28.433763, -16.670144 28.431438, -16.683910 28.429112, -16.697674 28.426784, -16.711438 28.424455, -16.725202 28.422124, -16.738965 28.419792, -16.752727 28.417459, -16.766489 28.415124, -16.780250 28.412788, -16.794010 28.410450, -16.807770 28.408112, -16.821529 28.405771, -16.835288 28.403430, -16.849046 28.401087, -16.862803 28.398742, -16.876560 28.396396, -16.890316 28.394049, -16.904072 28.391701, -16.917827 28.389351, -16.931581 28.386999, -16.945335 28.384647, -16.959088 28.382292, -16.972841 28.379937, -16.986593 28.377580, -17.000344 28.375222, -17.014095 28.372862, -17.027845 28.370501, -17.041594 28.368139, -17.055343 28.365775, -17.069091 28.363410, -17.082839 28.361043, -17.096586 28.358676, -17.110332 28.356306, -17.124078 28.353936, -17.137823 28.351564, -17.151568 28.349190, -17.165312 28.346815, -17.179055 28.344439, -17.192798 28.342062, -17.206540 28.339683, -17.220282 28.337302, -17.234023 28.334921, -17.247763 28.332538, -17.261502 28.330153, -17.275241 28.327767, -17.288980 28.325380, -17.302718 28.322992, -17.316455 28.320602, -17.330191 28.318211, -17.343927 28.315818, -17.357663 28.313424, -17.371397 28.311028, -17.385132 28.308632, -17.398865 28.306233, -17.412598 28.303834, -17.426330 28.301433, -17.440062 28.299031, -17.453793 28.296627, -17.467523 28.294222, -17.481253 28.291815, -17.494982 28.289408, -17.508710 28.286998, -17.522438 28.284588, -17.536166 28.282176, -17.549892 28.279763, -17.563618 28.277348, -17.577344 28.274932, -17.591068 28.272515, -17.604793 28.270096, -17.618516 28.267676, -17.632239 28.265254, -17.645961 28.262831, -17.659683 28.260407, -17.673404 28.257981, -17.687124 28.255554, -17.700844 28.253126, -17.714563 28.250696, -17.728282 28.248265, -17.742000 28.245833, -17.755717 28.243399, -17.769434 28.240964, -17.783150 28.238527, -17.796865 28.236089, -17.810580 28.233650, -17.824294 28.231209, -17.838008 28.228767, -17.851720 28.226324, -17.865433 28.223879, -17.879144 28.221433, -17.892855 28.218985, -17.906566 28.216536, -17.920276 28.214086, -17.933985 28.211634, -17.947693 28.209181, -17.961401 28.206727, -17.975108 28.204271, -17.988815 28.201814, -18.002521 28.199356, -18.016226 28.196896, -18.029931 28.194435, -18.043635 28.191972, -18.057338 28.189508, -18.071041 28.187043, -18.084743 28.184576, -18.098445 28.182108, -18.112146 28.179639, -18.125846 28.177168, -18.139546 28.174696, -18.153245 28.172223, -18.166943 28.169748, -18.180641 28.167272, -18.194338 28.164794, -18.208035 28.162315, -18.221730 28.159835, -18.235426 28.157353, -18.249120 28.154870, -18.262814 28.152386, -18.276507 28.149900, -18.290200 28.147413, -18.303892 28.144925, -18.317584 28.142435, -18.331274 28.139944, -18.344964 28.137451, -18.358654 28.134957, -18.372343 28.132462, -18.386031 28.129965, -18.399719 28.127467, -18.413405 28.124968, -18.427092 28.122467, -18.440777 28.119965, -18.454462 28.117462, -18.468147 28.114957, -18.481831 28.112451, -18.495514 28.109944, -18.509196 28.107435, -18.522878 28.104925, -18.536559 28.102413, -18.550240 28.099900, -18.563920 28.097386, -18.577599 28.094870, -18.591277 28.092353, -18.604955 28.089835, -18.618633 28.087315, -18.632309 28.084794, -18.645986 28.082272, -18.659661 28.079748, -18.673336 28.077223, -18.687010 28.074696, -18.700683 28.072169, -18.714356 28.069639, -18.728028 28.067109, -18.741700 28.064577, -18.755371 28.062044, -18.769041 28.059509, -18.782711 28.056973, -18.796380 28.054436, -18.810048 28.051897, -18.823716 28.049357, -18.837383 28.046816, -18.851049 28.044273, -18.864715 28.041729, -18.878380 28.039184, -18.892044 28.036637, -18.905708 28.034089, -18.919371 28.031539, -18.933034 28.028988, -18.946696 28.026436, -18.960357 28.023883, -18.974017 28.021328, -18.987677 28.018772, -19.001337 28.016214, -19.014995 28.013655, -19.028653 28.011095, -19.042310 28.008533, -19.055967 28.005970, -19.069623 28.003406, -19.083278 28.000840, -19.096933 27.998273, -19.110587 27.995705, -19.124241 27.993135, -19.137893 27.990564, -19.151546 27.987991, -19.165197 27.985418, -19.178848 27.982843, -19.192498 27.980266, -19.206147 27.977688, -19.219796 27.975109, -19.233444 27.972529, -19.247092 27.969947, -19.260739 27.967364, -19.274385 27.964779, -19.288031 27.962193, -19.301676 27.959606, -19.315320 27.957017, -19.328964 27.954427, -19.342606 27.951836, -19.356249 27.949243, -19.369890 27.946649, -19.383531 27.944054, -19.397172 27.941457, -19.410811 27.938859, -19.424451 27.936260, -19.438089 27.933659, -19.451727 27.931057, -19.465364 27.928454, -19.479000 27.925849, -19.492636 27.923243, -19.506271 27.920636, -19.519905 27.918027, -19.533539 27.915417, -19.547172 27.912806, -19.560805 27.910193, -19.574436 27.907579, -19.588068 27.904963, -19.601698 27.902346, -19.615328 27.899728, -19.628957 27.897109, -19.642586 27.894488, -19.656213 27.891866, -19.669841 27.889242, -19.683467 27.886617, -19.697093 27.883991, -19.710718 27.881364, -19.724343 27.878735, -19.737967 27.876105, -19.751590 27.873473, -19.765212 27.870840, -19.778834 27.868206, -19.792455 27.865571, -19.806076 27.862934, -19.819696 27.860295, -19.833315 27.857656, -19.846934 27.855015, -19.860552 27.852373, -19.874169 27.849729, -19.887785 27.847084, -19.901401 27.844438, -19.915017 27.841790, -19.928631 27.839141, -19.942245 27.836491, -19.955858 27.833840, -19.969471 27.831187, -19.983083 27.828532, -19.996694 27.825877, -20.010305 27.823220, -20.023915 27.820562, -20.037524 27.817902, -20.051133 27.815241, -20.064741 27.812579, -20.078348 27.809915, -20.091954 27.807250, -20.105560 27.804584, -20.119166 27.801916, -20.132770 27.799247, -20.146374 27.796577, -20.159977 27.793906, -20.173580 27.791233, -20.187182 27.788558, -20.200783 27.785883, -20.214384 27.783206, -20.227984 27.780528, -20.241583 27.777848, -20.255181 27.775167, -20.268779 27.772485, -20.282376 27.769801, -20.295973 27.767116, -20.309569 27.764430, -20.323164 27.761742, -20.336759 27.759054, -20.350353 27.756363, -20.363946 27.753672, -20.377538 27.750979, -20.391130 27.748285, -20.404721 27.745589, -20.418312 27.742892, -20.431902 27.740194, -20.445491 27.737494, -20.459079 27.734794, -20.472667 27.732091, -20.486254 27.729388, -20.499841 27.726683, -20.513426 27.723977, -20.527012 27.721269, -20.540596 27.718561, -20.554180 27.715850, -20.567763 27.713139, -20.581345 27.710426, -20.594927 27.707712, -20.608508 27.704997, -20.622089 27.702280, -20.635668 27.699562, -20.649247 27.696842, -20.662826 27.694122, -20.676403 27.691399, -20.689980 27.688676, -20.703557 27.685951, -20.717132 27.683225, -20.730707 27.680498, -20.744282 27.677769, -20.757855 27.675039, -20.771428 27.672308, -20.785000 27.669575, -20.798572 27.666841, -20.812143 27.664106, -20.825713 27.661369, -20.839283 27.658631, -20.852851 27.655892, -20.866420 27.653152, -20.879987 27.650410, -20.893554 27.647666, -20.907120 27.644922, -20.920686 27.642176, -20.934250 27.639429, -20.947814 27.636680, -20.961378 27.633930, -20.974941 27.631179, -20.988503 27.628427, -21.002064 27.625673, -21.015625 27.622918, -21.029185 27.620161, -21.042744 27.617404, -21.056303 27.614645, -21.069861 27.611884, -21.083418 27.609123, -21.096974 27.606360, -21.110530 27.603595, -21.124086 27.600830, -21.137640 27.598063, -21.151194 27.595294, -21.164747 27.592525, -21.178300 27.589754, -21.191851 27.586982, -21.205403 27.584208, -21.218953 27.581433, -21.232503 27.578657, -21.246052 27.575880, -21.259600 27.573101, -21.273148 27.570321, -21.286695 27.567539, -21.300241 27.564756, -21.313787 27.561972, -21.327332 27.559187, -21.340876 27.556400, -21.354419 27.553612, -21.367962 27.550823, -21.381504 27.548032, -21.395046 27.545240, -21.408587 27.542447, -21.422127 27.539653, -21.435666 27.536857, -21.449205 27.534060, -21.462743 27.531261, -21.476280 27.528461, -21.489817 27.525660, -21.503353 27.522858, -21.516888 27.520054, -21.530423 27.517249, -21.543957 27.514443, -21.557490 27.511635, -21.571023 27.508826, -21.584554 27.506016, -21.598086 27.503204, -21.611616 27.500391, -21.625146 27.497577, -21.638675 27.494761, -21.652203 27.491945, -21.665731 27.489126, -21.679258 27.486307, -21.692784 27.483486, -21.706310 27.480664, -21.719835 27.477841, -21.733359 27.475016, -21.746883 27.472190, -21.760405 27.469363, -21.773928 27.466534, -21.787449 27.463704, -21.800970 27.460873, -21.814490 27.458041, -21.828009 27.455207, -21.841528 27.452372, -21.855046 27.449535, -21.868563 27.446698, -21.882080 27.443859, -21.895595 27.441018, -21.909111 27.438177, -21.922625 27.435334, -21.936139 27.432489, -21.949652 27.429644, -21.963164 27.426797, -21.976676 27.423949, -21.990187 27.421099, -22.003697 27.418249, -22.017207 27.415397, -22.030716 27.412543, -22.044224 27.409688, -22.057732 27.406832, -22.071239 27.403975, -22.084745 27.401117, -22.098250 27.398257, -22.111755 27.395396, -22.125259 27.392533, -22.138762 27.389669, -22.152265 27.386804, -22.165767 27.383938, -22.179268 27.381070, -22.192769 27.378201, -22.206268 27.375331, -22.219767 27.372459, -22.233266 27.369587, -22.246764 27.366712, -22.260261 27.363837, -22.273757 27.360960, -22.287253 27.358082, -22.300748 27.355203, -22.314242 27.352322, -22.327735 27.349440, -22.341228 27.346557, -22.354720 27.343672, -22.368212 27.340786, -22.381702 27.337899, -22.395192 27.335011, -22.408682 27.332121, -22.422170 27.329230, -22.435658 27.326338, -22.449145 27.323444, -22.462632 27.320549, -22.476118 27.317653, -22.489603 27.314756, -22.503087 27.311857, -22.516571 27.308957, -22.530054 27.306055, -22.543536 27.303153, -22.557017 27.300249, -22.570498 27.297343, -22.583978 27.294437, -22.597458 27.291529, -22.610937 27.288620, -22.624415 27.285709, -22.637892 27.282798, -22.651368 27.279885, -22.664844 27.276970, -22.678320 27.274055, -22.691794 27.271138, -22.705268 27.268220, -22.718741 27.265300, -22.732213 27.262380, -22.745685 27.259458, -22.759156 27.256534, -22.772626 27.253610, -22.786096 27.250684, -22.799564 27.247756, -22.813033 27.244828, -22.826500 27.241898, -22.839967 27.238967, -22.853433 27.236035, -22.866898 27.233101, -22.880363 27.230166, -22.893826 27.227230, -22.907290 27.224292, -22.920752 27.221354, -22.934214 27.218414, -22.947675 27.215472, -22.961135 27.212530, -22.974595 27.209586, -22.988053 27.206640, -23.001512 27.203694, -23.014969 27.200746, -23.028426 27.197797, -23.041882 27.194847, -23.055337 27.191895, -23.068792 27.188942, -23.082246 27.185988, -23.095699 27.183032, -23.109151 27.180076, -23.122603 27.177118, -23.136054 27.174158, -23.149505 27.171198, -23.162954 27.168236, -23.176403 27.165272, -23.189851 27.162308, -23.203299 27.159342, -23.216745 27.156375, -23.230192 27.153407, -23.243637 27.150437, -23.257081 27.147466, -23.270525 27.144494, -23.283969 27.141521, -23.297411 27.138546, -23.310853 27.135570, -23.324294 27.132593, -23.337734 27.129614, -23.351174 27.126634, -23.364613 27.123653, -23.378051 27.120671, -23.391488 27.117687, -23.404925 27.114702, -23.418361 27.111716, -23.431796 27.108728, -23.445231 27.105740, -23.458665 27.102749, -23.472098 27.099758, -23.485530 27.096765, -23.498962 27.093772, -23.512393 27.090776, -23.525823 27.087780, -23.539253 27.084782, -23.552682 27.081783, -23.566110 27.078783, -23.579537 27.075781, -23.592964 27.072778, -23.606390 27.069774, -23.619815 27.066769, -23.633240 27.063762, -23.646664 27.060754, -23.660087 27.057745, -23.673509 27.054735, -23.686931 27.051723, -23.700352 27.048710, -23.713772 27.045696, -23.727191 27.042680, -23.740610 27.039663, -23.754028 27.036645, -23.767445 27.033626, -23.780862 27.030605, -23.794278 27.027583, -23.807693 27.024560, -23.821108 27.021535, -23.834521 27.018510, -23.847934 27.015483, -23.861347 27.012454, -23.874758 27.009425, -23.888169 27.006394, -23.901579 27.003362, -23.914988 27.000328, -23.928397 26.997294, -23.941805 26.994258, -23.955212 26.991221, -23.968619 26.988182, -23.982024 26.985142, -23.995429 26.982101, -24.008834 26.979059, -24.022237 26.976016, -24.035640 26.972971, -24.049042 26.969925, -24.062444 26.966878, -24.075844 26.963829, -24.089244 26.960779, -24.102644 26.957728, -24.116042 26.954676, -24.129440 26.951622, -24.142837 26.948567, -24.156233 26.945511, -24.169629 26.942453, -24.183024 26.939395, -24.196418 26.936335, -24.209811 26.933273, -24.223204 26.930211, -24.236596 26.927147, -24.249987 26.924082, -24.263378 26.921016, -24.276767 26.917948, -24.290156 26.914879, -24.303545 26.911809, -24.316932 26.908738, -24.330319 26.905665, -24.343705 26.902591, -24.357091 26.899516, -24.370475 26.896440, -24.383859 26.893362, -24.397243 26.890283, -24.410625 26.887203, -24.424007 26.884122, -24.437388 26.881039, -24.450768 26.877955, -24.464148 26.874870, -24.477527 26.871783, -24.490905 26.868696, -24.504282 26.865606, -24.517659 26.862516, -24.531035 26.859425, -24.544410 26.856332, -24.557784 26.853238, -24.571158 26.850143, -24.584531 26.847046, -24.597903 26.843948, -24.611275 26.840849, -24.624646 26.837749, -24.638016 26.834647, -24.651385 26.831544, -24.664754 26.828440, -24.678121 26.825335, -24.691489 26.822228, -24.704855 26.819120, -24.718221 26.816011, -24.731586 26.812901, -24.744950 26.809789, -24.758313 26.806676, -24.771676 26.803562, -24.785038 26.800447, -24.798399 26.797330, -24.811760 26.794212, -24.825120 26.791093, -24.838479 26.787973, -24.851837 26.784851, -24.865195 26.781728, -24.878551 26.778604, -24.891907 26.775479, -24.905263 26.772352, -24.918618 26.769224, -24.931971 26.766095, -24.945325 26.762964, -24.958677 26.759833, -24.972029 26.756700, -24.985380 26.753566, -24.998730 26.750430, -25.012079 26.747293, -25.025428 26.744156, -25.038776 26.741016, -25.052124 26.737876, -25.065470 26.734734, -25.078816 26.731591, -25.092161 26.728447, -25.105505 26.725302, -25.118849 26.722155, -25.132192 26.719007, -25.145534 26.715858, -25.158875 26.712708, -25.172216 26.709556, -25.185556 26.706403, -25.198895 26.703249, -25.212233 26.700093, -25.225571 26.696937, -25.238908 26.693779, -25.252244 26.690620, -25.265580 26.687459, -25.278914 26.684298, -25.292248 26.681135, -25.305582 26.677971, -25.318914 26.674805, -25.332246 26.671639, -25.345577 26.668471, -25.358907 26.665302, -25.372237 26.662131, -25.385566 26.658960, -25.398894 26.655787, -25.412221 26.652613, -25.425548 26.649438, -25.438874 26.646261, -25.452199 26.643083, -25.465523 26.639904, -25.478847 26.636724, -25.492169 26.633542, -25.505492 26.630360, -25.518813 26.627176, -25.532134 26.623990, -25.545454 26.620804, -25.558773 26.617616, -25.572091 26.614427, -25.585409 26.611237, -25.598726 26.608045, -25.612042 26.604853, -25.625357 26.601659, -25.638672 26.598464, -25.651986 26.595267, -25.665299 26.592070, -25.678612 26.588871, -25.691923 26.585671, -25.705234 26.582469, -25.718545 26.579267, -25.731854 26.576063, -25.745163 26.572858, -25.758471 26.569651, -25.771778 26.566444, -25.785085 26.563235, -25.798391 26.560025, -25.811696 26.556814, -25.825000 26.553601, -25.838303 26.550388, -25.851606 26.547173, -25.864908 26.543956, -25.878210 26.540739, -25.891510 26.537520, -25.904810 26.534300, -25.918109 26.531079, -25.931407 26.527857, -25.944705 26.524633, -25.958002 26.521408, -25.971298 26.518182, -25.984593 26.514955, -25.997888 26.511727, -26.011181 26.508497, -26.024474 26.505266, -26.037767 26.502034, -26.051058 26.498800, -26.064349 26.495565, -26.077639 26.492330, -26.090929 26.489092, -26.104217 26.485854, -26.117505 26.482614, -26.130792 26.479374, -26.144079 26.476131, -26.157364 26.472888, -26.170649 26.469644, -26.183933 26.466398, -26.197216 26.463151, -26.210499 26.459903, -26.223781 26.456653, -26.237062 26.453403, -26.250342 26.450151, -26.263622 26.446898, -26.276901 26.443643, -26.290179 26.440388, -26.303456 26.437131, -26.316733 26.433873, -26.330009 26.430614, -26.343284 26.427353, -26.356558 26.424091, -26.369832 26.420828, -26.383105 26.417564, -26.396377 26.414299, -26.409648 26.411032, -26.422919 26.407764, -26.436188 26.404495, -26.449458 26.401225, -26.462726 26.397954, -26.475993 26.394681, -26.489260 26.391407, -26.502526 26.388132, -26.515792 26.384855, -26.529056 26.381578, -26.542320 26.378299, -26.555583 26.375019, -26.568845 26.371737, -26.582107 26.368455, -26.595368 26.365171, -26.608628 26.361886, -26.621887 26.358600, -26.635146 26.355313, -26.648403 26.352024, -26.661661 26.348734, -26.674917 26.345443, -26.688172 26.342151, -26.701427 26.338857, -26.714681 26.335563, -26.727934 26.332267, -26.741187 26.328970, -26.754439 26.325671, -26.767690 26.322372, -26.780940 26.319071, -26.794189 26.315769, -26.807438 26.312465, -26.820686 26.309161, -26.833933 26.305855, -26.847180 26.302548, -26.860425 26.299240, -26.873670 26.295931, -26.886915 26.292620, -26.900158 26.289309, -26.913401 26.285996, -26.926643 26.282682, -26.939884 26.279366, -26.953124 26.276050, -26.966364 26.272732, -26.979603 26.269413, -26.992841 26.266092, -27.006078 26.262771, -27.019315 26.259448, -27.032551 26.256124, -27.045786 26.252799, -27.059020 26.249473, -27.072254 26.246145, -27.085487 26.242817, -27.098719 26.239487, -27.111950 26.236155, -27.125181 26.232823, -27.138411 26.229489, -27.151640 26.226155, -27.164868 26.222819, -27.178095 26.219481, -27.191322 26.216143, -27.204548 26.212803, -27.217773 26.209462, -27.230998 26.206120, -27.244222 26.202777, -27.257445 26.199433, -27.270667 26.196087, -27.283888 26.192740, -27.297109 26.189392, -27.310329 26.186043, -27.323548 26.182692, -27.336767 26.179340, -27.349984 26.175987, -27.363201 26.172633, -27.376417 26.169278, -27.389633 26.165921, -27.402847 26.162563, -27.416061 26.159205, -27.429274 26.155844, -27.442487 26.152483, -27.455698 26.149120, -27.468909 26.145757, -27.482119 26.142392, -27.495328 26.139025, -27.508537 26.135658, -27.521745 26.132289, -27.534952 26.128919, -27.548158 26.125548, -27.561363 26.122176, -27.574568 26.118803, -27.587772 26.115428, -27.600975 26.112052, -27.614177 26.108675, -27.627379 26.105297, -27.640580 26.101918, -27.653780 26.098537, -27.666980 26.095155, -27.680178 26.091772, -27.693376 26.088388, -27.706573 26.085002, -27.719769 26.081616, -27.732965 26.078228, -27.746160 26.074839, -27.759354 26.071449, -27.772547 26.068057, -27.785740 26.064664, -27.798931 26.061271, -27.812122 26.057876, -27.825312 26.054479, -27.838502 26.051082, -27.851691 26.047683, -27.864878 26.044283, -27.878066 26.040882, -27.891252 26.037480, -27.904438 26.034077, -27.917622 26.030672, -27.930807 26.027266, -27.943990 26.023859, -27.957172 26.020451, -27.970354 26.017042, -27.983535 26.013631, -27.996715 26.010219, -28.009895 26.006806, -28.023074 26.003392, -28.036252 25.999977, -28.049429 25.996560, -28.062605 25.993142, -28.075781 25.989723, -28.088956 25.986303, -28.102130 25.982882, -28.115303 25.979459, -28.128476 25.976035, -28.141648 25.972611, -28.154819 25.969184, -28.167989 25.965757, -28.181159 25.962329, -28.194327 25.958899, -28.207495 25.955468, -28.220663 25.952036, -28.233829 25.948603, -28.246995 25.945168, -28.260160 25.941733, -28.273324 25.938296, -28.286487 25.934858, -28.299650 25.931418, -28.312812 25.927978, -28.325973 25.924536, -28.339133 25.921094, -28.352292 25.917650, -28.365451 25.914205, -28.378609 25.910758, -28.391766 25.907311, -28.404923 25.903862, -28.418079 25.900412, -28.431234 25.896961, -28.444388 25.893509, -28.457541 25.890055, -28.470694 25.886601, -28.483845 25.883145, -28.496997 25.879688, -28.510147 25.876229, -28.523296 25.872770, -28.536445 25.869309, -28.549593 25.865848, -28.562740 25.862385, -28.575887 25.858921, -28.589033 25.855455, -28.602177 25.851989, -28.615322 25.848521, -28.628465 25.845052, -28.641608 25.841582, -28.654749 25.838111, -28.667890 25.834638, -28.681031 25.831165, -28.694170 25.827690, -28.707309 25.824214, -28.720447 25.820737, -28.733584 25.817259, -28.746721 25.813779, -28.759856 25.810298, -28.772991 25.806817, -28.786125 25.803334, -28.799258 25.799849, -28.812391 25.796364, -28.825523 25.792877, -28.838654 25.789390, -28.851784 25.785901, -28.864914 25.782410, -28.878042 25.778919, -28.891170 25.775427, -28.904297 25.771933, -28.917424 25.768438, -28.930549 25.764942, -28.943674 25.761445, -28.956798 25.757947, -28.969922 25.754447, -28.983044 25.750946, -28.996166 25.747444, -29.009287 25.743941, -29.022407 25.740437, -29.035526 25.736932, -29.048645 25.733425, -29.061763 25.729917, -29.074880 25.726408, -29.087996 25.722898, -29.101112 25.719387, -29.114227 25.715875, -29.127341 25.712361, -29.140454 25.708846, -29.153566 25.705330, -29.166678 25.701813, -29.179789 25.698295, -29.192899 25.694775, -29.206008 25.691254, -29.219117 25.687733, -29.232225 25.684210, -29.245332 25.680685, -29.258438 25.677160, -29.271544 25.673633, -29.284648 25.670106, -29.297752 25.666577, -29.310855 25.663047, -29.323958 25.659516, -29.337059 25.655983, -29.350160 25.652450, -29.363260 25.648915, -29.376359 25.645379, -29.389458 25.641842, -29.402556 25.638304, -29.415653 25.634764, -29.428749 25.631224, -29.441844 25.627682, -29.454939 25.624139, -29.468033 25.620595, -29.481126 25.617050, -29.494218 25.613503, -29.507309 25.609956, -29.520400 25.606407, -29.533490 25.602857, -29.546579 25.599306, -29.559668 25.595754, -29.572755 25.592201, -29.585842 25.588646, -29.598928 25.585090, -29.612013 25.581533, -29.625098 25.577975, -29.638182 25.574416, -29.651265 25.570856, -29.664347 25.567294, -29.677428 25.563732, -29.690509 25.560168, -29.703589 25.556603, -29.716668 25.553037, -29.729746 25.549469, -29.742823 25.545901, -29.755900 25.542331, -29.768976 25.538760, -29.782051 25.535188, -29.795126 25.531615, -29.808199 25.528041, -29.821272 25.524465, -29.834344 25.520889, -29.847415 25.517311, -29.860486 25.513732, -29.873556 25.510152, -29.886624 25.506571, -29.899693 25.502988, -29.912760 25.499404, -29.925827 25.495820, -29.938892 25.492234, -29.951957 25.488647, -29.965022 25.485059, -29.978085 25.481469, -29.991148 25.477879, -30.004210 25.474287, -30.017271 25.470694, -30.030331 25.467100, -30.043391 25.463505, -30.056450 25.459909, -30.069508 25.456311, -30.082565 25.452713, -30.095621 25.449113, -30.108677 25.445512, -30.121732 25.441910, -30.134786 25.438307, -30.147839 25.434702, -30.160892 25.431097, -30.173944 25.427490, -30.186994 25.423882, -30.200045 25.420273, -30.213094 25.416663, -30.226143 25.413052, -30.239191 25.409439, -30.252238 25.405826, -30.265284 25.402211, -30.278329 25.398595, -30.291374 25.394978, -30.304418 25.391360, -30.317461 25.387740, -30.330504 25.384120, -30.343545 25.380498, -30.356586 25.376875, -30.369626 25.373251, -30.382665 25.369626, -30.395704 25.366000, -30.408741 25.362373, -30.421778 25.358744, -30.434815 25.355114, -30.447850 25.351483, -30.460884 25.347851, -30.473918 25.344218, -30.486951 25.340584, -30.499983 25.336949, -30.513015 25.333312, -30.526045 25.329674, -30.539075 25.326035, -30.552104 25.322395, -30.565133 25.318754, -30.578160 25.315112, -30.591187 25.311468, -30.604213 25.307824, -30.617238 25.304178, -30.630262 25.300531, -30.643286 25.296883, -30.656309 25.293234, -30.669331 25.289584, -30.682352 25.285932, -30.695372 25.282279, -30.708392 25.278626, -30.721411 25.274971, -30.734429 25.271315, -30.747446 25.267658, -30.760463 25.263999, -30.773479 25.260340, -30.786494 25.256679, -30.799508 25.253017, -30.812521 25.249355, -30.825534 25.245691, -30.838546 25.242025, -30.851557 25.238359, -30.864567 25.234692, -30.877576 25.231023, -30.890585 25.227353, -30.903593 25.223683, -30.916600 25.220011, -30.929606 25.216337, -30.942612 25.212663, -30.955617 25.208988, -30.968621 25.205311, -30.981624 25.201633, -30.994626 25.197955, -31.007628 25.194275, -31.020629 25.190594, -31.033629 25.186911, -31.046628 25.183228, -31.059626 25.179543, -31.072624 25.175858, -31.085621 25.172171, -31.098617 25.168483, -31.111612 25.164794, -31.124607 25.161104, -31.137601 25.157413, -31.150594 25.153720, -31.163586 25.150027, -31.176577 25.146332, -31.189568 25.142636, -31.202558 25.138939, -31.215547 25.135241, -31.228535 25.131542, -31.241522 25.127841, -31.254509 25.124140, -31.267495 25.120437, -31.280480 25.116733, -31.293464 25.113028, -31.306448 25.109322, -31.319431 25.105615, -31.332412 25.101907, -31.345394 25.098198, -31.358374 25.094487, -31.371354 25.090775, -31.384332 25.087063, -31.397310 25.083349, -31.410288 25.079634, -31.423264 25.075917, -31.436240 25.072200, -31.449215 25.068482, -31.462189 25.064762, -31.475162 25.061041, -31.488134 25.057319, -31.501106 25.053596, -31.514077 25.049872, -31.527047 25.046147, -31.540017 25.042421, -31.552985 25.038693, -31.565953 25.034965, -31.578920 25.031235, -31.591886 25.027504, -31.604851 25.023772, -31.617816 25.020039, -31.630780 25.016305, -31.643743 25.012570, -31.656705 25.008833, -31.669667 25.005096, -31.682627 25.001357, -31.695587 24.997617, -31.708546 24.993876, -31.721505 24.990134, -31.734462 24.986391, -31.747419 24.982646, -31.760375 24.978901, -31.773330 24.975154, -31.786284 24.971407, -31.799238 24.967658, -31.812191 24.963908, -31.825143 24.960157, -31.838094 24.956405, -31.851044 24.952652, -31.863994 24.948897, -31.876943 24.945142, -31.889891 24.941385, -31.902838 24.937627, -31.915784 24.933868, -31.928730 24.930108, -31.941675 24.926347, -31.954619 24.922585, -31.967562 24.918822, -31.980505 24.915057, -31.993446 24.911292, -32.006387 24.907525, -32.019328 24.903757, -32.032267 24.899988, -32.045205 24.896218, -32.058143 24.892447, -32.071080 24.888675, -32.084016 24.884901, -32.096952 24.881127, -32.109886 24.877351, -32.122820 24.873574, -32.135753 24.869796, -32.148685 24.866017, -32.161617 24.862237, -32.174548 24.858456, -32.187477 24.854674, -32.200407 24.850890, -32.213335 24.847106, -32.226262 24.843320, -32.239189 24.839534, -32.252115 24.835746, -32.265040 24.831957, -32.277964 24.828167, -32.290888 24.824375, -32.303811 24.820583, -32.316733 24.816790, -32.329654 24.812995, -32.342574 24.809199, -32.355494 24.805403, -32.368412 24.801605, -32.381330 24.797806, -32.394248 24.794006, -32.407164 24.790205, -32.420080 24.786402, -32.432995 24.782599, -32.445909 24.778794, -32.458822 24.774989, -32.471734 24.771182, -32.484646 24.767374, -32.497557 24.763565, -32.510467 24.759755, -32.523376 24.755944, -32.536285 24.752132, -32.549192 24.748318, -32.562099 24.744504, -32.575005 24.740688, -32.587911 24.736872, -32.600815 24.733054, -32.613719 24.729235, -32.626622 24.725415, -32.639524 24.721594, -32.652425 24.717772, -32.665326 24.713948, -32.678226 24.710124, -32.691125 24.706298, -32.704023 24.702472, -32.716920 24.698644, -32.729817 24.694815, -32.742713 24.690985, -32.755608 24.687154, -32.768502 24.683322, -32.781396 24.679489, -32.794288 24.675655, -32.807180 24.671819, -32.820071 24.667983, -32.832961 24.664145, -32.845851 24.660306, -32.858739 24.656466, -32.871627 24.652626, -32.884514 24.648784, -32.897401 24.644940, -32.910286 24.641096, -32.923171 24.637251, -32.936055 24.633404, -32.948938 24.629557, -32.961820 24.625708, -32.974702 24.621859, -32.987583 24.618008, -33.000463 24.614156, -33.013342 24.610303, -33.026220 24.606449, -33.039098 24.602594, -33.051974 24.598737, -33.064850 24.594880, -33.077726 24.591021, -33.090600 24.587162, -33.103474 24.583301, -33.116346 24.579439, -33.129219 24.575577, -33.142090 24.571713, -33.154960 24.567848, -33.167830 24.563981, -33.180699 24.560114, -33.193567 24.556246, -33.206434 24.552377, -33.219300 24.548506, -33.232166 24.544634, -33.245031 24.540762, -33.257895 24.536888, -33.270758 24.533013, -33.283621 24.529137, -33.296482 24.525260, -33.309343 24.521382, -33.322203 24.517503, -33.335063 24.513622, -33.347921 24.509741, -33.360779 24.505858, -33.373636 24.501975, -33.386492 24.498090, -33.399347 24.494204, -33.412202 24.490318, -33.425056 24.486430, -33.437909 24.482541, -33.450761 24.478650, -33.463612 24.474759, -33.476463 24.470867, -33.489313 24.466974, -33.502162 24.463079, -33.515010 24.459184, -33.527857 24.455287, -33.540704 24.451389, -33.553550 24.447490, -33.566395 24.443590, -33.579239 24.439690, -33.592082 24.435787, -33.604925 24.431884, -33.617767 24.427980, -33.630608 24.424075, -33.643448 24.420168, -33.656287 24.416261, -33.669126 24.412352, -33.681964 24.408443, -33.694801 24.404532, -33.707637 24.400620, -33.720473 24.396707, -33.733307 24.392793, -33.746141 24.388878, -33.758974 24.384962, -33.771807 24.381045, -33.784638 24.377127, -33.797469 24.373207, -33.810299 24.369287, -33.823128 24.365365, -33.835956 24.361443, -33.848784 24.357519, -33.861610 24.353594, -33.874436 24.349668, -33.887261 24.345741, -33.900086 24.341813, -33.912909 24.337884, -33.925732 24.333954, -33.938554 24.330023, -33.951375 24.326090, -33.964195 24.322157, -33.977015 24.318223, -33.989834 24.314287, -34.002652 24.310350, -34.015469 24.306413, -34.028285 24.302474, -34.041101 24.298534, -34.053916 24.294593, -34.066730 24.290651, -34.079543 24.286708, -34.092355 24.282764, -34.105167 24.278819, -34.117978 24.274872, -34.130788 24.270925, -34.143597 24.266977, -34.156405 24.263027, -34.169213 24.259076, -34.182020 24.255125, -34.194826 24.251172, -34.207631 24.247218, -34.220435 24.243263, -34.233239 24.239307, -34.246042 24.235350, -34.258844 24.231392, -34.271645 24.227433, -34.284446 24.223473, -34.297245 24.219512, -34.310044 24.215549, -34.322842 24.211586, -34.335640 24.207621, -34.348436 24.203656, -34.361232 24.199689, -34.374027 24.195721, -34.386821 24.191753, -34.399614 24.187783, -34.412406 24.183812, -34.425198 24.179840, -34.437989 24.175867, -34.450779 24.171893, -34.463568 24.167917, -34.476357 24.163941, -34.489145 24.159964, -34.501932 24.155986, -34.514718 24.152006, -34.527503 24.148026, -34.540288 24.144044, -34.553071 24.140061, -34.565854 24.136078, -34.578636 24.132093, -34.591418 24.128107, -34.604198 24.124120, -34.616978 24.120132, -34.629757 24.116143, -34.642535 24.112153, -34.655312 24.108162, -34.668089 24.104170, -34.680865 24.100176, -34.693640 24.096182, -34.706414 24.092187, -34.719187 24.088190, -34.731960 24.084193, -34.744732 24.080194, -34.757503 24.076194, -34.770273 24.072194, -34.783042 24.068192, -34.795811 24.064189, -34.808579 24.060185, -34.821346 24.056180, -34.834112 24.052174, -34.846877 24.048167, -34.859642 24.044159, -34.872406 24.040150, -34.885169 24.036140, -34.897931 24.032128, -34.910692 24.028116, -34.923453 24.024103, -34.936213 24.020088, -34.948972 24.016073, -34.961730 24.012056, -34.974488 24.008038, -34.987244 24.004020, -35.000000 24.000000, -35.013082 23.996958, -35.026163 23.993915, -35.039243 23.990871, -35.052323 23.987826, -35.065402 23.984779, -35.078481 23.981732, -35.091558 23.978683, -35.104636 23.975633, -35.117712 23.972583, -35.130789 23.969531, -35.143864 23.966478, -35.156939 23.963424, -35.170013 23.960368, -35.183087 23.957312, -35.196160 23.954255, -35.209232 23.951196, -35.222304 23.948136, -35.235375 23.945076, -35.248445 23.942014, -35.261515 23.938951, -35.274584 23.935887, -35.287653 23.932821, -35.300721 23.929755, -35.313788 23.926688, -35.326855 23.923619, -35.339921 23.920550, -35.352987 23.917479, -35.366052 23.914407, -35.379116 23.911334, -35.392180 23.908260, -35.405243 23.905185, -35.418305 23.902109, -35.431367 23.899031, -35.444428 23.895953, -35.457489 23.892873, -35.470549 23.889793, -35.483608 23.886711, -35.496667 23.883628, -35.509725 23.880544, -35.522782 23.877459, -35.535839 23.874373, -35.548895 23.871286, -35.561951 23.868197, -35.575006 23.865108, -35.588060 23.862017, -35.601114 23.858926, -35.614167 23.855833, -35.627219 23.852739, -35.640271 23.849644, -35.653322 23.846548, -35.666373 23.843451, -35.679423 23.840353, -35.692472 23.837253, -35.705521 23.834153, -35.718569 23.831051, -35.731616 23.827949, -35.744663 23.824845, -35.757709 23.821740, -35.770755 23.818634, -35.783800 23.815527, -35.796844 23.812419, -35.809888 23.809310, -35.822931 23.806199, -35.835974 23.803088, -35.849016 23.799975, -35.862057 23.796862, -35.875097 23.793747, -35.888137 23.790631, -35.901177 23.787514, -35.914215 23.784396, -35.927253 23.781277, -35.940291 23.778157, -35.953328 23.775036, -35.966364 23.771913, -35.979400 23.768790, -35.992435 23.765665, -36.005469 23.762540, -36.018503 23.759413, -36.031536 23.756285, -36.044568 23.753156, -36.057600 23.750026, -36.070631 23.746895, -36.083662 23.743763, -36.096692 23.740629, -36.109721 23.737495, -36.122750 23.734359, -36.135778 23.731223, -36.148805 23.728085, -36.161832 23.724946, -36.174858 23.721807, -36.187884 23.718666, -36.200909 23.715524, -36.213933 23.712380, -36.226957 23.709236, -36.239980 23.706091, -36.253002 23.702944, -36.266024 23.699797, -36.279045 23.696648, -36.292066 23.693499, -36.305086 23.690348, -36.318105 23.687196, -36.331124 23.684043, -36.344142 23.680889, -36.357159 23.677734, -36.370176 23.674578, -36.383192 23.671421, -36.396207 23.668262, -36.409222 23.665103, -36.422237 23.661942, -36.435250 23.658781, -36.448263 23.655618, -36.461276 23.652454, -36.474287 23.649289, -36.487298 23.646123, -36.500309 23.642956, -36.513319 23.639788, -36.526328 23.636619, -36.539337 23.633448, -36.552345 23.630277, -36.565352 23.627104, -36.578359 23.623931, -36.591365 23.620756, -36.604370 23.617580, -36.617375 23.614404, -36.630379 23.611226, -36.643383 23.608047, -36.656385 23.604867, -36.669388 23.601686, -36.682389 23.598503, -36.695390 23.595320, -36.708391 23.592136, -36.721391 23.588950, -36.734390 23.585763, -36.747388 23.582576, -36.760386 23.579387, -36.773383 23.576197, -36.786380 23.573006, -36.799376 23.569814, -36.812371 23.566621, -36.825366 23.563427, -36.838360 23.560232, -36.851353 23.557036, -36.864346 23.553838, -36.877338 23.550640, -36.890330 23.547440, -36.903321 23.544240, -36.916311 23.541038, -36.929301 23.537835, -36.942290 23.534631, -36.955278 23.531427, -36.968266 23.528221, -36.981253 23.525013, -36.994240 23.521805, -37.007225 23.518596, -37.020211 23.515386, -37.033195 23.512174, -37.046179 23.508962, -37.059162 23.505748, -37.072145 23.502534, -37.085127 23.499318, -37.098109 23.496101, -37.111089 23.492883, -37.124070 23.489665, -37.137049 23.486445, -37.150028 23.483224, -37.163006 23.480001, -37.175984 23.476778, -37.188961 23.473554, -37.201937 23.470329, -37.214913 23.467102, -37.227888 23.463875, -37.240862 23.460646, -37.253836 23.457416, -37.266809 23.454186, -37.279782 23.450954, -37.292754 23.447721, -37.305725 23.444487, -37.318696 23.441252, -37.331666 23.438016, -37.344635 23.434779, -37.357604 23.431540, -37.370572 23.428301, -37.383539 23.425061, -37.396506 23.421819, -37.409472 23.418577, -37.422438 23.415333, -37.435403 23.412089, -37.448367 23.408843, -37.461331 23.405596, -37.474294 23.402348, -37.487256 23.399099, -37.500218 23.395849, -37.513179 23.392598, -37.526139 23.389346, -37.539099 23.386093, -37.552058 23.382839, -37.565017 23.379583, -37.577975 23.376327, -37.590932 23.373069, -37.603889 23.369811, -37.616845 23.366551, -37.629800 23.363291, -37.642755 23.360029, -37.655709 23.356766, -37.668662 23.353502, -37.681615 23.350237, -37.694567 23.346971, -37.707519 23.343704, -37.720470 23.340436, -37.733420 23.337167, -37.746370 23.333897, -37.759319 23.330625, -37.772267 23.327353, -37.785215 23.324079, -37.798162 23.320805, -37.811108 23.317529, -37.824054 23.314253, -37.836999 23.310975, -37.849944 23.307696, -37.862888 23.304416, -37.875831 23.301135, -37.888773 23.297853, -37.901715 23.294570, -37.914657 23.291286, -37.927597 23.288001, -37.940538 23.284715, -37.953477 23.281428, -37.966416 23.278139, -37.979354 23.274850, -37.992291 23.271560, -38.005228 23.268268, -38.018164 23.264975, -38.031100 23.261682, -38.044035 23.258387, -38.056969 23.255091, -38.069903 23.251795, -38.082836 23.248497, -38.095768 23.245198, -38.108700 23.241898, -38.121631 23.238597, -38.134562 23.235295, -38.147491 23.231991, -38.160421 23.228687, -38.173349 23.225382, -38.186277 23.222076, -38.199204 23.218768, -38.212131 23.215460, -38.225057 23.212150, -38.237982 23.208840, -38.250907 23.205528, -38.263831 23.202216, -38.276754 23.198902, -38.289677 23.195587, -38.302599 23.192271, -38.315521 23.188954, -38.328442 23.185636, -38.341362 23.182317, -38.354282 23.178997, -38.367200 23.175676, -38.380119 23.172354, -38.393036 23.169031, -38.405953 23.165707, -38.418870 23.162381, -38.431785 23.159055, -38.444701 23.155727, -38.457615 23.152399, -38.470529 23.149069, -38.483442 23.145739, -38.496354 23.142407, -38.509266 23.139074, -38.522178 23.135741, -38.535088 23.132406, -38.547998 23.129070, -38.560907 23.125733, -38.573816 23.122395, -38.586724 23.119056, -38.599632 23.115716, -38.612538 23.112375, -38.625444 23.109033, -38.638350 23.105690, -38.651255 23.102346, -38.664159 23.099000, -38.677062 23.095654, -38.689965 23.092307, -38.702867 23.088958, -38.715769 23.085609, -38.728670 23.082258, -38.741570 23.078907, -38.754470 23.075554, -38.767369 23.072200, -38.780267 23.068846, -38.793165 23.065490, -38.806062 23.062133, -38.818959 23.058775, -38.831854 23.055416, -38.844750 23.052056, -38.857644 23.048695, -38.870538 23.045333, -38.883431 23.041970, -38.896324 23.038606, -38.909216 23.035241, -38.922107 23.031875, -38.934998 23.028507, -38.947888 23.025139, -38.960777 23.021770, -38.973666 23.018399, -38.986554 23.015028, -38.999441 23.011655, -39.012328 23.008282, -39.025214 23.004907, -39.038100 23.001532, -39.050985 22.998155, -39.063869 22.994777, -39.076752 22.991398, -39.089635 22.988019, -39.102518 22.984638, -39.115399 22.981256, -39.128280 22.977873, -39.141161 22.974489, -39.154040 22.971104, -39.166919 22.967718, -39.179798 22.964331, -39.192675 22.960943, -39.205553 22.957554, -39.218429 22.954164, -39.231305 22.950772, -39.244180 22.947380, -39.257055 22.943987, -39.269928 22.940593, -39.282802 22.937197, -39.295674 22.933801, -39.308546 22.930403, -39.321418 22.927005, -39.334288 22.923605, -39.347158 22.920205, -39.360028 22.916803, -39.372896 22.913400, -39.385764 22.909997, -39.398632 22.906592, -39.411499 22.903186, -39.424365 22.899780, -39.437230 22.896372, -39.450095 22.892963, -39.462959 22.889553, -39.475823 22.886142, -39.488686 22.882730, -39.501548 22.879317, -39.514410 22.875903, -39.527271 22.872488, -39.540131 22.869072, -39.552991 22.865655, -39.565850 22.862237, -39.578708 22.858817, -39.591566 22.855397, -39.604423 22.851976, -39.617279 22.848554, -39.630135 22.845130, -39.642990 22.841706, -39.655845 22.838281, -39.668698 22.834854, -39.681552 22.831427, -39.694404 22.827998, -39.707256 22.824569, -39.720107 22.821138, -39.732958 22.817707, -39.745808 22.814274, -39.758657 22.810840, -39.771506 22.807406, -39.784354 22.803970, -39.797201 22.800533, -39.810048 22.797095, -39.822894 22.793657, -39.835740 22.790217, -39.848584 22.786776, -39.861428 22.783334, -39.874272 22.779891, -39.887115 22.776447, -39.899957 22.773002, -39.912798 22.769556, -39.925639 22.766109, -39.938480 22.762661, -39.951319 22.759212, -39.964158 22.755762, -39.976996 22.752311, -39.989834 22.748859, -40.002671 22.745406, -40.015507 22.741952, -40.028343 22.738496, -40.041178 22.735040, -40.054013 22.731583, -40.066846 22.728125, -40.079679 22.724665, -40.092512 22.721205, -40.105344 22.717744, -40.118175 22.714281, -40.131005 22.710818, -40.143835 22.707353, -40.156664 22.703888, -40.169493 22.700421, -40.182321 22.696954, -40.195148 22.693485, -40.207975 22.690016, -40.220801 22.686545, -40.233626 22.683074, -40.246451 22.679601, -40.259275 22.676128, -40.272098 22.672653, -40.284921 22.669177, -40.297743 22.665701, -40.310564 22.662223, -40.323385 22.658744, -40.336205 22.655264, -40.349024 22.651784, -40.361843 22.648302, -40.374661 22.644819, -40.387479 22.641335, -40.400296 22.637850, -40.413112 22.634364, -40.425928 22.630878, -40.438743 22.627390, -40.451557 22.623901, -40.464370 22.620411, -40.477183 22.616920, -40.489996 22.613428, -40.502807 22.609935, -40.515618 22.606441, -40.528429 22.602946, -40.541238 22.599450, -40.554047 22.595953, -40.566856 22.592455, -40.579664 22.588956, -40.592471 22.585455, -40.605277 22.581954, -40.618083 22.578452, -40.630888 22.574949, -40.643693 22.571445, -40.656496 22.567940, -40.669300 22.564434, -40.682102 22.560926, -40.694904 22.557418, -40.707705 22.553909, -40.720506 22.550399, -40.733306 22.546887, -40.746105 22.543375, -40.758904 22.539862, -40.771702 22.536348, -40.784499 22.532832, -40.797296 22.529316, -40.810092 22.525799, -40.822887 22.522280, -40.835682 22.518761, -40.848476 22.515241, -40.861269 22.511719, -40.874062 22.508197, -40.886854 22.504673, -40.899646 22.501149, -40.912437 22.497624, -40.925227 22.494097, -40.938016 22.490570, -40.950805 22.487041, -40.963593 22.483512, -40.976381 22.479981, -40.989168 22.476450, -41.001954 22.472917, -41.014740 22.469384, -41.027525 22.465850, -41.040309 22.462314, -41.053092 22.458778, -41.065875 22.455240, -41.078658 22.451701, -41.091439 22.448162, -41.104220 22.444621, -41.117001 22.441080, -41.129781 22.437537, -41.142560 22.433994, -41.155338 22.430449, -41.168116 22.426904, -41.180893 22.423357, -41.193669 22.419810, -41.206445 22.416261, -41.219220 22.412711, -41.231995 22.409161, -41.244769 22.405609, -41.257542 22.402057, -41.270314 22.398503, -41.283086 22.394949, -41.295858 22.391393, -41.308628 22.387836, -41.321398 22.384279, -41.334167 22.380720, -41.346936 22.377161, -41.359704 22.373600, -41.372471 22.370038, -41.385238 22.366476, -41.398004 22.362912, -41.410769 22.359347, -41.423534 22.355782, -41.436298 22.352215, -41.449062 22.348648, -41.461824 22.345079, -41.474586 22.341509, -41.487348 22.337939, -41.500109 22.334367, -41.512869 22.330795, -41.525628 22.327221, -41.538387 22.323646, -41.551145 22.320071, -41.563903 22.316494, -41.576660 22.312917, -41.589416 22.309338, -41.602171 22.305758, -41.614926 22.302178, -41.627680 22.298596, -41.640434 22.295014, -41.653187 22.291430, -41.665939 22.287845, -41.678691 22.284260, -41.691442 22.280673, -41.704192 22.277086, -41.716942 22.273497, -41.729691 22.269908, -41.742439 22.266317, -41.755187 22.262726, -41.767934 22.259133, -41.780680 22.255540, -41.793426 22.251945, -41.806171 22.248349, -41.818916 22.244753, -41.831659 22.241155, -41.844403 22.237557, -41.857145 22.233957, -41.869887 22.230357, -41.882628 22.226755, -41.895368 22.223153, -41.908108 22.219550, -41.920848 22.215945, -41.933586 22.212340, -41.946324 22.208733, -41.959061 22.205126, -41.971798 22.201517, -41.984534 22.197908, -41.997269 22.194298, -42.010004 22.190686, -42.022738 22.187074, -42.035471 22.183460, -42.048203 22.179846, -42.060935 22.176231, -42.073667 22.172614, -42.086397 22.168997, -42.099128 22.165379, -42.111857 22.161759, -42.124586 22.158139, -42.137314 22.154518, -42.150041 22.150896, -42.162768 22.147272, -42.175494 22.143648, -42.188219 22.140023, -42.200944 22.136397, -42.213668 22.132770, -42.226392 22.129141, -42.239115 22.125512, -42.251837 22.121882, -42.264558 22.118251, -42.277279 22.114619, -42.289999 22.110986, -42.302719 22.107352, -42.315438 22.103716, -42.328156 22.100080, -42.340874 22.096443, -42.353590 22.092805, -42.366307 22.089166, -42.379022 22.085526, -42.391737 22.081885, -42.404452 22.078243, -42.417165 22.074600, -42.429878 22.070957, -42.442591 22.067312, -42.455302 22.063666, -42.468013 22.060019, -42.480724 22.056371, -42.493433 22.052722, -42.506142 22.049072, -42.518851 22.045422, -42.531559 22.041770, -42.544266 22.038117, -42.556972 22.034463, -42.569678 22.030809, -42.582383 22.027153, -42.595087 22.023496, -42.607791 22.019838, -42.620494 22.016180, -42.633197 22.012520, -42.645899 22.008860, -42.658600 22.005198, -42.671300 22.001535, -42.684000 21.997872, -42.696699 21.994207, -42.709398 21.990542, -42.722096 21.986876, -42.734793 21.983208, -42.747490 21.979540, -42.760186 21.975870, -42.772881 21.972200, -42.785576 21.968529, -42.798269 21.964856, -42.810963 21.961183, -42.823655 21.957509, -42.836347 21.953833, -42.849039 21.950157, -42.861729 21.946480, -42.874419 21.942802, -42.887109 21.939123, -42.899798 21.935443, -42.912486 21.931761, -42.925173 21.928079, -42.937860 21.924396, -42.950546 21.920712, -42.963231 21.917027, -42.975916 21.913341, -42.988600 21.909654, -43.001284 21.905967, -43.013966 21.902278, -43.026649 21.898588, -43.039330 21.894897, -43.052011 21.891205, -43.064691 21.887513, -43.077371 21.883819, -43.090049 21.880124, -43.102728 21.876428, -43.115405 21.872732, -43.128082 21.869034, -43.140758 21.865336, -43.153434 21.861636, -43.166109 21.857936, -43.178783 21.854234, -43.191457 21.850532, -43.204130 21.846828, -43.216802 21.843124, -43.229474 21.839418, -43.242145 21.835712, -43.254815 21.832005, -43.267485 21.828297, -43.280154 21.824587, -43.292822 21.820877, -43.305490 21.817166, -43.318157 21.813454, -43.330823 21.809741, -43.343489 21.806027, -43.356154 21.802312, -43.368818 21.798596, -43.381482 21.794879, -43.394145 21.791161, -43.406807 21.787442, -43.419469 21.783722, -43.432130 21.780001, -43.444791 21.776279, -43.457451 21.772557, -43.470110 21.768833, -43.482768 21.765108, -43.495426 21.761383, -43.508083 21.757656, -43.520740 21.753929, -43.533396 21.750200, -43.546051 21.746471, -43.558705 21.742740, -43.571359 21.739009, -43.584013 21.735276, -43.596665 21.731543, -43.609317 21.727809, -43.621968 21.724074, -43.634619 21.720337, -43.647269 21.716600, -43.659918 21.712862, -43.672567 21.709123, -43.685215 21.705383, -43.697862 21.701642, -43.710509 21.697900, -43.723155 21.694157, -43.735800 21.690413, -43.748445 21.686668, -43.761089 21.682922, -43.773732 21.679176, -43.786375 21.675428, -43.799017 21.671679, -43.811658 21.667930, -43.824299 21.664179, -43.836939 21.660428, -43.849579 21.656675, -43.862218 21.652922, -43.874856 21.649167, -43.887493 21.645412, -43.900130 21.641655, -43.912766 21.637898, -43.925402 21.634140, -43.938036 21.630381, -43.950671 21.626621, -43.963304 21.622860, -43.975937 21.619097, -43.988569 21.615334, -44.001201 21.611570, -44.013832 21.607806, -44.026462 21.604040, -44.039091 21.600273, -44.051720 21.596505, -44.064349 21.592736, -44.076976 21.588967, -44.089603 21.585196, -44.102229 21.581424, -44.114855 21.577652, -44.127480 21.573878, -44.140104 21.570104, -44.152728 21.566329, -44.165351 21.562552, -44.177973 21.558775, -44.190595 21.554997, -44.203216 21.551218, -44.215836 21.547437, -44.228456 21.543656, -44.241075 21.539874, -44.253693 21.536091, -44.266311 21.532307, -44.278928 21.528523, -44.291545 21.524737, -44.304160 21.520950, -44.316776 21.517162, -44.329390 21.513373, -44.342004 21.509584, -44.354617 21.505793, -44.367229 21.502002, -44.379841 21.498209, -44.392452 21.494416, -44.405063 21.490622, -44.417673 21.486826, -44.430282 21.483030, -44.442890 21.479233, -44.455498 21.475435, -44.468105 21.471636, -44.480712 21.467836, -44.493318 21.464035, -44.505923 21.460233, -44.518528 21.456430, -44.531132 21.452626, -44.543735 21.448821, -44.556338 21.445016, -44.568939 21.441209, -44.581541 21.437401, -44.594141 21.433593, -44.606741 21.429783, -44.619341 21.425973, -44.631939 21.422162, -44.644537 21.418349, -44.657135 21.414536, -44.669731 21.410722, -44.682327 21.406907, -44.694923 21.403091, -44.707517 21.399274, -44.720112 21.395456, -44.732705 21.391637, -44.745298 21.387817, -44.757890 21.383996, -44.770481 21.380175, -44.783072 21.376352, -44.795662 21.372528, -44.808252 21.368704, -44.820840 21.364878, -44.833428 21.361052, -44.846016 21.357225, -44.858603 21.353396, -44.871189 21.349567, -44.883774 21.345737, -44.896359 21.341906, -44.908943 21.338074, -44.921527 21.334241, -44.934110 21.330407, -44.946692 21.326572, -44.959274 21.322736, -44.971855 21.318900, -44.984435 21.315062, -44.997014 21.311224, -45.009593 21.307384, -45.022172 21.303544, -45.034749 21.299702, -45.047326 21.295860, -45.059902 21.292017, -45.072478 21.288173, -45.085053 21.284327, -45.097627 21.280481, -45.110201 21.276634, -45.122774 21.272786, -45.135346 21.268938, -45.147918 21.265088, -45.160489 21.261237, -45.173060 21.257385, -45.185629 21.253533, -45.198198 21.249679, -45.210767 21.245825, -45.223335 21.241970, -45.235902 21.238113, -45.248468 21.234256, -45.261034 21.230398, -45.273599 21.226539, -45.286163 21.222679, -45.298727 21.218818, -45.311290 21.214956, -45.323853 21.211093, -45.336415 21.207229, -45.348976 21.203365, -45.361536 21.199499, -45.374096 21.195633, -45.386656 21.191765, -45.399214 21.187897, -45.411772 21.184028, -45.424329 21.180157, -45.436886 21.176286, -45.449442 21.172414, -45.461997 21.168541, -45.474552 21.164667, -45.487105 21.160792, -45.499659 21.156916, -45.512211 21.153040, -45.524763 21.149162, -45.537315 21.145284, -45.549865 21.141404, -45.562415 21.137524, -45.574965 21.133642, -45.587513 21.129760, -45.600061 21.125877, -45.612609 21.121993, -45.625155 21.118108, -45.637702 21.114222, -45.650247 21.110335, -45.662792 21.106447, -45.675336 21.102558, -45.687879 21.098669, -45.700422 21.094778, -45.712964 21.090887, -45.725506 21.086994, -45.738046 21.083101, -45.750587 21.079207, -45.763126 21.075311, -45.775665 21.071415, -45.788203 21.067518, -45.800741 21.063620, -45.813277 21.059721, -45.825814 21.055822, -45.838349 21.051921, -45.850884 21.048019, -45.863418 21.044117, -45.875952 21.040213, -45.888485 21.036309, -45.901017 21.032404, -45.913549 21.028497, -45.926080 21.024590, -45.938610 21.020682, -45.951139 21.016773, -45.963668 21.012863, -45.976197 21.008953, -45.988724 21.005041, -46.001251 21.001128, -46.013778 20.997215, -46.026303 20.993300, -46.038828 20.989385, -46.051353 20.985468, -46.063877 20.981551, -46.076400 20.977633, -46.088922 20.973714, -46.101444 20.969794, -46.113965 20.965873, -46.126485 20.961951, -46.139005 20.958029, -46.151524 20.954105, -46.164043 20.950181, -46.176561 20.946255, -46.189078 20.942329, -46.201594 20.938402, -46.214110 20.934473, -46.226625 20.930544, -46.239140 20.926614, -46.251654 20.922683, -46.264167 20.918751, -46.276679 20.914819, -46.289191 20.910885, -46.301702 20.906951, -46.314213 20.903015, -46.326723 20.899079, -46.339232 20.895141, -46.351741 20.891203, -46.364249 20.887264, -46.376756 20.883324, -46.389263 20.879383, -46.401769 20.875441, -46.414274 20.871498, -46.426779 20.867555, -46.439283 20.863610, -46.451786 20.859665, -46.464289 20.855718, -46.476791 20.851771, -46.489292 20.847823, -46.501793 20.843874, -46.514293 20.839924, -46.526793 20.835973, -46.539291 20.832021, -46.551790 20.828068, -46.564287 20.824115, -46.576784 20.820160, -46.589280 20.816205, -46.601775 20.812248, -46.614270 20.808291, -46.626764 20.804333, -46.639258 20.800374, -46.651751 20.796414, -46.664243 20.792453, -46.676735 20.788491, -46.689226 20.784528, -46.701716 20.780565, -46.714205 20.776600, -46.726694 20.772635, -46.739183 20.768669, -46.751670 20.764702, -46.764157 20.760733, -46.776643 20.756764, -46.789129 20.752794, -46.801614 20.748824, -46.814098 20.744852, -46.826582 20.740879, -46.839065 20.736906, -46.851548 20.732931, -46.864029 20.728956, -46.876510 20.724980, -46.888991 20.721003, -46.901471 20.717025, -46.913950 20.713046, -46.926428 20.709066, -46.938906 20.705085, -46.951383 20.701104, -46.963860 20.697121, -46.976335 20.693138, -46.988810 20.689154, -47.001285 20.685168, -47.013759 20.681182, -47.026232 20.677195, -47.038705 20.673207, -47.051177 20.669219, -47.063648 20.665229, -47.076118 20.661238, -47.088588 20.657247, -47.101058 20.653254, -47.113526 20.649261, -47.125994 20.645267, -47.138461 20.641272, -47.150928 20.637276, -47.163394 20.633279, -47.175859 20.629281, -47.188324 20.625283, -47.200788 20.621283, -47.213251 20.617283, -47.225714 20.613282, -47.238176 20.609279, -47.250638 20.605276, -47.263098 20.601272, -47.275559 20.597267, -47.288018 20.593262, -47.300477 20.589255, -47.312935 20.585247, -47.325392 20.581239, -47.337849 20.577229, -47.350305 20.573219, -47.362761 20.569208, -47.375216 20.565196, -47.387670 20.561183, -47.400124 20.557169, -47.412576 20.553155, -47.425029 20.549139, -47.437480 20.545123, -47.449931 20.541105, -47.462382 20.537087, -47.474831 20.533068, -47.487280 20.529048, -47.499728 20.525027, -47.512176 20.521005, -47.524623 20.516982, -47.537070 20.512959, -47.549515 20.508934, -47.561960 20.504909, -47.574405 20.500883, -47.586848 20.496856, -47.599292 20.492828, -47.611734 20.488799, -47.624176 20.484769, -47.636617 20.480738, -47.649057 20.476707, -47.661497 20.472674, -47.673936 20.468641, -47.686375 20.464607, -47.698813 20.460572, -47.711250 20.456536, -47.723686 20.452499, -47.736122 20.448461, -47.748558 20.444422, -47.760992 20.440383, -47.773426 20.436343, -47.785859 20.432301, -47.798292 20.428259, -47.810724 20.424216, -47.823155 20.420172, -47.835586 20.416127, -47.848016 20.412082, -47.860445 20.408035, -47.872874 20.403988, -47.885302 20.399939, -47.897730 20.395890, -47.910156 20.391840, -47.922582 20.387789, -47.935008 20.383737, -47.947433 20.379684, -47.959857 20.375631, -47.972280 20.371576, -47.984703 20.367521, -47.997125 20.363465, -48.009547 20.359408, -48.021968 20.355350, -48.034388 20.351291, -48.046808 20.347231, -48.059226 20.343170, -48.071645 20.339109, -48.084062 20.335046, -48.096479 20.330983, -48.108896 20.326919, -48.121311 20.322854, -48.133726 20.318788, -48.146141 20.314721, -48.158554 20.310654, -48.170967 20.306585, -48.183380 20.302516, -48.195791 20.298445, -48.208203 20.294374, -48.220613 20.290302, -48.233023 20.286229, -48.245432 20.282156, -48.257840 20.278081, -48.270248 20.274005, -48.282655 20.269929, -48.295062 20.265852, -48.307468 20.261774, -48.319873 20.257695, -48.332278 20.253615, -48.344681 20.249534, -48.357085 20.245452, -48.369487 20.241370, -48.381889 20.237286, -48.394291 20.233202, -48.406691 20.229117, -48.419091 20.225031, -48.431491 20.220944, -48.443889 20.216856, -48.456287 20.212768, -48.468685 20.208678, -48.481081 20.204588, -48.493478 20.200497, -48.505873 20.196405, -48.518268 20.192312, -48.530662 20.188218, -48.543055 20.184123, -48.555448 20.180028, -48.567840 20.175931, -48.580232 20.171834, -48.592623 20.167736, -48.605013 20.163637, -48.617403 20.159537, -48.629792 20.155436, -48.642180 20.151335, -48.654567 20.147232, -48.666954 20.143129, -48.679341 20.139025, -48.691726 20.134919, -48.704111 20.130813, -48.716496 20.126707, -48.728880 20.122599, -48.741263 20.118490, -48.753645 20.114381, -48.766027 20.110271, -48.778408 20.106160, -48.790788 20.102048, -48.803168 20.097935, -48.815547 20.093821, -48.827926 20.089706, -48.840304 20.085591, -48.852681 20.081475, -48.865058 20.077357, -48.877434 20.073239, -48.889809 20.069121, -48.902183 20.065001, -48.914557 20.060880, -48.926931 20.056759, -48.939303 20.052636, -48.951675 20.048513, -48.964047 20.044389, -48.976417 20.040264, -48.988788 20.036138, -49.001157 20.032012, -49.013526 20.027884, -49.025894 20.023756, -49.038261 20.019627, -49.050628 20.015497, -49.062994 20.011366, -49.075360 20.007234, -49.087725 20.003101, -49.100089 19.998968, -49.112453 19.994833, -49.124815 19.990698, -49.137178 19.986562, -49.149539 19.982425, -49.161900 19.978287, -49.174261 19.974149, -49.186620 19.970009, -49.198979 19.965869, -49.211338 19.961727, -49.223695 19.957585, -49.236053 19.953442, -49.248409 19.949299, -49.260765 19.945154, -49.273120 19.941009, -49.285474 19.936862, -49.297828 19.932715, -49.310181 19.928567, -49.322534 19.924418, -49.334886 19.920268, -49.347237 19.916118, -49.359588 19.911966, -49.371938 19.907814, -49.384287 19.903661, -49.396636 19.899507, -49.408984 19.895352, -49.421331 19.891196, -49.433678 19.887039, -49.446024 19.882882, -49.458369 19.878724, -49.470714 19.874565, -49.483058 19.870405, -49.495401 19.866244, -49.507744 19.862082, -49.520086 19.857920, -49.532428 19.853756, -49.544769 19.849592, -49.557109 19.845427, -49.569449 19.841261, -49.581788 19.837094, -49.594126 19.832926, -49.606464 19.828758, -49.618801 19.824589, -49.631137 19.820419, -49.643473 19.816248, -49.655808 19.812076, -49.668142 19.807903, -49.680476 19.803729, -49.692809 19.799555, -49.705141 19.795380, -49.717473 19.791204, -49.729804 19.787027, -49.742135 19.782849, -49.754465 19.778670, -49.766794 19.774491, -49.779122 19.770310, -49.791450 19.766129, -49.803778 19.761947, -49.816104 19.757764, -49.828430 19.753581, -49.840756 19.749396, -49.853080 19.745211, -49.865404 19.741025, -49.877728 19.736838, -49.890051 19.732650, -49.902373 19.728461, -49.914694 19.724271, -49.927015 19.720081, -49.939335 19.715890, -49.951655 19.711697, -49.963974 19.707504, -49.976292 19.703311, -49.988609 19.699116, -50.000926 19.694921, -50.013243 19.690724, -50.025558 19.686527, -50.037873 19.682329, -50.050188 19.678130, -50.062501 19.673931, -50.074815 19.669730, -50.087127 19.665529, -50.099439 19.661326, -50.111750 19.657123, -50.124060 19.652920, -50.136370 19.648715, -50.148679 19.644509, -50.160988 19.640303, -50.173296 19.636096, -50.185603 19.631888, -50.197910 19.627679, -50.210216 19.623469, -50.222521 19.619258, -50.234826 19.615047, -50.247130 19.610835, -50.259433 19.606622, -50.271736 19.602408, -50.284038 19.598193, -50.296340 19.593977, -50.308640 19.589761, -50.320941 19.585544, -50.333240 19.581326, -50.345539 19.577107, -50.357837 19.572887, -50.370135 19.568666, -50.382432 19.564445, -50.394728 19.560223, -50.407024 19.556000, -50.419319 19.551776, -50.431613 19.547551, -50.443907 19.543325, -50.456200 19.539099, -50.468492 19.534872, -50.480784 19.530644, -50.493075 19.526415, -50.505366 19.522185, -50.517656 19.517955, -50.529945 19.513723, -50.542234 19.509491, -50.554522 19.505258, -50.566809 19.501024, -50.579095 19.496789, -50.591382 19.492554, -50.603667 19.488317, -50.615952 19.484080, -50.628236 19.479842, -50.640519 19.475603, -50.652802 19.471364, -50.665084 19.467123, -50.677366 19.462882, -50.689646 19.458640, -50.701927 19.454397, -50.714206 19.450153, -50.726485 19.445908, -50.738764 19.441663, -50.751041 19.437416, -50.763318 19.433169, -50.775595 19.428921, -50.787870 19.424673, -50.800145 19.420423, -50.812420 19.416173, -50.824694 19.411921, -50.836967 19.407669, -50.849239 19.403416, -50.861511 19.399163, -50.873782 19.394908, -50.886053 19.390653, -50.898323 19.386397, -50.910592 19.382140, -50.922861 19.377882, -50.935129 19.373623, -50.947396 19.369364, -50.959663 19.365103, -50.971929 19.360842, -50.984195 19.356580, -50.996460 19.352318, -51.008724 19.348054, -51.020987 19.343790, -51.033250 19.339524, -51.045513 19.335258, -51.057774 19.330991, -51.070035 19.326724, -51.082295 19.322455, -51.094555 19.318186, -51.106814 19.313916, -51.119073 19.309645, -51.131330 19.305373, -51.143588 19.301100, -51.155844 19.296827, -51.168100 19.292553, -51.180355 19.288278, -51.192610 19.284002, -51.204864 19.279725, -51.217117 19.275448, -51.229370 19.271169, -51.241622 19.266890, -51.253873 19.262610, -51.266124 19.258330, -51.278374 19.254048, -51.290623 19.249766, -51.302872 19.245482, -51.315120 19.241198, -51.327368 19.236914, -51.339615 19.232628, -51.351861 19.228341, -51.364107 19.224054, -51.376352 19.219766, -51.388596 19.215477, -51.400840 19.211187, -51.413083 19.206897, -51.425325 19.202606, -51.437567 19.198313, -51.449808 19.194020, -51.462049 19.189727, -51.474289 19.185432, -51.486528 19.181137, -51.498766 19.176840, -51.511004 19.172543, -51.523242 19.168246, -51.535478 19.163947, -51.547714 19.159647, -51.559950 19.155347, -51.572185 19.151046, -51.584419 19.146744, -51.596652 19.142442, -51.608885 19.138138, -51.621117 19.133834, -51.633349 19.129529, -51.645580 19.125223, -51.657810 19.120916, -51.670040 19.116608, -51.682269 19.112300, -51.694497 19.107991, -51.706725 19.103681, -51.718952 19.099370, -51.731178 19.095059, -51.743404 19.090746, -51.755630 19.086433, -51.767854 19.082119, -51.780078 19.077804, -51.792301 19.073488, -51.804524 19.069172, -51.816746 19.064855, -51.828967 19.060537, -51.841188 19.056218, -51.853408 19.051898, -51.865628 19.047578, -51.877847 19.043257, -51.890065 19.038935, -51.902282 19.034612, -51.914499 19.030288, -51.926716 19.025964, -51.938931 19.021638, -51.951146 19.017312, -51.963361 19.012985, -51.975574 19.008658, -51.987788 19.004329, -52.000000 19.000000, -52.012566 18.996736, -52.025132 18.993470, -52.037697 18.990204, -52.050261 18.986937, -52.062825 18.983670, -52.075389 18.980401, -52.087952 18.977131, -52.100515 18.973861, -52.113077 18.970590, -52.125639 18.967318, -52.138200 18.964045, -52.150760 18.960771, -52.163321 18.957497, -52.175880 18.954221, -52.188439 18.950945, -52.200998 18.947668, -52.213556 18.944390, -52.226114 18.941111, -52.238671 18.937832, -52.251228 18.934551, -52.263784 18.931270, -52.276340 18.927988, -52.288895 18.924705, -52.301450 18.921421, -52.314004 18.918136, -52.326558 18.914850, -52.339111 18.911564, -52.351664 18.908277, -52.364216 18.904989, -52.376768 18.901700, -52.389319 18.898410, -52.401870 18.895119, -52.414420 18.891828, -52.426970 18.888536, -52.439519 18.885243, -52.452068 18.881949, -52.464616 18.878654, -52.477164 18.875358, -52.489711 18.872062, -52.502258 18.868764, -52.514805 18.865466, -52.527351 18.862167, -52.539896 18.858867, -52.552441 18.855567, -52.564985 18.852265, -52.577529 18.848963, -52.590072 18.845659, -52.602615 18.842355, -52.615158 18.839050, -52.627700 18.835745, -52.640241 18.832438, -52.652782 18.829131, -52.665322 18.825822, -52.677862 18.822513, -52.690402 18.819203, -52.702941 18.815893, -52.715479 18.812581, -52.728017 18.809269, -52.740554 18.805955, -52.753091 18.802641, -52.765628 18.799326, -52.778164 18.796010, -52.790699 18.792694, -52.803234 18.789376, -52.815769 18.786058, -52.828303 18.782739, -52.840836 18.779419, -52.853369 18.776098, -52.865902 18.772777, -52.878434 18.769454, -52.890965 18.766131, -52.903496 18.762807, -52.916027 18.759482, -52.928557 18.756156, -52.941087 18.752829, -52.953616 18.749502, -52.966144 18.746173, -52.978672 18.742844, -52.991200 18.739514, -53.003727 18.736183, -53.016253 18.732852, -53.028780 18.729519, -53.041305 18.726186, -53.053830 18.722852, -53.066355 18.719517, -53.078879 18.716181, -53.091403 18.712844, -53.103926 18.709507, -53.116448 18.706169, -53.128971 18.702829, -53.141492 18.699489, -53.154013 18.696149, -53.166534 18.692807, -53.179054 18.689464, -53.191574 18.686121, -53.204093 18.682777, -53.216612 18.679432, -53.229130 18.676086, -53.241648 18.672740, -53.254165 18.669392, -53.266681 18.666044, -53.279198 18.662695, -53.291713 18.659345, -53.304229 18.655994, -53.316743 18.652643, -53.329258 18.649290, -53.341771 18.645937, -53.354285 18.642583, -53.366797 18.639228, -53.379310 18.635872, -53.391821 18.632516, -53.404333 18.629158, -53.416843 18.625800, -53.429354 18.622441, -53.441863 18.619081, -53.454373 18.615720, -53.466882 18.612359, -53.479390 18.608997, -53.491898 18.605633, -53.504405 18.602269, -53.516912 18.598905, -53.529418 18.595539, -53.541924 18.592173, -53.554429 18.588805, -53.566934 18.585437, -53.579438 18.582068, -53.591942 18.578698, -53.604446 18.575328, -53.616948 18.571956, -53.629451 18.568584, -53.641953 18.565211, -53.654454 18.561837, -53.666955 18.558462, -53.679455 18.555087, -53.691955 18.551711, -53.704455 18.548333, -53.716954 18.544955, -53.729452 18.541577, -53.741950 18.538197, -53.754447 18.534816, -53.766944 18.531435, -53.779441 18.528053, -53.791937 18.524670, -53.804432 18.521286, -53.816927 18.517902, -53.829422 18.514516, -53.841915 18.511130, -53.854409 18.507743, -53.866902 18.504355, -53.879394 18.500967, -53.891886 18.497577, -53.904378 18.494187, -53.916869 18.490796, -53.929359 18.487404, -53.941849 18.484011, -53.954339 18.480617, -53.966828 18.477223, -53.979316 18.473828, -53.991804 18.470432, -54.004292 18.467035, -54.016779 18.463637, -54.029266 18.460239, -54.041752 18.456839, -54.054237 18.453439, -54.066722 18.450038, -54.079207 18.446637, -54.091691 18.443234, -54.104174 18.439831, -54.116658 18.436426, -54.129140 18.433021, -54.141622 18.429615, -54.154104 18.426209, -54.166585 18.422801, -54.179066 18.419393, -54.191546 18.415984, -54.204025 18.412574, -54.216504 18.409163, -54.228983 18.405752, -54.241461 18.402339, -54.253939 18.398926, -54.266416 18.395512, -54.278893 18.392097, -54.291369 18.388682, -54.303844 18.385265, -54.316320 18.381848, -54.328794 18.378430, -54.341268 18.375011, -54.353742 18.371591, -54.366215 18.368171, -54.378688 18.364750, -54.391160 18.361328, -54.403632 18.357905, -54.416103 18.354481, -54.428574 18.351056, -54.441044 18.347631, -54.453514 18.344205, -54.465983 18.340778, -54.478452 18.337350, -54.490920 18.333921, -54.503388 18.330492, -54.515855 18.327062, -54.528322 18.323631, -54.540788 18.320199, -54.553254 18.316766, -54.565719 18.313333, -54.578184 18.309899, -54.590648 18.306463, -54.603112 18.303028, -54.615575 18.299591, -54.628038 18.296153, -54.640500 18.292715, -54.652962 18.289276, -54.665424 18.285836, -54.677884 18.282395, -54.690345 18.278954, -54.702805 18.275511, -54.715264 18.272068, -54.727723 18.268624, -54.740181 18.265179, -54.752639 18.261734, -54.765096 18.258287, -54.777553 18.254840, -54.790010 18.251392, -54.802466 18.247943, -54.814921 18.244494, -54.827376 18.241043, -54.839830 18.237592, -54.852284 18.234140, -54.864738 18.230687, -54.877190 18.227234, -54.889643 18.223779, -54.902095 18.220324, -54.914546 18.216868, -54.926997 18.213411, -54.939448 18.209954, -54.951898 18.206495, -54.964347 18.203036, -54.976796 18.199576, -54.989244 18.196115, -55.001692 18.192653, -55.014140 18.189191, -55.026587 18.185728, -55.039033 18.182263, -55.051479 18.178799, -55.063925 18.175333, -55.076370 18.171866, -55.088814 18.168399, -55.101258 18.164931, -55.113702 18.161462, -55.126145 18.157993, -55.138588 18.154522, -55.151030 18.151051, -55.163471 18.147579, -55.175912 18.144106, -55.188353 18.140632, -55.200793 18.137158, -55.213232 18.133682, -55.225671 18.130206, -55.238110 18.126730, -55.250548 18.123252, -55.262986 18.119773, -55.275423 18.116294, -55.287859 18.112814, -55.300296 18.109333, -55.312731 18.105852, -55.325166 18.102369, -55.337601 18.098886, -55.350035 18.095402, -55.362469 18.091917, -55.374902 18.088431, -55.387334 18.084945, -55.399767 18.081458, -55.412198 18.077970, -55.424629 18.074481, -55.437060 18.070991, -55.449490 18.067501, -55.461920 18.064010, -55.474349 18.060518, -55.486778 18.057025, -55.499206 18.053531, -55.511634 18.050037, -55.524061 18.046542, -55.536488 18.043046, -55.548914 18.039549, -55.561340 18.036051, -55.573765 18.032553, -55.586190 18.029054, -55.598614 18.025554, -55.611038 18.022053, -55.623461 18.018552, -55.635884 18.015049, -55.648306 18.011546, -55.660728 18.008042, -55.673149 18.004538, -55.685570 18.001032, -55.697990 17.997526, -55.710410 17.994019, -55.722829 17.990511, -55.735248 17.987002, -55.747666 17.983493, -55.760084 17.979983, -55.772502 17.976472, -55.784918 17.972960, -55.797335 17.969447, -55.809751 17.965934, -55.822166 17.962420, -55.834581 17.958905, -55.846995 17.955389, -55.859409 17.951872, -55.871823 17.948355, -55.884235 17.944837, -55.896648 17.941318, -55.909060 17.937798, -55.921471 17.934278, -55.933882 17.930756, -55.946292 17.927234, -55.958702 17.923712, -55.971112 17.920188, -55.983521 17.916663, -55.995929 17.913138, -56.008337 17.909612, -56.020745 17.906085, -56.033152 17.902558, -56.045558 17.899030, -56.057964 17.895500, -56.070370 17.891970, -56.082775 17.888440, -56.095179 17.884908, -56.107583 17.881376, -56.119987 17.877843, -56.132390 17.874309, -56.144792 17.870774, -56.157194 17.867239, -56.169596 17.863703, -56.181997 17.860166, -56.194397 17.856628, -56.206797 17.853089, -56.219197 17.849550, -56.231596 17.846010, -56.243995 17.842469, -56.256393 17.838927, -56.268790 17.835385, -56.281187 17.831842, -56.293584 17.828298, -56.305980 17.824753, -56.318376 17.821207, -56.330771 17.817661, -56.343166 17.814114, -56.355560 17.810566, -56.367953 17.807017, -56.380346 17.803468, -56.392739 17.799917, -56.405131 17.796366, -56.417523 17.792814, -56.429914 17.789262, -56.442305 17.785708, -56.454695 17.782154, -56.467085 17.778599, -56.479474 17.775043, -56.491863 17.771487, -56.504251 17.767930, -56.516639 17.764372, -56.529026 17.760813, -56.541413 17.757253, -56.553799 17.753693, -56.566185 17.750132, -56.578570 17.746570, -56.590955 17.743007, -56.603339 17.739443, -56.615723 17.735879, -56.628106 17.732314, -56.640489 17.728748, -56.652871 17.725181, -56.665253 17.721614, -56.677634 17.718046, -56.690015 17.714477, -56.702395 17.710907, -56.714775 17.707337, -56.727155 17.703765, -56.739534 17.700193, -56.751912 17.696621, -56.764290 17.693047, -56.776667 17.689473, -56.789044 17.685897, -56.801420 17.682322, -56.813796 17.678745, -56.826172 17.675167, -56.838547 17.671589, -56.850921 17.668010, -56.863295 17.664430, -56.875668 17.660850, -56.888041 17.657268, -56.900414 17.653686, -56.912786 17.650103, -56.925157 17.646520, -56.937528 17.642935, -56.949899 17.639350, -56.962269 17.635764, -56.974638 17.632178, -56.987007 17.628590, -56.999376 17.625002, -57.011744 17.621413, -57.024111 17.617823, -57.036478 17.614232, -57.048845 17.610641, -57.061211 17.607049, -57.073577 17.603456, -57.085942 17.599862, -57.098306 17.596268, -57.110670 17.592673, -57.123034 17.589077, -57.135397 17.585480, -57.147760 17.581882, -57.160122 17.578284, -57.172483 17.574685, -57.184845 17.571085, -57.197205 17.567485, -57.209565 17.563883, -57.221925 17.560281, -57.234284 17.556678, -57.246643 17.553075, -57.259001 17.549470, -57.271359 17.545865, -57.283716 17.542259, -57.296073 17.538652, -57.308429 17.535045, -57.320785 17.531437, -57.333140 17.527828, -57.345495 17.524218, -57.357849 17.520607, -57.370203 17.516996, -57.382556 17.513384, -57.394909 17.509771, -57.407261 17.506158, -57.419613 17.502543, -57.431964 17.498928, -57.444315 17.495312, -57.456665 17.491696, -57.469015 17.488078, -57.481364 17.484460, -57.493713 17.480841, -57.506062 17.477221, -57.518409 17.473601, -57.530757 17.469980, -57.543104 17.466358, -57.555450 17.462735, -57.567796 17.459111, -57.580141 17.455487, -57.592486 17.451862, -57.604831 17.448236, -57.617175 17.444610, -57.629518 17.440982, -57.641861 17.437354, -57.654204 17.433726, -57.666545 17.430096, -57.678887 17.426466, -57.691228 17.422834, -57.703568 17.419203, -57.715908 17.415570, -57.728248 17.411937, -57.740587 17.408302, -57.752926 17.404668, -57.765264 17.401032, -57.777601 17.397395, -57.789938 17.393758, -57.802275 17.390120, -57.814611 17.386482, -57.826946 17.382842, -57.839282 17.379202, -57.851616 17.375561, -57.863950 17.371919, -57.876284 17.368277, -57.888617 17.364633, -57.900950 17.360989, -57.913282 17.357345, -57.925613 17.353699, -57.937945 17.350053, -57.950275 17.346406, -57.962606 17.342758, -57.974935 17.339110, -57.987264 17.335460, -57.999593 17.331810, -58.011921 17.328160, -58.024249 17.324508, -58.036576 17.320856, -58.048903 17.317203, -58.061229 17.313549, -58.073555 17.309894, -58.085881 17.306239, -58.098205 17.302583, -58.110530 17.298926, -58.122853 17.295268, -58.135177 17.291610, -58.147500 17.287951, -58.159822 17.284291, -58.172144 17.280631, -58.184465 17.276969, -58.196786 17.273307, -58.209107 17.269644, -58.221426 17.265981, -58.233746 17.262316, -58.246065 17.258651, -58.258383 17.254986, -58.270701 17.251319, -58.283019 17.247652, -58.295336 17.243983, -58.307652 17.240315, -58.319968 17.236645, -58.332284 17.232975, -58.344599 17.229304, -58.356913 17.225632, -58.369227 17.221959, -58.381541 17.218286, -58.393854 17.214612, -58.406166 17.210937, -58.418478 17.207261, -58.430790 17.203585, -58.443101 17.199908, -58.455412 17.196230, -58.467722 17.192552, -58.480031 17.188872, -58.492340 17.185192, -58.504649 17.181511, -58.516957 17.177830, -58.529265 17.174148, -58.541572 17.170465, -58.553879 17.166781, -58.566185 17.163096, -58.578491 17.159411, -58.590796 17.155725, -58.603101 17.152038, -58.615405 17.148351, -58.627709 17.144662, -58.640012 17.140973, -58.652315 17.137284, -58.664617 17.133593, -58.676919 17.129902, -58.689220 17.126210, -58.701521 17.122517, -58.713821 17.118824, -58.726121 17.115129, -58.738421 17.111435, -58.750719 17.107739, -58.763018 17.104042, -58.775316 17.100345, -58.787613 17.096647, -58.799910 17.092949, -58.812206 17.089249, -58.824502 17.085549, -58.836798 17.081848, -58.849093 17.078147, -58.861387 17.074444, -58.873681 17.070741, -58.885975 17.067037, -58.898268 17.063333, -58.910560 17.059627, -58.922852 17.055921, -58.935144 17.052215, -58.947435 17.048507, -58.959726 17.044799, -58.972016 17.041090, -58.984305 17.037380, -58.996594 17.033669, -59.008883 17.029958, -59.021171 17.026246, -59.033459 17.022533, -59.045746 17.018820, -59.058033 17.015106, -59.070319 17.011391, -59.082605 17.007675, -59.094890 17.003959, -59.107174 17.000242, -59.119459 16.996524, -59.131742 16.992805, -59.144026 16.989086, -59.156308 16.985366, -59.168591 16.981645, -59.180873 16.977923, -59.193154 16.974201, -59.205435 16.970478, -59.217715 16.966754, -59.229995 16.963030, -59.242274 16.959305, -59.254553 16.955579, -59.266832 16.951852, -59.279109 16.948125, -59.291387 16.944396, -59.303664 16.940668, -59.315940 16.936938, -59.328216 16.933208, -59.340492 16.929476, -59.352767 16.925745, -59.365041 16.922012, -59.377315 16.918279, -59.389589 16.914545, -59.401862 16.910810, -59.414134 16.907074, -59.426406 16.903338, -59.438678 16.899601, -59.450949 16.895864, -59.463220 16.892125, -59.475490 16.888386, -59.487759 16.884646, -59.500028 16.880906, -59.512297 16.877164, -59.524565 16.873422, -59.536833 16.869679, -59.549100 16.865936, -59.561367 16.862192, -59.573633 16.858447, -59.585899 16.854701, -59.598164 16.850955, -59.610429 16.847207, -59.622693 16.843459, -59.634957 16.839711, -59.647220 16.835961, -59.659483 16.832211, -59.671746 16.828461, -59.684007 16.824709, -59.696269 16.820957, -59.708530 16.817204, -59.720790 16.813450, -59.733050 16.809696, -59.745309 16.805941, -59.757568 16.802185, -59.769827 16.798428, -59.782085 16.794671, -59.794342 16.790913, -59.806599 16.787154, -59.818856 16.783394, -59.831112 16.779634, -59.843367 16.775873, -59.855622 16.772111, -59.867877 16.768349, -59.880131 16.764586, -59.892385 16.760822, -59.904638 16.757057, -59.916890 16.753292, -59.929143 16.749526, -59.941394 16.745759, -59.953645 16.741992, -59.965896 16.738224, -59.978146 16.734455, -59.990396 16.730685, -60.002645 16.726915, -60.014894 16.723144, -60.027142 16.719372, -60.039390 16.715599, -60.051637 16.711826, -60.063884 16.708052, -60.076131 16.704277, -60.088377 16.700502, -60.100622 16.696726, -60.112867 16.692949, -60.125111 16.689171, -60.137355 16.685393, -60.149599 16.681614, -60.161841 16.677834, -60.174084 16.674054, -60.186326 16.670273, -60.198567 16.666491, -60.210808 16.662708, -60.223049 16.658925, -60.235289 16.655141, -60.247529 16.651356, -60.259768 16.647570, -60.272006 16.643784, -60.284244 16.639997, -60.296482 16.636210, -60.308719 16.632421, -60.320956 16.628632, -60.333192 16.624843, -60.345428 16.621052, -60.357663 16.617261, -60.369898 16.613469, -60.382132 16.609676, -60.394366 16.605883, -60.406599 16.602089, -60.418832 16.598294, -60.431064 16.594498, -60.443296 16.590702, -60.455527 16.586905, -60.467758 16.583108, -60.479988 16.579309, -60.492218 16.575510, -60.504448 16.571710, -60.516677 16.567910, -60.528905 16.564109, -60.541133 16.560307, -60.553361 16.556504, -60.565588 16.552701, -60.577814 16.548897, -60.590040 16.545092, -60.602266 16.541286, -60.614491 16.537480, -60.626715 16.533673, -60.638939 16.529866, -60.651163 16.526057, -60.663386 16.522248, -60.675609 16.518438, -60.687831 16.514628, -60.700053 16.510817, -60.712274 16.507005, -60.724495 16.503192, -60.736715 16.499379, -60.748935 16.495565, -60.761154 16.491750, -60.773373 16.487935, -60.785591 16.484119, -60.797809 16.480302, -60.810026 16.476484, -60.822243 16.472666, -60.834460 16.468847, -60.846676 16.465027, -60.858891 16.461207, -60.871106 16.457386, -60.883320 16.453564, -60.895534 16.449741, -60.907748 16.445918, -60.919961 16.442094, -60.932174 16.438269, -60.944386 16.434444, -60.956597 16.430618, -60.968808 16.426791, -60.981019 16.422964, -60.993229 16.419136, -61.005439 16.415307, -61.017648 16.411477, -61.029857 16.407647, -61.042065 16.403816, -61.054273 16.399984, -61.066480 16.396152, -61.078687 16.392319, -61.090893 16.388485, -61.103099 16.384650, -61.115304 16.380815, -61.127509 16.376979, -61.139713 16.373142, -61.151917 16.369305, -61.164121 16.365467, -61.176324 16.361628, -61.188526 16.357789, -61.200728 16.353949, -61.212929 16.350108, -61.225130 16.346266, -61.237331 16.342424, -61.249531 16.338581, -61.261731 16.334737, -61.273930 16.330893, -61.286128 16.327048, -61.298326 16.323202, -61.310524 16.319356, -61.322721 16.315509, -61.334918 16.311661, -61.347114 16.307812, -61.359310 16.303963, -61.371505 16.300113, -61.383700 16.296262, -61.395894 16.292411, -61.408088 16.288559, -61.420281 16.284706, -61.432474 16.280853, -61.444667 16.276999, -61.456859 16.273144, -61.469050 16.269288, -61.481241 16.265432, -61.493431 16.261575, -61.505621 16.257717, -61.517811 16.253859, -61.530000 16.250000)
