LINESTRING (-84.330200 34.486200, -84.327018 34.490283, -84.323836 34.494367, -84.320654 34.498450, -84.317472 34.502533, -84.314289 34.506616, -84.311106 34.510699, -84.307922 34.514782, -84.304738 34.518864, -84.301554 34.522947, -84.298370 34.527030, -84.295185 34.531112, -84.292000 34.535195, -84.288815 34.539277, -84.285629 34.543359, -84.282443 34.547441, -84.279257 34.551524, -84.276070 34.555606, -84.272883 34.559688, -84.269696 34.563769, -84.266509 34.567851, -84.263321 34.571933, -84.260133 34.576014, -84.256944 34.580096, -84.253755 34.584177, -84.250566 34.588259, -84.247377 34.592340, -84.244187 34.596421, -84.240997 34.600502, -84.237807 34.604583, -84.234616 34.608664, -84.231425 34.612745, -84.228234 34.616826, -84.225042 34.620907, -84.221850 34.624987, -84.218658 34.629068, -84.215465 34.633148, -84.212273 34.637229, -84.209079 34.641309, -84.205886 34.645389, -84.202692 34.649469, -84.199498 34.653549, -84.196303 34.657629, -84.193109 34.661709, -84.189914 34.665789, -84.186718 34.669868, -84.183523 34.673948, -84.180327 34.678028, -84.177130 34.682107, -84.173934 34.686186, -84.170737 34.690266, -84.167539 34.694345, -84.164342 34.698424, -84.161144 34.702503, -84.157946 34.706582, -84.154747 34.710661, -84.151548 34.714740, -84.148349 34.718818, -84.145150 34.722897, -84.141950 34.726975, -84.138750 34.731054, -84.135549 34.735132, -84.132349 34.739211, -84.129147 34.743289, -84.125946 34.747367, -84.122744 34.751445, -84.119542 34.755523, -84.116340 34.759601, -84.113137 34.763678, -84.109934 34.767756, -84.106731 34.771834, -84.103528 34.775911, -84.100324 34.779989, -84.097119 34.784066, -84.093915 34.788143, -84.090710 34.792220, -84.087505 34.796298, -84.084299 34.800375, -84.081094 34.804451, -84.077887 34.808528, -84.074681 34.812605, -84.071474 34.816682, -84.068267 34.820758, -84.065060 34.824835, -84.061852 34.828911, -84.058644 34.832988, -84.055436 34.837064, -84.052227 34.841140, -84.049018 34.845216, -84.045809 34.849292, -84.042599 34.853368, -84.039389 34.857444, -84.036179 34.861520, -84.032968 34.865595, -84.029757 34.869671, -84.026546 34.873746, -84.023335 34.877822, -84.020123 34.881897, -84.016911 34.885972, -84.013698 34.890048, -84.010485 34.894123, -84.007272 34.898198, -84.004059 34.902273, -84.000845 34.906347, -83.997631 34.910422, -83.994417 34.914497, -83.991202 34.918571, -83.987987 34.922646, -83.984772 34.926720, -83.981556 34.930795, -83.978340 34.934869, -83.975124 34.938943, -83.971907 34.943017, -83.968690 34.947091, -83.965473 34.951165, -83.962255 34.955239, -83.959037 34.959312, -83.955819 34.963386, -83.952600 34.967460, -83.949382 34.971533, -83.946162 34.975606, -83.942943 34.979680, -83.939723 34.983753, -83.936503 34.987826, -83.933282 34.991899, -83.930062 34.995972, -83.926840 35.000045, -83.923619 35.004118, -83.920397 35.008190, -83.917175 35.012263, -83.913953 35.016336, -83.910730 35.020408, -83.907507 35.024480, -83.904284 35.028553, -83.901060 35.032625, -83.897836 35.036697, -83.894612 35.040769, -83.891387 35.044841, -83.888162 35.048913, -83.884937 35.052985, -83.881711 35.057056, -83.878485 35.061128, -83.875259 35.065199, -83.872032 35.069271, -83.868806 35.073342, -83.865578 35.077413, -83.862351 35.081484, -83.859123 35.085556, -83.855895 35.089627, -83.852666 35.093697, -83.849437 35.097768, -83.846208 35.101839, -83.842979 35.105910, -83.839749 35.109980, -83.836519 35.114051, -83.833288 35.118121, -83.830058 35.122191, -83.826827 35.126262, -83.823595 35.130332, -83.820363 35.134402, -83.817131 35.138472, -83.813899 35.142542, -83.810666 35.146612, -83.807433 35.150681, -83.804200 35.154751, -83.800966 35.158820, -83.797732 35.162890, -83.794498 35.166959, -83.791263 35.171028, -83.788028 35.175098, -83.784793 35.179167, -83.781557 35.183236, -83.778321 35.187305, -83.775085 35.191374, -83.771849 35.195442, -83.768612 35.199511, -83.765374 35.203580, -83.762137 35.207648, -83.758899 35.211717, -83.755661 35.215785, -83.752422 35.219853, -83.749183 35.223921, -83.745944 35.227989, -83.742705 35.232057, -83.739465 35.236125, -83.736225 35.240193, -83.732984 35.244261, -83.729743 35.248328, -83.726502 35.252396, -83.723261 35.256463, -83.720019 35.260531, -83.716777 35.264598, -83.713534 35.268665, -83.710292 35.272732, -83.707049 35.276800, -83.703805 35.280866, -83.700561 35.284933, -83.697317 35.289000, -83.694073 35.293067, -83.690828 35.297133, -83.687583 35.301200, -83.684338 35.305266, -83.681092 35.309333, -83.677846 35.313399, -83.674600 35.317465, -83.671353 35.321531, -83.668106 35.325597, -83.664859 35.329663, -83.661611 35.333729, -83.658363 35.337795, -83.655115 35.341860, -83.651866 35.345926, -83.648617 35.349991, -83.645368 35.354057, -83.642118 35.358122, -83.638868 35.362187, -83.635618 35.366252, -83.632367 35.370317, -83.629117 35.374382, -83.625865 35.378447, -83.622614 35.382512, -83.619362 35.386577, -83.616110 35.390641, -83.612857 35.394706, -83.609604 35.398770, -83.606351 35.402835, -83.603097 35.406899, -83.599843 35.410963, -83.596589 35.415027, -83.593335 35.419091, -83.590080 35.423155, -83.586825 35.427219, -83.583569 35.431283, -83.580313 35.435346, -83.577057 35.439410, -83.573801 35.443473, -83.570544 35.447537, -83.567287 35.451600, -83.564029 35.455663, -83.560771 35.459726, -83.557513 35.463789, -83.554255 35.467852, -83.550996 35.471915, -83.547737 35.475978, -83.544477 35.480041, -83.541218 35.484103, -83.537957 35.488166, -83.534697 35.492228, -83.531436 35.496290, -83.528175 35.500353, -83.524914 35.504415, -83.521652 35.508477, -83.518390 35.512539, -83.515127 35.516601, -83.511865 35.520663, -83.508601 35.524724, -83.505338 35.528786, -83.502074 35.532847, -83.498810 35.536909, -83.495546 35.540970, -83.492281 35.545032, -83.489016 35.549093, -83.485750 35.553154, -83.482485 35.557215, -83.479219 35.561276, -83.475952 35.565337, -83.472686 35.569397, -83.469418 35.573458, -83.466151 35.577519, -83.462883 35.581579, -83.459615 35.585639, -83.456347 35.589700, -83.453078 35.593760, -83.449809 35.597820, -83.446540 35.601880, -83.443270 35.605940, -83.440000 35.610000, -83.435293 35.612992, -83.430585 35.615983, -83.425877 35.618975, -83.421169 35.621966, -83.416461 35.624957, -83.411752 35.627948, -83.407042 35.630939, -83.402333 35.633929, -83.397623 35.636920, -83.392912 35.639910, -83.388202 35.642900, -83.383490 35.645889, -83.378779 35.648879, -83.374067 35.651869, -83.369355 35.654858, -83.364643 35.657847, -83.359930 35.660836, -83.355217 35.663824, -83.350503 35.666813, -83.345789 35.669801, -83.341075 35.672789, -83.336360 35.675777, -83.331646 35.678765, -83.326930 35.681753, -83.322215 35.684740, -83.317499 35.687727, -83.312782 35.690714, -83.308065 35.693701, -83.303348 35.696688, -83.298631 35.699674, -83.293913 35.702660, -83.289195 35.705647, -83.284477 35.708633, -83.279758 35.711618, -83.275039 35.714604, -83.270319 35.717589, -83.265599 35.720574, -83.260879 35.723559, -83.256158 35.726544, -83.251437 35.729529, -83.246716 35.732513, -83.241994 35.735498, -83.237272 35.738482, -83.232550 35.741466, -83.227827 35.744449, -83.223104 35.747433, -83.218381 35.750416, -83.213657 35.753399, -83.208933 35.756382, -83.204208 35.759365, -83.199484 35.762348, -83.194758 35.765330, -83.190033 35.768312, -83.185307 35.771294, -83.180581 35.774276, -83.175854 35.777258, -83.171127 35.780239, -83.166400 35.783221, -83.161672 35.786202, -83.156944 35.789183, -83.152216 35.792163, -83.147487 35.795144, -83.142758 35.798124, -83.138028 35.801105, -83.133298 35.804085, -83.128568 35.807064, -83.123838 35.810044, -83.119107 35.813024, -83.114376 35.816003, -83.109644 35.818982, -83.104912 35.821961, -83.100180 35.824940, -83.095447 35.827918, -83.090714 35.830896, -83.085981 35.833875, -83.081247 35.836853, -83.076513 35.839830, -83.071779 35.842808, -83.067044 35.845785, -83.062309 35.848763, -83.057573 35.851740, -83.052837 35.854716, -83.048101 35.857693, -83.043365 35.860670, -83.038628 35.863646, -83.033890 35.866622, -83.029153 35.869598, -83.024415 35.872574, -83.019676 35.875549, -83.014938 35.878525, -83.010199 35.881500, -83.005459 35.884475, -83.000720 35.887450, -82.995979 35.890424, -82.991239 35.893399, -82.986498 35.896373, -82.981757 35.899347, -82.977015 35.902321, -82.972273 35.905295, -82.967531 35.908268, -82.962789 35.911241, -82.958046 35.914215, -82.953302 35.917188, -82.948559 35.920160, -82.943815 35.923133, -82.939070 35.926105, -82.934325 35.929077, -82.929580 35.932049, -82.924835 35.935021, -82.920089 35.937993, -82.915343 35.940964, -82.910596 35.943936, -82.905849 35.946907, -82.901102 35.949878, -82.896355 35.952848, -82.891607 35.955819, -82.886858 35.958789, -82.882110 35.961759, -82.877360 35.964729, -82.872611 35.967699, -82.867861 35.970669, -82.863111 35.973638, -82.858361 35.976607, -82.853610 35.979576, -82.848859 35.982545, -82.844107 35.985514, -82.839355 35.988482, -82.834603 35.991451, -82.829850 35.994419, -82.825097 35.997387, -82.820344 36.000354, -82.815590 36.003322, -82.810836 36.006289, -82.806082 36.009256, -82.801327 36.012223, -82.796572 36.015190, -82.791817 36.018157, -82.787061 36.021123, -82.782305 36.024089, -82.777548 36.027055, -82.772791 36.030021, -82.768034 36.032987, -82.763276 36.035952, -82.758518 36.038917, -82.753760 36.041882, -82.749001 36.044847, -82.744242 36.047812, -82.739483 36.050777, -82.734723 36.053741, -82.729963 36.056705, -82.725202 36.059669, -82.720442 36.062633, -82.715680 36.065596, -82.710919 36.068560, -82.706157 36.071523, -82.701395 36.074486, -82.696632 36.077449, -82.691869 36.080411, -82.687106 36.083374, -82.682342 36.086336, -82.677578 36.089298, -82.672813 36.092260, -82.668049 36.095222, -82.663283 36.098183, -82.658518 36.101145, -82.653752 36.104106, -82.648986 36.107067, -82.644219 36.110027, -82.639452 36.112988, -82.634685 36.115948, -82.629917 36.118909, -82.625149 36.121869, -82.620381 36.124828, -82.615612 36.127788, -82.610843 36.130747, -82.606073 36.133707, -82.601304 36.136666, -82.596533 36.139625, -82.591763 36.142583, -82.586992 36.145542, -82.582221 36.148500, -82.577449 36.151458, -82.572677 36.154416, -82.567905 36.157374, -82.563132 36.160331, -82.558359 36.163289, -82.553586 36.166246, -82.548812 36.169203, -82.544038 36.172160, -82.539263 36.175116, -82.534488 36.178072, -82.529713 36.181029, -82.524937 36.183985, -82.520161 36.186941, -82.515385 36.189896, -82.510608 36.192852, -82.505831 36.195807, -82.501054 36.198762, -82.496276 36.201717, -82.491498 36.204672, -82.486720 36.207626, -82.481941 36.210580, -82.477162 36.213534, -82.472382 36.216488, -82.467602 36.219442, -82.462822 36.222396, -82.458041 36.225349, -82.453260 36.228302, -82.448479 36.231255, -82.443697 36.234208, -82.438915 36.237161, -82.434133 36.240113, -82.429350 36.243065, -82.424567 36.246017, -82.419783 36.248969, -82.414999 36.251921, -82.410215 36.254872, -82.405430 36.257823, -82.400645 36.260775, -82.395860 36.263725, -82.391074 36.266676, -82.386288 36.269627, -82.381502 36.272577, -82.376715 36.275527, -82.371928 36.278477, -82.367140 36.281427, -82.362353 36.284376, -82.357564 36.287326, -82.352776 36.290275, -82.347987 36.293224, -82.343197 36.296173, -82.338408 36.299121, -82.333618 36.302070, -82.328827 36.305018, -82.324037 36.307966, -82.319245 36.310914, -82.314454 36.313861, -82.309662 36.316809, -82.304870 36.319756, -82.300077 36.322703, -82.295284 36.325650, -82.290491 36.328597, -82.285697 36.331543, -82.280903 36.334489, -82.276109 36.337435, -82.271314 36.340381, -82.266519 36.343327, -82.261724 36.346273, -82.256928 36.349218, -82.252132 36.352163, -82.247335 36.355108, -82.242538 36.358053, -82.237741 36.360997, -82.232943 36.363942, -82.228145 36.366886, -82.223347 36.369830, -82.218548 36.372774, -82.213749 36.375717, -82.208949 36.378661, -82.204150 36.381604, -82.199349 36.384547, -82.194549 36.387490, -82.189748 36.390433, -82.184947 36.393375, -82.180145 36.396317, -82.175343 36.399259, -82.170541 36.402201, -82.165738 36.405143, -82.160935 36.408085, -82.156131 36.411026, -82.151327 36.413967, -82.146523 36.416908, -82.141719 36.419849, -82.136914 36.422789, -82.132108 36.425730, -82.127303 36.428670, -82.122497 36.431610, -82.117690 36.434549, -82.112884 36.437489, -82.108077 36.440428, -82.103269 36.443368, -82.098461 36.446307, -82.093653 36.449245, -82.088844 36.452184, -82.084036 36.455122, -82.079226 36.458061, -82.074417 36.460999, -82.069607 36.463937, -82.064796 36.466874, -82.059985 36.469812, -82.055174 36.472749, -82.050363 36.475686, -82.045551 36.478623, -82.040739 36.481560, -82.035926 36.484496, -82.031113 36.487432, -82.026300 36.490368, -82.021486 36.493304, -82.016672 36.496240, -82.011858 36.499176, -82.007043 36.502111, -82.002228 36.505046, -81.997412 36.507981, -81.992597 36.510916, -81.987780 36.513850, -81.982964 36.516785, -81.978147 36.519719, -81.973329 36.522653, -81.968512 36.525587, -81.963694 36.528520, -81.958875 36.531454, -81.954056 36.534387, -81.949237 36.537320, -81.944418 36.540253, -81.939598 36.543185, -81.934778 36.546118, -81.929957 36.549050, -81.925136 36.551982, -81.920315 36.554914, -81.915493 36.557845, -81.910671 36.560777, -81.905849 36.563708, -81.901026 36.566639, -81.896203 36.569570, -81.891379 36.572501, -81.886555 36.575431, -81.881731 36.578361, -81.876906 36.581292, -81.872081 36.584221, -81.867256 36.587151, -81.862430 36.590081, -81.857604 36.593010, -81.852777 36.595939, -81.847951 36.598868, -81.843123 36.601797, -81.838296 36.604725, -81.833468 36.607654, -81.828640 36.610582, -81.823811 36.613510, -81.818982 36.616438, -81.814153 36.619365, -81.809323 36.622292, -81.804493 36.625220, -81.799662 36.628147, -81.794831 36.631073, -81.790000 36.634000, -81.785160 36.636923, -81.780320 36.639845, -81.775480 36.642768, -81.770639 36.645690, -81.765798 36.648612, -81.760956 36.651534, -81.756114 36.654456, -81.751272 36.657377, -81.746429 36.660298, -81.741586 36.663219, -81.736743 36.666140, -81.731899 36.669061, -81.727055 36.671981, -81.722211 36.674902, -81.717366 36.677822, -81.712521 36.680742, -81.707675 36.683661, -81.702829 36.686581, -81.697983 36.689500, -81.693136 36.692419, -81.688289 36.695338, -81.683441 36.698257, -81.678594 36.701175, -81.673746 36.704094, -81.668897 36.707012, -81.664048 36.709930, -81.659199 36.712847, -81.654349 36.715765, -81.649499 36.718682, -81.644649 36.721599, -81.639798 36.724516, -81.634947 36.727433, -81.630095 36.730350, -81.625244 36.733266, -81.620391 36.736182, -81.615539 36.739098, -81.610686 36.742014, -81.605833 36.744929, -81.600979 36.747845, -81.596125 36.750760, -81.591270 36.753675, -81.586416 36.756590, -81.581560 36.759504, -81.576705 36.762419, -81.571849 36.765333, -81.566993 36.768247, -81.562136 36.771161, -81.557279 36.774074, -81.552422 36.776988, -81.547564 36.779901, -81.542706 36.782814, -81.537847 36.785727, -81.532988 36.788639, -81.528129 36.791552, -81.523270 36.794464, -81.518410 36.797376, -81.513549 36.800288, -81.508689 36.803199, -81.503827 36.806111, -81.498966 36.809022, -81.494104 36.811933, -81.489242 36.814844, -81.484379 36.817754, -81.479517 36.820665, -81.474653 36.823575, -81.469790 36.826485, -81.464926 36.829395, -81.460061 36.832304, -81.455196 36.835214, -81.450331 36.838123, -81.445466 36.841032, -81.440600 36.843941, -81.435734 36.846850, -81.430867 36.849758, -81.426000 36.852666, -81.421133 36.855574, -81.416265 36.858482, -81.411397 36.861390, -81.406528 36.864297, -81.401659 36.867204, -81.396790 36.870112, -81.391921 36.873018, -81.387051 36.875925, -81.382180 36.878831, -81.377310 36.881738, -81.372438 36.884644, -81.367567 36.887550, -81.362695 36.890455, -81.357823 36.893361, -81.352950 36.896266, -81.348078 36.899171, -81.343204 36.902076, -81.338331 36.904981, -81.333457 36.907885, -81.328582 36.910789, -81.323707 36.913693, -81.318832 36.916597, -81.313957 36.919501, -81.309081 36.922404, -81.304205 36.925308, -81.299328 36.928211, -81.294451 36.931114, -81.289573 36.934016, -81.284696 36.936919, -81.279818 36.939821, -81.274939 36.942723, -81.270060 36.945625, -81.265181 36.948527, -81.260301 36.951428, -81.255421 36.954329, -81.250541 36.957231, -81.245660 36.960131, -81.240779 36.963032, -81.235898 36.965933, -81.231016 36.968833, -81.226134 36.971733, -81.221251 36.974633, -81.216368 36.977532, -81.211485 36.980432, -81.206601 36.983331, -81.201717 36.986230, -81.196833 36.989129, -81.191948 36.992028, -81.187063 36.994926, -81.182177 36.997825, -81.177291 37.000723, -81.172405 37.003621, -81.167518 37.006518, -81.162631 37.009416, -81.157744 37.012313, -81.152856 37.015210, -81.147968 37.018107, -81.143079 37.021004, -81.138190 37.023900, -81.133301 37.026796, -81.128411 37.029692, -81.123521 37.032588, -81.118631 37.035484, -81.113740 37.038379, -81.108849 37.041275, -81.103957 37.044170, -81.099065 37.047065, -81.094173 37.049959, -81.089280 37.052854, -81.084387 37.055748, -81.079494 37.058642, -81.074600 37.061536, -81.069706 37.064430, -81.064812 37.067323, -81.059917 37.070216, -81.055021 37.073109, -81.050126 37.076002, -81.045230 37.078895, -81.040333 37.081787, -81.035437 37.084680, -81.030540 37.087572, -81.025642 37.090464, -81.020744 37.093355, -81.015846 37.096247, -81.010947 37.099138, -81.006048 37.102029, -81.001149 37.104920, -80.996249 37.107810, -80.991349 37.110701, -80.986449 37.113591, -80.981548 37.116481, -80.976646 37.119371, -80.971745 37.122261, -80.966843 37.125150, -80.961940 37.128039, -80.957038 37.130928, -80.952135 37.133817, -80.947231 37.136706, -80.942327 37.139594, -80.937423 37.142482, -80.932518 37.145370, -80.927613 37.148258, -80.922708 37.151146, -80.917802 37.154033, -80.912896 37.156920, -80.907990 37.159807, -80.903083 37.162694, -80.898176 37.165581, -80.893268 37.168467, -80.888360 37.171353, -80.883452 37.174239, -80.878543 37.177125, -80.873634 37.180011, -80.868724 37.182896, -80.863814 37.185781, -80.858904 37.188666, -80.853994 37.191551, -80.849083 37.194436, -80.844171 37.197320, -80.839260 37.200204, -80.834347 37.203088, -80.829435 37.205972, -80.824522 37.208856, -80.819609 37.211739, -80.814695 37.214622, -80.809781 37.217505, -80.804867 37.220388, -80.799952 37.223270, -80.795037 37.226153, -80.790122 37.229035, -80.785206 37.231917, -80.780289 37.234799, -80.775373 37.237680, -80.770456 37.240561, -80.765538 37.243443, -80.760621 37.246323, -80.755703 37.249204, -80.750784 37.252085, -80.745865 37.254965, -80.740946 37.257845, -80.736026 37.260725, -80.731106 37.263605, -80.726186 37.266484, -80.721265 37.269363, -80.716344 37.272243, -80.711423 37.275121, -80.706501 37.278000, -80.701578 37.280879, -80.696656 37.283757, -80.691733 37.286635, -80.686809 37.289513, -80.681886 37.292391, -80.676961 37.295268, -80.672037 37.298145, -80.667112 37.301022, -80.662187 37.303899, -80.657261 37.306776, -80.652335 37.309652, -80.647409 37.312528, -80.642482 37.315404, -80.637555 37.318280, -80.632627 37.321156, -80.627699 37.324031, -80.622771 37.326907, -80.617842 37.329782, -80.612913 37.332656, -80.607984 37.335531, -80.603054 37.338405, -80.598124 37.341280, -80.593193 37.344154, -80.588262 37.347027, -80.583331 37.349901, -80.578399 37.352774, -80.573467 37.355647, -80.568535 37.358520, -80.563602 37.361393, -80.558669 37.364266, -80.553735 37.367138, -80.548801 37.370010, -80.543867 37.372882, -80.538932 37.375754, -80.533997 37.378625, -80.529062 37.381497, -80.524126 37.384368, -80.519190 37.387239, -80.514253 37.390110, -80.509316 37.392980, -80.504379 37.395850, -80.499441 37.398720, -80.494503 37.401590, -80.489564 37.404460, -80.484626 37.407329, -80.479686 37.410199, -80.474747 37.413068, -80.469807 37.415937, -80.464866 37.418805, -80.459926 37.421674, -80.454984 37.424542, -80.450043 37.427410, -80.445101 37.430278, -80.440159 37.433145, -80.435216 37.436013, -80.430273 37.438880, -80.425330 37.441747, -80.420386 37.444614, -80.415442 37.447481, -80.410497 37.450347, -80.405552 37.453213, -80.400607 37.456079, -80.395661 37.458945, -80.390715 37.461810, -80.385769 37.464676, -80.380822 37.467541, -80.375875 37.470406, -80.370927 37.473271, -80.365979 37.476135, -80.361031 37.478999, -80.356082 37.481864, -80.351133 37.484728, -80.346184 37.487591, -80.341234 37.490455, -80.336283 37.493318, -80.331333 37.496181, -80.326382 37.499044, -80.321430 37.501907, -80.316479 37.504769, -80.311527 37.507631, -80.306574 37.510493, -80.301621 37.513355, -80.296668 37.516217, -80.291714 37.519078, -80.286760 37.521940, -80.281806 37.524801, -80.276851 37.527661, -80.271896 37.530522, -80.266940 37.533383, -80.261984 37.536243, -80.257028 37.539103, -80.252071 37.541962, -80.247114 37.544822, -80.242157 37.547681, -80.237199 37.550541, -80.232241 37.553400, -80.227282 37.556258, -80.222323 37.559117, -80.217364 37.561975, -80.212404 37.564833, -80.207444 37.567691, -80.202483 37.570549, -80.197523 37.573406, -80.192561 37.576264, -80.187600 37.579121, -80.182638 37.581978, -80.177675 37.584834, -80.172712 37.587691, -80.167749 37.590547, -80.162786 37.593403, -80.157822 37.596259, -80.152858 37.599115, -80.147893 37.601970, -80.142928 37.604825, -80.137962 37.607680, -80.132997 37.610535, -80.128030 37.613390, -80.123064 37.616244, -80.118097 37.619098, -80.113129 37.621952, -80.108162 37.624806, -80.103194 37.627659, -80.098225 37.630513, -80.093256 37.633366, -80.088287 37.636219, -80.083317 37.639071, -80.078347 37.641924, -80.073377 37.644776, -80.068406 37.647628, -80.063435 37.650480, -80.058463 37.653332, -80.053491 37.656183, -80.048519 37.659035, -80.043546 37.661886, -80.038573 37.664737, -80.033600 37.667587, -80.028626 37.670438, -80.023652 37.673288, -80.018677 37.676138, -80.013702 37.678988, -80.008727 37.681837, -80.003751 37.684687, -79.998775 37.687536, -79.993798 37.690385, -79.988821 37.693233, -79.983844 37.696082, -79.978867 37.698930, -79.973888 37.701778, -79.968910 37.704626, -79.963931 37.707474, -79.958952 37.710322, -79.953972 37.713169, -79.948992 37.716016, -79.944012 37.718863, -79.939031 37.721709, -79.934050 37.724556, -79.929069 37.727402, -79.924087 37.730248, -79.919105 37.733094, -79.914122 37.735940, -79.909139 37.738785, -79.904156 37.741630, -79.899172 37.744475, -79.894188 37.747320, -79.889203 37.750164, -79.884218 37.753009, -79.879233 37.755853, -79.874247 37.758697, -79.869261 37.761541, -79.864275 37.764384, -79.859288 37.767227, -79.854300 37.770070, -79.849313 37.772913, -79.844325 37.775756, -79.839336 37.778598, -79.834348 37.781441, -79.829358 37.784283, -79.824369 37.787125, -79.819379 37.789966, -79.814389 37.792808, -79.809398 37.795649, -79.804407 37.798490, -79.799415 37.801330, -79.794424 37.804171, -79.789431 37.807011, -79.784439 37.809852, -79.779446 37.812691, -79.774452 37.815531, -79.769459 37.818371, -79.764464 37.821210, -79.759470 37.824049, -79.754475 37.826888, -79.749480 37.829727, -79.744484 37.832565, -79.739488 37.835403, -79.734491 37.838241, -79.729495 37.841079, -79.724497 37.843917, -79.719500 37.846754, -79.714502 37.849591, -79.709503 37.852428, -79.704505 37.855265, -79.699506 37.858102, -79.694506 37.860938, -79.689506 37.863774, -79.684506 37.866610, -79.679505 37.869446, -79.674504 37.872281, -79.669503 37.875117, -79.664501 37.877952, -79.659498 37.880786, -79.654496 37.883621, -79.649493 37.886456, -79.644489 37.889290, -79.639486 37.892124, -79.634482 37.894958, -79.629477 37.897791, -79.624472 37.900625, -79.619467 37.903458, -79.614461 37.906291, -79.609455 37.909123, -79.604449 37.911956, -79.599442 37.914788, -79.594434 37.917620, -79.589427 37.920452, -79.584419 37.923284, -79.579410 37.926115, -79.574402 37.928947, -79.569392 37.931778, -79.564383 37.934609, -79.559373 37.937439, -79.554363 37.940270, -79.549352 37.943100, -79.544341 37.945930, -79.539329 37.948760, -79.534317 37.951589, -79.529305 37.954418, -79.524293 37.957248, -79.519280 37.960077, -79.514266 37.962905, -79.509252 37.965734, -79.504238 37.968562, -79.499224 37.971390, -79.494209 37.974218, -79.489193 37.977046, -79.484178 37.979873, -79.479161 37.982700, -79.474145 37.985527, -79.469128 37.988354, -79.464111 37.991181, -79.459093 37.994007, -79.454075 37.996833, -79.449057 37.999659, -79.444038 38.002485, -79.439019 38.005310, -79.433999 38.008136, -79.428979 38.010961, -79.423959 38.013786, -79.418938 38.016610, -79.413917 38.019435, -79.408895 38.022259, -79.403873 38.025083, -79.398851 38.027907, -79.393828 38.030730, -79.388805 38.033554, -79.383782 38.036377, -79.378758 38.039200, -79.373734 38.042023, -79.368709 38.044845, -79.363684 38.047667, -79.358659 38.050489, -79.353633 38.053311, -79.348607 38.056133, -79.343580 38.058954, -79.338553 38.061776, -79.333526 38.064597, -79.328498 38.067417, -79.323470 38.070238, -79.318441 38.073058, -79.313413 38.075879, -79.308383 38.078699, -79.303354 38.081518, -79.298324 38.084338, -79.293293 38.087157, -79.288262 38.089976, -79.283231 38.092795, -79.278199 38.095614, -79.273167 38.098432, -79.268135 38.101250, -79.263102 38.104069, -79.258069 38.106886, -79.253036 38.109704, -79.248002 38.112521, -79.242967 38.115338, -79.237933 38.118155, -79.232897 38.120972, -79.227862 38.123789, -79.222826 38.126605, -79.217790 38.129421, -79.212753 38.132237, -79.207716 38.135053, -79.202679 38.137868, -79.197641 38.140683, -79.192603 38.143498, -79.187564 38.146313, -79.182525 38.149128, -79.177486 38.151942, -79.172446 38.154756, -79.167406 38.157570, -79.162365 38.160384, -79.157324 38.163197, -79.152283 38.166011, -79.147241 38.168824, -79.142199 38.171637, -79.137157 38.174449, -79.132114 38.177262, -79.127071 38.180074, -79.122027 38.182886, -79.116983 38.185698, -79.111938 38.188509, -79.106894 38.191321, -79.101848 38.194132, -79.096803 38.196943, -79.091757 38.199753, -79.086710 38.202564, -79.081664 38.205374, -79.076616 38.208184, -79.071569 38.210994, -79.066521 38.213804, -79.061473 38.216613, -79.056424 38.219422, -79.051375 38.222231, -79.046325 38.225040, -79.041275 38.227848, -79.036225 38.230657, -79.031174 38.233465, -79.026123 38.236273, -79.021072 38.239080, -79.016020 38.241888, -79.010968 38.244695, -79.005915 38.247502, -79.000862 38.250309, -78.995809 38.253116, -78.990755 38.255922, -78.985701 38.258728, -78.980646 38.261534, -78.975591 38.264340, -78.970536 38.267145, -78.965480 38.269951, -78.960424 38.272756, -78.955367 38.275560, -78.950311 38.278365, -78.945253 38.281170, -78.940196 38.283974, -78.935137 38.286778, -78.930079 38.289581, -78.925020 38.292385, -78.919961 38.295188, -78.914901 38.297991, -78.909841 38.300794, -78.904781 38.303597, -78.899720 38.306400, -78.894659 38.309202, -78.889597 38.312004, -78.884535 38.314806, -78.879473 38.317607, -78.874410 38.320409, -78.869347 38.323210, -78.864283 38.326011, -78.859219 38.328811, -78.854155 38.331612, -78.849090 38.334412, -78.844025 38.337212, -78.838959 38.340012, -78.833894 38.342812, -78.828827 38.345611, -78.823761 38.348410, -78.818693 38.351209, -78.813626 38.354008, -78.808558 38.356807, -78.803490 38.359605, -78.798421 38.362403, -78.793352 38.365201, -78.788283 38.367999, -78.783213 38.370796, -78.778143 38.373593, -78.773072 38.376390, -78.768001 38.379187, -78.762930 38.381984, -78.757858 38.384780, -78.752786 38.387576, -78.747713 38.390372, -78.742640 38.393168, -78.737567 38.395963, -78.732493 38.398759, -78.727419 38.401554, -78.722344 38.404349, -78.717269 38.407143, -78.712194 38.409938, -78.707118 38.412732, -78.702042 38.415526, -78.696966 38.418319, -78.691889 38.421113, -78.686812 38.423906, -78.681734 38.426699, -78.676656 38.429492, -78.671577 38.432285, -78.666498 38.435077, -78.661419 38.437870, -78.656340 38.440662, -78.651260 38.443453, -78.646179 38.446245, -78.641098 38.449036, -78.636017 38.451827, -78.630935 38.454618, -78.625853 38.457409, -78.620771 38.460199, -78.615688 38.462990, -78.610605 38.465780, -78.605522 38.468569, -78.600438 38.471359, -78.595353 38.474148, -78.590268 38.476937, -78.585183 38.479726, -78.580098 38.482515, -78.575012 38.485303, -78.569925 38.488092, -78.564839 38.490880, -78.559752 38.493668, -78.554664 38.496455, -78.549576 38.499243, -78.544488 38.502030, -78.539399 38.504817, -78.534310 38.507603, -78.529221 38.510390, -78.524131 38.513176, -78.519041 38.515962, -78.513950 38.518748, -78.508859 38.521534, -78.503767 38.524319, -78.498676 38.527104, -78.493583 38.529889, -78.488491 38.532674, -78.483398 38.535458, -78.478304 38.538243, -78.473210 38.541027, -78.468116 38.543810, -78.463022 38.546594, -78.457927 38.549378, -78.452831 38.552161, -78.447735 38.554944, -78.442639 38.557726, -78.437543 38.560509, -78.432446 38.563291, -78.427348 38.566073, -78.422251 38.568855, -78.417152 38.571637, -78.412054 38.574418, -78.406955 38.577199, -78.401856 38.579980, -78.396756 38.582761, -78.391656 38.585542, -78.386555 38.588322, -78.381454 38.591102, -78.376353 38.593882, -78.371251 38.596662, -78.366149 38.599441, -78.361047 38.602220, -78.355944 38.604999, -78.350841 38.607778, -78.345737 38.610556, -78.340633 38.613335, -78.335528 38.616113, -78.330423 38.618891, -78.325318 38.621668, -78.320213 38.624446, -78.315106 38.627223, -78.310000 38.630000, -78.306674 38.634096, -78.303347 38.638193, -78.300020 38.642289, -78.296693 38.646385, -78.293365 38.650481, -78.290037 38.654576, -78.286708 38.658672, -78.283379 38.662768, -78.280050 38.666863, -78.276720 38.670959, -78.273390 38.675054, -78.270060 38.679150, -78.266729 38.683245, -78.263398 38.687340, -78.260066 38.691435, -78.256734 38.695530, -78.253402 38.699624, -78.250069 38.703719, -78.246736 38.707814, -78.243402 38.711908, -78.240068 38.716003, -78.236734 38.720097, -78.233400 38.724191, -78.230064 38.728285, -78.226729 38.732379, -78.223393 38.736473, -78.220057 38.740567, -78.216721 38.744661, -78.213384 38.748755, -78.210046 38.752848, -78.206709 38.756942, -78.203370 38.761035, -78.200032 38.765128, -78.196693 38.769222, -78.193354 38.773315, -78.190014 38.777408, -78.186674 38.781501, -78.183334 38.785593, -78.179993 38.789686, -78.176652 38.793779, -78.173310 38.797871, -78.169968 38.801964, -78.166626 38.806056, -78.163283 38.810148, -78.159940 38.814240, -78.156597 38.818332, -78.153253 38.822424, -78.149909 38.826516, -78.146564 38.830608, -78.143219 38.834700, -78.139874 38.838791, -78.136528 38.842883, -78.133182 38.846974, -78.129835 38.851065, -78.126488 38.855157, -78.123141 38.859248, -78.119793 38.863339, -78.116445 38.867430, -78.113097 38.871520, -78.109748 38.875611, -78.106399 38.879702, -78.103049 38.883792, -78.099699 38.887883, -78.096349 38.891973, -78.092998 38.896063, -78.089647 38.900153, -78.086295 38.904243, -78.082943 38.908333, -78.079591 38.912423, -78.076238 38.916513, -78.072885 38.920603, -78.069532 38.924692, -78.066178 38.928782, -78.062823 38.932871, -78.059469 38.936960, -78.056114 38.941050, -78.052758 38.945139, -78.049403 38.949228, -78.046046 38.953316, -78.042690 38.957405, -78.039333 38.961494, -78.035975 38.965583, -78.032618 38.969671, -78.029260 38.973760, -78.025901 38.977848, -78.022542 38.981936, -78.019183 38.986024, -78.015823 38.990112, -78.012463 38.994200, -78.009103 38.998288, -78.005742 39.002376, -78.002381 39.006463, -77.999019 39.010551, -77.995657 39.014638, -77.992295 39.018726, -77.988932 39.022813, -77.985569 39.026900, -77.982205 39.030987, -77.978841 39.035074, -77.975477 39.039161, -77.972112 39.043248, -77.968747 39.047334, -77.965381 39.051421, -77.962015 39.055507, -77.958649 39.059594, -77.955282 39.063680, -77.951915 39.067766, -77.948548 39.071852, -77.945180 39.075938, -77.941812 39.080024, -77.938443 39.084110, -77.935074 39.088196, -77.931705 39.092281, -77.928335 39.096367, -77.924965 39.100452, -77.921594 39.104538, -77.918223 39.108623, -77.914852 39.112708, -77.911480 39.116793, -77.908108 39.120878, -77.904735 39.124963, -77.901362 39.129048, -77.897989 39.133132, -77.894615 39.137217, -77.891241 39.141301, -77.887867 39.145385, -77.884492 39.149470, -77.881117 39.153554, -77.877741 39.157638, -77.874365 39.161722, -77.870988 39.165806, -77.867612 39.169890, -77.864234 39.173973, -77.860857 39.178057, -77.857479 39.182140, -77.854100 39.186224, -77.850722 39.190307, -77.847342 39.194390, -77.843963 39.198473, -77.840583 39.202556, -77.837202 39.206639, -77.833822 39.210722, -77.830440 39.214804, -77.827059 39.218887, -77.823677 39.222970, -77.820295 39.227052, -77.816912 39.231134, -77.813529 39.235216, -77.810145 39.239299, -77.806761 39.243381, -77.803377 39.247462, -77.799992 39.251544, -77.796607 39.255626, -77.793222 39.259708, -77.789836 39.263789, -77.786449 39.267870, -77.783063 39.271952, -77.779676 39.276033, -77.776288 39.280114, -77.772900 39.284195, -77.769512 39.288276, -77.766123 39.292357, -77.762734 39.296438, -77.759345 39.300518, -77.755955 39.304599, -77.752565 39.308679, -77.749174 39.312760, -77.745783 39.316840, -77.742392 39.320920, -77.739000 39.325000, -77.734245 39.328172, -77.729490 39.331343, -77.724734 39.334514, -77.719978 39.337685, -77.715222 39.340856, -77.710465 39.344026, -77.705707 39.347197, -77.700949 39.350367, -77.696191 39.353537, -77.691433 39.356707, -77.686673 39.359876, -77.681914 39.363046, -77.677154 39.366215, -77.672393 39.369384, -77.667633 39.372553, -77.662871 39.375722, -77.658110 39.378890, -77.653347 39.382058, -77.648585 39.385226, -77.643822 39.388394, -77.639058 39.391562, -77.634295 39.394730, -77.629530 39.397897, -77.624765 39.401064, -77.620000 39.404231, -77.615235 39.407398, -77.610469 39.410564, -77.605702 39.413730, -77.600935 39.416896, -77.596168 39.420062, -77.591400 39.423228, -77.586632 39.426394, -77.581863 39.429559, -77.577094 39.432724, -77.572325 39.435889, -77.567555 39.439054, -77.562784 39.442218, -77.558014 39.445383, -77.553242 39.448547, -77.548471 39.451711, -77.543699 39.454875, -77.538926 39.458038, -77.534153 39.461202, -77.529380 39.464365, -77.524606 39.467528, -77.519832 39.470691, -77.515057 39.473853, -77.510282 39.477016, -77.505506 39.480178, -77.500730 39.483340, -77.495954 39.486502, -77.491177 39.489664, -77.486399 39.492825, -77.481622 39.495986, -77.476844 39.499147, -77.472065 39.502308, -77.467286 39.505469, -77.462506 39.508629, -77.457726 39.511790, -77.452946 39.514950, -77.448165 39.518110, -77.443384 39.521269, -77.438602 39.524429, -77.433820 39.527588, -77.429038 39.530747, -77.424255 39.533906, -77.419471 39.537065, -77.414688 39.540223, -77.409903 39.543382, -77.405119 39.546540, -77.400333 39.549698, -77.395548 39.552855, -77.390762 39.556013, -77.385975 39.559170, -77.381189 39.562327, -77.376401 39.565484, -77.371613 39.568641, -77.366825 39.571798, -77.362037 39.574954, -77.357248 39.578110, -77.352458 39.581266, -77.347668 39.584422, -77.342878 39.587577, -77.338087 39.590733, -77.333296 39.593888, -77.328504 39.597043, -77.323712 39.600198, -77.318919 39.603352, -77.314126 39.606507, -77.309333 39.609661, -77.304539 39.612815, -77.299745 39.615969, -77.294950 39.619122, -77.290155 39.622276, -77.285359 39.625429, -77.280563 39.628582, -77.275767 39.631735, -77.270970 39.634887, -77.266172 39.638040, -77.261375 39.641192, -77.256576 39.644344, -77.251778 39.647496, -77.246978 39.650647, -77.242179 39.653799, -77.237379 39.656950, -77.232579 39.660101, -77.227778 39.663252, -77.222976 39.666402, -77.218175 39.669553, -77.213372 39.672703, -77.208570 39.675853, -77.203767 39.679003, -77.198963 39.682153, -77.194159 39.685302, -77.189355 39.688451, -77.184550 39.691600, -77.179745 39.694749, -77.174939 39.697898, -77.170133 39.701046, -77.165327 39.704195, -77.160520 39.707343, -77.155712 39.710490, -77.150904 39.713638, -77.146096 39.716786, -77.141287 39.719933, -77.136478 39.723080, -77.131668 39.726227, -77.126858 39.729373, -77.122048 39.732520, -77.117237 39.735666, -77.112425 39.738812, -77.107614 39.741958, -77.102801 39.745104, -77.097989 39.748249, -77.093175 39.751395, -77.088362 39.754540, -77.083548 39.757685, -77.078733 39.760829, -77.073918 39.763974, -77.069103 39.767118, -77.064287 39.770262, -77.059471 39.773406, -77.054654 39.776550, -77.049837 39.779693, -77.045020 39.782836, -77.040202 39.785980, -77.035383 39.789122, -77.030565 39.792265, -77.025745 39.795408, -77.020925 39.798550, -77.016105 39.801692, -77.011285 39.804834, -77.006464 39.807976, -77.001642 39.811117, -76.996820 39.814258, -76.991998 39.817400, -76.987175 39.820540, -76.982352 39.823681, -76.977528 39.826822, -76.972704 39.829962, -76.967879 39.833102, -76.963054 39.836242, -76.958229 39.839382, -76.953403 39.842521, -76.948576 39.845660, -76.943750 39.848800, -76.938922 39.851938, -76.934095 39.855077, -76.929267 39.858216, -76.924438 39.861354, -76.919609 39.864492, -76.914779 39.867630, -76.909950 39.870768, -76.905119 39.873905, -76.900288 39.877042, -76.895457 39.880180, -76.890626 39.883316, -76.885794 39.886453, -76.880961 39.889590, -76.876128 39.892726, -76.871295 39.895862, -76.866461 39.898998, -76.861626 39.902134, -76.856792 39.905269, -76.851956 39.908404, -76.847121 39.911539, -76.842285 39.914674, -76.837448 39.917809, -76.832611 39.920944, -76.827774 39.924078, -76.822936 39.927212, -76.818098 39.930346, -76.813259 39.933479, -76.808420 39.936613, -76.803580 39.939746, -76.798740 39.942879, -76.793899 39.946012, -76.789059 39.949145, -76.784217 39.952277, -76.779375 39.955410, -76.774533 39.958542, -76.769690 39.961674, -76.764847 39.964805, -76.760003 39.967937, -76.755159 39.971068, -76.750315 39.974199, -76.745470 39.977330, -76.740625 39.980461, -76.735779 39.983591, -76.730932 39.986721, -76.726086 39.989851, -76.721239 39.992981, -76.716391 39.996111, -76.711543 39.999240, -76.706694 40.002370, -76.701845 40.005499, -76.696996 40.008627, -76.692146 40.011756, -76.687296 40.014885, -76.682445 40.018013, -76.677594 40.021141, -76.672742 40.024269, -76.667890 40.027396, -76.663038 40.030524, -76.658185 40.033651, -76.653331 40.036778, -76.648478 40.039905, -76.643623 40.043031, -76.638769 40.046158, -76.633913 40.049284, -76.629058 40.052410, -76.624202 40.055536, -76.619345 40.058661, -76.614488 40.061787, -76.609631 40.064912, -76.604773 40.068037, -76.599915 40.071162, -76.595056 40.074286, -76.590197 40.077411, -76.585337 40.080535, -76.580477 40.083659, -76.575617 40.086783, -76.570756 40.089906, -76.565894 40.093030, -76.561032 40.096153, -76.556170 40.099276, -76.551307 40.102399, -76.546444 40.105521, -76.541580 40.108644, -76.536716 40.111766, -76.531852 40.114888, -76.526987 40.118009, -76.522121 40.121131, -76.517255 40.124252, -76.512389 40.127373, -76.507522 40.130494, -76.502655 40.133615, -76.497787 40.136736, -76.492919 40.139856, -76.488051 40.142976, -76.483182 40.146096, -76.478312 40.149216, -76.473442 40.152335, -76.468572 40.155454, -76.463701 40.158574, -76.458830 40.161692, -76.453958 40.164811, -76.449086 40.167930, -76.444214 40.171048, -76.439341 40.174166, -76.434467 40.177284, -76.429593 40.180401, -76.424719 40.183519, -76.419844 40.186636, -76.414969 40.189753, -76.410093 40.192870, -76.405217 40.195987, -76.400340 40.199103, -76.395463 40.202219, -76.390586 40.205335, -76.385708 40.208451, -76.380829 40.211567, -76.375950 40.214682, -76.371071 40.217798, -76.366191 40.220913, -76.361311 40.224027, -76.356430 40.227142, -76.351549 40.230256, -76.346668 40.233370, -76.341786 40.236484, -76.336903 40.239598, -76.332020 40.242712, -76.327137 40.245825, -76.322253 40.248938, -76.317369 40.252051, -76.312484 40.255164, -76.307599 40.258277, -76.302713 40.261389, -76.297827 40.264501, -76.292941 40.267613, -76.288054 40.270725, -76.283167 40.273836, -76.278279 40.276948, -76.273390 40.280059, -76.268502 40.283170, -76.263612 40.286280, -76.258723 40.289391, -76.253833 40.292501, -76.248942 40.295611, -76.244051 40.298721, -76.239160 40.301831, -76.234268 40.304940, -76.229375 40.308049, -76.224483 40.311158, -76.219589 40.314267, -76.214696 40.317376, -76.209802 40.320484, -76.204907 40.323593, -76.200012 40.326701, -76.195116 40.329808, -76.190220 40.332916, -76.185324 40.336023, -76.180427 40.339131, -76.175530 40.342238, -76.170632 40.345344, -76.165734 40.348451, -76.160835 40.351557, -76.155936 40.354663, -76.151037 40.357769, -76.146137 40.360875, -76.141236 40.363981, -76.136335 40.367086, -76.131434 40.370191, -76.126532 40.373296, -76.121630 40.376401, -76.116727 40.379505, -76.111824 40.382609, -76.106920 40.385714, -76.102016 40.388817, -76.097112 40.391921, -76.092207 40.395025, -76.087301 40.398128, -76.082395 40.401231, -76.077489 40.404334, -76.072582 40.407436, -76.067675 40.410539, -76.062767 40.413641, -76.057859 40.416743, -76.052950 40.419845, -76.048041 40.422946, -76.043132 40.426048, -76.038222 40.429149, -76.033311 40.432250, -76.028401 40.435351, -76.023489 40.438451, -76.018577 40.441552, -76.013665 40.444652, -76.008753 40.447752, -76.003839 40.450851, -75.998926 40.453951, -75.994012 40.457050, -75.989097 40.460149, -75.984182 40.463248, -75.979267 40.466347, -75.974351 40.469445, -75.969435 40.472544, -75.964518 40.475642, -75.959601 40.478740, -75.954683 40.481837, -75.949765 40.484935, -75.944846 40.488032, -75.939927 40.491129, -75.935008 40.494226, -75.930088 40.497322, -75.925168 40.500419, -75.920247 40.503515, -75.915325 40.506611, -75.910404 40.509707, -75.905482 40.512802, -75.900559 40.515898, -75.895636 40.518993, -75.890712 40.522088, -75.885788 40.525182, -75.880864 40.528277, -75.875939 40.531371, -75.871013 40.534465, -75.866087 40.537559, -75.861161 40.540653, -75.856234 40.543746, -75.851307 40.546840, -75.846380 40.549933, -75.841451 40.553026, -75.836523 40.556118, -75.831594 40.559211, -75.826664 40.562303, -75.821734 40.565395, -75.816804 40.568487, -75.811873 40.571578, -75.806942 40.574670, -75.802010 40.577761, -75.797078 40.580852, -75.792145 40.583942, -75.787212 40.587033, -75.782278 40.590123, -75.777344 40.593213, -75.772410 40.596303, -75.767475 40.599393, -75.762539 40.602483, -75.757604 40.605572, -75.752667 40.608661, -75.747731 40.611750, -75.742793 40.614838, -75.737856 40.617927, -75.732917 40.621015, -75.727979 40.624103, -75.723040 40.627191, -75.718100 40.630278, -75.713160 40.633366, -75.708220 40.636453, -75.703279 40.639540, -75.698338 40.642627, -75.693396 40.645713, -75.688453 40.648800, -75.683511 40.651886, -75.678568 40.654972, -75.673624 40.658057, -75.668680 40.661143, -75.663735 40.664228, -75.658790 40.667313, -75.653845 40.670398, -75.648899 40.673483, -75.643953 40.676567, -75.639006 40.679651, -75.634058 40.682735, -75.629111 40.685819, -75.624162 40.688903, -75.619214 40.691986, -75.614265 40.695069, -75.609315 40.698152, -75.604365 40.701235, -75.599414 40.704317, -75.594464 40.707400, -75.589512 40.710482, -75.584560 40.713564, -75.579608 40.716645, -75.574655 40.719727, -75.569702 40.722808, -75.564748 40.725889, -75.559794 40.728970, -75.554839 40.732051, -75.549884 40.735131, -75.544929 40.738211, -75.539973 40.741291, -75.535016 40.744371, -75.530059 40.747451, -75.525102 40.750530, -75.520144 40.753609, -75.515186 40.756688, -75.510227 40.759767, -75.505268 40.762845, -75.500308 40.765924, -75.495348 40.769002, -75.490387 40.772080, -75.485426 40.775157, -75.480465 40.778235, -75.475503 40.781312, -75.470540 40.784389, -75.465578 40.787466, -75.460614 40.790542, -75.455650 40.793619, -75.450686 40.796695, -75.445721 40.799771, -75.440756 40.802847, -75.435790 40.805922, -75.430824 40.808997, -75.425858 40.812072, -75.420891 40.815147, -75.415923 40.818222, -75.410955 40.821297, -75.405987 40.824371, -75.401018 40.827445, -75.396049 40.830519, -75.391079 40.833592, -75.386109 40.836666, -75.381138 40.839739, -75.376167 40.842812, -75.371195 40.845885, -75.366223 40.848957, -75.361250 40.852029, -75.356277 40.855102, -75.351304 40.858173, -75.346330 40.861245, -75.341355 40.864317, -75.336381 40.867388, -75.331405 40.870459, -75.326429 40.873530, -75.321453 40.876600, -75.316476 40.879671, -75.311499 40.882741, -75.306522 40.885811, -75.301544 40.888881, -75.296565 40.891950, -75.291586 40.895020, -75.286606 40.898089, -75.281627 40.901158, -75.276646 40.904226, -75.271665 40.907295, -75.266684 40.910363, -75.261702 40.913431, -75.256720 40.916499, -75.251737 40.919567, -75.246754 40.922634, -75.241770 40.925701, -75.236786 40.928768, -75.231802 40.931835, -75.226817 40.934902, -75.221831 40.937968, -75.216845 40.941034, -75.211859 40.944100, -75.206872 40.947166, -75.201884 40.950231, -75.196897 40.953296, -75.191908 40.956361, -75.186920 40.959426, -75.181930 40.962491, -75.176941 40.965555, -75.171951 40.968619, -75.166960 40.971683, -75.161969 40.974747, -75.156977 40.977811, -75.151985 40.980874, -75.146993 40.983937, -75.142000 40.987000, -75.135988 40.988731, -75.129976 40.990463, -75.123963 40.992193, -75.117950 40.993924, -75.111937 40.995654, -75.105923 40.997384, -75.099909 40.999114, -75.093895 41.000843, -75.087880 41.002572, -75.081866 41.004300, -75.075850 41.006029, -75.069835 41.007757, -75.063819 41.009485, -75.057803 41.011212, -75.051787 41.012939, -75.045770 41.014666, -75.039753 41.016392, -75.033735 41.018118, -75.027718 41.019844, -75.021700 41.021570, -75.015681 41.023295, -75.009663 41.025020, -75.003644 41.026744, -74.997624 41.028469, -74.991605 41.030193, -74.985585 41.031916, -74.979565 41.033640, -74.973544 41.035363, -74.967523 41.037085, -74.961502 41.038808, -74.955481 41.040530, -74.949459 41.042251, -74.943437 41.043973, -74.937414 41.045694, -74.931391 41.047415, -74.925368 41.049135, -74.919345 41.050856, -74.913321 41.052575, -74.907297 41.054295, -74.901273 41.056014, -74.895248 41.057733, -74.889223 41.059452, -74.883198 41.061170, -74.877173 41.062888, -74.871147 41.064606, -74.865120 41.066323, -74.859094 41.068040, -74.853067 41.069757, -74.847040 41.071473, -74.841012 41.073189, -74.834985 41.074905, -74.828957 41.076621, -74.822928 41.078336, -74.816899 41.080051, -74.810870 41.081765, -74.804841 41.083480, -74.798811 41.085193, -74.792781 41.086907, -74.786751 41.088620, -74.780720 41.090333, -74.774690 41.092046, -74.768658 41.093758, -74.762627 41.095470, -74.756595 41.097182, -74.750563 41.098893, -74.744530 41.100604, -74.738497 41.102315, -74.732464 41.104026, -74.726431 41.105736, -74.720397 41.107446, -74.714363 41.109155, -74.708329 41.110864, -74.702294 41.112573, -74.696259 41.114282, -74.690224 41.115990, -74.684188 41.117698, -74.678152 41.119406, -74.672116 41.121113, -74.666079 41.122820, -74.660042 41.124527, -74.654005 41.126233, -74.647967 41.127939, -74.641930 41.129645, -74.635891 41.131350, -74.629853 41.133055, -74.623814 41.134760, -74.617775 41.136464, -74.611736 41.138169, -74.605696 41.139872, -74.599656 41.141576, -74.593616 41.143279, -74.587575 41.144982, -74.581534 41.146685, -74.575493 41.148387, -74.569451 41.150089, -74.563409 41.151790, -74.557367 41.153492, -74.551324 41.155193, -74.545281 41.156893, -74.539238 41.158594, -74.533195 41.160294, -74.527151 41.161993, -74.521107 41.163693, -74.515062 41.165392, -74.509018 41.167091, -74.502973 41.168789, -74.496927 41.170487, -74.490882 41.172185, -74.484836 41.173883, -74.478789 41.175580, -74.472743 41.177277, -74.466696 41.178973, -74.460649 41.180670, -74.454601 41.182366, -74.448553 41.184061, -74.442505 41.185757, -74.436456 41.187451, -74.430408 41.189146, -74.424358 41.190841, -74.418309 41.192535, -74.412259 41.194228, -74.406209 41.195922, -74.400159 41.197615, -74.394108 41.199308, -74.388057 41.201000, -74.382006 41.202692, -74.375954 41.204384, -74.369902 41.206075, -74.363850 41.207767, -74.357797 41.209458, -74.351745 41.211148, -74.345691 41.212838, -74.339638 41.214528, -74.333584 41.216218, -74.327530 41.217907, -74.321475 41.219596, -74.315421 41.221285, -74.309366 41.222973, -74.303310 41.224661, -74.297254 41.226349, -74.291198 41.228036, -74.285142 41.229723, -74.279086 41.231410, -74.273029 41.233096, -74.266971 41.234783, -74.260914 41.236468, -74.254856 41.238154, -74.248798 41.239839, -74.242739 41.241524, -74.236680 41.243208, -74.230621 41.244893, -74.224562 41.246576, -74.218502 41.248260, -74.212442 41.249943, -74.206382 41.251626, -74.200321 41.253309, -74.194260 41.254991, -74.188199 41.256673, -74.182137 41.258355, -74.176075 41.260036, -74.170013 41.261717, -74.163950 41.263398, -74.157887 41.265078, -74.151824 41.266758, -74.145761 41.268438, -74.139697 41.270118, -74.133633 41.271797, -74.127568 41.273475, -74.121503 41.275154, -74.115438 41.276832, -74.109373 41.278510, -74.103307 41.280187, -74.097241 41.281865, -74.091175 41.283542, -74.085108 41.285218, -74.079041 41.286894, -74.072974 41.288570, -74.066907 41.290246, -74.060839 41.291921, -74.054771 41.293596, -74.048702 41.295271, -74.042633 41.296945, -74.036564 41.298619, -74.030495 41.300293, -74.024425 41.301966, -74.018355 41.303639, -74.012285 41.305312, -74.006214 41.306985, -74.000143 41.308657, -73.994072 41.310329, -73.988000 41.312000, -73.986125 41.316655, -73.984251 41.321311, -73.982376 41.325966, -73.980500 41.330621, -73.978625 41.335276, -73.976749 41.339931, -73.974873 41.344586, -73.972996 41.349241, -73.971120 41.353896, -73.969243 41.358551, -73.967365 41.363206, -73.965488 41.367861, -73.963610 41.372516, -73.961732 41.377171, -73.959854 41.381826, -73.957975 41.386481, -73.956097 41.391136, -73.954217 41.395790, -73.952338 41.400445, -73.950458 41.405100, -73.948579 41.409754, -73.946698 41.414409, -73.944818 41.419064, -73.942937 41.423718, -73.941056 41.428373, -73.939175 41.433027, -73.937293 41.437682, -73.935412 41.442336, -73.933530 41.446991, -73.931647 41.451645, -73.929765 41.456300, -73.927882 41.460954, -73.925999 41.465608, -73.924115 41.470262, -73.922232 41.474917, -73.920348 41.479571, -73.918463 41.484225, -73.916579 41.488879, -73.914694 41.493533, -73.912809 41.498187, -73.910924 41.502841, -73.909038 41.507495, -73.907152 41.512149, -73.905266 41.516803, -73.903380 41.521457, -73.901493 41.526111, -73.899606 41.530765, -73.897719 41.535419, -73.895832 41.540073, -73.893944 41.544727, -73.892056 41.549380, -73.890168 41.554034, -73.888279 41.558688, -73.886390 41.563341, -73.884501 41.567995, -73.882612 41.572649, -73.880722 41.577302, -73.878832 41.581956, -73.876942 41.586609, -73.875051 41.591263, -73.873161 41.595916, -73.871270 41.600570, -73.869378 41.605223, -73.867487 41.609876, -73.865595 41.614530, -73.863703 41.619183, -73.861811 41.623836, -73.859918 41.628489, -73.858025 41.633143, -73.856132 41.637796, -73.854238 41.642449, -73.852345 41.647102, -73.850451 41.651755, -73.848556 41.656408, -73.846662 41.661061, -73.844767 41.665714, -73.842872 41.670367, -73.840976 41.675020, -73.839081 41.679673, -73.837185 41.684326, -73.835289 41.688978, -73.833392 41.693631, -73.831495 41.698284, -73.829598 41.702937, -73.827701 41.707589, -73.825803 41.712242, -73.823905 41.716895, -73.822007 41.721547, -73.820109 41.726200, -73.818210 41.730852, -73.816311 41.735505, -73.814412 41.740157, -73.812513 41.744810, -73.810613 41.749462, -73.808713 41.754115, -73.806812 41.758767, -73.804912 41.763419, -73.803011 41.768071, -73.801110 41.772724, -73.799208 41.777376, -73.797307 41.782028, -73.795405 41.786680, -73.793502 41.791332, -73.791600 41.795985, -73.789697 41.800637, -73.787794 41.805289, -73.785891 41.809941, -73.783987 41.814593, -73.782083 41.819245, -73.780179 41.823896, -73.778274 41.828548, -73.776370 41.833200, -73.774465 41.837852, -73.772559 41.842504, -73.770654 41.847156, -73.768748 41.851807, -73.766842 41.856459, -73.764935 41.861111, -73.763029 41.865762, -73.761122 41.870414, -73.759214 41.875065, -73.757307 41.879717, -73.755399 41.884368, -73.753491 41.889020, -73.751583 41.893671, -73.749674 41.898323, -73.747765 41.902974, -73.745856 41.907625, -73.743946 41.912277, -73.742037 41.916928, -73.740127 41.921579, -73.738216 41.926231, -73.736306 41.930882, -73.734395 41.935533, -73.732484 41.940184, -73.730572 41.944835, -73.728661 41.949486, -73.726749 41.954137, -73.724836 41.958788, -73.722924 41.963439, -73.721011 41.968090, -73.719098 41.972741, -73.717185 41.977392, -73.715271 41.982043, -73.713357 41.986693, -73.711443 41.991344, -73.709528 41.995995, -73.707613 42.000646, -73.705698 42.005296, -73.703783 42.009947, -73.701867 42.014598, -73.699952 42.019248, -73.698035 42.023899, -73.696119 42.028549, -73.694202 42.033200, -73.692285 42.037850, -73.690368 42.042501, -73.688450 42.047151, -73.686532 42.051801, -73.684614 42.056452, -73.682696 42.061102, -73.680777 42.065752, -73.678858 42.070402, -73.676939 42.075053, -73.675019 42.079703, -73.673100 42.084353, -73.671179 42.089003, -73.669259 42.093653, -73.667338 42.098303, -73.665417 42.102953, -73.663496 42.107603, -73.661575 42.112253, -73.659653 42.116903, -73.657731 42.121553, -73.655809 42.126203, -73.653886 42.130853, -73.651963 42.135502, -73.650040 42.140152, -73.648116 42.144802, -73.646192 42.149451, -73.644268 42.154101, -73.642344 42.158751, -73.640419 42.163400, -73.638495 42.168050, -73.636569 42.172699, -73.634644 42.177349, -73.632718 42.181998, -73.630792 42.186648, -73.628866 42.191297, -73.626939 42.195947, -73.625012 42.200596, -73.623085 42.205245, -73.621158 42.209894, -73.619230 42.214544, -73.617302 42.219193, -73.615374 42.223842, -73.613445 42.228491, -73.611516 42.233140, -73.609587 42.237789, -73.607658 42.242438, -73.605728 42.247087, -73.603798 42.251736, -73.601868 42.256385, -73.599937 42.261034, -73.598006 42.265683, -73.596075 42.270332, -73.594144 42.274981, -73.592212 42.279630, -73.590280 42.284278, -73.588348 42.288927, -73.586415 42.293576, -73.584482 42.298224, -73.582549 42.302873, -73.580616 42.307522, -73.578682 42.312170, -73.576748 42.316819, -73.574814 42.321467, -73.572879 42.326116, -73.570944 42.330764, -73.569009 42.335412, -73.567074 42.340061, -73.565138 42.344709, -73.563202 42.349357, -73.561266 42.354006, -73.559329 42.358654, -73.557392 42.363302, -73.555455 42.367950, -73.553517 42.372598, -73.551580 42.377246, -73.549642 42.381894, -73.547703 42.386542, -73.545765 42.391190, -73.543826 42.395838, -73.541887 42.400486, -73.539947 42.405134, -73.538008 42.409782, -73.536068 42.414430, -73.534127 42.419078, -73.532187 42.423726, -73.530246 42.428373, -73.528305 42.433021, -73.526363 42.437669, -73.524421 42.442316, -73.522479 42.446964, -73.520537 42.451612, -73.518595 42.456259, -73.516652 42.460907, -73.514708 42.465554, -73.512765 42.470201, -73.510821 42.474849, -73.508877 42.479496, -73.506933 42.484144, -73.504988 42.488791, -73.503043 42.493438, -73.501098 42.498085, -73.499153 42.502733, -73.497207 42.507380, -73.495261 42.512027, -73.493314 42.516674, -73.491368 42.521321, -73.489421 42.525968, -73.487473 42.530615, -73.485526 42.535262, -73.483578 42.539909, -73.481630 42.544556, -73.479682 42.549203, -73.477733 42.553850, -73.475784 42.558497, -73.473835 42.563143, -73.471885 42.567790, -73.469935 42.572437, -73.467985 42.577084, -73.466035 42.581730, -73.464084 42.586377, -73.462133 42.591023, -73.460182 42.595670, -73.458230 42.600317, -73.456278 42.604963, -73.454326 42.609609, -73.452374 42.614256, -73.450421 42.618902, -73.448468 42.623549, -73.446514 42.628195, -73.444561 42.632841, -73.442607 42.637487, -73.440653 42.642134, -73.438698 42.646780, -73.436743 42.651426, -73.434788 42.656072, -73.432833 42.660718, -73.430877 42.665364, -73.428921 42.670010, -73.426965 42.674656, -73.425008 42.679302, -73.423052 42.683948, -73.421094 42.688594, -73.419137 42.693240, -73.417179 42.697886, -73.415221 42.702532, -73.413263 42.707177, -73.411304 42.711823, -73.409346 42.716469, -73.407386 42.721114, -73.405427 42.725760, -73.403467 42.730406, -73.401507 42.735051, -73.399547 42.739697, -73.397586 42.744342, -73.395625 42.748988, -73.393664 42.753633, -73.391702 42.758278, -73.389740 42.762924, -73.387778 42.767569, -73.385816 42.772214, -73.383853 42.776860, -73.381890 42.781505, -73.379927 42.786150, -73.377963 42.790795, -73.375999 42.795440, -73.374035 42.800085, -73.372071 42.804730, -73.370106 42.809375, -73.368141 42.814020, -73.366175 42.818665, -73.364210 42.823310, -73.362244 42.827955, -73.360278 42.832600, -73.358311 42.837245, -73.356344 42.841890, -73.354377 42.846534, -73.352410 42.851179, -73.350442 42.855824, -73.348474 42.860468, -73.346506 42.865113, -73.344537 42.869758, -73.342568 42.874402, -73.340599 42.879047, -73.338629 42.883691, -73.336659 42.888336, -73.334689 42.892980, -73.332719 42.897624, -73.330748 42.902269, -73.328777 42.906913, -73.326806 42.911557, -73.324834 42.916202, -73.322862 42.920846, -73.320890 42.925490, -73.318918 42.930134, -73.316945 42.934778, -73.314972 42.939422, -73.312999 42.944066, -73.311025 42.948710, -73.309051 42.953354, -73.307077 42.957998, -73.305102 42.962642, -73.303127 42.967286, -73.301152 42.971930, -73.299177 42.976574, -73.297201 42.981217, -73.295225 42.985861, -73.293248 42.990505, -73.291272 42.995149, -73.289295 42.999792, -73.287318 43.004436, -73.285340 43.009079, -73.283362 43.013723, -73.281384 43.018366, -73.279406 43.023010, -73.277427 43.027653, -73.275448 43.032297, -73.273468 43.036940, -73.271489 43.041583, -73.269509 43.046227, -73.267529 43.050870, -73.265548 43.055513, -73.263567 43.060156, -73.261586 43.064799, -73.259605 43.069443, -73.257623 43.074086, -73.255641 43.078729, -73.253659 43.083372, -73.251676 43.088015, -73.249693 43.092658, -73.247710 43.097301, -73.245726 43.101943, -73.243742 43.106586, -73.241758 43.111229, -73.239774 43.115872, -73.237789 43.120515, -73.235804 43.125157, -73.233819 43.129800, -73.231833 43.134443, -73.229847 43.139085, -73.227861 43.143728, -73.225874 43.148370, -73.223887 43.153013, -73.221900 43.157655, -73.219913 43.162298, -73.217925 43.166940, -73.215937 43.171583, -73.213948 43.176225, -73.211960 43.180867, -73.209971 43.185509, -73.207981 43.190152, -73.205992 43.194794, -73.204002 43.199436, -73.202012 43.204078, -73.200021 43.208720, -73.198030 43.213362, -73.196039 43.218004, -73.194048 43.222646, -73.192056 43.227288, -73.190064 43.231930, -73.188072 43.236572, -73.186079 43.241214, -73.184086 43.245856, -73.182093 43.250498, -73.180100 43.255139, -73.178106 43.259781, -73.176112 43.264423, -73.174117 43.269064, -73.172123 43.273706, -73.170127 43.278347, -73.168132 43.282989, -73.166136 43.287630, -73.164141 43.292272, -73.162144 43.296913, -73.160148 43.301555, -73.158151 43.306196, -73.156154 43.310837, -73.154156 43.315479, -73.152158 43.320120, -73.150160 43.324761, -73.148162 43.329402, -73.146163 43.334044, -73.144164 43.338685, -73.142165 43.343326, -73.140165 43.347967, -73.138165 43.352608, -73.136165 43.357249, -73.134165 43.361890, -73.132164 43.366531, -73.130163 43.371172, -73.128161 43.375812, -73.126159 43.380453, -73.124157 43.385094, -73.122155 43.389735, -73.120152 43.394375, -73.118149 43.399016, -73.116146 43.403657, -73.114142 43.408297, -73.112138 43.412938, -73.110134 43.417578, -73.108130 43.422219, -73.106125 43.426859, -73.104120 43.431500, -73.102114 43.436140, -73.100108 43.440781, -73.098102 43.445421, -73.096096 43.450061, -73.094089 43.454701, -73.092082 43.459342, -73.090075 43.463982, -73.088067 43.468622, -73.086060 43.473262, -73.084051 43.477902, -73.082043 43.482542, -73.080034 43.487182, -73.078025 43.491822, -73.076015 43.496462, -73.074006 43.501102, -73.071995 43.505742, -73.069985 43.510382, -73.067974 43.515021, -73.065963 43.519661, -73.063952 43.524301, -73.061940 43.528941, -73.059929 43.533580, -73.057916 43.538220, -73.055904 43.542859, -73.053891 43.547499, -73.051878 43.552138, -73.049864 43.556778, -73.047850 43.561417, -73.045836 43.566057, -73.043822 43.570696, -73.041807 43.575335, -73.039792 43.579975, -73.037777 43.584614, -73.035761 43.589253, -73.033745 43.593892, -73.031729 43.598532, -73.029712 43.603171, -73.027696 43.607810, -73.025678 43.612449, -73.023661 43.617088, -73.021643 43.621727, -73.019625 43.626366, -73.017606 43.631005, -73.015588 43.635644, -73.013569 43.640282, -73.011549 43.644921, -73.009529 43.649560, -73.007509 43.654199, -73.005489 43.658837, -73.003469 43.663476, -73.001448 43.668115, -72.999426 43.672753, -72.997405 43.677392, -72.995383 43.682030, -72.993361 43.686669, -72.991338 43.691307, -72.989315 43.695946, -72.987292 43.700584, -72.985269 43.705222, -72.983245 43.709861, -72.981221 43.714499, -72.979197 43.719137, -72.977172 43.723775, -72.975147 43.728413, -72.973121 43.733052, -72.971096 43.737690, -72.969070 43.742328, -72.967044 43.746966, -72.965017 43.751604, -72.962990 43.756242, -72.960963 43.760880, -72.958935 43.765517, -72.956908 43.770155, -72.954879 43.774793, -72.952851 43.779431, -72.950822 43.784069, -72.948793 43.788706, -72.946764 43.793344, -72.944734 43.797981, -72.942704 43.802619, -72.940674 43.807257, -72.938643 43.811894, -72.936612 43.816532, -72.934581 43.821169, -72.932549 43.825806, -72.930517 43.830444, -72.928485 43.835081, -72.926452 43.839718, -72.924419 43.844356, -72.922386 43.848993, -72.920353 43.853630, -72.918319 43.858267, -72.916285 43.862904, -72.914250 43.867541, -72.912215 43.872179, -72.910180 43.876816, -72.908145 43.881452, -72.906109 43.886089, -72.904073 43.890726, -72.902037 43.895363, -72.900000 43.900000, -72.893615 43.901530, -72.887229 43.903060, -72.880843 43.904590, -72.874456 43.906120, -72.868069 43.907649, -72.861682 43.909177, -72.855295 43.910705, -72.848907 43.912233, -72.842519 43.913761, -72.836131 43.915288, -72.829742 43.916815, -72.823353 43.918341, -72.816964 43.919868, -72.810574 43.921393, -72.804184 43.922919, -72.797794 43.924444, -72.791403 43.925969, -72.785012 43.927493, -72.778620 43.929017, -72.772229 43.930541, -72.765837 43.932064, -72.759444 43.933587, -72.753052 43.935109, -72.746659 43.936632, -72.740266 43.938154, -72.733872 43.939675, -72.727478 43.941196, -72.721084 43.942717, -72.714689 43.944237, -72.708294 43.945758, -72.701899 43.947277, -72.695503 43.948797, -72.689107 43.950316, -72.682711 43.951834, -72.676314 43.953353, -72.669918 43.954871, -72.663520 43.956388, -72.657123 43.957905, -72.650725 43.959422, -72.644327 43.960939, -72.637928 43.962455, -72.631529 43.963971, -72.625130 43.965486, -72.618730 43.967001, -72.612331 43.968516, -72.605930 43.970030, -72.599530 43.971544, -72.593129 43.973058, -72.586728 43.974571, -72.580327 43.976084, -72.573925 43.977597, -72.567523 43.979109, -72.561120 43.980621, -72.554717 43.982133, -72.548314 43.983644, -72.541911 43.985155, -72.535507 43.986665, -72.529103 43.988175, -72.522699 43.989685, -72.516294 43.991194, -72.509889 43.992703, -72.503483 43.994212, -72.497078 43.995720, -72.490672 43.997228, -72.484265 43.998736, -72.477859 44.000243, -72.471452 44.001750, -72.465044 44.003256, -72.458636 44.004762, -72.452229 44.006268, -72.445820 44.007774, -72.439412 44.009279, -72.433003 44.010783, -72.426593 44.012288, -72.420184 44.013792, -72.413774 44.015295, -72.407363 44.016799, -72.400953 44.018302, -72.394542 44.019804, -72.388131 44.021306, -72.381719 44.022808, -72.375307 44.024310, -72.368895 44.025811, -72.362482 44.027312, -72.356070 44.028812, -72.349656 44.030312, -72.343243 44.031812, -72.336829 44.033311, -72.330415 44.034810, -72.324000 44.036309, -72.317586 44.037807, -72.311170 44.039305, -72.304755 44.040802, -72.298339 44.042300, -72.291923 44.043796, -72.285507 44.045293, -72.279090 44.046789, -72.272673 44.048285, -72.266255 44.049780, -72.259838 44.051275, -72.253420 44.052770, -72.247001 44.054264, -72.240582 44.055758, -72.234163 44.057252, -72.227744 44.058745, -72.221324 44.060238, -72.214904 44.061730, -72.208484 44.063223, -72.202063 44.064714, -72.195642 44.066206, -72.189221 44.067697, -72.182800 44.069188, -72.176378 44.070678, -72.169955 44.072168, -72.163533 44.073658, -72.157110 44.075147, -72.150687 44.076636, -72.144263 44.078124, -72.137839 44.079613, -72.131415 44.081100, -72.124990 44.082588, -72.118566 44.084075, -72.112140 44.085562, -72.105715 44.087048, -72.099289 44.088534, -72.092863 44.090020, -72.086436 44.091505, -72.080010 44.092990, -72.073583 44.094475, -72.067155 44.095959, -72.060727 44.097443, -72.054299 44.098926, -72.047871 44.100409, -72.041442 44.101892, -72.035013 44.103375, -72.028584 44.104857, -72.022154 44.106339, -72.015724 44.107820, -72.009294 44.109301, -72.002863 44.110781, -71.996432 44.112262, -71.990001 44.113742, -71.983569 44.115221, -71.977137 44.116700, -71.970705 44.118179, -71.964272 44.119658, -71.957839 44.121136, -71.951406 44.122614, -71.944973 44.124091, -71.938539 44.125568, -71.932105 44.127045, -71.925670 44.128521, -71.919235 44.129997, -71.912800 44.131472, -71.906365 44.132948, -71.899929 44.134423, -71.893493 44.135897, -71.887056 44.137371, -71.880619 44.138845, -71.874182 44.140318, -71.867745 44.141791, -71.861307 44.143264, -71.854869 44.144736, -71.848431 44.146208, -71.841992 44.147680, -71.835553 44.149151, -71.829114 44.150622, -71.822674 44.152093, -71.816234 44.153563, -71.809794 44.155033, -71.803353 44.156502, -71.796912 44.157971, -71.790471 44.159440, -71.784029 44.160908, -71.777587 44.162376, -71.771145 44.163844, -71.764703 44.165311, -71.758260 44.166778, -71.751817 44.168244, -71.745373 44.169711, -71.738929 44.171176, -71.732485 44.172642, -71.726041 44.174107, -71.719596 44.175572, -71.713151 44.177036, -71.706705 44.178500, -71.700260 44.179964, -71.693813 44.181427, -71.687367 44.182890, -71.680920 44.184352, -71.674473 44.185815, -71.668026 44.187276, -71.661578 44.188738, -71.655130 44.190199, -71.648682 44.191660, -71.642233 44.193120, -71.635784 44.194580, -71.629335 44.196040, -71.622886 44.197499, -71.616436 44.198958, -71.609985 44.200417, -71.603535 44.201875, -71.597084 44.203333, -71.590633 44.204790, -71.584181 44.206247, -71.577730 44.207704, -71.571277 44.209160, -71.564825 44.210616, -71.558372 44.212072, -71.551919 44.213527, -71.545466 44.214982, -71.539012 44.216437, -71.532558 44.217891, -71.526104 44.219345, -71.519649 44.220798, -71.513194 44.222251, -71.506738 44.223704, -71.500283 44.225157, -71.493827 44.226609, -71.487371 44.228060, -71.480914 44.229512, -71.474457 44.230962, -71.468000 44.232413, -71.461542 44.233863, -71.455084 44.235313, -71.448626 44.236763, -71.442168 44.238212, -71.435709 44.239660, -71.429250 44.241109, -71.422790 44.242557, -71.416330 44.244004, -71.409870 44.245452, -71.403410 44.246899, -71.396949 44.248345, -71.390488 44.249791, -71.384027 44.251237, -71.377565 44.252683, -71.371103 44.254128, -71.364641 44.255573, -71.358178 44.257017, -71.351715 44.258461, -71.345252 44.259905, -71.338788 44.261348, -71.332324 44.262791, -71.325860 44.264233, -71.319396 44.265676, -71.312931 44.267117, -71.306465 44.268559, -71.300000 44.270000, -71.295205 44.273440, -71.290410 44.276880, -71.285614 44.280320, -71.280818 44.283759, -71.276021 44.287199, -71.271223 44.290638, -71.266425 44.294077, -71.261627 44.297516, -71.256827 44.300954, -71.252028 44.304393, -71.247227 44.307831, -71.242426 44.311269, -71.237625 44.314706, -71.232823 44.318144, -71.228020 44.321581, -71.223217 44.325019, -71.218414 44.328455, -71.213609 44.331892, -71.208805 44.335329, -71.203999 44.338765, -71.199193 44.342201, -71.194387 44.345637, -71.189580 44.349073, -71.184772 44.352508, -71.179964 44.355944, -71.175155 44.359379, -71.170346 44.362814, -71.165536 44.366249, -71.160725 44.369683, -71.155914 44.373117, -71.151103 44.376552, -71.146291 44.379986, -71.141478 44.383419, -71.136665 44.386853, -71.131851 44.390286, -71.127036 44.393719, -71.122221 44.397152, -71.117406 44.400585, -71.112590 44.404017, -71.107773 44.407450, -71.102956 44.410882, -71.098138 44.414314, -71.093320 44.417745, -71.088501 44.421177, -71.083681 44.424608, -71.078861 44.428039, -71.074041 44.431470, -71.069219 44.434901, -71.064398 44.438331, -71.059575 44.441762, -71.054752 44.445192, -71.049929 44.448622, -71.045105 44.452051, -71.040280 44.455481, -71.035455 44.458910, -71.030629 44.462339, -71.025803 44.465768, -71.020976 44.469196, -71.016149 44.472625, -71.011321 44.476053, -71.006492 44.479481, -71.001663 44.482909, -70.996833 44.486337, -70.992003 44.489764, -70.987172 44.493191, -70.982341 44.496618, -70.977509 44.500045, -70.972676 44.503472, -70.967843 44.506898, -70.963010 44.510324, -70.958175 44.513750, -70.953341 44.517176, -70.948505 44.520602, -70.943669 44.524027, -70.938833 44.527452, -70.933996 44.530877, -70.929158 44.534302, -70.924320 44.537727, -70.919481 44.541151, -70.914642 44.544575, -70.909802 44.547999, -70.904961 44.551423, -70.900120 44.554847, -70.895278 44.558270, -70.890436 44.561693, -70.885593 44.565116, -70.880750 44.568539, -70.875906 44.571961, -70.871062 44.575384, -70.866217 44.578806, -70.861371 44.582228, -70.856525 44.585649, -70.851678 44.589071, -70.846831 44.592492, -70.841983 44.595913, -70.837134 44.599334, -70.832285 44.602755, -70.827436 44.606175, -70.822585 44.609596, -70.817735 44.613016, -70.812883 44.616436, -70.808031 44.619855, -70.803179 44.623275, -70.798326 44.626694, -70.793472 44.630113, -70.788618 44.633532, -70.783763 44.636951, -70.778908 44.640369, -70.774052 44.643787, -70.769196 44.647205, -70.764339 44.650623, -70.759481 44.654041, -70.754623 44.657458, -70.749764 44.660875, -70.744905 44.664292, -70.740045 44.667709, -70.735184 44.671126, -70.730323 44.674542, -70.725461 44.677958, -70.720599 44.681374, -70.715736 44.684790, -70.710873 44.688205, -70.706009 44.691621, -70.701145 44.695036, -70.696280 44.698451, -70.691414 44.701866, -70.686548 44.705280, -70.681681 44.708694, -70.676814 44.712108, -70.671946 44.715522, -70.667077 44.718936, -70.662208 44.722350, -70.657338 44.725763, -70.652468 44.729176, -70.647597 44.732589, -70.642726 44.736001, -70.637854 44.739414, -70.632981 44.742826, -70.628108 44.746238, -70.623234 44.749650, -70.618360 44.753062, -70.613485 44.756473, -70.608610 44.759884, -70.603734 44.763295, -70.598857 44.766706, -70.593980 44.770116, -70.589102 44.773527, -70.584224 44.776937, -70.579345 44.780347, -70.574466 44.783757, -70.569586 44.787166, -70.564705 44.790576, -70.559824 44.793985, -70.554942 44.797394, -70.550060 44.800802, -70.545177 44.804211, -70.540293 44.807619, -70.535409 44.811027, -70.530525 44.814435, -70.525640 44.817843, -70.520754 44.821250, -70.515867 44.824657, -70.510980 44.828064, -70.506093 44.831471, -70.501205 44.834878, -70.496316 44.838284, -70.491427 44.841691, -70.486537 44.845097, -70.481646 44.848502, -70.476755 44.851908, -70.471864 44.855313, -70.466972 44.858718, -70.462079 44.862123, -70.457186 44.865528, -70.452292 44.868933, -70.447397 44.872337, -70.442502 44.875741, -70.437607 44.879145, -70.432710 44.882549, -70.427814 44.885952, -70.422916 44.889356, -70.418018 44.892759, -70.413120 44.896161, -70.408221 44.899564, -70.403321 44.902967, -70.398421 44.906369, -70.393520 44.909771, -70.388618 44.913173, -70.383716 44.916574, -70.378814 44.919976, -70.373911 44.923377, -70.369007 44.926778, -70.364102 44.930179, -70.359198 44.933579, -70.354292 44.936980, -70.349386 44.940380, -70.344479 44.943780, -70.339572 44.947179, -70.334664 44.950579, -70.329756 44.953978, -70.324847 44.957377, -70.319937 44.960776, -70.315027 44.964175, -70.310116 44.967573, -70.305205 44.970971, -70.300293 44.974369, -70.295381 44.977767, -70.290468 44.981165, -70.285554 44.984562, -70.280640 44.987960, -70.275725 44.991356, -70.270810 44.994753, -70.265894 44.998150, -70.260977 45.001546, -70.256060 45.004942, -70.251142 45.008338, -70.246224 45.011734, -70.241305 45.015129, -70.236386 45.018525, -70.231466 45.021920, -70.226545 45.025315, -70.221624 45.028709, -70.216702 45.032104, -70.211780 45.035498, -70.206857 45.038892, -70.201933 45.042286, -70.197009 45.045679, -70.192084 45.049073, -70.187159 45.052466, -70.182233 45.055859, -70.177306 45.059252, -70.172379 45.062644, -70.167452 45.066037, -70.162524 45.069429, -70.157595 45.072821, -70.152665 45.076212, -70.147735 45.079604, -70.142805 45.082995, -70.137874 45.086386, -70.132942 45.089777, -70.128010 45.093168, -70.123077 45.096558, -70.118143 45.099948, -70.113209 45.103338, -70.108274 45.106728, -70.103339 45.110118, -70.098403 45.113507, -70.093467 45.116896, -70.088530 45.120285, -70.083592 45.123674, -70.078654 45.127062, -70.073715 45.130451, -70.068776 45.133839, -70.063836 45.137227, -70.058895 45.140614, -70.053954 45.144002, -70.049013 45.147389, -70.044070 45.150776, -70.039127 45.154163, -70.034184 45.157549, -70.029240 45.160936, -70.024295 45.164322, -70.019350 45.167708, -70.014404 45.171094, -70.009458 45.174479, -70.004511 45.177864, -69.999563 45.181250, -69.994615 45.184634, -69.989666 45.188019, -69.984717 45.191404, -69.979767 45.194788, -69.974816 45.198172, -69.969865 45.201556, -69.964914 45.204939, -69.959961 45.208323, -69.955008 45.211706, -69.950055 45.215089, -69.945101 45.218471, -69.940146 45.221854, -69.935191 45.225236, -69.930235 45.228618, -69.925279 45.232000, -69.920322 45.235382, -69.915364 45.238763, -69.910406 45.242145, -69.905447 45.245526, -69.900488 45.248907, -69.895528 45.252287, -69.890567 45.255668, -69.885606 45.259048, -69.880644 45.262428, -69.875682 45.265807, -69.870719 45.269187, -69.865755 45.272566, -69.860791 45.275945, -69.855827 45.279324, -69.850861 45.282703, -69.845896 45.286081, -69.840929 45.289460, -69.835962 45.292838, -69.830994 45.296215, -69.826026 45.299593, -69.821057 45.302970, -69.816088 45.306348, -69.811118 45.309724, -69.806147 45.313101, -69.801176 45.316478, -69.796204 45.319854, -69.791232 45.323230, -69.786259 45.326606, -69.781285 45.329982, -69.776311 45.333357, -69.771336 45.336732, -69.766361 45.340107, -69.761385 45.343482, -69.756409 45.346857, -69.751431 45.350231, -69.746454 45.353605, -69.741475 45.356979, -69.736496 45.360353, -69.731517 45.363726, -69.726537 45.367099, -69.721556 45.370473, -69.716575 45.373845, -69.711593 45.377218, -69.706610 45.380590, -69.701627 45.383963, -69.696644 45.387335, -69.691659 45.390706, -69.686675 45.394078, -69.681689 45.397449, -69.676703 45.400820, -69.671716 45.404191, -69.666729 45.407562, -69.661741 45.410932, -69.656753 45.414303, -69.651764 45.417673, -69.646774 45.421042, -69.641784 45.424412, -69.636793 45.427781, -69.631802 45.431150, -69.626810 45.434519, -69.621817 45.437888, -69.616824 45.441257, -69.611830 45.444625, -69.606836 45.447993, -69.601841 45.451361, -69.596845 45.454728, -69.591849 45.458096, -69.586852 45.461463, -69.581855 45.464830, -69.576857 45.468197, -69.571859 45.471563, -69.566859 45.474930, -69.561860 45.478296, -69.556859 45.481662, -69.551858 45.485027, -69.546857 45.488393, -69.541855 45.491758, -69.536852 45.495123, -69.531849 45.498488, -69.526845 45.501852, -69.521840 45.505217, -69.516835 45.508581, -69.511829 45.511945, -69.506823 45.515308, -69.501816 45.518672, -69.496808 45.522035, -69.491800 45.525398, -69.486792 45.528761, -69.481782 45.532124, -69.476772 45.535486, -69.471762 45.538848, -69.466751 45.542210, -69.461739 45.545572, -69.456727 45.548933, -69.451714 45.552295, -69.446700 45.555656, -69.441686 45.559017, -69.436671 45.562377, -69.431656 45.565738, -69.426640 45.569098, -69.421624 45.572458, -69.416606 45.575818, -69.411589 45.579177, -69.406570 45.582536, -69.401551 45.585896, -69.396532 45.589254, -69.391512 45.592613, -69.386491 45.595972, -69.381470 45.599330, -69.376448 45.602688, -69.371425 45.606046, -69.366402 45.609403, -69.361378 45.612760, -69.356354 45.616118, -69.351329 45.619474, -69.346304 45.622831, -69.341278 45.626188, -69.336251 45.629544, -69.331223 45.632900, -69.326195 45.636256, -69.321167 45.639611, -69.316138 45.642967, -69.311108 45.646322, -69.306078 45.649677, -69.301047 45.653031, -69.296015 45.656386, -69.290983 45.659740, -69.285950 45.663094, -69.280917 45.666448, -69.275883 45.669801, -69.270848 45.673155, -69.265813 45.676508, -69.260777 45.679861, -69.255741 45.683214, -69.250704 45.686566, -69.245666 45.689918, -69.240628 45.693270, -69.235589 45.696622, -69.230550 45.699974, -69.225510 45.703325, -69.220469 45.706676, -69.215428 45.710027, -69.210386 45.713378, -69.205344 45.716728, -69.200301 45.720079, -69.195257 45.723429, -69.190213 45.726779, -69.185168 45.730128, -69.180123 45.733478, -69.175077 45.736827, -69.170030 45.740176, -69.164983 45.743524, -69.159935 45.746873, -69.154886 45.750221, -69.149837 45.753569, -69.144788 45.756917, -69.139737 45.760265, -69.134686 45.763612, -69.129635 45.766959, -69.124583 45.770306, -69.119530 45.773653, -69.114477 45.776999, -69.109423 45.780345, -69.104368 45.783691, -69.099313 45.787037, -69.094257 45.790383, -69.089201 45.793728, -69.084144 45.797073, -69.079087 45.800418, -69.074028 45.803763, -69.068970 45.807107, -69.063910 45.810452, -69.058850 45.813796, -69.053790 45.817140, -69.048728 45.820483, -69.043666 45.823827, -69.038604 45.827170, -69.033541 45.830513, -69.028477 45.833855, -69.023413 45.837198, -69.018348 45.840540, -69.013283 45.843882, -69.008217 45.847224, -69.003150 45.850565, -68.998083 45.853907, -68.993015 45.857248, -68.987946 45.860589, -68.982877 45.863929, -68.977807 45.867270, -68.972737 45.870610, -68.967666 45.873950, -68.962594 45.877290, -68.957522 45.880629, -68.952450 45.883969, -68.947376 45.887308, -68.942302 45.890647, -68.937228 45.893985, -68.932152 45.897324, -68.927076 45.900662, -68.922000 45.904000)
