LINESTRING (144.660000 -38.270000, 144.694004 -38.287370, 144.728025 -38.304731, 144.762062 -38.322082, 144.796115 -38.339423, 144.830185 -38.356754, 144.864271 -38.374075, 144.898373 -38.391386, 144.932492 -38.408688, 144.966627 -38.425979, 145.000778 -38.443261, 145.034945 -38.460533, 145.069129 -38.477795, 145.103330 -38.495046, 145.137546 -38.512288, 145.171780 -38.529520, 145.206029 -38.546742, 145.240295 -38.563954, 145.274577 -38.581156, 145.308876 -38.598348, 145.343191 -38.615530, 145.377523 -38.632702, 145.411871 -38.649864, 145.446235 -38.667016, 145.480616 -38.684158, 145.515014 -38.701290, 145.549427 -38.718411, 145.583858 -38.735523, 145.618305 -38.752624, 145.652768 -38.769716, 145.687248 -38.786797, 145.721744 -38.803868, 145.756257 -38.820929, 145.790787 -38.837980, 145.825333 -38.855021, 145.859896 -38.872051, 145.894475 -38.889071, 145.929070 -38.906081, 145.963683 -38.923081, 145.998312 -38.940071, 146.032957 -38.957050, 146.067619 -38.974019, 146.102298 -38.990978, 146.136993 -39.007927, 146.171705 -39.024865, 146.206434 -39.041793, 146.241179 -39.058711, 146.275941 -39.075618, 146.310719 -39.092515, 146.345514 -39.109402, 146.380326 -39.126278, 146.415155 -39.143144, 146.450000 -39.160000, 146.483266 -39.140947, 146.516514 -39.121885, 146.549744 -39.102814, 146.582956 -39.083733, 146.616150 -39.064642, 146.649326 -39.045542, 146.682485 -39.026433, 146.715625 -39.007315, 146.748747 -38.988187, 146.781852 -38.969049, 146.814938 -38.949903, 146.848007 -38.930747, 146.881058 -38.911581, 146.914091 -38.892407, 146.947106 -38.873223, 146.980103 -38.854029, 147.013083 -38.834827, 147.046044 -38.815615, 147.078988 -38.796394, 147.111915 -38.777164, 147.144823 -38.757924, 147.177714 -38.738676, 147.210587 -38.719418, 147.243442 -38.700150, 147.276279 -38.680874, 147.309099 -38.661589, 147.341901 -38.642294, 147.374686 -38.622990, 147.407453 -38.603677, 147.440202 -38.584355, 147.472933 -38.565024, 147.505647 -38.545683, 147.538344 -38.526334, 147.571023 -38.506975, 147.603684 -38.487608, 147.636328 -38.468231, 147.668954 -38.448845, 147.701562 -38.429451, 147.734153 -38.410047, 147.766727 -38.390634, 147.799283 -38.371212, 147.831822 -38.351781, 147.864343 -38.332342, 147.896847 -38.312893, 147.929333 -38.293435, 147.961802 -38.273968, 147.994253 -38.254493, 148.026687 -38.235008, 148.059104 -38.215515, 148.091503 -38.196012, 148.123885 -38.176501, 148.156250 -38.156981, 148.188597 -38.137452, 148.220927 -38.117914, 148.253240 -38.098367, 148.285535 -38.078811, 148.317813 -38.059247, 148.350074 -38.039673, 148.382318 -38.020091, 148.414544 -38.000500, 148.446753 -37.980901, 148.478945 -37.961292, 148.511120 -37.941675, 148.543278 -37.922049, 148.575418 -37.902414, 148.607541 -37.882771, 148.639648 -37.863119, 148.671737 -37.843458, 148.703809 -37.823788, 148.735863 -37.804110, 148.767901 -37.784423, 148.799922 -37.764727, 148.831925 -37.745023, 148.863912 -37.725310, 148.895882 -37.705588, 148.927834 -37.685858, 148.959770 -37.666119, 148.991688 -37.646372, 149.023590 -37.626616, 149.055474 -37.606851, 149.087342 -37.587078, 149.119193 -37.567296, 149.151027 -37.547506, 149.182844 -37.527707, 149.214644 -37.507899, 149.246427 -37.488084, 149.278193 -37.468259, 149.309943 -37.448426, 149.341675 -37.428585, 149.373391 -37.408735, 149.405090 -37.388877, 149.436772 -37.369010, 149.468438 -37.349135, 149.500087 -37.329251, 149.531718 -37.309359, 149.563334 -37.289458, 149.594932 -37.269549, 149.626514 -37.249632, 149.658079 -37.229706, 149.689627 -37.209772, 149.721159 -37.189830, 149.752674 -37.169879, 149.784172 -37.149920, 149.815654 -37.129952, 149.847119 -37.109976, 149.878568 -37.089992, 149.910000 -37.070000, 149.923354 -37.039791, 149.936698 -37.009580, 149.950030 -36.979367, 149.963353 -36.949153, 149.976664 -36.918938, 149.989965 -36.888721, 150.003256 -36.858503, 150.016536 -36.828283, 150.029806 -36.798062, 150.043065 -36.767839, 150.056314 -36.737615, 150.069552 -36.707389, 150.082780 -36.677162, 150.095997 -36.646933, 150.109204 -36.616703, 150.122401 -36.586472, 150.135588 -36.556239, 150.148764 -36.526004, 150.161929 -36.495769, 150.175085 -36.465531, 150.188230 -36.435292, 150.201365 -36.405052, 150.214490 -36.374811, 150.227605 -36.344568, 150.240709 -36.314323, 150.253803 -36.284077, 150.266888 -36.253830, 150.279962 -36.223581, 150.293025 -36.193331, 150.306079 -36.163079, 150.319123 -36.132826, 150.332157 -36.102572, 150.345180 -36.072316, 150.358194 -36.042058, 150.371198 -36.011800, 150.384191 -35.981540, 150.397175 -35.951278, 150.410149 -35.921015, 150.423112 -35.890751, 150.436066 -35.860485, 150.449010 -35.830218, 150.461945 -35.799950, 150.474869 -35.769680, 150.487783 -35.739409, 150.500688 -35.709136, 150.513583 -35.678862, 150.526468 -35.648587, 150.539343 -35.618310, 150.552209 -35.588032, 150.565065 -35.557753, 150.577911 -35.527472, 150.590747 -35.497190, 150.603574 -35.466906, 150.616391 -35.436621, 150.629198 -35.406335, 150.641996 -35.376047, 150.654784 -35.345759, 150.667563 -35.315468, 150.680332 -35.285177, 150.693092 -35.254884, 150.705842 -35.224589, 150.718582 -35.194294, 150.731313 -35.163997, 150.744035 -35.133698, 150.756747 -35.103399, 150.769449 -35.073098, 150.782142 -35.042796, 150.794826 -35.012492, 150.807501 -34.982187, 150.820166 -34.951881, 150.832821 -34.921573, 150.845467 -34.891264, 150.858104 -34.860954, 150.870732 -34.830643, 150.883350 -34.800330, 150.895959 -34.770016, 150.908559 -34.739700, 150.921150 -34.709384, 150.933731 -34.679066, 150.946303 -34.648747, 150.958866 -34.618426, 150.971420 -34.588104, 150.983964 -34.557781, 150.996500 -34.527457, 151.009026 -34.497131, 151.021543 -34.466804, 151.034052 -34.436476, 151.046551 -34.406146, 151.059041 -34.375815, 151.071521 -34.345483, 151.083993 -34.315150, 151.096456 -34.284815, 151.108910 -34.254480, 151.121355 -34.224143, 151.133791 -34.193804, 151.146218 -34.163465, 151.158636 -34.133124, 151.171045 -34.102782, 151.183446 -34.072438, 151.195837 -34.042094, 151.208220 -34.011748, 151.220593 -33.981401, 151.232958 -33.951052, 151.245314 -33.920703, 151.257662 -33.890352, 151.270000 -33.860000, 151.290497 -33.833392, 151.310982 -33.806780, 151.331454 -33.780165, 151.351913 -33.753546, 151.372359 -33.726924, 151.392793 -33.700299, 151.413214 -33.673670, 151.433622 -33.647038, 151.454018 -33.620403, 151.474401 -33.593764, 151.494772 -33.567122, 151.515130 -33.540476, 151.535475 -33.513828, 151.555808 -33.487176, 151.576128 -33.460520, 151.596436 -33.433861, 151.616732 -33.407199, 151.637015 -33.380534, 151.657285 -33.353866, 151.677543 -33.327194, 151.697789 -33.300518, 151.718023 -33.273840, 151.738244 -33.247158, 151.758452 -33.220473, 151.778649 -33.193785, 151.798833 -33.167093, 151.819004 -33.140399, 151.839164 -33.113701, 151.859311 -33.086999, 151.879446 -33.060295, 151.899569 -33.033587, 151.919679 -33.006876, 151.939778 -32.980162, 151.959864 -32.953444, 151.979938 -32.926724, 152.000000 -32.900000, 152.018822 -32.872295, 152.037632 -32.844587, 152.056430 -32.816876, 152.075217 -32.789162, 152.093991 -32.761446, 152.112755 -32.733726, 152.131506 -32.706004, 152.150246 -32.678279, 152.168974 -32.650552, 152.187691 -32.622821, 152.206396 -32.595088, 152.225089 -32.567352, 152.243771 -32.539613, 152.262441 -32.511872, 152.281100 -32.484127, 152.299747 -32.456380, 152.318383 -32.428631, 152.337008 -32.400878, 152.355621 -32.373123, 152.374222 -32.345365, 152.392812 -32.317604, 152.411391 -32.289841, 152.429958 -32.262075, 152.448514 -32.234306, 152.467059 -32.206534, 152.485592 -32.178760, 152.504114 -32.150983, 152.522625 -32.123203, 152.541124 -32.095421, 152.559612 -32.067636, 152.578089 -32.039848, 152.596555 -32.012058, 152.615010 -31.984265, 152.633453 -31.956469, 152.651885 -31.928670, 152.670306 -31.900869, 152.688716 -31.873066, 152.707115 -31.845259, 152.725503 -31.817450, 152.743879 -31.789638, 152.762245 -31.761824, 152.780600 -31.734007, 152.798943 -31.706188, 152.817276 -31.678365, 152.835597 -31.650541, 152.853908 -31.622713, 152.872207 -31.594883, 152.890496 -31.567050, 152.908774 -31.539215, 152.927041 -31.511377, 152.945297 -31.483537, 152.963542 -31.455694, 152.981776 -31.427848, 153.000000 -31.400000, 153.007223 -31.368578, 153.014442 -31.337156, 153.021655 -31.305733, 153.028864 -31.274310, 153.036068 -31.242887, 153.043267 -31.211463, 153.050462 -31.180039, 153.057651 -31.148614, 153.064836 -31.117189, 153.072016 -31.085764, 153.079192 -31.054338, 153.086362 -31.022911, 153.093528 -30.991485, 153.100690 -30.960058, 153.107846 -30.928630, 153.114998 -30.897202, 153.122145 -30.865774, 153.129287 -30.834346, 153.136425 -30.802917, 153.143558 -30.771487, 153.150687 -30.740057, 153.157810 -30.708627, 153.164929 -30.677197, 153.172044 -30.645766, 153.179154 -30.614334, 153.186259 -30.582903, 153.193360 -30.551471, 153.200456 -30.520038, 153.207547 -30.488605, 153.214634 -30.457172, 153.221716 -30.425738, 153.228794 -30.394304, 153.235867 -30.362870, 153.242936 -30.331435, 153.250000 -30.300000, 153.257670 -30.268879, 153.265334 -30.237758, 153.272994 -30.206636, 153.280649 -30.175514, 153.288300 -30.144391, 153.295945 -30.113268, 153.303586 -30.082145, 153.311222 -30.051021, 153.318853 -30.019897, 153.326479 -29.988772, 153.334100 -29.957646, 153.341717 -29.926521, 153.349329 -29.895395, 153.356936 -29.864268, 153.364538 -29.833141, 153.372136 -29.802014, 153.379729 -29.770886, 153.387317 -29.739757, 153.394901 -29.708629, 153.402479 -29.677500, 153.410054 -29.646370, 153.417623 -29.615240, 153.425188 -29.584109, 153.432748 -29.552979, 153.440303 -29.521847, 153.447854 -29.490716, 153.455400 -29.459583, 153.462942 -29.428451, 153.470479 -29.397318, 153.478011 -29.366184, 153.485539 -29.335050, 153.493062 -29.303916, 153.500580 -29.272781, 153.508094 -29.241646, 153.515604 -29.210511, 153.523108 -29.179375, 153.530609 -29.148238, 153.538104 -29.117102, 153.545595 -29.085964, 153.553082 -29.054827, 153.560564 -29.023689, 153.568042 -28.992550, 153.575515 -28.961411, 153.582983 -28.930272, 153.590448 -28.899132, 153.597907 -28.867992, 153.605362 -28.836852, 153.612813 -28.805711, 153.620259 -28.774569, 153.627701 -28.743428, 153.635139 -28.712286, 153.642571 -28.681143, 153.650000 -28.650000, 153.638373 -28.620019, 153.626754 -28.590037, 153.615140 -28.560054, 153.603534 -28.530070, 153.591933 -28.500085, 153.580340 -28.470099, 153.568753 -28.440112, 153.557173 -28.410124, 153.545599 -28.380135, 153.534032 -28.350145, 153.522471 -28.320154, 153.510917 -28.290162, 153.499369 -28.260169, 153.487828 -28.230175, 153.476293 -28.200180, 153.464765 -28.170184, 153.453243 -28.140188, 153.441728 -28.110190, 153.430219 -28.080191, 153.418717 -28.050192, 153.407221 -28.020191, 153.395731 -27.990189, 153.384248 -27.960187, 153.372771 -27.930183, 153.361300 -27.900179, 153.349836 -27.870174, 153.338378 -27.840167, 153.326927 -27.810160, 153.315482 -27.780152, 153.304043 -27.750143, 153.292611 -27.720133, 153.281184 -27.690122, 153.269765 -27.660110, 153.258351 -27.630097, 153.246944 -27.600083, 153.235542 -27.570068, 153.224147 -27.540053, 153.212759 -27.510036, 153.201376 -27.480018, 153.190000 -27.450000, 153.193288 -27.418464, 153.196575 -27.386928, 153.199860 -27.355391, 153.203143 -27.323855, 153.206424 -27.292319, 153.209703 -27.260782, 153.212980 -27.229246, 153.216256 -27.197709, 153.219529 -27.166172, 153.222801 -27.134636, 153.226071 -27.103099, 153.229339 -27.071562, 153.232605 -27.040025, 153.235869 -27.008488, 153.239132 -26.976951, 153.242393 -26.945413, 153.245652 -26.913876, 153.248909 -26.882339, 153.252164 -26.850801, 153.255417 -26.819264, 153.258669 -26.787726, 153.261919 -26.756188, 153.265167 -26.724651, 153.268413 -26.693113, 153.271657 -26.661575, 153.274900 -26.630037, 153.278141 -26.598499, 153.281380 -26.566961, 153.284617 -26.535423, 153.287853 -26.503884, 153.291086 -26.472346, 153.294318 -26.440808, 153.297548 -26.409269, 153.300777 -26.377731, 153.304003 -26.346192, 153.307228 -26.314653, 153.310451 -26.283114, 153.313673 -26.251576, 153.316893 -26.220037, 153.320110 -26.188498, 153.323327 -26.156959, 153.326541 -26.125419, 153.329754 -26.093880, 153.332965 -26.062341, 153.336174 -26.030802, 153.339381 -25.999262, 153.342587 -25.967723, 153.345791 -25.936183, 153.348993 -25.904644, 153.352194 -25.873104, 153.355393 -25.841564, 153.358590 -25.810024, 153.361786 -25.778484, 153.364979 -25.746944, 153.368171 -25.715404, 153.371362 -25.683864, 153.374551 -25.652324, 153.377738 -25.620784, 153.380923 -25.589243, 153.384107 -25.557703, 153.387289 -25.526163, 153.390469 -25.494622, 153.393648 -25.463081, 153.396825 -25.431541, 153.400000 -25.400000, 153.375225 -25.377547, 153.350460 -25.355089, 153.325704 -25.332628, 153.300957 -25.310162, 153.276219 -25.287692, 153.251490 -25.265218, 153.226771 -25.242740, 153.202061 -25.220257, 153.177359 -25.197771, 153.152667 -25.175281, 153.127984 -25.152786, 153.103310 -25.130287, 153.078646 -25.107785, 153.053990 -25.085278, 153.029343 -25.062767, 153.004706 -25.040252, 152.980077 -25.017733, 152.955458 -24.995210, 152.930847 -24.972683, 152.906246 -24.950152, 152.881653 -24.927617, 152.857070 -24.905077, 152.832495 -24.882534, 152.807930 -24.859987, 152.783373 -24.837436, 152.758826 -24.814880, 152.734287 -24.792321, 152.709757 -24.769758, 152.685236 -24.747190, 152.660724 -24.724619, 152.636221 -24.702044, 152.611727 -24.679465, 152.587242 -24.656881, 152.562765 -24.634294, 152.538298 -24.611703, 152.513839 -24.589108, 152.489389 -24.566509, 152.464948 -24.543906, 152.440515 -24.521299, 152.416092 -24.498688, 152.391677 -24.476073, 152.367271 -24.453455, 152.342874 -24.430832, 152.318486 -24.408206, 152.294106 -24.385575, 152.269735 -24.362941, 152.245373 -24.340302, 152.221019 -24.317660, 152.196674 -24.295014, 152.172338 -24.272364, 152.148011 -24.249711, 152.123692 -24.227053, 152.099382 -24.204392, 152.075080 -24.181726, 152.050787 -24.159057, 152.026503 -24.136384, 152.002227 -24.113707, 151.977960 -24.091026, 151.953702 -24.068342, 151.929452 -24.045654, 151.905210 -24.022961, 151.880978 -24.000265, 151.856753 -23.977566, 151.832538 -23.954862, 151.808330 -23.932155, 151.784132 -23.909443, 151.759942 -23.886728, 151.735760 -23.864010, 151.711587 -23.841287, 151.687422 -23.818561, 151.663266 -23.795831, 151.639118 -23.773097, 151.614979 -23.750359, 151.590848 -23.727618, 151.566725 -23.704873, 151.542611 -23.682124, 151.518506 -23.659372, 151.494408 -23.636615, 151.470319 -23.613856, 151.446239 -23.591092, 151.422167 -23.568324, 151.398103 -23.545553, 151.374047 -23.522779, 151.350000 -23.500000, 151.333718 -23.471857, 151.317444 -23.443712, 151.301176 -23.415566, 151.284915 -23.387418, 151.268661 -23.359269, 151.252414 -23.331117, 151.236174 -23.302964, 151.219941 -23.274809, 151.203714 -23.246653, 151.187494 -23.218495, 151.171282 -23.190335, 151.155076 -23.162174, 151.138877 -23.134011, 151.122684 -23.105846, 151.106499 -23.077680, 151.090320 -23.049512, 151.074148 -23.021343, 151.057983 -22.993171, 151.041824 -22.964998, 151.025673 -22.936824, 151.009528 -22.908648, 150.993389 -22.880470, 150.977258 -22.852291, 150.961133 -22.824110, 150.945015 -22.795927, 150.928903 -22.767743, 150.912798 -22.739557, 150.896700 -22.711369, 150.880608 -22.683180, 150.864523 -22.654989, 150.848445 -22.626797, 150.832373 -22.598603, 150.816308 -22.570408, 150.800249 -22.542210, 150.784197 -22.514012, 150.768151 -22.485811, 150.752112 -22.457610, 150.736080 -22.429406, 150.720054 -22.401201, 150.704034 -22.372994, 150.688021 -22.344786, 150.672014 -22.316576, 150.656014 -22.288365, 150.640021 -22.260152, 150.624034 -22.231938, 150.608053 -22.203722, 150.592079 -22.175504, 150.576111 -22.147285, 150.560149 -22.119064, 150.544194 -22.090842, 150.528245 -22.062618, 150.512303 -22.034393, 150.496367 -22.006166, 150.480437 -21.977937, 150.464514 -21.949707, 150.448597 -21.921476, 150.432686 -21.893243, 150.416782 -21.865008, 150.400884 -21.836772, 150.384992 -21.808534, 150.369106 -21.780295, 150.353227 -21.752055, 150.337354 -21.723812, 150.321487 -21.695569, 150.305627 -21.667324, 150.289772 -21.639077, 150.273924 -21.610829, 150.258082 -21.582579, 150.242246 -21.554328, 150.226417 -21.526075, 150.210593 -21.497821, 150.194776 -21.469565, 150.178964 -21.441308, 150.163159 -21.413049, 150.147360 -21.384789, 150.131567 -21.356528, 150.115781 -21.328265, 150.100000 -21.300000, 150.074268 -21.279150, 150.048543 -21.258297, 150.022826 -21.237439, 149.997115 -21.216578, 149.971412 -21.195712, 149.945717 -21.174843, 149.920028 -21.153970, 149.894347 -21.133093, 149.868673 -21.112213, 149.843006 -21.091328, 149.817347 -21.070439, 149.791694 -21.049547, 149.766049 -21.028651, 149.740411 -21.007751, 149.714780 -20.986847, 149.689157 -20.965939, 149.663540 -20.945027, 149.637931 -20.924112, 149.612329 -20.903193, 149.586734 -20.882270, 149.561146 -20.861343, 149.535565 -20.840412, 149.509992 -20.819478, 149.484425 -20.798540, 149.458866 -20.777598, 149.433313 -20.756652, 149.407768 -20.735702, 149.382230 -20.714749, 149.356699 -20.693792, 149.331175 -20.672831, 149.305658 -20.651866, 149.280148 -20.630898, 149.254645 -20.609926, 149.229149 -20.588950, 149.203660 -20.567970, 149.178178 -20.546987, 149.152703 -20.526000, 149.127235 -20.505009, 149.101774 -20.484015, 149.076320 -20.463017, 149.050873 -20.442015, 149.025433 -20.421009, 149.000000 -20.400000, 148.973685 -20.379840, 148.947377 -20.359677, 148.921076 -20.339509, 148.894782 -20.319338, 148.868494 -20.299162, 148.842214 -20.278983, 148.815940 -20.258799, 148.789673 -20.238612, 148.763413 -20.218421, 148.737160 -20.198226, 148.710913 -20.178027, 148.684674 -20.157824, 148.658441 -20.137618, 148.632215 -20.117407, 148.605995 -20.097193, 148.579783 -20.076974, 148.553577 -20.056752, 148.527378 -20.036526, 148.501186 -20.016296, 148.475000 -19.996062, 148.448822 -19.975825, 148.422649 -19.955583, 148.396484 -19.935338, 148.370325 -19.915089, 148.344173 -19.894836, 148.318028 -19.874579, 148.291890 -19.854319, 148.265758 -19.834054, 148.239632 -19.813786, 148.213514 -19.793514, 148.187402 -19.773238, 148.161297 -19.752959, 148.135198 -19.732676, 148.109106 -19.712388, 148.083021 -19.692098, 148.056942 -19.671803, 148.030870 -19.651505, 148.004804 -19.631202, 147.978745 -19.610896, 147.952693 -19.590587, 147.926647 -19.570273, 147.900608 -19.549956, 147.874575 -19.529635, 147.848549 -19.509311, 147.822529 -19.488982, 147.796516 -19.468650, 147.770509 -19.448315, 147.744509 -19.427975, 147.718516 -19.407632, 147.692529 -19.387285, 147.666548 -19.366935, 147.640574 -19.346581, 147.614606 -19.326223, 147.588645 -19.305861, 147.562691 -19.285496, 147.536743 -19.265127, 147.510801 -19.244754, 147.484865 -19.224378, 147.458937 -19.203998, 147.433014 -19.183615, 147.407098 -19.163228, 147.381189 -19.142837, 147.355285 -19.122442, 147.329388 -19.102044, 147.303498 -19.081643, 147.277614 -19.061237, 147.251736 -19.040829, 147.225865 -19.020416, 147.200000 -19.000000, 147.175035 -19.020852, 147.150063 -19.041700, 147.125085 -19.062546, 147.100101 -19.083387, 147.075110 -19.104226, 147.050113 -19.125061, 147.025110 -19.145892, 147.000101 -19.166721, 146.975085 -19.187546, 146.950063 -19.208367, 146.925035 -19.229185, 146.900000 -19.250000, 146.885938 -19.220915, 146.871881 -19.191829, 146.857829 -19.162742, 146.843783 -19.133654, 146.829741 -19.104565, 146.815704 -19.075475, 146.801671 -19.046384, 146.787644 -19.017292, 146.773622 -18.988199, 146.759605 -18.959104, 146.745592 -18.930009, 146.731585 -18.900912, 146.717582 -18.871815, 146.703584 -18.842716, 146.689591 -18.813617, 146.675603 -18.784516, 146.661619 -18.755414, 146.647641 -18.726312, 146.633667 -18.697208, 146.619698 -18.668103, 146.605734 -18.638997, 146.591775 -18.609890, 146.577820 -18.580783, 146.563870 -18.551674, 146.549925 -18.522564, 146.535985 -18.493453, 146.522050 -18.464341, 146.508119 -18.435228, 146.494193 -18.406114, 146.480271 -18.376999, 146.466355 -18.347883, 146.452443 -18.318766, 146.438535 -18.289648, 146.424633 -18.260529, 146.410735 -18.231408, 146.396841 -18.202287, 146.382953 -18.173165, 146.369068 -18.144042, 146.355189 -18.114918, 146.341314 -18.085793, 146.327444 -18.056667, 146.313578 -18.027540, 146.299717 -17.998412, 146.285861 -17.969283, 146.272009 -17.940153, 146.258162 -17.911022, 146.244319 -17.881890, 146.230481 -17.852757, 146.216647 -17.823623, 146.202818 -17.794489, 146.188993 -17.765353, 146.175173 -17.736216, 146.161357 -17.707078, 146.147546 -17.677939, 146.133739 -17.648800, 146.119937 -17.619659, 146.106139 -17.590517, 146.092346 -17.561375, 146.078557 -17.532231, 146.064773 -17.503087, 146.050993 -17.473941, 146.037217 -17.444795, 146.023446 -17.415648, 146.009679 -17.386499, 145.995917 -17.357350, 145.982158 -17.328200, 145.968405 -17.299049, 145.954655 -17.269897, 145.940910 -17.240744, 145.927170 -17.211590, 145.913433 -17.182435, 145.899701 -17.153279, 145.885974 -17.124123, 145.872250 -17.094965, 145.858531 -17.065806, 145.844817 -17.036647, 145.831106 -17.007487, 145.817400 -16.978325, 145.803698 -16.949163, 145.790000 -16.920000, 145.784874 -16.888576, 145.779749 -16.857152, 145.774627 -16.825728, 145.769506 -16.794303, 145.764386 -16.762879, 145.759269 -16.731454, 145.754153 -16.700029, 145.749038 -16.668604, 145.743926 -16.637179, 145.738815 -16.605754, 145.733706 -16.574329, 145.728598 -16.542904, 145.723492 -16.511478, 145.718388 -16.480052, 145.713285 -16.448627, 145.708184 -16.417201, 145.703085 -16.385775, 145.697987 -16.354349, 145.692891 -16.322922, 145.687797 -16.291496, 145.682704 -16.260070, 145.677613 -16.228643, 145.672524 -16.197216, 145.667436 -16.165789, 145.662350 -16.134362, 145.657265 -16.102935, 145.652182 -16.071508, 145.647100 -16.040081, 145.642021 -16.008653, 145.636942 -15.977226, 145.631866 -15.945798, 145.626791 -15.914370, 145.621717 -15.882942, 145.616645 -15.851514, 145.611575 -15.820086, 145.606506 -15.788658, 145.601439 -15.757229, 145.596374 -15.725801, 145.591310 -15.694372, 145.586247 -15.662943, 145.581186 -15.631515, 145.576127 -15.600086, 145.571069 -15.568656, 145.566013 -15.537227, 145.560958 -15.505798, 145.555905 -15.474368, 145.550854 -15.442939, 145.545803 -15.411509, 145.540755 -15.380079, 145.535708 -15.348649, 145.530662 -15.317219, 145.525618 -15.285789, 145.520576 -15.254359, 145.515535 -15.222929, 145.510495 -15.191498, 145.505457 -15.160068, 145.500421 -15.128637, 145.495386 -15.097206, 145.490352 -15.065775, 145.485320 -15.034344, 145.480290 -15.002913, 145.475261 -14.971482, 145.470233 -14.940050, 145.465207 -14.908619, 145.460182 -14.877187, 145.455159 -14.845756, 145.450138 -14.814324, 145.445117 -14.782892, 145.440099 -14.751460, 145.435081 -14.720028, 145.430065 -14.688596, 145.425051 -14.657163, 145.420038 -14.625731, 145.415026 -14.594298, 145.410016 -14.562866, 145.405007 -14.531433, 145.400000 -14.500000, 145.383531 -14.472757, 145.367067 -14.445513, 145.350606 -14.418268, 145.334150 -14.391021, 145.317697 -14.363774, 145.301249 -14.336525, 145.284804 -14.309275, 145.268364 -14.282024, 145.251927 -14.254772, 145.235495 -14.227519, 145.219066 -14.200264, 145.202641 -14.173009, 145.186221 -14.145752, 145.169804 -14.118495, 145.153391 -14.091236, 145.136982 -14.063976, 145.120577 -14.036715, 145.104176 -14.009453, 145.087779 -13.982190, 145.071385 -13.954925, 145.054996 -13.927660, 145.038610 -13.900393, 145.022229 -13.873126, 145.005851 -13.845857, 144.989477 -13.818587, 144.973107 -13.791316, 144.956740 -13.764044, 144.940378 -13.736771, 144.924019 -13.709497, 144.907664 -13.682222, 144.891313 -13.654946, 144.874965 -13.627668, 144.858622 -13.600390, 144.842282 -13.573111, 144.825946 -13.545830, 144.809614 -13.518548, 144.793285 -13.491266, 144.776960 -13.463982, 144.760639 -13.436697, 144.744322 -13.409412, 144.728008 -13.382125, 144.711698 -13.354837, 144.695392 -13.327548, 144.679089 -13.300258, 144.662790 -13.272967, 144.646495 -13.245675, 144.630203 -13.218382, 144.613915 -13.191088, 144.597630 -13.163792, 144.581350 -13.136496, 144.565073 -13.109199, 144.548799 -13.081901, 144.532529 -13.054602, 144.516263 -13.027301, 144.500000 -13.000000, 144.482041 -12.973247, 144.464086 -12.946492, 144.446135 -12.919736, 144.428187 -12.892980, 144.410243 -12.866221, 144.392304 -12.839462, 144.374368 -12.812701, 144.356436 -12.785939, 144.338507 -12.759176, 144.320583 -12.732412, 144.302662 -12.705647, 144.284745 -12.678880, 144.266832 -12.652112, 144.248922 -12.625343, 144.231016 -12.598573, 144.213114 -12.571801, 144.195216 -12.545029, 144.177322 -12.518255, 144.159431 -12.491480, 144.141544 -12.464704, 144.123660 -12.437927, 144.105780 -12.411148, 144.087904 -12.384368, 144.070032 -12.357587, 144.052163 -12.330805, 144.034298 -12.304022, 144.016437 -12.277238, 143.998579 -12.250452, 143.980725 -12.223666, 143.962874 -12.196878, 143.945027 -12.170089, 143.927184 -12.143299, 143.909344 -12.116508, 143.891508 -12.089715, 143.873675 -12.062922, 143.855846 -12.036127, 143.838021 -12.009331, 143.820199 -11.982534, 143.802380 -11.955736, 143.784565 -11.928937, 143.766754 -11.902137, 143.748946 -11.875335, 143.731142 -11.848533, 143.713341 -11.821729, 143.695544 -11.794925, 143.677750 -11.768119, 143.659959 -11.741312, 143.642172 -11.714504, 143.624389 -11.687695, 143.606609 -11.660884, 143.588832 -11.634073, 143.571059 -11.607261, 143.553289 -11.580447, 143.535523 -11.553632, 143.517760 -11.526817, 143.500000 -11.500000, 143.475060 -11.479270, 143.450124 -11.458538, 143.425192 -11.437804, 143.400263 -11.417067, 143.375338 -11.396329, 143.350416 -11.375588, 143.325498 -11.354846, 143.300584 -11.334101, 143.275673 -11.313354, 143.250766 -11.292605, 143.225863 -11.271854, 143.200963 -11.251101, 143.176067 -11.230346, 143.151174 -11.209589, 143.126285 -11.188830, 143.101399 -11.168068, 143.076517 -11.147305, 143.051639 -11.126540, 143.026764 -11.105772, 143.001892 -11.085003, 142.977025 -11.064231, 142.952160 -11.043458, 142.927300 -11.022682, 142.902442 -11.001904, 142.877589 -10.981125, 142.852738 -10.960343, 142.827891 -10.939559, 142.803048 -10.918774, 142.778208 -10.897986, 142.753372 -10.877196, 142.728539 -10.856405, 142.703710 -10.835611, 142.678884 -10.814815, 142.654061 -10.794018, 142.629242 -10.773218, 142.604426 -10.752417, 142.579614 -10.731613, 142.554805 -10.710807, 142.530000 -10.690000, 142.497506 -10.692111, 142.465011 -10.694218, 142.432516 -10.696322, 142.400020 -10.698422, 142.367524 -10.700520, 142.335027 -10.702613, 142.302530 -10.704704, 142.270033 -10.706791, 142.237535 -10.708875, 142.205037 -10.710955, 142.172538 -10.713032, 142.140039 -10.715106, 142.107539 -10.717176, 142.075039 -10.719243, 142.042538 -10.721306, 142.010037 -10.723367, 141.977536 -10.725423, 141.945034 -10.727477, 141.912532 -10.729527, 141.880029 -10.731574, 141.847526 -10.733617, 141.815022 -10.735657, 141.782518 -10.737693, 141.750013 -10.739726, 141.717508 -10.741756, 141.685003 -10.743783, 141.652497 -10.745806, 141.619991 -10.747825, 141.587484 -10.749842, 141.554977 -10.751855, 141.522469 -10.753864, 141.489961 -10.755870, 141.457453 -10.757873, 141.424944 -10.759872, 141.392435 -10.761868, 141.359925 -10.763861, 141.327415 -10.765850, 141.294904 -10.767836, 141.262393 -10.769819, 141.229882 -10.771798, 141.197370 -10.773773, 141.164857 -10.775746, 141.132345 -10.777715, 141.099832 -10.779680, 141.067318 -10.781642, 141.034804 -10.783601, 141.002289 -10.785556, 140.969775 -10.787508, 140.937259 -10.789457, 140.904744 -10.791402, 140.872228 -10.793344, 140.839711 -10.795282, 140.807194 -10.797217, 140.774677 -10.799149, 140.742159 -10.801077, 140.709641 -10.803002, 140.677122 -10.804923, 140.644603 -10.806841, 140.612084 -10.808756, 140.579564 -10.810667, 140.547043 -10.812575, 140.514523 -10.814479, 140.482002 -10.816380, 140.449480 -10.818278, 140.416958 -10.820172, 140.384436 -10.822063, 140.351913 -10.823950, 140.319390 -10.825834, 140.286866 -10.827715, 140.254342 -10.829592, 140.221818 -10.831466, 140.189293 -10.833336, 140.156768 -10.835203, 140.124242 -10.837067, 140.091716 -10.838927, 140.059190 -10.840783, 140.026663 -10.842637, 139.994136 -10.844487, 139.961608 -10.846333, 139.929080 -10.848176, 139.896552 -10.850016, 139.864023 -10.851852, 139.831494 -10.853685, 139.798964 -10.855514, 139.766434 -10.857340, 139.733904 -10.859163, 139.701373 -10.860982, 139.668842 -10.862798, 139.636310 -10.864610, 139.603778 -10.866419, 139.571246 -10.868224, 139.538713 -10.870027, 139.506180 -10.871825, 139.473646 -10.873620, 139.441112 -10.875412, 139.408578 -10.877201, 139.376043 -10.878986, 139.343508 -10.880767, 139.310972 -10.882545, 139.278436 -10.884320, 139.245900 -10.886091, 139.213364 -10.887859, 139.180826 -10.889623, 139.148289 -10.891384, 139.115751 -10.893142, 139.083213 -10.894896, 139.050674 -10.896647, 139.018135 -10.898394, 138.985596 -10.900138, 138.953056 -10.901878, 138.920516 -10.903615, 138.887976 -10.905349, 138.855435 -10.907079, 138.822893 -10.908805, 138.790352 -10.910529, 138.757810 -10.912248, 138.725267 -10.913965, 138.692725 -10.915678, 138.660181 -10.917387, 138.627638 -10.919093, 138.595094 -10.920796, 138.562550 -10.922495, 138.530005 -10.924191, 138.497460 -10.925883, 138.464915 -10.927572, 138.432369 -10.929257, 138.399823 -10.930939, 138.367276 -10.932618, 138.334729 -10.934293, 138.302182 -10.935964, 138.269635 -10.937633, 138.237087 -10.939297, 138.204538 -10.940959, 138.171990 -10.942617, 138.139441 -10.944271, 138.106891 -10.945922, 138.074341 -10.947569, 138.041791 -10.949214, 138.009241 -10.950854, 137.976690 -10.952491, 137.944139 -10.954125, 137.911587 -10.955755, 137.879035 -10.957382, 137.846483 -10.959006, 137.813930 -10.960625, 137.781377 -10.962242, 137.748824 -10.963855, 137.716270 -10.965464, 137.683716 -10.967071, 137.651162 -10.968673, 137.618607 -10.970272, 137.586052 -10.971868, 137.553496 -10.973460, 137.520940 -10.975049, 137.488384 -10.976635, 137.455828 -10.978217, 137.423271 -10.979795, 137.390714 -10.981370, 137.358156 -10.982942, 137.325598 -10.984510, 137.293040 -10.986074, 137.260481 -10.987635, 137.227922 -10.989193, 137.195363 -10.990747, 137.162803 -10.992298, 137.130243 -10.993845, 137.097683 -10.995389, 137.065122 -10.996930, 137.032561 -10.998467, 137.000000 -11.000000, 136.994234 -11.031055, 136.988467 -11.062109, 136.982698 -11.093164, 136.976928 -11.124218, 136.971157 -11.155273, 136.965385 -11.186327, 136.959612 -11.217381, 136.953837 -11.248435, 136.948061 -11.279489, 136.942284 -11.310542, 136.936505 -11.341596, 136.930726 -11.372649, 136.924945 -11.403703, 136.919163 -11.434756, 136.913379 -11.465809, 136.907594 -11.496862, 136.901808 -11.527915, 136.896021 -11.558968, 136.890232 -11.590021, 136.884442 -11.621073, 136.878651 -11.652126, 136.872859 -11.683178, 136.867065 -11.714230, 136.861270 -11.745283, 136.855474 -11.776335, 136.849676 -11.807387, 136.843877 -11.838438, 136.838077 -11.869490, 136.832275 -11.900541, 136.826472 -11.931593, 136.820668 -11.962644, 136.814862 -11.993695, 136.809055 -12.024746, 136.803247 -12.055797, 136.797437 -12.086848, 136.791626 -12.117899, 136.785814 -12.148950, 136.780000 -12.180000, 136.779186 -12.148108, 136.778372 -12.116216, 136.777558 -12.084324, 136.776744 -12.052433, 136.775931 -12.020541, 136.775118 -11.988649, 136.774305 -11.956757, 136.773492 -11.924865, 136.772679 -11.892973, 136.771867 -11.861081, 136.771054 -11.829190, 136.770242 -11.797298, 136.769430 -11.765406, 136.768619 -11.733514, 136.767807 -11.701622, 136.766996 -11.669730, 136.766185 -11.637838, 136.765374 -11.605946, 136.764563 -11.574054, 136.763752 -11.542163, 136.762942 -11.510271, 136.762132 -11.478379, 136.761322 -11.446487, 136.760512 -11.414595, 136.759702 -11.382703, 136.758893 -11.350811, 136.758083 -11.318919, 136.757274 -11.287027, 136.756465 -11.255135, 136.755656 -11.223243, 136.754848 -11.191352, 136.754039 -11.159460, 136.753231 -11.127568, 136.752423 -11.095676, 136.751615 -11.063784, 136.750808 -11.031892, 136.750000 -11.000000, 136.717540 -11.001571, 136.685079 -11.003138, 136.652619 -11.004702, 136.620157 -11.006263, 136.587696 -11.007820, 136.555234 -11.009374, 136.522772 -11.010924, 136.490309 -11.012471, 136.457846 -11.014014, 136.425383 -11.015554, 136.392919 -11.017090, 136.360456 -11.018623, 136.327991 -11.020153, 136.295527 -11.021679, 136.263062 -11.023202, 136.230597 -11.024721, 136.198131 -11.026236, 136.165665 -11.027749, 136.133199 -11.029258, 136.100732 -11.030763, 136.068265 -11.032265, 136.035798 -11.033763, 136.003330 -11.035258, 135.970862 -11.036750, 135.938394 -11.038238, 135.905926 -11.039723, 135.873457 -11.041204, 135.840987 -11.042681, 135.808518 -11.044156, 135.776048 -11.045626, 135.743578 -11.047094, 135.711107 -11.048558, 135.678636 -11.050018, 135.646165 -11.051475, 135.613694 -11.052928, 135.581222 -11.054378, 135.548750 -11.055825, 135.516277 -11.057268, 135.483804 -11.058708, 135.451331 -11.060144, 135.418858 -11.061577, 135.386384 -11.063006, 135.353910 -11.064432, 135.321436 -11.065854, 135.288961 -11.067273, 135.256486 -11.068688, 135.224011 -11.070100, 135.191535 -11.071508, 135.159059 -11.072913, 135.126583 -11.074315, 135.094106 -11.075713, 135.061630 -11.077107, 135.029152 -11.078498, 134.996675 -11.079886, 134.964197 -11.081270, 134.931719 -11.082651, 134.899241 -11.084028, 134.866762 -11.085402, 134.834283 -11.086772, 134.801804 -11.088139, 134.769324 -11.089502, 134.736844 -11.090862, 134.704364 -11.092218, 134.671883 -11.093571, 134.639402 -11.094920, 134.606921 -11.096266, 134.574440 -11.097609, 134.541958 -11.098948, 134.509476 -11.100283, 134.476994 -11.101615, 134.444511 -11.102944, 134.412028 -11.104269, 134.379545 -11.105590, 134.347061 -11.106908, 134.314578 -11.108223, 134.282094 -11.109534, 134.249609 -11.110842, 134.217125 -11.112146, 134.184640 -11.113447, 134.152154 -11.114744, 134.119669 -11.116037, 134.087183 -11.117328, 134.054697 -11.118614, 134.022210 -11.119898, 133.989724 -11.121177, 133.957237 -11.122454, 133.924750 -11.123726, 133.892262 -11.124996, 133.859774 -11.126262, 133.827286 -11.127524, 133.794798 -11.128783, 133.762309 -11.130038, 133.729820 -11.131290, 133.697331 -11.132538, 133.664841 -11.133783, 133.632352 -11.135024, 133.599862 -11.136262, 133.567371 -11.137497, 133.534881 -11.138728, 133.502390 -11.139955, 133.469899 -11.141179, 133.437407 -11.142399, 133.404915 -11.143616, 133.372423 -11.144830, 133.339931 -11.146040, 133.307439 -11.147246, 133.274946 -11.148449, 133.242453 -11.149649, 133.209960 -11.150845, 133.177466 -11.152037, 133.144972 -11.153226, 133.112478 -11.154412, 133.079984 -11.155594, 133.047489 -11.156772, 133.014994 -11.157947, 132.982499 -11.159118, 132.950003 -11.160286, 132.917508 -11.161451, 132.885012 -11.162612, 132.852516 -11.163769, 132.820019 -11.164923, 132.787522 -11.166074, 132.755025 -11.167221, 132.722528 -11.168364, 132.690031 -11.169504, 132.657533 -11.170641, 132.625035 -11.171774, 132.592537 -11.172903, 132.560038 -11.174029, 132.527539 -11.175152, 132.495040 -11.176271, 132.462541 -11.177386, 132.430042 -11.178498, 132.397542 -11.179606, 132.365042 -11.180711, 132.332542 -11.181813, 132.300041 -11.182911, 132.267540 -11.184005, 132.235039 -11.185096, 132.202538 -11.186183, 132.170037 -11.187267, 132.137535 -11.188348, 132.105033 -11.189424, 132.072531 -11.190498, 132.040028 -11.191568, 132.007526 -11.192634, 131.975023 -11.193697, 131.942519 -11.194756, 131.910016 -11.195812, 131.877512 -11.196864, 131.845008 -11.197913, 131.812504 -11.198958, 131.780000 -11.200000, 131.760492 -11.224930, 131.740981 -11.249858, 131.721466 -11.274785, 131.701948 -11.299711, 131.682427 -11.324635, 131.662902 -11.349558, 131.643374 -11.374480, 131.623842 -11.399401, 131.604307 -11.424320, 131.584768 -11.449238, 131.565226 -11.474155, 131.545681 -11.499071, 131.526132 -11.523985, 131.506580 -11.548898, 131.487024 -11.573809, 131.467464 -11.598719, 131.447902 -11.623628, 131.428335 -11.648536, 131.408766 -11.673442, 131.389192 -11.698347, 131.369615 -11.723251, 131.350035 -11.748153, 131.330451 -11.773054, 131.310864 -11.797954, 131.291273 -11.822852, 131.271678 -11.847749, 131.252080 -11.872644, 131.232478 -11.897539, 131.212873 -11.922431, 131.193264 -11.947323, 131.173651 -11.972213, 131.154035 -11.997102, 131.134415 -12.021989, 131.114792 -12.046875, 131.095165 -12.071760, 131.075534 -12.096643, 131.055900 -12.121525, 131.036262 -12.146406, 131.016620 -12.171285, 130.996975 -12.196163, 130.977326 -12.221039, 130.957673 -12.245914, 130.938017 -12.270788, 130.918357 -12.295660, 130.898693 -12.320531, 130.879025 -12.345400, 130.859354 -12.370268, 130.839679 -12.395135, 130.820000 -12.420000, 130.789403 -12.431116, 130.758803 -12.442229, 130.728200 -12.453338, 130.697595 -12.464444, 130.666987 -12.475547, 130.636376 -12.486646, 130.605763 -12.497742, 130.575147 -12.508834, 130.544529 -12.519922, 130.513908 -12.531008, 130.483284 -12.542089, 130.452658 -12.553168, 130.422029 -12.564242, 130.391398 -12.575314, 130.360763 -12.586382, 130.330126 -12.597446, 130.299487 -12.608507, 130.268845 -12.619564, 130.238200 -12.630618, 130.207553 -12.641669, 130.176903 -12.652715, 130.146250 -12.663759, 130.115594 -12.674799, 130.084936 -12.685835, 130.054276 -12.696868, 130.023612 -12.707897, 129.992946 -12.718923, 129.962278 -12.729945, 129.931606 -12.740964, 129.900932 -12.751979, 129.870255 -12.762991, 129.839576 -12.773999, 129.808894 -12.785004, 129.778209 -12.796005, 129.747522 -12.807002, 129.716832 -12.817996, 129.686139 -12.828987, 129.655444 -12.839974, 129.624746 -12.850957, 129.594045 -12.861937, 129.563341 -12.872913, 129.532635 -12.883885, 129.501926 -12.894854, 129.471215 -12.905820, 129.440500 -12.916782, 129.409784 -12.927740, 129.379064 -12.938695, 129.348342 -12.949646, 129.317617 -12.960593, 129.286889 -12.971537, 129.256158 -12.982477, 129.225425 -12.993414, 129.194689 -13.004347, 129.163951 -13.015276, 129.133210 -13.026202, 129.102466 -13.037124, 129.071719 -13.048043, 129.040969 -13.058958, 129.010217 -13.069869, 128.979462 -13.080777, 128.948705 -13.091681, 128.917945 -13.102581, 128.887182 -13.113478, 128.856416 -13.124371, 128.825647 -13.135260, 128.794876 -13.146146, 128.764102 -13.157028, 128.733326 -13.167907, 128.702546 -13.178781, 128.671764 -13.189652, 128.640979 -13.200520, 128.610192 -13.211384, 128.579401 -13.222244, 128.548608 -13.233100, 128.517812 -13.243953, 128.487014 -13.254802, 128.456212 -13.265647, 128.425408 -13.276489, 128.394602 -13.287327, 128.363792 -13.298161, 128.332980 -13.308991, 128.302165 -13.319818, 128.271347 -13.330641, 128.240526 -13.341460, 128.209703 -13.352276, 128.178877 -13.363088, 128.148048 -13.373896, 128.117216 -13.384701, 128.086382 -13.395501, 128.055544 -13.406298, 128.024705 -13.417091, 127.993862 -13.427881, 127.963016 -13.438667, 127.932168 -13.449449, 127.901317 -13.460227, 127.870463 -13.471001, 127.839607 -13.481772, 127.808747 -13.492539, 127.777885 -13.503302, 127.747020 -13.514061, 127.716152 -13.524817, 127.685282 -13.535569, 127.654408 -13.546317, 127.623532 -13.557061, 127.592653 -13.567801, 127.561772 -13.578538, 127.530887 -13.589271, 127.500000 -13.600000, 127.468123 -13.607090, 127.436245 -13.614177, 127.404364 -13.621259, 127.372482 -13.628337, 127.340598 -13.635412, 127.308711 -13.642482, 127.276823 -13.649548, 127.244933 -13.656610, 127.213041 -13.663668, 127.181148 -13.670721, 127.149252 -13.677771, 127.117354 -13.684817, 127.085455 -13.691858, 127.053553 -13.698896, 127.021650 -13.705929, 126.989744 -13.712959, 126.957837 -13.719984, 126.925928 -13.727005, 126.894017 -13.734022, 126.862104 -13.741035, 126.830189 -13.748044, 126.798272 -13.755049, 126.766354 -13.762049, 126.734433 -13.769046, 126.702511 -13.776038, 126.670586 -13.783027, 126.638660 -13.790011, 126.606732 -13.796991, 126.574802 -13.803967, 126.542870 -13.810939, 126.510936 -13.817906, 126.479000 -13.824870, 126.447062 -13.831829, 126.415122 -13.838785, 126.383181 -13.845736, 126.351237 -13.852683, 126.319292 -13.859626, 126.287345 -13.866564, 126.255395 -13.873499, 126.223444 -13.880429, 126.191491 -13.887356, 126.159536 -13.894278, 126.127579 -13.901196, 126.095621 -13.908110, 126.063660 -13.915019, 126.031697 -13.921925, 125.999733 -13.928826, 125.967766 -13.935724, 125.935798 -13.942617, 125.903828 -13.949505, 125.871856 -13.956390, 125.839882 -13.963271, 125.807906 -13.970147, 125.775928 -13.977019, 125.743948 -13.983887, 125.711966 -13.990751, 125.679983 -13.997610, 125.647997 -14.004466, 125.616010 -14.011317, 125.584021 -14.018164, 125.552029 -14.025007, 125.520036 -14.031845, 125.488041 -14.038680, 125.456044 -14.045510, 125.424045 -14.052336, 125.392045 -14.059158, 125.360042 -14.065975, 125.328037 -14.072789, 125.296031 -14.079598, 125.264023 -14.086403, 125.232012 -14.093204, 125.200000 -14.100000, 125.174857 -14.120502, 125.149710 -14.141001, 125.124558 -14.161498, 125.099402 -14.181992, 125.074241 -14.202483, 125.049075 -14.222972, 125.023905 -14.243458, 124.998730 -14.263942, 124.973551 -14.284423, 124.948367 -14.304901, 124.923179 -14.325376, 124.897986 -14.345849, 124.872788 -14.366319, 124.847586 -14.386787, 124.822379 -14.407252, 124.797168 -14.427714, 124.771952 -14.448174, 124.746731 -14.468631, 124.721505 -14.489085, 124.696275 -14.509536, 124.671041 -14.529985, 124.645801 -14.550431, 124.620557 -14.570875, 124.595309 -14.591315, 124.570055 -14.611753, 124.544797 -14.632189, 124.519534 -14.652621, 124.494267 -14.673051, 124.468994 -14.693478, 124.443717 -14.713902, 124.418436 -14.734324, 124.393149 -14.754743, 124.367858 -14.775159, 124.342562 -14.795572, 124.317261 -14.815983, 124.291956 -14.836391, 124.266646 -14.856796, 124.241331 -14.877198, 124.216011 -14.897598, 124.190686 -14.917995, 124.165357 -14.938389, 124.140023 -14.958780, 124.114684 -14.979168, 124.089340 -14.999554, 124.063991 -15.019937, 124.038637 -15.040317, 124.013279 -15.060694, 123.987916 -15.081068, 123.962548 -15.101440, 123.937175 -15.121808, 123.911797 -15.142174, 123.886414 -15.162537, 123.861026 -15.182897, 123.835634 -15.203255, 123.810237 -15.223609, 123.784834 -15.243961, 123.759427 -15.264310, 123.734015 -15.284656, 123.708598 -15.304999, 123.683176 -15.325339, 123.657749 -15.345676, 123.632317 -15.366011, 123.606880 -15.386342, 123.581438 -15.406671, 123.555991 -15.426997, 123.530539 -15.447319, 123.505082 -15.467639, 123.479621 -15.487956, 123.454154 -15.508271, 123.428682 -15.528582, 123.403205 -15.548890, 123.377723 -15.569196, 123.352236 -15.589498, 123.326744 -15.609798, 123.301247 -15.630094, 123.275745 -15.650388, 123.250238 -15.670678, 123.224726 -15.690966, 123.199209 -15.711251, 123.173686 -15.731533, 123.148159 -15.751812, 123.122626 -15.772087, 123.097089 -15.792360, 123.071546 -15.812630, 123.045998 -15.832897, 123.020445 -15.853161, 122.994887 -15.873422, 122.969324 -15.893680, 122.943755 -15.913935, 122.918182 -15.934187, 122.892603 -15.954436, 122.867019 -15.974682, 122.841430 -15.994924, 122.815836 -16.015164, 122.790236 -16.035401, 122.764632 -16.055635, 122.739022 -16.075866, 122.713407 -16.096093, 122.687786 -16.116318, 122.662161 -16.136540, 122.636530 -16.156758, 122.610894 -16.176973, 122.585253 -16.197186, 122.559607 -16.217395, 122.533955 -16.237601, 122.508298 -16.257805, 122.482636 -16.278005, 122.456968 -16.298202, 122.431295 -16.318395, 122.405617 -16.338586, 122.379933 -16.358774, 122.354245 -16.378958, 122.328551 -16.399140, 122.302851 -16.419318, 122.277146 -16.439493, 122.251436 -16.459665, 122.225721 -16.479834, 122.200000 -16.500000, 122.200863 -16.531522, 122.201726 -16.563044, 122.202590 -16.594565, 122.203454 -16.626087, 122.204318 -16.657609, 122.205182 -16.689131, 122.206047 -16.720653, 122.206912 -16.752174, 122.207777 -16.783696, 122.208643 -16.815218, 122.209509 -16.846740, 122.210375 -16.878262, 122.211241 -16.909783, 122.212108 -16.941305, 122.212975 -16.972827, 122.213842 -17.004349, 122.214710 -17.035870, 122.215578 -17.067392, 122.216446 -17.098914, 122.217314 -17.130436, 122.218183 -17.161958, 122.219052 -17.193479, 122.219922 -17.225001, 122.220791 -17.256523, 122.221661 -17.288044, 122.222531 -17.319566, 122.223402 -17.351088, 122.224273 -17.382610, 122.225144 -17.414131, 122.226015 -17.445653, 122.226887 -17.477175, 122.227759 -17.508696, 122.228632 -17.540218, 122.229504 -17.571740, 122.230377 -17.603262, 122.231250 -17.634783, 122.232124 -17.666305, 122.232998 -17.697827, 122.233872 -17.729348, 122.234747 -17.760870, 122.235621 -17.792392, 122.236496 -17.823913, 122.237372 -17.855435, 122.238248 -17.886957, 122.239124 -17.918478, 122.240000 -17.950000, 122.210600 -17.965537, 122.181195 -17.981070, 122.151784 -17.996599, 122.122368 -18.012123, 122.092948 -18.027643, 122.063522 -18.043158, 122.034090 -18.058669, 122.004654 -18.074175, 121.975212 -18.089677, 121.945765 -18.105174, 121.916313 -18.120667, 121.886856 -18.136155, 121.857394 -18.151639, 121.827926 -18.167119, 121.798453 -18.182594, 121.768975 -18.198064, 121.739492 -18.213530, 121.710003 -18.228992, 121.680509 -18.244449, 121.651010 -18.259901, 121.621506 -18.275349, 121.591996 -18.290792, 121.562481 -18.306231, 121.532961 -18.321665, 121.503436 -18.337095, 121.473905 -18.352520, 121.444369 -18.367941, 121.414828 -18.383357, 121.385282 -18.398769, 121.355730 -18.414176, 121.326173 -18.429578, 121.296610 -18.444976, 121.267043 -18.460370, 121.237470 -18.475758, 121.207892 -18.491142, 121.178308 -18.506522, 121.148719 -18.521897, 121.119125 -18.537267, 121.089525 -18.552633, 121.059921 -18.567994, 121.030310 -18.583350, 121.000695 -18.598702, 120.971074 -18.614050, 120.941448 -18.629392, 120.911816 -18.644730, 120.882179 -18.660063, 120.852537 -18.675392, 120.822889 -18.690716, 120.793236 -18.706035, 120.763578 -18.721350, 120.733914 -18.736660, 120.704245 -18.751966, 120.674571 -18.767266, 120.644891 -18.782562, 120.615205 -18.797854, 120.585515 -18.813140, 120.555819 -18.828422, 120.526117 -18.843699, 120.496410 -18.858972, 120.466698 -18.874240, 120.436980 -18.889503, 120.407257 -18.904761, 120.377529 -18.920015, 120.347795 -18.935264, 120.318055 -18.950508, 120.288311 -18.965747, 120.258560 -18.980982, 120.228805 -18.996212, 120.199044 -19.011437, 120.169277 -19.026657, 120.139505 -19.041873, 120.109727 -19.057084, 120.079944 -19.072290, 120.050156 -19.087491, 120.020362 -19.102688, 119.990563 -19.117879, 119.960758 -19.133066, 119.930948 -19.148248, 119.901132 -19.163426, 119.871310 -19.178598, 119.841484 -19.193766, 119.811651 -19.208929, 119.781814 -19.224087, 119.751970 -19.239240, 119.722121 -19.254388, 119.692267 -19.269532, 119.662407 -19.284671, 119.632542 -19.299805, 119.602671 -19.314934, 119.572795 -19.330058, 119.542913 -19.345177, 119.513025 -19.360291, 119.483132 -19.375401, 119.453234 -19.390505, 119.423329 -19.405605, 119.393420 -19.420700, 119.363505 -19.435790, 119.333584 -19.450875, 119.303657 -19.465955, 119.273726 -19.481030, 119.243788 -19.496101, 119.213845 -19.511166, 119.183896 -19.526226, 119.153942 -19.541282, 119.123982 -19.556332, 119.094017 -19.571378, 119.064046 -19.586419, 119.034069 -19.601455, 119.004087 -19.616485, 118.974099 -19.631511, 118.944106 -19.646532, 118.914107 -19.661548, 118.884102 -19.676559, 118.854092 -19.691565, 118.824076 -19.706566, 118.794055 -19.721562, 118.764027 -19.736553, 118.733995 -19.751538, 118.703956 -19.766519, 118.673912 -19.781495, 118.643862 -19.796466, 118.613807 -19.811432, 118.583746 -19.826393, 118.553679 -19.841349, 118.523607 -19.856300, 118.493529 -19.871245, 118.463445 -19.886186, 118.433356 -19.901122, 118.403261 -19.916052, 118.373160 -19.930978, 118.343054 -19.945898, 118.312942 -19.960813, 118.282824 -19.975724, 118.252700 -19.990629, 118.222571 -20.005529, 118.192436 -20.020424, 118.162296 -20.035314, 118.132149 -20.050199, 118.101997 -20.065079, 118.071840 -20.079953, 118.041676 -20.094823, 118.011507 -20.109687, 117.981332 -20.124546, 117.951151 -20.139400, 117.920965 -20.154249, 117.890773 -20.169093, 117.860575 -20.183932, 117.830371 -20.198765, 117.800162 -20.213593, 117.769947 -20.228417, 117.739726 -20.243235, 117.709499 -20.258047, 117.679267 -20.272855, 117.649028 -20.287658, 117.618784 -20.302455, 117.588535 -20.317247, 117.558279 -20.332034, 117.528018 -20.346815, 117.497750 -20.361592, 117.467478 -20.376363, 117.437199 -20.391129, 117.406914 -20.405890, 117.376624 -20.420645, 117.346328 -20.435396, 117.316026 -20.450141, 117.285718 -20.464881, 117.255405 -20.479615, 117.225085 -20.494345, 117.194760 -20.509069, 117.164429 -20.523787, 117.134092 -20.538501, 117.103749 -20.553209, 117.073401 -20.567912, 117.043046 -20.582610, 117.012686 -20.597302, 116.982320 -20.611989, 116.951948 -20.626671, 116.921570 -20.641347, 116.891186 -20.656019, 116.860797 -20.670684, 116.830401 -20.685345, 116.800000 -20.700000, 116.769052 -20.713179, 116.738099 -20.726353, 116.707141 -20.739521, 116.676177 -20.752683, 116.645208 -20.765840, 116.614233 -20.778991, 116.583253 -20.792137, 116.552267 -20.805278, 116.521277 -20.818412, 116.490280 -20.831541, 116.459279 -20.844665, 116.428272 -20.857783, 116.397259 -20.870895, 116.366241 -20.884002, 116.335218 -20.897103, 116.304189 -20.910199, 116.273155 -20.923289, 116.242116 -20.936373, 116.211071 -20.949452, 116.180020 -20.962525, 116.148965 -20.975593, 116.117903 -20.988655, 116.086837 -21.001711, 116.055764 -21.014762, 116.024687 -21.027807, 115.993604 -21.040846, 115.962515 -21.053880, 115.931422 -21.066908, 115.900322 -21.079930, 115.869218 -21.092947, 115.838107 -21.105958, 115.806992 -21.118964, 115.775870 -21.131963, 115.744744 -21.144957, 115.713612 -21.157946, 115.682474 -21.170928, 115.651331 -21.183905, 115.620183 -21.196876, 115.589029 -21.209842, 115.557870 -21.222802, 115.526705 -21.235756, 115.495534 -21.248704, 115.464359 -21.261647, 115.433177 -21.274584, 115.401991 -21.287515, 115.370798 -21.300440, 115.339601 -21.313360, 115.308397 -21.326274, 115.277189 -21.339182, 115.245974 -21.352084, 115.214755 -21.364981, 115.183529 -21.377872, 115.152299 -21.390757, 115.121063 -21.403636, 115.089821 -21.416510, 115.058574 -21.429377, 115.027321 -21.442239, 114.996063 -21.455096, 114.964799 -21.467946, 114.933530 -21.480790, 114.902255 -21.493629, 114.870975 -21.506462, 114.839689 -21.519289, 114.808397 -21.532110, 114.777101 -21.544925, 114.745798 -21.557735, 114.714490 -21.570539, 114.683177 -21.583337, 114.651858 -21.596129, 114.620533 -21.608915, 114.589203 -21.621695, 114.557868 -21.634469, 114.526527 -21.647238, 114.495180 -21.660000, 114.463828 -21.672757, 114.432470 -21.685508, 114.401107 -21.698253, 114.369738 -21.710992, 114.338363 -21.723725, 114.306983 -21.736453, 114.275598 -21.749174, 114.244207 -21.761889, 114.212810 -21.774599, 114.181408 -21.787302, 114.150000 -21.800000, 114.122501 -21.818507, 114.094996 -21.837009, 114.067483 -21.855506, 114.039963 -21.873999, 114.012436 -21.892487, 113.984902 -21.910971, 113.957361 -21.929450, 113.929812 -21.947924, 113.902257 -21.966394, 113.874694 -21.984860, 113.847124 -22.003320, 113.819547 -22.021777, 113.791963 -22.040228, 113.764371 -22.058675, 113.736772 -22.077117, 113.709167 -22.095555, 113.681553 -22.113988, 113.653933 -22.132416, 113.626306 -22.150840, 113.598671 -22.169259, 113.571029 -22.187673, 113.543379 -22.206083, 113.515723 -22.224488, 113.488059 -22.242889, 113.460388 -22.261284, 113.432710 -22.279675, 113.405024 -22.298062, 113.377331 -22.316443, 113.349631 -22.334820, 113.321924 -22.353192, 113.294209 -22.371560, 113.266487 -22.389923, 113.238757 -22.408281, 113.211020 -22.426634, 113.183276 -22.444983, 113.155525 -22.463327, 113.127766 -22.481666, 113.100000 -22.500000, 113.090904 -22.530786, 113.081805 -22.561572, 113.072701 -22.592357, 113.063593 -22.623142, 113.054482 -22.653926, 113.045366 -22.684710, 113.036246 -22.715493, 113.027122 -22.746276, 113.017993 -22.777058, 113.008861 -22.807840, 112.999725 -22.838621, 112.990584 -22.869401, 112.981439 -22.900182, 112.972290 -22.930961, 112.963137 -22.961740, 112.953980 -22.992519, 112.944819 -23.023297, 112.935653 -23.054074, 112.926483 -23.084851, 112.917309 -23.115627, 112.908131 -23.146403, 112.898949 -23.177179, 112.889762 -23.207953, 112.880571 -23.238728, 112.871376 -23.269501, 112.862177 -23.300275, 112.852973 -23.331047, 112.843765 -23.361819, 112.834553 -23.392591, 112.825337 -23.423362, 112.816116 -23.454132, 112.806891 -23.484902, 112.797662 -23.515672, 112.788428 -23.546441, 112.779190 -23.577209, 112.769948 -23.607977, 112.760701 -23.638744, 112.751450 -23.669511, 112.742195 -23.700277, 112.732935 -23.731042, 112.723671 -23.761807, 112.714403 -23.792572, 112.705130 -23.823336, 112.695853 -23.854099, 112.686571 -23.884862, 112.677285 -23.915624, 112.667995 -23.946386, 112.658700 -23.977147, 112.649400 -24.007908, 112.640096 -24.038668, 112.630788 -24.069427, 112.621476 -24.100186, 112.612158 -24.130944, 112.602837 -24.161702, 112.593511 -24.192459, 112.584180 -24.223216, 112.574845 -24.253972, 112.565505 -24.284728, 112.556161 -24.315483, 112.546812 -24.346237, 112.537459 -24.376991, 112.528101 -24.407744, 112.518739 -24.438496, 112.509372 -24.469249, 112.500000 -24.500000, 112.519380 -24.526144, 112.538767 -24.552286, 112.558163 -24.578425, 112.577566 -24.604561, 112.596978 -24.630695, 112.616398 -24.656827, 112.635826 -24.682956, 112.655263 -24.709083, 112.674707 -24.735207, 112.694160 -24.761328, 112.713620 -24.787447, 112.733089 -24.813564, 112.752567 -24.839678, 112.772052 -24.865790, 112.791546 -24.891898, 112.811047 -24.918005, 112.830558 -24.944109, 112.850076 -24.970210, 112.869603 -24.996309, 112.889138 -25.022405, 112.908681 -25.048499, 112.928232 -25.074590, 112.947792 -25.100679, 112.967361 -25.126765, 112.986937 -25.152848, 113.006522 -25.178929, 113.026116 -25.205008, 113.045718 -25.231083, 113.065328 -25.257156, 113.084946 -25.283227, 113.104573 -25.309295, 113.124209 -25.335360, 113.143853 -25.361423, 113.163505 -25.387483, 113.183166 -25.413541, 113.202836 -25.439596, 113.222514 -25.465648, 113.242200 -25.491698, 113.261895 -25.517745, 113.281599 -25.543789, 113.301311 -25.569831, 113.321031 -25.595870, 113.340761 -25.621906, 113.360498 -25.647940, 113.380245 -25.673971, 113.400000 -25.700000, 113.381245 -25.727078, 113.362482 -25.754154, 113.343710 -25.781227, 113.324930 -25.808298, 113.306141 -25.835367, 113.287344 -25.862433, 113.268538 -25.889497, 113.249723 -25.916558, 113.230900 -25.943617, 113.212068 -25.970673, 113.193227 -25.997727, 113.174377 -26.024779, 113.155519 -26.051828, 113.136653 -26.078875, 113.117777 -26.105919, 113.098893 -26.132961, 113.080000 -26.160000, 113.096145 -26.188414, 113.112297 -26.216826, 113.128457 -26.245236, 113.144625 -26.273644, 113.160802 -26.302051, 113.176986 -26.330456, 113.193178 -26.358859, 113.209378 -26.387260, 113.225586 -26.415659, 113.241802 -26.444057, 113.258025 -26.472452, 113.274257 -26.500846, 113.290497 -26.529238, 113.306745 -26.557628, 113.323001 -26.586017, 113.339265 -26.614403, 113.355538 -26.642788, 113.371818 -26.671171, 113.388106 -26.699551, 113.404403 -26.727931, 113.420707 -26.756308, 113.437020 -26.784683, 113.453341 -26.813056, 113.469670 -26.841428, 113.486007 -26.869798, 113.502353 -26.898166, 113.518706 -26.926531, 113.535068 -26.954896, 113.551439 -26.983258, 113.567817 -27.011618, 113.584204 -27.039976, 113.600599 -27.068333, 113.617002 -27.096687, 113.633413 -27.125040, 113.649833 -27.153391, 113.666261 -27.181740, 113.682698 -27.210087, 113.699143 -27.238432, 113.715596 -27.266775, 113.732058 -27.295116, 113.748528 -27.323455, 113.765007 -27.351792, 113.781494 -27.380128, 113.797989 -27.408461, 113.814493 -27.436793, 113.831005 -27.465122, 113.847526 -27.493450, 113.864055 -27.521775, 113.880593 -27.550099, 113.897140 -27.578421, 113.913695 -27.606741, 113.930258 -27.635058, 113.946830 -27.663374, 113.963411 -27.691688, 113.980000 -27.720000, 113.990109 -27.750627, 114.000223 -27.781254, 114.010344 -27.811880, 114.020470 -27.842505, 114.030601 -27.873129, 114.040739 -27.903753, 114.050882 -27.934376, 114.061031 -27.964998, 114.071185 -27.995620, 114.081346 -28.026240, 114.091512 -28.056860, 114.101684 -28.087480, 114.111861 -28.118098, 114.122045 -28.148716, 114.132234 -28.179333, 114.142430 -28.209949, 114.152631 -28.240564, 114.162838 -28.271179, 114.173051 -28.301793, 114.183269 -28.332406, 114.193494 -28.363018, 114.203724 -28.393630, 114.213961 -28.424241, 114.224203 -28.454851, 114.234451 -28.485460, 114.244706 -28.516069, 114.254966 -28.546677, 114.265232 -28.577284, 114.275504 -28.607890, 114.285782 -28.638495, 114.296066 -28.669100, 114.306356 -28.699704, 114.316652 -28.730307, 114.326954 -28.760910, 114.337263 -28.791511, 114.347577 -28.822112, 114.357897 -28.852712, 114.368224 -28.883311, 114.378556 -28.913910, 114.388895 -28.944507, 114.399239 -28.975104, 114.409590 -29.005700, 114.419947 -29.036295, 114.430310 -29.066890, 114.440679 -29.097484, 114.451055 -29.128076, 114.461436 -29.158669, 114.471824 -29.189260, 114.482218 -29.219850, 114.492618 -29.250440, 114.503024 -29.281029, 114.513437 -29.311617, 114.523856 -29.342204, 114.534281 -29.372791, 114.544712 -29.403376, 114.555150 -29.433961, 114.565594 -29.464545, 114.576044 -29.495128, 114.586501 -29.525711, 114.596964 -29.556292, 114.607433 -29.586873, 114.617908 -29.617453, 114.628390 -29.648032, 114.638879 -29.678610, 114.649373 -29.709188, 114.659874 -29.739764, 114.670382 -29.770340, 114.680896 -29.800915, 114.691416 -29.831489, 114.701943 -29.862062, 114.712476 -29.892635, 114.723016 -29.923207, 114.733562 -29.953777, 114.744114 -29.984347, 114.754673 -30.014916, 114.765239 -30.045485, 114.775811 -30.076052, 114.786390 -30.106619, 114.796975 -30.137184, 114.807567 -30.167749, 114.818165 -30.198313, 114.828770 -30.228876, 114.839382 -30.259439, 114.850000 -30.290000, 114.864404 -30.319012, 114.878817 -30.348022, 114.893238 -30.377031, 114.907668 -30.406039, 114.922106 -30.435044, 114.936553 -30.464048, 114.951008 -30.493051, 114.965472 -30.522052, 114.979945 -30.551051, 114.994427 -30.580049, 115.008917 -30.609045, 115.023415 -30.638040, 115.037923 -30.667032, 115.052439 -30.696024, 115.066964 -30.725013, 115.081498 -30.754001, 115.096040 -30.782988, 115.110591 -30.811973, 115.125151 -30.840956, 115.139720 -30.869937, 115.154297 -30.898917, 115.168884 -30.927896, 115.183479 -30.956872, 115.198083 -30.985847, 115.212696 -31.014821, 115.227318 -31.043792, 115.241948 -31.072762, 115.256588 -31.101731, 115.271237 -31.130698, 115.285894 -31.159663, 115.300561 -31.188626, 115.315236 -31.217588, 115.329920 -31.246548, 115.344614 -31.275506, 115.359316 -31.304463, 115.374028 -31.333418, 115.388749 -31.362372, 115.403478 -31.391323, 115.418217 -31.420273, 115.432965 -31.449222, 115.447722 -31.478168, 115.462488 -31.507113, 115.477263 -31.536057, 115.492047 -31.564998, 115.506841 -31.593938, 115.521644 -31.622876, 115.536456 -31.651813, 115.551277 -31.680747, 115.566107 -31.709680, 115.580947 -31.738612, 115.595796 -31.767541, 115.610654 -31.796469, 115.625522 -31.825395, 115.640399 -31.854320, 115.655285 -31.883242, 115.670181 -31.912163, 115.685086 -31.941083, 115.700000 -31.970000, 115.692794 -32.001315, 115.685582 -32.032630, 115.678366 -32.063944, 115.671145 -32.095257, 115.663919 -32.126571, 115.656688 -32.157884, 115.649452 -32.189196, 115.642211 -32.220508, 115.634965 -32.251820, 115.627714 -32.283131, 115.620458 -32.314442, 115.613197 -32.345752, 115.605931 -32.377062, 115.598660 -32.408372, 115.591384 -32.439681, 115.584103 -32.470990, 115.576817 -32.502298, 115.569525 -32.533606, 115.562229 -32.564914, 115.554927 -32.596221, 115.547621 -32.627527, 115.540309 -32.658834, 115.532992 -32.690139, 115.525670 -32.721445, 115.518343 -32.752750, 115.511011 -32.784054, 115.503674 -32.815358, 115.496331 -32.846662, 115.488983 -32.877965, 115.481630 -32.909268, 115.474272 -32.940571, 115.466909 -32.971872, 115.459540 -33.003174, 115.452166 -33.034475, 115.444787 -33.065776, 115.437403 -33.097076, 115.430013 -33.128376, 115.422619 -33.159675, 115.415218 -33.190974, 115.407813 -33.222272, 115.400402 -33.253570, 115.392986 -33.284868, 115.385565 -33.316165, 115.378138 -33.347462, 115.370706 -33.378758, 115.363269 -33.410054, 115.355826 -33.441349, 115.348378 -33.472644, 115.340925 -33.503939, 115.333466 -33.535233, 115.326001 -33.566526, 115.318532 -33.597820, 115.311057 -33.629112, 115.303576 -33.660405, 115.296090 -33.691696, 115.288599 -33.722988, 115.281102 -33.754279, 115.273599 -33.785569, 115.266091 -33.816859, 115.258578 -33.848149, 115.251059 -33.879438, 115.243535 -33.910726, 115.236005 -33.942014, 115.228469 -33.973302, 115.220928 -34.004589, 115.213382 -34.035876, 115.205830 -34.067162, 115.198272 -34.098448, 115.190709 -34.129734, 115.183140 -34.161019, 115.175565 -34.192303, 115.167985 -34.223587, 115.160400 -34.254871, 115.152808 -34.286154, 115.145211 -34.317436, 115.137608 -34.348718, 115.130000 -34.380000, 115.163018 -34.396879, 115.196049 -34.413748, 115.229094 -34.430609, 115.262152 -34.447461, 115.295223 -34.464304, 115.328308 -34.481138, 115.361406 -34.497963, 115.394517 -34.514779, 115.427642 -34.531586, 115.460780 -34.548385, 115.493931 -34.565174, 115.527096 -34.581955, 115.560275 -34.598726, 115.593466 -34.615488, 115.626671 -34.632242, 115.659890 -34.648986, 115.693122 -34.665722, 115.726367 -34.682448, 115.759626 -34.699166, 115.792898 -34.715874, 115.826183 -34.732573, 115.859482 -34.749263, 115.892795 -34.765945, 115.926121 -34.782617, 115.959460 -34.799280, 115.992813 -34.815934, 116.026180 -34.832579, 116.059560 -34.849214, 116.092953 -34.865841, 116.126360 -34.882458, 116.159780 -34.899067, 116.193214 -34.915666, 116.226662 -34.932256, 116.260123 -34.948837, 116.293597 -34.965408, 116.327085 -34.981971, 116.360587 -34.998524, 116.394102 -35.015068, 116.427631 -35.031603, 116.461173 -35.048128, 116.494729 -35.064645, 116.528298 -35.081152, 116.561881 -35.097650, 116.595478 -35.114138, 116.629088 -35.130618, 116.662712 -35.147088, 116.696349 -35.163549, 116.730000 -35.180000, 116.767724 -35.175836, 116.805444 -35.171660, 116.843161 -35.167472, 116.880873 -35.163273, 116.918582 -35.159062, 116.956286 -35.154840, 116.993987 -35.150605, 117.031684 -35.146359, 117.069377 -35.142102, 117.107066 -35.137832, 117.144751 -35.133551, 117.182432 -35.129259, 117.220109 -35.124954, 117.257782 -35.120638, 117.295451 -35.116311, 117.333116 -35.111972, 117.370777 -35.107621, 117.408434 -35.103258, 117.446087 -35.098884, 117.483736 -35.094498, 117.521380 -35.090100, 117.559021 -35.085691, 117.596658 -35.081271, 117.634291 -35.076838, 117.671919 -35.072394, 117.709544 -35.067939, 117.747164 -35.063471, 117.784780 -35.058993, 117.822392 -35.054502, 117.860000 -35.050000, 117.896907 -35.039880, 117.933805 -35.029748, 117.970694 -35.019606, 118.007573 -35.009452, 118.044444 -34.999287, 118.081305 -34.989111, 118.118157 -34.978924, 118.155000 -34.968725, 118.191834 -34.958516, 118.228659 -34.948295, 118.265474 -34.938064, 118.302280 -34.927821, 118.339077 -34.917567, 118.375865 -34.907302, 118.412644 -34.897026, 118.449413 -34.886739, 118.486174 -34.876441, 118.522925 -34.866131, 118.559666 -34.855811, 118.596399 -34.845480, 118.633122 -34.835137, 118.669836 -34.824784, 118.706541 -34.814419, 118.743237 -34.804044, 118.779923 -34.793657, 118.816600 -34.783260, 118.853268 -34.772851, 118.889927 -34.762432, 118.926576 -34.752001, 118.963217 -34.741560, 118.999847 -34.731107, 119.036469 -34.720644, 119.073081 -34.710170, 119.109684 -34.699684, 119.146278 -34.689188, 119.182863 -34.678681, 119.219438 -34.668163, 119.256004 -34.657634, 119.292560 -34.647094, 119.329108 -34.636543, 119.365646 -34.625981, 119.402174 -34.615409, 119.438694 -34.604825, 119.475204 -34.594231, 119.511705 -34.583626, 119.548196 -34.573010, 119.584678 -34.562383, 119.621151 -34.551745, 119.657614 -34.541096, 119.694069 -34.530437, 119.730513 -34.519766, 119.766949 -34.509085, 119.803375 -34.498393, 119.839792 -34.487690, 119.876199 -34.476977, 119.912597 -34.466252, 119.948986 -34.455517, 119.985365 -34.444771, 120.021735 -34.434015, 120.058096 -34.423247, 120.094447 -34.412469, 120.130789 -34.401680, 120.167122 -34.390880, 120.203445 -34.380070, 120.239758 -34.369249, 120.276063 -34.358417, 120.312358 -34.347574, 120.348643 -34.336721, 120.384920 -34.325857, 120.421186 -34.314982, 120.457444 -34.304097, 120.493692 -34.293201, 120.529930 -34.282294, 120.566160 -34.271376, 120.602379 -34.260448, 120.638590 -34.249510, 120.674791 -34.238560, 120.710982 -34.227600, 120.747164 -34.216630, 120.783337 -34.205648, 120.819500 -34.194656, 120.855654 -34.183654, 120.891798 -34.172641, 120.927933 -34.161617, 120.964059 -34.150583, 121.000175 -34.139538, 121.036281 -34.128483, 121.072378 -34.117417, 121.108466 -34.106340, 121.144544 -34.095253, 121.180613 -34.084156, 121.216673 -34.073047, 121.252723 -34.061929, 121.288763 -34.050799, 121.324794 -34.039660, 121.360815 -34.028510, 121.396827 -34.017349, 121.432830 -34.006178, 121.468823 -33.994996, 121.504807 -33.983804, 121.540781 -33.972601, 121.576745 -33.961388, 121.612701 -33.950164, 121.648646 -33.938930, 121.684582 -33.927686, 121.720509 -33.916431, 121.756426 -33.905166, 121.792334 -33.893890, 121.828232 -33.882604, 121.864121 -33.871307, 121.900000 -33.860000, 121.938510 -33.859545, 121.977020 -33.859079, 122.015529 -33.858600, 122.054038 -33.858110, 122.092547 -33.857608, 122.131055 -33.857093, 122.169562 -33.856567, 122.208069 -33.856028, 122.246576 -33.855478, 122.285082 -33.854916, 122.323588 -33.854342, 122.362093 -33.853755, 122.400597 -33.853157, 122.439101 -33.852547, 122.477604 -33.851925, 122.516107 -33.851291, 122.554609 -33.850645, 122.593111 -33.849986, 122.631612 -33.849316, 122.670113 -33.848634, 122.708612 -33.847940, 122.747112 -33.847235, 122.785610 -33.846517, 122.824108 -33.845787, 122.862605 -33.845045, 122.901102 -33.844291, 122.939598 -33.843525, 122.978093 -33.842748, 123.016588 -33.841958, 123.055081 -33.841156, 123.093574 -33.840343, 123.132067 -33.839517, 123.170558 -33.838680, 123.209049 -33.837830, 123.247539 -33.836969, 123.286028 -33.836095, 123.324517 -33.835210, 123.363004 -33.834313, 123.401491 -33.833403, 123.439977 -33.832482, 123.478462 -33.831549, 123.516947 -33.830604, 123.555430 -33.829647, 123.593913 -33.828677, 123.632395 -33.827696, 123.670875 -33.826704, 123.709355 -33.825699, 123.747834 -33.824682, 123.786313 -33.823653, 123.824790 -33.822612, 123.863266 -33.821559, 123.901741 -33.820495, 123.940216 -33.819418, 123.978689 -33.818330, 124.017161 -33.817229, 124.055633 -33.816117, 124.094103 -33.814992, 124.132572 -33.813856, 124.171041 -33.812708, 124.209508 -33.811547, 124.247974 -33.810375, 124.286439 -33.809191, 124.324904 -33.807995, 124.363367 -33.806787, 124.401828 -33.805567, 124.440289 -33.804335, 124.478749 -33.803092, 124.517208 -33.801836, 124.555665 -33.800568, 124.594121 -33.799289, 124.632577 -33.797997, 124.671031 -33.796694, 124.709483 -33.795378, 124.747935 -33.794051, 124.786385 -33.792712, 124.824835 -33.791361, 124.863283 -33.789998, 124.901729 -33.788623, 124.940175 -33.787236, 124.978619 -33.785837, 125.017062 -33.784426, 125.055504 -33.783003, 125.093945 -33.781569, 125.132384 -33.780122, 125.170822 -33.778664, 125.209258 -33.777193, 125.247693 -33.775711, 125.286127 -33.774217, 125.324560 -33.772711, 125.362991 -33.771193, 125.401421 -33.769663, 125.439849 -33.768121, 125.478276 -33.766567, 125.516702 -33.765002, 125.555126 -33.763424, 125.593549 -33.761834, 125.631971 -33.760233, 125.670391 -33.758620, 125.708809 -33.756995, 125.747226 -33.755358, 125.785642 -33.753709, 125.824056 -33.752048, 125.862468 -33.750375, 125.900879 -33.748690, 125.939289 -33.746994, 125.977697 -33.745285, 126.016104 -33.743565, 126.054509 -33.741833, 126.092912 -33.740089, 126.131314 -33.738332, 126.169714 -33.736565, 126.208113 -33.734785, 126.246510 -33.732993, 126.284905 -33.731190, 126.323299 -33.729374, 126.361691 -33.727547, 126.400082 -33.725708, 126.438471 -33.723856, 126.476858 -33.721994, 126.515244 -33.720119, 126.553628 -33.718232, 126.592010 -33.716333, 126.630391 -33.714423, 126.668769 -33.712501, 126.707147 -33.710566, 126.745522 -33.708620, 126.783896 -33.706662, 126.822267 -33.704693, 126.860637 -33.702711, 126.899006 -33.700718, 126.937372 -33.698712, 126.975737 -33.696695, 127.014100 -33.694666, 127.052461 -33.692625, 127.090820 -33.690572, 127.129178 -33.688507, 127.167533 -33.686431, 127.205887 -33.684343, 127.244239 -33.682242, 127.282589 -33.680130, 127.320937 -33.678006, 127.359283 -33.675871, 127.397628 -33.673723, 127.435970 -33.671564, 127.474310 -33.669393, 127.512649 -33.667209, 127.550986 -33.665015, 127.589320 -33.662808, 127.627653 -33.660589, 127.665983 -33.658359, 127.704312 -33.656116, 127.742639 -33.653862, 127.780963 -33.651597, 127.819286 -33.649319, 127.857607 -33.647029, 127.895925 -33.644728, 127.934242 -33.642415, 127.972556 -33.640090, 128.010868 -33.637753, 128.049179 -33.635404, 128.087487 -33.633044, 128.125793 -33.630671, 128.164097 -33.628287, 128.202398 -33.625892, 128.240698 -33.623484, 128.278996 -33.621064, 128.317291 -33.618633, 128.355584 -33.616190, 128.393875 -33.613735, 128.432164 -33.611268, 128.470451 -33.608790, 128.508735 -33.606300, 128.547017 -33.603798, 128.585297 -33.601284, 128.623575 -33.598758, 128.661851 -33.596221, 128.700124 -33.593671, 128.738395 -33.591110, 128.776664 -33.588538, 128.814930 -33.585953, 128.853194 -33.583357, 128.891456 -33.580749, 128.929716 -33.578129, 128.967973 -33.575497, 129.006228 -33.572854, 129.044480 -33.570199, 129.082730 -33.567532, 129.120978 -33.564853, 129.159223 -33.562162, 129.197466 -33.559460, 129.235707 -33.556746, 129.273945 -33.554020, 129.312181 -33.551283, 129.350414 -33.548534, 129.388645 -33.545773, 129.426874 -33.543000, 129.465100 -33.540215, 129.503323 -33.537419, 129.541544 -33.534611, 129.579763 -33.531791, 129.617979 -33.528960, 129.656192 -33.526117, 129.694403 -33.523262, 129.732612 -33.520395, 129.770818 -33.517517, 129.809021 -33.514627, 129.847222 -33.511725, 129.885421 -33.508811, 129.923616 -33.505886, 129.961809 -33.502949, 130.000000 -33.500000, 130.035244 -33.487680, 130.070477 -33.475350, 130.105701 -33.463009, 130.140915 -33.450659, 130.176118 -33.438299, 130.211312 -33.425929, 130.246496 -33.413549, 130.281669 -33.401159, 130.316833 -33.388760, 130.351986 -33.376350, 130.387130 -33.363930, 130.422263 -33.351501, 130.457386 -33.339061, 130.492500 -33.326612, 130.527603 -33.314153, 130.562696 -33.301684, 130.597779 -33.289205, 130.632853 -33.276716, 130.667916 -33.264217, 130.702969 -33.251709, 130.738012 -33.239191, 130.773045 -33.226663, 130.808068 -33.214125, 130.843081 -33.201577, 130.878084 -33.189019, 130.913077 -33.176452, 130.948059 -33.163875, 130.983032 -33.151288, 131.017995 -33.138692, 131.052948 -33.126085, 131.087890 -33.113469, 131.122823 -33.100843, 131.157746 -33.088207, 131.192658 -33.075562, 131.227561 -33.062907, 131.262453 -33.050242, 131.297336 -33.037568, 131.332208 -33.024883, 131.367070 -33.012189, 131.401923 -32.999486, 131.436765 -32.986772, 131.471597 -32.974049, 131.506420 -32.961317, 131.541232 -32.948574, 131.576034 -32.935822, 131.610826 -32.923061, 131.645608 -32.910290, 131.680380 -32.897509, 131.715142 -32.884718, 131.749894 -32.871918, 131.784636 -32.859108, 131.819368 -32.846289, 131.854090 -32.833460, 131.888801 -32.820622, 131.923503 -32.807774, 131.958195 -32.794916, 131.992877 -32.782049, 132.027548 -32.769172, 132.062210 -32.756286, 132.096862 -32.743390, 132.131503 -32.730485, 132.166135 -32.717570, 132.200756 -32.704645, 132.235368 -32.691712, 132.269969 -32.678768, 132.304560 -32.665815, 132.339142 -32.652853, 132.373713 -32.639881, 132.408275 -32.626900, 132.442826 -32.613909, 132.477367 -32.600909, 132.511898 -32.587899, 132.546420 -32.574880, 132.580931 -32.561851, 132.615432 -32.548813, 132.649923 -32.535766, 132.684404 -32.522709, 132.718875 -32.509643, 132.753336 -32.496567, 132.787787 -32.483482, 132.822228 -32.470388, 132.856659 -32.457284, 132.891080 -32.444171, 132.925491 -32.431048, 132.959892 -32.417916, 132.994283 -32.404775, 133.028664 -32.391624, 133.063035 -32.378465, 133.097396 -32.365295, 133.131747 -32.352117, 133.166088 -32.338929, 133.200419 -32.325732, 133.234739 -32.312526, 133.269050 -32.299310, 133.303351 -32.286085, 133.337642 -32.272851, 133.371923 -32.259607, 133.406194 -32.246354, 133.440454 -32.233092, 133.474705 -32.219821, 133.508946 -32.206541, 133.543177 -32.193251, 133.577398 -32.179952, 133.611608 -32.166644, 133.645809 -32.153327, 133.680000 -32.140000, 133.701483 -32.166349, 133.722977 -32.192695, 133.744485 -32.219037, 133.766005 -32.245375, 133.787537 -32.271709, 133.809082 -32.298040, 133.830639 -32.324368, 133.852209 -32.350691, 133.873792 -32.377011, 133.895387 -32.403327, 133.916994 -32.429640, 133.938614 -32.455949, 133.960247 -32.482254, 133.981893 -32.508555, 134.003551 -32.534853, 134.025222 -32.561147, 134.046905 -32.587438, 134.068602 -32.613724, 134.090311 -32.640007, 134.112033 -32.666286, 134.133767 -32.692562, 134.155515 -32.718833, 134.177275 -32.745101, 134.199048 -32.771365, 134.220834 -32.797626, 134.242632 -32.823882, 134.264444 -32.850135, 134.286269 -32.876384, 134.308106 -32.902629, 134.329956 -32.928871, 134.351820 -32.955108, 134.373696 -32.981342, 134.395586 -33.007572, 134.417488 -33.033798, 134.439403 -33.060021, 134.461332 -33.086239, 134.483273 -33.112454, 134.505228 -33.138665, 134.527196 -33.164872, 134.549177 -33.191075, 134.571171 -33.217274, 134.593178 -33.243469, 134.615199 -33.269661, 134.637232 -33.295848, 134.659279 -33.322032, 134.681339 -33.348212, 134.703413 -33.374388, 134.725499 -33.400560, 134.747599 -33.426728, 134.769713 -33.452892, 134.791839 -33.479052, 134.813979 -33.505209, 134.836133 -33.531361, 134.858300 -33.557510, 134.880480 -33.583654, 134.902674 -33.609795, 134.924881 -33.635931, 134.947102 -33.662064, 134.969336 -33.688192, 134.991583 -33.714317, 135.013845 -33.740437, 135.036119 -33.766554, 135.058408 -33.792667, 135.080710 -33.818775, 135.103025 -33.844880, 135.125354 -33.870981, 135.147697 -33.897077, 135.170054 -33.923170, 135.192424 -33.949258, 135.214808 -33.975342, 135.237206 -34.001423, 135.259617 -34.027499, 135.282042 -34.053571, 135.304482 -34.079640, 135.326934 -34.105704, 135.349401 -34.131764, 135.371882 -34.157819, 135.394376 -34.183871, 135.416884 -34.209919, 135.439407 -34.235963, 135.461943 -34.262002, 135.484493 -34.288037, 135.507057 -34.314068, 135.529635 -34.340096, 135.552227 -34.366118, 135.574833 -34.392137, 135.597454 -34.418152, 135.620088 -34.444162, 135.642736 -34.470168, 135.665399 -34.496171, 135.688075 -34.522168, 135.710766 -34.548162, 135.733471 -34.574152, 135.756190 -34.600137, 135.778924 -34.626118, 135.801671 -34.652095, 135.824433 -34.678067, 135.847210 -34.704036, 135.870000 -34.730000, 135.904473 -34.744062, 135.938958 -34.758113, 135.973454 -34.772156, 136.007962 -34.786188, 136.042482 -34.800211, 136.077014 -34.814223, 136.111558 -34.828227, 136.146113 -34.842220, 136.180680 -34.856204, 136.215258 -34.870177, 136.249849 -34.884141, 136.284451 -34.898096, 136.319065 -34.912040, 136.353691 -34.925975, 136.388328 -34.939899, 136.422977 -34.953814, 136.457638 -34.967719, 136.492311 -34.981615, 136.526996 -34.995500, 136.561692 -35.009375, 136.596400 -35.023241, 136.631120 -35.037097, 136.665851 -35.050943, 136.700595 -35.064779, 136.735350 -35.078605, 136.770117 -35.092421, 136.804895 -35.106227, 136.839686 -35.120023, 136.874488 -35.133810, 136.909302 -35.147586, 136.944128 -35.161352, 136.978966 -35.175109, 137.013815 -35.188855, 137.048676 -35.202592, 137.083549 -35.216318, 137.118434 -35.230035, 137.153330 -35.243741, 137.188239 -35.257437, 137.223159 -35.271124, 137.258091 -35.284800, 137.293035 -35.298467, 137.327990 -35.312123, 137.362958 -35.325769, 137.397937 -35.339405, 137.432928 -35.353031, 137.467930 -35.366647, 137.502945 -35.380253, 137.537971 -35.393849, 137.573010 -35.407435, 137.608060 -35.421010, 137.643121 -35.434575, 137.678195 -35.448131, 137.713280 -35.461676, 137.748378 -35.475211, 137.783487 -35.488736, 137.818608 -35.502250, 137.853740 -35.515755, 137.888885 -35.529249, 137.924041 -35.542733, 137.959209 -35.556207, 137.994389 -35.569670, 138.029581 -35.583124, 138.064785 -35.596567, 138.100000 -35.610000, 138.124727 -35.634812, 138.149470 -35.659619, 138.174228 -35.684422, 138.199001 -35.709219, 138.223790 -35.734011, 138.248594 -35.758798, 138.273413 -35.783579, 138.298249 -35.808356, 138.323099 -35.833128, 138.347965 -35.857894, 138.372847 -35.882656, 138.397744 -35.907412, 138.422657 -35.932163, 138.447585 -35.956909, 138.472529 -35.981650, 138.497489 -36.006385, 138.522464 -36.031116, 138.547455 -36.055841, 138.572462 -36.080561, 138.597485 -36.105276, 138.622523 -36.129985, 138.647577 -36.154690, 138.672647 -36.179389, 138.697732 -36.204083, 138.722834 -36.228772, 138.747951 -36.253455, 138.773084 -36.278134, 138.798233 -36.302807, 138.823398 -36.327474, 138.848579 -36.352137, 138.873776 -36.376794, 138.898989 -36.401446, 138.924217 -36.426092, 138.949462 -36.450733, 138.974723 -36.475369, 139.000000 -36.500000, 139.014520 -36.529441, 139.029051 -36.558881, 139.043593 -36.588319, 139.058146 -36.617755, 139.072710 -36.647189, 139.087286 -36.676622, 139.101872 -36.706053, 139.116470 -36.735482, 139.131079 -36.764909, 139.145699 -36.794334, 139.160331 -36.823758, 139.174973 -36.853180, 139.189627 -36.882600, 139.204292 -36.912018, 139.218969 -36.941435, 139.233657 -36.970849, 139.248356 -37.000262, 139.263067 -37.029673, 139.277789 -37.059082, 139.292522 -37.088490, 139.307267 -37.117895, 139.322023 -37.147299, 139.336791 -37.176701, 139.351570 -37.206101, 139.366361 -37.235499, 139.381163 -37.264896, 139.395977 -37.294290, 139.410803 -37.323683, 139.425640 -37.353074, 139.440489 -37.382463, 139.455349 -37.411850, 139.470221 -37.441235, 139.485105 -37.470618, 139.500000 -37.500000, 139.524739 -37.525081, 139.549494 -37.550157, 139.574266 -37.575228, 139.599054 -37.600294, 139.623859 -37.625355, 139.648681 -37.650410, 139.673520 -37.675460, 139.698375 -37.700505, 139.723248 -37.725545, 139.748137 -37.750580, 139.773043 -37.775609, 139.797966 -37.800633, 139.822905 -37.825652, 139.847862 -37.850666, 139.872835 -37.875674, 139.897826 -37.900677, 139.922834 -37.925674, 139.947858 -37.950667, 139.972900 -37.975654, 139.997958 -38.000636, 140.023034 -38.025612, 140.048127 -38.050583, 140.073236 -38.075549, 140.098364 -38.100510, 140.123508 -38.125465, 140.148669 -38.150415, 140.173848 -38.175359, 140.199044 -38.200298, 140.224257 -38.225232, 140.249487 -38.250160, 140.274735 -38.275083, 140.300000 -38.300000, 140.338253 -38.310494, 140.376516 -38.320976, 140.414791 -38.331446, 140.453077 -38.341903, 140.491374 -38.352348, 140.529682 -38.362780, 140.568001 -38.373200, 140.606331 -38.383607, 140.644672 -38.394002, 140.683024 -38.404384, 140.721387 -38.414754, 140.759761 -38.425111, 140.798147 -38.435456, 140.836543 -38.445788, 140.874950 -38.456108, 140.913368 -38.466415, 140.951797 -38.476710, 140.990237 -38.486992, 141.028688 -38.497261, 141.067150 -38.507518, 141.105623 -38.517763, 141.144106 -38.527995, 141.182601 -38.538214, 141.221107 -38.548420, 141.259624 -38.558614, 141.298151 -38.568795, 141.336690 -38.578964, 141.375239 -38.589120, 141.413799 -38.599264, 141.452370 -38.609394, 141.490952 -38.619512, 141.529545 -38.629618, 141.568149 -38.639710, 141.606764 -38.649791, 141.645389 -38.659858, 141.684026 -38.669912, 141.722673 -38.679954, 141.761331 -38.689984, 141.800000 -38.700000, 141.840623 -38.704099, 141.881251 -38.708183, 141.921883 -38.712254, 141.962520 -38.716310, 142.003162 -38.720353, 142.043808 -38.724381, 142.084459 -38.728395, 142.125114 -38.732395, 142.165774 -38.736381, 142.206438 -38.740353, 142.247107 -38.744311, 142.287780 -38.748255, 142.328458 -38.752185, 142.369140 -38.756101, 142.409827 -38.760002, 142.450519 -38.763890, 142.491214 -38.767763, 142.531914 -38.771622, 142.572619 -38.775467, 142.613328 -38.779298, 142.654041 -38.783115, 142.694758 -38.786918, 142.735480 -38.790706, 142.776206 -38.794481, 142.816937 -38.798241, 142.857672 -38.801987, 142.898411 -38.805719, 142.939154 -38.809437, 142.979902 -38.813141, 143.020654 -38.816830, 143.061410 -38.820506, 143.102170 -38.824167, 143.142934 -38.827814, 143.183703 -38.831447, 143.224476 -38.835066, 143.265253 -38.838670, 143.306034 -38.842261, 143.346819 -38.845837, 143.387608 -38.849399, 143.428401 -38.852947, 143.469199 -38.856481, 143.510000 -38.860000, 143.544094 -38.842809, 143.578171 -38.825607, 143.612232 -38.808396, 143.646277 -38.791175, 143.680305 -38.773944, 143.714316 -38.756703, 143.748311 -38.739453, 143.782290 -38.722192, 143.816252 -38.704922, 143.850198 -38.687642, 143.884128 -38.670352, 143.918041 -38.653052, 143.951937 -38.635742, 143.985818 -38.618423, 144.019682 -38.601094, 144.053529 -38.583755, 144.087360 -38.566406, 144.121175 -38.549048, 144.154974 -38.531680, 144.188756 -38.514302, 144.222522 -38.496915, 144.256272 -38.479518, 144.290005 -38.462111, 144.323722 -38.444694, 144.357423 -38.427268, 144.391108 -38.409832, 144.424776 -38.392387, 144.458428 -38.374932, 144.492064 -38.357467, 144.525684 -38.339993, 144.559287 -38.322509, 144.592874 -38.305016, 144.626445 -38.287513, 144.660000 -38.270000)
