LINESTRING (86.853000 28.003000, 86.853786 28.002429, 86.854572 28.001857, 86.855357 28.001286, 86.856143 28.000714, 86.856929 28.000143, 86.857714 27.999572, 86.858500 27.999000, 86.859286 27.998429, 86.860072 27.997857, 86.860857 27.997286, 86.861643 27.996714, 86.862429 27.996143, 86.863214 27.995571, 86.864000 27.995000, 86.864903 27.994613, 86.865807 27.994226, 86.866710 27.993839, 86.867613 27.993452, 86.868517 27.993065, 86.869420 27.992678, 86.870323 27.992291, 86.871226 27.991904, 86.872130 27.991517, 86.873033 27.991130, 86.873936 27.990743, 86.874839 27.990356, 86.875743 27.989968, 86.876646 27.989581, 86.877549 27.989194, 86.878452 27.988807, 86.879356 27.988420, 86.880259 27.988033, 86.881162 27.987646, 86.882065 27.987259, 86.882968 27.986872, 86.883872 27.986484, 86.884775 27.986097, 86.885678 27.985710, 86.886581 27.985323, 86.887484 27.984936, 86.888387 27.984549, 86.889291 27.984162, 86.890194 27.983774, 86.891097 27.983387, 86.892000 27.983000, 86.893000 27.982846, 86.894000 27.982692, 86.895000 27.982539, 86.896000 27.982385, 86.897000 27.982231, 86.898000 27.982077, 86.899000 27.981924, 86.900000 27.981770, 86.901000 27.981616, 86.902000 27.981462, 86.903000 27.981308, 86.904000 27.981154, 86.905000 27.981001, 86.906000 27.980847, 86.907000 27.980693, 86.908000 27.980539, 86.909000 27.980385, 86.910000 27.980231, 86.911000 27.980077, 86.912000 27.979924, 86.913000 27.979770, 86.914000 27.979616, 86.915000 27.979462, 86.916000 27.979308, 86.917000 27.979154, 86.918000 27.979000, 86.918846 27.978615, 86.919692 27.978231, 86.920539 27.977846, 86.921385 27.977462, 86.922231 27.977077, 86.923077 27.976692, 86.923923 27.976308, 86.924769 27.975923, 86.925615 27.975539, 86.926462 27.975154, 86.927308 27.974769, 86.928154 27.974385, 86.929000 27.974000, 86.928765 27.974829, 86.928529 27.975659, 86.928294 27.976488, 86.928059 27.977318, 86.927824 27.978147, 86.927588 27.978976, 86.927353 27.979806, 86.927118 27.980635, 86.926882 27.981465, 86.926647 27.982294, 86.926412 27.983124, 86.926177 27.983953, 86.925941 27.984782, 86.925706 27.985612, 86.925471 27.986441, 86.925235 27.987271, 86.925000 27.988100)
