MULTILINESTRING ((-40.500000 64.300000, -40.503029 64.300234, -40.506057 64.300469, -40.509086 64.300703, -40.512115 64.300937, -40.515144 64.301172, -40.518173 64.301406, -40.521202 64.301640, -40.524231 64.301874, -40.527260 64.302108, -40.530289 64.302342, -40.533318 64.302575, -40.536347 64.302809, -40.539376 64.303043, -40.542406 64.303276, -40.545435 64.303510, -40.548464 64.303743, -40.551494 64.303977, -40.554523 64.304210, -40.557553 64.304444, -40.560582 64.304677, -40.563612 64.304910, -40.566642 64.305143, -40.569672 64.305376, -40.572701 64.305609, -40.575731 64.305842, -40.578761 64.306075, -40.581791 64.306308, -40.584821 64.306541, -40.587851 64.306773, -40.590881 64.307006, -40.593912 64.307238, -40.596942 64.307471, -40.599972 64.307703, -40.603002 64.307936, -40.606033 64.308168, -40.609063 64.308400, -40.612094 64.308632, -40.615124 64.308865, -40.618155 64.309097, -40.621185 64.309329, -40.624216 64.309561, -40.627247 64.309792, -40.630278 64.310024, -40.633308 64.310256, -40.636339 64.310488, -40.639370 64.310719, -40.642401 64.310951, -40.645432 64.311182, -40.648463 64.311414, -40.651495 64.311645, -40.654526 64.311876, -40.657557 64.312108, -40.660588 64.312339, -40.663620 64.312570, -40.666651 64.312801, -40.669682 64.313032, -40.672714 64.313263, -40.675746 64.313494, -40.678777 64.313725, -40.681809 64.313955, -40.684840 64.314186, -40.687872 64.314417, -40.690904 64.314647, -40.693936 64.314878, -40.696968 64.315108, -40.700000 64.315338, -40.703032 64.315569, -40.706064 64.315799, -40.709096 64.316029, -40.712128 64.316259, -40.715160 64.316489, -40.718193 64.316719, -40.721225 64.316949, -40.724257 64.317179, -40.727290 64.317409, -40.730322 64.317639, -40.733355 64.317868, -40.736387 64.318098, -40.739420 64.318327, -40.742452 64.318557, -40.745485 64.318786, -40.748518 64.319016, -40.751551 64.319245, -40.754584 64.319474, -40.757616 64.319703, -40.760649 64.319933, -40.763682 64.320162, -40.766716 64.320391, -40.769749 64.320620, -40.772782 64.320848, -40.775815 64.321077, -40.778848 64.321306, -40.781882 64.321535, -40.784915 64.321763, -40.787948 64.321992, -40.790982 64.322220, -40.794015 64.322449, -40.797049 64.322677, -40.800083 64.322905, -40.803116 64.323134, -40.806150 64.323362, -40.809184 64.323590, -40.812218 64.323818, -40.815251 64.324046, -40.818285 64.324274, -40.821319 64.324502, -40.824353 64.324729, -40.827387 64.324957, -40.830422 64.325185, -40.833456 64.325412, -40.836490 64.325640, -40.839524 64.325867, -40.842559 64.326095, -40.845593 64.326322, -40.848627 64.326550, -40.851662 64.326777, -40.854696 64.327004, -40.857731 64.327231, -40.860766 64.327458, -40.863800 64.327685, -40.866835 64.327912, -40.869870 64.328139, -40.872905 64.328366, -40.875939 64.328592, -40.878974 64.328819, -40.882009 64.329046, -40.885044 64.329272, -40.888079 64.329499, -40.891115 64.329725, -40.894150 64.329951, -40.897185 64.330178, -40.900220 64.330404, -40.903256 64.330630, -40.906291 64.330856, -40.909326 64.331082, -40.912362 64.331308, -40.915397 64.331534, -40.918433 64.331760, -40.921469 64.331986, -40.924504 64.332211, -40.927540 64.332437, -40.930576 64.332663, -40.933612 64.332888, -40.936647 64.333114, -40.939683 64.333339, -40.942719 64.333564, -40.945755 64.333790, -40.948791 64.334015, -40.951828 64.334240, -40.954864 64.334465, -40.957900 64.334690, -40.960936 64.334915, -40.963973 64.335140, -40.967009 64.335365, -40.970045 64.335590, -40.973082 64.335814, -40.976118 64.336039, -40.979155 64.336264, -40.982191 64.336488, -40.985228 64.336713, -40.988265 64.336937, -40.991302 64.337161, -40.994338 64.337386, -40.997375 64.337610, -41.000412 64.337834, -41.003449 64.338058, -41.006486 64.338282, -41.009523 64.338506, -41.012560 64.338730, -41.015597 64.338954, -41.018635 64.339178, -41.021672 64.339401, -41.024709 64.339625, -41.027747 64.339849, -41.030784 64.340072, -41.033821 64.340296, -41.036859 64.340519, -41.039897 64.340742, -41.042934 64.340966, -41.045972 64.341189, -41.049010 64.341412, -41.052047 64.341635, -41.055085 64.341858, -41.058123 64.342081, -41.061161 64.342304, -41.064199 64.342527, -41.067237 64.342750, -41.070275 64.342972, -41.073313 64.343195, -41.076351 64.343417, -41.079389 64.343640, -41.082427 64.343862, -41.085466 64.344085, -41.088504 64.344307, -41.091543 64.344529, -41.094581 64.344752, -41.097619 64.344974, -41.100658 64.345196, -41.103697 64.345418, -41.106735 64.345640, -41.109774 64.345862, -41.112813 64.346084, -41.115851 64.346305, -41.118890 64.346527, -41.121929 64.346749, -41.124968 64.346970, -41.128007 64.347192, -41.131046 64.347413, -41.134085 64.347635, -41.137124 64.347856, -41.140163 64.348077, -41.143203 64.348298, -41.146242 64.348519, -41.149281 64.348741, -41.152321 64.348962, -41.155360 64.349183, -41.158400 64.349403, -41.161439 64.349624, -41.164479 64.349845, -41.167518 64.350066, -41.170558 64.350286, -41.173598 64.350507, -41.176637 64.350727, -41.179677 64.350948, -41.182717 64.351168, -41.185757 64.351389, -41.188797 64.351609, -41.191837 64.351829, -41.194877 64.352049, -41.197917 64.352269, -41.200957 64.352489, -41.203997 64.352709, -41.207038 64.352929, -41.210078 64.353149, -41.213118 64.353369, -41.216159 64.353588, -41.219199 64.353808, -41.222240 64.354027, -41.225280 64.354247, -41.228321 64.354466, -41.231361 64.354686, -41.234402 64.354905, -41.237443 64.355124, -41.240484 64.355343, -41.243524 64.355563, -41.246565 64.355782, -41.249606 64.356001, -41.252647 64.356220, -41.255688 64.356438, -41.258729 64.356657, -41.261770 64.356876, -41.264812 64.357095, -41.267853 64.357313, -41.270894 64.357532, -41.273935 64.357750, -41.276977 64.357969, -41.280018 64.358187, -41.283060 64.358405, -41.286101 64.358624, -41.289143 64.358842, -41.292184 64.359060, -41.295226 64.359278, -41.298268 64.359496, -41.301309 64.359714, -41.304351 64.359932, -41.307393 64.360150, -41.310435 64.360367, -41.313477 64.360585, -41.316519 64.360803, -41.319561 64.361020, -41.322603 64.361238, -41.325645 64.361455, -41.328687 64.361672, -41.331729 64.361890, -41.334772 64.362107, -41.337814 64.362324, -41.340856 64.362541, -41.343899 64.362758, -41.346941 64.362975, -41.349984 64.363192, -41.353026 64.363409, -41.356069 64.363626, -41.359112 64.363842, -41.362154 64.364059, -41.365197 64.364276, -41.368240 64.364492, -41.371283 64.364709, -41.374326 64.364925, -41.377369 64.365142, -41.380412 64.365358, -41.383455 64.365574, -41.386498 64.365790, -41.389541 64.366006, -41.392584 64.366222, -41.395627 64.366438, -41.398671 64.366654, -41.401714 64.366870, -41.404757 64.367086, -41.407801 64.367302, -41.410844 64.367517, -41.413888 64.367733, -41.416931 64.367948, -41.419975 64.368164, -41.423019 64.368379, -41.426062 64.368595, -41.429106 64.368810, -41.432150 64.369025, -41.435194 64.369240, -41.438238 64.369455, -41.441282 64.369670, -41.444326 64.369885, -41.447370 64.370100, -41.450414 64.370315, -41.453458 64.370530, -41.456502 64.370744, -41.459546 64.370959, -41.462591 64.371174, -41.465635 64.371388, -41.468679 64.371603, -41.471724 64.371817, -41.474768 64.372031, -41.477813 64.372246, -41.480857 64.372460, -41.483902 64.372674, -41.486947 64.372888, -41.489991 64.373102, -41.493036 64.373316, -41.496081 64.373530, -41.499126 64.373744, -41.502171 64.373958, -41.505216 64.374171, -41.508261 64.374385, -41.511306 64.374598, -41.514351 64.374812, -41.517396 64.375025, -41.520441 64.375239, -41.523486 64.375452, -41.526532 64.375665, -41.529577 64.375879, -41.532622 64.376092, -41.535668 64.376305, -41.538713 64.376518, -41.541759 64.376731, -41.544804 64.376944, -41.547850 64.377156, -41.550895 64.377369, -41.553941 64.377582, -41.556987 64.377794, -41.560033 64.378007, -41.563079 64.378220, -41.566124 64.378432, -41.569170 64.378644, -41.572216 64.378857, -41.575262 64.379069, -41.578308 64.379281, -41.581355 64.379493, -41.584401 64.379705, -41.587447 64.379917, -41.590493 64.380129, -41.593540 64.380341, -41.596586 64.380553, -41.599632 64.380765, -41.602679 64.380976, -41.605725 64.381188, -41.608772 64.381399, -41.611818 64.381611, -41.614865 64.381822, -41.617912 64.382034, -41.620959 64.382245, -41.624005 64.382456, -41.627052 64.382667, -41.630099 64.382879, -41.633146 64.383090, -41.636193 64.383301, -41.639240 64.383512, -41.642287 64.383722, -41.645334 64.383933, -41.648381 64.384144, -41.651429 64.384355, -41.654476 64.384565, -41.657523 64.384776, -41.660570 64.384986, -41.663618 64.385197, -41.666665 64.385407, -41.669713 64.385617, -41.672760 64.385827, -41.675808 64.386038, -41.678855 64.386248, -41.681903 64.386458, -41.684951 64.386668, -41.687999 64.386878, -41.691046 64.387088, -41.694094 64.387297, -41.697142 64.387507, -41.700190 64.387717, -41.703238 64.387926, -41.706286 64.388136, -41.709334 64.388345, -41.712382 64.388555, -41.715431 64.388764, -41.718479 64.388973, -41.721527 64.389183, -41.724575 64.389392, -41.727624 64.389601, -41.730672 64.389810, -41.733721 64.390019, -41.736769 64.390228, -41.739818 64.390436, -41.742866 64.390645, -41.745915 64.390854, -41.748964 64.391063, -41.752012 64.391271, -41.755061 64.391480, -41.758110 64.391688, -41.761159 64.391897, -41.764208 64.392105, -41.767257 64.392313, -41.770306 64.392521, -41.773355 64.392729, -41.776404 64.392938, -41.779453 64.393146, -41.782502 64.393354, -41.785552 64.393561, -41.788601 64.393769, -41.791650 64.393977, -41.794700 64.394185, -41.797749 64.394392, -41.800799 64.394600, -41.803848 64.394807, -41.806898 64.395015, -41.809947 64.395222, -41.812997 64.395430, -41.816047 64.395637, -41.819097 64.395844, -41.822146 64.396051, -41.825196 64.396258, -41.828246 64.396465, -41.831296 64.396672, -41.834346 64.396879, -41.837396 64.397086, -41.840446 64.397293, -41.843496 64.397499, -41.846546 64.397706, -41.849597 64.397912, -41.852647 64.398119, -41.855697 64.398325, -41.858748 64.398532, -41.861798 64.398738, -41.864848 64.398944, -41.867899 64.399150, -41.870949 64.399357, -41.874000 64.399563, -41.877051 64.399769, -41.880101 64.399975, -41.883152 64.400180, -41.886203 64.400386, -41.889254 64.400592, -41.892304 64.400798, -41.895355 64.401003, -41.898406 64.401209, -41.901457 64.401414, -41.904508 64.401620, -41.907559 64.401825, -41.910611 64.402030, -41.913662 64.402236, -41.916713 64.402441, -41.919764 64.402646, -41.922816 64.402851, -41.925867 64.403056, -41.928918 64.403261, -41.931970 64.403466, -41.935021 64.403670, -41.938073 64.403875, -41.941124 64.404080, -41.944176 64.404284, -41.947228 64.404489, -41.950279 64.404693, -41.953331 64.404898, -41.956383 64.405102, -41.959435 64.405306, -41.962487 64.405511, -41.965539 64.405715, -41.968591 64.405919, -41.971643 64.406123, -41.974695 64.406327, -41.977747 64.406531, -41.980799 64.406735, -41.983851 64.406938, -41.986904 64.407142, -41.989956 64.407346, -41.993008 64.407549, -41.996061 64.407753, -41.999113 64.407956, -42.002166 64.408160, -42.005218 64.408363, -42.008271 64.408566, -42.011323 64.408769, -42.014376 64.408973, -42.017429 64.409176, -42.020482 64.409379, -42.023534 64.409582, -42.026587 64.409785, -42.029640 64.409987, -42.032693 64.410190, -42.035746 64.410393, -42.038799 64.410595, -42.041852 64.410798, -42.044905 64.411001, -42.047959 64.411203, -42.051012 64.411405, -42.054065 64.411608, -42.057118 64.411810, -42.060172 64.412012, -42.063225 64.412214, -42.066279 64.412416, -42.069332 64.412618, -42.072386 64.412820, -42.075439 64.413022, -42.078493 64.413224, -42.081546 64.413426, -42.084600 64.413627, -42.087654 64.413829, -42.090708 64.414031, -42.093762 64.414232, -42.096815 64.414433, -42.099869 64.414635, -42.102923 64.414836, -42.105977 64.415037, -42.109032 64.415239, -42.112086 64.415440, -42.115140 64.415641, -42.118194 64.415842, -42.121248 64.416043, -42.124303 64.416243, -42.127357 64.416444, -42.130411 64.416645, -42.133466 64.416846, -42.136520 64.417046, -42.139575 64.417247, -42.142629 64.417447, -42.145684 64.417648, -42.148739 64.417848, -42.151793 64.418048, -42.154848 64.418249, -42.157903 64.418449, -42.160958 64.418649, -42.164012 64.418849, -42.167067 64.419049, -42.170122 64.419249, -42.173177 64.419449, -42.176232 64.419648, -42.179287 64.419848, -42.182343 64.420048, -42.185398 64.420247, -42.188453 64.420447, -42.191508 64.420646, -42.194564 64.420846, -42.197619 64.421045, -42.200674 64.421244, -42.203730 64.421443, -42.206785 64.421643, -42.209841 64.421842, -42.212897 64.422041, -42.215952 64.422240, -42.219008 64.422439, -42.222064 64.422637, -42.225119 64.422836, -42.228175 64.423035, -42.231231 64.423234, -42.234287 64.423432, -42.237343 64.423631, -42.240399 64.423829, -42.243455 64.424027, -42.246511 64.424226, -42.249567 64.424424, -42.252623 64.424622, -42.255679 64.424820, -42.258736 64.425018, -42.261792 64.425216, -42.264848 64.425414, -42.267905 64.425612, -42.270961 64.425810, -42.274018 64.426008, -42.277074 64.426205, -42.280131 64.426403, -42.283187 64.426601, -42.286244 64.426798, -42.289301 64.426996, -42.292357 64.427193, -42.295414 64.427390, -42.298471 64.427587, -42.301528 64.427785, -42.304585 64.427982, -42.307642 64.428179, -42.310699 64.428376, -42.313756 64.428573, -42.316813 64.428770, -42.319870 64.428966, -42.322927 64.429163, -42.325984 64.429360, -42.329042 64.429556, -42.332099 64.429753, -42.335156 64.429949, -42.338214 64.430146, -42.341271 64.430342, -42.344329 64.430538, -42.347386 64.430735, -42.350444 64.430931, -42.353501 64.431127, -42.356559 64.431323, -42.359617 64.431519, -42.362674 64.431715, -42.365732 64.431911, -42.368790 64.432106, -42.371848 64.432302, -42.374906 64.432498, -42.377964 64.432693, -42.381022 64.432889, -42.384080 64.433084, -42.387138 64.433280, -42.390196 64.433475, -42.393254 64.433670, -42.396312 64.433866, -42.399371 64.434061, -42.402429 64.434256, -42.405487 64.434451, -42.408546 64.434646, -42.411604 64.434841, -42.414663 64.435036, -42.417721 64.435230, -42.420780 64.435425, -42.423838 64.435620, -42.426897 64.435814, -42.429956 64.436009, -42.433015 64.436203, -42.436073 64.436398, -42.439132 64.436592, -42.442191 64.436786, -42.445250 64.436980, -42.448309 64.437174, -42.451368 64.437368, -42.454427 64.437562, -42.457486 64.437756, -42.460545 64.437950, -42.463604 64.438144, -42.466664 64.438338, -42.469723 64.438532, -42.472782 64.438725, -42.475842 64.438919, -42.478901 64.439112, -42.481960 64.439306, -42.485020 64.439499, -42.488079 64.439692, -42.491139 64.439886, -42.494199 64.440079, -42.497258 64.440272, -42.500318 64.440465, -42.503378 64.440658, -42.506437 64.440851, -42.509497 64.441044, -42.512557 64.441236, -42.515617 64.441429, -42.518677 64.441622, -42.521737 64.441814, -42.524797 64.442007, -42.527857 64.442199, -42.530917 64.442392, -42.533977 64.442584, -42.537038 64.442776, -42.540098 64.442969, -42.543158 64.443161, -42.546219 64.443353, -42.549279 64.443545, -42.552339 64.443737, -42.555400 64.443929, -42.558460 64.444121, -42.561521 64.444312, -42.564581 64.444504, -42.567642 64.444696, -42.570703 64.444887, -42.573764 64.445079, -42.576824 64.445270, -42.579885 64.445462, -42.582946 64.445653, -42.586007 64.445844, -42.589068 64.446036, -42.592129 64.446227, -42.595190 64.446418, -42.598251 64.446609, -42.601312 64.446800, -42.604373 64.446991, -42.607434 64.447181, -42.610496 64.447372, -42.613557 64.447563, -42.616618 64.447753, -42.619680 64.447944, -42.622741 64.448135, -42.625802 64.448325, -42.628864 64.448515, -42.631925 64.448706, -42.634987 64.448896, -42.638049 64.449086, -42.641110 64.449276, -42.644172 64.449466, -42.647234 64.449656, -42.650296 64.449846, -42.653357 64.450036, -42.656419 64.450226, -42.659481 64.450416, -42.662543 64.450605, -42.665605 64.450795, -42.668667 64.450984, -42.671729 64.451174, -42.674792 64.451363, -42.677854 64.451553, -42.680916 64.451742, -42.683978 64.451931, -42.687040 64.452120, -42.690103 64.452309, -42.693165 64.452499, -42.696228 64.452687, -42.699290 64.452876, -42.702353 64.453065, -42.705415 64.453254, -42.708478 64.453443, -42.711540 64.453631, -42.714603 64.453820, -42.717666 64.454009, -42.720729 64.454197, -42.723791 64.454385, -42.726854 64.454574, -42.729917 64.454762, -42.732980 64.454950, -42.736043 64.455138, -42.739106 64.455326, -42.742169 64.455514, -42.745232 64.455702, -42.748295 64.455890, -42.751359 64.456078, -42.754422 64.456266, -42.757485 64.456454, -42.760548 64.456641, -42.763612 64.456829, -42.766675 64.457016, -42.769739 64.457204, -42.772802 64.457391, -42.775866 64.457578, -42.778929 64.457766, -42.781993 64.457953, -42.785056 64.458140, -42.788120 64.458327, -42.791184 64.458514, -42.794248 64.458701, -42.797311 64.458888, -42.800375 64.459075, -42.803439 64.459261, -42.806503 64.459448, -42.809567 64.459635, -42.812631 64.459821, -42.815695 64.460008, -42.818759 64.460194, -42.821823 64.460381, -42.824888 64.460567, -42.827952 64.460753, -42.831016 64.460939, -42.834081 64.461125, -42.837145 64.461311, -42.840209 64.461497, -42.843274 64.461683, -42.846338 64.461869, -42.849403 64.462055, -42.852467 64.462241, -42.855532 64.462426, -42.858597 64.462612, -42.861661 64.462797, -42.864726 64.462983, -42.867791 64.463168, -42.870856 64.463354, -42.873920 64.463539, -42.876985 64.463724, -42.880050 64.463909, -42.883115 64.464094, -42.886180 64.464279, -42.889245 64.464464, -42.892310 64.464649, -42.895376 64.464834, -42.898441 64.465019, -42.901506 64.465204, -42.904571 64.465388, -42.907637 64.465573, -42.910702 64.465757, -42.913767 64.465942, -42.916833 64.466126, -42.919898 64.466310, -42.922964 64.466495, -42.926029 64.466679, -42.929095 64.466863, -42.932161 64.467047, -42.935226 64.467231, -42.938292 64.467415, -42.941358 64.467599, -42.944424 64.467783, -42.947489 64.467966, -42.950555 64.468150, -42.953621 64.468334, -42.956687 64.468517, -42.959753 64.468701, -42.962819 64.468884, -42.965885 64.469068, -42.968952 64.469251, -42.972018 64.469434, -42.975084 64.469617, -42.978150 64.469800, -42.981217 64.469983, -42.984283 64.470166, -42.987349 64.470349, -42.990416 64.470532, -42.993482 64.470715, -42.996549 64.470898, -42.999615 64.471080, -43.002682 64.471263, -43.005748 64.471445, -43.008815 64.471628, -43.011882 64.471810, -43.014949 64.471993, -43.018015 64.472175, -43.021082 64.472357, -43.024149 64.472539, -43.027216 64.472721, -43.030283 64.472903, -43.033350 64.473085, -43.036417 64.473267, -43.039484 64.473449, -43.042551 64.473631, -43.045618 64.473813, -43.048686 64.473994, -43.051753 64.474176, -43.054820 64.474357, -43.057887 64.474539, -43.060955 64.474720, -43.064022 64.474901, -43.067090 64.475083, -43.070157 64.475264, -43.073225 64.475445, -43.076292 64.475626, -43.079360 64.475807, -43.082427 64.475988, -43.085495 64.476169, -43.088563 64.476350, -43.091631 64.476530, -43.094698 64.476711, -43.097766 64.476892, -43.100834 64.477072, -43.103902 64.477253, -43.106970 64.477433, -43.110038 64.477614, -43.113106 64.477794, -43.116174 64.477974, -43.119242 64.478154, -43.122311 64.478334, -43.125379 64.478514, -43.128447 64.478694, -43.131515 64.478874, -43.134584 64.479054, -43.137652 64.479234, -43.140720 64.479414, -43.143789 64.479593, -43.146857 64.479773, -43.149926 64.479953, -43.152995 64.480132, -43.156063 64.480311, -43.159132 64.480491, -43.162201 64.480670, -43.165269 64.480849, -43.168338 64.481028, -43.171407 64.481207, -43.174476 64.481386, -43.177545 64.481565, -43.180614 64.481744, -43.183683 64.481923, -43.186752 64.482102, -43.189821 64.482281, -43.192890 64.482459, -43.195959 64.482638, -43.199028 64.482816, -43.202097 64.482995, -43.205167 64.483173, -43.208236 64.483351, -43.211305 64.483530, -43.214375 64.483708, -43.217444 64.483886, -43.220513 64.484064, -43.223583 64.484242, -43.226652 64.484420, -43.229722 64.484598, -43.232792 64.484776, -43.235861 64.484953, -43.238931 64.485131, -43.242001 64.485309, -43.245071 64.485486, -43.248140 64.485664, -43.251210 64.485841, -43.254280 64.486019, -43.257350 64.486196, -43.260420 64.486373, -43.263490 64.486550, -43.266560 64.486727, -43.269630 64.486904, -43.272700 64.487081, -43.275771 64.487258, -43.278841 64.487435, -43.281911 64.487612, -43.284981 64.487789, -43.288052 64.487965, -43.291122 64.488142, -43.294192 64.488318, -43.297263 64.488495, -43.300333 64.488671, -43.303404 64.488848, -43.306475 64.489024, -43.309545 64.489200, -43.312616 64.489376, -43.315686 64.489552, -43.318757 64.489728, -43.321828 64.489904, -43.324899 64.490080, -43.327970 64.490256, -43.331041 64.490432, -43.334111 64.490607, -43.337182 64.490783, -43.340253 64.490959, -43.343325 64.491134, -43.346396 64.491310, -43.349467 64.491485, -43.352538 64.491660, -43.355609 64.491836, -43.358680 64.492011, -43.361752 64.492186, -43.364823 64.492361, -43.367894 64.492536, -43.370966 64.492711, -43.374037 64.492886, -43.377109 64.493060, -43.380180 64.493235, -43.383252 64.493410, -43.386323 64.493585, -43.389395 64.493759, -43.392467 64.493934, -43.395538 64.494108, -43.398610 64.494282, -43.401682 64.494457, -43.404754 64.494631, -43.407826 64.494805, -43.410898 64.494979, -43.413969 64.495153, -43.417041 64.495327, -43.420114 64.495501, -43.423186 64.495675, -43.426258 64.495849, -43.429330 64.496022, -43.432402 64.496196, -43.435474 64.496370, -43.438547 64.496543, -43.441619 64.496717, -43.444691 64.496890, -43.447764 64.497063, -43.450836 64.497236, -43.453908 64.497410, -43.456981 64.497583, -43.460053 64.497756, -43.463126 64.497929, -43.466199 64.498102, -43.469271 64.498275, -43.472344 64.498448, -43.475417 64.498620, -43.478490 64.498793, -43.481562 64.498966, -43.484635 64.499138, -43.487708 64.499311, -43.490781 64.499483, -43.493854 64.499655, -43.496927 64.499828, -43.500000 64.500000, -43.503050 64.500236, -43.506100 64.500472, -43.509151 64.500708, -43.512201 64.500943, -43.515251 64.501179, -43.518302 64.501415, -43.521352 64.501650, -43.524403 64.501886, -43.527453 64.502121, -43.530504 64.502357, -43.533555 64.502592, -43.536605 64.502827, -43.539656 64.503062, -43.542707 64.503297, -43.545758 64.503532, -43.548809 64.503767, -43.551860 64.504002, -43.554911 64.504237, -43.557962 64.504472, -43.561013 64.504707, -43.564064 64.504941, -43.567115 64.505176, -43.570167 64.505411, -43.573218 64.505645, -43.576270 64.505880, -43.579321 64.506114, -43.582373 64.506348, -43.585424 64.506582, -43.588476 64.506817, -43.591527 64.507051, -43.594579 64.507285, -43.597631 64.507519, -43.600683 64.507753, -43.603735 64.507987, -43.606787 64.508220, -43.609839 64.508454, -43.612891 64.508688, -43.615943 64.508921, -43.618995 64.509155, -43.622047 64.509388, -43.625099 64.509622, -43.628152 64.509855, -43.631204 64.510088, -43.634256 64.510322, -43.637309 64.510555, -43.640361 64.510788, -43.643414 64.511021, -43.646466 64.511254, -43.649519 64.511487, -43.652572 64.511720, -43.655625 64.511952, -43.658677 64.512185, -43.661730 64.512418, -43.664783 64.512650, -43.667836 64.512883, -43.670889 64.513115, -43.673942 64.513348, -43.676995 64.513580, -43.680049 64.513812, -43.683102 64.514045, -43.686155 64.514277, -43.689209 64.514509, -43.692262 64.514741, -43.695315 64.514973, -43.698369 64.515205, -43.701422 64.515437, -43.704476 64.515668, -43.707530 64.515900, -43.710583 64.516132, -43.713637 64.516363, -43.716691 64.516595, -43.719745 64.516826, -43.722799 64.517058, -43.725853 64.517289, -43.728907 64.517520, -43.731961 64.517751, -43.735015 64.517983, -43.738069 64.518214, -43.741123 64.518445, -43.744178 64.518676, -43.747232 64.518906, -43.750286 64.519137, -43.753341 64.519368, -43.756395 64.519599, -43.759450 64.519829, -43.762504 64.520060, -43.765559 64.520290, -43.768614 64.520521, -43.771668 64.520751, -43.774723 64.520982, -43.777778 64.521212, -43.780833 64.521442, -43.783888 64.521672, -43.786943 64.521902, -43.789998 64.522132, -43.793053 64.522362, -43.796108 64.522592, -43.799163 64.522822, -43.802219 64.523052, -43.805274 64.523281, -43.808329 64.523511, -43.811385 64.523740, -43.814440 64.523970, -43.817496 64.524199, -43.820551 64.524429, -43.823607 64.524658, -43.826662 64.524887, -43.829718 64.525117, -43.832774 64.525346, -43.835830 64.525575, -43.838886 64.525804, -43.841941 64.526033, -43.844997 64.526261, -43.848053 64.526490, -43.851110 64.526719, -43.854166 64.526948, -43.857222 64.527176, -43.860278 64.527405, -43.863334 64.527633, -43.866391 64.527862, -43.869447 64.528090, -43.872503 64.528318, -43.875560 64.528547, -43.878616 64.528775, -43.881673 64.529003, -43.884730 64.529231, -43.887786 64.529459, -43.890843 64.529687, -43.893900 64.529915, -43.896957 64.530142, -43.900014 64.530370, -43.903071 64.530598, -43.906128 64.530825, -43.909185 64.531053, -43.912242 64.531280, -43.915299 64.531508, -43.918356 64.531735, -43.921413 64.531962, -43.924471 64.532190, -43.927528 64.532417, -43.930585 64.532644, -43.933643 64.532871, -43.936700 64.533098, -43.939758 64.533325, -43.942815 64.533552, -43.945873 64.533778, -43.948931 64.534005, -43.951989 64.534232, -43.955046 64.534458, -43.958104 64.534685, -43.961162 64.534911, -43.964220 64.535138, -43.967278 64.535364, -43.970336 64.535590, -43.973394 64.535816, -43.976452 64.536043, -43.979511 64.536269, -43.982569 64.536495, -43.985627 64.536721, -43.988686 64.536947, -43.991744 64.537172, -43.994803 64.537398, -43.997861 64.537624, -44.000920 64.537849, -44.003978 64.538075, -44.007037 64.538301, -44.010096 64.538526, -44.013154 64.538751, -44.016213 64.538977, -44.019272 64.539202, -44.022331 64.539427, -44.025390 64.539652, -44.028449 64.539877, -44.031508 64.540102, -44.034567 64.540327, -44.037626 64.540552, -44.040686 64.540777, -44.043745 64.541002, -44.046804 64.541226, -44.049864 64.541451, -44.052923 64.541675, -44.055982 64.541900, -44.059042 64.542124, -44.062102 64.542349, -44.065161 64.542573, -44.068221 64.542797, -44.071281 64.543021, -44.074340 64.543246, -44.077400 64.543470, -44.080460 64.543694, -44.083520 64.543918, -44.086580 64.544141, -44.089640 64.544365, -44.092700 64.544589, -44.095760 64.544813, -44.098820 64.545036, -44.101881 64.545260, -44.104941 64.545483, -44.108001 64.545707, -44.111062 64.545930, -44.114122 64.546153, -44.117183 64.546376, -44.120243 64.546600, -44.123304 64.546823, -44.126364 64.547046, -44.129425 64.547269, -44.132486 64.547492, -44.135546 64.547714, -44.138607 64.547937, -44.141668 64.548160, -44.144729 64.548383, -44.147790 64.548605, -44.150851 64.548828, -44.153912 64.549050, -44.156973 64.549273, -44.160035 64.549495, -44.163096 64.549717, -44.166157 64.549939, -44.169218 64.550162, -44.172280 64.550384, -44.175341 64.550606, -44.178403 64.550828, -44.181464 64.551049, -44.184526 64.551271, -44.187587 64.551493, -44.190649 64.551715, -44.193711 64.551936, -44.196773 64.552158, -44.199834 64.552379, -44.202896 64.552601, -44.205958 64.552822, -44.209020 64.553044, -44.212082 64.553265, -44.215144 64.553486, -44.218206 64.553707, -44.221269 64.553928, -44.224331 64.554149, -44.227393 64.554370, -44.230455 64.554591, -44.233518 64.554812, -44.236580 64.555033, -44.239643 64.555253, -44.242705 64.555474, -44.245768 64.555694, -44.248830 64.555915, -44.251893 64.556135, -44.254956 64.556356, -44.258019 64.556576, -44.261081 64.556796, -44.264144 64.557016, -44.267207 64.557237, -44.270270 64.557457, -44.273333 64.557677, -44.276396 64.557897, -44.279459 64.558116, -44.282523 64.558336, -44.285586 64.558556, -44.288649 64.558776, -44.291712 64.558995, -44.294776 64.559215, -44.297839 64.559434, -44.300903 64.559654, -44.303966 64.559873, -44.307030 64.560092, -44.310093 64.560311, -44.313157 64.560531, -44.316221 64.560750, -44.319284 64.560969, -44.322348 64.561188, -44.325412 64.561407, -44.328476 64.561625, -44.331540 64.561844, -44.334604 64.562063, -44.337668 64.562282, -44.340732 64.562500, -44.343796 64.562719, -44.346860 64.562937, -44.349925 64.563156, -44.352989 64.563374, -44.356053 64.563592, -44.359118 64.563810, -44.362182 64.564029, -44.365247 64.564247, -44.368311 64.564465, -44.371376 64.564683, -44.374441 64.564900, -44.377505 64.565118, -44.380570 64.565336, -44.383635 64.565554, -44.386700 64.565771, -44.389764 64.565989, -44.392829 64.566206, -44.395894 64.566424, -44.398959 64.566641, -44.402025 64.566859, -44.405090 64.567076, -44.408155 64.567293, -44.411220 64.567510, -44.414285 64.567727, -44.417351 64.567944, -44.420416 64.568161, -44.423481 64.568378, -44.426547 64.568595, -44.429612 64.568812, -44.432678 64.569028, -44.435744 64.569245, -44.438809 64.569461, -44.441875 64.569678, -44.444941 64.569894, -44.448007 64.570111, -44.451072 64.570327, -44.454138 64.570543, -44.457204 64.570759, -44.460270 64.570976, -44.463336 64.571192, -44.466403 64.571408, -44.469469 64.571623, -44.472535 64.571839, -44.475601 64.572055, -44.478667 64.572271, -44.481734 64.572486, -44.484800 64.572702, -44.487867 64.572918, -44.490933 64.573133, -44.494000 64.573348, -44.497066 64.573564, -44.500133 64.573779, -44.503200 64.573994, -44.506266 64.574209, -44.509333 64.574425, -44.512400 64.574640, -44.515467 64.574855, -44.518534 64.575069, -44.521601 64.575284, -44.524668 64.575499, -44.527735 64.575714, -44.530802 64.575928, -44.533869 64.576143, -44.536936 64.576357, -44.540004 64.576572, -44.543071 64.576786, -44.546138 64.577001, -44.549206 64.577215, -44.552273 64.577429, -44.555341 64.577643, -44.558408 64.577857, -44.561476 64.578071, -44.564544 64.578285, -44.567611 64.578499, -44.570679 64.578713, -44.573747 64.578927, -44.576815 64.579140, -44.579883 64.579354, -44.582951 64.579568, -44.586019 64.579781, -44.589087 64.579995, -44.592155 64.580208, -44.595223 64.580421, -44.598291 64.580634, -44.601359 64.580848, -44.604428 64.581061, -44.607496 64.581274, -44.610564 64.581487, -44.613633 64.581700, -44.616701 64.581913, -44.619770 64.582125, -44.622838 64.582338, -44.625907 64.582551, -44.628976 64.582763, -44.632044 64.582976, -44.635113 64.583188, -44.638182 64.583401, -44.641251 64.583613, -44.644320 64.583825, -44.647389 64.584038, -44.650458 64.584250, -44.653527 64.584462, -44.656596 64.584674, -44.659665 64.584886, -44.662734 64.585098, -44.665803 64.585310, -44.668873 64.585521, -44.671942 64.585733, -44.675011 64.585945, -44.678081 64.586156, -44.681150 64.586368, -44.684220 64.586579, -44.687289 64.586791, -44.690359 64.587002, -44.693429 64.587213, -44.696498 64.587425, -44.699568 64.587636, -44.702638 64.587847, -44.705708 64.588058, -44.708778 64.588269, -44.711848 64.588480, -44.714918 64.588690, -44.717988 64.588901, -44.721058 64.589112, -44.724128 64.589322, -44.727198 64.589533, -44.730268 64.589744, -44.733339 64.589954, -44.736409 64.590164, -44.739479 64.590375, -44.742550 64.590585, -44.745620 64.590795, -44.748691 64.591005, -44.751761 64.591215, -44.754832 64.591425, -44.757903 64.591635, -44.760973 64.591845, -44.764044 64.592055, -44.767115 64.592265, -44.770186 64.592474, -44.773257 64.592684, -44.776328 64.592893, -44.779399 64.593103, -44.782470 64.593312, -44.785541 64.593522, -44.788612 64.593731, -44.791683 64.593940, -44.794754 64.594149, -44.797826 64.594358, -44.800897 64.594567, -44.803968 64.594776, -44.807040 64.594985, -44.810111 64.595194, -44.813183 64.595403, -44.816254 64.595612, -44.819326 64.595820, -44.822398 64.596029, -44.825469 64.596237, -44.828541 64.596446, -44.831613 64.596654, -44.834685 64.596863, -44.837757 64.597071, -44.840829 64.597279, -44.843900 64.597487, -44.846973 64.597695, -44.850045 64.597903, -44.853117 64.598111, -44.856189 64.598319, -44.859261 64.598527, -44.862333 64.598735, -44.865406 64.598942, -44.868478 64.599150, -44.871551 64.599358, -44.874623 64.599565, -44.877695 64.599773, -44.880768 64.599980, -44.883841 64.600187, -44.886913 64.600395, -44.889986 64.600602, -44.893059 64.600809, -44.896131 64.601016, -44.899204 64.601223, -44.902277 64.601430, -44.905350 64.601637, -44.908423 64.601843, -44.911496 64.602050, -44.914569 64.602257, -44.917642 64.602463, -44.920715 64.602670, -44.923789 64.602877, -44.926862 64.603083, -44.929935 64.603289, -44.933009 64.603496, -44.936082 64.603702, -44.939155 64.603908, -44.942229 64.604114, -44.945302 64.604320, -44.948376 64.604526, -44.951450 64.604732, -44.954523 64.604938, -44.957597 64.605144, -44.960671 64.605349, -44.963745 64.605555, -44.966818 64.605761, -44.969892 64.605966, -44.972966 64.606172, -44.976040 64.606377, -44.979114 64.606582, -44.982188 64.606788, -44.985263 64.606993, -44.988337 64.607198, -44.991411 64.607403, -44.994485 64.607608, -44.997560 64.607813, -45.000634 64.608018, -45.003708 64.608223, -45.006783 64.608427, -45.009857 64.608632, -45.012932 64.608837, -45.016006 64.609041, -45.019081 64.609246, -45.022156 64.609450, -45.025231 64.609655, -45.028305 64.609859, -45.031380 64.610063, -45.034455 64.610267, -45.037530 64.610471, -45.040605 64.610675, -45.043680 64.610879, -45.046755 64.611083, -45.049830 64.611287, -45.052905 64.611491, -45.055980 64.611695, -45.059056 64.611898, -45.062131 64.612102, -45.065206 64.612306, -45.068282 64.612509, -45.071357 64.612712, -45.074433 64.612916, -45.077508 64.613119, -45.080584 64.613322, -45.083659 64.613525, -45.086735 64.613729, -45.089811 64.613932, -45.092886 64.614135, -45.095962 64.614337, -45.099038 64.614540, -45.102114 64.614743, -45.105190 64.614946, -45.108266 64.615148, -45.111342 64.615351, -45.114418 64.615554, -45.117494 64.615756, -45.120570 64.615958, -45.123647 64.616161, -45.126723 64.616363, -45.129799 64.616565, -45.132875 64.616767, -45.135952 64.616969, -45.139028 64.617171, -45.142105 64.617373, -45.145181 64.617575, -45.148258 64.617777, -45.151334 64.617979, -45.154411 64.618180, -45.157488 64.618382, -45.160565 64.618584, -45.163641 64.618785, -45.166718 64.618987, -45.169795 64.619188, -45.172872 64.619389, -45.175949 64.619590, -45.179026 64.619792, -45.182103 64.619993, -45.185180 64.620194, -45.188258 64.620395, -45.191335 64.620596, -45.194412 64.620797, -45.197489 64.620997, -45.200567 64.621198, -45.203644 64.621399, -45.206721 64.621599, -45.209799 64.621800, -45.212876 64.622000, -45.215954 64.622201, -45.219032 64.622401, -45.222109 64.622601, -45.225187 64.622802, -45.228265 64.623002, -45.231343 64.623202, -45.234420 64.623402, -45.237498 64.623602, -45.240576 64.623802, -45.243654 64.624002, -45.246732 64.624201, -45.249810 64.624401, -45.252889 64.624601, -45.255967 64.624800, -45.259045 64.625000, -45.262123 64.625199, -45.265201 64.625399, -45.268280 64.625598, -45.271358 64.625797, -45.274437 64.625996, -45.277515 64.626195, -45.280594 64.626394, -45.283672 64.626593, -45.286751 64.626792, -45.289830 64.626991, -45.292908 64.627190, -45.295987 64.627389, -45.299066 64.627588, -45.302145 64.627786, -45.305224 64.627985, -45.308302 64.628183, -45.311381 64.628382, -45.314460 64.628580, -45.317540 64.628778, -45.320619 64.628976, -45.323698 64.629175, -45.326777 64.629373, -45.329856 64.629571, -45.332936 64.629769, -45.336015 64.629967, -45.339094 64.630165, -45.342174 64.630362, -45.345253 64.630560, -45.348333 64.630758, -45.351412 64.630955, -45.354492 64.631153, -45.357572 64.631350, -45.360651 64.631548, -45.363731 64.631745, -45.366811 64.631942, -45.369891 64.632139, -45.372970 64.632337, -45.376050 64.632534, -45.379130 64.632731, -45.382210 64.632928, -45.385290 64.633124, -45.388370 64.633321, -45.391451 64.633518, -45.394531 64.633715, -45.397611 64.633911, -45.400691 64.634108, -45.403772 64.634304, -45.406852 64.634501, -45.409932 64.634697, -45.413013 64.634894, -45.416093 64.635090, -45.419174 64.635286, -45.422255 64.635482, -45.425335 64.635678, -45.428416 64.635874, -45.431497 64.636070, -45.434577 64.636266, -45.437658 64.636462, -45.440739 64.636657, -45.443820 64.636853, -45.446901 64.637049, -45.449982 64.637244, -45.453063 64.637440, -45.456144 64.637635, -45.459225 64.637830, -45.462306 64.638026, -45.465387 64.638221, -45.468469 64.638416, -45.471550 64.638611, -45.474631 64.638806, -45.477713 64.639001, -45.480794 64.639196, -45.483876 64.639391, -45.486957 64.639586, -45.490039 64.639780, -45.493120 64.639975, -45.496202 64.640170, -45.499284 64.640364, -45.502365 64.640559, -45.505447 64.640753, -45.508529 64.640947, -45.511611 64.641142, -45.514693 64.641336, -45.517775 64.641530, -45.520857 64.641724, -45.523939 64.641918, -45.527021 64.642112, -45.530103 64.642306, -45.533185 64.642500, -45.536267 64.642693, -45.539350 64.642887, -45.542432 64.643081, -45.545514 64.643274, -45.548597 64.643468, -45.551679 64.643661, -45.554762 64.643854, -45.557844 64.644048, -45.560927 64.644241, -45.564009 64.644434, -45.567092 64.644627, -45.570175 64.644820, -45.573258 64.645013, -45.576340 64.645206, -45.579423 64.645399, -45.582506 64.645592, -45.585589 64.645784, -45.588672 64.645977, -45.591755 64.646170, -45.594838 64.646362, -45.597921 64.646555, -45.601004 64.646747, -45.604088 64.646939, -45.607171 64.647132, -45.610254 64.647324, -45.613337 64.647516, -45.616421 64.647708, -45.619504 64.647900, -45.622588 64.648092, -45.625671 64.648284, -45.628755 64.648476, -45.631838 64.648667, -45.634922 64.648859, -45.638005 64.649051, -45.641089 64.649242, -45.644173 64.649434, -45.647257 64.649625, -45.650341 64.649817, -45.653424 64.650008, -45.656508 64.650199, -45.659592 64.650390, -45.662676 64.650581, -45.665760 64.650772, -45.668845 64.650963, -45.671929 64.651154, -45.675013 64.651345, -45.678097 64.651536, -45.681181 64.651727, -45.684266 64.651917, -45.687350 64.652108, -45.690435 64.652298, -45.693519 64.652489, -45.696603 64.652679, -45.699688 64.652870, -45.702773 64.653060, -45.705857 64.653250, -45.708942 64.653440, -45.712027 64.653630, -45.715111 64.653820, -45.718196 64.654010, -45.721281 64.654200, -45.724366 64.654390, -45.727451 64.654580, -45.730536 64.654770, -45.733621 64.654959, -45.736706 64.655149, -45.739791 64.655338, -45.742876 64.655528, -45.745961 64.655717, -45.749046 64.655906, -45.752132 64.656096, -45.755217 64.656285, -45.758302 64.656474, -45.761388 64.656663, -45.764473 64.656852, -45.767559 64.657041, -45.770644 64.657230, -45.773730 64.657419, -45.776815 64.657607, -45.779901 64.657796, -45.782987 64.657985, -45.786073 64.658173, -45.789158 64.658362, -45.792244 64.658550, -45.795330 64.658738, -45.798416 64.658927, -45.801502 64.659115, -45.804588 64.659303, -45.807674 64.659491, -45.810760 64.659679, -45.813846 64.659867, -45.816932 64.660055, -45.820019 64.660243, -45.823105 64.660431, -45.826191 64.660618, -45.829277 64.660806, -45.832364 64.660993, -45.835450 64.661181, -45.838537 64.661368, -45.841623 64.661556, -45.844710 64.661743, -45.847796 64.661930, -45.850883 64.662118, -45.853970 64.662305, -45.857056 64.662492, -45.860143 64.662679, -45.863230 64.662866, -45.866317 64.663053, -45.869404 64.663239, -45.872491 64.663426, -45.875578 64.663613, -45.878665 64.663799, -45.881752 64.663986, -45.884839 64.664172, -45.887926 64.664359, -45.891013 64.664545, -45.894101 64.664731, -45.897188 64.664918, -45.900275 64.665104, -45.903362 64.665290, -45.906450 64.665476, -45.909537 64.665662, -45.912625 64.665848, -45.915712 64.666034, -45.918800 64.666219, -45.921888 64.666405, -45.924975 64.666591, -45.928063 64.666776, -45.931151 64.666962, -45.934238 64.667147, -45.937326 64.667333, -45.940414 64.667518, -45.943502 64.667703, -45.946590 64.667888, -45.949678 64.668074, -45.952766 64.668259, -45.955854 64.668444, -45.958942 64.668629, -45.962030 64.668813, -45.965119 64.668998, -45.968207 64.669183, -45.971295 64.669368, -45.974384 64.669552, -45.977472 64.669737, -45.980560 64.669921, -45.983649 64.670106, -45.986737 64.670290, -45.989826 64.670474, -45.992914 64.670659, -45.996003 64.670843, -45.999092 64.671027, -46.002180 64.671211, -46.005269 64.671395, -46.008358 64.671579, -46.011447 64.671763, -46.014536 64.671946, -46.017625 64.672130, -46.020714 64.672314, -46.023803 64.672497, -46.026892 64.672681, -46.029981 64.672864, -46.033070 64.673048, -46.036159 64.673231, -46.039248 64.673414, -46.042337 64.673598, -46.045427 64.673781, -46.048516 64.673964, -46.051605 64.674147, -46.054695 64.674330, -46.057784 64.674513, -46.060874 64.674695, -46.063963 64.674878, -46.067053 64.675061, -46.070143 64.675243, -46.073232 64.675426, -46.076322 64.675608, -46.079412 64.675791, -46.082502 64.675973, -46.085591 64.676156, -46.088681 64.676338, -46.091771 64.676520, -46.094861 64.676702, -46.097951 64.676884, -46.101041 64.677066, -46.104131 64.677248, -46.107221 64.677430, -46.110312 64.677612, -46.113402 64.677793, -46.116492 64.677975, -46.119582 64.678157, -46.122673 64.678338, -46.125763 64.678520, -46.128854 64.678701, -46.131944 64.678882, -46.135034 64.679064, -46.138125 64.679245, -46.141216 64.679426, -46.144306 64.679607, -46.147397 64.679788, -46.150488 64.679969, -46.153578 64.680150, -46.156669 64.680331, -46.159760 64.680511, -46.162851 64.680692, -46.165942 64.680873, -46.169033 64.681053, -46.172124 64.681234, -46.175215 64.681414, -46.178306 64.681594, -46.181397 64.681775, -46.184488 64.681955, -46.187579 64.682135, -46.190671 64.682315, -46.193762 64.682495, -46.196853 64.682675, -46.199945 64.682855, -46.203036 64.683035, -46.206127 64.683215, -46.209219 64.683395, -46.212310 64.683574, -46.215402 64.683754, -46.218494 64.683933, -46.221585 64.684113, -46.224677 64.684292, -46.227769 64.684472, -46.230860 64.684651, -46.233952 64.684830, -46.237044 64.685009, -46.240136 64.685188, -46.243228 64.685367, -46.246320 64.685546, -46.249412 64.685725, -46.252504 64.685904, -46.255596 64.686083, -46.258688 64.686261, -46.261780 64.686440, -46.264873 64.686618, -46.267965 64.686797, -46.271057 64.686975, -46.274150 64.687154, -46.277242 64.687332, -46.280334 64.687510, -46.283427 64.687688, -46.286519 64.687867, -46.289612 64.688045, -46.292705 64.688223, -46.295797 64.688400, -46.298890 64.688578, -46.301983 64.688756, -46.305075 64.688934, -46.308168 64.689112, -46.311261 64.689289, -46.314354 64.689467, -46.317447 64.689644, -46.320540 64.689821, -46.323633 64.689999, -46.326726 64.690176, -46.329819 64.690353, -46.332912 64.690530, -46.336005 64.690707, -46.339098 64.690884, -46.342192 64.691061, -46.345285 64.691238, -46.348378 64.691415, -46.351471 64.691592, -46.354565 64.691769, -46.357658 64.691945, -46.360752 64.692122, -46.363845 64.692298, -46.366939 64.692475, -46.370032 64.692651, -46.373126 64.692827, -46.376220 64.693004, -46.379314 64.693180, -46.382407 64.693356, -46.385501 64.693532, -46.388595 64.693708, -46.391689 64.693884, -46.394783 64.694060, -46.397877 64.694235, -46.400971 64.694411, -46.404065 64.694587, -46.407159 64.694762, -46.410253 64.694938, -46.413347 64.695113, -46.416441 64.695289, -46.419536 64.695464, -46.422630 64.695639, -46.425724 64.695815, -46.428819 64.695990, -46.431913 64.696165, -46.435007 64.696340, -46.438102 64.696515, -46.441196 64.696690, -46.444291 64.696864, -46.447386 64.697039, -46.450480 64.697214, -46.453575 64.697388, -46.456670 64.697563, -46.459764 64.697737, -46.462859 64.697912, -46.465954 64.698086, -46.469049 64.698261, -46.472144 64.698435, -46.475239 64.698609, -46.478334 64.698783, -46.481429 64.698957, -46.484524 64.699131, -46.487619 64.699305, -46.490714 64.699479, -46.493809 64.699653, -46.496905 64.699826, -46.500000 64.700000, -46.503004 64.699635, -46.506008 64.699271, -46.509012 64.698906, -46.512016 64.698541, -46.515019 64.698177, -46.518023 64.697812, -46.521027 64.697447, -46.524030 64.697082, -46.527033 64.696717, -46.530037 64.696352, -46.533040 64.695987, -46.536043 64.695622, -46.539046 64.695256, -46.542049 64.694891, -46.545052 64.694526, -46.548055 64.694160, -46.551058 64.693795, -46.554060 64.693429, -46.557063 64.693063, -46.560065 64.692698, -46.563068 64.692332, -46.566070 64.691966, -46.569072 64.691600, -46.572074 64.691234, -46.575077 64.690868, -46.578079 64.690502, -46.581080 64.690136, -46.584082 64.689770, -46.587084 64.689404, -46.590086 64.689037, -46.593087 64.688671, -46.596089 64.688305, -46.599090 64.687938, -46.602092 64.687572, -46.605093 64.687205, -46.608094 64.686838, -46.611095 64.686472, -46.614096 64.686105, -46.617097 64.685738, -46.620098 64.685371, -46.623099 64.685004, -46.626100 64.684637, -46.629100 64.684270, -46.632101 64.683903, -46.635101 64.683536, -46.638102 64.683168, -46.641102 64.682801, -46.644102 64.682434, -46.647102 64.682066, -46.650102 64.681699, -46.653102 64.681331, -46.656102 64.680963, -46.659102 64.680596, -46.662102 64.680228, -46.665101 64.679860, -46.668101 64.679492, -46.671100 64.679124, -46.674100 64.678756, -46.677099 64.678388, -46.680098 64.678020, -46.683098 64.677652, -46.686097 64.677284, -46.689096 64.676915, -46.692095 64.676547, -46.695093 64.676179, -46.698092 64.675810, -46.701091 64.675442, -46.704089 64.675073, -46.707088 64.674704, -46.710086 64.674336, -46.713085 64.673967, -46.716083 64.673598, -46.719081 64.673229, -46.722079 64.672860, -46.725077 64.672491, -46.728075 64.672122, -46.731073 64.671753, -46.734071 64.671384, -46.737069 64.671014, -46.740066 64.670645, -46.743064 64.670276, -46.746061 64.669906, -46.749059 64.669537, -46.752056 64.669167, -46.755053 64.668797, -46.758050 64.668428, -46.761047 64.668058, -46.764044 64.667688, -46.767041 64.667318, -46.770038 64.666948, -46.773035 64.666578, -46.776031 64.666208, -46.779028 64.665838, -46.782024 64.665468, -46.785021 64.665098, -46.788017 64.664727, -46.791013 64.664357, -46.794009 64.663987, -46.797005 64.663616, -46.800001 64.663245, -46.802997 64.662875, -46.805993 64.662504, -46.808989 64.662133, -46.811984 64.661763, -46.814980 64.661392, -46.817975 64.661021, -46.820971 64.660650, -46.823966 64.660279, -46.826961 64.659908, -46.829957 64.659537, -46.832952 64.659165, -46.835947 64.658794, -46.838942 64.658423, -46.841936 64.658051, -46.844931 64.657680, -46.847926 64.657308, -46.850920 64.656937, -46.853915 64.656565, -46.856909 64.656194, -46.859904 64.655822, -46.862898 64.655450, -46.865892 64.655078, -46.868886 64.654706, -46.871880 64.654334, -46.874874 64.653962, -46.877868 64.653590, -46.880862 64.653218, -46.883855 64.652846, -46.886849 64.652473, -46.889843 64.652101, -46.892836 64.651728, -46.895829 64.651356, -46.898823 64.650983, -46.901816 64.650611, -46.904809 64.650238, -46.907802 64.649865, -46.910795 64.649493, -46.913788 64.649120, -46.916780 64.648747, -46.919773 64.648374, -46.922766 64.648001, -46.925758 64.647628, -46.928751 64.647255, -46.931743 64.646881, -46.934735 64.646508, -46.937728 64.646135, -46.940720 64.645761, -46.943712 64.645388, -46.946704 64.645014, -46.949696 64.644641, -46.952687 64.644267, -46.955679 64.643894, -46.958671 64.643520, -46.961662 64.643146, -46.964654 64.642772, -46.967645 64.642398, -46.970636 64.642024, -46.973628 64.641650, -46.976619 64.641276, -46.979610 64.640902, -46.982601 64.640528, -46.985592 64.640153, -46.988582 64.639779, -46.991573 64.639404, -46.994564 64.639030, -46.997554 64.638655, -47.000545 64.638281, -47.003535 64.637906, -47.006526 64.637531, -47.009516 64.637157, -47.012506 64.636782, -47.015496 64.636407, -47.018486 64.636032, -47.021476 64.635657, -47.024466 64.635282, -47.027455 64.634907, -47.030445 64.634531, -47.033435 64.634156, -47.036424 64.633781, -47.039413 64.633405, -47.042403 64.633030, -47.045392 64.632655, -47.048381 64.632279, -47.051370 64.631903, -47.054359 64.631528, -47.057348 64.631152, -47.060337 64.630776, -47.063326 64.630400, -47.066314 64.630024, -47.069303 64.629648, -47.072291 64.629272, -47.075280 64.628896, -47.078268 64.628520, -47.081256 64.628144, -47.084245 64.627767, -47.087233 64.627391, -47.090221 64.627015, -47.093209 64.626638, -47.096196 64.626262, -47.099184 64.625885, -47.102172 64.625508, -47.105159 64.625132, -47.108147 64.624755, -47.111134 64.624378, -47.114122 64.624001, -47.117109 64.623624, -47.120096 64.623247, -47.123083 64.622870, -47.126070 64.622493, -47.129057 64.622116, -47.132044 64.621739, -47.135031 64.621361, -47.138017 64.620984, -47.141004 64.620606, -47.143990 64.620229, -47.146977 64.619851, -47.149963 64.619474, -47.152949 64.619096, -47.155935 64.618718, -47.158922 64.618341, -47.161908 64.617963, -47.164893 64.617585, -47.167879 64.617207, -47.170865 64.616829, -47.173851 64.616451, -47.176836 64.616072, -47.179822 64.615694, -47.182807 64.615316, -47.185793 64.614938, -47.188778 64.614559, -47.191763 64.614181, -47.194748 64.613802, -47.197733 64.613424, -47.200718 64.613045, -47.203703 64.612666, -47.206688 64.612288, -47.209672 64.611909, -47.212657 64.611530, -47.215641 64.611151, -47.218626 64.610772, -47.221610 64.610393, -47.224594 64.610014, -47.227579 64.609634, -47.230563 64.609255, -47.233547 64.608876, -47.236531 64.608497, -47.239514 64.608117, -47.242498 64.607738, -47.245482 64.607358, -47.248466 64.606978, -47.251449 64.606599, -47.254432 64.606219, -47.257416 64.605839, -47.260399 64.605459, -47.263382 64.605080, -47.266365 64.604700, -47.269348 64.604320, -47.272331 64.603939, -47.275314 64.603559, -47.278297 64.603179, -47.281280 64.602799, -47.284262 64.602419, -47.287245 64.602038, -47.290227 64.601658, -47.293209 64.601277, -47.296192 64.600897, -47.299174 64.600516, -47.302156 64.600135, -47.305138 64.599755, -47.308120 64.599374, -47.311102 64.598993, -47.314083 64.598612, -47.317065 64.598231, -47.320047 64.597850, -47.323028 64.597469, -47.326010 64.597088, -47.328991 64.596706, -47.331972 64.596325, -47.334953 64.595944, -47.337935 64.595562, -47.340916 64.595181, -47.343896 64.594799, -47.346877 64.594418, -47.349858 64.594036, -47.352839 64.593654, -47.355819 64.593273, -47.358800 64.592891, -47.361780 64.592509, -47.364761 64.592127, -47.367741 64.591745, -47.370721 64.591363, -47.373701 64.590981, -47.376681 64.590598, -47.379661 64.590216, -47.382641 64.589834, -47.385621 64.589452, -47.388600 64.589069, -47.391580 64.588687, -47.394559 64.588304, -47.397539 64.587921, -47.400518 64.587539, -47.403497 64.587156, -47.406476 64.586773, -47.409456 64.586390, -47.412435 64.586007, -47.415413 64.585624, -47.418392 64.585241, -47.421371 64.584858, -47.424350 64.584475, -47.427328 64.584092, -47.430307 64.583709, -47.433285 64.583325, -47.436264 64.582942, -47.439242 64.582559, -47.442220 64.582175, -47.445198 64.581791, -47.448176 64.581408, -47.451154 64.581024, -47.454132 64.580640, -47.457109 64.580257, -47.460087 64.579873, -47.463065 64.579489, -47.466042 64.579105, -47.469020 64.578721, -47.471997 64.578337, -47.474974 64.577952, -47.477951 64.577568, -47.480928 64.577184, -47.483905 64.576800, -47.486882 64.576415, -47.489859 64.576031, -47.492836 64.575646, -47.495812 64.575262, -47.498789 64.574877, -47.501765 64.574492, -47.504742 64.574107, -47.507718 64.573723, -47.510694 64.573338, -47.513671 64.572953, -47.516647 64.572568, -47.519623 64.572183, -47.522598 64.571797, -47.525574 64.571412, -47.528550 64.571027, -47.531526 64.570642, -47.534501 64.570256, -47.537477 64.569871, -47.540452 64.569485, -47.543427 64.569100, -47.546403 64.568714, -47.549378 64.568329, -47.552353 64.567943, -47.555328 64.567557, -47.558303 64.567171, -47.561277 64.566785, -47.564252 64.566399, -47.567227 64.566013, -47.570201 64.565627, -47.573176 64.565241, -47.576150 64.564855, -47.579124 64.564469, -47.582099 64.564082, -47.585073 64.563696, -47.588047 64.563309, -47.591021 64.562923, -47.593995 64.562536, -47.596968 64.562150, -47.599942 64.561763, -47.602916 64.561376, -47.605889 64.560989, -47.608863 64.560603, -47.611836 64.560216, -47.614809 64.559829, -47.617782 64.559442, -47.620756 64.559054, -47.623729 64.558667, -47.626702 64.558280, -47.629674 64.557893, -47.632647 64.557505, -47.635620 64.557118, -47.638592 64.556731, -47.641565 64.556343, -47.644537 64.555955, -47.647510 64.555568, -47.650482 64.555180, -47.653454 64.554792, -47.656426 64.554405, -47.659398 64.554017, -47.662370 64.553629, -47.665342 64.553241, -47.668314 64.552853, -47.671285 64.552464, -47.674257 64.552076, -47.677229 64.551688, -47.680200 64.551300, -47.683171 64.550911, -47.686143 64.550523, -47.689114 64.550134, -47.692085 64.549746, -47.695056 64.549357, -47.698027 64.548969, -47.700998 64.548580, -47.703968 64.548191, -47.706939 64.547802, -47.709909 64.547413, -47.712880 64.547024, -47.715850 64.546635, -47.718821 64.546246, -47.721791 64.545857, -47.724761 64.545468, -47.727731 64.545079, -47.730701 64.544689, -47.733671 64.544300, -47.736641 64.543911, -47.739611 64.543521, -47.742580 64.543131, -47.745550 64.542742, -47.748519 64.542352, -47.751489 64.541962, -47.754458 64.541573, -47.757427 64.541183, -47.760396 64.540793, -47.763365 64.540403, -47.766334 64.540013, -47.769303 64.539623, -47.772272 64.539233, -47.775241 64.538842, -47.778209 64.538452, -47.781178 64.538062, -47.784146 64.537671, -47.787115 64.537281, -47.790083 64.536890, -47.793051 64.536500, -47.796019 64.536109, -47.798987 64.535718, -47.801955 64.535328, -47.804923 64.534937, -47.807891 64.534546, -47.810858 64.534155, -47.813826 64.533764, -47.816794 64.533373, -47.819761 64.532982, -47.822728 64.532591, -47.825696 64.532200, -47.828663 64.531808, -47.831630 64.531417, -47.834597 64.531025, -47.837564 64.530634, -47.840531 64.530242, -47.843497 64.529851, -47.846464 64.529459, -47.849431 64.529068, -47.852397 64.528676, -47.855363 64.528284, -47.858330 64.527892, -47.861296 64.527500, -47.864262 64.527108, -47.867228 64.526716, -47.870194 64.526324, -47.873160 64.525932, -47.876126 64.525539, -47.879092 64.525147, -47.882057 64.524755, -47.885023 64.524362, -47.887988 64.523970, -47.890954 64.523577, -47.893919 64.523185, -47.896884 64.522792, -47.899849 64.522399, -47.902814 64.522007, -47.905779 64.521614, -47.908744 64.521221, -47.911709 64.520828, -47.914674 64.520435, -47.917638 64.520042, -47.920603 64.519649, -47.923567 64.519255, -47.926532 64.518862, -47.929496 64.518469, -47.932460 64.518075, -47.935424 64.517682, -47.938388 64.517289, -47.941352 64.516895, -47.944316 64.516501, -47.947280 64.516108, -47.950243 64.515714, -47.953207 64.515320, -47.956171 64.514926, -47.959134 64.514532, -47.962097 64.514138, -47.965061 64.513744, -47.968024 64.513350, -47.970987 64.512956, -47.973950 64.512562, -47.976913 64.512168, -47.979876 64.511773, -47.982838 64.511379, -47.985801 64.510984, -47.988764 64.510590, -47.991726 64.510195, -47.994688 64.509801, -47.997651 64.509406, -48.000613 64.509011, -48.003575 64.508617, -48.006537 64.508222, -48.009499 64.507827, -48.012461 64.507432, -48.015423 64.507037, -48.018384 64.506642, -48.021346 64.506246, -48.024308 64.505851, -48.027269 64.505456, -48.030230 64.505061, -48.033192 64.504665, -48.036153 64.504270, -48.039114 64.503874, -48.042075 64.503479, -48.045036 64.503083, -48.047997 64.502687, -48.050958 64.502292, -48.053918 64.501896, -48.056879 64.501500, -48.059839 64.501104, -48.062800 64.500708, -48.065760 64.500312, -48.068720 64.499916, -48.071681 64.499520, -48.074641 64.499123, -48.077601 64.498727, -48.080561 64.498331, -48.083520 64.497934, -48.086480 64.497538, -48.089440 64.497141, -48.092399 64.496745, -48.095359 64.496348, -48.098318 64.495951, -48.101278 64.495555, -48.104237 64.495158, -48.107196 64.494761, -48.110155 64.494364, -48.113114 64.493967, -48.116073 64.493570, -48.119032 64.493173, -48.121990 64.492776, -48.124949 64.492378, -48.127907 64.491981, -48.130866 64.491584, -48.133824 64.491186, -48.136783 64.490789, -48.139741 64.490391, -48.142699 64.489994, -48.145657 64.489596, -48.148615 64.489198, -48.151573 64.488800, -48.154530 64.488403, -48.157488 64.488005, -48.160446 64.487607, -48.163403 64.487209, -48.166361 64.486811, -48.169318 64.486412, -48.172275 64.486014, -48.175232 64.485616, -48.178189 64.485218, -48.181146 64.484819, -48.184103 64.484421, -48.187060 64.484022, -48.190017 64.483624, -48.192973 64.483225, -48.195930 64.482827, -48.198886 64.482428, -48.201843 64.482029, -48.204799 64.481630, -48.207755 64.481231, -48.210711 64.480832, -48.213667 64.480433, -48.216623 64.480034, -48.219579 64.479635, -48.222535 64.479236, -48.225491 64.478837, -48.228446 64.478437, -48.231402 64.478038, -48.234357 64.477639, -48.237313 64.477239, -48.240268 64.476839, -48.243223 64.476440, -48.246178 64.476040, -48.249133 64.475640, -48.252088 64.475241, -48.255043 64.474841, -48.257998 64.474441, -48.260952 64.474041, -48.263907 64.473641, -48.266861 64.473241, -48.269816 64.472841, -48.272770 64.472440, -48.275724 64.472040, -48.278678 64.471640, -48.281632 64.471239, -48.284586 64.470839, -48.287540 64.470438, -48.290494 64.470038, -48.293448 64.469637, -48.296401 64.469237, -48.299355 64.468836, -48.302308 64.468435, -48.305262 64.468034, -48.308215 64.467633, -48.311168 64.467232, -48.314121 64.466831, -48.317074 64.466430, -48.320027 64.466029, -48.322980 64.465628, -48.325933 64.465227, -48.328886 64.464825, -48.331838 64.464424, -48.334791 64.464022, -48.337743 64.463621, -48.340695 64.463219, -48.343648 64.462818, -48.346600 64.462416, -48.349552 64.462014, -48.352504 64.461612, -48.355456 64.461211, -48.358407 64.460809, -48.361359 64.460407, -48.364311 64.460005, -48.367262 64.459602, -48.370214 64.459200, -48.373165 64.458798, -48.376116 64.458396, -48.379068 64.457993, -48.382019 64.457591, -48.384970 64.457189, -48.387921 64.456786, -48.390872 64.456384, -48.393822 64.455981, -48.396773 64.455578, -48.399724 64.455175, -48.402674 64.454773, -48.405624 64.454370, -48.408575 64.453967, -48.411525 64.453564, -48.414475 64.453161, -48.417425 64.452758, -48.420375 64.452355, -48.423325 64.451951, -48.426275 64.451548, -48.429225 64.451145, -48.432174 64.450741, -48.435124 64.450338, -48.438073 64.449934, -48.441023 64.449531, -48.443972 64.449127, -48.446921 64.448723, -48.449870 64.448320, -48.452819 64.447916, -48.455768 64.447512, -48.458717 64.447108, -48.461666 64.446704, -48.464614 64.446300, -48.467563 64.445896, -48.470512 64.445492, -48.473460 64.445087, -48.476408 64.444683, -48.479357 64.444279, -48.482305 64.443874, -48.485253 64.443470, -48.488201 64.443065, -48.491149 64.442661, -48.494096 64.442256, -48.497044 64.441851, -48.499992 64.441447, -48.502939 64.441042, -48.505887 64.440637, -48.508834 64.440232, -48.511781 64.439827, -48.514729 64.439422, -48.517676 64.439017, -48.520623 64.438612, -48.523570 64.438206, -48.526517 64.437801, -48.529463 64.437396, -48.532410 64.436990, -48.535357 64.436585, -48.538303 64.436179, -48.541249 64.435774, -48.544196 64.435368, -48.547142 64.434962, -48.550088 64.434557, -48.553034 64.434151, -48.555980 64.433745, -48.558926 64.433339, -48.561872 64.432933, -48.564818 64.432527, -48.567763 64.432121, -48.570709 64.431715, -48.573654 64.431308, -48.576600 64.430902, -48.579545 64.430496, -48.582490 64.430089, -48.585435 64.429683, -48.588380 64.429276, -48.591325 64.428870, -48.594270 64.428463, -48.597215 64.428056, -48.600159 64.427650, -48.603104 64.427243, -48.606048 64.426836, -48.608993 64.426429, -48.611937 64.426022, -48.614881 64.425615, -48.617825 64.425208, -48.620769 64.424801, -48.623713 64.424393, -48.626657 64.423986, -48.629601 64.423579, -48.632545 64.423171, -48.635488 64.422764, -48.638432 64.422356, -48.641375 64.421949, -48.644319 64.421541, -48.647262 64.421133, -48.650205 64.420726, -48.653148 64.420318, -48.656091 64.419910, -48.659034 64.419502, -48.661977 64.419094, -48.664920 64.418686, -48.667862 64.418278, -48.670805 64.417870, -48.673747 64.417461, -48.676690 64.417053, -48.679632 64.416645, -48.682574 64.416236, -48.685517 64.415828, -48.688459 64.415419, -48.691401 64.415011, -48.694342 64.414602, -48.697284 64.414193, -48.700226 64.413785, -48.703167 64.413376, -48.706109 64.412967, -48.709050 64.412558, -48.711992 64.412149, -48.714933 64.411740, -48.717874 64.411331, -48.720815 64.410921, -48.723756 64.410512, -48.726697 64.410103, -48.729638 64.409694, -48.732579 64.409284, -48.735519 64.408875, -48.738460 64.408465, -48.741400 64.408056, -48.744341 64.407646, -48.747281 64.407236, -48.750221 64.406826, -48.753161 64.406417, -48.756101 64.406007, -48.759041 64.405597, -48.761981 64.405187, -48.764921 64.404777, -48.767860 64.404367, -48.770800 64.403956, -48.773740 64.403546, -48.776679 64.403136, -48.779618 64.402726, -48.782557 64.402315, -48.785497 64.401905, -48.788436 64.401494, -48.791375 64.401084, -48.794314 64.400673, -48.797252 64.400262, -48.800191 64.399851, -48.803130 64.399441, -48.806068 64.399030, -48.809007 64.398619, -48.811945 64.398208, -48.814883 64.397797, -48.817821 64.397386, -48.820759 64.396974, -48.823697 64.396563, -48.826635 64.396152, -48.829573 64.395740, -48.832511 64.395329, -48.835449 64.394918, -48.838386 64.394506, -48.841324 64.394094, -48.844261 64.393683, -48.847198 64.393271, -48.850136 64.392859, -48.853073 64.392448, -48.856010 64.392036, -48.858947 64.391624, -48.861883 64.391212, -48.864820 64.390800, -48.867757 64.390388, -48.870693 64.389975, -48.873630 64.389563, -48.876566 64.389151, -48.879503 64.388738, -48.882439 64.388326, -48.885375 64.387914, -48.888311 64.387501, -48.891247 64.387088, -48.894183 64.386676, -48.897119 64.386263, -48.900055 64.385850, -48.902990 64.385438, -48.905926 64.385025, -48.908861 64.384612, -48.911796 64.384199, -48.914732 64.383786, -48.917667 64.383373, -48.920602 64.382959, -48.923537 64.382546, -48.926472 64.382133, -48.929407 64.381720, -48.932342 64.381306, -48.935276 64.380893, -48.938211 64.380479, -48.941145 64.380066, -48.944080 64.379652, -48.947014 64.379238, -48.949948 64.378824, -48.952882 64.378411, -48.955816 64.377997, -48.958750 64.377583, -48.961684 64.377169, -48.964618 64.376755, -48.967551 64.376341, -48.970485 64.375926, -48.973419 64.375512, -48.976352 64.375098, -48.979285 64.374684, -48.982219 64.374269, -48.985152 64.373855, -48.988085 64.373440, -48.991018 64.373026, -48.993951 64.372611, -48.996883 64.372196, -48.999816 64.371782, -49.002749 64.371367, -49.005681 64.370952, -49.008614 64.370537, -49.011546 64.370122, -49.014478 64.369707, -49.017410 64.369292, -49.020343 64.368877, -49.023275 64.368461, -49.026206 64.368046, -49.029138 64.367631, -49.032070 64.367215, -49.035002 64.366800, -49.037933 64.366384, -49.040865 64.365969, -49.043796 64.365553, -49.046727 64.365138, -49.049658 64.364722, -49.052590 64.364306, -49.055521 64.363890, -49.058452 64.363474, -49.061382 64.363058, -49.064313 64.362642, -49.067244 64.362226, -49.070174 64.361810, -49.073105 64.361394, -49.076035 64.360977, -49.078966 64.360561, -49.081896 64.360145, -49.084826 64.359728, -49.087756 64.359312, -49.090686 64.358895, -49.093616 64.358479, -49.096546 64.358062, -49.099475 64.357645, -49.102405 64.357228, -49.105334 64.356811, -49.108264 64.356395, -49.111193 64.355978, -49.114122 64.355560, -49.117052 64.355143, -49.119981 64.354726, -49.122910 64.354309, -49.125838 64.353892, -49.128767 64.353474, -49.131696 64.353057, -49.134625 64.352640, -49.137553 64.352222, -49.140482 64.351805, -49.143410 64.351387, -49.146338 64.350969, -49.149266 64.350552, -49.152194 64.350134, -49.155122 64.349716, -49.158050 64.349298, -49.160978 64.348880, -49.163906 64.348462, -49.166834 64.348044, -49.169761 64.347626, -49.172689 64.347208, -49.175616 64.346789, -49.178543 64.346371, -49.181471 64.345953, -49.184398 64.345534, -49.187325 64.345116, -49.190252 64.344697, -49.193178 64.344278, -49.196105 64.343860, -49.199032 64.343441, -49.201958 64.343022, -49.204885 64.342603, -49.207811 64.342185, -49.210738 64.341766, -49.213664 64.341347, -49.216590 64.340927, -49.219516 64.340508, -49.222442 64.340089, -49.225368 64.339670, -49.228294 64.339251, -49.231219 64.338831, -49.234145 64.338412, -49.237070 64.337992, -49.239996 64.337573, -49.242921 64.337153, -49.245846 64.336733, -49.248772 64.336314, -49.251697 64.335894, -49.254622 64.335474, -49.257546 64.335054, -49.260471 64.334634, -49.263396 64.334214, -49.266321 64.333794, -49.269245 64.333374, -49.272170 64.332954, -49.275094 64.332534, -49.278018 64.332113, -49.280942 64.331693, -49.283866 64.331273, -49.286790 64.330852, -49.289714 64.330432, -49.292638 64.330011, -49.295562 64.329590, -49.298485 64.329170, -49.301409 64.328749, -49.304332 64.328328, -49.307256 64.327907, -49.310179 64.327486, -49.313102 64.327065, -49.316025 64.326644, -49.318948 64.326223, -49.321871 64.325802, -49.324794 64.325381, -49.327717 64.324959, -49.330640 64.324538, -49.333562 64.324116, -49.336485 64.323695, -49.339407 64.323273, -49.342329 64.322852, -49.345251 64.322430, -49.348174 64.322009, -49.351096 64.321587, -49.354018 64.321165, -49.356939 64.320743, -49.359861 64.320321, -49.362783 64.319899, -49.365704 64.319477, -49.368626 64.319055, -49.371547 64.318633, -49.374469 64.318211, -49.377390 64.317788, -49.380311 64.317366, -49.383232 64.316944, -49.386153 64.316521, -49.389074 64.316099, -49.391995 64.315676, -49.394915 64.315253, -49.397836 64.314831, -49.400756 64.314408, -49.403677 64.313985, -49.406597 64.313562, -49.409517 64.313139, -49.412437 64.312716, -49.415357 64.312293, -49.418277 64.311870, -49.421197 64.311447, -49.424117 64.311024, -49.427037 64.310601, -49.429956 64.310177, -49.432876 64.309754, -49.435795 64.309330, -49.438715 64.308907, -49.441634 64.308483, -49.444553 64.308060, -49.447472 64.307636, -49.450391 64.307212, -49.453310 64.306789, -49.456229 64.306365, -49.459148 64.305941, -49.462066 64.305517, -49.464985 64.305093, -49.467903 64.304669, -49.470821 64.304245, -49.473740 64.303820, -49.476658 64.303396, -49.479576 64.302972, -49.482494 64.302547, -49.485412 64.302123, -49.488330 64.301699, -49.491247 64.301274, -49.494165 64.300849, -49.497083 64.300425, -49.500000 64.300000, -49.503033 64.299771, -49.506065 64.299542, -49.509098 64.299313, -49.512131 64.299085, -49.515163 64.298856, -49.518196 64.298626, -49.521228 64.298397, -49.524261 64.298168, -49.527293 64.297939, -49.530325 64.297709, -49.533357 64.297480, -49.536390 64.297251, -49.539422 64.297021, -49.542454 64.296791, -49.545486 64.296562, -49.548518 64.296332, -49.551550 64.296102, -49.554582 64.295873, -49.557614 64.295643, -49.560645 64.295413, -49.563677 64.295183, -49.566709 64.294953, -49.569741 64.294722, -49.572772 64.294492, -49.575804 64.294262, -49.578835 64.294032, -49.581867 64.293801, -49.584898 64.293571, -49.587929 64.293340, -49.590961 64.293110, -49.593992 64.292879, -49.597023 64.292648, -49.600054 64.292417, -49.603085 64.292187, -49.606116 64.291956, -49.609147 64.291725, -49.612178 64.291494, -49.615209 64.291263, -49.618240 64.291031, -49.621271 64.290800, -49.624301 64.290569, -49.627332 64.290338, -49.630363 64.290106, -49.633393 64.289875, -49.636424 64.289643, -49.639454 64.289412, -49.642485 64.289180, -49.645515 64.288948, -49.648545 64.288716, -49.651576 64.288485, -49.654606 64.288253, -49.657636 64.288021, -49.660666 64.287789, -49.663696 64.287557, -49.666726 64.287324, -49.669756 64.287092, -49.672786 64.286860, -49.675816 64.286628, -49.678846 64.286395, -49.681876 64.286163, -49.684905 64.285930, -49.687935 64.285698, -49.690964 64.285465, -49.693994 64.285232, -49.697024 64.284999, -49.700053 64.284767, -49.703082 64.284534, -49.706112 64.284301, -49.709141 64.284068, -49.712170 64.283835, -49.715199 64.283601, -49.718229 64.283368, -49.721258 64.283135, -49.724287 64.282902, -49.727316 64.282668, -49.730345 64.282435, -49.733374 64.282201, -49.736402 64.281968, -49.739431 64.281734, -49.742460 64.281500, -49.745489 64.281266, -49.748517 64.281032, -49.751546 64.280799, -49.754574 64.280565, -49.757603 64.280331, -49.760631 64.280096, -49.763660 64.279862, -49.766688 64.279628, -49.769716 64.279394, -49.772745 64.279159, -49.775773 64.278925, -49.778801 64.278691, -49.781829 64.278456, -49.784857 64.278221, -49.787885 64.277987, -49.790913 64.277752, -49.793941 64.277517, -49.796968 64.277282, -49.799996 64.277048, -49.803024 64.276813, -49.806052 64.276577, -49.809079 64.276342, -49.812107 64.276107, -49.815134 64.275872, -49.818162 64.275637, -49.821189 64.275401, -49.824216 64.275166, -49.827244 64.274930, -49.830271 64.274695, -49.833298 64.274459, -49.836325 64.274224, -49.839352 64.273988, -49.842379 64.273752, -49.845406 64.273516, -49.848433 64.273280, -49.851460 64.273044, -49.854487 64.272808, -49.857514 64.272572, -49.860541 64.272336, -49.863567 64.272100, -49.866594 64.271864, -49.869620 64.271627, -49.872647 64.271391, -49.875673 64.271154, -49.878700 64.270918, -49.881726 64.270681, -49.884752 64.270445, -49.887779 64.270208, -49.890805 64.269971, -49.893831 64.269734, -49.896857 64.269497, -49.899883 64.269260, -49.902909 64.269023, -49.905935 64.268786, -49.908961 64.268549, -49.911987 64.268312, -49.915013 64.268075, -49.918038 64.267837, -49.921064 64.267600, -49.924090 64.267362, -49.927115 64.267125, -49.930141 64.266887, -49.933166 64.266649, -49.936192 64.266412, -49.939217 64.266174, -49.942243 64.265936, -49.945268 64.265698, -49.948293 64.265460, -49.951318 64.265222, -49.954343 64.264984, -49.957368 64.264746, -49.960393 64.264508, -49.963418 64.264269, -49.966443 64.264031, -49.969468 64.263793, -49.972493 64.263554, -49.975518 64.263316, -49.978542 64.263077, -49.981567 64.262838, -49.984592 64.262600, -49.987616 64.262361, -49.990641 64.262122, -49.993665 64.261883, -49.996689 64.261644, -49.999714 64.261405, -50.002738 64.261166, -50.005762 64.260927, -50.008786 64.260688, -50.011811 64.260448, -50.014835 64.260209, -50.017859 64.259970, -50.020883 64.259730, -50.023907 64.259491, -50.026930 64.259251, -50.029954 64.259011, -50.032978 64.258772, -50.036002 64.258532, -50.039025 64.258292, -50.042049 64.258052, -50.045072 64.257812, -50.048096 64.257572, -50.051119 64.257332, -50.054143 64.257092, -50.057166 64.256852, -50.060189 64.256611, -50.063213 64.256371, -50.066236 64.256130, -50.069259 64.255890, -50.072282 64.255649, -50.075305 64.255409, -50.078328 64.255168, -50.081351 64.254928, -50.084374 64.254687, -50.087397 64.254446, -50.090419 64.254205, -50.093442 64.253964, -50.096465 64.253723, -50.099487 64.253482, -50.102510 64.253241, -50.105532 64.252999, -50.108555 64.252758, -50.111577 64.252517, -50.114599 64.252275, -50.117622 64.252034, -50.120644 64.251792, -50.123666 64.251551, -50.126688 64.251309, -50.129710 64.251067, -50.132732 64.250826, -50.135754 64.250584, -50.138776 64.250342, -50.141798 64.250100, -50.144820 64.249858, -50.147842 64.249616, -50.150863 64.249374, -50.153885 64.249131, -50.156907 64.248889, -50.159928 64.248647, -50.162950 64.248404, -50.165971 64.248162, -50.168992 64.247919, -50.172014 64.247677, -50.175035 64.247434, -50.178056 64.247191, -50.181077 64.246949, -50.184098 64.246706, -50.187120 64.246463, -50.190141 64.246220, -50.193162 64.245977, -50.196182 64.245734, -50.199203 64.245491, -50.202224 64.245247, -50.205245 64.245004, -50.208265 64.244761, -50.211286 64.244517, -50.214307 64.244274, -50.217327 64.244030, -50.220348 64.243787, -50.223368 64.243543, -50.226389 64.243299, -50.229409 64.243056, -50.232429 64.242812, -50.235449 64.242568, -50.238469 64.242324, -50.241490 64.242080, -50.244510 64.241836, -50.247530 64.241592, -50.250550 64.241348, -50.253569 64.241103, -50.256589 64.240859, -50.259609 64.240615, -50.262629 64.240370, -50.265648 64.240126, -50.268668 64.239881, -50.271688 64.239636, -50.274707 64.239392, -50.277727 64.239147, -50.280746 64.238902, -50.283765 64.238657, -50.286785 64.238412, -50.289804 64.238167, -50.292823 64.237922, -50.295842 64.237677, -50.298861 64.237432, -50.301880 64.237186, -50.304899 64.236941, -50.307918 64.236696, -50.310937 64.236450, -50.313956 64.236205, -50.316975 64.235959, -50.319994 64.235713, -50.323012 64.235468, -50.326031 64.235222, -50.329049 64.234976, -50.332068 64.234730, -50.335086 64.234484, -50.338105 64.234238, -50.341123 64.233992, -50.344141 64.233746, -50.347160 64.233500, -50.350178 64.233254, -50.353196 64.233007, -50.356214 64.232761, -50.359232 64.232514, -50.362250 64.232268, -50.365268 64.232021, -50.368286 64.231775, -50.371303 64.231528, -50.374321 64.231281, -50.377339 64.231034, -50.380357 64.230787, -50.383374 64.230540, -50.386392 64.230293, -50.389409 64.230046, -50.392427 64.229799, -50.395444 64.229552, -50.398461 64.229305, -50.401479 64.229057, -50.404496 64.228810, -50.407513 64.228563, -50.410530 64.228315, -50.413547 64.228068, -50.416564 64.227820, -50.419581 64.227572, -50.422598 64.227324, -50.425615 64.227077, -50.428631 64.226829, -50.431648 64.226581, -50.434665 64.226333, -50.437681 64.226085, -50.440698 64.225837, -50.443715 64.225588, -50.446731 64.225340, -50.449747 64.225092, -50.452764 64.224843, -50.455780 64.224595, -50.458796 64.224346, -50.461812 64.224098, -50.464829 64.223849, -50.467845 64.223601, -50.470861 64.223352, -50.473877 64.223103, -50.476892 64.222854, -50.479908 64.222605, -50.482924 64.222356, -50.485940 64.222107, -50.488956 64.221858, -50.491971 64.221609, -50.494987 64.221359, -50.498002 64.221110, -50.501018 64.220861, -50.504033 64.220611, -50.507049 64.220362, -50.510064 64.220112, -50.513079 64.219863, -50.516094 64.219613, -50.519110 64.219363, -50.522125 64.219113, -50.525140 64.218863, -50.528155 64.218614, -50.531170 64.218364, -50.534184 64.218113, -50.537199 64.217863, -50.540214 64.217613, -50.543229 64.217363, -50.546243 64.217113, -50.549258 64.216862, -50.552273 64.216612, -50.555287 64.216361, -50.558301 64.216111, -50.561316 64.215860, -50.564330 64.215609, -50.567344 64.215359, -50.570359 64.215108, -50.573373 64.214857, -50.576387 64.214606, -50.579401 64.214355, -50.582415 64.214104, -50.585429 64.213853, -50.588443 64.213602, -50.591457 64.213351, -50.594471 64.213099, -50.597484 64.212848, -50.600498 64.212596, -50.603512 64.212345, -50.606525 64.212093, -50.609539 64.211842, -50.612552 64.211590, -50.615565 64.211338, -50.618579 64.211087, -50.621592 64.210835, -50.624605 64.210583, -50.627619 64.210331, -50.630632 64.210079, -50.633645 64.209827, -50.636658 64.209574, -50.639671 64.209322, -50.642684 64.209070, -50.645696 64.208818, -50.648709 64.208565, -50.651722 64.208313, -50.654735 64.208060, -50.657747 64.207807, -50.660760 64.207555, -50.663772 64.207302, -50.666785 64.207049, -50.669797 64.206796, -50.672810 64.206543, -50.675822 64.206291, -50.678834 64.206037, -50.681846 64.205784, -50.684859 64.205531, -50.687871 64.205278, -50.690883 64.205025, -50.693895 64.204771, -50.696907 64.204518, -50.699918 64.204264, -50.702930 64.204011, -50.705942 64.203757, -50.708954 64.203504, -50.711965 64.203250, -50.714977 64.202996, -50.717988 64.202742, -50.721000 64.202488, -50.724011 64.202234, -50.727023 64.201980, -50.730034 64.201726, -50.733045 64.201472, -50.736056 64.201218, -50.739068 64.200964, -50.742079 64.200709, -50.745090 64.200455, -50.748101 64.200200, -50.751112 64.199946, -50.754122 64.199691, -50.757133 64.199437, -50.760144 64.199182, -50.763155 64.198927, -50.766165 64.198672, -50.769176 64.198417, -50.772187 64.198162, -50.775197 64.197907, -50.778207 64.197652, -50.781218 64.197397, -50.784228 64.197142, -50.787238 64.196887, -50.790249 64.196631, -50.793259 64.196376, -50.796269 64.196120, -50.799279 64.195865, -50.802289 64.195609, -50.805299 64.195354, -50.808309 64.195098, -50.811318 64.194842, -50.814328 64.194586, -50.817338 64.194330, -50.820348 64.194075, -50.823357 64.193819, -50.826367 64.193562, -50.829376 64.193306, -50.832386 64.193050, -50.835395 64.192794, -50.838404 64.192537, -50.841413 64.192281, -50.844423 64.192025, -50.847432 64.191768, -50.850441 64.191512, -50.853450 64.191255, -50.856459 64.190998, -50.859468 64.190741, -50.862477 64.190485, -50.865486 64.190228, -50.868494 64.189971, -50.871503 64.189714, -50.874512 64.189457, -50.877520 64.189200, -50.880529 64.188942, -50.883537 64.188685, -50.886546 64.188428, -50.889554 64.188170, -50.892562 64.187913, -50.895571 64.187655, -50.898579 64.187398, -50.901587 64.187140, -50.904595 64.186883, -50.907603 64.186625, -50.910611 64.186367, -50.913619 64.186109, -50.916627 64.185851, -50.919635 64.185593, -50.922642 64.185335, -50.925650 64.185077, -50.928658 64.184819, -50.931665 64.184561, -50.934673 64.184302, -50.937680 64.184044, -50.940688 64.183785, -50.943695 64.183527, -50.946702 64.183268, -50.949710 64.183010, -50.952717 64.182751, -50.955724 64.182492, -50.958731 64.182234, -50.961738 64.181975, -50.964745 64.181716, -50.967752 64.181457, -50.970759 64.181198, -50.973766 64.180939, -50.976772 64.180679, -50.979779 64.180420, -50.982786 64.180161, -50.985792 64.179902, -50.988799 64.179642, -50.991805 64.179383, -50.994811 64.179123, -50.997818 64.178863, -51.000824 64.178604, -51.003830 64.178344, -51.006837 64.178084, -51.009843 64.177824, -51.012849 64.177565, -51.015855 64.177305, -51.018861 64.177044, -51.021867 64.176784, -51.024872 64.176524, -51.027878 64.176264, -51.030884 64.176004, -51.033890 64.175743, -51.036895 64.175483, -51.039901 64.175222, -51.042906 64.174962, -51.045912 64.174701, -51.048917 64.174441, -51.051922 64.174180, -51.054928 64.173919, -51.057933 64.173658, -51.060938 64.173397, -51.063943 64.173136, -51.066948 64.172875, -51.069953 64.172614, -51.072958 64.172353, -51.075963 64.172092, -51.078968 64.171831, -51.081973 64.171569, -51.084977 64.171308, -51.087982 64.171046, -51.090987 64.170785, -51.093991 64.170523, -51.096996 64.170262, -51.100000 64.170000), (-51.100000 64.170000, -51.102057 64.170037, -51.104114 64.170073, -51.106171 64.170110, -51.108228 64.170146, -51.110286 64.170183, -51.112343 64.170219, -51.114400 64.170256, -51.116457 64.170292, -51.118514 64.170329, -51.120571 64.170365, -51.122628 64.170402, -51.124686 64.170438, -51.126743 64.170474, -51.128800 64.170510, -51.130857 64.170547, -51.132914 64.170583, -51.134972 64.170619, -51.137029 64.170655, -51.139086 64.170691, -51.141143 64.170727, -51.143200 64.170763, -51.145258 64.170800, -51.147315 64.170836, -51.149372 64.170872, -51.151429 64.170907, -51.153486 64.170943, -51.155544 64.170979, -51.157601 64.171015, -51.159658 64.171051, -51.161715 64.171087, -51.163773 64.171123, -51.165830 64.171158, -51.167887 64.171194, -51.169945 64.171230, -51.172002 64.171265, -51.174059 64.171301, -51.176116 64.171337, -51.178174 64.171372, -51.180231 64.171408, -51.182288 64.171443, -51.184346 64.171479, -51.186403 64.171514, -51.188460 64.171550, -51.190518 64.171585, -51.192575 64.171620, -51.194632 64.171656, -51.196690 64.171691, -51.198747 64.171726, -51.200804 64.171762, -51.202862 64.171797, -51.204919 64.171832, -51.206977 64.171867, -51.209034 64.171902, -51.211091 64.171937, -51.213149 64.171972, -51.215206 64.172008, -51.217263 64.172043, -51.219321 64.172078, -51.221378 64.172113, -51.223436 64.172147, -51.225493 64.172182, -51.227551 64.172217, -51.229608 64.172252, -51.231665 64.172287, -51.233723 64.172322, -51.235780 64.172356, -51.237838 64.172391, -51.239895 64.172426, -51.241953 64.172461, -51.244010 64.172495, -51.246068 64.172530, -51.248125 64.172564, -51.250183 64.172599, -51.252240 64.172634, -51.254298 64.172668, -51.256355 64.172703, -51.258413 64.172737, -51.260470 64.172771, -51.262528 64.172806, -51.264585 64.172840, -51.266643 64.172874, -51.268700 64.172909, -51.270758 64.172943, -51.272815 64.172977, -51.274873 64.173011, -51.276930 64.173046, -51.278988 64.173080, -51.281045 64.173114, -51.283103 64.173148, -51.285161 64.173182, -51.287218 64.173216, -51.289276 64.173250, -51.291333 64.173284, -51.293391 64.173318, -51.295449 64.173352, -51.297506 64.173386, -51.299564 64.173420, -51.301621 64.173454, -51.303679 64.173487, -51.305737 64.173521, -51.307794 64.173555, -51.309852 64.173589, -51.311909 64.173622, -51.313967 64.173656, -51.316025 64.173690, -51.318082 64.173723, -51.320140 64.173757, -51.322198 64.173790, -51.324255 64.173824, -51.326313 64.173857, -51.328371 64.173891, -51.330428 64.173924, -51.332486 64.173958, -51.334544 64.173991, -51.336602 64.174024, -51.338659 64.174058, -51.340717 64.174091, -51.342775 64.174124, -51.344832 64.174157, -51.346890 64.174191, -51.348948 64.174224, -51.351006 64.174257, -51.353063 64.174290, -51.355121 64.174323, -51.357179 64.174356, -51.359236 64.174389, -51.361294 64.174422, -51.363352 64.174455, -51.365410 64.174488, -51.367468 64.174521, -51.369525 64.174554, -51.371583 64.174587, -51.373641 64.174620, -51.375699 64.174652, -51.377756 64.174685, -51.379814 64.174718, -51.381872 64.174751, -51.383930 64.174783, -51.385988 64.174816, -51.388045 64.174849, -51.390103 64.174881, -51.392161 64.174914, -51.394219 64.174946, -51.396277 64.174979, -51.398335 64.175011, -51.400393 64.175044, -51.402450 64.175076, -51.404508 64.175108, -51.406566 64.175141, -51.408624 64.175173, -51.410682 64.175205, -51.412740 64.175238, -51.414798 64.175270, -51.416855 64.175302, -51.418913 64.175334, -51.420971 64.175366, -51.423029 64.175399, -51.425087 64.175431, -51.427145 64.175463, -51.429203 64.175495, -51.431261 64.175527, -51.433319 64.175559, -51.435377 64.175591, -51.437435 64.175623, -51.439493 64.175655, -51.441550 64.175686, -51.443608 64.175718, -51.445666 64.175750, -51.447724 64.175782, -51.449782 64.175814, -51.451840 64.175845, -51.453898 64.175877, -51.455956 64.175909, -51.458014 64.175940, -51.460072 64.175972, -51.462130 64.176003, -51.464188 64.176035, -51.466246 64.176067, -51.468304 64.176098, -51.470362 64.176129, -51.472420 64.176161, -51.474478 64.176192, -51.476536 64.176224, -51.478594 64.176255, -51.480652 64.176286, -51.482710 64.176318, -51.484768 64.176349, -51.486826 64.176380, -51.488884 64.176411, -51.490942 64.176442, -51.493001 64.176474, -51.495059 64.176505, -51.497117 64.176536, -51.499175 64.176567, -51.501233 64.176598, -51.503291 64.176629, -51.505349 64.176660, -51.507407 64.176691, -51.509465 64.176722, -51.511523 64.176753, -51.513581 64.176783, -51.515640 64.176814, -51.517698 64.176845, -51.519756 64.176876, -51.521814 64.176907, -51.523872 64.176937, -51.525930 64.176968, -51.527988 64.176999, -51.530046 64.177029, -51.532105 64.177060, -51.534163 64.177090, -51.536221 64.177121, -51.538279 64.177151, -51.540337 64.177182, -51.542395 64.177212, -51.544454 64.177243, -51.546512 64.177273, -51.548570 64.177303, -51.550628 64.177334, -51.552686 64.177364, -51.554744 64.177394, -51.556803 64.177425, -51.558861 64.177455, -51.560919 64.177485, -51.562977 64.177515, -51.565036 64.177545, -51.567094 64.177575, -51.569152 64.177605, -51.571210 64.177635, -51.573268 64.177665, -51.575327 64.177695, -51.577385 64.177725, -51.579443 64.177755, -51.581501 64.177785, -51.583560 64.177815, -51.585618 64.177845, -51.587676 64.177875, -51.589734 64.177905, -51.591793 64.177934, -51.593851 64.177964, -51.595909 64.177994, -51.597968 64.178023, -51.600026 64.178053, -51.602084 64.178083, -51.604143 64.178112, -51.606201 64.178142, -51.608259 64.178171, -51.610317 64.178201, -51.612376 64.178230, -51.614434 64.178260, -51.616492 64.178289, -51.618551 64.178318, -51.620609 64.178348, -51.622667 64.178377, -51.624726 64.178406, -51.626784 64.178436, -51.628842 64.178465, -51.630901 64.178494, -51.632959 64.178523, -51.635018 64.178552, -51.637076 64.178581, -51.639134 64.178610, -51.641193 64.178640, -51.643251 64.178669, -51.645309 64.178698, -51.647368 64.178727, -51.649426 64.178755, -51.651485 64.178784, -51.653543 64.178813, -51.655601 64.178842, -51.657660 64.178871, -51.659718 64.178900, -51.661777 64.178928, -51.663835 64.178957, -51.665894 64.178986, -51.667952 64.179015, -51.670010 64.179043, -51.672069 64.179072, -51.674127 64.179100, -51.676186 64.179129, -51.678244 64.179158, -51.680303 64.179186, -51.682361 64.179215, -51.684420 64.179243, -51.686478 64.179271, -51.688537 64.179300, -51.690595 64.179328, -51.692654 64.179356, -51.694712 64.179385, -51.696771 64.179413, -51.698829 64.179441, -51.700888 64.179469, -51.702946 64.179498, -51.705005 64.179526, -51.707063 64.179554, -51.709122 64.179582, -51.711180 64.179610, -51.713239 64.179638, -51.715297 64.179666, -51.717356 64.179694, -51.719414 64.179722, -51.721473 64.179750, -51.723531 64.179778, -51.725590 64.179806, -51.727649 64.179834, -51.729707 64.179861, -51.731766 64.179889, -51.733824 64.179917, -51.735883 64.179945, -51.737941 64.179972, -51.740000 64.180000))
