LINESTRING (144.660000 -38.270000, 144.696087 -38.288434, 144.732192 -38.306856, 144.768316 -38.325268, 144.804458 -38.343668, 144.840618 -38.362057, 144.876796 -38.380435, 144.912993 -38.398803, 144.949209 -38.417158, 144.985443 -38.435503, 145.021695 -38.453837, 145.057966 -38.472159, 145.094255 -38.490470, 145.130562 -38.508770, 145.166888 -38.527059, 145.203233 -38.545337, 145.239595 -38.563603, 145.275977 -38.581858, 145.312377 -38.600102, 145.348795 -38.618335, 145.385232 -38.636556, 145.421687 -38.654766, 145.458161 -38.672964, 145.494654 -38.691152, 145.531165 -38.709328, 145.567695 -38.727492, 145.604243 -38.745645, 145.640810 -38.763787, 145.677395 -38.781918, 145.713999 -38.800037, 145.750622 -38.818144, 145.787263 -38.836240, 145.823923 -38.854325, 145.860601 -38.872398, 145.897298 -38.890460, 145.934014 -38.908510, 145.970748 -38.926549, 146.007502 -38.944576, 146.044273 -38.962592, 146.081064 -38.980596, 146.117873 -38.998589, 146.154701 -39.016570, 146.191548 -39.034539, 146.228413 -39.052497, 146.265298 -39.070443, 146.302200 -39.088378, 146.339122 -39.106301, 146.376063 -39.124212, 146.413022 -39.142112, 146.450000 -39.160000, 146.485242 -39.139815, 146.520463 -39.119620, 146.555664 -39.099414, 146.590845 -39.079197, 146.626006 -39.058970, 146.661147 -39.038732, 146.696268 -39.018484, 146.731368 -38.998225, 146.766449 -38.977956, 146.801509 -38.957676, 146.836549 -38.937386, 146.871570 -38.917085, 146.906570 -38.896774, 146.941550 -38.876452, 146.976510 -38.856120, 147.011450 -38.835778, 147.046371 -38.815425, 147.081271 -38.795062, 147.116151 -38.774688, 147.151012 -38.754304, 147.185852 -38.733910, 147.220673 -38.713505, 147.255473 -38.693090, 147.290254 -38.672665, 147.325015 -38.652229, 147.359756 -38.631783, 147.394478 -38.611327, 147.429179 -38.590860, 147.463861 -38.570384, 147.498523 -38.549897, 147.533165 -38.529400, 147.567788 -38.508892, 147.602391 -38.488375, 147.636974 -38.467847, 147.671537 -38.447309, 147.706081 -38.426762, 147.740605 -38.406203, 147.775109 -38.385635, 147.809594 -38.365057, 147.844059 -38.344468, 147.878505 -38.323870, 147.912931 -38.303261, 147.947338 -38.282643, 147.981724 -38.262014, 148.016092 -38.241375, 148.050440 -38.220727, 148.084768 -38.200068, 148.119077 -38.179399, 148.153367 -38.158720, 148.187637 -38.138032, 148.221887 -38.117333, 148.256118 -38.096625, 148.290330 -38.075906, 148.324522 -38.055178, 148.358695 -38.034439, 148.392849 -38.013691, 148.426983 -37.992933, 148.461098 -37.972165, 148.495194 -37.951388, 148.529271 -37.930600, 148.563328 -37.909803, 148.597366 -37.888995, 148.631384 -37.868178, 148.665384 -37.847352, 148.699364 -37.826515, 148.733325 -37.805669, 148.767267 -37.784813, 148.801190 -37.763947, 148.835093 -37.743071, 148.868978 -37.722186, 148.902843 -37.701291, 148.936689 -37.680387, 148.970516 -37.659472, 149.004325 -37.638549, 149.038114 -37.617615, 149.071884 -37.596672, 149.105635 -37.575719, 149.139367 -37.554757, 149.173080 -37.533785, 149.206774 -37.512803, 149.240449 -37.491812, 149.274105 -37.470811, 149.307743 -37.449801, 149.341361 -37.428781, 149.374961 -37.407752, 149.408542 -37.386713, 149.442103 -37.365665, 149.475646 -37.344607, 149.509171 -37.323540, 149.542676 -37.302463, 149.576163 -37.281377, 149.609631 -37.260282, 149.643080 -37.239177, 149.676510 -37.218063, 149.709922 -37.196939, 149.743315 -37.175806, 149.776689 -37.154663, 149.810045 -37.133511, 149.843382 -37.112350, 149.876700 -37.091180, 149.910000 -37.070000, 149.924155 -37.037978, 149.938298 -37.005954, 149.952429 -36.973929, 149.966548 -36.941902, 149.980656 -36.909873, 149.994751 -36.877843, 150.008835 -36.845811, 150.022907 -36.813777, 150.036967 -36.781742, 150.051015 -36.749705, 150.065052 -36.717666, 150.079077 -36.685626, 150.093090 -36.653584, 150.107092 -36.621540, 150.121082 -36.589495, 150.135060 -36.557448, 150.149027 -36.525400, 150.162982 -36.493350, 150.176926 -36.461298, 150.190858 -36.429245, 150.204779 -36.397190, 150.218688 -36.365133, 150.232586 -36.333075, 150.246472 -36.301015, 150.260347 -36.268954, 150.274210 -36.236891, 150.288062 -36.204826, 150.301903 -36.172760, 150.315733 -36.140692, 150.329551 -36.108623, 150.343358 -36.076552, 150.357153 -36.044479, 150.370938 -36.012405, 150.384711 -35.980329, 150.398473 -35.948252, 150.412223 -35.916173, 150.425963 -35.884093, 150.439692 -35.852011, 150.453409 -35.819927, 150.467115 -35.787842, 150.480811 -35.755755, 150.494495 -35.723667, 150.508168 -35.691578, 150.521830 -35.659486, 150.535482 -35.627393, 150.549122 -35.595299, 150.562751 -35.563203, 150.576370 -35.531106, 150.589977 -35.499007, 150.603574 -35.466906, 150.617160 -35.434804, 150.630735 -35.402701, 150.644299 -35.370596, 150.657852 -35.338489, 150.671395 -35.306381, 150.684927 -35.274271, 150.698448 -35.242160, 150.711958 -35.210048, 150.725458 -35.177933, 150.738947 -35.145818, 150.752426 -35.113701, 150.765894 -35.081582, 150.779351 -35.049462, 150.792797 -35.017341, 150.806234 -34.985218, 150.819659 -34.953093, 150.833074 -34.920967, 150.846479 -34.888840, 150.859873 -34.856711, 150.873256 -34.824580, 150.886630 -34.792448, 150.899992 -34.760315, 150.913345 -34.728180, 150.926687 -34.696044, 150.940018 -34.663906, 150.953340 -34.631767, 150.966650 -34.599627, 150.979951 -34.567485, 150.993242 -34.535341, 151.006522 -34.503196, 151.019792 -34.471050, 151.033051 -34.438902, 151.046301 -34.406753, 151.059540 -34.374602, 151.072769 -34.342450, 151.085988 -34.310297, 151.099197 -34.278142, 151.112396 -34.245985, 151.125584 -34.213828, 151.138763 -34.181668, 151.151932 -34.149508, 151.165090 -34.117346, 151.178239 -34.085183, 151.191377 -34.053018, 151.204506 -34.020852, 151.217624 -33.988684, 151.230733 -33.956515, 151.243832 -33.924345, 151.256921 -33.892173, 151.270000 -33.860000, 151.291703 -33.831826, 151.313391 -33.803649, 151.335065 -33.775467, 151.356725 -33.747282, 151.378370 -33.719093, 151.400002 -33.690901, 151.421619 -33.662704, 151.443222 -33.634504, 151.464811 -33.606300, 151.486385 -33.578092, 151.507946 -33.549881, 151.529492 -33.521666, 151.551025 -33.493447, 151.572543 -33.465224, 151.594048 -33.436998, 151.615538 -33.408768, 151.637015 -33.380534, 151.658477 -33.352297, 151.679926 -33.324056, 151.701361 -33.295811, 151.722782 -33.267562, 151.744189 -33.239310, 151.765582 -33.211054, 151.786961 -33.182795, 151.808327 -33.154532, 151.829678 -33.126265, 151.851017 -33.097994, 151.872341 -33.069720, 151.893652 -33.041443, 151.914949 -33.013161, 151.936232 -32.984876, 151.957501 -32.956588, 151.978758 -32.928296, 152.000000 -32.900000, 152.019929 -32.870665, 152.039844 -32.841327, 152.059746 -32.811985, 152.079635 -32.782641, 152.099511 -32.753293, 152.119374 -32.723942, 152.139224 -32.694588, 152.159061 -32.665231, 152.178884 -32.635871, 152.198695 -32.606508, 152.218493 -32.577141, 152.238278 -32.547772, 152.258049 -32.518399, 152.277808 -32.489024, 152.297554 -32.459645, 152.317287 -32.430263, 152.337008 -32.400878, 152.356715 -32.371490, 152.376410 -32.342099, 152.396092 -32.312705, 152.415761 -32.283308, 152.435417 -32.253908, 152.455061 -32.224504, 152.474691 -32.195098, 152.494310 -32.165689, 152.513915 -32.136276, 152.533508 -32.106861, 152.553088 -32.077443, 152.572656 -32.048021, 152.592211 -32.018597, 152.611754 -31.989169, 152.631284 -31.959739, 152.650801 -31.930306, 152.670306 -31.900869, 152.689799 -31.871430, 152.709279 -31.841988, 152.728746 -31.812542, 152.748202 -31.783094, 152.767645 -31.753643, 152.787075 -31.724189, 152.806493 -31.694732, 152.825899 -31.665272, 152.845292 -31.635809, 152.864674 -31.606343, 152.884043 -31.576874, 152.903399 -31.547402, 152.922744 -31.517928, 152.942076 -31.488450, 152.961396 -31.458970, 152.980704 -31.429486, 153.000000 -31.400000, 153.007661 -31.366674, 153.015316 -31.333347, 153.022966 -31.300020, 153.030611 -31.266692, 153.038250 -31.233364, 153.045884 -31.200036, 153.053512 -31.166707, 153.061136 -31.133378, 153.068753 -31.100048, 153.076366 -31.066718, 153.083973 -31.033387, 153.091575 -31.000056, 153.099171 -30.966724, 153.106762 -30.933392, 153.114348 -30.900060, 153.121928 -30.866727, 153.129504 -30.833393, 153.137074 -30.800059, 153.144639 -30.766725, 153.152198 -30.733391, 153.159752 -30.700055, 153.167301 -30.666720, 153.174845 -30.633384, 153.182384 -30.600047, 153.189917 -30.566711, 153.197446 -30.533373, 153.204969 -30.500035, 153.212487 -30.466697, 153.220000 -30.433359, 153.227508 -30.400020, 153.235010 -30.366680, 153.242508 -30.333340, 153.250000 -30.300000, 153.258130 -30.267012, 153.266254 -30.234023, 153.274373 -30.201034, 153.282486 -30.168045, 153.290594 -30.135055, 153.298696 -30.102064, 153.306793 -30.069073, 153.314885 -30.036081, 153.322971 -30.003089, 153.331052 -29.970097, 153.339128 -29.937104, 153.347198 -29.904110, 153.355263 -29.871116, 153.363322 -29.838121, 153.371376 -29.805126, 153.379425 -29.772131, 153.387469 -29.739135, 153.395507 -29.706138, 153.403540 -29.673141, 153.411568 -29.640144, 153.419590 -29.607146, 153.427608 -29.574148, 153.435619 -29.541149, 153.443626 -29.508149, 153.451628 -29.475150, 153.459624 -29.442149, 153.467615 -29.409148, 153.475601 -29.376147, 153.483582 -29.343145, 153.491558 -29.310143, 153.499528 -29.277140, 153.507493 -29.244137, 153.515453 -29.211133, 153.523408 -29.178129, 153.531358 -29.145125, 153.539303 -29.112120, 153.547243 -29.079114, 153.555177 -29.046108, 153.563107 -29.013102, 153.571032 -28.980095, 153.578951 -28.947087, 153.586865 -28.914079, 153.594775 -28.881071, 153.602679 -28.848062, 153.610578 -28.815053, 153.618473 -28.782043, 153.626362 -28.749033, 153.634246 -28.716023, 153.642126 -28.683012, 153.650000 -28.650000, 153.637431 -28.617588, 153.624870 -28.585175, 153.612316 -28.552760, 153.599771 -28.520345, 153.587233 -28.487928, 153.574702 -28.455510, 153.562180 -28.423091, 153.549665 -28.390671, 153.537157 -28.358250, 153.524658 -28.325828, 153.512166 -28.293404, 153.499681 -28.260979, 153.487204 -28.228554, 153.474735 -28.196127, 153.462273 -28.163699, 153.449819 -28.131269, 153.437372 -28.098839, 153.424933 -28.066408, 153.412502 -28.033975, 153.400078 -28.001541, 153.387661 -27.969107, 153.375252 -27.936671, 153.362850 -27.904234, 153.350456 -27.871796, 153.338069 -27.839356, 153.325689 -27.806916, 153.313317 -27.774475, 153.300953 -27.742032, 153.288595 -27.709588, 153.276245 -27.677144, 153.263903 -27.644698, 153.251567 -27.612251, 153.239239 -27.579803, 153.226919 -27.547354, 153.214605 -27.514904, 153.202299 -27.482452, 153.190000 -27.450000, 153.193504 -27.416396, 153.197006 -27.382792, 153.200506 -27.349188, 153.204004 -27.315583, 153.207499 -27.281979, 153.210993 -27.248374, 153.214484 -27.214770, 153.217973 -27.181165, 153.221460 -27.147561, 153.224945 -27.113956, 153.228428 -27.080351, 153.231909 -27.046746, 153.235388 -27.013141, 153.238865 -26.979536, 153.242339 -26.945930, 153.245812 -26.912325, 153.249282 -26.878720, 153.252751 -26.845114, 153.256217 -26.811509, 153.259681 -26.777903, 153.263144 -26.744297, 153.266604 -26.710691, 153.270062 -26.677085, 153.273518 -26.643479, 153.276972 -26.609873, 153.280424 -26.576267, 153.283874 -26.542661, 153.287322 -26.509055, 153.290768 -26.475448, 153.294212 -26.441842, 153.297654 -26.408235, 153.301094 -26.374628, 153.304532 -26.341022, 153.307968 -26.307415, 153.311402 -26.273808, 153.314834 -26.240201, 153.318264 -26.206594, 153.321692 -26.172987, 153.325118 -26.139379, 153.328542 -26.105772, 153.331965 -26.072165, 153.335385 -26.038557, 153.338803 -26.004950, 153.342219 -25.971342, 153.345633 -25.937734, 153.349046 -25.904126, 153.352456 -25.870519, 153.355865 -25.836911, 153.359271 -25.803303, 153.362676 -25.769694, 153.366078 -25.736086, 153.369479 -25.702478, 153.372878 -25.668870, 153.376275 -25.635261, 153.379670 -25.601653, 153.383063 -25.568044, 153.386454 -25.534435, 153.389844 -25.500827, 153.393231 -25.467218, 153.396616 -25.433609, 153.400000 -25.400000, 153.372428 -25.376741, 153.344867 -25.353477, 153.317317 -25.330208, 153.289777 -25.306933, 153.262247 -25.283654, 153.234729 -25.260369, 153.207220 -25.237080, 153.179723 -25.213785, 153.152236 -25.190485, 153.124759 -25.167180, 153.097293 -25.143870, 153.069837 -25.120555, 153.042392 -25.097235, 153.014957 -25.073910, 152.987533 -25.050580, 152.960119 -25.027244, 152.932716 -25.003904, 152.905323 -24.980559, 152.877940 -24.957209, 152.850568 -24.933853, 152.823206 -24.910493, 152.795855 -24.887128, 152.768514 -24.863757, 152.741183 -24.840382, 152.713862 -24.817002, 152.686552 -24.793617, 152.659252 -24.770227, 152.631963 -24.746832, 152.604683 -24.723432, 152.577414 -24.700027, 152.550156 -24.676617, 152.522907 -24.653202, 152.495669 -24.629782, 152.468441 -24.606358, 152.441223 -24.582928, 152.414015 -24.559494, 152.386817 -24.536055, 152.359630 -24.512610, 152.332453 -24.489161, 152.305285 -24.465708, 152.278128 -24.442249, 152.250981 -24.418785, 152.223845 -24.395317, 152.196718 -24.371844, 152.169601 -24.348366, 152.142495 -24.324883, 152.115398 -24.301395, 152.088311 -24.277902, 152.061235 -24.254405, 152.034168 -24.230903, 152.007112 -24.207396, 151.980065 -24.183885, 151.953029 -24.160368, 151.926002 -24.136847, 151.898985 -24.113321, 151.871979 -24.089790, 151.844982 -24.066255, 151.817995 -24.042715, 151.791018 -24.019170, 151.764051 -23.995620, 151.737093 -23.972066, 151.710146 -23.948507, 151.683208 -23.924943, 151.656280 -23.901375, 151.629362 -23.877802, 151.602454 -23.854224, 151.575556 -23.830641, 151.548667 -23.807054, 151.521789 -23.783462, 151.494919 -23.759866, 151.468060 -23.736265, 151.441211 -23.712659, 151.414371 -23.689049, 151.387541 -23.665434, 151.360720 -23.641814, 151.333909 -23.618190, 151.307108 -23.594561, 151.280317 -23.570928, 151.253535 -23.547290, 151.226763 -23.523647, 151.200000 -23.500000, 151.184260 -23.469067, 151.168527 -23.438132, 151.152802 -23.407196, 151.137084 -23.376258, 151.121373 -23.345319, 151.105669 -23.314378, 151.089973 -23.283435, 151.074284 -23.252491, 151.058603 -23.221546, 151.042929 -23.190599, 151.027262 -23.159650, 151.011602 -23.128700, 150.995949 -23.097748, 150.980304 -23.066795, 150.964666 -23.035840, 150.949035 -23.004883, 150.933411 -22.973925, 150.917794 -22.942966, 150.902185 -22.912005, 150.886582 -22.881042, 150.870987 -22.850078, 150.855399 -22.819113, 150.839818 -22.788145, 150.824244 -22.757177, 150.808677 -22.726207, 150.793117 -22.695235, 150.777564 -22.664262, 150.762018 -22.633287, 150.746480 -22.602311, 150.730948 -22.571334, 150.715423 -22.540354, 150.699905 -22.509374, 150.684394 -22.478392, 150.668890 -22.447408, 150.653393 -22.416423, 150.637903 -22.385437, 150.622420 -22.354449, 150.606943 -22.323459, 150.591474 -22.292468, 150.576011 -22.261476, 150.560555 -22.230482, 150.545106 -22.199487, 150.529664 -22.168490, 150.514229 -22.137492, 150.498800 -22.106492, 150.483379 -22.075491, 150.467964 -22.044488, 150.452555 -22.013484, 150.437154 -21.982479, 150.421759 -21.951472, 150.406371 -21.920463, 150.390990 -21.889454, 150.375615 -21.858442, 150.360247 -21.827430, 150.344886 -21.796416, 150.329531 -21.765400, 150.314183 -21.734383, 150.298842 -21.703365, 150.283507 -21.672345, 150.268179 -21.641324, 150.252857 -21.610302, 150.237542 -21.579278, 150.222233 -21.548253, 150.206931 -21.517226, 150.191636 -21.486198, 150.176347 -21.455168, 150.161065 -21.424137, 150.145789 -21.393105, 150.130519 -21.362071, 150.115256 -21.331036, 150.100000 -21.300000, 150.072338 -21.277586, 150.044685 -21.255168, 150.017040 -21.232746, 149.989404 -21.210319, 149.961776 -21.187887, 149.934156 -21.165451, 149.906545 -21.143010, 149.878942 -21.120565, 149.851347 -21.098116, 149.823761 -21.075662, 149.796183 -21.053203, 149.768613 -21.030740, 149.741052 -21.008273, 149.713499 -20.985801, 149.685954 -20.963325, 149.658418 -20.940845, 149.630890 -20.918360, 149.603370 -20.895870, 149.575858 -20.873376, 149.548355 -20.850878, 149.520860 -20.828375, 149.493373 -20.805868, 149.465894 -20.783357, 149.438423 -20.760841, 149.410961 -20.738321, 149.383507 -20.715797, 149.356061 -20.693268, 149.328623 -20.670735, 149.301193 -20.648197, 149.273771 -20.625655, 149.246358 -20.603109, 149.218952 -20.580559, 149.191555 -20.558004, 149.164166 -20.535445, 149.136785 -20.512881, 149.109412 -20.490314, 149.082047 -20.467742, 149.054690 -20.445165, 149.027341 -20.422585, 149.000000 -20.400000, 148.972066 -20.378600, 148.944140 -20.357195, 148.916221 -20.335785, 148.888310 -20.314372, 148.860407 -20.292953, 148.832512 -20.271531, 148.804624 -20.250104, 148.776744 -20.228672, 148.748872 -20.207237, 148.721007 -20.185796, 148.693150 -20.164352, 148.665301 -20.142903, 148.637459 -20.121449, 148.609625 -20.099992, 148.581799 -20.078530, 148.553980 -20.057063, 148.526169 -20.035592, 148.498366 -20.014117, 148.470570 -19.992638, 148.442781 -19.971154, 148.415000 -19.949666, 148.387227 -19.928173, 148.359462 -19.906677, 148.331703 -19.885176, 148.303953 -19.863670, 148.276210 -19.842161, 148.248474 -19.820647, 148.220746 -19.799128, 148.193026 -19.777606, 148.165312 -19.756079, 148.137607 -19.734548, 148.109909 -19.713013, 148.082218 -19.691473, 148.054535 -19.669929, 148.026859 -19.648381, 147.999191 -19.626829, 147.971530 -19.605273, 147.943876 -19.583712, 147.916230 -19.562147, 147.888592 -19.540578, 147.860960 -19.519005, 147.833336 -19.497427, 147.805720 -19.475845, 147.778111 -19.454259, 147.750509 -19.432669, 147.722914 -19.411075, 147.695327 -19.389477, 147.667747 -19.367874, 147.640174 -19.346267, 147.612609 -19.324656, 147.585051 -19.303041, 147.557501 -19.281422, 147.529957 -19.259799, 147.502421 -19.238172, 147.474892 -19.216540, 147.447370 -19.194905, 147.419856 -19.173265, 147.392349 -19.151621, 147.364849 -19.129973, 147.337356 -19.108321, 147.309870 -19.086665, 147.282392 -19.065005, 147.254921 -19.043341, 147.227457 -19.021672, 147.200000 -19.000000, 147.175035 -19.020852, 147.150063 -19.041700, 147.125085 -19.062546, 147.100101 -19.083387, 147.075110 -19.104226, 147.050113 -19.125061, 147.025110 -19.145892, 147.000101 -19.166721, 146.975085 -19.187546, 146.950063 -19.208367, 146.925035 -19.229185, 146.900000 -19.250000, 146.885001 -19.218976, 146.870007 -19.187951, 146.855020 -19.156925, 146.840038 -19.125897, 146.825061 -19.094869, 146.810090 -19.063839, 146.795125 -19.032808, 146.780165 -19.001776, 146.765211 -18.970742, 146.750262 -18.939707, 146.735319 -18.908672, 146.720382 -18.877634, 146.705450 -18.846596, 146.690524 -18.815557, 146.675603 -18.784516, 146.660687 -18.753474, 146.645777 -18.722431, 146.630873 -18.691387, 146.615974 -18.660342, 146.601080 -18.629295, 146.586192 -18.598247, 146.571310 -18.567199, 146.556432 -18.536148, 146.541561 -18.505097, 146.526694 -18.474045, 146.511833 -18.442991, 146.496977 -18.411937, 146.482127 -18.380881, 146.467282 -18.349824, 146.452443 -18.318766, 146.437608 -18.287706, 146.422779 -18.256646, 146.407956 -18.225584, 146.393137 -18.194522, 146.378324 -18.163458, 146.363516 -18.132393, 146.348714 -18.101327, 146.333916 -18.070259, 146.319124 -18.039191, 146.304337 -18.008122, 146.289555 -17.977051, 146.274779 -17.945979, 146.260008 -17.914906, 146.245242 -17.883832, 146.230481 -17.852757, 146.215725 -17.821681, 146.200974 -17.790604, 146.186229 -17.759525, 146.171488 -17.728446, 146.156753 -17.697365, 146.142023 -17.666284, 146.127298 -17.635201, 146.112578 -17.604117, 146.097863 -17.573032, 146.083153 -17.541946, 146.068448 -17.510859, 146.053748 -17.479771, 146.039054 -17.448681, 146.024364 -17.417591, 146.009679 -17.386499, 145.994999 -17.355407, 145.980324 -17.324313, 145.965655 -17.293219, 145.950990 -17.262123, 145.936330 -17.231026, 145.921675 -17.199928, 145.907025 -17.168829, 145.892379 -17.137729, 145.877739 -17.106628, 145.863104 -17.075526, 145.848473 -17.044423, 145.833848 -17.013319, 145.819227 -16.982214, 145.804611 -16.951107, 145.790000 -16.920000, 145.784518 -16.886394, 145.779038 -16.852787, 145.773560 -16.819181, 145.768083 -16.785574, 145.762609 -16.751967, 145.757137 -16.718360, 145.751666 -16.684753, 145.746198 -16.651146, 145.740731 -16.617539, 145.735267 -16.583931, 145.729804 -16.550324, 145.724343 -16.516716, 145.718884 -16.483108, 145.713427 -16.449500, 145.707972 -16.415891, 145.702519 -16.382283, 145.697067 -16.348675, 145.691618 -16.315066, 145.686170 -16.281457, 145.680724 -16.247848, 145.675280 -16.214239, 145.669838 -16.180630, 145.664398 -16.147021, 145.658960 -16.113411, 145.653523 -16.079801, 145.648088 -16.046192, 145.642655 -16.012582, 145.637224 -15.978972, 145.631795 -15.945362, 145.626368 -15.911751, 145.620942 -15.878141, 145.615519 -15.844530, 145.610097 -15.810919, 145.604676 -15.777309, 145.599258 -15.743698, 145.593842 -15.710086, 145.588427 -15.676475, 145.583014 -15.642864, 145.577603 -15.609252, 145.572193 -15.575641, 145.566785 -15.542029, 145.561379 -15.508417, 145.555975 -15.474805, 145.550573 -15.441193, 145.545172 -15.407580, 145.539773 -15.373968, 145.534376 -15.340355, 145.528981 -15.306743, 145.523587 -15.273130, 145.518195 -15.239517, 145.512805 -15.205904, 145.507416 -15.172291, 145.502030 -15.138677, 145.496644 -15.105064, 145.491261 -15.071450, 145.485879 -15.037837, 145.480499 -15.004223, 145.475121 -14.970609, 145.469744 -14.936995, 145.464370 -14.903380, 145.458996 -14.869766, 145.453625 -14.836152, 145.448255 -14.802537, 145.442887 -14.768922, 145.437520 -14.735307, 145.432155 -14.701692, 145.426792 -14.668077, 145.421430 -14.634462, 145.416070 -14.600847, 145.410712 -14.567231, 145.405355 -14.533616, 145.400000 -14.500000, 145.382240 -14.470620, 145.364484 -14.441239, 145.346734 -14.411857, 145.328988 -14.382473, 145.311246 -14.353088, 145.293510 -14.323702, 145.275778 -14.294314, 145.258050 -14.264925, 145.240327 -14.235535, 145.222609 -14.206143, 145.204895 -14.176750, 145.187186 -14.147356, 145.169482 -14.117960, 145.151782 -14.088563, 145.134087 -14.059165, 145.116396 -14.029766, 145.098710 -14.000365, 145.081028 -13.970963, 145.063351 -13.941560, 145.045678 -13.912155, 145.028010 -13.882750, 145.010346 -13.853343, 144.992687 -13.823934, 144.975032 -13.794525, 144.957382 -13.765114, 144.939736 -13.735702, 144.922095 -13.706288, 144.904458 -13.676874, 144.886825 -13.647458, 144.869197 -13.618041, 144.851573 -13.588623, 144.833953 -13.559203, 144.816338 -13.529782, 144.798727 -13.500360, 144.781121 -13.470937, 144.763519 -13.441512, 144.745921 -13.412087, 144.728328 -13.382660, 144.710739 -13.353232, 144.693154 -13.323802, 144.675573 -13.294372, 144.657997 -13.264940, 144.640425 -13.235507, 144.622857 -13.206073, 144.605293 -13.176637, 144.587734 -13.147201, 144.570179 -13.117763, 144.552628 -13.088324, 144.535081 -13.058884, 144.517538 -13.029443, 144.500000 -13.000000, 144.481025 -12.971732, 144.462053 -12.943463, 144.443087 -12.915193, 144.424124 -12.886921, 144.405166 -12.858648, 144.386212 -12.830374, 144.367262 -12.802098, 144.348317 -12.773821, 144.329375 -12.745542, 144.310438 -12.717262, 144.291506 -12.688981, 144.272577 -12.660698, 144.253653 -12.632414, 144.234732 -12.604129, 144.215816 -12.575843, 144.196904 -12.547555, 144.177997 -12.519265, 144.159093 -12.490975, 144.140194 -12.462683, 144.121298 -12.434390, 144.102407 -12.406095, 144.083520 -12.377800, 144.064637 -12.349502, 144.045758 -12.321204, 144.026883 -12.292904, 144.008013 -12.264603, 143.989146 -12.236301, 143.970283 -12.207998, 143.951425 -12.179693, 143.932570 -12.151387, 143.913719 -12.123079, 143.894873 -12.094770, 143.876030 -12.066461, 143.857192 -12.038149, 143.838357 -12.009837, 143.819526 -11.981523, 143.800699 -11.953208, 143.781877 -11.924892, 143.763058 -11.896574, 143.744243 -11.868256, 143.725432 -11.839936, 143.706624 -11.811614, 143.687821 -11.783292, 143.669022 -11.754968, 143.650226 -11.726643, 143.631435 -11.698317, 143.612647 -11.669990, 143.593863 -11.641661, 143.575083 -11.613331, 143.556306 -11.585000, 143.537534 -11.556668, 143.518765 -11.528335, 143.500000 -11.500000, 143.473712 -11.478149, 143.447428 -11.456296, 143.421149 -11.434441, 143.394873 -11.412584, 143.368602 -11.390724, 143.342334 -11.368861, 143.316071 -11.346997, 143.289811 -11.325130, 143.263556 -11.303260, 143.237304 -11.281389, 143.211057 -11.259515, 143.184813 -11.237639, 143.158574 -11.215760, 143.132338 -11.193879, 143.106107 -11.171996, 143.079879 -11.150111, 143.053656 -11.128223, 143.027436 -11.106333, 143.001220 -11.084441, 142.975008 -11.062547, 142.948801 -11.040650, 142.922597 -11.018751, 142.896396 -10.996850, 142.870200 -10.974947, 142.844008 -10.953041, 142.817819 -10.931133, 142.791635 -10.909223, 142.765454 -10.887310, 142.739277 -10.865396, 142.713104 -10.843479, 142.686935 -10.821560, 142.660770 -10.799639, 142.634608 -10.777716, 142.608450 -10.755790, 142.582296 -10.733862, 142.556146 -10.711932, 142.530000 -10.690000, 142.519239 -10.722178, 142.508475 -10.754356, 142.497709 -10.786534, 142.486940 -10.818711, 142.476170 -10.850888, 142.465397 -10.883064, 142.454621 -10.915240, 142.443844 -10.947416, 142.433064 -10.979591, 142.422281 -11.011766, 142.411497 -11.043940, 142.400709 -11.076115, 142.389920 -11.108288, 142.379128 -11.140462, 142.368334 -11.172635, 142.357537 -11.204807, 142.346738 -11.236979, 142.335937 -11.269151, 142.325133 -11.301323, 142.314327 -11.333494, 142.303518 -11.365664, 142.292707 -11.397835, 142.281893 -11.430005, 142.271077 -11.462174, 142.260259 -11.494343, 142.249438 -11.526512, 142.238614 -11.558680, 142.227789 -11.590848, 142.216960 -11.623015, 142.206129 -11.655182, 142.195296 -11.687349, 142.184460 -11.719515, 142.173621 -11.751681, 142.162780 -11.783847, 142.151937 -11.816012, 142.141091 -11.848176, 142.130242 -11.880340, 142.119391 -11.912504, 142.108537 -11.944667, 142.097681 -11.976830, 142.086822 -12.008993, 142.075960 -12.041155, 142.065096 -12.073317, 142.054229 -12.105478, 142.043360 -12.137639, 142.032488 -12.169799, 142.021613 -12.201959, 142.010736 -12.234119, 141.999856 -12.266278, 141.988974 -12.298437, 141.978088 -12.330595, 141.967200 -12.362753, 141.956310 -12.394910, 141.945417 -12.427067, 141.934521 -12.459224, 141.923622 -12.491380, 141.912720 -12.523536, 141.901816 -12.555691, 141.890910 -12.587846, 141.880000 -12.620000, 141.872747 -12.653184, 141.865493 -12.686368, 141.858237 -12.719551, 141.850979 -12.752734, 141.843718 -12.785918, 141.836456 -12.819101, 141.829192 -12.852283, 141.821927 -12.885466, 141.814659 -12.918648, 141.807389 -12.951830, 141.800118 -12.985012, 141.792844 -13.018194, 141.785568 -13.051375, 141.778291 -13.084557, 141.771011 -13.117738, 141.763730 -13.150919, 141.756447 -13.184100, 141.749161 -13.217280, 141.741874 -13.250460, 141.734585 -13.283640, 141.727293 -13.316820, 141.720000 -13.350000, 141.720320 -13.384194, 141.720639 -13.418387, 141.720959 -13.452581, 141.721279 -13.486774, 141.721599 -13.520968, 141.721919 -13.555161, 141.722239 -13.589355, 141.722560 -13.623548, 141.722880 -13.657742, 141.723201 -13.691936, 141.723521 -13.726129, 141.723842 -13.760323, 141.724163 -13.794516, 141.724483 -13.828710, 141.724804 -13.862903, 141.725125 -13.897097, 141.725447 -13.931290, 141.725768 -13.965484, 141.726089 -13.999678, 141.726410 -14.033871, 141.726732 -14.068065, 141.727054 -14.102258, 141.727375 -14.136452, 141.727697 -14.170645, 141.728019 -14.204839, 141.728341 -14.239032, 141.728663 -14.273226, 141.728985 -14.307420, 141.729308 -14.341613, 141.729630 -14.375807, 141.729952 -14.410000, 141.730275 -14.444194, 141.730598 -14.478387, 141.730921 -14.512581, 141.731243 -14.546774, 141.731566 -14.580968, 141.731889 -14.615161, 141.732213 -14.649355, 141.732536 -14.683549, 141.732859 -14.717742, 141.733183 -14.751936, 141.733506 -14.786129, 141.733830 -14.820323, 141.734154 -14.854516, 141.734478 -14.888710, 141.734802 -14.922903, 141.735126 -14.957097, 141.735450 -14.991290, 141.735774 -15.025484, 141.736099 -15.059678, 141.736423 -15.093871, 141.736748 -15.128065, 141.737073 -15.162258, 141.737398 -15.196452, 141.737722 -15.230645, 141.738048 -15.264839, 141.738373 -15.299032, 141.738698 -15.333226, 141.739023 -15.367419, 141.739349 -15.401613, 141.739674 -15.435806, 141.740000 -15.470000, 141.726293 -15.501105, 141.712581 -15.532210, 141.698866 -15.563314, 141.685146 -15.594416, 141.671422 -15.625518, 141.657694 -15.656619, 141.643962 -15.687720, 141.630225 -15.718819, 141.616485 -15.749918, 141.602740 -15.781015, 141.588991 -15.812112, 141.575237 -15.843208, 141.561480 -15.874303, 141.547718 -15.905397, 141.533952 -15.936491, 141.520182 -15.967583, 141.506407 -15.998675, 141.492628 -16.029765, 141.478845 -16.060855, 141.465058 -16.091944, 141.451266 -16.123032, 141.437470 -16.154119, 141.423669 -16.185206, 141.409865 -16.216291, 141.396055 -16.247376, 141.382242 -16.278459, 141.368424 -16.309542, 141.354602 -16.340624, 141.340775 -16.371705, 141.326944 -16.402785, 141.313109 -16.433864, 141.299269 -16.464942, 141.285424 -16.496019, 141.271575 -16.527096, 141.257722 -16.558171, 141.243864 -16.589246, 141.230002 -16.620319, 141.216136 -16.651392, 141.202264 -16.682464, 141.188389 -16.713535, 141.174508 -16.744605, 141.160624 -16.775674, 141.146734 -16.806742, 141.132840 -16.837809, 141.118942 -16.868875, 141.105039 -16.899940, 141.091131 -16.931005, 141.077219 -16.962068, 141.063303 -16.993131, 141.049381 -17.024192, 141.035455 -17.055253, 141.021525 -17.086312, 141.007589 -17.117371, 140.993649 -17.148429, 140.979705 -17.179485, 140.965755 -17.210541, 140.951802 -17.241596, 140.937843 -17.272650, 140.923880 -17.303703, 140.909911 -17.334755, 140.895939 -17.365806, 140.881961 -17.396856, 140.867979 -17.427905, 140.853992 -17.458953, 140.840000 -17.490000, 140.806903 -17.477091, 140.773811 -17.464177, 140.740724 -17.451258, 140.707641 -17.438333, 140.674563 -17.425403, 140.641490 -17.412467, 140.608422 -17.399525, 140.575358 -17.386579, 140.542299 -17.373626, 140.509244 -17.360669, 140.476194 -17.347706, 140.443149 -17.334737, 140.410109 -17.321763, 140.377073 -17.308784, 140.344042 -17.295799, 140.311015 -17.282809, 140.277993 -17.269814, 140.244976 -17.256813, 140.211964 -17.243806, 140.178956 -17.230795, 140.145953 -17.217778, 140.112954 -17.204755, 140.079960 -17.191727, 140.046971 -17.178694, 140.013986 -17.165656, 139.981006 -17.152612, 139.948031 -17.139562, 139.915060 -17.126508, 139.882094 -17.113448, 139.849132 -17.100383, 139.816176 -17.087312, 139.783223 -17.074236, 139.750276 -17.061155, 139.717333 -17.048068, 139.684394 -17.034976, 139.651461 -17.021879, 139.618531 -17.008777, 139.585607 -16.995669, 139.552687 -16.982556, 139.519772 -16.969438, 139.486861 -16.956314, 139.453955 -16.943185, 139.421053 -16.930051, 139.388156 -16.916912, 139.355264 -16.903767, 139.322376 -16.890617, 139.289493 -16.877462, 139.256614 -16.864301, 139.223740 -16.851136, 139.190871 -16.837965, 139.158006 -16.824789, 139.125145 -16.811607, 139.092290 -16.798421, 139.059439 -16.785229, 139.026592 -16.772032, 138.993750 -16.758830, 138.960912 -16.745623, 138.928079 -16.732410, 138.895251 -16.719192, 138.862427 -16.705969, 138.829608 -16.692741, 138.796793 -16.679508, 138.763983 -16.666270, 138.731177 -16.653026, 138.698376 -16.639777, 138.665580 -16.626523, 138.632788 -16.613264, 138.600000 -16.600000, 138.567156 -16.587228, 138.534317 -16.574450, 138.501481 -16.561667, 138.468651 -16.548880, 138.435824 -16.536087, 138.403002 -16.523289, 138.370184 -16.510486, 138.337371 -16.497677, 138.304562 -16.484864, 138.271757 -16.472045, 138.238957 -16.459222, 138.206161 -16.446393, 138.173369 -16.433559, 138.140582 -16.420720, 138.107799 -16.407876, 138.075020 -16.395027, 138.042245 -16.382173, 138.009475 -16.369314, 137.976710 -16.356449, 137.943948 -16.343580, 137.911191 -16.330705, 137.878438 -16.317826, 137.845690 -16.304941, 137.812946 -16.292052, 137.780206 -16.279157, 137.747470 -16.266258, 137.714739 -16.253353, 137.682012 -16.240443, 137.649289 -16.227528, 137.616571 -16.214609, 137.583857 -16.201684, 137.551147 -16.188754, 137.518442 -16.175819, 137.485740 -16.162880, 137.453044 -16.149935, 137.420351 -16.136985, 137.387662 -16.124031, 137.354978 -16.111071, 137.322299 -16.098106, 137.289623 -16.085137, 137.256952 -16.072162, 137.224285 -16.059183, 137.191622 -16.046198, 137.158963 -16.033209, 137.126309 -16.020214, 137.093659 -16.007215, 137.061013 -15.994211, 137.028372 -15.981202, 136.995735 -15.968188, 136.963102 -15.955169, 136.930473 -15.942145, 136.897848 -15.929116, 136.865228 -15.916082, 136.832612 -15.903044, 136.800000 -15.890000, 136.802455 -15.856098, 136.804909 -15.822196, 136.807362 -15.788294, 136.809815 -15.754392, 136.812267 -15.720490, 136.814718 -15.686588, 136.817168 -15.652686, 136.819617 -15.618784, 136.822065 -15.584882, 136.824513 -15.550980, 136.826960 -15.517078, 136.829406 -15.483175, 136.831851 -15.449273, 136.834295 -15.415371, 136.836739 -15.381469, 136.839182 -15.347566, 136.841624 -15.313664, 136.844065 -15.279762, 136.846506 -15.245859, 136.848945 -15.211957, 136.851384 -15.178054, 136.853822 -15.144152, 136.856259 -15.110249, 136.858696 -15.076347, 136.861132 -15.042444, 136.863567 -15.008542, 136.866001 -14.974639, 136.868434 -14.940736, 136.870867 -14.906834, 136.873299 -14.872931, 136.875730 -14.839028, 136.878161 -14.805126, 136.880590 -14.771223, 136.883019 -14.737320, 136.885447 -14.703417, 136.887874 -14.669515, 136.890301 -14.635612, 136.892727 -14.601709, 136.895152 -14.567806, 136.897576 -14.533903, 136.900000 -14.500000, 136.898218 -14.465883, 136.896437 -14.431766, 136.894656 -14.397648, 136.892875 -14.363531, 136.891096 -14.329414, 136.889316 -14.295296, 136.887538 -14.261179, 136.885760 -14.227062, 136.883982 -14.192944, 136.882205 -14.158827, 136.880428 -14.124710, 136.878652 -14.090592, 136.876877 -14.056475, 136.875102 -14.022358, 136.873328 -13.988240, 136.871554 -13.954123, 136.869780 -13.920005, 136.868007 -13.885888, 136.866235 -13.851770, 136.864463 -13.817653, 136.862692 -13.783536, 136.860921 -13.749418, 136.859151 -13.715301, 136.857381 -13.681183, 136.855612 -13.647065, 136.853843 -13.612948, 136.852075 -13.578830, 136.850307 -13.544713, 136.848540 -13.510595, 136.846774 -13.476478, 136.845007 -13.442360, 136.843242 -13.408242, 136.841477 -13.374125, 136.839712 -13.340007, 136.837948 -13.305889, 136.836184 -13.271772, 136.834421 -13.237654, 136.832658 -13.203536, 136.830896 -13.169419, 136.829134 -13.135301, 136.827373 -13.101183, 136.825612 -13.067065, 136.823852 -13.032948, 136.822092 -12.998830, 136.820333 -12.964712, 136.818574 -12.930594, 136.816816 -12.896477, 136.815058 -12.862359, 136.813301 -12.828241, 136.811544 -12.794123, 136.809788 -12.760005, 136.808032 -12.725887, 136.806276 -12.691769, 136.804521 -12.657652, 136.802767 -12.623534, 136.801013 -12.589416, 136.799259 -12.555298, 136.797506 -12.521180, 136.795753 -12.487062, 136.794001 -12.452944, 136.792249 -12.418826, 136.790498 -12.384708, 136.788747 -12.350590, 136.786997 -12.316472, 136.785247 -12.282354, 136.783498 -12.248236, 136.781749 -12.214118, 136.780000 -12.180000, 136.779139 -12.146286, 136.778279 -12.112572, 136.777418 -12.078857, 136.776558 -12.045143, 136.775699 -12.011429, 136.774839 -11.977715, 136.773979 -11.944000, 136.773120 -11.910286, 136.772261 -11.876572, 136.771403 -11.842857, 136.770544 -11.809143, 136.769686 -11.775429, 136.768827 -11.741715, 136.767969 -11.708000, 136.767112 -11.674286, 136.766254 -11.640572, 136.765397 -11.606858, 136.764540 -11.573143, 136.763683 -11.539429, 136.762826 -11.505715, 136.761970 -11.472000, 136.761113 -11.438286, 136.760257 -11.404572, 136.759401 -11.370857, 136.758546 -11.337143, 136.757690 -11.303429, 136.756835 -11.269715, 136.755980 -11.236000, 136.755125 -11.202286, 136.754270 -11.168572, 136.753416 -11.134857, 136.752562 -11.101143, 136.751708 -11.067429, 136.750854 -11.033714, 136.750000 -11.000000, 136.716286 -11.008453, 136.682570 -11.016903, 136.648852 -11.025349, 136.615132 -11.033791, 136.581411 -11.042230, 136.547687 -11.050665, 136.513961 -11.059096, 136.480234 -11.067523, 136.446504 -11.075946, 136.412773 -11.084366, 136.379039 -11.092782, 136.345304 -11.101195, 136.311567 -11.109603, 136.277827 -11.118008, 136.244086 -11.126409, 136.210343 -11.134806, 136.176598 -11.143200, 136.142851 -11.151590, 136.109102 -11.159976, 136.075351 -11.168358, 136.041598 -11.176736, 136.007843 -11.185111, 135.974087 -11.193482, 135.940328 -11.201849, 135.906567 -11.210212, 135.872805 -11.218572, 135.839040 -11.226927, 135.805274 -11.235279, 135.771505 -11.243627, 135.737735 -11.251972, 135.703962 -11.260312, 135.670188 -11.268649, 135.636412 -11.276982, 135.602633 -11.285311, 135.568853 -11.293636, 135.535071 -11.301957, 135.501287 -11.310275, 135.467501 -11.318588, 135.433713 -11.326898, 135.399923 -11.335204, 135.366131 -11.343507, 135.332337 -11.351805, 135.298541 -11.360099, 135.264743 -11.368390, 135.230943 -11.376677, 135.197141 -11.384960, 135.163337 -11.393239, 135.129532 -11.401514, 135.095724 -11.409786, 135.061914 -11.418053, 135.028103 -11.426317, 134.994289 -11.434577, 134.960473 -11.442832, 134.926656 -11.451084, 134.892836 -11.459333, 134.859015 -11.467577, 134.825191 -11.475817, 134.791366 -11.484054, 134.757538 -11.492286, 134.723709 -11.500515, 134.689877 -11.508740, 134.656044 -11.516960, 134.622209 -11.525177, 134.588371 -11.533390, 134.554532 -11.541599, 134.520691 -11.549805, 134.486847 -11.558006, 134.453002 -11.566203, 134.419155 -11.574397, 134.385306 -11.582586, 134.351454 -11.590772, 134.317601 -11.598953, 134.283746 -11.607131, 134.249889 -11.615305, 134.216030 -11.623474, 134.182169 -11.631640, 134.148306 -11.639802, 134.114440 -11.647960, 134.080573 -11.656114, 134.046704 -11.664264, 134.012833 -11.672410, 133.978960 -11.680552, 133.945085 -11.688690, 133.911208 -11.696824, 133.877329 -11.704955, 133.843448 -11.713081, 133.809565 -11.721203, 133.775680 -11.729321, 133.741793 -11.737435, 133.707904 -11.745546, 133.674013 -11.753652, 133.640120 -11.761754, 133.606225 -11.769852, 133.572328 -11.777947, 133.538429 -11.786037, 133.504528 -11.794123, 133.470625 -11.802205, 133.436720 -11.810283, 133.402813 -11.818357, 133.368904 -11.826428, 133.334993 -11.834494, 133.301080 -11.842556, 133.267165 -11.850614, 133.233248 -11.858668, 133.199330 -11.866718, 133.165409 -11.874764, 133.131486 -11.882806, 133.097561 -11.890844, 133.063634 -11.898877, 133.029705 -11.906907, 132.995774 -11.914933, 132.961841 -11.922954, 132.927906 -11.930972, 132.893969 -11.938985, 132.860030 -11.946995, 132.826089 -11.955000, 132.792146 -11.963001, 132.758201 -11.970999, 132.724254 -11.978992, 132.690305 -11.986981, 132.656353 -11.994966, 132.622400 -12.002947, 132.588445 -12.010923, 132.554488 -12.018896, 132.520529 -12.026865, 132.486568 -12.034829, 132.452605 -12.042790, 132.418640 -12.050746, 132.384673 -12.058698, 132.350703 -12.066646, 132.316732 -12.074590, 132.282759 -12.082530, 132.248784 -12.090465, 132.214807 -12.098397, 132.180827 -12.106324, 132.146846 -12.114248, 132.112863 -12.122167, 132.078878 -12.130082, 132.044890 -12.137993, 132.010901 -12.145899, 131.976910 -12.153802, 131.942916 -12.161700, 131.908921 -12.169595, 131.874923 -12.177485, 131.840924 -12.185371, 131.806923 -12.193252, 131.772919 -12.201130, 131.738914 -12.209004, 131.704906 -12.216873, 131.670897 -12.224738, 131.636885 -12.232599, 131.602871 -12.240456, 131.568856 -12.248308, 131.534838 -12.256157, 131.500819 -12.264001, 131.466797 -12.271841, 131.432773 -12.279677, 131.398747 -12.287508, 131.364720 -12.295336, 131.330690 -12.303159, 131.296658 -12.310978, 131.262624 -12.318792, 131.228588 -12.326603, 131.194551 -12.334409, 131.160511 -12.342212, 131.126469 -12.350009, 131.092425 -12.357803, 131.058379 -12.365593, 131.024331 -12.373378, 130.990281 -12.381159, 130.956229 -12.388935, 130.922175 -12.396708, 130.888118 -12.404476, 130.854060 -12.412240, 130.820000 -12.420000, 130.787282 -12.431887, 130.754561 -12.443769, 130.721837 -12.455648, 130.689110 -12.467523, 130.656379 -12.479394, 130.623646 -12.491260, 130.590910 -12.503123, 130.558171 -12.514982, 130.525429 -12.526837, 130.492684 -12.538688, 130.459936 -12.550535, 130.427185 -12.562379, 130.394430 -12.574218, 130.361673 -12.586053, 130.328913 -12.597884, 130.296150 -12.609711, 130.263384 -12.621535, 130.230614 -12.633354, 130.197842 -12.645169, 130.165067 -12.656980, 130.132288 -12.668787, 130.099507 -12.680591, 130.066722 -12.692390, 130.033935 -12.704185, 130.001144 -12.715976, 129.968351 -12.727763, 129.935554 -12.739546, 129.902754 -12.751325, 129.869952 -12.763100, 129.837146 -12.774871, 129.804337 -12.786638, 129.771525 -12.798401, 129.738710 -12.810159, 129.705892 -12.821914, 129.673071 -12.833665, 129.640247 -12.845411, 129.607420 -12.857154, 129.574589 -12.868892, 129.541756 -12.880627, 129.508920 -12.892357, 129.476080 -12.904083, 129.443237 -12.915805, 129.410392 -12.927523, 129.377543 -12.939237, 129.344691 -12.950946, 129.311836 -12.962652, 129.278978 -12.974354, 129.246117 -12.986051, 129.213253 -12.997744, 129.180386 -13.009433, 129.147515 -13.021118, 129.114642 -13.032799, 129.081765 -13.044476, 129.048885 -13.056148, 129.016003 -13.067817, 128.983117 -13.079481, 128.950228 -13.091141, 128.917335 -13.102797, 128.884440 -13.114449, 128.851542 -13.126096, 128.818640 -13.137740, 128.785736 -13.149379, 128.752828 -13.161014, 128.719917 -13.172645, 128.687003 -13.184271, 128.654086 -13.195894, 128.621166 -13.207512, 128.588242 -13.219126, 128.555316 -13.230736, 128.522386 -13.242341, 128.489453 -13.253943, 128.456517 -13.265540, 128.423578 -13.277133, 128.390636 -13.288721, 128.357691 -13.300306, 128.324742 -13.311886, 128.291791 -13.323462, 128.258836 -13.335034, 128.225878 -13.346601, 128.192917 -13.358164, 128.159952 -13.369723, 128.126985 -13.381278, 128.094014 -13.392828, 128.061040 -13.404374, 128.028063 -13.415916, 127.995083 -13.427454, 127.962100 -13.438987, 127.929114 -13.450516, 127.896124 -13.462041, 127.863131 -13.473561, 127.830135 -13.485077, 127.797136 -13.496589, 127.764134 -13.508096, 127.731128 -13.519599, 127.698119 -13.531098, 127.665107 -13.542593, 127.632092 -13.554083, 127.599074 -13.565569, 127.566053 -13.577050, 127.533028 -13.588527, 127.500000 -13.600000, 127.465744 -13.607619, 127.431487 -13.615234, 127.397227 -13.622844, 127.362964 -13.630449, 127.328700 -13.638050, 127.294433 -13.645646, 127.260165 -13.653237, 127.225894 -13.660824, 127.191620 -13.668406, 127.157345 -13.675983, 127.123067 -13.683555, 127.088787 -13.691123, 127.054505 -13.698686, 127.020221 -13.706244, 126.985935 -13.713798, 126.951646 -13.721347, 126.917355 -13.728891, 126.883062 -13.736430, 126.848767 -13.743965, 126.814469 -13.751495, 126.780170 -13.759020, 126.745868 -13.766540, 126.711564 -13.774056, 126.677257 -13.781567, 126.642949 -13.789073, 126.608638 -13.796574, 126.574325 -13.804071, 126.540010 -13.811563, 126.505693 -13.819050, 126.471373 -13.826532, 126.437051 -13.834010, 126.402727 -13.841483, 126.368401 -13.848951, 126.334073 -13.856414, 126.299742 -13.863872, 126.265410 -13.871326, 126.231075 -13.878775, 126.196737 -13.886219, 126.162398 -13.893658, 126.128056 -13.901093, 126.093713 -13.908522, 126.059367 -13.915947, 126.025018 -13.923367, 125.990668 -13.930783, 125.956315 -13.938193, 125.921960 -13.945599, 125.887603 -13.953000, 125.853244 -13.960396, 125.818883 -13.967787, 125.784519 -13.975173, 125.750153 -13.982555, 125.715785 -13.989931, 125.681415 -13.997303, 125.647043 -14.004670, 125.612668 -14.012033, 125.578291 -14.019390, 125.543912 -14.026742, 125.509531 -14.034090, 125.475147 -14.041433, 125.440761 -14.048771, 125.406374 -14.056104, 125.371983 -14.063432, 125.337591 -14.070755, 125.303197 -14.078074, 125.268800 -14.085387, 125.234401 -14.092696, 125.200000 -14.100000, 125.173028 -14.121993, 125.146052 -14.143983, 125.119070 -14.165969, 125.092082 -14.187953, 125.065090 -14.209934, 125.038092 -14.231912, 125.011089 -14.253886, 124.984081 -14.275858, 124.957068 -14.297827, 124.930049 -14.319792, 124.903025 -14.341755, 124.875995 -14.363714, 124.848961 -14.385671, 124.821921 -14.407624, 124.794876 -14.429574, 124.767825 -14.451521, 124.740769 -14.473466, 124.713708 -14.495407, 124.686641 -14.517344, 124.659569 -14.539279, 124.632491 -14.561211, 124.605409 -14.583139, 124.578320 -14.605065, 124.551227 -14.626987, 124.524128 -14.648906, 124.497023 -14.670822, 124.469914 -14.692735, 124.442798 -14.714645, 124.415677 -14.736552, 124.388551 -14.758455, 124.361420 -14.780356, 124.334282 -14.802253, 124.307140 -14.824147, 124.279992 -14.846037, 124.252838 -14.867925, 124.225679 -14.889809, 124.198514 -14.911690, 124.171344 -14.933568, 124.144169 -14.955443, 124.116987 -14.977315, 124.089801 -14.999183, 124.062608 -15.021048, 124.035410 -15.042910, 124.008207 -15.064769, 123.980998 -15.086624, 123.953783 -15.108476, 123.926563 -15.130325, 123.899337 -15.152171, 123.872105 -15.174013, 123.844868 -15.195852, 123.817625 -15.217688, 123.790377 -15.239521, 123.763123 -15.261350, 123.735863 -15.283176, 123.708598 -15.304999, 123.681327 -15.326818, 123.654050 -15.348634, 123.626767 -15.370447, 123.599479 -15.392256, 123.572185 -15.414062, 123.544885 -15.435865, 123.517580 -15.457665, 123.490269 -15.479461, 123.462952 -15.501253, 123.435629 -15.523043, 123.408301 -15.544829, 123.380967 -15.566611, 123.353627 -15.588391, 123.326281 -15.610167, 123.298929 -15.631939, 123.271572 -15.653708, 123.244208 -15.675474, 123.216839 -15.697236, 123.189464 -15.718995, 123.162084 -15.740751, 123.134697 -15.762503, 123.107304 -15.784252, 123.079906 -15.805997, 123.052502 -15.827739, 123.025091 -15.849477, 122.997675 -15.871212, 122.970253 -15.892943, 122.942825 -15.914671, 122.915392 -15.936396, 122.887952 -15.958117, 122.860506 -15.979835, 122.833054 -16.001549, 122.805597 -16.023259, 122.778133 -16.044967, 122.750663 -16.066670, 122.723188 -16.088370, 122.695706 -16.110067, 122.668218 -16.131760, 122.640725 -16.153450, 122.613225 -16.175136, 122.585719 -16.196818, 122.558208 -16.218497, 122.530690 -16.240173, 122.503166 -16.261845, 122.475636 -16.283513, 122.448100 -16.305178, 122.420558 -16.326839, 122.393009 -16.348497, 122.365455 -16.370151, 122.337894 -16.391801, 122.310328 -16.413448, 122.282755 -16.435092, 122.255176 -16.456731, 122.227591 -16.478368, 122.200000 -16.500000, 122.200923 -16.533721, 122.201847 -16.567442, 122.202771 -16.601163, 122.203695 -16.634884, 122.204619 -16.668605, 122.205544 -16.702326, 122.206469 -16.736047, 122.207395 -16.769768, 122.208321 -16.803489, 122.209247 -16.837210, 122.210173 -16.870931, 122.211100 -16.904652, 122.212027 -16.938373, 122.212955 -16.972094, 122.213883 -17.005815, 122.214811 -17.039536, 122.215739 -17.073257, 122.216668 -17.106978, 122.217597 -17.140699, 122.218527 -17.174420, 122.219456 -17.208141, 122.220387 -17.241861, 122.221317 -17.275582, 122.222248 -17.309303, 122.223179 -17.343024, 122.224111 -17.376745, 122.225043 -17.410466, 122.225975 -17.444187, 122.226907 -17.477908, 122.227840 -17.511629, 122.228774 -17.545350, 122.229707 -17.579071, 122.230641 -17.612791, 122.231575 -17.646512, 122.232510 -17.680233, 122.233445 -17.713954, 122.234380 -17.747675, 122.235316 -17.781396, 122.236252 -17.815117, 122.237189 -17.848837, 122.238125 -17.882558, 122.239063 -17.916279, 122.240000 -17.950000, 122.208708 -17.966537, 122.177411 -17.983068, 122.146108 -17.999595, 122.114799 -18.016117, 122.083484 -18.032633, 122.052163 -18.049145, 122.020836 -18.065651, 121.989503 -18.082153, 121.958165 -18.098649, 121.926820 -18.115141, 121.895470 -18.131627, 121.864114 -18.148108, 121.832752 -18.164584, 121.801383 -18.181055, 121.770009 -18.197521, 121.738630 -18.213982, 121.707244 -18.230438, 121.675852 -18.246889, 121.644454 -18.263334, 121.613050 -18.279775, 121.581641 -18.296210, 121.550225 -18.312640, 121.518804 -18.329065, 121.487376 -18.345485, 121.455943 -18.361900, 121.424503 -18.378309, 121.393058 -18.394714, 121.361606 -18.411113, 121.330149 -18.427507, 121.298685 -18.443896, 121.267216 -18.460280, 121.235740 -18.476658, 121.204259 -18.493031, 121.172771 -18.509399, 121.141278 -18.525762, 121.109778 -18.542120, 121.078273 -18.558472, 121.046761 -18.574820, 121.015243 -18.591162, 120.983720 -18.607498, 120.952190 -18.623830, 120.920654 -18.640156, 120.889112 -18.656477, 120.857564 -18.672793, 120.826010 -18.689103, 120.794450 -18.705408, 120.762884 -18.721708, 120.731312 -18.738003, 120.699734 -18.754292, 120.668149 -18.770576, 120.636559 -18.786855, 120.604962 -18.803128, 120.573359 -18.819396, 120.541750 -18.835659, 120.510135 -18.851917, 120.478514 -18.868169, 120.446887 -18.884415, 120.415254 -18.900657, 120.383614 -18.916893, 120.351968 -18.933124, 120.320317 -18.949349, 120.288659 -18.965569, 120.256994 -18.981784, 120.225324 -18.997993, 120.193648 -19.014196, 120.161965 -19.030395, 120.130276 -19.046588, 120.098581 -19.062776, 120.066880 -19.078958, 120.035173 -19.095134, 120.003459 -19.111306, 119.971739 -19.127472, 119.940013 -19.143632, 119.908281 -19.159787, 119.876543 -19.175937, 119.844798 -19.192081, 119.813047 -19.208220, 119.781290 -19.224353, 119.749527 -19.240481, 119.717757 -19.256603, 119.685981 -19.272720, 119.654199 -19.288831, 119.622411 -19.304937, 119.590616 -19.321037, 119.558815 -19.337132, 119.527008 -19.353221, 119.495195 -19.369305, 119.463375 -19.385383, 119.431549 -19.401455, 119.399717 -19.417522, 119.367879 -19.433584, 119.336034 -19.449640, 119.304183 -19.465691, 119.272325 -19.481735, 119.240461 -19.497775, 119.208591 -19.513808, 119.176715 -19.529837, 119.144832 -19.545859, 119.112943 -19.561876, 119.081048 -19.577888, 119.049146 -19.593893, 119.017238 -19.609894, 118.985324 -19.625888, 118.953403 -19.641877, 118.921476 -19.657860, 118.889542 -19.673838, 118.857602 -19.689810, 118.825656 -19.705776, 118.793703 -19.721737, 118.761744 -19.737692, 118.729779 -19.753641, 118.697807 -19.769585, 118.665829 -19.785523, 118.633845 -19.801455, 118.601854 -19.817382, 118.569856 -19.833303, 118.537853 -19.849218, 118.505842 -19.865128, 118.473826 -19.881032, 118.441803 -19.896930, 118.409773 -19.912822, 118.377737 -19.928709, 118.345695 -19.944589, 118.313646 -19.960465, 118.281591 -19.976334, 118.249529 -19.992198, 118.217461 -20.008055, 118.185386 -20.023908, 118.153305 -20.039754, 118.121218 -20.055594, 118.089124 -20.071429, 118.057023 -20.087258, 118.024916 -20.103081, 117.992803 -20.118899, 117.960683 -20.134710, 117.928556 -20.150516, 117.896423 -20.166316, 117.864284 -20.182110, 117.832138 -20.197898, 117.799985 -20.213680, 117.767826 -20.229457, 117.735660 -20.245227, 117.703488 -20.260992, 117.671310 -20.276751, 117.639124 -20.292504, 117.606933 -20.308251, 117.574734 -20.323992, 117.542530 -20.339728, 117.510318 -20.355457, 117.478100 -20.371181, 117.445876 -20.386898, 117.413645 -20.402610, 117.381407 -20.418316, 117.349163 -20.434016, 117.316912 -20.449710, 117.284655 -20.465398, 117.252391 -20.481080, 117.220120 -20.496756, 117.187843 -20.512426, 117.155559 -20.528090, 117.123269 -20.543748, 117.090972 -20.559400, 117.058668 -20.575047, 117.026358 -20.590687, 116.994041 -20.606321, 116.961717 -20.621949, 116.929387 -20.637571, 116.897050 -20.653188, 116.864707 -20.668798, 116.832357 -20.684402, 116.800000 -20.700000, 116.766702 -20.714180, 116.733397 -20.728353, 116.700086 -20.742520, 116.666769 -20.756681, 116.633446 -20.770835, 116.600116 -20.784983, 116.566780 -20.799124, 116.533438 -20.813259, 116.500090 -20.827387, 116.466735 -20.841509, 116.433374 -20.855625, 116.400007 -20.869734, 116.366634 -20.883836, 116.333254 -20.897932, 116.299868 -20.912022, 116.266476 -20.926105, 116.233078 -20.940182, 116.199673 -20.954252, 116.166262 -20.968315, 116.132845 -20.982373, 116.099421 -20.996423, 116.065991 -21.010467, 116.032555 -21.024505, 115.999113 -21.038536, 115.965664 -21.052560, 115.932209 -21.066578, 115.898748 -21.080590, 115.865280 -21.094594, 115.831806 -21.108593, 115.798326 -21.122584, 115.764839 -21.136569, 115.731346 -21.150548, 115.697847 -21.164520, 115.664341 -21.178485, 115.630829 -21.192444, 115.597311 -21.206396, 115.563786 -21.220341, 115.530255 -21.234280, 115.496718 -21.248213, 115.463175 -21.262138, 115.429625 -21.276057, 115.396068 -21.289969, 115.362506 -21.303875, 115.328937 -21.317774, 115.295361 -21.331667, 115.261780 -21.345552, 115.228192 -21.359431, 115.194597 -21.373304, 115.160997 -21.387169, 115.127389 -21.401028, 115.093776 -21.414881, 115.060156 -21.428726, 115.026530 -21.442565, 114.992897 -21.456397, 114.959258 -21.470222, 114.925613 -21.484041, 114.891961 -21.497853, 114.858303 -21.511658, 114.824638 -21.525457, 114.790967 -21.539249, 114.757290 -21.553033, 114.723606 -21.566812, 114.689916 -21.580583, 114.656219 -21.594348, 114.622516 -21.608106, 114.588807 -21.621857, 114.555091 -21.635601, 114.521369 -21.649338, 114.487640 -21.663069, 114.453905 -21.676793, 114.420163 -21.690510, 114.386416 -21.704220, 114.352661 -21.717924, 114.318900 -21.731620, 114.285133 -21.745310, 114.251360 -21.758993, 114.217579 -21.772669, 114.183793 -21.786338, 114.150000 -21.800000, 114.120144 -21.820093, 114.090280 -21.840180, 114.060407 -21.860262, 114.030526 -21.880338, 114.000637 -21.900409, 113.970739 -21.920475, 113.940833 -21.940535, 113.910918 -21.960590, 113.880995 -21.980639, 113.851063 -22.000683, 113.821123 -22.020722, 113.791174 -22.040755, 113.761217 -22.060783, 113.731252 -22.080805, 113.701278 -22.100822, 113.671295 -22.120833, 113.641304 -22.140839, 113.611305 -22.160839, 113.581297 -22.180834, 113.551280 -22.200824, 113.521255 -22.220808, 113.491221 -22.240786, 113.461179 -22.260759, 113.431128 -22.280726, 113.401068 -22.300688, 113.371000 -22.320644, 113.340924 -22.340595, 113.310839 -22.360540, 113.280745 -22.380480, 113.250642 -22.400414, 113.220531 -22.420342, 113.190411 -22.440265, 113.160283 -22.460182, 113.130146 -22.480094, 113.100000 -22.500000, 113.090308 -22.532805, 113.080611 -22.565609, 113.070910 -22.598413, 113.061204 -22.631217, 113.051493 -22.664019, 113.041778 -22.696821, 113.032058 -22.729623, 113.022334 -22.762424, 113.012604 -22.795224, 113.002870 -22.828024, 112.993132 -22.860823, 112.983388 -22.893622, 112.973640 -22.926420, 112.963888 -22.959217, 112.954130 -22.992014, 112.944368 -23.024810, 112.934601 -23.057606, 112.924829 -23.090401, 112.915053 -23.123195, 112.905271 -23.155989, 112.895485 -23.188782, 112.885695 -23.221575, 112.875899 -23.254367, 112.866098 -23.287158, 112.856293 -23.319949, 112.846483 -23.352739, 112.836668 -23.385529, 112.826848 -23.418318, 112.817023 -23.451106, 112.807194 -23.483894, 112.797359 -23.516681, 112.787520 -23.549467, 112.777675 -23.582253, 112.767826 -23.615038, 112.757972 -23.647823, 112.748113 -23.680607, 112.738249 -23.713390, 112.728380 -23.746173, 112.718506 -23.778955, 112.708627 -23.811736, 112.698743 -23.844517, 112.688854 -23.877297, 112.678960 -23.910077, 112.669061 -23.942856, 112.659157 -23.975634, 112.649248 -24.008412, 112.639334 -24.041189, 112.629415 -24.073965, 112.619490 -24.106741, 112.609561 -24.139516, 112.599627 -24.172291, 112.589687 -24.205065, 112.579742 -24.237838, 112.569793 -24.270610, 112.559838 -24.303382, 112.549878 -24.336154, 112.539913 -24.368924, 112.529942 -24.401694, 112.519967 -24.434463, 112.509986 -24.467232, 112.500000 -24.500000, 112.520732 -24.527968, 112.541473 -24.555933, 112.562223 -24.583895, 112.582983 -24.611855, 112.603752 -24.639811, 112.624530 -24.667765, 112.645318 -24.695716, 112.666114 -24.723664, 112.686921 -24.751609, 112.707736 -24.779551, 112.728561 -24.807491, 112.749395 -24.835427, 112.770239 -24.863361, 112.791092 -24.891291, 112.811955 -24.919219, 112.832827 -24.947144, 112.853708 -24.975066, 112.874599 -25.002985, 112.895500 -25.030901, 112.916410 -25.058814, 112.937329 -25.086725, 112.958258 -25.114632, 112.979197 -25.142537, 113.000145 -25.170438, 113.021103 -25.198337, 113.042070 -25.226232, 113.063047 -25.254125, 113.084034 -25.282014, 113.105030 -25.309901, 113.126036 -25.337785, 113.147052 -25.365666, 113.168077 -25.393543, 113.189112 -25.421418, 113.210157 -25.449290, 113.231211 -25.477159, 113.252275 -25.505024, 113.273349 -25.532887, 113.294433 -25.560747, 113.315527 -25.588604, 113.336630 -25.616457, 113.357744 -25.644308, 113.378867 -25.672155, 113.400000 -25.700000, 113.411244 -25.732581, 113.422495 -25.765162, 113.433751 -25.797742, 113.445014 -25.830321, 113.456283 -25.862899, 113.467558 -25.895476, 113.478840 -25.928052, 113.490127 -25.960628, 113.501421 -25.993202, 113.512721 -26.025776, 113.524028 -26.058349, 113.535340 -26.090920, 113.546659 -26.123491, 113.557985 -26.156062, 113.569316 -26.188631, 113.580654 -26.221199, 113.591999 -26.253767, 113.603350 -26.286333, 113.614707 -26.318899, 113.626070 -26.351464, 113.637440 -26.384027, 113.648816 -26.416590, 113.660199 -26.449153, 113.671588 -26.481714, 113.682984 -26.514274, 113.694386 -26.546833, 113.705794 -26.579392, 113.717209 -26.611949, 113.728631 -26.644506, 113.740059 -26.677062, 113.751494 -26.709617, 113.762935 -26.742170, 113.774382 -26.774723, 113.785837 -26.807275, 113.797297 -26.839827, 113.808765 -26.872377, 113.820239 -26.904926, 113.831719 -26.937474, 113.843207 -26.970022, 113.854701 -27.002568, 113.866201 -27.035114, 113.877708 -27.067659, 113.889222 -27.100202, 113.900743 -27.132745, 113.912270 -27.165287, 113.923804 -27.197828, 113.935345 -27.230368, 113.946892 -27.262907, 113.958447 -27.295445, 113.970008 -27.327982, 113.981576 -27.360518, 113.993150 -27.393053, 114.004732 -27.425587, 114.016320 -27.458120, 114.027915 -27.490653, 114.039517 -27.523184, 114.051126 -27.555714, 114.062742 -27.588244, 114.074364 -27.620772, 114.085994 -27.653300, 114.097630 -27.685826, 114.109273 -27.718352, 114.120924 -27.750876, 114.132581 -27.783400, 114.144245 -27.815922, 114.155917 -27.848444, 114.167595 -27.880965, 114.179280 -27.913484, 114.190972 -27.946003, 114.202672 -27.978521, 114.214378 -28.011037, 114.226092 -28.043553, 114.237812 -28.076068, 114.249540 -28.108581, 114.261274 -28.141094, 114.273016 -28.173606, 114.284765 -28.206117, 114.296522 -28.238626, 114.308285 -28.271135, 114.320055 -28.303643, 114.331833 -28.336149, 114.343618 -28.368655, 114.355410 -28.401160, 114.367210 -28.433663, 114.379016 -28.466166, 114.390830 -28.498667, 114.402651 -28.531168, 114.414480 -28.563668, 114.426316 -28.596166, 114.438159 -28.628664, 114.450009 -28.661160, 114.461867 -28.693656, 114.473732 -28.726150, 114.485604 -28.758643, 114.497484 -28.791136, 114.509372 -28.823627, 114.521266 -28.856117, 114.533169 -28.888606, 114.545078 -28.921094, 114.556995 -28.953582, 114.568920 -28.986068, 114.580852 -29.018553, 114.592792 -29.051037, 114.604739 -29.083519, 114.616693 -29.116001, 114.628656 -29.148482, 114.640625 -29.180962, 114.652603 -29.213440, 114.664588 -29.245918, 114.676580 -29.278394, 114.688580 -29.310870, 114.700588 -29.343344, 114.712604 -29.375817, 114.724627 -29.408290, 114.736657 -29.440761, 114.748696 -29.473231, 114.760742 -29.505700, 114.772796 -29.538168, 114.784858 -29.570634, 114.796927 -29.603100, 114.809005 -29.635565, 114.821090 -29.668028, 114.833182 -29.700491, 114.845283 -29.732952, 114.857392 -29.765412, 114.869508 -29.797871, 114.881632 -29.830329, 114.893764 -29.862786, 114.905904 -29.895242, 114.918052 -29.927697, 114.930208 -29.960150, 114.942371 -29.992603, 114.954543 -30.025054, 114.966723 -30.057504, 114.978910 -30.089953, 114.991106 -30.122401, 115.003310 -30.154848, 115.015521 -30.187294, 115.027741 -30.219738, 115.039969 -30.252182, 115.052205 -30.284624, 115.064449 -30.317065, 115.076701 -30.349505, 115.088961 -30.381944, 115.101230 -30.414382, 115.113506 -30.446818, 115.125791 -30.479254, 115.138084 -30.511688, 115.150385 -30.544121, 115.162694 -30.576553, 115.175012 -30.608984, 115.187337 -30.641413, 115.199671 -30.673842, 115.212014 -30.706269, 115.224364 -30.738695, 115.236723 -30.771120, 115.249091 -30.803544, 115.261466 -30.835967, 115.273850 -30.868388, 115.286243 -30.900808, 115.298644 -30.933227, 115.311053 -30.965645, 115.323470 -30.998062, 115.335896 -31.030478, 115.348331 -31.062892, 115.360774 -31.095305, 115.373225 -31.127717, 115.385685 -31.160128, 115.398154 -31.192537, 115.410631 -31.224946, 115.423117 -31.257353, 115.435611 -31.289759, 115.448114 -31.322163, 115.460625 -31.354567, 115.473145 -31.386969, 115.485674 -31.419370, 115.498211 -31.451770, 115.510757 -31.484169, 115.523312 -31.516566, 115.535875 -31.548962, 115.548447 -31.581357, 115.561028 -31.613751, 115.573618 -31.646144, 115.586216 -31.678535, 115.598824 -31.710925, 115.611440 -31.743314, 115.624065 -31.775701, 115.636698 -31.808087, 115.649341 -31.840472, 115.661992 -31.872856, 115.674653 -31.905239, 115.687322 -31.937620, 115.700000 -31.970000, 115.692293 -32.003490, 115.684580 -32.036979, 115.676862 -32.070467, 115.669138 -32.103956, 115.661409 -32.137443, 115.653674 -32.170931, 115.645933 -32.204417, 115.638186 -32.237904, 115.630434 -32.271389, 115.622676 -32.304875, 115.614912 -32.338360, 115.607143 -32.371844, 115.599367 -32.405328, 115.591586 -32.438811, 115.583799 -32.472294, 115.576007 -32.505777, 115.568208 -32.539259, 115.560404 -32.572740, 115.552594 -32.606222, 115.544778 -32.639702, 115.536956 -32.673182, 115.529129 -32.706662, 115.521295 -32.740141, 115.513456 -32.773620, 115.505610 -32.807098, 115.497759 -32.840575, 115.489902 -32.874052, 115.482039 -32.907529, 115.474170 -32.941005, 115.466295 -32.974481, 115.458414 -33.007956, 115.450527 -33.041431, 115.442634 -33.074905, 115.434735 -33.108379, 115.426830 -33.141852, 115.418919 -33.175325, 115.411002 -33.208797, 115.403079 -33.242268, 115.395150 -33.275740, 115.387215 -33.309210, 115.379273 -33.342681, 115.371326 -33.376150, 115.363372 -33.409619, 115.355412 -33.443088, 115.347447 -33.476556, 115.339475 -33.510024, 115.331496 -33.543491, 115.323512 -33.576958, 115.315522 -33.610424, 115.307525 -33.643889, 115.299522 -33.677354, 115.291513 -33.710819, 115.283497 -33.744283, 115.275475 -33.777746, 115.267447 -33.811209, 115.259413 -33.844672, 115.251373 -33.878134, 115.243326 -33.911595, 115.235273 -33.945056, 115.227213 -33.978517, 115.219147 -34.011977, 115.211075 -34.045436, 115.202996 -34.078895, 115.194911 -34.112353, 115.186820 -34.145811, 115.178722 -34.179268, 115.170618 -34.212725, 115.162507 -34.246181, 115.154390 -34.279636, 115.146267 -34.313091, 115.138137 -34.346546, 115.130000 -34.380000, 115.169247 -34.390142, 115.208503 -34.400272, 115.247769 -34.410389, 115.287044 -34.420493, 115.326329 -34.430585, 115.365623 -34.440665, 115.404927 -34.450731, 115.444240 -34.460786, 115.483563 -34.470827, 115.522895 -34.480856, 115.562237 -34.490873, 115.601588 -34.500877, 115.640948 -34.510868, 115.680318 -34.520847, 115.719697 -34.530813, 115.759086 -34.540766, 115.798484 -34.550707, 115.837892 -34.560635, 115.877309 -34.570550, 115.916735 -34.580453, 115.956171 -34.590343, 115.995616 -34.600220, 116.035071 -34.610084, 116.074534 -34.619936, 116.114008 -34.629776, 116.153490 -34.639602, 116.192982 -34.649416, 116.232484 -34.659217, 116.271994 -34.669005, 116.311514 -34.678781, 116.351044 -34.688543, 116.390582 -34.698293, 116.430130 -34.708031, 116.469687 -34.717755, 116.509254 -34.727467, 116.548830 -34.737166, 116.588415 -34.746852, 116.628009 -34.756525, 116.667613 -34.766185, 116.707226 -34.775833, 116.746848 -34.785468, 116.786480 -34.795090, 116.826120 -34.804699, 116.865770 -34.814295, 116.905429 -34.823878, 116.945098 -34.833449, 116.984775 -34.843006, 117.024462 -34.852551, 117.064158 -34.862083, 117.103863 -34.871602, 117.143578 -34.881108, 117.183301 -34.890601, 117.223034 -34.900081, 117.262776 -34.909548, 117.302527 -34.919003, 117.342287 -34.928444, 117.382057 -34.937872, 117.421835 -34.947288, 117.461623 -34.956690, 117.501420 -34.966080, 117.541226 -34.975456, 117.581041 -34.984820, 117.620865 -34.994170, 117.660698 -35.003508, 117.700540 -35.012832, 117.740392 -35.022144, 117.780252 -35.031442, 117.820121 -35.040728, 117.860000 -35.050000, 117.899391 -35.039198, 117.938771 -35.028384, 117.978141 -35.017556, 118.017501 -35.006716, 118.056850 -34.995864, 118.096189 -34.984998, 118.135517 -34.974120, 118.174835 -34.963229, 118.214142 -34.952326, 118.253439 -34.941410, 118.292726 -34.930481, 118.332002 -34.919540, 118.371267 -34.908586, 118.410522 -34.897619, 118.449767 -34.886640, 118.489001 -34.875648, 118.528224 -34.864643, 118.567438 -34.853626, 118.606640 -34.842597, 118.645832 -34.831555, 118.685014 -34.820500, 118.724185 -34.809432, 118.763345 -34.798353, 118.802495 -34.787260, 118.841634 -34.776155, 118.880763 -34.765038, 118.919882 -34.753908, 118.958989 -34.742765, 118.998087 -34.731610, 119.037173 -34.720443, 119.076249 -34.709263, 119.115315 -34.698070, 119.154370 -34.686865, 119.193414 -34.675648, 119.232448 -34.664418, 119.271471 -34.653176, 119.310484 -34.641921, 119.349486 -34.630654, 119.388477 -34.619375, 119.427458 -34.608083, 119.466428 -34.596779, 119.505388 -34.585462, 119.544337 -34.574133, 119.583275 -34.562792, 119.622203 -34.551438, 119.661120 -34.540072, 119.700027 -34.528693, 119.738922 -34.517302, 119.777808 -34.505899, 119.816682 -34.494484, 119.855546 -34.483056, 119.894399 -34.471616, 119.933242 -34.460164, 119.972074 -34.448699, 120.010895 -34.437222, 120.049706 -34.425733, 120.088506 -34.414232, 120.127295 -34.402718, 120.166074 -34.391192, 120.204842 -34.379654, 120.243599 -34.368103, 120.282345 -34.356541, 120.321081 -34.344966, 120.359806 -34.333379, 120.398521 -34.321780, 120.437224 -34.310169, 120.475917 -34.298545, 120.514600 -34.286910, 120.553271 -34.275262, 120.591932 -34.263602, 120.630582 -34.251930, 120.669222 -34.240245, 120.707850 -34.228549, 120.746468 -34.216841, 120.785076 -34.205120, 120.823672 -34.193388, 120.862258 -34.181643, 120.900833 -34.169886, 120.939397 -34.158117, 120.977951 -34.146336, 121.016493 -34.134543, 121.055025 -34.122738, 121.093546 -34.110921, 121.132057 -34.099092, 121.170557 -34.087251, 121.209045 -34.075398, 121.247524 -34.063533, 121.285991 -34.051656, 121.324447 -34.039767, 121.362893 -34.027866, 121.401328 -34.015953, 121.439752 -34.004028, 121.478166 -33.992091, 121.516568 -33.980142, 121.554960 -33.968182, 121.593341 -33.956209, 121.631711 -33.944224, 121.670071 -33.932228, 121.708419 -33.920220, 121.746757 -33.908200, 121.785084 -33.896167, 121.823400 -33.884123, 121.861706 -33.872068, 121.900000 -33.860000, 121.941039 -33.859515, 121.982077 -33.859017, 122.023114 -33.858505, 122.064152 -33.857979, 122.105188 -33.857440, 122.146224 -33.856887, 122.187260 -33.856321, 122.228295 -33.855741, 122.269330 -33.855147, 122.310363 -33.854540, 122.351397 -33.853919, 122.392429 -33.853285, 122.433462 -33.852637, 122.474493 -33.851975, 122.515524 -33.851300, 122.556554 -33.850612, 122.597584 -33.849909, 122.638612 -33.849193, 122.679640 -33.848464, 122.720668 -33.847721, 122.761695 -33.846964, 122.802721 -33.846194, 122.843746 -33.845410, 122.884770 -33.844612, 122.925794 -33.843801, 122.966817 -33.842977, 123.007839 -33.842139, 123.048860 -33.841287, 123.089881 -33.840421, 123.130900 -33.839542, 123.171919 -33.838650, 123.212937 -33.837744, 123.253954 -33.836824, 123.294970 -33.835891, 123.335985 -33.834944, 123.377000 -33.833983, 123.418013 -33.833009, 123.459026 -33.832022, 123.500037 -33.831020, 123.541048 -33.830006, 123.582057 -33.828977, 123.623066 -33.827935, 123.664073 -33.826880, 123.705080 -33.825811, 123.746085 -33.824728, 123.787090 -33.823632, 123.828093 -33.822522, 123.869096 -33.821399, 123.910097 -33.820262, 123.951097 -33.819111, 123.992096 -33.817947, 124.033094 -33.816770, 124.074091 -33.815579, 124.115086 -33.814374, 124.156081 -33.813156, 124.197074 -33.811924, 124.238066 -33.810678, 124.279057 -33.809419, 124.320047 -33.808147, 124.361035 -33.806861, 124.402023 -33.805561, 124.443009 -33.804248, 124.483993 -33.802921, 124.524977 -33.801581, 124.565959 -33.800227, 124.606940 -33.798859, 124.647919 -33.797479, 124.688898 -33.796084, 124.729875 -33.794676, 124.770850 -33.793254, 124.811824 -33.791819, 124.852797 -33.790370, 124.893768 -33.788908, 124.934738 -33.787432, 124.975707 -33.785943, 125.016674 -33.784440, 125.057640 -33.782924, 125.098604 -33.781394, 125.139567 -33.779851, 125.180528 -33.778294, 125.221488 -33.776723, 125.262446 -33.775139, 125.303403 -33.773541, 125.344358 -33.771930, 125.385312 -33.770306, 125.426264 -33.768667, 125.467214 -33.767016, 125.508163 -33.765350, 125.549110 -33.763672, 125.590056 -33.761979, 125.631000 -33.760274, 125.671943 -33.758554, 125.712884 -33.756822, 125.753823 -33.755075, 125.794760 -33.753315, 125.835696 -33.751542, 125.876630 -33.749755, 125.917563 -33.747955, 125.958493 -33.746141, 125.999422 -33.744314, 126.040349 -33.742473, 126.081275 -33.740618, 126.122198 -33.738750, 126.163120 -33.736869, 126.204040 -33.734974, 126.244959 -33.733066, 126.285875 -33.731144, 126.326790 -33.729208, 126.367702 -33.727260, 126.408613 -33.725297, 126.449522 -33.723321, 126.490429 -33.721332, 126.531334 -33.719329, 126.572238 -33.717313, 126.613139 -33.715283, 126.654038 -33.713240, 126.694936 -33.711183, 126.735831 -33.709113, 126.776725 -33.707029, 126.817616 -33.704932, 126.858506 -33.702821, 126.899393 -33.700697, 126.940279 -33.698560, 126.981162 -33.696409, 127.022044 -33.694244, 127.062923 -33.692066, 127.103800 -33.689875, 127.144675 -33.687670, 127.185548 -33.685452, 127.226419 -33.683220, 127.267288 -33.680974, 127.308155 -33.678716, 127.349019 -33.676444, 127.389882 -33.674158, 127.430742 -33.671859, 127.471600 -33.669546, 127.512455 -33.667220, 127.553309 -33.664881, 127.594160 -33.662528, 127.635009 -33.660162, 127.675856 -33.657782, 127.716701 -33.655389, 127.757543 -33.652983, 127.798383 -33.650563, 127.839221 -33.648129, 127.880056 -33.645682, 127.920889 -33.643222, 127.961720 -33.640748, 128.002548 -33.638261, 128.043374 -33.635761, 128.084198 -33.633247, 128.125019 -33.630720, 128.165838 -33.628179, 128.206654 -33.625625, 128.247468 -33.623057, 128.288280 -33.620476, 128.329089 -33.617882, 128.369895 -33.615274, 128.410699 -33.612653, 128.451501 -33.610018, 128.492300 -33.607370, 128.533097 -33.604709, 128.573891 -33.602034, 128.614683 -33.599346, 128.655472 -33.596644, 128.696258 -33.593929, 128.737042 -33.591201, 128.777823 -33.588460, 128.818602 -33.585704, 128.859378 -33.582936, 128.900152 -33.580154, 128.940922 -33.577359, 128.981691 -33.574551, 129.022456 -33.571729, 129.063219 -33.568893, 129.103979 -33.566045, 129.144737 -33.563183, 129.185492 -33.560308, 129.226244 -33.557419, 129.266993 -33.554517, 129.307740 -33.551601, 129.348483 -33.548673, 129.389224 -33.545731, 129.429963 -33.542775, 129.470698 -33.539806, 129.511431 -33.536824, 129.552161 -33.533829, 129.592888 -33.530820, 129.633612 -33.527798, 129.674333 -33.524763, 129.715052 -33.521714, 129.755767 -33.518652, 129.796480 -33.515577, 129.837190 -33.512488, 129.877897 -33.509386, 129.918601 -33.506271, 129.959302 -33.503142, 130.000000 -33.500000, 130.037735 -33.486808, 130.075459 -33.473605, 130.113172 -33.460390, 130.150872 -33.447164, 130.188562 -33.433927, 130.226240 -33.420678, 130.263906 -33.407418, 130.301561 -33.394146, 130.339204 -33.380864, 130.376836 -33.367569, 130.414456 -33.354264, 130.452065 -33.340947, 130.489663 -33.327618, 130.527248 -33.314279, 130.564823 -33.300928, 130.602386 -33.287565, 130.639937 -33.274192, 130.677477 -33.260807, 130.715005 -33.247411, 130.752522 -33.234004, 130.790027 -33.220585, 130.827521 -33.207155, 130.865003 -33.193714, 130.902474 -33.180261, 130.939933 -33.166798, 130.977381 -33.153323, 131.014817 -33.139837, 131.052242 -33.126340, 131.089655 -33.112832, 131.127057 -33.099312, 131.164447 -33.085781, 131.201826 -33.072239, 131.239193 -33.058686, 131.276548 -33.045122, 131.313893 -33.031547, 131.351225 -33.017960, 131.388546 -33.004363, 131.425856 -32.990754, 131.463154 -32.977135, 131.500441 -32.963504, 131.537716 -32.949862, 131.574979 -32.936209, 131.612232 -32.922545, 131.649472 -32.908870, 131.686701 -32.895184, 131.723919 -32.881487, 131.761125 -32.867779, 131.798319 -32.854060, 131.835502 -32.840329, 131.872674 -32.826588, 131.909834 -32.812836, 131.946983 -32.799073, 131.984120 -32.785299, 132.021245 -32.771514, 132.058359 -32.757718, 132.095462 -32.743911, 132.132553 -32.730093, 132.169632 -32.716265, 132.206700 -32.702425, 132.243757 -32.688575, 132.280802 -32.674713, 132.317835 -32.660841, 132.354857 -32.646958, 132.391868 -32.633064, 132.428867 -32.619159, 132.465854 -32.605243, 132.502830 -32.591316, 132.539795 -32.577379, 132.576748 -32.563431, 132.613690 -32.549472, 132.650620 -32.535502, 132.687538 -32.521521, 132.724445 -32.507530, 132.761341 -32.493528, 132.798225 -32.479515, 132.835098 -32.465491, 132.871959 -32.451457, 132.908808 -32.437412, 132.945647 -32.423356, 132.982473 -32.409289, 133.019289 -32.395212, 133.056092 -32.381124, 133.092884 -32.367025, 133.129665 -32.352916, 133.166435 -32.338796, 133.203192 -32.324665, 133.239939 -32.310524, 133.276674 -32.296372, 133.313397 -32.282209, 133.350109 -32.268036, 133.386809 -32.253852, 133.423498 -32.239658, 133.460176 -32.225452, 133.496842 -32.211237, 133.533496 -32.197011, 133.570139 -32.182774, 133.606771 -32.168526, 133.643391 -32.154268, 133.680000 -32.140000, 133.702869 -32.168049, 133.725752 -32.196094, 133.748649 -32.224135, 133.771560 -32.252171, 133.794486 -32.280204, 133.817425 -32.308232, 133.840379 -32.336256, 133.863347 -32.364276, 133.886329 -32.392292, 133.909326 -32.420304, 133.932336 -32.448311, 133.955361 -32.476314, 133.978401 -32.504314, 134.001455 -32.532308, 134.024523 -32.560299, 134.047605 -32.588286, 134.070702 -32.616268, 134.093813 -32.644246, 134.116939 -32.672220, 134.140080 -32.700189, 134.163234 -32.728155, 134.186404 -32.756116, 134.209588 -32.784072, 134.232786 -32.812025, 134.255999 -32.839973, 134.279227 -32.867917, 134.302469 -32.895857, 134.325726 -32.923792, 134.348998 -32.951723, 134.372284 -32.979650, 134.395586 -33.007572, 134.418901 -33.035490, 134.442232 -33.063404, 134.465578 -33.091313, 134.488938 -33.119218, 134.512313 -33.147119, 134.535703 -33.175015, 134.559108 -33.202907, 134.582528 -33.230795, 134.605963 -33.258678, 134.629412 -33.286556, 134.652877 -33.314431, 134.676357 -33.342301, 134.699852 -33.370166, 134.723361 -33.398027, 134.746886 -33.425884, 134.770426 -33.453736, 134.793981 -33.481584, 134.817552 -33.509427, 134.841137 -33.537266, 134.864738 -33.565100, 134.888354 -33.592930, 134.911985 -33.620755, 134.935631 -33.648576, 134.959293 -33.676393, 134.982970 -33.704205, 135.006662 -33.732012, 135.030370 -33.759815, 135.054093 -33.787613, 135.077831 -33.815407, 135.101585 -33.843196, 135.125354 -33.870981, 135.149139 -33.898761, 135.172940 -33.926536, 135.196755 -33.954307, 135.220587 -33.982073, 135.244434 -34.009835, 135.268296 -34.037592, 135.292175 -34.065345, 135.316068 -34.093092, 135.339978 -34.120836, 135.363903 -34.148574, 135.387844 -34.176308, 135.411801 -34.204038, 135.435773 -34.231762, 135.459761 -34.259482, 135.483765 -34.287198, 135.507785 -34.314908, 135.531821 -34.342614, 135.555872 -34.370315, 135.579940 -34.398012, 135.604023 -34.425704, 135.628123 -34.453391, 135.652238 -34.481073, 135.676370 -34.508751, 135.700517 -34.536424, 135.724680 -34.564092, 135.748860 -34.591755, 135.773056 -34.619414, 135.797268 -34.647067, 135.821496 -34.674716, 135.845740 -34.702361, 135.870000 -34.730000, 135.906772 -34.744999, 135.943557 -34.759986, 135.980355 -34.774963, 136.017167 -34.789928, 136.053992 -34.804883, 136.090830 -34.819826, 136.127682 -34.834758, 136.164547 -34.849679, 136.201425 -34.864589, 136.238317 -34.879488, 136.275223 -34.894375, 136.312141 -34.909252, 136.349073 -34.924117, 136.386019 -34.938971, 136.422977 -34.953814, 136.459949 -34.968646, 136.496935 -34.983466, 136.533934 -34.998276, 136.570946 -35.013074, 136.607972 -35.027861, 136.645011 -35.042636, 136.682063 -35.057401, 136.719129 -35.072154, 136.756209 -35.086895, 136.793301 -35.101626, 136.830407 -35.116345, 136.867527 -35.131053, 136.904660 -35.145750, 136.941806 -35.160435, 136.978966 -35.175109, 137.016139 -35.189771, 137.053325 -35.204422, 137.090525 -35.219062, 137.127739 -35.233691, 137.164965 -35.248308, 137.202205 -35.262913, 137.239459 -35.277507, 137.276726 -35.292090, 137.314007 -35.306662, 137.351301 -35.321221, 137.388608 -35.335770, 137.425929 -35.350307, 137.463263 -35.364832, 137.500610 -35.379346, 137.537971 -35.393849, 137.575346 -35.408340, 137.612734 -35.422819, 137.650135 -35.437287, 137.687550 -35.451744, 137.724978 -35.466189, 137.762420 -35.480622, 137.799875 -35.495044, 137.837344 -35.509454, 137.874826 -35.523852, 137.912321 -35.538239, 137.949830 -35.552615, 137.987352 -35.566979, 138.024888 -35.581331, 138.062437 -35.595671, 138.100000 -35.610000, 138.126182 -35.636272, 138.152382 -35.662538, 138.178598 -35.688798, 138.204832 -35.715053, 138.231083 -35.741301, 138.257352 -35.767545, 138.283638 -35.793782, 138.309941 -35.820014, 138.336262 -35.846240, 138.362600 -35.872460, 138.388955 -35.898675, 138.415328 -35.924884, 138.441718 -35.951087, 138.468126 -35.977284, 138.494552 -36.003475, 138.520995 -36.029661, 138.547455 -36.055841, 138.573934 -36.082015, 138.600430 -36.108183, 138.626943 -36.134345, 138.653474 -36.160502, 138.680023 -36.186653, 138.706590 -36.212797, 138.733174 -36.238936, 138.759776 -36.265069, 138.786396 -36.291196, 138.813034 -36.317318, 138.839690 -36.343433, 138.866363 -36.369542, 138.893055 -36.395646, 138.919764 -36.421743, 138.946491 -36.447835, 138.973237 -36.473920, 139.000000 -36.500000, 139.015428 -36.531281, 139.030868 -36.562561, 139.046321 -36.593838, 139.061786 -36.625114, 139.077264 -36.656387, 139.092754 -36.687659, 139.108257 -36.718928, 139.123773 -36.750196, 139.139301 -36.781461, 139.154842 -36.812724, 139.170396 -36.843986, 139.185963 -36.875245, 139.201542 -36.906502, 139.217134 -36.937758, 139.232738 -36.969011, 139.248356 -37.000262, 139.263986 -37.031511, 139.279630 -37.062758, 139.295286 -37.094003, 139.310955 -37.125246, 139.326637 -37.156487, 139.342332 -37.187726, 139.358040 -37.218963, 139.373761 -37.250198, 139.389495 -37.281430, 139.405242 -37.312661, 139.421002 -37.343889, 139.436775 -37.375116, 139.452562 -37.406340, 139.468361 -37.437562, 139.484174 -37.468782, 139.500000 -37.500000, 139.526388 -37.526753, 139.552796 -37.553501, 139.579222 -37.580242, 139.605667 -37.606978, 139.632131 -37.633707, 139.658615 -37.660431, 139.685117 -37.687149, 139.711639 -37.713861, 139.738179 -37.740567, 139.764739 -37.767267, 139.791318 -37.793961, 139.817916 -37.820649, 139.844533 -37.847331, 139.871170 -37.874007, 139.897826 -37.900677, 139.924501 -37.927341, 139.951196 -37.953999, 139.977910 -37.980651, 140.004643 -38.007297, 140.031396 -38.033937, 140.058169 -38.060570, 140.084960 -38.087198, 140.111772 -38.113820, 140.138603 -38.140435, 140.165453 -38.167045, 140.192323 -38.193648, 140.219213 -38.220245, 140.246122 -38.246836, 140.273051 -38.273421, 140.300000 -38.300000, 140.340321 -38.311061, 140.380654 -38.322109, 140.420999 -38.333143, 140.461357 -38.344163, 140.501727 -38.355169, 140.542109 -38.366161, 140.582503 -38.377139, 140.622910 -38.388104, 140.663329 -38.399054, 140.703760 -38.409991, 140.744203 -38.420914, 140.784659 -38.431823, 140.825126 -38.442718, 140.865606 -38.453599, 140.906099 -38.464466, 140.946603 -38.475319, 140.987120 -38.486159, 141.027648 -38.496984, 141.068189 -38.507795, 141.108743 -38.518593, 141.149308 -38.529376, 141.189885 -38.540146, 141.230475 -38.550901, 141.271077 -38.561642, 141.311690 -38.572370, 141.352316 -38.583083, 141.392955 -38.593782, 141.433605 -38.604467, 141.474267 -38.615139, 141.514941 -38.625796, 141.555628 -38.636439, 141.596326 -38.647067, 141.637037 -38.657682, 141.677760 -38.668283, 141.718494 -38.678869, 141.759241 -38.689442, 141.800000 -38.700000, 141.842654 -38.704303, 141.885314 -38.708591, 141.927978 -38.712863, 141.970648 -38.717120, 142.013323 -38.721361, 142.056003 -38.725587, 142.098687 -38.729797, 142.141377 -38.733992, 142.184072 -38.738171, 142.226772 -38.742334, 142.269477 -38.746482, 142.312186 -38.750615, 142.354901 -38.754732, 142.397621 -38.758833, 142.440345 -38.762919, 142.483075 -38.766989, 142.525809 -38.771044, 142.568548 -38.775083, 142.611292 -38.779107, 142.654041 -38.783115, 142.696794 -38.787107, 142.739553 -38.791084, 142.782316 -38.795046, 142.825084 -38.798991, 142.867856 -38.802922, 142.910633 -38.806836, 142.953415 -38.810735, 142.996202 -38.814618, 143.038993 -38.818486, 143.081789 -38.822338, 143.124590 -38.826175, 143.167395 -38.829996, 143.210205 -38.833801, 143.253019 -38.837590, 143.295838 -38.841365, 143.338661 -38.845123, 143.381489 -38.848866, 143.424322 -38.852593, 143.467159 -38.856304, 143.510000 -38.860000, 143.546224 -38.841734, 143.582430 -38.823456, 143.618617 -38.805168, 143.654785 -38.786868, 143.690935 -38.768557, 143.727066 -38.750235, 143.763179 -38.731902, 143.799273 -38.713558, 143.835349 -38.695203, 143.871406 -38.676836, 143.907445 -38.658459, 143.943465 -38.640071, 143.979466 -38.621671, 144.015449 -38.603260, 144.051414 -38.584839, 144.087360 -38.566406, 144.123288 -38.547963, 144.159198 -38.529508, 144.195089 -38.511043, 144.230961 -38.492566, 144.266815 -38.474079, 144.302651 -38.455581, 144.338469 -38.437072, 144.374268 -38.418551, 144.410048 -38.400021, 144.445811 -38.381479, 144.481555 -38.362926, 144.517280 -38.344362, 144.552988 -38.325788, 144.588677 -38.307203, 144.624348 -38.288607, 144.660000 -38.270000)
