LINESTRING (7.748000 46.024000, 7.748310 46.024870, 7.748620 46.025740, 7.748930 46.026610, 7.749240 46.027481, 7.749549 46.028351, 7.749859 46.029221, 7.750169 46.030091, 7.750479 46.030961, 7.750789 46.031831, 7.751099 46.032701, 7.751409 46.033571, 7.751719 46.034442, 7.752029 46.035312, 7.752339 46.036182, 7.752649 46.037052, 7.752959 46.037922, 7.753269 46.038792, 7.753579 46.039662, 7.753889 46.040532, 7.754199 46.041402, 7.754509 46.042273, 7.754819 46.043143, 7.755130 46.044013, 7.755440 46.044883, 7.755750 46.045753, 7.756060 46.046623, 7.756370 46.047493, 7.756680 46.048363, 7.756990 46.049233, 7.757300 46.050104, 7.757611 46.050974, 7.757921 46.051844, 7.758231 46.052714, 7.758541 46.053584, 7.758851 46.054454, 7.759162 46.055324, 7.759472 46.056194, 7.759782 46.057064, 7.760092 46.057934, 7.760403 46.058805, 7.760713 46.059675, 7.761023 46.060545, 7.761333 46.061415, 7.761644 46.062285, 7.761954 46.063155, 7.762264 46.064025, 7.762575 46.064895, 7.762885 46.065765, 7.763195 46.066635, 7.763506 46.067505, 7.763816 46.068376, 7.764126 46.069246, 7.764437 46.070116, 7.764747 46.070986, 7.765058 46.071856, 7.765368 46.072726, 7.765678 46.073596, 7.765989 46.074466, 7.766299 46.075336, 7.766610 46.076206, 7.766920 46.077076, 7.767231 46.077947, 7.767541 46.078817, 7.767852 46.079687, 7.768162 46.080557, 7.768473 46.081427, 7.768783 46.082297, 7.769094 46.083167, 7.769404 46.084037, 7.769715 46.084907, 7.770025 46.085777, 7.770336 46.086647, 7.770646 46.087517, 7.770957 46.088387, 7.771268 46.089257, 7.771578 46.090128, 7.771889 46.090998, 7.772199 46.091868, 7.772510 46.092738, 7.772821 46.093608, 7.773131 46.094478, 7.773442 46.095348, 7.773753 46.096218, 7.774063 46.097088, 7.774374 46.097958, 7.774685 46.098828, 7.774996 46.099698, 7.775306 46.100568, 7.775617 46.101438, 7.775928 46.102308, 7.776238 46.103178, 7.776549 46.104048, 7.776860 46.104919, 7.777171 46.105789, 7.777482 46.106659, 7.777792 46.107529, 7.778103 46.108399, 7.778414 46.109269, 7.778725 46.110139, 7.779036 46.111009, 7.779347 46.111879, 7.779657 46.112749, 7.779968 46.113619, 7.780279 46.114489, 7.780590 46.115359, 7.780901 46.116229, 7.781212 46.117099, 7.781523 46.117969, 7.781834 46.118839, 7.782145 46.119709, 7.782456 46.120579, 7.782767 46.121449, 7.783078 46.122319, 7.783388 46.123189, 7.783699 46.124060, 7.784010 46.124930, 7.784321 46.125800, 7.784633 46.126670, 7.784944 46.127540, 7.785255 46.128410, 7.785566 46.129280, 7.785877 46.130150, 7.786188 46.131020, 7.786499 46.131890, 7.786810 46.132760, 7.787121 46.133630, 7.787432 46.134500, 7.787743 46.135370, 7.788054 46.136240, 7.788365 46.137110, 7.788677 46.137980, 7.788988 46.138850, 7.789299 46.139720, 7.789610 46.140590, 7.789921 46.141460, 7.790233 46.142330, 7.790544 46.143200, 7.790855 46.144070, 7.791166 46.144940, 7.791477 46.145810, 7.791789 46.146680, 7.792100 46.147550, 7.792411 46.148420, 7.792722 46.149290, 7.793034 46.150160, 7.793345 46.151030, 7.793656 46.151900, 7.793968 46.152770, 7.794279 46.153640, 7.794590 46.154510, 7.794902 46.155380, 7.795213 46.156250, 7.795524 46.157120, 7.795836 46.157990, 7.796147 46.158860, 7.796458 46.159730, 7.796770 46.160600, 7.797081 46.161470, 7.797393 46.162340, 7.797704 46.163210, 7.798016 46.164080, 7.798327 46.164950, 7.798639 46.165820, 7.798950 46.166690, 7.799261 46.167560, 7.799573 46.168430, 7.799884 46.169300, 7.800196 46.170170, 7.800507 46.171040, 7.800819 46.171910, 7.801131 46.172780, 7.801442 46.173650, 7.801754 46.174520, 7.802065 46.175390, 7.802377 46.176260, 7.802688 46.177130, 7.803000 46.178000, 7.803555 46.178810, 7.804110 46.179620, 7.804666 46.180430, 7.805221 46.181240, 7.805776 46.182050, 7.806331 46.182860, 7.806887 46.183670, 7.807442 46.184480, 7.807997 46.185290, 7.808553 46.186100, 7.809108 46.186910, 7.809663 46.187720, 7.810219 46.188530, 7.810774 46.189340, 7.811329 46.190150, 7.811885 46.190960, 7.812440 46.191770, 7.812996 46.192580, 7.813551 46.193390, 7.814107 46.194200, 7.814662 46.195010, 7.815218 46.195820, 7.815773 46.196630, 7.816329 46.197440, 7.816884 46.198250, 7.817440 46.199060, 7.817996 46.199870, 7.818551 46.200680, 7.819107 46.201490, 7.819663 46.202300, 7.820218 46.203110, 7.820774 46.203920, 7.821330 46.204730, 7.821885 46.205540, 7.822441 46.206350, 7.822997 46.207160, 7.823553 46.207970, 7.824108 46.208780, 7.824664 46.209590, 7.825220 46.210400, 7.825776 46.211210, 7.826332 46.212020, 7.826888 46.212830, 7.827443 46.213640, 7.827999 46.214450, 7.828555 46.215259, 7.829111 46.216069, 7.829667 46.216879, 7.830223 46.217689, 7.830779 46.218499, 7.831335 46.219309, 7.831891 46.220119, 7.832447 46.220929, 7.833003 46.221739, 7.833559 46.222549, 7.834115 46.223359, 7.834671 46.224169, 7.835228 46.224978, 7.835784 46.225788, 7.836340 46.226598, 7.836896 46.227408, 7.837452 46.228218, 7.838008 46.229028, 7.838565 46.229838, 7.839121 46.230648, 7.839677 46.231457, 7.840233 46.232267, 7.840790 46.233077, 7.841346 46.233887, 7.841902 46.234697, 7.842459 46.235507, 7.843015 46.236317, 7.843571 46.237127, 7.844128 46.237936, 7.844684 46.238746, 7.845241 46.239556, 7.845797 46.240366, 7.846353 46.241176, 7.846910 46.241986, 7.847466 46.242795, 7.848023 46.243605, 7.848579 46.244415, 7.849136 46.245225, 7.849692 46.246035, 7.850249 46.246845, 7.850806 46.247654, 7.851362 46.248464, 7.851919 46.249274, 7.852475 46.250084, 7.853032 46.250894, 7.853589 46.251703, 7.854145 46.252513, 7.854702 46.253323, 7.855259 46.254133, 7.855815 46.254943, 7.856372 46.255752, 7.856929 46.256562, 7.857486 46.257372, 7.858042 46.258182, 7.858599 46.258992, 7.859156 46.259801, 7.859713 46.260611, 7.860270 46.261421, 7.860827 46.262231, 7.861384 46.263040, 7.861940 46.263850, 7.862497 46.264660, 7.863054 46.265470, 7.863611 46.266280, 7.864168 46.267089, 7.864725 46.267899, 7.865282 46.268709, 7.865839 46.269519, 7.866396 46.270328, 7.866953 46.271138, 7.867510 46.271948, 7.868068 46.272757, 7.868625 46.273567, 7.869182 46.274377, 7.869739 46.275187, 7.870296 46.275996, 7.870853 46.276806, 7.871410 46.277616, 7.871968 46.278426, 7.872525 46.279235, 7.873082 46.280045, 7.873639 46.280855, 7.874197 46.281664, 7.874754 46.282474, 7.875311 46.283284, 7.875868 46.284093, 7.876426 46.284903, 7.876983 46.285713, 7.877540 46.286523, 7.878098 46.287332, 7.878655 46.288142, 7.879213 46.288952, 7.879770 46.289761, 7.880328 46.290571, 7.880885 46.291381, 7.881443 46.292190, 7.882000 46.293000, 7.883218 46.293299, 7.884436 46.293599, 7.885653 46.293898, 7.886871 46.294198, 7.888089 46.294497, 7.889307 46.294796, 7.890525 46.295096, 7.891743 46.295395, 7.892961 46.295694, 7.894179 46.295993, 7.895397 46.296293, 7.896615 46.296592, 7.897833 46.296891, 7.899051 46.297191, 7.900269 46.297490, 7.901487 46.297789, 7.902705 46.298088, 7.903923 46.298387, 7.905141 46.298687, 7.906359 46.298986, 7.907577 46.299285, 7.908795 46.299584, 7.910013 46.299883, 7.911231 46.300182, 7.912449 46.300481, 7.913668 46.300780, 7.914886 46.301079, 7.916104 46.301379, 7.917322 46.301678, 7.918540 46.301977, 7.919759 46.302276, 7.920977 46.302575, 7.922195 46.302874, 7.923413 46.303173, 7.924632 46.303472, 7.925850 46.303770, 7.927068 46.304069, 7.928286 46.304368, 7.929505 46.304667, 7.930723 46.304966, 7.931941 46.305265, 7.933160 46.305564, 7.934378 46.305863, 7.935597 46.306162, 7.936815 46.306461, 7.938033 46.306759, 7.939252 46.307058, 7.940470 46.307357, 7.941689 46.307656, 7.942907 46.307954, 7.944126 46.308253, 7.945344 46.308552, 7.946563 46.308851, 7.947781 46.309149, 7.949000 46.309448, 7.950218 46.309747, 7.951437 46.310046, 7.952655 46.310344, 7.953874 46.310643, 7.955093 46.310942, 7.956311 46.311240, 7.957530 46.311539, 7.958749 46.311837, 7.959967 46.312136, 7.961186 46.312435, 7.962405 46.312733, 7.963623 46.313032, 7.964842 46.313330, 7.966061 46.313629, 7.967279 46.313927, 7.968498 46.314226, 7.969717 46.314524, 7.970936 46.314823, 7.972155 46.315121, 7.973373 46.315420, 7.974592 46.315718, 7.975811 46.316016, 7.977030 46.316315, 7.978249 46.316613, 7.979468 46.316912, 7.980686 46.317210, 7.981905 46.317508, 7.983124 46.317807, 7.984343 46.318105, 7.985562 46.318403, 7.986781 46.318702, 7.988000 46.319000, 7.988967 46.319590, 7.989933 46.320181, 7.990900 46.320771, 7.991866 46.321362, 7.992833 46.321952, 7.993800 46.322542, 7.994767 46.323133, 7.995733 46.323723, 7.996700 46.324313, 7.997667 46.324904, 7.998634 46.325494, 7.999600 46.326084, 8.000567 46.326675, 8.001534 46.327265, 8.002501 46.327855, 8.003468 46.328446, 8.004435 46.329036, 8.005402 46.329626, 8.006369 46.330216, 8.007336 46.330807, 8.008303 46.331397, 8.009270 46.331987, 8.010237 46.332577, 8.011204 46.333168, 8.012171 46.333758, 8.013138 46.334348, 8.014105 46.334938, 8.015072 46.335528, 8.016039 46.336119, 8.017007 46.336709, 8.017974 46.337299, 8.018941 46.337889, 8.019908 46.338479, 8.020876 46.339069, 8.021843 46.339659, 8.022810 46.340250, 8.023778 46.340840, 8.024745 46.341430, 8.025712 46.342020, 8.026680 46.342610, 8.027647 46.343200, 8.028615 46.343790, 8.029582 46.344380, 8.030550 46.344970, 8.031517 46.345560, 8.032485 46.346150, 8.033452 46.346740, 8.034420 46.347330, 8.035387 46.347920, 8.036355 46.348510, 8.037323 46.349100, 8.038290 46.349690, 8.039258 46.350280, 8.040226 46.350870, 8.041193 46.351460, 8.042161 46.352050, 8.043129 46.352640, 8.044097 46.353230, 8.045064 46.353820, 8.046032 46.354410, 8.047000 46.355000, 8.048034 46.355542, 8.049069 46.356083, 8.050103 46.356625, 8.051138 46.357166, 8.052172 46.357708, 8.053207 46.358249, 8.054241 46.358791, 8.055276 46.359332, 8.056311 46.359874, 8.057345 46.360415, 8.058380 46.360957, 8.059415 46.361498, 8.060449 46.362040, 8.061484 46.362581, 8.062519 46.363123, 8.063553 46.363664, 8.064588 46.364205, 8.065623 46.364747, 8.066658 46.365288, 8.067693 46.365830, 8.068727 46.366371, 8.069762 46.366912, 8.070797 46.367454, 8.071832 46.367995, 8.072867 46.368536, 8.073902 46.369078, 8.074937 46.369619, 8.075972 46.370160, 8.077007 46.370702, 8.078042 46.371243, 8.079077 46.371784, 8.080112 46.372326, 8.081147 46.372867, 8.082182 46.373408, 8.083217 46.373949, 8.084252 46.374491, 8.085288 46.375032, 8.086323 46.375573, 8.087358 46.376114, 8.088393 46.376655, 8.089429 46.377197, 8.090464 46.377738, 8.091499 46.378279, 8.092534 46.378820, 8.093570 46.379361, 8.094605 46.379902, 8.095640 46.380444, 8.096676 46.380985, 8.097711 46.381526, 8.098747 46.382067, 8.099782 46.382608, 8.100818 46.383149, 8.101853 46.383690, 8.102889 46.384231, 8.103924 46.384772, 8.104960 46.385313, 8.105995 46.385855, 8.107031 46.386396, 8.108067 46.386937, 8.109102 46.387478, 8.110138 46.388019, 8.111174 46.388560, 8.112209 46.389101, 8.113245 46.389642, 8.114281 46.390183, 8.115317 46.390724, 8.116352 46.391264, 8.117388 46.391805, 8.118424 46.392346, 8.119460 46.392887, 8.120496 46.393428, 8.121532 46.393969, 8.122567 46.394510, 8.123603 46.395051, 8.124639 46.395592, 8.125675 46.396133, 8.126711 46.396673, 8.127747 46.397214, 8.128783 46.397755, 8.129819 46.398296, 8.130855 46.398837, 8.131892 46.399378, 8.132928 46.399918, 8.133964 46.400459, 8.135000 46.401000, 8.135975 46.401596, 8.136950 46.402193, 8.137925 46.402789, 8.138900 46.403385, 8.139875 46.403982, 8.140850 46.404578, 8.141825 46.405174, 8.142800 46.405771, 8.143775 46.406367, 8.144750 46.406963, 8.145725 46.407560, 8.146701 46.408156, 8.147676 46.408752, 8.148651 46.409348, 8.149626 46.409945, 8.150602 46.410541, 8.151577 46.411137, 8.152552 46.411733, 8.153527 46.412330, 8.154503 46.412926, 8.155478 46.413522, 8.156453 46.414118, 8.157429 46.414714, 8.158404 46.415310, 8.159380 46.415907, 8.160355 46.416503, 8.161331 46.417099, 8.162306 46.417695, 8.163282 46.418291, 8.164257 46.418887, 8.165233 46.419483, 8.166208 46.420080, 8.167184 46.420676, 8.168160 46.421272, 8.169135 46.421868, 8.170111 46.422464, 8.171087 46.423060, 8.172062 46.423656, 8.173038 46.424252, 8.174014 46.424848, 8.174990 46.425444, 8.175966 46.426040, 8.176941 46.426636, 8.177917 46.427232, 8.178893 46.427828, 8.179869 46.428424, 8.180845 46.429020, 8.181821 46.429616, 8.182797 46.430212, 8.183773 46.430808, 8.184749 46.431404, 8.185725 46.432000, 8.186701 46.432596, 8.187677 46.433192, 8.188653 46.433788, 8.189629 46.434384, 8.190605 46.434980, 8.191581 46.435575, 8.192558 46.436171, 8.193534 46.436767, 8.194510 46.437363, 8.195486 46.437959, 8.196462 46.438555, 8.197439 46.439151, 8.198415 46.439746, 8.199391 46.440342, 8.200368 46.440938, 8.201344 46.441534, 8.202320 46.442130, 8.203297 46.442725, 8.204273 46.443321, 8.205250 46.443917, 8.206226 46.444513, 8.207203 46.445109, 8.208179 46.445704, 8.209156 46.446300, 8.210132 46.446896, 8.211109 46.447492, 8.212086 46.448087, 8.213062 46.448683, 8.214039 46.449279, 8.215015 46.449874, 8.215992 46.450470, 8.216969 46.451066, 8.217946 46.451661, 8.218922 46.452257, 8.219899 46.452853, 8.220876 46.453448, 8.221853 46.454044, 8.222829 46.454640, 8.223806 46.455235, 8.224783 46.455831, 8.225760 46.456426, 8.226737 46.457022, 8.227714 46.457618, 8.228691 46.458213, 8.229668 46.458809, 8.230645 46.459404, 8.231622 46.460000, 8.232599 46.460595, 8.233576 46.461191, 8.234553 46.461786, 8.235530 46.462382, 8.236507 46.462977, 8.237485 46.463573, 8.238462 46.464168, 8.239439 46.464764, 8.240416 46.465359, 8.241393 46.465955, 8.242371 46.466550, 8.243348 46.467146, 8.244325 46.467741, 8.245303 46.468337, 8.246280 46.468932, 8.247257 46.469528, 8.248235 46.470123, 8.249212 46.470718, 8.250190 46.471314, 8.251167 46.471909, 8.252144 46.472504, 8.253122 46.473100, 8.254099 46.473695, 8.255077 46.474291, 8.256055 46.474886, 8.257032 46.475481, 8.258010 46.476077, 8.258987 46.476672, 8.259965 46.477267, 8.260943 46.477863, 8.261920 46.478458, 8.262898 46.479053, 8.263876 46.479648, 8.264854 46.480244, 8.265831 46.480839, 8.266809 46.481434, 8.267787 46.482029, 8.268765 46.482625, 8.269743 46.483220, 8.270721 46.483815, 8.271698 46.484410, 8.272676 46.485005, 8.273654 46.485601, 8.274632 46.486196, 8.275610 46.486791, 8.276588 46.487386, 8.277566 46.487981, 8.278544 46.488577, 8.279522 46.489172, 8.280501 46.489767, 8.281479 46.490362, 8.282457 46.490957, 8.283435 46.491552, 8.284413 46.492147, 8.285391 46.492742, 8.286370 46.493337, 8.287348 46.493932, 8.288326 46.494528, 8.289304 46.495123, 8.290283 46.495718, 8.291261 46.496313, 8.292239 46.496908, 8.293218 46.497503, 8.294196 46.498098, 8.295174 46.498693, 8.296153 46.499288, 8.297131 46.499883, 8.298110 46.500478, 8.299088 46.501073, 8.300067 46.501668, 8.301045 46.502263, 8.302024 46.502858, 8.303003 46.503453, 8.303981 46.504048, 8.304960 46.504642, 8.305938 46.505237, 8.306917 46.505832, 8.307896 46.506427, 8.308875 46.507022, 8.309853 46.507617, 8.310832 46.508212, 8.311811 46.508807, 8.312790 46.509402, 8.313768 46.509996, 8.314747 46.510591, 8.315726 46.511186, 8.316705 46.511781, 8.317684 46.512376, 8.318663 46.512971, 8.319642 46.513565, 8.320621 46.514160, 8.321600 46.514755, 8.322579 46.515350, 8.323558 46.515944, 8.324537 46.516539, 8.325516 46.517134, 8.326495 46.517729, 8.327474 46.518323, 8.328453 46.518918, 8.329433 46.519513, 8.330412 46.520108, 8.331391 46.520702, 8.332370 46.521297, 8.333349 46.521892, 8.334329 46.522486, 8.335308 46.523081, 8.336287 46.523676, 8.337267 46.524270, 8.338246 46.524865, 8.339225 46.525460, 8.340205 46.526054, 8.341184 46.526649, 8.342164 46.527243, 8.343143 46.527838, 8.344123 46.528433, 8.345102 46.529027, 8.346082 46.529622, 8.347061 46.530216, 8.348041 46.530811, 8.349020 46.531405, 8.350000 46.532000, 8.350305 46.532861, 8.350611 46.533722, 8.350916 46.534583, 8.351222 46.535444, 8.351527 46.536306, 8.351832 46.537167, 8.352138 46.538028, 8.352443 46.538889, 8.352749 46.539750, 8.353054 46.540611, 8.353360 46.541472, 8.353665 46.542333, 8.353971 46.543195, 8.354276 46.544056, 8.354582 46.544917, 8.354887 46.545778, 8.355193 46.546639, 8.355498 46.547500, 8.355804 46.548361, 8.356110 46.549222, 8.356415 46.550083, 8.356721 46.550945, 8.357026 46.551806, 8.357332 46.552667, 8.357638 46.553528, 8.357943 46.554389, 8.358249 46.555250, 8.358554 46.556111, 8.358860 46.556972, 8.359166 46.557833, 8.359471 46.558695, 8.359777 46.559556, 8.360083 46.560417, 8.360389 46.561278, 8.360694 46.562139, 8.361000 46.563000, 8.362217 46.563283, 8.363434 46.563566, 8.364651 46.563849, 8.365868 46.564132, 8.367086 46.564414, 8.368303 46.564697, 8.369520 46.564980, 8.370737 46.565263, 8.371954 46.565546, 8.373172 46.565828, 8.374389 46.566111, 8.375606 46.566394, 8.376823 46.566677, 8.378041 46.566959, 8.379258 46.567242, 8.380475 46.567525, 8.381693 46.567808, 8.382910 46.568090, 8.384127 46.568373, 8.385345 46.568656, 8.386562 46.568938, 8.387779 46.569221, 8.388997 46.569503, 8.390214 46.569786, 8.391431 46.570069, 8.392649 46.570351, 8.393866 46.570634, 8.395084 46.570916, 8.396301 46.571199, 8.397519 46.571481, 8.398736 46.571764, 8.399954 46.572046, 8.401171 46.572329, 8.402389 46.572611, 8.403606 46.572894, 8.404824 46.573176, 8.406041 46.573459, 8.407259 46.573741, 8.408477 46.574024, 8.409694 46.574306, 8.410912 46.574588, 8.412129 46.574871, 8.413347 46.575153, 8.414565 46.575435, 8.415782 46.575718, 8.417000 46.576000, 8.418246 46.576232, 8.419492 46.576465, 8.420738 46.576697, 8.421984 46.576929, 8.423230 46.577162, 8.424476 46.577394, 8.425722 46.577626, 8.426968 46.577858, 8.428215 46.578091, 8.429461 46.578323, 8.430707 46.578555, 8.431953 46.578787, 8.433199 46.579019, 8.434445 46.579252, 8.435691 46.579484, 8.436938 46.579716, 8.438184 46.579948, 8.439430 46.580180, 8.440676 46.580412, 8.441922 46.580644, 8.443169 46.580876, 8.444415 46.581108, 8.445661 46.581340, 8.446907 46.581573, 8.448154 46.581805, 8.449400 46.582037, 8.450646 46.582269, 8.451892 46.582501, 8.453139 46.582732, 8.454385 46.582964, 8.455631 46.583196, 8.456878 46.583428, 8.458124 46.583660, 8.459370 46.583892, 8.460617 46.584124, 8.461863 46.584356, 8.463110 46.584588, 8.464356 46.584820, 8.465602 46.585051, 8.466849 46.585283, 8.468095 46.585515, 8.469342 46.585747, 8.470588 46.585979, 8.471835 46.586210, 8.473081 46.586442, 8.474328 46.586674, 8.475574 46.586906, 8.476821 46.587137, 8.478067 46.587369, 8.479314 46.587601, 8.480560 46.587832, 8.481807 46.588064, 8.483053 46.588296, 8.484300 46.588527, 8.485547 46.588759, 8.486793 46.588990, 8.488040 46.589222, 8.489286 46.589454, 8.490533 46.589685, 8.491780 46.589917, 8.493026 46.590148, 8.494273 46.590380, 8.495520 46.590611, 8.496766 46.590843, 8.498013 46.591074, 8.499260 46.591306, 8.500507 46.591537, 8.501753 46.591769, 8.503000 46.592000, 8.504070 46.592518, 8.505139 46.593036, 8.506209 46.593554, 8.507279 46.594072, 8.508349 46.594590, 8.509419 46.595108, 8.510489 46.595626, 8.511558 46.596144, 8.512628 46.596662, 8.513698 46.597180, 8.514768 46.597698, 8.515838 46.598216, 8.516908 46.598734, 8.517978 46.599252, 8.519048 46.599770, 8.520118 46.600288, 8.521188 46.600806, 8.522258 46.601324, 8.523328 46.601842, 8.524398 46.602359, 8.525469 46.602877, 8.526539 46.603395, 8.527609 46.603913, 8.528679 46.604431, 8.529749 46.604949, 8.530820 46.605466, 8.531890 46.605984, 8.532960 46.606502, 8.534030 46.607020, 8.535101 46.607538, 8.536171 46.608055, 8.537241 46.608573, 8.538312 46.609091, 8.539382 46.609609, 8.540453 46.610126, 8.541523 46.610644, 8.542594 46.611162, 8.543664 46.611680, 8.544735 46.612197, 8.545805 46.612715, 8.546876 46.613233, 8.547946 46.613750, 8.549017 46.614268, 8.550087 46.614785, 8.551158 46.615303, 8.552229 46.615821, 8.553299 46.616338, 8.554370 46.616856, 8.555441 46.617374, 8.556512 46.617891, 8.557582 46.618409, 8.558653 46.618926, 8.559724 46.619444, 8.560795 46.619961, 8.561865 46.620479, 8.562936 46.620996, 8.564007 46.621514, 8.565078 46.622031, 8.566149 46.622549, 8.567220 46.623066, 8.568291 46.623584, 8.569362 46.624101, 8.570433 46.624619, 8.571504 46.625136, 8.572575 46.625654, 8.573646 46.626171, 8.574717 46.626688, 8.575788 46.627206, 8.576859 46.627723, 8.577930 46.628241, 8.579002 46.628758, 8.580073 46.629275, 8.581144 46.629793, 8.582215 46.630310, 8.583286 46.630827, 8.584358 46.631345, 8.585429 46.631862, 8.586500 46.632379, 8.587572 46.632896, 8.588643 46.633414, 8.589714 46.633931, 8.590786 46.634448, 8.591857 46.634966, 8.592929 46.635483, 8.594000 46.636000, 8.595206 46.636350, 8.596412 46.636699, 8.597618 46.637049, 8.598824 46.637398, 8.600029 46.637748, 8.601235 46.638097, 8.602441 46.638447, 8.603647 46.638796, 8.604853 46.639146, 8.606059 46.639495, 8.607265 46.639845, 8.608471 46.640194, 8.609677 46.640544, 8.610884 46.640893, 8.612090 46.641243, 8.613296 46.641592, 8.614502 46.641941, 8.615708 46.642291, 8.616914 46.642640, 8.618120 46.642990, 8.619326 46.643339, 8.620533 46.643688, 8.621739 46.644038, 8.622945 46.644387, 8.624151 46.644736, 8.625358 46.645085, 8.626564 46.645435, 8.627770 46.645784, 8.628976 46.646133, 8.630183 46.646482, 8.631389 46.646832, 8.632595 46.647181, 8.633802 46.647530, 8.635008 46.647879, 8.636215 46.648228, 8.637421 46.648578, 8.638627 46.648927, 8.639834 46.649276, 8.641040 46.649625, 8.642247 46.649974, 8.643453 46.650323, 8.644660 46.650672, 8.645866 46.651021, 8.647073 46.651370, 8.648279 46.651719, 8.649486 46.652068, 8.650693 46.652417, 8.651899 46.652766, 8.653106 46.653115, 8.654312 46.653464, 8.655519 46.653813, 8.656726 46.654162, 8.657932 46.654511, 8.659139 46.654860, 8.660346 46.655209, 8.661553 46.655558, 8.662759 46.655907, 8.663966 46.656256, 8.665173 46.656605, 8.666380 46.656954, 8.667586 46.657302, 8.668793 46.657651, 8.670000 46.658000, 8.671223 46.658317, 8.672445 46.658634, 8.673668 46.658950, 8.674891 46.659267, 8.676113 46.659584, 8.677336 46.659900, 8.678559 46.660217, 8.679781 46.660534, 8.681004 46.660850, 8.682227 46.661167, 8.683449 46.661484, 8.684672 46.661800, 8.685895 46.662117, 8.687118 46.662434, 8.688341 46.662750, 8.689563 46.663067, 8.690786 46.663383, 8.692009 46.663700, 8.693232 46.664016, 8.694455 46.664333, 8.695678 46.664650, 8.696901 46.664966, 8.698124 46.665283, 8.699346 46.665599, 8.700569 46.665915, 8.701792 46.666232, 8.703015 46.666548, 8.704238 46.666865, 8.705461 46.667181, 8.706684 46.667498, 8.707907 46.667814, 8.709130 46.668130, 8.710353 46.668447, 8.711577 46.668763, 8.712800 46.669079, 8.714023 46.669396, 8.715246 46.669712, 8.716469 46.670028, 8.717692 46.670345, 8.718915 46.670661, 8.720138 46.670977, 8.721362 46.671293, 8.722585 46.671610, 8.723808 46.671926, 8.725031 46.672242, 8.726255 46.672558, 8.727478 46.672874, 8.728701 46.673190, 8.729924 46.673507, 8.731148 46.673823, 8.732371 46.674139, 8.733594 46.674455, 8.734818 46.674771, 8.736041 46.675087, 8.737264 46.675403, 8.738488 46.675719, 8.739711 46.676035, 8.740935 46.676351, 8.742158 46.676667, 8.743382 46.676983, 8.744605 46.677299, 8.745829 46.677615, 8.747052 46.677931, 8.748276 46.678247, 8.749499 46.678563, 8.750723 46.678879, 8.751946 46.679195, 8.753170 46.679511, 8.754393 46.679827, 8.755617 46.680143, 8.756840 46.680459, 8.758064 46.680774, 8.759288 46.681090, 8.760511 46.681406, 8.761735 46.681722, 8.762959 46.682038, 8.764182 46.682353, 8.765406 46.682669, 8.766630 46.682985, 8.767854 46.683301, 8.769077 46.683616, 8.770301 46.683932, 8.771525 46.684248, 8.772749 46.684564, 8.773972 46.684879, 8.775196 46.685195, 8.776420 46.685511, 8.777644 46.685826, 8.778868 46.686142, 8.780092 46.686457, 8.781316 46.686773, 8.782539 46.687089, 8.783763 46.687404, 8.784987 46.687720, 8.786211 46.688035, 8.787435 46.688351, 8.788659 46.688666, 8.789883 46.688982, 8.791107 46.689297, 8.792331 46.689613, 8.793555 46.689928, 8.794779 46.690244, 8.796003 46.690559, 8.797227 46.690875, 8.798452 46.691190, 8.799676 46.691505, 8.800900 46.691821, 8.802124 46.692136, 8.803348 46.692452, 8.804572 46.692767, 8.805796 46.693082, 8.807021 46.693398, 8.808245 46.693713, 8.809469 46.694028, 8.810693 46.694344, 8.811918 46.694659, 8.813142 46.694974, 8.814366 46.695289, 8.815590 46.695605, 8.816815 46.695920, 8.818039 46.696235, 8.819263 46.696550, 8.820488 46.696865, 8.821712 46.697181, 8.822936 46.697496, 8.824161 46.697811, 8.825385 46.698126, 8.826610 46.698441, 8.827834 46.698756, 8.829058 46.699071, 8.830283 46.699386, 8.831507 46.699701, 8.832732 46.700016, 8.833956 46.700332, 8.835181 46.700647, 8.836405 46.700962, 8.837630 46.701277, 8.838855 46.701592, 8.840079 46.701907, 8.841304 46.702221, 8.842528 46.702536, 8.843753 46.702851, 8.844978 46.703166, 8.846202 46.703481, 8.847427 46.703796, 8.848652 46.704111, 8.849876 46.704426, 8.851101 46.704741, 8.852326 46.705056, 8.853550 46.705370, 8.854775 46.705685, 8.856000 46.706000, 8.857256 46.706249, 8.858513 46.706498, 8.859769 46.706748, 8.861026 46.706997, 8.862282 46.707246, 8.863539 46.707495, 8.864795 46.707744, 8.866052 46.707993, 8.867309 46.708243, 8.868565 46.708492, 8.869822 46.708741, 8.871078 46.708990, 8.872335 46.709239, 8.873591 46.709488, 8.874848 46.709737, 8.876105 46.709986, 8.877361 46.710235, 8.878618 46.710484, 8.879875 46.710733, 8.881131 46.710982, 8.882388 46.711231, 8.883645 46.711480, 8.884901 46.711729, 8.886158 46.711978, 8.887415 46.712227, 8.888672 46.712475, 8.889928 46.712724, 8.891185 46.712973, 8.892442 46.713222, 8.893699 46.713471, 8.894956 46.713720, 8.896212 46.713968, 8.897469 46.714217, 8.898726 46.714466, 8.899983 46.714715, 8.901240 46.714963, 8.902497 46.715212, 8.903754 46.715461, 8.905010 46.715710, 8.906267 46.715958, 8.907524 46.716207, 8.908781 46.716456, 8.910038 46.716704, 8.911295 46.716953, 8.912552 46.717202, 8.913809 46.717450, 8.915066 46.717699, 8.916323 46.717947, 8.917580 46.718196, 8.918837 46.718444, 8.920094 46.718693, 8.921351 46.718942, 8.922608 46.719190, 8.923865 46.719439, 8.925122 46.719687, 8.926379 46.719936, 8.927637 46.720184, 8.928894 46.720432, 8.930151 46.720681, 8.931408 46.720929, 8.932665 46.721178, 8.933922 46.721426, 8.935179 46.721674, 8.936437 46.721923, 8.937694 46.722171, 8.938951 46.722419, 8.940208 46.722668, 8.941466 46.722916, 8.942723 46.723164, 8.943980 46.723413, 8.945237 46.723661, 8.946495 46.723909, 8.947752 46.724157, 8.949009 46.724406, 8.950266 46.724654, 8.951524 46.724902, 8.952781 46.725150, 8.954038 46.725398, 8.955296 46.725647, 8.956553 46.725895, 8.957811 46.726143, 8.959068 46.726391, 8.960325 46.726639, 8.961583 46.726887, 8.962840 46.727135, 8.964098 46.727383, 8.965355 46.727631, 8.966613 46.727879, 8.967870 46.728127, 8.969128 46.728375, 8.970385 46.728623, 8.971643 46.728871, 8.972900 46.729119, 8.974158 46.729367, 8.975415 46.729615, 8.976673 46.729863, 8.977930 46.730111, 8.979188 46.730359, 8.980446 46.730607, 8.981703 46.730855, 8.982961 46.731102, 8.984218 46.731350, 8.985476 46.731598, 8.986734 46.731846, 8.987991 46.732094, 8.989249 46.732341, 8.990507 46.732589, 8.991764 46.732837, 8.993022 46.733085, 8.994280 46.733332, 8.995538 46.733580, 8.996795 46.733828, 8.998053 46.734076, 8.999311 46.734323, 9.000569 46.734571, 9.001826 46.734818, 9.003084 46.735066, 9.004342 46.735314, 9.005600 46.735561, 9.006858 46.735809, 9.008115 46.736057, 9.009373 46.736304, 9.010631 46.736552, 9.011889 46.736799, 9.013147 46.737047, 9.014405 46.737294, 9.015663 46.737542, 9.016921 46.737789, 9.018179 46.738037, 9.019437 46.738284, 9.020695 46.738531, 9.021953 46.738779, 9.023211 46.739026, 9.024469 46.739274, 9.025727 46.739521, 9.026985 46.739768, 9.028243 46.740016, 9.029501 46.740263, 9.030759 46.740510, 9.032017 46.740758, 9.033275 46.741005, 9.034533 46.741252, 9.035791 46.741500, 9.037049 46.741747, 9.038307 46.741994, 9.039565 46.742241, 9.040824 46.742489, 9.042082 46.742736, 9.043340 46.742983, 9.044598 46.743230, 9.045856 46.743477, 9.047114 46.743724, 9.048373 46.743972, 9.049631 46.744219, 9.050889 46.744466, 9.052147 46.744713, 9.053406 46.744960, 9.054664 46.745207, 9.055922 46.745454, 9.057180 46.745701, 9.058439 46.745948, 9.059697 46.746195, 9.060955 46.746442, 9.062214 46.746689, 9.063472 46.746936, 9.064730 46.747183, 9.065989 46.747430, 9.067247 46.747677, 9.068506 46.747924, 9.069764 46.748171, 9.071023 46.748418, 9.072281 46.748665, 9.073539 46.748911, 9.074798 46.749158, 9.076056 46.749405, 9.077315 46.749652, 9.078573 46.749899, 9.079832 46.750145, 9.081090 46.750392, 9.082349 46.750639, 9.083607 46.750886, 9.084866 46.751132, 9.086124 46.751379, 9.087383 46.751626, 9.088642 46.751873, 9.089900 46.752119, 9.091159 46.752366, 9.092417 46.752613, 9.093676 46.752859, 9.094935 46.753106, 9.096193 46.753352, 9.097452 46.753599, 9.098711 46.753846, 9.099969 46.754092, 9.101228 46.754339, 9.102487 46.754585, 9.103746 46.754832, 9.105004 46.755078, 9.106263 46.755325, 9.107522 46.755571, 9.108781 46.755818, 9.110039 46.756064, 9.111298 46.756311, 9.112557 46.756557, 9.113816 46.756804, 9.115075 46.757050, 9.116333 46.757296, 9.117592 46.757543, 9.118851 46.757789, 9.120110 46.758035, 9.121369 46.758282, 9.122628 46.758528, 9.123887 46.758774, 9.125146 46.759021, 9.126405 46.759267, 9.127663 46.759513, 9.128922 46.759759, 9.130181 46.760006, 9.131440 46.760252, 9.132699 46.760498, 9.133958 46.760744, 9.135217 46.760990, 9.136476 46.761237, 9.137735 46.761483, 9.138994 46.761729, 9.140254 46.761975, 9.141513 46.762221, 9.142772 46.762467, 9.144031 46.762713, 9.145290 46.762959, 9.146549 46.763206, 9.147808 46.763452, 9.149067 46.763698, 9.150326 46.763944, 9.151586 46.764190, 9.152845 46.764436, 9.154104 46.764682, 9.155363 46.764928, 9.156622 46.765173, 9.157882 46.765419, 9.159141 46.765665, 9.160400 46.765911, 9.161659 46.766157, 9.162919 46.766403, 9.164178 46.766649, 9.165437 46.766895, 9.166696 46.767141, 9.167956 46.767386, 9.169215 46.767632, 9.170474 46.767878, 9.171734 46.768124, 9.172993 46.768370, 9.174252 46.768615, 9.175512 46.768861, 9.176771 46.769107, 9.178031 46.769352, 9.179290 46.769598, 9.180549 46.769844, 9.181809 46.770089, 9.183068 46.770335, 9.184328 46.770581, 9.185587 46.770826, 9.186847 46.771072, 9.188106 46.771318, 9.189366 46.771563, 9.190625 46.771809, 9.191885 46.772054, 9.193144 46.772300, 9.194404 46.772545, 9.195663 46.772791, 9.196923 46.773036, 9.198183 46.773282, 9.199442 46.773527, 9.200702 46.773773, 9.201961 46.774018, 9.203221 46.774264, 9.204481 46.774509, 9.205740 46.774755, 9.207000 46.775000, 9.208236 46.775301, 9.209472 46.775601, 9.210707 46.775902, 9.211943 46.776202, 9.213179 46.776503, 9.214415 46.776803, 9.215651 46.777104, 9.216886 46.777404, 9.218122 46.777705, 9.219358 46.778005, 9.220594 46.778306, 9.221830 46.778606, 9.223066 46.778907, 9.224302 46.779207, 9.225538 46.779507, 9.226774 46.779808, 9.228010 46.780108, 9.229246 46.780408, 9.230482 46.780709, 9.231718 46.781009, 9.232954 46.781309, 9.234190 46.781610, 9.235426 46.781910, 9.236662 46.782210, 9.237898 46.782511, 9.239134 46.782811, 9.240370 46.783111, 9.241606 46.783411, 9.242843 46.783712, 9.244079 46.784012, 9.245315 46.784312, 9.246551 46.784612, 9.247787 46.784912, 9.249024 46.785212, 9.250260 46.785512, 9.251496 46.785813, 9.252732 46.786113, 9.253969 46.786413, 9.255205 46.786713, 9.256441 46.787013, 9.257677 46.787313, 9.258914 46.787613, 9.260150 46.787913, 9.261386 46.788213, 9.262623 46.788513, 9.263859 46.788813, 9.265096 46.789113, 9.266332 46.789413, 9.267568 46.789713, 9.268805 46.790013, 9.270041 46.790313, 9.271278 46.790613, 9.272514 46.790913, 9.273751 46.791212, 9.274987 46.791512, 9.276224 46.791812, 9.277460 46.792112, 9.278697 46.792412, 9.279933 46.792712, 9.281170 46.793011, 9.282406 46.793311, 9.283643 46.793611, 9.284880 46.793911, 9.286116 46.794210, 9.287353 46.794510, 9.288590 46.794810, 9.289826 46.795110, 9.291063 46.795409, 9.292300 46.795709, 9.293536 46.796009, 9.294773 46.796308, 9.296010 46.796608, 9.297247 46.796908, 9.298483 46.797207, 9.299720 46.797507, 9.300957 46.797806, 9.302194 46.798106, 9.303431 46.798406, 9.304667 46.798705, 9.305904 46.799005, 9.307141 46.799304, 9.308378 46.799604, 9.309615 46.799903, 9.310852 46.800203, 9.312089 46.800502, 9.313326 46.800801, 9.314563 46.801101, 9.315799 46.801400, 9.317036 46.801700, 9.318273 46.801999, 9.319510 46.802299, 9.320747 46.802598, 9.321984 46.802897, 9.323222 46.803197, 9.324459 46.803496, 9.325696 46.803795, 9.326933 46.804095, 9.328170 46.804394, 9.329407 46.804693, 9.330644 46.804992, 9.331881 46.805292, 9.333118 46.805591, 9.334355 46.805890, 9.335593 46.806189, 9.336830 46.806489, 9.338067 46.806788, 9.339304 46.807087, 9.340542 46.807386, 9.341779 46.807685, 9.343016 46.807984, 9.344253 46.808283, 9.345491 46.808583, 9.346728 46.808882, 9.347965 46.809181, 9.349203 46.809480, 9.350440 46.809779, 9.351677 46.810078, 9.352915 46.810377, 9.354152 46.810676, 9.355389 46.810975, 9.356627 46.811274, 9.357864 46.811573, 9.359102 46.811872, 9.360339 46.812171, 9.361577 46.812470, 9.362814 46.812769, 9.364052 46.813068, 9.365289 46.813366, 9.366527 46.813665, 9.367764 46.813964, 9.369002 46.814263, 9.370239 46.814562, 9.371477 46.814861, 9.372714 46.815159, 9.373952 46.815458, 9.375190 46.815757, 9.376427 46.816056, 9.377665 46.816355, 9.378903 46.816653, 9.380140 46.816952, 9.381378 46.817251, 9.382616 46.817549, 9.383853 46.817848, 9.385091 46.818147, 9.386329 46.818446, 9.387567 46.818744, 9.388804 46.819043, 9.390042 46.819341, 9.391280 46.819640, 9.392518 46.819939, 9.393756 46.820237, 9.394993 46.820536, 9.396231 46.820834, 9.397469 46.821133, 9.398707 46.821431, 9.399945 46.821730, 9.401183 46.822028, 9.402421 46.822327, 9.403659 46.822625, 9.404897 46.822924, 9.406135 46.823222, 9.407372 46.823521, 9.408610 46.823819, 9.409848 46.824118, 9.411086 46.824416, 9.412325 46.824714, 9.413563 46.825013, 9.414801 46.825311, 9.416039 46.825609, 9.417277 46.825908, 9.418515 46.826206, 9.419753 46.826504, 9.420991 46.826803, 9.422229 46.827101, 9.423467 46.827399, 9.424706 46.827698, 9.425944 46.827996, 9.427182 46.828294, 9.428420 46.828592, 9.429658 46.828890, 9.430897 46.829189, 9.432135 46.829487, 9.433373 46.829785, 9.434611 46.830083, 9.435850 46.830381, 9.437088 46.830679, 9.438326 46.830977, 9.439565 46.831275, 9.440803 46.831574, 9.442041 46.831872, 9.443280 46.832170, 9.444518 46.832468, 9.445757 46.832766, 9.446995 46.833064, 9.448233 46.833362, 9.449472 46.833660, 9.450710 46.833958, 9.451949 46.834256, 9.453187 46.834554, 9.454426 46.834852, 9.455664 46.835149, 9.456903 46.835447, 9.458141 46.835745, 9.459380 46.836043, 9.460618 46.836341, 9.461857 46.836639, 9.463096 46.836937, 9.464334 46.837234, 9.465573 46.837532, 9.466811 46.837830, 9.468050 46.838128, 9.469289 46.838426, 9.470527 46.838723, 9.471766 46.839021, 9.473005 46.839319, 9.474244 46.839617, 9.475482 46.839914, 9.476721 46.840212, 9.477960 46.840510, 9.479199 46.840807, 9.480437 46.841105, 9.481676 46.841403, 9.482915 46.841700, 9.484154 46.841998, 9.485393 46.842295, 9.486631 46.842593, 9.487870 46.842891, 9.489109 46.843188, 9.490348 46.843486, 9.491587 46.843783, 9.492826 46.844081, 9.494065 46.844378, 9.495304 46.844676, 9.496543 46.844973, 9.497782 46.845271, 9.499021 46.845568, 9.500260 46.845866, 9.501499 46.846163, 9.502738 46.846460, 9.503977 46.846758, 9.505216 46.847055, 9.506455 46.847353, 9.507694 46.847650, 9.508933 46.847947, 9.510172 46.848245, 9.511411 46.848542, 9.512651 46.848839, 9.513890 46.849136, 9.515129 46.849434, 9.516368 46.849731, 9.517607 46.850028, 9.518846 46.850325, 9.520086 46.850623, 9.521325 46.850920, 9.522564 46.851217, 9.523803 46.851514, 9.525043 46.851811, 9.526282 46.852109, 9.527521 46.852406, 9.528761 46.852703, 9.530000 46.853000, 9.529515 46.852167, 9.529029 46.851334, 9.528544 46.850501, 9.528059 46.849667, 9.527574 46.848834, 9.527089 46.848001, 9.526604 46.847168, 9.526118 46.846335, 9.525633 46.845502, 9.525148 46.844668, 9.524663 46.843835, 9.524178 46.843002, 9.523693 46.842169, 9.523208 46.841336, 9.522723 46.840503, 9.522238 46.839669, 9.521753 46.838836, 9.521268 46.838003, 9.520783 46.837170, 9.520298 46.836337, 9.519813 46.835504, 9.519328 46.834670, 9.518843 46.833837, 9.518358 46.833004, 9.517873 46.832171, 9.517388 46.831338, 9.516903 46.830504, 9.516418 46.829671, 9.515934 46.828838, 9.515449 46.828005, 9.514964 46.827172, 9.514479 46.826338, 9.513994 46.825505, 9.513510 46.824672, 9.513025 46.823839, 9.512540 46.823006, 9.512055 46.822172, 9.511571 46.821339, 9.511086 46.820506, 9.510601 46.819673, 9.510117 46.818839, 9.509632 46.818006, 9.509147 46.817173, 9.508663 46.816340, 9.508178 46.815506, 9.507694 46.814673, 9.507209 46.813840, 9.506725 46.813007, 9.506240 46.812174, 9.505755 46.811340, 9.505271 46.810507, 9.504786 46.809674, 9.504302 46.808841, 9.503818 46.808007, 9.503333 46.807174, 9.502849 46.806341, 9.502364 46.805508, 9.501880 46.804674, 9.501395 46.803841, 9.500911 46.803008, 9.500427 46.802174, 9.499942 46.801341, 9.499458 46.800508, 9.498974 46.799675, 9.498489 46.798841, 9.498005 46.798008, 9.497521 46.797175, 9.497037 46.796342, 9.496552 46.795508, 9.496068 46.794675, 9.495584 46.793842, 9.495100 46.793008, 9.494616 46.792175, 9.494131 46.791342, 9.493647 46.790508, 9.493163 46.789675, 9.492679 46.788842, 9.492195 46.788009, 9.491711 46.787175, 9.491227 46.786342, 9.490743 46.785509, 9.490259 46.784675, 9.489775 46.783842, 9.489291 46.783009, 9.488807 46.782175, 9.488323 46.781342, 9.487839 46.780509, 9.487355 46.779675, 9.486871 46.778842, 9.486387 46.778009, 9.485903 46.777175, 9.485419 46.776342, 9.484935 46.775509, 9.484451 46.774675, 9.483968 46.773842, 9.483484 46.773009, 9.483000 46.772175, 9.482516 46.771342, 9.482032 46.770509, 9.481549 46.769675, 9.481065 46.768842, 9.480581 46.768009, 9.480097 46.767175, 9.479614 46.766342, 9.479130 46.765509, 9.478646 46.764675, 9.478163 46.763842, 9.477679 46.763009, 9.477195 46.762175, 9.476712 46.761342, 9.476228 46.760508, 9.475744 46.759675, 9.475261 46.758842, 9.474777 46.758008, 9.474294 46.757175, 9.473810 46.756342, 9.473327 46.755508, 9.472843 46.754675, 9.472360 46.753841, 9.471876 46.753008, 9.471393 46.752175, 9.470909 46.751341, 9.470426 46.750508, 9.469942 46.749675, 9.469459 46.748841, 9.468976 46.748008, 9.468492 46.747174, 9.468009 46.746341, 9.467526 46.745507, 9.467042 46.744674, 9.466559 46.743841, 9.466076 46.743007, 9.465592 46.742174, 9.465109 46.741340, 9.464626 46.740507, 9.464143 46.739674, 9.463659 46.738840, 9.463176 46.738007, 9.462693 46.737173, 9.462210 46.736340, 9.461727 46.735506, 9.461244 46.734673, 9.460760 46.733840, 9.460277 46.733006, 9.459794 46.732173, 9.459311 46.731339, 9.458828 46.730506, 9.458345 46.729672, 9.457862 46.728839, 9.457379 46.728005, 9.456896 46.727172, 9.456413 46.726339, 9.455930 46.725505, 9.455447 46.724672, 9.454964 46.723838, 9.454481 46.723005, 9.453998 46.722171, 9.453515 46.721338, 9.453032 46.720504, 9.452550 46.719671, 9.452067 46.718837, 9.451584 46.718004, 9.451101 46.717170, 9.450618 46.716337, 9.450135 46.715504, 9.449653 46.714670, 9.449170 46.713837, 9.448687 46.713003, 9.448204 46.712170, 9.447722 46.711336, 9.447239 46.710503, 9.446756 46.709669, 9.446274 46.708836, 9.445791 46.708002, 9.445308 46.707169, 9.444826 46.706335, 9.444343 46.705502, 9.443860 46.704668, 9.443378 46.703835, 9.442895 46.703001, 9.442413 46.702168, 9.441930 46.701334, 9.441448 46.700501, 9.440965 46.699667, 9.440482 46.698834, 9.440000 46.698000, 9.441295 46.697884, 9.442589 46.697767, 9.443884 46.697651, 9.445179 46.697535, 9.446473 46.697418, 9.447768 46.697302, 9.449062 46.697186, 9.450357 46.697069, 9.451652 46.696953, 9.452946 46.696836, 9.454241 46.696720, 9.455535 46.696604, 9.456830 46.696487, 9.458124 46.696371, 9.459419 46.696254, 9.460714 46.696138, 9.462008 46.696021, 9.463303 46.695905, 9.464597 46.695788, 9.465892 46.695671, 9.467186 46.695555, 9.468481 46.695438, 9.469775 46.695322, 9.471070 46.695205, 9.472364 46.695088, 9.473659 46.694972, 9.474953 46.694855, 9.476248 46.694738, 9.477542 46.694622, 9.478837 46.694505, 9.480131 46.694388, 9.481426 46.694271, 9.482720 46.694155, 9.484015 46.694038, 9.485309 46.693921, 9.486604 46.693804, 9.487898 46.693688, 9.489192 46.693571, 9.490487 46.693454, 9.491781 46.693337, 9.493076 46.693220, 9.494370 46.693103, 9.495664 46.692986, 9.496959 46.692869, 9.498253 46.692753, 9.499548 46.692636, 9.500842 46.692519, 9.502136 46.692402, 9.503431 46.692285, 9.504725 46.692168, 9.506020 46.692051, 9.507314 46.691934, 9.508608 46.691817, 9.509903 46.691699, 9.511197 46.691582, 9.512491 46.691465, 9.513786 46.691348, 9.515080 46.691231, 9.516374 46.691114, 9.517669 46.690997, 9.518963 46.690880, 9.520257 46.690762, 9.521551 46.690645, 9.522846 46.690528, 9.524140 46.690411, 9.525434 46.690294, 9.526729 46.690176, 9.528023 46.690059, 9.529317 46.689942, 9.530611 46.689824, 9.531906 46.689707, 9.533200 46.689590, 9.534494 46.689472, 9.535788 46.689355, 9.537082 46.689238, 9.538377 46.689120, 9.539671 46.689003, 9.540965 46.688886, 9.542259 46.688768, 9.543554 46.688651, 9.544848 46.688533, 9.546142 46.688416, 9.547436 46.688298, 9.548730 46.688181, 9.550024 46.688063, 9.551319 46.687946, 9.552613 46.687828, 9.553907 46.687711, 9.555201 46.687593, 9.556495 46.687475, 9.557789 46.687358, 9.559083 46.687240, 9.560378 46.687123, 9.561672 46.687005, 9.562966 46.686887, 9.564260 46.686770, 9.565554 46.686652, 9.566848 46.686534, 9.568142 46.686416, 9.569436 46.686299, 9.570730 46.686181, 9.572024 46.686063, 9.573319 46.685945, 9.574613 46.685828, 9.575907 46.685710, 9.577201 46.685592, 9.578495 46.685474, 9.579789 46.685356, 9.581083 46.685238, 9.582377 46.685121, 9.583671 46.685003, 9.584965 46.684885, 9.586259 46.684767, 9.587553 46.684649, 9.588847 46.684531, 9.590141 46.684413, 9.591435 46.684295, 9.592729 46.684177, 9.594023 46.684059, 9.595317 46.683941, 9.596611 46.683823, 9.597905 46.683705, 9.599199 46.683587, 9.600493 46.683469, 9.601787 46.683351, 9.603081 46.683233, 9.604374 46.683114, 9.605668 46.682996, 9.606962 46.682878, 9.608256 46.682760, 9.609550 46.682642, 9.610844 46.682524, 9.612138 46.682405, 9.613432 46.682287, 9.614726 46.682169, 9.616020 46.682051, 9.617313 46.681932, 9.618607 46.681814, 9.619901 46.681696, 9.621195 46.681577, 9.622489 46.681459, 9.623783 46.681341, 9.625077 46.681222, 9.626370 46.681104, 9.627664 46.680986, 9.628958 46.680867, 9.630252 46.680749, 9.631546 46.680630, 9.632840 46.680512, 9.634133 46.680393, 9.635427 46.680275, 9.636721 46.680156, 9.638015 46.680038, 9.639308 46.679919, 9.640602 46.679801, 9.641896 46.679682, 9.643190 46.679564, 9.644484 46.679445, 9.645777 46.679327, 9.647071 46.679208, 9.648365 46.679089, 9.649659 46.678971, 9.650952 46.678852, 9.652246 46.678733, 9.653540 46.678615, 9.654833 46.678496, 9.656127 46.678377, 9.657421 46.678259, 9.658714 46.678140, 9.660008 46.678021, 9.661302 46.677902, 9.662596 46.677784, 9.663889 46.677665, 9.665183 46.677546, 9.666477 46.677427, 9.667770 46.677308, 9.669064 46.677189, 9.670357 46.677071, 9.671651 46.676952, 9.672945 46.676833, 9.674238 46.676714, 9.675532 46.676595, 9.676826 46.676476, 9.678119 46.676357, 9.679413 46.676238, 9.680706 46.676119, 9.682000 46.676000, 9.682916 46.675366, 9.683832 46.674733, 9.684749 46.674099, 9.685665 46.673466, 9.686581 46.672832, 9.687497 46.672199, 9.688413 46.671565, 9.689329 46.670931, 9.690245 46.670298, 9.691161 46.669664, 9.692078 46.669031, 9.692994 46.668397, 9.693910 46.667763, 9.694825 46.667130, 9.695741 46.666496, 9.696657 46.665862, 9.697573 46.665229, 9.698489 46.664595, 9.699405 46.663961, 9.700321 46.663328, 9.701237 46.662694, 9.702152 46.662060, 9.703068 46.661427, 9.703984 46.660793, 9.704900 46.660159, 9.705815 46.659525, 9.706731 46.658892, 9.707647 46.658258, 9.708562 46.657624, 9.709478 46.656990, 9.710394 46.656357, 9.711309 46.655723, 9.712225 46.655089, 9.713140 46.654455, 9.714056 46.653822, 9.714971 46.653188, 9.715887 46.652554, 9.716802 46.651920, 9.717718 46.651286, 9.718633 46.650652, 9.719548 46.650019, 9.720464 46.649385, 9.721379 46.648751, 9.722294 46.648117, 9.723210 46.647483, 9.724125 46.646849, 9.725040 46.646215, 9.725956 46.645581, 9.726871 46.644948, 9.727786 46.644314, 9.728701 46.643680, 9.729616 46.643046, 9.730531 46.642412, 9.731446 46.641778, 9.732362 46.641144, 9.733277 46.640510, 9.734192 46.639876, 9.735107 46.639242, 9.736022 46.638608, 9.736937 46.637974, 9.737852 46.637340, 9.738767 46.636706, 9.739681 46.636072, 9.740596 46.635438, 9.741511 46.634804, 9.742426 46.634170, 9.743341 46.633536, 9.744256 46.632902, 9.745170 46.632268, 9.746085 46.631634, 9.747000 46.631000, 9.747877 46.630334, 9.748753 46.629668, 9.749630 46.629001, 9.750506 46.628335, 9.751382 46.627669, 9.752259 46.627003, 9.753135 46.626337, 9.754012 46.625670, 9.754888 46.625004, 9.755764 46.624338, 9.756641 46.623672, 9.757517 46.623005, 9.758393 46.622339, 9.759270 46.621673, 9.760146 46.621006, 9.761022 46.620340, 9.761898 46.619674, 9.762774 46.619008, 9.763651 46.618341, 9.764527 46.617675, 9.765403 46.617009, 9.766279 46.616342, 9.767155 46.615676, 9.768031 46.615010, 9.768907 46.614343, 9.769783 46.613677, 9.770659 46.613011, 9.771535 46.612344, 9.772411 46.611678, 9.773287 46.611011, 9.774163 46.610345, 9.775039 46.609679, 9.775914 46.609012, 9.776790 46.608346, 9.777666 46.607679, 9.778542 46.607013, 9.779418 46.606347, 9.780293 46.605680, 9.781169 46.605014, 9.782045 46.604347, 9.782920 46.603681, 9.783796 46.603014, 9.784672 46.602348, 9.785547 46.601681, 9.786423 46.601015, 9.787299 46.600348, 9.788174 46.599682, 9.789050 46.599015, 9.789925 46.598349, 9.790801 46.597682, 9.791676 46.597016, 9.792551 46.596349, 9.793427 46.595683, 9.794302 46.595016, 9.795178 46.594350, 9.796053 46.593683, 9.796928 46.593017, 9.797804 46.592350, 9.798679 46.591683, 9.799554 46.591017, 9.800429 46.590350, 9.801305 46.589684, 9.802180 46.589017, 9.803055 46.588350, 9.803930 46.587684, 9.804805 46.587017, 9.805681 46.586351, 9.806556 46.585684, 9.807431 46.585017, 9.808306 46.584351, 9.809181 46.583684, 9.810056 46.583017, 9.810931 46.582351, 9.811806 46.581684, 9.812681 46.581017, 9.813556 46.580351, 9.814431 46.579684, 9.815305 46.579017, 9.816180 46.578350, 9.817055 46.577684, 9.817930 46.577017, 9.818805 46.576350, 9.819679 46.575684, 9.820554 46.575017, 9.821429 46.574350, 9.822304 46.573683, 9.823178 46.573017, 9.824053 46.572350, 9.824928 46.571683, 9.825802 46.571016, 9.826677 46.570349, 9.827551 46.569683, 9.828426 46.569016, 9.829301 46.568349, 9.830175 46.567682, 9.831050 46.567015, 9.831924 46.566349, 9.832798 46.565682, 9.833673 46.565015, 9.834547 46.564348, 9.835422 46.563681, 9.836296 46.563014, 9.837170 46.562347, 9.838045 46.561681, 9.838919 46.561014, 9.839793 46.560347, 9.840668 46.559680, 9.841542 46.559013, 9.842416 46.558346, 9.843290 46.557679, 9.844164 46.557012, 9.845039 46.556345, 9.845913 46.555678, 9.846787 46.555011, 9.847661 46.554344, 9.848535 46.553677, 9.849409 46.553011, 9.850283 46.552344, 9.851157 46.551677, 9.852031 46.551010, 9.852905 46.550343, 9.853779 46.549676, 9.854653 46.549009, 9.855527 46.548342, 9.856401 46.547675, 9.857274 46.547008, 9.858148 46.546341, 9.859022 46.545673, 9.859896 46.545006, 9.860770 46.544339, 9.861643 46.543672, 9.862517 46.543005, 9.863391 46.542338, 9.864264 46.541671, 9.865138 46.541004, 9.866012 46.540337, 9.866885 46.539670, 9.867759 46.539003, 9.868632 46.538336, 9.869506 46.537669, 9.870380 46.537001, 9.871253 46.536334, 9.872127 46.535667, 9.873000 46.535000, 9.872425 46.534213, 9.871850 46.533426, 9.871275 46.532638, 9.870701 46.531851, 9.870126 46.531064, 9.869551 46.530277, 9.868976 46.529490, 9.868402 46.528703, 9.867827 46.527915, 9.867252 46.527128, 9.866678 46.526341, 9.866103 46.525554, 9.865528 46.524767, 9.864954 46.523979, 9.864379 46.523192, 9.863804 46.522405, 9.863230 46.521618, 9.862655 46.520831, 9.862081 46.520043, 9.861506 46.519256, 9.860932 46.518469, 9.860357 46.517682, 9.859783 46.516894, 9.859208 46.516107, 9.858634 46.515320, 9.858059 46.514533, 9.857485 46.513745, 9.856910 46.512958, 9.856336 46.512171, 9.855762 46.511384, 9.855187 46.510596, 9.854613 46.509809, 9.854039 46.509022, 9.853464 46.508235, 9.852890 46.507447, 9.852316 46.506660, 9.851742 46.505873, 9.851167 46.505086, 9.850593 46.504298, 9.850019 46.503511, 9.849445 46.502724, 9.848871 46.501936, 9.848296 46.501149, 9.847722 46.500362, 9.847148 46.499575, 9.846574 46.498787, 9.846000 46.498000)
