LINESTRING (94.902000 36.406000, 94.901116 36.403801, 94.900232 36.401601, 94.899348 36.399402, 94.898465 36.397203, 94.897581 36.395004, 94.896697 36.392804, 94.895814 36.390605, 94.894930 36.388406, 94.894046 36.386206, 94.893163 36.384007, 94.892279 36.381808, 94.891396 36.379608, 94.890513 36.377409, 94.889630 36.375210, 94.888746 36.373010, 94.887863 36.370811, 94.886980 36.368612, 94.886097 36.366412, 94.885214 36.364213, 94.884331 36.362014, 94.883448 36.359814, 94.882565 36.357615, 94.881682 36.355415, 94.880799 36.353216, 94.879917 36.351017, 94.879034 36.348817, 94.878151 36.346618, 94.877269 36.344418, 94.876386 36.342219, 94.875504 36.340019, 94.874621 36.337820, 94.873739 36.335620, 94.872857 36.333421, 94.871974 36.331221, 94.871092 36.329022, 94.870210 36.326822, 94.869328 36.324623, 94.868446 36.322423, 94.867564 36.320224, 94.866682 36.318024, 94.865800 36.315825, 94.864918 36.313625, 94.864036 36.311426, 94.863154 36.309226, 94.862272 36.307027, 94.861391 36.304827, 94.860509 36.302628, 94.859628 36.300428, 94.858746 36.298229, 94.857865 36.296029, 94.856983 36.293829, 94.856102 36.291630, 94.855220 36.289430, 94.854339 36.287231, 94.853458 36.285031, 94.852577 36.282831, 94.851696 36.280632, 94.850814 36.278432, 94.849933 36.276232, 94.849052 36.274033, 94.848171 36.271833, 94.847291 36.269633, 94.846410 36.267434, 94.845529 36.265234, 94.844648 36.263034, 94.843768 36.260835, 94.842887 36.258635, 94.842006 36.256435, 94.841126 36.254236, 94.840245 36.252036, 94.839365 36.249836, 94.838484 36.247637, 94.837604 36.245437, 94.836724 36.243237, 94.835843 36.241037, 94.834963 36.238838, 94.834083 36.236638, 94.833203 36.234438, 94.832323 36.232238, 94.831443 36.230039, 94.830563 36.227839, 94.829683 36.225639, 94.828803 36.223439, 94.827923 36.221239, 94.827044 36.219040, 94.826164 36.216840, 94.825284 36.214640, 94.824405 36.212440, 94.823525 36.210240, 94.822646 36.208040, 94.821766 36.205841, 94.820887 36.203641, 94.820008 36.201441, 94.819128 36.199241, 94.818249 36.197041, 94.817370 36.194841, 94.816491 36.192641, 94.815611 36.190442, 94.814732 36.188242, 94.813853 36.186042, 94.812974 36.183842, 94.812096 36.181642, 94.811217 36.179442, 94.810338 36.177242, 94.809459 36.175042, 94.808580 36.172842, 94.807702 36.170642, 94.806823 36.168442, 94.805945 36.166242, 94.805066 36.164042, 94.804188 36.161842, 94.803309 36.159642, 94.802431 36.157442, 94.801552 36.155242, 94.800674 36.153042, 94.799796 36.150842, 94.798918 36.148642, 94.798040 36.146442, 94.797162 36.144242, 94.796284 36.142042, 94.795406 36.139842, 94.794528 36.137642, 94.793650 36.135442, 94.792772 36.133242, 94.791894 36.131042, 94.791016 36.128842, 94.790139 36.126642, 94.789261 36.124442, 94.788384 36.122242, 94.787506 36.120042, 94.786629 36.117842, 94.785751 36.115641, 94.784874 36.113441, 94.783996 36.111241, 94.783119 36.109041, 94.782242 36.106841, 94.781365 36.104641, 94.780488 36.102441, 94.779610 36.100241, 94.778733 36.098040, 94.777856 36.095840, 94.776979 36.093640, 94.776103 36.091440, 94.775226 36.089240, 94.774349 36.087039, 94.773472 36.084839, 94.772595 36.082639, 94.771719 36.080439, 94.770842 36.078239, 94.769966 36.076038, 94.769089 36.073838, 94.768213 36.071638, 94.767336 36.069438, 94.766460 36.067237, 94.765584 36.065037, 94.764707 36.062837, 94.763831 36.060637, 94.762955 36.058436, 94.762079 36.056236, 94.761203 36.054036, 94.760327 36.051836, 94.759451 36.049635, 94.758575 36.047435, 94.757699 36.045235, 94.756823 36.043034, 94.755948 36.040834, 94.755072 36.038634, 94.754196 36.036433, 94.753321 36.034233, 94.752445 36.032033, 94.751569 36.029832, 94.750694 36.027632, 94.749819 36.025432, 94.748943 36.023231, 94.748068 36.021031, 94.747193 36.018830, 94.746317 36.016630, 94.745442 36.014430, 94.744567 36.012229, 94.743692 36.010029, 94.742817 36.007828, 94.741942 36.005628, 94.741067 36.003427, 94.740192 36.001227, 94.739317 35.999027, 94.738442 35.996826, 94.737568 35.994626, 94.736693 35.992425, 94.735818 35.990225, 94.734944 35.988024, 94.734069 35.985824, 94.733195 35.983623, 94.732320 35.981423, 94.731446 35.979222, 94.730572 35.977022, 94.729697 35.974821, 94.728823 35.972621, 94.727949 35.970420, 94.727075 35.968220, 94.726201 35.966019, 94.725326 35.963819, 94.724452 35.961618, 94.723579 35.959418, 94.722705 35.957217, 94.721831 35.955016, 94.720957 35.952816, 94.720083 35.950615, 94.719209 35.948415, 94.718336 35.946214, 94.717462 35.944013, 94.716589 35.941813, 94.715715 35.939612, 94.714842 35.937412, 94.713968 35.935211, 94.713095 35.933010, 94.712221 35.930810, 94.711348 35.928609, 94.710475 35.926408, 94.709602 35.924208, 94.708729 35.922007, 94.707856 35.919806, 94.706983 35.917606, 94.706110 35.915405, 94.705237 35.913204, 94.704364 35.911004, 94.703491 35.908803, 94.702618 35.906602, 94.701745 35.904401, 94.700873 35.902201, 94.700000 35.900000, 94.697439 35.898985, 94.694878 35.897970, 94.692318 35.896955, 94.689757 35.895940, 94.687196 35.894925, 94.684636 35.893910, 94.682075 35.892894, 94.679515 35.891879, 94.676955 35.890864, 94.674394 35.889848, 94.671834 35.888833, 94.669274 35.887817, 94.666714 35.886801, 94.664154 35.885786, 94.661594 35.884770, 94.659034 35.883754, 94.656474 35.882739, 94.653914 35.881723, 94.651355 35.880707, 94.648795 35.879691, 94.646236 35.878675, 94.643676 35.877659, 94.641117 35.876642, 94.638557 35.875626, 94.635998 35.874610, 94.633439 35.873594, 94.630880 35.872577, 94.628320 35.871561, 94.625761 35.870544, 94.623202 35.869528, 94.620644 35.868511, 94.618085 35.867495, 94.615526 35.866478, 94.612967 35.865461, 94.610409 35.864445, 94.607850 35.863428, 94.605292 35.862411, 94.602733 35.861394, 94.600175 35.860377, 94.597616 35.859360, 94.595058 35.858343, 94.592500 35.857325, 94.589942 35.856308, 94.587384 35.855291, 94.584826 35.854274, 94.582268 35.853256, 94.579710 35.852239, 94.577152 35.851221, 94.574595 35.850204, 94.572037 35.849186, 94.569479 35.848168, 94.566922 35.847151, 94.564364 35.846133, 94.561807 35.845115, 94.559250 35.844097, 94.556692 35.843079, 94.554135 35.842061, 94.551578 35.841043, 94.549021 35.840025, 94.546464 35.839007, 94.543907 35.837989, 94.541350 35.836971, 94.538793 35.835952, 94.536237 35.834934, 94.533680 35.833916, 94.531123 35.832897, 94.528567 35.831879, 94.526010 35.830860, 94.523454 35.829841, 94.520898 35.828823, 94.518341 35.827804, 94.515785 35.826785, 94.513229 35.825766, 94.510673 35.824747, 94.508117 35.823728, 94.505561 35.822709, 94.503005 35.821690, 94.500449 35.820671, 94.497894 35.819652, 94.495338 35.818633, 94.492782 35.817613, 94.490227 35.816594, 94.487671 35.815575, 94.485116 35.814555, 94.482560 35.813536, 94.480005 35.812516, 94.477450 35.811497, 94.474895 35.810477, 94.472340 35.809457, 94.469785 35.808437, 94.467230 35.807418, 94.464675 35.806398, 94.462120 35.805378, 94.459565 35.804358, 94.457011 35.803338, 94.454456 35.802318, 94.451901 35.801298, 94.449347 35.800277, 94.446792 35.799257, 94.444238 35.798237, 94.441684 35.797216, 94.439129 35.796196, 94.436575 35.795175, 94.434021 35.794155, 94.431467 35.793134, 94.428913 35.792114, 94.426359 35.791093, 94.423805 35.790072, 94.421252 35.789052, 94.418698 35.788031, 94.416144 35.787010, 94.413591 35.785989, 94.411037 35.784968, 94.408484 35.783947, 94.405930 35.782926, 94.403377 35.781904, 94.400824 35.780883, 94.398271 35.779862, 94.395717 35.778841, 94.393164 35.777819, 94.390611 35.776798, 94.388058 35.775776, 94.385506 35.774755, 94.382953 35.773733, 94.380400 35.772711, 94.377847 35.771690, 94.375295 35.770668, 94.372742 35.769646, 94.370190 35.768624, 94.367637 35.767602, 94.365085 35.766580, 94.362533 35.765558, 94.359981 35.764536, 94.357428 35.763514, 94.354876 35.762492, 94.352324 35.761470, 94.349772 35.760447, 94.347221 35.759425, 94.344669 35.758402, 94.342117 35.757380, 94.339565 35.756357, 94.337014 35.755335, 94.334462 35.754312, 94.331911 35.753290, 94.329359 35.752267, 94.326808 35.751244, 94.324257 35.750221, 94.321705 35.749198, 94.319154 35.748175, 94.316603 35.747152, 94.314052 35.746129, 94.311501 35.745106, 94.308950 35.744083, 94.306399 35.743060, 94.303849 35.742036, 94.301298 35.741013, 94.298747 35.739990, 94.296197 35.738966, 94.293646 35.737943, 94.291096 35.736919, 94.288545 35.735896, 94.285995 35.734872, 94.283445 35.733848, 94.280895 35.732825, 94.278345 35.731801, 94.275795 35.730777, 94.273245 35.729753, 94.270695 35.728729, 94.268145 35.727705, 94.265595 35.726681, 94.263045 35.725657, 94.260496 35.724632, 94.257946 35.723608, 94.255397 35.722584, 94.252847 35.721560, 94.250298 35.720535, 94.247748 35.719511, 94.245199 35.718486, 94.242650 35.717462, 94.240101 35.716437, 94.237552 35.715412, 94.235003 35.714388, 94.232454 35.713363, 94.229905 35.712338, 94.227356 35.711313, 94.224808 35.710288, 94.222259 35.709263, 94.219710 35.708238, 94.217162 35.707213, 94.214613 35.706188, 94.212065 35.705163, 94.209517 35.704137, 94.206968 35.703112, 94.204420 35.702087, 94.201872 35.701061, 94.199324 35.700036, 94.196776 35.699010, 94.194228 35.697985, 94.191680 35.696959, 94.189132 35.695933, 94.186584 35.694907, 94.184037 35.693882, 94.181489 35.692856, 94.178942 35.691830, 94.176394 35.690804, 94.173847 35.689778, 94.171299 35.688752, 94.168752 35.687726, 94.166205 35.686700, 94.163658 35.685673, 94.161111 35.684647, 94.158564 35.683621, 94.156017 35.682594, 94.153470 35.681568, 94.150923 35.680541, 94.148376 35.679515, 94.145829 35.678488, 94.143283 35.677461, 94.140736 35.676435, 94.138190 35.675408, 94.135643 35.674381, 94.133097 35.673354, 94.130551 35.672327, 94.128004 35.671300, 94.125458 35.670273, 94.122912 35.669246, 94.120366 35.668219, 94.117820 35.667192, 94.115274 35.666165, 94.112728 35.665137, 94.110182 35.664110, 94.107637 35.663083, 94.105091 35.662055, 94.102546 35.661028, 94.100000 35.660000, 94.097916 35.658428, 94.095831 35.656855, 94.093747 35.655282, 94.091663 35.653710, 94.089578 35.652137, 94.087494 35.650565, 94.085410 35.648992, 94.083326 35.647419, 94.081243 35.645846, 94.079159 35.644274, 94.077075 35.642701, 94.074992 35.641128, 94.072908 35.639555, 94.070825 35.637982, 94.068741 35.636409, 94.066658 35.634836, 94.064575 35.633263, 94.062492 35.631690, 94.060409 35.630117, 94.058326 35.628543, 94.056243 35.626970, 94.054160 35.625397, 94.052078 35.623824, 94.049995 35.622250, 94.047913 35.620677, 94.045830 35.619104, 94.043748 35.617530, 94.041666 35.615957, 94.039583 35.614383, 94.037501 35.612810, 94.035419 35.611236, 94.033337 35.609663, 94.031255 35.608089, 94.029174 35.606515, 94.027092 35.604942, 94.025010 35.603368, 94.022929 35.601794, 94.020847 35.600220, 94.018766 35.598646, 94.016685 35.597073, 94.014604 35.595499, 94.012522 35.593925, 94.010441 35.592351, 94.008360 35.590777, 94.006280 35.589203, 94.004199 35.587628, 94.002118 35.586054, 94.000037 35.584480, 93.997957 35.582906, 93.995876 35.581332, 93.993796 35.579757, 93.991716 35.578183, 93.989635 35.576609, 93.987555 35.575034, 93.985475 35.573460, 93.983395 35.571886, 93.981315 35.570311, 93.979236 35.568737, 93.977156 35.567162, 93.975076 35.565587, 93.972997 35.564013, 93.970917 35.562438, 93.968838 35.560863, 93.966758 35.559289, 93.964679 35.557714, 93.962600 35.556139, 93.960521 35.554564, 93.958442 35.552989, 93.956363 35.551414, 93.954284 35.549839, 93.952205 35.548264, 93.950127 35.546689, 93.948048 35.545114, 93.945970 35.543539, 93.943891 35.541964, 93.941813 35.540389, 93.939735 35.538814, 93.937657 35.537238, 93.935578 35.535663, 93.933500 35.534088, 93.931422 35.532513, 93.929345 35.530937, 93.927267 35.529362, 93.925189 35.527786, 93.923112 35.526211, 93.921034 35.524635, 93.918957 35.523060, 93.916879 35.521484, 93.914802 35.519908, 93.912725 35.518333, 93.910648 35.516757, 93.908571 35.515181, 93.906494 35.513606, 93.904417 35.512030, 93.902340 35.510454, 93.900263 35.508878, 93.898187 35.507302, 93.896110 35.505726, 93.894034 35.504150, 93.891957 35.502574, 93.889881 35.500998, 93.887805 35.499422, 93.885729 35.497846, 93.883653 35.496270, 93.881577 35.494693, 93.879501 35.493117, 93.877425 35.491541, 93.875349 35.489965, 93.873273 35.488388, 93.871198 35.486812, 93.869122 35.485235, 93.867047 35.483659, 93.864972 35.482083, 93.862896 35.480506, 93.860821 35.478929, 93.858746 35.477353, 93.856671 35.475776, 93.854596 35.474200, 93.852521 35.472623, 93.850447 35.471046, 93.848372 35.469469, 93.846297 35.467893, 93.844223 35.466316, 93.842148 35.464739, 93.840074 35.463162, 93.838000 35.461585, 93.835926 35.460008, 93.833852 35.458431, 93.831778 35.456854, 93.829704 35.455277, 93.827630 35.453700, 93.825556 35.452123, 93.823482 35.450545, 93.821409 35.448968, 93.819335 35.447391, 93.817262 35.445814, 93.815188 35.444236, 93.813115 35.442659, 93.811042 35.441081, 93.808969 35.439504, 93.806896 35.437926, 93.804823 35.436349, 93.802750 35.434771, 93.800677 35.433194, 93.798604 35.431616, 93.796532 35.430039, 93.794459 35.428461, 93.792387 35.426883, 93.790314 35.425305, 93.788242 35.423728, 93.786170 35.422150, 93.784097 35.420572, 93.782025 35.418994, 93.779953 35.417416, 93.777881 35.415838, 93.775810 35.414260, 93.773738 35.412682, 93.771666 35.411104, 93.769595 35.409526, 93.767523 35.407948, 93.765452 35.406369, 93.763380 35.404791, 93.761309 35.403213, 93.759238 35.401635, 93.757167 35.400056, 93.755096 35.398478, 93.753025 35.396900, 93.750954 35.395321, 93.748883 35.393743, 93.746812 35.392164, 93.744742 35.390586, 93.742671 35.389007, 93.740601 35.387428, 93.738531 35.385850, 93.736460 35.384271, 93.734390 35.382692, 93.732320 35.381114, 93.730250 35.379535, 93.728180 35.377956, 93.726110 35.376377, 93.724040 35.374798, 93.721970 35.373219, 93.719901 35.371640, 93.717831 35.370061, 93.715762 35.368482, 93.713692 35.366903, 93.711623 35.365324, 93.709554 35.363745, 93.707485 35.362166, 93.705416 35.360587, 93.703347 35.359007, 93.701278 35.357428, 93.699209 35.355849, 93.697140 35.354269, 93.695071 35.352690, 93.693003 35.351111, 93.690934 35.349531, 93.688866 35.347952, 93.686798 35.346372, 93.684729 35.344792, 93.682661 35.343213, 93.680593 35.341633, 93.678525 35.340054, 93.676457 35.338474, 93.674389 35.336894, 93.672321 35.335314, 93.670254 35.333735, 93.668186 35.332155, 93.666119 35.330575, 93.664051 35.328995, 93.661984 35.327415, 93.659916 35.325835, 93.657849 35.324255, 93.655782 35.322675, 93.653715 35.321095, 93.651648 35.319515, 93.649581 35.317934, 93.647514 35.316354, 93.645448 35.314774, 93.643381 35.313194, 93.641314 35.311613, 93.639248 35.310033, 93.637182 35.308453, 93.635115 35.306872, 93.633049 35.305292, 93.630983 35.303711, 93.628917 35.302131, 93.626851 35.300550, 93.624785 35.298970, 93.622719 35.297389, 93.620653 35.295808, 93.618587 35.294228, 93.616522 35.292647, 93.614456 35.291066, 93.612391 35.289486, 93.610326 35.287905, 93.608260 35.286324, 93.606195 35.284743, 93.604130 35.283162, 93.602065 35.281581, 93.600000 35.280000, 93.598089 35.278299, 93.596177 35.276599, 93.594266 35.274898, 93.592354 35.273198, 93.590443 35.271497, 93.588532 35.269796, 93.586621 35.268095, 93.584710 35.266395, 93.582799 35.264694, 93.580889 35.262993, 93.578978 35.261292, 93.577067 35.259591, 93.575157 35.257890, 93.573246 35.256189, 93.571336 35.254488, 93.569426 35.252787, 93.567515 35.251086, 93.565605 35.249385, 93.563695 35.247684, 93.561785 35.245983, 93.559875 35.244282, 93.557966 35.242581, 93.556056 35.240879, 93.554146 35.239178, 93.552237 35.237477, 93.550327 35.235775, 93.548418 35.234074, 93.546508 35.232373, 93.544599 35.230671, 93.542690 35.228970, 93.540781 35.227268, 93.538872 35.225567, 93.536963 35.223865, 93.535054 35.222164, 93.533145 35.220462, 93.531237 35.218761, 93.529328 35.217059, 93.527419 35.215357, 93.525511 35.213656, 93.523603 35.211954, 93.521694 35.210252, 93.519786 35.208550, 93.517878 35.206848, 93.515970 35.205147, 93.514062 35.203445, 93.512154 35.201743, 93.510246 35.200041, 93.508338 35.198339, 93.506431 35.196637, 93.504523 35.194935, 93.502616 35.193233, 93.500708 35.191531, 93.498801 35.189828, 93.496894 35.188126, 93.494987 35.186424, 93.493079 35.184722, 93.491172 35.183020, 93.489266 35.181317, 93.487359 35.179615, 93.485452 35.177913, 93.483545 35.176210, 93.481639 35.174508, 93.479732 35.172805, 93.477826 35.171103, 93.475919 35.169401, 93.474013 35.167698, 93.472107 35.165995, 93.470201 35.164293, 93.468295 35.162590, 93.466389 35.160888, 93.464483 35.159185, 93.462577 35.157482, 93.460671 35.155780, 93.458765 35.154077, 93.456860 35.152374, 93.454954 35.150671, 93.453049 35.148968, 93.451144 35.147265, 93.449238 35.145563, 93.447333 35.143860, 93.445428 35.142157, 93.443523 35.140454, 93.441618 35.138751, 93.439713 35.137048, 93.437808 35.135345, 93.435904 35.133641, 93.433999 35.131938, 93.432095 35.130235, 93.430190 35.128532, 93.428286 35.126829, 93.426381 35.125125, 93.424477 35.123422, 93.422573 35.121719, 93.420669 35.120015, 93.418765 35.118312, 93.416861 35.116609, 93.414957 35.114905, 93.413054 35.113202, 93.411150 35.111498, 93.409246 35.109795, 93.407343 35.108091, 93.405439 35.106388, 93.403536 35.104684, 93.401633 35.102980, 93.399730 35.101277, 93.397826 35.099573, 93.395923 35.097869, 93.394020 35.096165, 93.392118 35.094462, 93.390215 35.092758, 93.388312 35.091054, 93.386409 35.089350, 93.384507 35.087646, 93.382604 35.085942, 93.380702 35.084238, 93.378800 35.082534, 93.376898 35.080830, 93.374995 35.079126, 93.373093 35.077422, 93.371191 35.075718, 93.369289 35.074014, 93.367388 35.072309, 93.365486 35.070605, 93.363584 35.068901, 93.361683 35.067197, 93.359781 35.065492, 93.357880 35.063788, 93.355978 35.062084, 93.354077 35.060379, 93.352176 35.058675, 93.350275 35.056970, 93.348374 35.055266, 93.346473 35.053561, 93.344572 35.051857, 93.342671 35.050152, 93.340770 35.048448, 93.338870 35.046743, 93.336969 35.045038, 93.335068 35.043334, 93.333168 35.041629, 93.331268 35.039924, 93.329367 35.038220, 93.327467 35.036515, 93.325567 35.034810, 93.323667 35.033105, 93.321767 35.031400, 93.319867 35.029695, 93.317968 35.027990, 93.316068 35.026285, 93.314168 35.024580, 93.312269 35.022875, 93.310369 35.021170, 93.308470 35.019465, 93.306571 35.017760, 93.304671 35.016055, 93.302772 35.014350, 93.300873 35.012644, 93.298974 35.010939, 93.297075 35.009234, 93.295177 35.007528, 93.293278 35.005823, 93.291379 35.004118, 93.289481 35.002412, 93.287582 35.000707, 93.285684 34.999001, 93.283785 34.997296, 93.281887 34.995590, 93.279989 34.993885, 93.278091 34.992179, 93.276193 34.990474, 93.274295 34.988768, 93.272397 34.987062, 93.270499 34.985357, 93.268601 34.983651, 93.266704 34.981945, 93.264806 34.980239, 93.262909 34.978534, 93.261011 34.976828, 93.259114 34.975122, 93.257217 34.973416, 93.255320 34.971710, 93.253422 34.970004, 93.251525 34.968298, 93.249629 34.966592, 93.247732 34.964886, 93.245835 34.963180, 93.243938 34.961474, 93.242042 34.959768, 93.240145 34.958062, 93.238249 34.956355, 93.236352 34.954649, 93.234456 34.952943, 93.232560 34.951237, 93.230664 34.949530, 93.228768 34.947824, 93.226872 34.946118, 93.224976 34.944411, 93.223080 34.942705, 93.221184 34.940998, 93.219288 34.939292, 93.217393 34.937585, 93.215497 34.935879, 93.213602 34.934172, 93.211707 34.932466, 93.209811 34.930759, 93.207916 34.929052, 93.206021 34.927346, 93.204126 34.925639, 93.202231 34.923932, 93.200336 34.922225, 93.198441 34.920518, 93.196547 34.918812, 93.194652 34.917105, 93.192757 34.915398, 93.190863 34.913691, 93.188969 34.911984, 93.187074 34.910277, 93.185180 34.908570, 93.183286 34.906863, 93.181392 34.905156, 93.179498 34.903449, 93.177604 34.901742, 93.175710 34.900034, 93.173816 34.898327, 93.171923 34.896620, 93.170029 34.894913, 93.168135 34.893205, 93.166242 34.891498, 93.164349 34.889791, 93.162455 34.888083, 93.160562 34.886376, 93.158669 34.884669, 93.156776 34.882961, 93.154883 34.881254, 93.152990 34.879546, 93.151097 34.877839, 93.149204 34.876131, 93.147312 34.874423, 93.145419 34.872716, 93.143527 34.871008, 93.141634 34.869300, 93.139742 34.867593, 93.137850 34.865885, 93.135957 34.864177, 93.134065 34.862469, 93.132173 34.860761, 93.130281 34.859054, 93.128389 34.857346, 93.126498 34.855638, 93.124606 34.853930, 93.122714 34.852222, 93.120823 34.850514, 93.118931 34.848806, 93.117040 34.847098, 93.115148 34.845390, 93.113257 34.843681, 93.111366 34.841973, 93.109475 34.840265, 93.107584 34.838557, 93.105693 34.836849, 93.103802 34.835140, 93.101911 34.833432, 93.100021 34.831724, 93.098130 34.830015, 93.096239 34.828307, 93.094349 34.826598, 93.092458 34.824890, 93.090568 34.823181, 93.088678 34.821473, 93.086788 34.819764, 93.084898 34.818056, 93.083008 34.816347, 93.081118 34.814639, 93.079228 34.812930, 93.077338 34.811221, 93.075448 34.809513, 93.073559 34.807804, 93.071669 34.806095, 93.069780 34.804386, 93.067891 34.802677, 93.066001 34.800968, 93.064112 34.799260, 93.062223 34.797551, 93.060334 34.795842, 93.058445 34.794133, 93.056556 34.792424, 93.054667 34.790715, 93.052778 34.789006, 93.050890 34.787296, 93.049001 34.785587, 93.047113 34.783878, 93.045224 34.782169, 93.043336 34.780460, 93.041448 34.778751, 93.039559 34.777041, 93.037671 34.775332, 93.035783 34.773623, 93.033895 34.771913, 93.032007 34.770204, 93.030120 34.768494, 93.028232 34.766785, 93.026344 34.765076, 93.024457 34.763366, 93.022569 34.761656, 93.020682 34.759947, 93.018794 34.758237, 93.016907 34.756528, 93.015020 34.754818, 93.013133 34.753108, 93.011246 34.751399, 93.009359 34.749689, 93.007472 34.747979, 93.005585 34.746269, 93.003698 34.744560, 93.001812 34.742850, 92.999925 34.741140, 92.998039 34.739430, 92.996152 34.737720, 92.994266 34.736010, 92.992380 34.734300, 92.990494 34.732590, 92.988608 34.730880, 92.986722 34.729170, 92.984836 34.727460, 92.982950 34.725749, 92.981064 34.724039, 92.979178 34.722329, 92.977293 34.720619, 92.975407 34.718909, 92.973522 34.717198, 92.971636 34.715488, 92.969751 34.713778, 92.967866 34.712067, 92.965981 34.710357, 92.964095 34.708646, 92.962210 34.706936, 92.960326 34.705225, 92.958441 34.703515, 92.956556 34.701804, 92.954671 34.700094, 92.952787 34.698383, 92.950902 34.696673, 92.949018 34.694962, 92.947133 34.693251, 92.945249 34.691540, 92.943365 34.689830, 92.941481 34.688119, 92.939597 34.686408, 92.937713 34.684697, 92.935829 34.682986, 92.933945 34.681275, 92.932061 34.679565, 92.930177 34.677854, 92.928294 34.676143, 92.926410 34.674432, 92.924527 34.672720, 92.922644 34.671009, 92.920760 34.669298, 92.918877 34.667587, 92.916994 34.665876, 92.915111 34.664165, 92.913228 34.662454, 92.911345 34.660742, 92.909462 34.659031, 92.907579 34.657320, 92.905697 34.655608, 92.903814 34.653897, 92.901932 34.652186, 92.900049 34.650474, 92.898167 34.648763, 92.896285 34.647051, 92.894402 34.645340, 92.892520 34.643628, 92.890638 34.641917, 92.888756 34.640205, 92.886874 34.638493, 92.884993 34.636782, 92.883111 34.635070, 92.881229 34.633358, 92.879348 34.631647, 92.877466 34.629935, 92.875585 34.628223, 92.873703 34.626511, 92.871822 34.624799, 92.869941 34.623088, 92.868060 34.621376, 92.866179 34.619664, 92.864298 34.617952, 92.862417 34.616240, 92.860536 34.614528, 92.858656 34.612816, 92.856775 34.611104, 92.854894 34.609391, 92.853014 34.607679, 92.851133 34.605967, 92.849253 34.604255, 92.847373 34.602543, 92.845493 34.600830, 92.843613 34.599118, 92.841733 34.597406, 92.839853 34.595693, 92.837973 34.593981, 92.836093 34.592269, 92.834213 34.590556, 92.832334 34.588844, 92.830454 34.587131, 92.828575 34.585419, 92.826695 34.583706, 92.824816 34.581994, 92.822937 34.580281, 92.821057 34.578568, 92.819178 34.576856, 92.817299 34.575143, 92.815420 34.573430, 92.813542 34.571718, 92.811663 34.570005, 92.809784 34.568292, 92.807905 34.566579, 92.806027 34.564866, 92.804148 34.563153, 92.802270 34.561440, 92.800392 34.559727, 92.798513 34.558014, 92.796635 34.556301, 92.794757 34.554588, 92.792879 34.552875, 92.791001 34.551162, 92.789123 34.549449, 92.787246 34.547736, 92.785368 34.546023, 92.783490 34.544310, 92.781613 34.542596, 92.779735 34.540883, 92.777858 34.539170, 92.775981 34.537456, 92.774103 34.535743, 92.772226 34.534030, 92.770349 34.532316, 92.768472 34.530603, 92.766595 34.528889, 92.764718 34.527176, 92.762842 34.525462, 92.760965 34.523749, 92.759088 34.522035, 92.757212 34.520322, 92.755335 34.518608, 92.753459 34.516894, 92.751583 34.515181, 92.749706 34.513467, 92.747830 34.511753, 92.745954 34.510039, 92.744078 34.508326, 92.742202 34.506612, 92.740326 34.504898, 92.738451 34.503184, 92.736575 34.501470, 92.734699 34.499756, 92.732824 34.498042, 92.730948 34.496328, 92.729073 34.494614, 92.727198 34.492900, 92.725322 34.491186, 92.723447 34.489472, 92.721572 34.487758, 92.719697 34.486043, 92.717822 34.484329, 92.715947 34.482615, 92.714073 34.480901, 92.712198 34.479186, 92.710323 34.477472, 92.708449 34.475758, 92.706574 34.474043, 92.704700 34.472329, 92.702826 34.470614, 92.700951 34.468900, 92.699077 34.467185, 92.697203 34.465471, 92.695329 34.463756, 92.693455 34.462042, 92.691581 34.460327, 92.689708 34.458612, 92.687834 34.456898, 92.685960 34.455183, 92.684087 34.453468, 92.682213 34.451754, 92.680340 34.450039, 92.678467 34.448324, 92.676593 34.446609, 92.674720 34.444894, 92.672847 34.443179, 92.670974 34.441464, 92.669101 34.439749, 92.667228 34.438034, 92.665356 34.436319, 92.663483 34.434604, 92.661610 34.432889, 92.659738 34.431174, 92.657865 34.429459, 92.655993 34.427744, 92.654121 34.426029, 92.652248 34.424314, 92.650376 34.422598, 92.648504 34.420883, 92.646632 34.419168, 92.644760 34.417452, 92.642888 34.415737, 92.641017 34.414022, 92.639145 34.412306, 92.637273 34.410591, 92.635402 34.408875, 92.633530 34.407160, 92.631659 34.405444, 92.629788 34.403729, 92.627916 34.402013, 92.626045 34.400298, 92.624174 34.398582, 92.622303 34.396866, 92.620432 34.395151, 92.618561 34.393435, 92.616691 34.391719, 92.614820 34.390003, 92.612949 34.388287, 92.611079 34.386572, 92.609208 34.384856, 92.607338 34.383140, 92.605468 34.381424, 92.603597 34.379708, 92.601727 34.377992, 92.599857 34.376276, 92.597987 34.374560, 92.596117 34.372844, 92.594247 34.371128, 92.592378 34.369412, 92.590508 34.367695, 92.588638 34.365979, 92.586769 34.364263, 92.584899 34.362547, 92.583030 34.360831, 92.581161 34.359114, 92.579291 34.357398, 92.577422 34.355682, 92.575553 34.353965, 92.573684 34.352249, 92.571815 34.350532, 92.569946 34.348816, 92.568078 34.347099, 92.566209 34.345383, 92.564340 34.343666, 92.562472 34.341950, 92.560603 34.340233, 92.558735 34.338516, 92.556867 34.336800, 92.554998 34.335083, 92.553130 34.333366, 92.551262 34.331650, 92.549394 34.329933, 92.547526 34.328216, 92.545658 34.326499, 92.543790 34.324782, 92.541923 34.323065, 92.540055 34.321348, 92.538188 34.319632, 92.536320 34.317915, 92.534453 34.316198, 92.532585 34.314481, 92.530718 34.312763, 92.528851 34.311046, 92.526984 34.309329, 92.525117 34.307612, 92.523250 34.305895, 92.521383 34.304178, 92.519516 34.302460, 92.517650 34.300743, 92.515783 34.299026, 92.513916 34.297309, 92.512050 34.295591, 92.510183 34.293874, 92.508317 34.292156, 92.506451 34.290439, 92.504585 34.288722, 92.502719 34.287004, 92.500853 34.285287, 92.498987 34.283569, 92.497121 34.281851, 92.495255 34.280134, 92.493389 34.278416, 92.491524 34.276699, 92.489658 34.274981, 92.487793 34.273263, 92.485927 34.271545, 92.484062 34.269828, 92.482196 34.268110, 92.480331 34.266392, 92.478466 34.264674, 92.476601 34.262956, 92.474736 34.261238, 92.472871 34.259520, 92.471007 34.257802, 92.469142 34.256084, 92.467277 34.254366, 92.465413 34.252648, 92.463548 34.250930, 92.461684 34.249212, 92.459819 34.247494, 92.457955 34.245776, 92.456091 34.244058, 92.454227 34.242339, 92.452363 34.240621, 92.450499 34.238903, 92.448635 34.237185, 92.446771 34.235466, 92.444907 34.233748, 92.443044 34.232030, 92.441180 34.230311, 92.439316 34.228593, 92.437453 34.226874, 92.435590 34.225156, 92.433726 34.223437, 92.431863 34.221719, 92.430000 34.220000, 92.429068 34.217822, 92.428136 34.215643, 92.427204 34.213465, 92.426272 34.211287, 92.425341 34.209109, 92.424409 34.206930, 92.423477 34.204752, 92.422546 34.202574, 92.421614 34.200395, 92.420683 34.198217, 92.419751 34.196039, 92.418820 34.193860, 92.417888 34.191682, 92.416957 34.189504, 92.416026 34.187325, 92.415095 34.185147, 92.414163 34.182968, 92.413232 34.180790, 92.412301 34.178612, 92.411370 34.176433, 92.410439 34.174255, 92.409508 34.172076, 92.408577 34.169898, 92.407646 34.167719, 92.406716 34.165541, 92.405785 34.163363, 92.404854 34.161184, 92.403924 34.159006, 92.402993 34.156827, 92.402062 34.154649, 92.401132 34.152470, 92.400201 34.150292, 92.399271 34.148113, 92.398341 34.145935, 92.397410 34.143756, 92.396480 34.141578, 92.395550 34.139399, 92.394620 34.137221, 92.393689 34.135042, 92.392759 34.132864, 92.391829 34.130685, 92.390899 34.128506, 92.389969 34.126328, 92.389040 34.124149, 92.388110 34.121971, 92.387180 34.119792, 92.386250 34.117613, 92.385321 34.115435, 92.384391 34.113256, 92.383461 34.111078, 92.382532 34.108899, 92.381602 34.106720, 92.380673 34.104542, 92.379743 34.102363, 92.378814 34.100184, 92.377885 34.098006, 92.376955 34.095827, 92.376026 34.093648, 92.375097 34.091470, 92.374168 34.089291, 92.373239 34.087112, 92.372310 34.084934, 92.371381 34.082755, 92.370452 34.080576, 92.369523 34.078398, 92.368594 34.076219, 92.367665 34.074040, 92.366737 34.071861, 92.365808 34.069683, 92.364879 34.067504, 92.363951 34.065325, 92.363022 34.063146, 92.362094 34.060967, 92.361165 34.058789, 92.360237 34.056610, 92.359308 34.054431, 92.358380 34.052252, 92.357452 34.050073, 92.356524 34.047895, 92.355596 34.045716, 92.354667 34.043537, 92.353739 34.041358, 92.352811 34.039179, 92.351883 34.037000, 92.350955 34.034822, 92.350028 34.032643, 92.349100 34.030464, 92.348172 34.028285, 92.347244 34.026106, 92.346317 34.023927, 92.345389 34.021748, 92.344461 34.019569, 92.343534 34.017390, 92.342606 34.015211, 92.341679 34.013033, 92.340751 34.010854, 92.339824 34.008675, 92.338897 34.006496, 92.337969 34.004317, 92.337042 34.002138, 92.336115 33.999959, 92.335188 33.997780, 92.334261 33.995601, 92.333334 33.993422, 92.332407 33.991243, 92.331480 33.989064, 92.330553 33.986885, 92.329626 33.984706, 92.328699 33.982527, 92.327773 33.980348, 92.326846 33.978169, 92.325919 33.975990, 92.324993 33.973811, 92.324066 33.971631, 92.323140 33.969452, 92.322213 33.967273, 92.321287 33.965094, 92.320361 33.962915, 92.319434 33.960736, 92.318508 33.958557, 92.317582 33.956378, 92.316656 33.954199, 92.315729 33.952020, 92.314803 33.949840, 92.313877 33.947661, 92.312951 33.945482, 92.312025 33.943303, 92.311100 33.941124, 92.310174 33.938945, 92.309248 33.936766, 92.308322 33.934586, 92.307397 33.932407, 92.306471 33.930228, 92.305545 33.928049, 92.304620 33.925870, 92.303694 33.923690, 92.302769 33.921511, 92.301843 33.919332, 92.300918 33.917153, 92.299993 33.914973, 92.299067 33.912794, 92.298142 33.910615, 92.297217 33.908436, 92.296292 33.906256, 92.295367 33.904077, 92.294442 33.901898, 92.293517 33.899718, 92.292592 33.897539, 92.291667 33.895360, 92.290742 33.893181, 92.289817 33.891001, 92.288893 33.888822, 92.287968 33.886643, 92.287043 33.884463, 92.286119 33.882284, 92.285194 33.880104, 92.284270 33.877925, 92.283345 33.875746, 92.282421 33.873566, 92.281496 33.871387, 92.280572 33.869208, 92.279648 33.867028, 92.278724 33.864849, 92.277799 33.862669, 92.276875 33.860490, 92.275951 33.858311, 92.275027 33.856131, 92.274103 33.853952, 92.273179 33.851772, 92.272255 33.849593, 92.271331 33.847413, 92.270408 33.845234, 92.269484 33.843054, 92.268560 33.840875, 92.267636 33.838695, 92.266713 33.836516, 92.265789 33.834336, 92.264866 33.832157, 92.263942 33.829977, 92.263019 33.827798, 92.262095 33.825618, 92.261172 33.823439, 92.260249 33.821259, 92.259326 33.819080, 92.258402 33.816900, 92.257479 33.814721, 92.256556 33.812541, 92.255633 33.810361, 92.254710 33.808182, 92.253787 33.806002, 92.252864 33.803823, 92.251941 33.801643, 92.251019 33.799463, 92.250096 33.797284, 92.249173 33.795104, 92.248250 33.792925, 92.247328 33.790745, 92.246405 33.788565, 92.245483 33.786386, 92.244560 33.784206, 92.243638 33.782026, 92.242715 33.779847, 92.241793 33.777667, 92.240871 33.775487, 92.239948 33.773308, 92.239026 33.771128, 92.238104 33.768948, 92.237182 33.766768, 92.236260 33.764589, 92.235338 33.762409, 92.234416 33.760229, 92.233494 33.758050, 92.232572 33.755870, 92.231650 33.753690, 92.230729 33.751510, 92.229807 33.749331, 92.228885 33.747151, 92.227964 33.744971, 92.227042 33.742791, 92.226120 33.740611, 92.225199 33.738432, 92.224277 33.736252, 92.223356 33.734072, 92.222435 33.731892, 92.221513 33.729712, 92.220592 33.727532, 92.219671 33.725353, 92.218750 33.723173, 92.217829 33.720993, 92.216907 33.718813, 92.215986 33.716633, 92.215065 33.714453, 92.214144 33.712273, 92.213224 33.710094, 92.212303 33.707914, 92.211382 33.705734, 92.210461 33.703554, 92.209541 33.701374, 92.208620 33.699194, 92.207699 33.697014, 92.206779 33.694834, 92.205858 33.692654, 92.204938 33.690474, 92.204017 33.688294, 92.203097 33.686114, 92.202177 33.683934, 92.201256 33.681754, 92.200336 33.679574, 92.199416 33.677394, 92.198496 33.675214, 92.197576 33.673034, 92.196656 33.670854, 92.195736 33.668674, 92.194816 33.666494, 92.193896 33.664314, 92.192976 33.662134, 92.192056 33.659954, 92.191136 33.657774, 92.190216 33.655594, 92.189297 33.653414, 92.188377 33.651234, 92.187458 33.649054, 92.186538 33.646874, 92.185619 33.644694, 92.184699 33.642513, 92.183780 33.640333, 92.182860 33.638153, 92.181941 33.635973, 92.181022 33.633793, 92.180103 33.631613, 92.179183 33.629433, 92.178264 33.627253, 92.177345 33.625072, 92.176426 33.622892, 92.175507 33.620712, 92.174588 33.618532, 92.173669 33.616352, 92.172751 33.614172, 92.171832 33.611991, 92.170913 33.609811, 92.169994 33.607631, 92.169076 33.605451, 92.168157 33.603270, 92.167238 33.601090, 92.166320 33.598910, 92.165401 33.596730, 92.164483 33.594549, 92.163565 33.592369, 92.162646 33.590189, 92.161728 33.588009, 92.160810 33.585828, 92.159892 33.583648, 92.158973 33.581468, 92.158055 33.579288, 92.157137 33.577107, 92.156219 33.574927, 92.155301 33.572747, 92.154383 33.570566, 92.153466 33.568386, 92.152548 33.566206, 92.151630 33.564025, 92.150712 33.561845, 92.149795 33.559665, 92.148877 33.557484, 92.147959 33.555304, 92.147042 33.553123, 92.146124 33.550943, 92.145207 33.548763, 92.144289 33.546582, 92.143372 33.544402, 92.142455 33.542221, 92.141538 33.540041, 92.140620 33.537861, 92.139703 33.535680, 92.138786 33.533500, 92.137869 33.531319, 92.136952 33.529139, 92.136035 33.526958, 92.135118 33.524778, 92.134201 33.522597, 92.133284 33.520417, 92.132367 33.518236, 92.131451 33.516056, 92.130534 33.513875, 92.129617 33.511695, 92.128701 33.509514, 92.127784 33.507334, 92.126868 33.505153, 92.125951 33.502973, 92.125035 33.500792, 92.124118 33.498612, 92.123202 33.496431, 92.122286 33.494251, 92.121369 33.492070, 92.120453 33.489889, 92.119537 33.487709, 92.118621 33.485528, 92.117705 33.483348, 92.116789 33.481167, 92.115873 33.478986, 92.114957 33.476806, 92.114041 33.474625, 92.113125 33.472445, 92.112209 33.470264, 92.111294 33.468083, 92.110378 33.465903, 92.109462 33.463722, 92.108547 33.461541, 92.107631 33.459361, 92.106716 33.457180, 92.105800 33.454999, 92.104885 33.452819, 92.103969 33.450638, 92.103054 33.448457, 92.102139 33.446276, 92.101224 33.444096, 92.100308 33.441915, 92.099393 33.439734, 92.098478 33.437553, 92.097563 33.435373, 92.096648 33.433192, 92.095733 33.431011, 92.094818 33.428830, 92.093903 33.426650, 92.092989 33.424469, 92.092074 33.422288, 92.091159 33.420107, 92.090244 33.417927, 92.089330 33.415746, 92.088415 33.413565, 92.087501 33.411384, 92.086586 33.409203, 92.085672 33.407022, 92.084757 33.404842, 92.083843 33.402661, 92.082929 33.400480, 92.082014 33.398299, 92.081100 33.396118, 92.080186 33.393937, 92.079272 33.391756, 92.078358 33.389576, 92.077444 33.387395, 92.076530 33.385214, 92.075616 33.383033, 92.074702 33.380852, 92.073788 33.378671, 92.072874 33.376490, 92.071960 33.374309, 92.071047 33.372128, 92.070133 33.369947, 92.069219 33.367766, 92.068306 33.365585, 92.067392 33.363404, 92.066479 33.361223, 92.065565 33.359042, 92.064652 33.356861, 92.063739 33.354680, 92.062825 33.352499, 92.061912 33.350318, 92.060999 33.348137, 92.060086 33.345956, 92.059173 33.343775, 92.058259 33.341594, 92.057346 33.339413, 92.056433 33.337232, 92.055520 33.335051, 92.054608 33.332870, 92.053695 33.330689, 92.052782 33.328508, 92.051869 33.326327, 92.050956 33.324146, 92.050044 33.321965, 92.049131 33.319784, 92.048219 33.317603, 92.047306 33.315421, 92.046394 33.313240, 92.045481 33.311059, 92.044569 33.308878, 92.043656 33.306697, 92.042744 33.304516, 92.041832 33.302335, 92.040920 33.300153, 92.040007 33.297972, 92.039095 33.295791, 92.038183 33.293610, 92.037271 33.291429, 92.036359 33.289248, 92.035447 33.287066, 92.034535 33.284885, 92.033624 33.282704, 92.032712 33.280523, 92.031800 33.278341, 92.030888 33.276160, 92.029977 33.273979, 92.029065 33.271798, 92.028154 33.269616, 92.027242 33.267435, 92.026331 33.265254, 92.025419 33.263073, 92.024508 33.260891, 92.023596 33.258710, 92.022685 33.256529, 92.021774 33.254348, 92.020863 33.252166, 92.019951 33.249985, 92.019040 33.247804, 92.018129 33.245622, 92.017218 33.243441, 92.016307 33.241260, 92.015396 33.239078, 92.014485 33.236897, 92.013575 33.234715, 92.012664 33.232534, 92.011753 33.230353, 92.010842 33.228171, 92.009932 33.225990, 92.009021 33.223809, 92.008110 33.221627, 92.007200 33.219446, 92.006289 33.217264, 92.005379 33.215083, 92.004469 33.212902, 92.003558 33.210720, 92.002648 33.208539, 92.001738 33.206357, 92.000828 33.204176, 91.999917 33.201994, 91.999007 33.199813, 91.998097 33.197631, 91.997187 33.195450, 91.996277 33.193268, 91.995367 33.191087, 91.994457 33.188905, 91.993547 33.186724, 91.992638 33.184542, 91.991728 33.182361, 91.990818 33.180179, 91.989909 33.177998, 91.988999 33.175816, 91.988089 33.173635, 91.987180 33.171453, 91.986270 33.169272, 91.985361 33.167090, 91.984452 33.164908, 91.983542 33.162727, 91.982633 33.160545, 91.981724 33.158364, 91.980814 33.156182, 91.979905 33.154001, 91.978996 33.151819, 91.978087 33.149637, 91.977178 33.147456, 91.976269 33.145274, 91.975360 33.143092, 91.974451 33.140911, 91.973542 33.138729, 91.972634 33.136547, 91.971725 33.134366, 91.970816 33.132184, 91.969907 33.130002, 91.968999 33.127821, 91.968090 33.125639, 91.967182 33.123457, 91.966273 33.121276, 91.965365 33.119094, 91.964456 33.116912, 91.963548 33.114730, 91.962640 33.112549, 91.961731 33.110367, 91.960823 33.108185, 91.959915 33.106004, 91.959007 33.103822, 91.958099 33.101640, 91.957191 33.099458, 91.956283 33.097276, 91.955375 33.095095, 91.954467 33.092913, 91.953559 33.090731, 91.952651 33.088549, 91.951744 33.086367, 91.950836 33.084186, 91.949928 33.082004, 91.949020 33.079822, 91.948113 33.077640, 91.947205 33.075458, 91.946298 33.073276, 91.945390 33.071095, 91.944483 33.068913, 91.943576 33.066731, 91.942668 33.064549, 91.941761 33.062367, 91.940854 33.060185, 91.939947 33.058003, 91.939039 33.055821, 91.938132 33.053640, 91.937225 33.051458, 91.936318 33.049276, 91.935411 33.047094, 91.934504 33.044912, 91.933598 33.042730, 91.932691 33.040548, 91.931784 33.038366, 91.930877 33.036184, 91.929971 33.034002, 91.929064 33.031820, 91.928157 33.029638, 91.927251 33.027456, 91.926344 33.025274, 91.925438 33.023092, 91.924531 33.020910, 91.923625 33.018728, 91.922719 33.016546, 91.921812 33.014364, 91.920906 33.012182, 91.920000 33.010000, 91.919282 33.007775, 91.918564 33.005550, 91.917846 33.003325, 91.917128 33.001101, 91.916410 32.998876, 91.915692 32.996651, 91.914974 32.994426, 91.914256 32.992201, 91.913538 32.989976, 91.912820 32.987751, 91.912102 32.985527, 91.911384 32.983302, 91.910667 32.981077, 91.909949 32.978852, 91.909231 32.976627, 91.908514 32.974402, 91.907796 32.972177, 91.907079 32.969952, 91.906361 32.967727, 91.905644 32.965502, 91.904926 32.963278, 91.904209 32.961053, 91.903491 32.958828, 91.902774 32.956603, 91.902057 32.954378, 91.901340 32.952153, 91.900622 32.949928, 91.899905 32.947703, 91.899188 32.945478, 91.898471 32.943253, 91.897754 32.941028, 91.897037 32.938803, 91.896320 32.936578, 91.895603 32.934353, 91.894886 32.932128, 91.894169 32.929903, 91.893452 32.927678, 91.892735 32.925453, 91.892018 32.923228, 91.891302 32.921003, 91.890585 32.918778, 91.889868 32.916553, 91.889152 32.914328, 91.888435 32.912103, 91.887718 32.909878, 91.887002 32.907653, 91.886285 32.905428, 91.885569 32.903203, 91.884853 32.900978, 91.884136 32.898753, 91.883420 32.896528, 91.882703 32.894303, 91.881987 32.892078, 91.881271 32.889853, 91.880555 32.887628, 91.879839 32.885403, 91.879122 32.883178, 91.878406 32.880953, 91.877690 32.878727, 91.876974 32.876502, 91.876258 32.874277, 91.875542 32.872052, 91.874826 32.869827, 91.874110 32.867602, 91.873395 32.865377, 91.872679 32.863152, 91.871963 32.860927, 91.871247 32.858702, 91.870531 32.856477, 91.869816 32.854251, 91.869100 32.852026, 91.868385 32.849801, 91.867669 32.847576, 91.866953 32.845351, 91.866238 32.843126, 91.865523 32.840901, 91.864807 32.838675, 91.864092 32.836450, 91.863376 32.834225, 91.862661 32.832000, 91.861946 32.829775, 91.861231 32.827550, 91.860515 32.825324, 91.859800 32.823099, 91.859085 32.820874, 91.858370 32.818649, 91.857655 32.816424, 91.856940 32.814199, 91.856225 32.811973, 91.855510 32.809748, 91.854795 32.807523, 91.854080 32.805298, 91.853365 32.803072, 91.852650 32.800847, 91.851936 32.798622, 91.851221 32.796397, 91.850506 32.794172, 91.849791 32.791946, 91.849077 32.789721, 91.848362 32.787496, 91.847648 32.785271, 91.846933 32.783045, 91.846219 32.780820, 91.845504 32.778595, 91.844790 32.776370, 91.844075 32.774144, 91.843361 32.771919, 91.842647 32.769694, 91.841932 32.767468, 91.841218 32.765243, 91.840504 32.763018, 91.839790 32.760793, 91.839076 32.758567, 91.838362 32.756342, 91.837648 32.754117, 91.836934 32.751891, 91.836220 32.749666, 91.835506 32.747441, 91.834792 32.745215, 91.834078 32.742990, 91.833364 32.740765, 91.832650 32.738539, 91.831936 32.736314, 91.831223 32.734089, 91.830509 32.731863, 91.829795 32.729638, 91.829082 32.727413, 91.828368 32.725187, 91.827654 32.722962, 91.826941 32.720737, 91.826227 32.718511, 91.825514 32.716286, 91.824800 32.714061, 91.824087 32.711835, 91.823374 32.709610, 91.822660 32.707384, 91.821947 32.705159, 91.821234 32.702934, 91.820521 32.700708, 91.819808 32.698483, 91.819094 32.696257, 91.818381 32.694032, 91.817668 32.691807, 91.816955 32.689581, 91.816242 32.687356, 91.815529 32.685130, 91.814816 32.682905, 91.814103 32.680679, 91.813391 32.678454, 91.812678 32.676229, 91.811965 32.674003, 91.811252 32.671778, 91.810540 32.669552, 91.809827 32.667327, 91.809114 32.665101, 91.808402 32.662876, 91.807689 32.660650, 91.806976 32.658425, 91.806264 32.656199, 91.805552 32.653974, 91.804839 32.651748, 91.804127 32.649523, 91.803414 32.647297, 91.802702 32.645072, 91.801990 32.642846, 91.801278 32.640621, 91.800565 32.638395, 91.799853 32.636170, 91.799141 32.633944, 91.798429 32.631719, 91.797717 32.629493, 91.797005 32.627268, 91.796293 32.625042, 91.795581 32.622817, 91.794869 32.620591, 91.794157 32.618366, 91.793445 32.616140, 91.792733 32.613914, 91.792021 32.611689, 91.791310 32.609463, 91.790598 32.607238, 91.789886 32.605012, 91.789175 32.602787, 91.788463 32.600561, 91.787751 32.598335, 91.787040 32.596110, 91.786328 32.593884, 91.785617 32.591659, 91.784906 32.589433, 91.784194 32.587207, 91.783483 32.584982, 91.782771 32.582756, 91.782060 32.580531, 91.781349 32.578305, 91.780638 32.576079, 91.779926 32.573854, 91.779215 32.571628, 91.778504 32.569402, 91.777793 32.567177, 91.777082 32.564951, 91.776371 32.562725, 91.775660 32.560500, 91.774949 32.558274, 91.774238 32.556049, 91.773527 32.553823, 91.772817 32.551597, 91.772106 32.549372, 91.771395 32.547146, 91.770684 32.544920, 91.769974 32.542694, 91.769263 32.540469, 91.768552 32.538243, 91.767842 32.536017, 91.767131 32.533792, 91.766421 32.531566, 91.765710 32.529340, 91.765000 32.527115, 91.764289 32.524889, 91.763579 32.522663, 91.762869 32.520437, 91.762158 32.518212, 91.761448 32.515986, 91.760738 32.513760, 91.760027 32.511534, 91.759317 32.509309, 91.758607 32.507083, 91.757897 32.504857, 91.757187 32.502631, 91.756477 32.500406, 91.755767 32.498180, 91.755057 32.495954, 91.754347 32.493728, 91.753637 32.491503, 91.752927 32.489277, 91.752218 32.487051, 91.751508 32.484825, 91.750798 32.482599, 91.750088 32.480374, 91.749379 32.478148, 91.748669 32.475922, 91.747959 32.473696, 91.747250 32.471470, 91.746540 32.469245, 91.745831 32.467019, 91.745121 32.464793, 91.744412 32.462567, 91.743703 32.460341, 91.742993 32.458115, 91.742284 32.455890, 91.741575 32.453664, 91.740865 32.451438, 91.740156 32.449212, 91.739447 32.446986, 91.738738 32.444760, 91.738029 32.442534, 91.737320 32.440309, 91.736611 32.438083, 91.735901 32.435857, 91.735193 32.433631, 91.734484 32.431405, 91.733775 32.429179, 91.733066 32.426953, 91.732357 32.424727, 91.731648 32.422501, 91.730939 32.420276, 91.730231 32.418050, 91.729522 32.415824, 91.728813 32.413598, 91.728105 32.411372, 91.727396 32.409146, 91.726688 32.406920, 91.725979 32.404694, 91.725271 32.402468, 91.724562 32.400242, 91.723854 32.398016, 91.723145 32.395790, 91.722437 32.393564, 91.721729 32.391338, 91.721020 32.389112, 91.720312 32.386887, 91.719604 32.384661, 91.718896 32.382435, 91.718188 32.380209, 91.717480 32.377983, 91.716771 32.375757, 91.716063 32.373531, 91.715355 32.371305, 91.714647 32.369079, 91.713940 32.366853, 91.713232 32.364627, 91.712524 32.362401, 91.711816 32.360175, 91.711108 32.357949, 91.710400 32.355723, 91.709693 32.353497, 91.708985 32.351271, 91.708277 32.349045, 91.707570 32.346818, 91.706862 32.344592, 91.706155 32.342366, 91.705447 32.340140, 91.704740 32.337914, 91.704032 32.335688, 91.703325 32.333462, 91.702617 32.331236, 91.701910 32.329010, 91.701203 32.326784, 91.700496 32.324558, 91.699788 32.322332, 91.699081 32.320106, 91.698374 32.317880, 91.697667 32.315654, 91.696960 32.313427, 91.696253 32.311201, 91.695546 32.308975, 91.694839 32.306749, 91.694132 32.304523, 91.693425 32.302297, 91.692718 32.300071, 91.692011 32.297845, 91.691304 32.295619, 91.690598 32.293392, 91.689891 32.291166, 91.689184 32.288940, 91.688477 32.286714, 91.687771 32.284488, 91.687064 32.282262, 91.686358 32.280036, 91.685651 32.277809, 91.684945 32.275583, 91.684238 32.273357, 91.683532 32.271131, 91.682825 32.268905, 91.682119 32.266679, 91.681413 32.264452, 91.680706 32.262226, 91.680000 32.260000, 91.681044 32.257865, 91.682088 32.255731, 91.683133 32.253596, 91.684177 32.251461, 91.685221 32.249326, 91.686265 32.247192, 91.687309 32.245057, 91.688353 32.242922, 91.689397 32.240787, 91.690441 32.238653, 91.691484 32.236518, 91.692528 32.234383, 91.693572 32.232248, 91.694615 32.230114, 91.695659 32.227979, 91.696702 32.225844, 91.697746 32.223709, 91.698789 32.221574, 91.699833 32.219439, 91.700876 32.217305, 91.701919 32.215170, 91.702963 32.213035, 91.704006 32.210900, 91.705049 32.208765, 91.706092 32.206630, 91.707135 32.204495, 91.708178 32.202360, 91.709221 32.200225, 91.710264 32.198090, 91.711307 32.195955, 91.712350 32.193821, 91.713392 32.191686, 91.714435 32.189551, 91.715478 32.187416, 91.716520 32.185281, 91.717563 32.183146, 91.718605 32.181011, 91.719648 32.178876, 91.720690 32.176741, 91.721733 32.174606, 91.722775 32.172471, 91.723817 32.170336, 91.724860 32.168200, 91.725902 32.166065, 91.726944 32.163930, 91.727986 32.161795, 91.729028 32.159660, 91.730070 32.157525, 91.731112 32.155390, 91.732154 32.153255, 91.733195 32.151120, 91.734237 32.148985, 91.735279 32.146849, 91.736321 32.144714, 91.737362 32.142579, 91.738404 32.140444, 91.739445 32.138309, 91.740487 32.136174, 91.741528 32.134038, 91.742570 32.131903, 91.743611 32.129768, 91.744652 32.127633, 91.745694 32.125498, 91.746735 32.123362, 91.747776 32.121227, 91.748817 32.119092, 91.749858 32.116957, 91.750899 32.114821, 91.751940 32.112686, 91.752981 32.110551, 91.754022 32.108416, 91.755063 32.106280, 91.756103 32.104145, 91.757144 32.102010, 91.758185 32.099874, 91.759225 32.097739, 91.760266 32.095604, 91.761306 32.093468, 91.762347 32.091333, 91.763387 32.089198, 91.764428 32.087062, 91.765468 32.084927, 91.766508 32.082791, 91.767548 32.080656, 91.768589 32.078521, 91.769629 32.076385, 91.770669 32.074250, 91.771709 32.072114, 91.772749 32.069979, 91.773789 32.067843, 91.774829 32.065708, 91.775868 32.063572, 91.776908 32.061437, 91.777948 32.059302, 91.778988 32.057166, 91.780027 32.055031, 91.781067 32.052895, 91.782106 32.050759, 91.783146 32.048624, 91.784185 32.046488, 91.785225 32.044353, 91.786264 32.042217, 91.787303 32.040082, 91.788343 32.037946, 91.789382 32.035811, 91.790421 32.033675, 91.791460 32.031539, 91.792499 32.029404, 91.793538 32.027268, 91.794577 32.025133, 91.795616 32.022997, 91.796655 32.020861, 91.797694 32.018726, 91.798732 32.016590, 91.799771 32.014454, 91.800810 32.012319, 91.801848 32.010183, 91.802887 32.008047, 91.803925 32.005912, 91.804964 32.003776, 91.806002 32.001640, 91.807041 31.999504, 91.808079 31.997369, 91.809117 31.995233, 91.810156 31.993097, 91.811194 31.990961, 91.812232 31.988826, 91.813270 31.986690, 91.814308 31.984554, 91.815346 31.982418, 91.816384 31.980283, 91.817422 31.978147, 91.818460 31.976011, 91.819497 31.973875, 91.820535 31.971739, 91.821573 31.969603, 91.822611 31.967468, 91.823648 31.965332, 91.824686 31.963196, 91.825723 31.961060, 91.826761 31.958924, 91.827798 31.956788, 91.828835 31.954652, 91.829873 31.952516, 91.830910 31.950380, 91.831947 31.948245, 91.832984 31.946109, 91.834022 31.943973, 91.835059 31.941837, 91.836096 31.939701, 91.837133 31.937565, 91.838170 31.935429, 91.839206 31.933293, 91.840243 31.931157, 91.841280 31.929021, 91.842317 31.926885, 91.843353 31.924749, 91.844390 31.922613, 91.845427 31.920477, 91.846463 31.918341, 91.847500 31.916205, 91.848536 31.914069, 91.849573 31.911933, 91.850609 31.909796, 91.851645 31.907660, 91.852681 31.905524, 91.853718 31.903388, 91.854754 31.901252, 91.855790 31.899116, 91.856826 31.896980, 91.857862 31.894844, 91.858898 31.892708, 91.859934 31.890571, 91.860970 31.888435, 91.862006 31.886299, 91.863041 31.884163, 91.864077 31.882027, 91.865113 31.879890, 91.866148 31.877754, 91.867184 31.875618, 91.868220 31.873482, 91.869255 31.871346, 91.870290 31.869209, 91.871326 31.867073, 91.872361 31.864937, 91.873396 31.862801, 91.874432 31.860664, 91.875467 31.858528, 91.876502 31.856392, 91.877537 31.854255, 91.878572 31.852119, 91.879607 31.849983, 91.880642 31.847847, 91.881677 31.845710, 91.882712 31.843574, 91.883747 31.841438, 91.884782 31.839301, 91.885816 31.837165, 91.886851 31.835028, 91.887886 31.832892, 91.888920 31.830756, 91.889955 31.828619, 91.890989 31.826483, 91.892024 31.824346, 91.893058 31.822210, 91.894092 31.820074, 91.895127 31.817937, 91.896161 31.815801, 91.897195 31.813664, 91.898229 31.811528, 91.899263 31.809391, 91.900297 31.807255, 91.901331 31.805118, 91.902365 31.802982, 91.903399 31.800845, 91.904433 31.798709, 91.905467 31.796572, 91.906501 31.794436, 91.907534 31.792299, 91.908568 31.790163, 91.909602 31.788026, 91.910635 31.785890, 91.911669 31.783753, 91.912702 31.781616, 91.913736 31.779480, 91.914769 31.777343, 91.915802 31.775207, 91.916835 31.773070, 91.917869 31.770933, 91.918902 31.768797, 91.919935 31.766660, 91.920968 31.764523, 91.922001 31.762387, 91.923034 31.760250, 91.924067 31.758113, 91.925100 31.755977, 91.926133 31.753840, 91.927166 31.751703, 91.928198 31.749567, 91.929231 31.747430, 91.930264 31.745293, 91.931296 31.743157, 91.932329 31.741020, 91.933362 31.738883, 91.934394 31.736746, 91.935426 31.734610, 91.936459 31.732473, 91.937491 31.730336, 91.938523 31.728199, 91.939556 31.726062, 91.940588 31.723926, 91.941620 31.721789, 91.942652 31.719652, 91.943684 31.717515, 91.944716 31.715378, 91.945748 31.713241, 91.946780 31.711105, 91.947812 31.708968, 91.948844 31.706831, 91.949875 31.704694, 91.950907 31.702557, 91.951939 31.700420, 91.952970 31.698283, 91.954002 31.696146, 91.955033 31.694009, 91.956065 31.691873, 91.957096 31.689736, 91.958128 31.687599, 91.959159 31.685462, 91.960190 31.683325, 91.961222 31.681188, 91.962253 31.679051, 91.963284 31.676914, 91.964315 31.674777, 91.965346 31.672640, 91.966377 31.670503, 91.967408 31.668366, 91.968439 31.666229, 91.969470 31.664092, 91.970501 31.661955, 91.971531 31.659818, 91.972562 31.657681, 91.973593 31.655543, 91.974623 31.653406, 91.975654 31.651269, 91.976684 31.649132, 91.977715 31.646995, 91.978745 31.644858, 91.979776 31.642721, 91.980806 31.640584, 91.981836 31.638447, 91.982867 31.636309, 91.983897 31.634172, 91.984927 31.632035, 91.985957 31.629898, 91.986987 31.627761, 91.988017 31.625624, 91.989047 31.623486, 91.990077 31.621349, 91.991107 31.619212, 91.992137 31.617075, 91.993166 31.614938, 91.994196 31.612800, 91.995226 31.610663, 91.996255 31.608526, 91.997285 31.606389, 91.998314 31.604251, 91.999344 31.602114, 92.000373 31.599977, 92.001403 31.597839, 92.002432 31.595702, 92.003461 31.593565, 92.004491 31.591427, 92.005520 31.589290, 92.006549 31.587153, 92.007578 31.585015, 92.008607 31.582878, 92.009636 31.580741, 92.010665 31.578603, 92.011694 31.576466, 92.012723 31.574329, 92.013752 31.572191, 92.014781 31.570054, 92.015809 31.567916, 92.016838 31.565779, 92.017867 31.563642, 92.018895 31.561504, 92.019924 31.559367, 92.020952 31.557229, 92.021981 31.555092, 92.023009 31.552954, 92.024037 31.550817, 92.025066 31.548679, 92.026094 31.546542, 92.027122 31.544404, 92.028150 31.542267, 92.029178 31.540129, 92.030206 31.537992, 92.031235 31.535854, 92.032262 31.533717, 92.033290 31.531579, 92.034318 31.529442, 92.035346 31.527304, 92.036374 31.525166, 92.037402 31.523029, 92.038429 31.520891, 92.039457 31.518754, 92.040485 31.516616, 92.041512 31.514478, 92.042540 31.512341, 92.043567 31.510203, 92.044594 31.508066, 92.045622 31.505928, 92.046649 31.503790, 92.047676 31.501653, 92.048704 31.499515, 92.049731 31.497377, 92.050758 31.495240, 92.051785 31.493102, 92.052812 31.490964, 92.053839 31.488826, 92.054866 31.486689, 92.055893 31.484551, 92.056920 31.482413, 92.057947 31.480276, 92.058973 31.478138, 92.060000 31.476000, 92.058263 31.474230, 92.056527 31.472461, 92.054790 31.470691, 92.053054 31.468922, 92.051318 31.467152, 92.049581 31.465382, 92.047845 31.463612, 92.046109 31.461843, 92.044373 31.460073, 92.042637 31.458303, 92.040901 31.456533, 92.039165 31.454763, 92.037429 31.452994, 92.035693 31.451224, 92.033958 31.449454, 92.032222 31.447684, 92.030487 31.445914, 92.028751 31.444144, 92.027016 31.442374, 92.025280 31.440604, 92.023545 31.438834, 92.021810 31.437064, 92.020075 31.435294, 92.018339 31.433523, 92.016604 31.431753, 92.014869 31.429983, 92.013135 31.428213, 92.011400 31.426443, 92.009665 31.424672, 92.007930 31.422902, 92.006196 31.421132, 92.004461 31.419362, 92.002726 31.417591, 92.000992 31.415821, 91.999258 31.414051, 91.997523 31.412280, 91.995789 31.410510, 91.994055 31.408739, 91.992321 31.406969, 91.990587 31.405198, 91.988853 31.403428, 91.987119 31.401657, 91.985385 31.399887, 91.983651 31.398116, 91.981917 31.396345, 91.980184 31.394575, 91.978450 31.392804, 91.976717 31.391033, 91.974983 31.389263, 91.973250 31.387492, 91.971516 31.385721, 91.969783 31.383950, 91.968050 31.382180, 91.966317 31.380409, 91.964584 31.378638, 91.962851 31.376867, 91.961118 31.375096, 91.959385 31.373325, 91.957652 31.371554, 91.955919 31.369783, 91.954187 31.368012, 91.952454 31.366241, 91.950721 31.364470, 91.948989 31.362699, 91.947257 31.360928, 91.945524 31.359157, 91.943792 31.357386, 91.942060 31.355615, 91.940328 31.353844, 91.938595 31.352073, 91.936863 31.350301, 91.935131 31.348530, 91.933400 31.346759, 91.931668 31.344987, 91.929936 31.343216, 91.928204 31.341445, 91.926473 31.339673, 91.924741 31.337902, 91.923010 31.336131, 91.921278 31.334359, 91.919547 31.332588, 91.917815 31.330816, 91.916084 31.329045, 91.914353 31.327273, 91.912622 31.325502, 91.910891 31.323730, 91.909160 31.321959, 91.907429 31.320187, 91.905698 31.318415, 91.903967 31.316644, 91.902237 31.314872, 91.900506 31.313100, 91.898775 31.311329, 91.897045 31.309557, 91.895314 31.307785, 91.893584 31.306013, 91.891854 31.304241, 91.890123 31.302470, 91.888393 31.300698, 91.886663 31.298926, 91.884933 31.297154, 91.883203 31.295382, 91.881473 31.293610, 91.879743 31.291838, 91.878013 31.290066, 91.876283 31.288294, 91.874554 31.286522, 91.872824 31.284750, 91.871095 31.282978, 91.869365 31.281206, 91.867636 31.279433, 91.865906 31.277661, 91.864177 31.275889, 91.862448 31.274117, 91.860719 31.272345, 91.858990 31.270572, 91.857261 31.268800, 91.855532 31.267028, 91.853803 31.265255, 91.852074 31.263483, 91.850345 31.261711, 91.848616 31.259938, 91.846888 31.258166, 91.845159 31.256393, 91.843431 31.254621, 91.841702 31.252848, 91.839974 31.251076, 91.838245 31.249303, 91.836517 31.247531, 91.834789 31.245758, 91.833061 31.243986, 91.831333 31.242213, 91.829605 31.240440, 91.827877 31.238668, 91.826149 31.236895, 91.824421 31.235122, 91.822693 31.233349, 91.820966 31.231577, 91.819238 31.229804, 91.817511 31.228031, 91.815783 31.226258, 91.814056 31.224485, 91.812328 31.222712, 91.810601 31.220940, 91.808874 31.219167, 91.807147 31.217394, 91.805420 31.215621, 91.803693 31.213848, 91.801966 31.212075, 91.800239 31.210302, 91.798512 31.208528, 91.796785 31.206755, 91.795058 31.204982, 91.793332 31.203209, 91.791605 31.201436, 91.789879 31.199663, 91.788152 31.197890, 91.786426 31.196116, 91.784700 31.194343, 91.782973 31.192570, 91.781247 31.190796, 91.779521 31.189023, 91.777795 31.187250, 91.776069 31.185476, 91.774343 31.183703, 91.772617 31.181930, 91.770891 31.180156, 91.769166 31.178383, 91.767440 31.176609, 91.765714 31.174836, 91.763989 31.173062, 91.762263 31.171289, 91.760538 31.169515, 91.758813 31.167741, 91.757087 31.165968, 91.755362 31.164194, 91.753637 31.162420, 91.751912 31.160647, 91.750187 31.158873, 91.748462 31.157099, 91.746737 31.155326, 91.745012 31.153552, 91.743288 31.151778, 91.741563 31.150004, 91.739838 31.148230, 91.738114 31.146456, 91.736389 31.144682, 91.734665 31.142909, 91.732940 31.141135, 91.731216 31.139361, 91.729492 31.137587, 91.727768 31.135813, 91.726043 31.134039, 91.724319 31.132265, 91.722595 31.130490, 91.720872 31.128716, 91.719148 31.126942, 91.717424 31.125168, 91.715700 31.123394, 91.713976 31.121620, 91.712253 31.119845, 91.710529 31.118071, 91.708806 31.116297, 91.707082 31.114523, 91.705359 31.112748, 91.703636 31.110974, 91.701913 31.109200, 91.700189 31.107425, 91.698466 31.105651, 91.696743 31.103876, 91.695020 31.102102, 91.693298 31.100327, 91.691575 31.098553, 91.689852 31.096778, 91.688129 31.095004, 91.686407 31.093229, 91.684684 31.091455, 91.682962 31.089680, 91.681239 31.087905, 91.679517 31.086131, 91.677794 31.084356, 91.676072 31.082581, 91.674350 31.080807, 91.672628 31.079032, 91.670906 31.077257, 91.669184 31.075482, 91.667462 31.073708, 91.665740 31.071933, 91.664018 31.070158, 91.662296 31.068383, 91.660575 31.066608, 91.658853 31.064833, 91.657132 31.063058, 91.655410 31.061283, 91.653689 31.059508, 91.651967 31.057733, 91.650246 31.055958, 91.648525 31.054183, 91.646804 31.052408, 91.645083 31.050633, 91.643362 31.048858, 91.641641 31.047083, 91.639920 31.045307, 91.638199 31.043532, 91.636478 31.041757, 91.634758 31.039982, 91.633037 31.038206, 91.631316 31.036431, 91.629596 31.034656, 91.627875 31.032880, 91.626155 31.031105, 91.624435 31.029330, 91.622714 31.027554, 91.620994 31.025779, 91.619274 31.024003, 91.617554 31.022228, 91.615834 31.020452, 91.614114 31.018677, 91.612394 31.016901, 91.610674 31.015126, 91.608955 31.013350, 91.607235 31.011574, 91.605515 31.009799, 91.603796 31.008023, 91.602076 31.006247, 91.600357 31.004472, 91.598637 31.002696, 91.596918 31.000920, 91.595199 30.999144, 91.593480 30.997369, 91.591761 30.995593, 91.590042 30.993817, 91.588323 30.992041, 91.586604 30.990265, 91.584885 30.988489, 91.583166 30.986713, 91.581447 30.984937, 91.579729 30.983161, 91.578010 30.981385, 91.576292 30.979609, 91.574573 30.977833, 91.572855 30.976057, 91.571136 30.974281, 91.569418 30.972505, 91.567700 30.970729, 91.565982 30.968953, 91.564264 30.967177, 91.562546 30.965400, 91.560828 30.963624, 91.559110 30.961848, 91.557392 30.960072, 91.555674 30.958295, 91.553957 30.956519, 91.552239 30.954743, 91.550521 30.952966, 91.548804 30.951190, 91.547086 30.949413, 91.545369 30.947637, 91.543652 30.945861, 91.541935 30.944084, 91.540217 30.942308, 91.538500 30.940531, 91.536783 30.938754, 91.535066 30.936978, 91.533349 30.935201, 91.531632 30.933425, 91.529916 30.931648, 91.528199 30.929871, 91.526482 30.928095, 91.524766 30.926318, 91.523049 30.924541, 91.521333 30.922765, 91.519616 30.920988, 91.517900 30.919211, 91.516183 30.917434, 91.514467 30.915657, 91.512751 30.913880, 91.511035 30.912104, 91.509319 30.910327, 91.507603 30.908550, 91.505887 30.906773, 91.504171 30.904996, 91.502455 30.903219, 91.500740 30.901442, 91.499024 30.899665, 91.497308 30.897888, 91.495593 30.896110, 91.493877 30.894333, 91.492162 30.892556, 91.490447 30.890779, 91.488731 30.889002, 91.487016 30.887225, 91.485301 30.885447, 91.483586 30.883670, 91.481871 30.881893, 91.480156 30.880116, 91.478441 30.878338, 91.476726 30.876561, 91.475012 30.874784, 91.473297 30.873006, 91.471582 30.871229, 91.469868 30.869451, 91.468153 30.867674, 91.466439 30.865896, 91.464724 30.864119, 91.463010 30.862341, 91.461296 30.860564, 91.459582 30.858786, 91.457867 30.857009, 91.456153 30.855231, 91.454439 30.853453, 91.452725 30.851676, 91.451012 30.849898, 91.449298 30.848120, 91.447584 30.846343, 91.445870 30.844565, 91.444157 30.842787, 91.442443 30.841009, 91.440730 30.839231, 91.439016 30.837454, 91.437303 30.835676, 91.435590 30.833898, 91.433876 30.832120, 91.432163 30.830342, 91.430450 30.828564, 91.428737 30.826786, 91.427024 30.825008, 91.425311 30.823230, 91.423598 30.821452, 91.421885 30.819674, 91.420173 30.817896, 91.418460 30.816118, 91.416747 30.814340, 91.415035 30.812562, 91.413322 30.810783, 91.411610 30.809005, 91.409898 30.807227, 91.408185 30.805449, 91.406473 30.803670, 91.404761 30.801892, 91.403049 30.800114, 91.401337 30.798335, 91.399625 30.796557, 91.397913 30.794779, 91.396201 30.793000, 91.394489 30.791222, 91.392778 30.789443, 91.391066 30.787665, 91.389354 30.785886, 91.387643 30.784108, 91.385931 30.782329, 91.384220 30.780551, 91.382509 30.778772, 91.380797 30.776994, 91.379086 30.775215, 91.377375 30.773436, 91.375664 30.771658, 91.373953 30.769879, 91.372242 30.768100, 91.370531 30.766322, 91.368820 30.764543, 91.367109 30.762764, 91.365399 30.760985, 91.363688 30.759206, 91.361977 30.757428, 91.360267 30.755649, 91.358556 30.753870, 91.356846 30.752091, 91.355136 30.750312, 91.353426 30.748533, 91.351715 30.746754, 91.350005 30.744975, 91.348295 30.743196, 91.346585 30.741417, 91.344875 30.739638, 91.343165 30.737859, 91.341455 30.736080, 91.339746 30.734300, 91.338036 30.732521, 91.336326 30.730742, 91.334617 30.728963, 91.332907 30.727184, 91.331198 30.725404, 91.329488 30.723625, 91.327779 30.721846, 91.326070 30.720066, 91.324361 30.718287, 91.322652 30.716508, 91.320943 30.714728, 91.319234 30.712949, 91.317525 30.711169, 91.315816 30.709390, 91.314107 30.707611, 91.312398 30.705831, 91.310689 30.704051, 91.308981 30.702272, 91.307272 30.700492, 91.305564 30.698713, 91.303855 30.696933, 91.302147 30.695154, 91.300439 30.693374, 91.298730 30.691594, 91.297022 30.689814, 91.295314 30.688035, 91.293606 30.686255, 91.291898 30.684475, 91.290190 30.682695, 91.288482 30.680916, 91.286774 30.679136, 91.285067 30.677356, 91.283359 30.675576, 91.281651 30.673796, 91.279944 30.672016, 91.278236 30.670236, 91.276529 30.668456, 91.274822 30.666676, 91.273114 30.664896, 91.271407 30.663116, 91.269700 30.661336, 91.267993 30.659556, 91.266286 30.657776, 91.264579 30.655996, 91.262872 30.654216, 91.261165 30.652436, 91.259458 30.650655, 91.257751 30.648875, 91.256045 30.647095, 91.254338 30.645315, 91.252632 30.643534, 91.250925 30.641754, 91.249219 30.639974, 91.247512 30.638193, 91.245806 30.636413, 91.244100 30.634633, 91.242394 30.632852, 91.240688 30.631072, 91.238982 30.629291, 91.237276 30.627511, 91.235570 30.625730, 91.233864 30.623950, 91.232158 30.622169, 91.230452 30.620389, 91.228747 30.618608, 91.227041 30.616827, 91.225335 30.615047, 91.223630 30.613266, 91.221925 30.611485, 91.220219 30.609705, 91.218514 30.607924, 91.216809 30.606143, 91.215104 30.604362, 91.213398 30.602582, 91.211693 30.600801, 91.209988 30.599020, 91.208283 30.597239, 91.206579 30.595458, 91.204874 30.593677, 91.203169 30.591896, 91.201464 30.590115, 91.199760 30.588334, 91.198055 30.586553, 91.196351 30.584772, 91.194646 30.582991, 91.192942 30.581210, 91.191238 30.579429, 91.189534 30.577648, 91.187829 30.575867, 91.186125 30.574086, 91.184421 30.572305, 91.182717 30.570523, 91.181013 30.568742, 91.179310 30.566961, 91.177606 30.565180, 91.175902 30.563398, 91.174198 30.561617, 91.172495 30.559836, 91.170791 30.558054, 91.169088 30.556273, 91.167384 30.554492, 91.165681 30.552710, 91.163978 30.550929, 91.162274 30.549147, 91.160571 30.547366, 91.158868 30.545584, 91.157165 30.543803, 91.155462 30.542021, 91.153759 30.540240, 91.152056 30.538458, 91.150354 30.536677, 91.148651 30.534895, 91.146948 30.533113, 91.145246 30.531332, 91.143543 30.529550, 91.141841 30.527768, 91.140138 30.525986, 91.138436 30.524205, 91.136734 30.522423, 91.135031 30.520641, 91.133329 30.518859, 91.131627 30.517077, 91.129925 30.515295, 91.128223 30.513513, 91.126521 30.511732, 91.124819 30.509950, 91.123118 30.508168, 91.121416 30.506386, 91.119714 30.504604, 91.118013 30.502822, 91.116311 30.501040, 91.114610 30.499257, 91.112908 30.497475, 91.111207 30.495693, 91.109506 30.493911, 91.107804 30.492129, 91.106103 30.490347, 91.104402 30.488564, 91.102701 30.486782, 91.101000 30.485000, 91.101020 30.482690, 91.101039 30.480380, 91.101059 30.478069, 91.101078 30.475759, 91.101098 30.473449, 91.101117 30.471139, 91.101137 30.468828, 91.101156 30.466518, 91.101176 30.464208, 91.101196 30.461898, 91.101215 30.459587, 91.101235 30.457277, 91.101254 30.454967, 91.101274 30.452657, 91.101293 30.450346, 91.101313 30.448036, 91.101332 30.445726, 91.101352 30.443416, 91.101371 30.441105, 91.101391 30.438795, 91.101410 30.436485, 91.101430 30.434175, 91.101450 30.431864, 91.101469 30.429554, 91.101489 30.427244, 91.101508 30.424934, 91.101528 30.422623, 91.101547 30.420313, 91.101567 30.418003, 91.101586 30.415693, 91.101606 30.413382, 91.101625 30.411072, 91.101645 30.408762, 91.101664 30.406452, 91.101684 30.404141, 91.101703 30.401831, 91.101723 30.399521, 91.101742 30.397211, 91.101762 30.394900, 91.101781 30.392590, 91.101801 30.390280, 91.101821 30.387970, 91.101840 30.385659, 91.101860 30.383349, 91.101879 30.381039, 91.101899 30.378729, 91.101918 30.376418, 91.101938 30.374108, 91.101957 30.371798, 91.101977 30.369488, 91.101996 30.367177, 91.102016 30.364867, 91.102035 30.362557, 91.102055 30.360247, 91.102074 30.357936, 91.102094 30.355626, 91.102113 30.353316, 91.102133 30.351006, 91.102152 30.348695, 91.102172 30.346385, 91.102191 30.344075, 91.102211 30.341765, 91.102230 30.339454, 91.102250 30.337144, 91.102269 30.334834, 91.102289 30.332524, 91.102308 30.330213, 91.102328 30.327903, 91.102347 30.325593, 91.102367 30.323283, 91.102386 30.320972, 91.102406 30.318662, 91.102425 30.316352, 91.102445 30.314042, 91.102464 30.311731, 91.102484 30.309421, 91.102503 30.307111, 91.102523 30.304801, 91.102542 30.302490, 91.102561 30.300180, 91.102581 30.297870, 91.102600 30.295560, 91.102620 30.293249, 91.102639 30.290939, 91.102659 30.288629, 91.102678 30.286319, 91.102698 30.284008, 91.102717 30.281698, 91.102737 30.279388, 91.102756 30.277078, 91.102776 30.274767, 91.102795 30.272457, 91.102815 30.270147, 91.102834 30.267837, 91.102854 30.265526, 91.102873 30.263216, 91.102893 30.260906, 91.102912 30.258596, 91.102931 30.256285, 91.102951 30.253975, 91.102970 30.251665, 91.102990 30.249355, 91.103009 30.247044, 91.103029 30.244734, 91.103048 30.242424, 91.103068 30.240114, 91.103087 30.237803, 91.103107 30.235493, 91.103126 30.233183, 91.103146 30.230873, 91.103165 30.228562, 91.103184 30.226252, 91.103204 30.223942, 91.103223 30.221632, 91.103243 30.219321, 91.103262 30.217011, 91.103282 30.214701, 91.103301 30.212391, 91.103321 30.210080, 91.103340 30.207770, 91.103359 30.205460, 91.103379 30.203150, 91.103398 30.200839, 91.103418 30.198529, 91.103437 30.196219, 91.103457 30.193909, 91.103476 30.191598, 91.103496 30.189288, 91.103515 30.186978, 91.103534 30.184668, 91.103554 30.182357, 91.103573 30.180047, 91.103593 30.177737, 91.103612 30.175427, 91.103632 30.173116, 91.103651 30.170806, 91.103670 30.168496, 91.103690 30.166186, 91.103709 30.163875, 91.103729 30.161565, 91.103748 30.159255, 91.103768 30.156945, 91.103787 30.154634, 91.103806 30.152324, 91.103826 30.150014, 91.103845 30.147704, 91.103865 30.145393, 91.103884 30.143083, 91.103904 30.140773, 91.103923 30.138463, 91.103942 30.136152, 91.103962 30.133842, 91.103981 30.131532, 91.104001 30.129222, 91.104020 30.126911, 91.104039 30.124601, 91.104059 30.122291, 91.104078 30.119981, 91.104098 30.117670, 91.104117 30.115360, 91.104136 30.113050, 91.104156 30.110740, 91.104175 30.108429, 91.104195 30.106119, 91.104214 30.103809, 91.104233 30.101499, 91.104253 30.099188, 91.104272 30.096878, 91.104292 30.094568, 91.104311 30.092258, 91.104331 30.089947, 91.104350 30.087637, 91.104369 30.085327, 91.104389 30.083017, 91.104408 30.080706, 91.104427 30.078396, 91.104447 30.076086, 91.104466 30.073776, 91.104486 30.071465, 91.104505 30.069155, 91.104524 30.066845, 91.104544 30.064535, 91.104563 30.062224, 91.104583 30.059914, 91.104602 30.057604, 91.104621 30.055294, 91.104641 30.052983, 91.104660 30.050673, 91.104680 30.048363, 91.104699 30.046053, 91.104718 30.043742, 91.104738 30.041432, 91.104757 30.039122, 91.104776 30.036812, 91.104796 30.034501, 91.104815 30.032191, 91.104835 30.029881, 91.104854 30.027571, 91.104873 30.025260, 91.104893 30.022950, 91.104912 30.020640, 91.104931 30.018330, 91.104951 30.016019, 91.104970 30.013709, 91.104990 30.011399, 91.105009 30.009089, 91.105028 30.006778, 91.105048 30.004468, 91.105067 30.002158, 91.105086 29.999848, 91.105106 29.997537, 91.105125 29.995227, 91.105144 29.992917, 91.105164 29.990607, 91.105183 29.988296, 91.105203 29.985986, 91.105222 29.983676, 91.105241 29.981366, 91.105261 29.979055, 91.105280 29.976745, 91.105299 29.974435, 91.105319 29.972125, 91.105338 29.969814, 91.105357 29.967504, 91.105377 29.965194, 91.105396 29.962884, 91.105415 29.960573, 91.105435 29.958263, 91.105454 29.955953, 91.105473 29.953643, 91.105493 29.951332, 91.105512 29.949022, 91.105531 29.946712, 91.105551 29.944402, 91.105570 29.942091, 91.105589 29.939781, 91.105609 29.937471, 91.105628 29.935161, 91.105648 29.932850, 91.105667 29.930540, 91.105686 29.928230, 91.105706 29.925920, 91.105725 29.923609, 91.105744 29.921299, 91.105764 29.918989, 91.105783 29.916679, 91.105802 29.914368, 91.105822 29.912058, 91.105841 29.909748, 91.105860 29.907438, 91.105879 29.905127, 91.105899 29.902817, 91.105918 29.900507, 91.105937 29.898197, 91.105957 29.895886, 91.105976 29.893576, 91.105995 29.891266, 91.106015 29.888956, 91.106034 29.886645, 91.106053 29.884335, 91.106073 29.882025, 91.106092 29.879715, 91.106111 29.877404, 91.106131 29.875094, 91.106150 29.872784, 91.106169 29.870474, 91.106189 29.868163, 91.106208 29.865853, 91.106227 29.863543, 91.106247 29.861233, 91.106266 29.858922, 91.106285 29.856612, 91.106304 29.854302, 91.106324 29.851992, 91.106343 29.849681, 91.106362 29.847371, 91.106382 29.845061, 91.106401 29.842751, 91.106420 29.840440, 91.106440 29.838130, 91.106459 29.835820, 91.106478 29.833510, 91.106497 29.831199, 91.106517 29.828889, 91.106536 29.826579, 91.106555 29.824269, 91.106575 29.821958, 91.106594 29.819648, 91.106613 29.817338, 91.106633 29.815028, 91.106652 29.812717, 91.106671 29.810407, 91.106690 29.808097, 91.106710 29.805787, 91.106729 29.803476, 91.106748 29.801166, 91.106768 29.798856, 91.106787 29.796546, 91.106806 29.794235, 91.106825 29.791925, 91.106845 29.789615, 91.106864 29.787305, 91.106883 29.784994, 91.106903 29.782684, 91.106922 29.780374, 91.106941 29.778064, 91.106960 29.775753, 91.106980 29.773443, 91.106999 29.771133, 91.107018 29.768823, 91.107037 29.766512, 91.107057 29.764202, 91.107076 29.761892, 91.107095 29.759582, 91.107115 29.757271, 91.107134 29.754961, 91.107153 29.752651, 91.107172 29.750341, 91.107192 29.748030, 91.107211 29.745720, 91.107230 29.743410, 91.107249 29.741100, 91.107269 29.738789, 91.107288 29.736479, 91.107307 29.734169, 91.107326 29.731859, 91.107346 29.729548, 91.107365 29.727238, 91.107384 29.724928, 91.107403 29.722618, 91.107423 29.720307, 91.107442 29.717997, 91.107461 29.715687, 91.107481 29.713377, 91.107500 29.711066, 91.107519 29.708756, 91.107538 29.706446, 91.107558 29.704136, 91.107577 29.701825, 91.107596 29.699515, 91.107615 29.697205, 91.107634 29.694895, 91.107654 29.692584, 91.107673 29.690274, 91.107692 29.687964, 91.107711 29.685654, 91.107731 29.683343, 91.107750 29.681033, 91.107769 29.678723, 91.107788 29.676413, 91.107808 29.674102, 91.107827 29.671792, 91.107846 29.669482, 91.107865 29.667172, 91.107885 29.664861, 91.107904 29.662551, 91.107923 29.660241, 91.107942 29.657931, 91.107962 29.655620, 91.107981 29.653310, 91.108000 29.651000)
