LINESTRING (-122.272000 37.804000, -122.264028 37.798339, -122.256057 37.792678, -122.248087 37.787017, -122.240118 37.781355, -122.232150 37.775692, -122.224184 37.770029, -122.216219 37.764365, -122.208255 37.758701, -122.200293 37.753036, -122.192331 37.747371, -122.184371 37.741705, -122.176412 37.736039, -122.168455 37.730372, -122.160498 37.724704, -122.152543 37.719036, -122.144589 37.713368, -122.136636 37.707698, -122.128684 37.702029, -122.120734 37.696359, -122.112785 37.690688, -122.104837 37.685017, -122.096890 37.679345, -122.088944 37.673673, -122.081000 37.668000, -122.073925 37.662003, -122.066852 37.656005, -122.059779 37.650008, -122.052708 37.644009, -122.045638 37.638011, -122.038569 37.632011, -122.031501 37.626012, -122.024435 37.620012, -122.017369 37.614011, -122.010305 37.608011, -122.003242 37.602009, -121.996179 37.596008, -121.989119 37.590005, -121.982059 37.584003, -121.975000 37.578000, -121.967865 37.584003, -121.960728 37.590005, -121.953590 37.596007, -121.946452 37.602009, -121.939312 37.608010, -121.932171 37.614010, -121.925028 37.620011, -121.917885 37.626010, -121.910740 37.632010, -121.903594 37.638009, -121.896448 37.644007, -121.889300 37.650005, -121.882150 37.656003, -121.875000 37.662000, -121.864303 37.664004, -121.853605 37.666008, -121.842906 37.668010, -121.832207 37.670012, -121.821507 37.672012, -121.810807 37.674012, -121.800106 37.676010, -121.789405 37.678008, -121.778703 37.680004, -121.768000 37.682000, -121.758256 37.685838, -121.748510 37.689675, -121.738764 37.693511, -121.729016 37.697346, -121.719268 37.701181, -121.709518 37.705014, -121.699768 37.708847, -121.690016 37.712680, -121.680264 37.716511, -121.670510 37.720341, -121.660756 37.724171, -121.651000 37.728000, -121.642455 37.733489, -121.633908 37.738977, -121.625360 37.744465, -121.616811 37.749952, -121.608260 37.755438, -121.599709 37.760924, -121.591156 37.766409, -121.582602 37.771894, -121.574046 37.777378, -121.565489 37.782861, -121.556931 37.788344, -121.548372 37.793826, -121.539811 37.799307, -121.531249 37.804788, -121.522686 37.810269, -121.514122 37.815748, -121.505556 37.821227, -121.496989 37.826706, -121.488421 37.832183, -121.479851 37.837660, -121.471281 37.843137, -121.462709 37.848613, -121.454135 37.854088, -121.445561 37.859563, -121.436985 37.865037, -121.428408 37.870510, -121.419829 37.875983, -121.411250 37.881455, -121.402669 37.886927, -121.394086 37.892398, -121.385503 37.897868, -121.376918 37.903338, -121.368332 37.908807, -121.359745 37.914275, -121.351156 37.919743, -121.342566 37.925210, -121.333975 37.930677, -121.325383 37.936143, -121.316789 37.941608, -121.308194 37.947073, -121.299598 37.952537, -121.291000 37.958000, -121.293720 37.966421, -121.296441 37.974842, -121.299162 37.983264, -121.301884 37.991685, -121.304607 38.000106, -121.307330 38.008526, -121.310054 38.016947, -121.312779 38.025368, -121.315504 38.033789, -121.318230 38.042210, -121.320956 38.050630, -121.323683 38.059051, -121.326411 38.067471, -121.329139 38.075892, -121.331868 38.084312, -121.334598 38.092732, -121.337328 38.101152, -121.340059 38.109573, -121.342790 38.117993, -121.345522 38.126413, -121.348255 38.134833, -121.350989 38.143253, -121.353723 38.151672, -121.356457 38.160092, -121.359192 38.168512, -121.361928 38.176932, -121.364665 38.185351, -121.367402 38.193771, -121.370140 38.202190, -121.372878 38.210610, -121.375617 38.219029, -121.378357 38.227448, -121.381097 38.235867, -121.383838 38.244287, -121.386580 38.252706, -121.389322 38.261125, -121.392065 38.269544, -121.394808 38.277963, -121.397552 38.286381, -121.400297 38.294800, -121.403042 38.303219, -121.405788 38.311638, -121.408535 38.320056, -121.411282 38.328475, -121.414030 38.336893, -121.416779 38.345311, -121.419528 38.353730, -121.422278 38.362148, -121.425029 38.370566, -121.427780 38.378984, -121.430531 38.387402, -121.433284 38.395820, -121.436037 38.404238, -121.438791 38.412656, -121.441545 38.421074, -121.444300 38.429492, -121.447056 38.437909, -121.449812 38.446327, -121.452569 38.454745, -121.455326 38.463162, -121.458085 38.471579, -121.460843 38.479997, -121.463603 38.488414, -121.466363 38.496831, -121.469124 38.505249, -121.471885 38.513666, -121.474647 38.522083, -121.477410 38.530500, -121.480173 38.538916, -121.482937 38.547333, -121.485702 38.555750, -121.488467 38.564167, -121.491233 38.572583, -121.494000 38.581000, -121.495481 38.589693, -121.496962 38.598386, -121.498443 38.607079, -121.499925 38.615772, -121.501407 38.624464, -121.502890 38.633157, -121.504372 38.641850, -121.505856 38.650543, -121.507339 38.659236, -121.508823 38.667928, -121.510307 38.676621, -121.511792 38.685314, -121.513277 38.694006, -121.514762 38.702699, -121.516248 38.711392, -121.517734 38.720084, -121.519221 38.728777, -121.520708 38.737470, -121.522195 38.746162, -121.523682 38.754855, -121.525170 38.763547, -121.526659 38.772240, -121.528147 38.780932, -121.529636 38.789625, -121.531126 38.798317, -121.532615 38.807010, -121.534105 38.815702, -121.535596 38.824394, -121.537087 38.833087, -121.538578 38.841779, -121.540069 38.850472, -121.541561 38.859164, -121.543053 38.867856, -121.544546 38.876548, -121.546039 38.885241, -121.547532 38.893933, -121.549026 38.902625, -121.550520 38.911317, -121.552015 38.920010, -121.553510 38.928702, -121.555005 38.937394, -121.556500 38.946086, -121.557996 38.954778, -121.559493 38.963470, -121.560989 38.972162, -121.562486 38.980854, -121.563984 38.989547, -121.565481 38.998239, -121.566980 39.006931, -121.568478 39.015623, -121.569977 39.024314, -121.571476 39.033006, -121.572976 39.041698, -121.574476 39.050390, -121.575976 39.059082, -121.577477 39.067774, -121.578978 39.076466, -121.580479 39.085158, -121.581981 39.093850, -121.583483 39.102541, -121.584986 39.111233, -121.586489 39.119925, -121.587992 39.128617, -121.589496 39.137308, -121.591000 39.146000, -121.590190 39.154558, -121.589380 39.163117, -121.588570 39.171675, -121.587760 39.180233, -121.586949 39.188791, -121.586138 39.197349, -121.585327 39.205908, -121.584516 39.214466, -121.583705 39.223024, -121.582893 39.231582, -121.582082 39.240141, -121.581270 39.248699, -121.580457 39.257257, -121.579645 39.265815, -121.578832 39.274373, -121.578020 39.282931, -121.577207 39.291490, -121.576394 39.300048, -121.575580 39.308606, -121.574767 39.317164, -121.573953 39.325722, -121.573139 39.334280, -121.572325 39.342839, -121.571511 39.351397, -121.570696 39.359955, -121.569881 39.368513, -121.569066 39.377071, -121.568251 39.385629, -121.567436 39.394187, -121.566620 39.402745, -121.565805 39.411303, -121.564989 39.419861, -121.564172 39.428420, -121.563356 39.436978, -121.562540 39.445536, -121.561723 39.454094, -121.560906 39.462652, -121.560089 39.471210, -121.559271 39.479768, -121.558454 39.488326, -121.557636 39.496884, -121.556818 39.505442, -121.556000 39.514000, -121.548288 39.520396, -121.540575 39.526792, -121.532860 39.533187, -121.525144 39.539582, -121.517427 39.545976, -121.509708 39.552369, -121.501988 39.558763, -121.494266 39.565155, -121.486543 39.571547, -121.478818 39.577939, -121.471092 39.584330, -121.463364 39.590721, -121.455636 39.597111, -121.447905 39.603500, -121.440174 39.609889, -121.432440 39.616278, -121.424706 39.622666, -121.416970 39.629053, -121.409232 39.635440, -121.401493 39.641827, -121.393753 39.648213, -121.386011 39.654598, -121.378268 39.660983, -121.370524 39.667367, -121.362778 39.673751, -121.355030 39.680135, -121.347281 39.686518, -121.339531 39.692900, -121.331779 39.699282, -121.324026 39.705663, -121.316271 39.712044, -121.308515 39.718424, -121.300758 39.724804, -121.292999 39.731183, -121.285238 39.737562, -121.277477 39.743940, -121.269713 39.750318, -121.261949 39.756695, -121.254183 39.763072, -121.246415 39.769448, -121.238646 39.775824, -121.230876 39.782199, -121.223104 39.788573, -121.215330 39.794947, -121.207556 39.801321, -121.199780 39.807694, -121.192002 39.814067, -121.184223 39.820439, -121.176442 39.826810, -121.168660 39.833181, -121.160877 39.839552, -121.153092 39.845921, -121.145306 39.852291, -121.137518 39.858660, -121.129729 39.865028, -121.121938 39.871396, -121.114146 39.877763, -121.106353 39.884130, -121.098558 39.890496, -121.090761 39.896862, -121.082963 39.903227, -121.075164 39.909592, -121.067363 39.915956, -121.059561 39.922320, -121.051757 39.928683, -121.043952 39.935046, -121.036146 39.941408, -121.028338 39.947769, -121.020528 39.954130, -121.012717 39.960491, -121.004905 39.966851, -120.997091 39.973210, -120.989276 39.979569, -120.981459 39.985928, -120.973641 39.992286, -120.965821 39.998643, -120.958000 40.005000, -120.948013 40.001061, -120.938028 39.997122, -120.928043 39.993181, -120.918060 39.989240, -120.908077 39.985298, -120.898096 39.981355, -120.888116 39.977411, -120.878138 39.973466, -120.868160 39.969521, -120.858184 39.965574, -120.848208 39.961627, -120.838234 39.957679, -120.828261 39.953730, -120.818289 39.949780, -120.808319 39.945830, -120.798349 39.941878, -120.788381 39.937926, -120.778413 39.933973, -120.768447 39.930018, -120.758482 39.926063, -120.748519 39.922108, -120.738556 39.918151, -120.728595 39.914194, -120.718634 39.910235, -120.708675 39.906276, -120.698717 39.902316, -120.688760 39.898355, -120.678804 39.894393, -120.668850 39.890431, -120.658896 39.886467, -120.648944 39.882503, -120.638993 39.878538, -120.629043 39.874572, -120.619094 39.870605, -120.609147 39.866637, -120.599200 39.862669, -120.589255 39.858699, -120.579310 39.854729, -120.569367 39.850758, -120.559425 39.846786, -120.549485 39.842813, -120.539545 39.838839, -120.529607 39.834865, -120.519669 39.830889, -120.509733 39.826913, -120.499798 39.822936, -120.489864 39.818958, -120.479932 39.814980, -120.470000 39.811000, -120.461961 39.817177, -120.453920 39.823354, -120.445879 39.829530, -120.437835 39.835705, -120.429790 39.841880, -120.421744 39.848054, -120.413696 39.854228, -120.405647 39.860401, -120.397597 39.866574, -120.389544 39.872746, -120.381491 39.878918, -120.373436 39.885089, -120.365380 39.891259, -120.357322 39.897429, -120.349262 39.903598, -120.341202 39.909767, -120.333139 39.915935, -120.325076 39.922103, -120.317011 39.928270, -120.308944 39.934436, -120.300876 39.940602, -120.292807 39.946768, -120.284736 39.952933, -120.276663 39.959097, -120.268589 39.965261, -120.260514 39.971424, -120.252437 39.977586, -120.244359 39.983748, -120.236279 39.989910, -120.228198 39.996071, -120.220116 40.002231, -120.212032 40.008391, -120.203946 40.014550, -120.195859 40.020709, -120.187771 40.026867, -120.179681 40.033025, -120.171589 40.039182, -120.163497 40.045338, -120.155402 40.051494, -120.147307 40.057649, -120.139209 40.063804, -120.131111 40.069958, -120.123011 40.076112, -120.114909 40.082265, -120.106806 40.088417, -120.098702 40.094569, -120.090596 40.100720, -120.082488 40.106871, -120.074379 40.113021, -120.066269 40.119171, -120.058157 40.125320, -120.050044 40.131469, -120.041929 40.137617, -120.033813 40.143764, -120.025695 40.149911, -120.017576 40.156057, -120.009455 40.162203, -120.001333 40.168348, -119.993209 40.174492, -119.985084 40.180636, -119.976958 40.186780, -119.968830 40.192923, -119.960700 40.199065, -119.952569 40.205207, -119.944437 40.211348, -119.936303 40.217488, -119.928168 40.223628, -119.920031 40.229768, -119.911892 40.235907, -119.903752 40.242045, -119.895611 40.248183, -119.887468 40.254320, -119.879324 40.260456, -119.871178 40.266593, -119.863031 40.272728, -119.854883 40.278863, -119.846732 40.284997, -119.838581 40.291131, -119.830428 40.297264, -119.822273 40.303397, -119.814117 40.309529, -119.805960 40.315660, -119.797800 40.321791, -119.789640 40.327921, -119.781478 40.334051, -119.773314 40.340180, -119.765150 40.346309, -119.756983 40.352437, -119.748815 40.358564, -119.740646 40.364691, -119.732475 40.370817, -119.724302 40.376943, -119.716129 40.383068, -119.707953 40.389192, -119.699776 40.395316, -119.691598 40.401440, -119.683418 40.407563, -119.675237 40.413685, -119.667054 40.419807, -119.658870 40.425928, -119.650684 40.432048, -119.642497 40.438168, -119.634308 40.444287, -119.626118 40.450406, -119.617926 40.456524, -119.609733 40.462642, -119.601538 40.468759, -119.593342 40.474875, -119.585144 40.480991, -119.576945 40.487107, -119.568744 40.493221, -119.560542 40.499336, -119.552338 40.505449, -119.544133 40.511562, -119.535926 40.517674, -119.527718 40.523786, -119.519509 40.529898, -119.511297 40.536008, -119.503085 40.542118, -119.494871 40.548228, -119.486655 40.554337, -119.478438 40.560445, -119.470219 40.566553, -119.461999 40.572660, -119.453777 40.578767, -119.445554 40.584873, -119.437329 40.590978, -119.429103 40.597083, -119.420876 40.603187, -119.412646 40.609291, -119.404416 40.615394, -119.396183 40.621496, -119.387950 40.627598, -119.379715 40.633700, -119.371478 40.639800, -119.363240 40.645900, -119.355000 40.652000, -119.343882 40.654291, -119.332763 40.656581, -119.321643 40.658870, -119.310522 40.661158, -119.299401 40.663445, -119.288279 40.665731, -119.277156 40.668015, -119.266032 40.670299, -119.254908 40.672582, -119.243783 40.674863, -119.232657 40.677144, -119.221530 40.679423, -119.210403 40.681701, -119.199274 40.683979, -119.188145 40.686255, -119.177016 40.688530, -119.165885 40.690804, -119.154754 40.693077, -119.143622 40.695349, -119.132489 40.697620, -119.121356 40.699889, -119.110221 40.702158, -119.099086 40.704426, -119.087951 40.706692, -119.076814 40.708958, -119.065677 40.711222, -119.054539 40.713485, -119.043400 40.715748, -119.032260 40.718009, -119.021120 40.720269, -119.009979 40.722528, -118.998837 40.724786, -118.987694 40.727043, -118.976551 40.729299, -118.965407 40.731554, -118.954262 40.733807, -118.943116 40.736060, -118.931970 40.738311, -118.920823 40.740562, -118.909675 40.742811, -118.898526 40.745060, -118.887377 40.747307, -118.876227 40.749553, -118.865076 40.751798, -118.853924 40.754042, -118.842772 40.756285, -118.831619 40.758527, -118.820465 40.760768, -118.809310 40.763008, -118.798155 40.765246, -118.786998 40.767484, -118.775842 40.769721, -118.764684 40.771956, -118.753525 40.774190, -118.742366 40.776424, -118.731206 40.778656, -118.720046 40.780887, -118.708884 40.783117, -118.697722 40.785346, -118.686559 40.787574, -118.675396 40.789801, -118.664231 40.792027, -118.653066 40.794251, -118.641900 40.796475, -118.630733 40.798698, -118.619566 40.800919, -118.608398 40.803139, -118.597229 40.805359, -118.586059 40.807577, -118.574889 40.809794, -118.563718 40.812010, -118.552546 40.814225, -118.541373 40.816439, -118.530200 40.818652, -118.519026 40.820864, -118.507851 40.823074, -118.496675 40.825284, -118.485499 40.827493, -118.474322 40.829700, -118.463144 40.831906, -118.451965 40.834112, -118.440786 40.836316, -118.429606 40.838519, -118.418425 40.840721, -118.407243 40.842922, -118.396061 40.845122, -118.384878 40.847321, -118.373694 40.849519, -118.362510 40.851715, -118.351324 40.853911, -118.340138 40.856105, -118.328952 40.858299, -118.317764 40.860491, -118.306576 40.862682, -118.295387 40.864873, -118.284197 40.867062, -118.273007 40.869250, -118.261816 40.871437, -118.250624 40.873623, -118.239431 40.875807, -118.228238 40.877991, -118.217043 40.880174, -118.205848 40.882355, -118.194653 40.884536, -118.183457 40.886715, -118.172259 40.888893, -118.161062 40.891070, -118.149863 40.893247, -118.138664 40.895422, -118.127464 40.897596, -118.116263 40.899768, -118.105061 40.901940, -118.093859 40.904111, -118.082656 40.906281, -118.071452 40.908449, -118.060248 40.910616, -118.049043 40.912783, -118.037837 40.914948, -118.026630 40.917112, -118.015423 40.919275, -118.004215 40.921437, -117.993006 40.923598, -117.981796 40.925758, -117.970586 40.927917, -117.959375 40.930075, -117.948163 40.932231, -117.936950 40.934387, -117.925737 40.936541, -117.914523 40.938695, -117.903308 40.940847, -117.892093 40.942998, -117.880877 40.945148, -117.869660 40.947297, -117.858442 40.949445, -117.847224 40.951592, -117.836005 40.953737, -117.824785 40.955882, -117.813564 40.958026, -117.802343 40.960168, -117.791121 40.962309, -117.779898 40.964450, -117.768675 40.966589, -117.757451 40.968727, -117.746226 40.970864, -117.735000 40.973000, -117.723444 40.972273, -117.711889 40.971545, -117.700334 40.970816, -117.688779 40.970086, -117.677224 40.969355, -117.665670 40.968622, -117.654116 40.967888, -117.642562 40.967154, -117.631008 40.966418, -117.619455 40.965680, -117.607902 40.964942, -117.596349 40.964203, -117.584796 40.963462, -117.573244 40.962720, -117.561692 40.961977, -117.550140 40.961233, -117.538588 40.960488, -117.527037 40.959742, -117.515486 40.958994, -117.503935 40.958245, -117.492385 40.957496, -117.480834 40.956745, -117.469284 40.955992, -117.457735 40.955239, -117.446185 40.954485, -117.434636 40.953729, -117.423087 40.952972, -117.411539 40.952214, -117.399990 40.951455, -117.388442 40.950695, -117.376894 40.949934, -117.365347 40.949171, -117.353799 40.948408, -117.342252 40.947643, -117.330705 40.946877, -117.319159 40.946110, -117.307613 40.945342, -117.296067 40.944572, -117.284521 40.943802, -117.272975 40.943030, -117.261430 40.942257, -117.249885 40.941483, -117.238341 40.940708, -117.226796 40.939931, -117.215252 40.939154, -117.203708 40.938375, -117.192165 40.937595, -117.180621 40.936815, -117.169078 40.936032, -117.157536 40.935249, -117.145993 40.934465, -117.134451 40.933679, -117.122909 40.932893, -117.111367 40.932105, -117.099826 40.931316, -117.088285 40.930526, -117.076744 40.929734, -117.065204 40.928942, -117.053663 40.928148, -117.042123 40.927353, -117.030584 40.926558, -117.019044 40.925761, -117.007505 40.924962, -116.995966 40.924163, -116.984428 40.923363, -116.972889 40.922561, -116.961351 40.921758, -116.949814 40.920954, -116.938276 40.920149, -116.926739 40.919343, -116.915202 40.918535, -116.903665 40.917727, -116.892129 40.916917, -116.880593 40.916106, -116.869057 40.915294, -116.857522 40.914481, -116.845987 40.913667, -116.834452 40.912851, -116.822917 40.912035, -116.811383 40.911217, -116.799849 40.910398, -116.788315 40.909578, -116.776781 40.908757, -116.765248 40.907935, -116.753715 40.907111, -116.742183 40.906286, -116.730650 40.905461, -116.719118 40.904634, -116.707586 40.903806, -116.696055 40.902976, -116.684524 40.902146, -116.672993 40.901315, -116.661462 40.900482, -116.649932 40.899648, -116.638402 40.898813, -116.626872 40.897977, -116.615343 40.897140, -116.603814 40.896301, -116.592285 40.895462, -116.580756 40.894621, -116.569228 40.893779, -116.557700 40.892936, -116.546172 40.892092, -116.534645 40.891247, -116.523118 40.890400, -116.511591 40.889553, -116.500064 40.888704, -116.488538 40.887854, -116.477012 40.887003, -116.465487 40.886151, -116.453961 40.885297, -116.442436 40.884443, -116.430912 40.883587, -116.419387 40.882730, -116.407863 40.881873, -116.396339 40.881013, -116.384816 40.880153, -116.373292 40.879292, -116.361769 40.878429, -116.350247 40.877566, -116.338725 40.876701, -116.327202 40.875835, -116.315681 40.874968, -116.304159 40.874100, -116.292638 40.873230, -116.281117 40.872360, -116.269597 40.871488, -116.258077 40.870615, -116.246557 40.869741, -116.235037 40.868866, -116.223518 40.867990, -116.211999 40.867112, -116.200480 40.866234, -116.188962 40.865354, -116.177444 40.864473, -116.165926 40.863591, -116.154408 40.862708, -116.142891 40.861824, -116.131374 40.860938, -116.119858 40.860052, -116.108342 40.859164, -116.096826 40.858275, -116.085310 40.857385, -116.073795 40.856494, -116.062280 40.855602, -116.050765 40.854708, -116.039251 40.853814, -116.027737 40.852918, -116.016223 40.852021, -116.004710 40.851123, -115.993196 40.850224, -115.981684 40.849323, -115.970171 40.848422, -115.958659 40.847519, -115.947147 40.846616, -115.935635 40.845711, -115.924124 40.844805, -115.912613 40.843898, -115.901103 40.842989, -115.889592 40.842080, -115.878082 40.841169, -115.866573 40.840257, -115.855063 40.839344, -115.843554 40.838430, -115.832046 40.837515, -115.820537 40.836599, -115.809029 40.835681, -115.797521 40.834763, -115.786014 40.833843, -115.774507 40.832922, -115.763000 40.832000, -115.751433 40.831978, -115.739866 40.831955, -115.728299 40.831930, -115.716732 40.831904, -115.705165 40.831878, -115.693598 40.831850, -115.682031 40.831821, -115.670464 40.831790, -115.658897 40.831759, -115.647331 40.831726, -115.635764 40.831693, -115.624197 40.831658, -115.612630 40.831622, -115.601063 40.831585, -115.589496 40.831546, -115.577929 40.831507, -115.566363 40.831466, -115.554796 40.831424, -115.543229 40.831381, -115.531662 40.831337, -115.520095 40.831292, -115.508529 40.831245, -115.496962 40.831198, -115.485395 40.831149, -115.473829 40.831099, -115.462262 40.831048, -115.450695 40.830996, -115.439129 40.830943, -115.427562 40.830888, -115.415995 40.830832, -115.404429 40.830776, -115.392862 40.830718, -115.381296 40.830659, -115.369729 40.830598, -115.358163 40.830537, -115.346596 40.830474, -115.335030 40.830410, -115.323463 40.830346, -115.311897 40.830280, -115.300331 40.830212, -115.288764 40.830144, -115.277198 40.830074, -115.265632 40.830004, -115.254065 40.829932, -115.242499 40.829859, -115.230933 40.829785, -115.219367 40.829709, -115.207800 40.829633, -115.196234 40.829555, -115.184668 40.829477, -115.173102 40.829397, -115.161536 40.829316, -115.149970 40.829233, -115.138404 40.829150, -115.126838 40.829065, -115.115272 40.828980, -115.103706 40.828893, -115.092140 40.828805, -115.080574 40.828716, -115.069008 40.828625, -115.057443 40.828534, -115.045877 40.828441, -115.034311 40.828347, -115.022745 40.828253, -115.011180 40.828156, -114.999614 40.828059, -114.988049 40.827961, -114.976483 40.827861, -114.964917 40.827761, -114.953352 40.827659, -114.941786 40.827556, -114.930221 40.827451, -114.918656 40.827346, -114.907090 40.827240, -114.895525 40.827132, -114.883960 40.827023, -114.872394 40.826913, -114.860829 40.826802, -114.849264 40.826690, -114.837699 40.826576, -114.826134 40.826462, -114.814569 40.826346, -114.803004 40.826229, -114.791439 40.826111, -114.779874 40.825992, -114.768309 40.825872, -114.756744 40.825750, -114.745180 40.825628, -114.733615 40.825504, -114.722050 40.825379, -114.710485 40.825253, -114.698921 40.825125, -114.687356 40.824997, -114.675792 40.824867, -114.664227 40.824737, -114.652663 40.824605, -114.641098 40.824472, -114.629534 40.824337, -114.617970 40.824202, -114.606405 40.824066, -114.594841 40.823928, -114.583277 40.823789, -114.571713 40.823649, -114.560149 40.823508, -114.548585 40.823366, -114.537021 40.823222, -114.525457 40.823078, -114.513893 40.822932, -114.502329 40.822785, -114.490766 40.822637, -114.479202 40.822488, -114.467638 40.822337, -114.456075 40.822186, -114.444511 40.822033, -114.432948 40.821879, -114.421384 40.821724, -114.409821 40.821568, -114.398258 40.821411, -114.386694 40.821252, -114.375131 40.821093, -114.363568 40.820932, -114.352005 40.820770, -114.340442 40.820607, -114.328879 40.820443, -114.317316 40.820278, -114.305753 40.820111, -114.294190 40.819943, -114.282627 40.819774, -114.271065 40.819604, -114.259502 40.819433, -114.247939 40.819261, -114.236377 40.819088, -114.224814 40.818913, -114.213252 40.818737, -114.201690 40.818560, -114.190127 40.818382, -114.178565 40.818203, -114.167003 40.818023, -114.155441 40.817841, -114.143879 40.817658, -114.132317 40.817475, -114.120755 40.817290, -114.109193 40.817103, -114.097632 40.816916, -114.086070 40.816728, -114.074508 40.816538, -114.062947 40.816347, -114.051385 40.816155, -114.039824 40.815962, -114.028262 40.815768, -114.016701 40.815573, -114.005140 40.815376, -113.993579 40.815178, -113.982018 40.814980, -113.970457 40.814780, -113.958896 40.814578, -113.947335 40.814376, -113.935774 40.814173, -113.924213 40.813968, -113.912652 40.813762, -113.901092 40.813555, -113.889531 40.813347, -113.877971 40.813138, -113.866411 40.812928, -113.854850 40.812716, -113.843290 40.812503, -113.831730 40.812289, -113.820170 40.812074, -113.808610 40.811858, -113.797050 40.811641, -113.785490 40.811423, -113.773930 40.811203, -113.762370 40.810982, -113.750811 40.810760, -113.739251 40.810537, -113.727692 40.810313, -113.716132 40.810088, -113.704573 40.809861, -113.693014 40.809633, -113.681455 40.809404, -113.669896 40.809174, -113.658337 40.808943, -113.646778 40.808711, -113.635219 40.808478, -113.623660 40.808243, -113.612101 40.808007, -113.600543 40.807770, -113.588984 40.807532, -113.577426 40.807293, -113.565868 40.807053, -113.554309 40.806811, -113.542751 40.806568, -113.531193 40.806325, -113.519635 40.806080, -113.508077 40.805833, -113.496519 40.805586, -113.484962 40.805338, -113.473404 40.805088, -113.461846 40.804837, -113.450289 40.804585, -113.438732 40.804332, -113.427174 40.804078, -113.415617 40.803823, -113.404060 40.803566, -113.392503 40.803308, -113.380946 40.803050, -113.369389 40.802790, -113.357832 40.802529, -113.346276 40.802266, -113.334719 40.802003, -113.323163 40.801738, -113.311606 40.801472, -113.300050 40.801206, -113.288494 40.800938, -113.276937 40.800668, -113.265381 40.800398, -113.253826 40.800126, -113.242270 40.799854, -113.230714 40.799580, -113.219158 40.799305, -113.207603 40.799029, -113.196047 40.798752, -113.184492 40.798473, -113.172937 40.798194, -113.161382 40.797913, -113.149826 40.797631, -113.138271 40.797348, -113.126717 40.797064, -113.115162 40.796778, -113.103607 40.796492, -113.092053 40.796204, -113.080498 40.795915, -113.068944 40.795625, -113.057390 40.795334, -113.045835 40.795042, -113.034281 40.794749, -113.022727 40.794454, -113.011173 40.794158, -112.999620 40.793861, -112.988066 40.793563, -112.976513 40.793264, -112.964959 40.792964, -112.953406 40.792662, -112.941853 40.792360, -112.930299 40.792056, -112.918746 40.791751, -112.907193 40.791445, -112.895641 40.791138, -112.884088 40.790829, -112.872535 40.790520, -112.860983 40.790209, -112.849430 40.789897, -112.837878 40.789584, -112.826326 40.789270, -112.814774 40.788955, -112.803222 40.788638, -112.791670 40.788321, -112.780119 40.788002, -112.768567 40.787682, -112.757015 40.787361, -112.745464 40.787039, -112.733913 40.786715, -112.722362 40.786391, -112.710811 40.786065, -112.699260 40.785738, -112.687709 40.785410, -112.676158 40.785081, -112.664607 40.784751, -112.653057 40.784420, -112.641507 40.784087, -112.629956 40.783753, -112.618406 40.783418, -112.606856 40.783082, -112.595306 40.782745, -112.583757 40.782407, -112.572207 40.782067, -112.560657 40.781727, -112.549108 40.781385, -112.537559 40.781042, -112.526009 40.780698, -112.514460 40.780353, -112.502911 40.780006, -112.491363 40.779659, -112.479814 40.779310, -112.468265 40.778960, -112.456717 40.778609, -112.445169 40.778257, -112.433620 40.777904, -112.422072 40.777549, -112.410524 40.777194, -112.398976 40.776837, -112.387429 40.776479, -112.375881 40.776120, -112.364334 40.775760, -112.352786 40.775398, -112.341239 40.775036, -112.329692 40.774672, -112.318145 40.774307, -112.306598 40.773941, -112.295052 40.773574, -112.283505 40.773206, -112.271958 40.772836, -112.260412 40.772466, -112.248866 40.772094, -112.237320 40.771721, -112.225774 40.771347, -112.214228 40.770972, -112.202682 40.770596, -112.191137 40.770218, -112.179592 40.769840, -112.168046 40.769460, -112.156501 40.769079, -112.144956 40.768697, -112.133411 40.768314, -112.121866 40.767929, -112.110322 40.767544, -112.098777 40.767157, -112.087233 40.766769, -112.075689 40.766380, -112.064145 40.765990, -112.052601 40.765599, -112.041057 40.765206, -112.029513 40.764813, -112.017970 40.764418, -112.006426 40.764022, -111.994883 40.763625, -111.983340 40.763227, -111.971797 40.762828, -111.960254 40.762427, -111.948711 40.762025, -111.937169 40.761623, -111.925626 40.761219, -111.914084 40.760814, -111.902542 40.760407, -111.891000 40.760000, -111.887347 40.751769, -111.883695 40.743538, -111.880043 40.735307, -111.876393 40.727076, -111.872743 40.718845, -111.869094 40.710614, -111.865447 40.702382, -111.861800 40.694150, -111.858154 40.685919, -111.854509 40.677687, -111.850865 40.669455, -111.847221 40.661223, -111.843579 40.652991, -111.839938 40.644759, -111.836297 40.636526, -111.832657 40.628294, -111.829019 40.620061, -111.825381 40.611828, -111.821744 40.603595, -111.818108 40.595362, -111.814472 40.587129, -111.810838 40.578896, -111.807205 40.570663, -111.803572 40.562429, -111.799941 40.554196, -111.796310 40.545962, -111.792680 40.537728, -111.789051 40.529495, -111.785423 40.521261, -111.781796 40.513027, -111.778170 40.504792, -111.774544 40.496558, -111.770920 40.488324, -111.767296 40.480089, -111.763674 40.471854, -111.760052 40.463620, -111.756431 40.455385, -111.752811 40.447150, -111.749192 40.438915, -111.745573 40.430679, -111.741956 40.422444, -111.738340 40.414208, -111.734724 40.405973, -111.731109 40.397737, -111.727495 40.389501, -111.723883 40.381266, -111.720270 40.373030, -111.716659 40.364793, -111.713049 40.356557, -111.709440 40.348321, -111.705831 40.340084, -111.702223 40.331848, -111.698617 40.323611, -111.695011 40.315374, -111.691406 40.307137, -111.687802 40.298900, -111.684198 40.290663, -111.680596 40.282426, -111.676994 40.274189, -111.673394 40.265951, -111.669794 40.257713, -111.666195 40.249476, -111.662597 40.241238, -111.659000 40.233000, -111.650459 40.227250, -111.641919 40.221500, -111.633381 40.215749, -111.624844 40.209997, -111.616308 40.204245, -111.607774 40.198492, -111.599241 40.192738, -111.590710 40.186984, -111.582181 40.181229, -111.573652 40.175474, -111.565126 40.169718, -111.556600 40.163961, -111.548076 40.158204, -111.539554 40.152446, -111.531033 40.146687, -111.522513 40.140928, -111.513995 40.135168, -111.505479 40.129408, -111.496963 40.123647, -111.488450 40.117885, -111.479937 40.112123, -111.471426 40.106360, -111.462917 40.100597, -111.454409 40.094832, -111.445902 40.089068, -111.437397 40.083302, -111.428893 40.077536, -111.420391 40.071770, -111.411890 40.066002, -111.403391 40.060234, -111.394893 40.054466, -111.386396 40.048697, -111.377901 40.042927, -111.369408 40.037157, -111.360916 40.031386, -111.352425 40.025614, -111.343935 40.019842, -111.335448 40.014069, -111.326961 40.008295, -111.318476 40.002521, -111.309993 39.996747, -111.301510 39.990971, -111.293030 39.985195, -111.284550 39.979419, -111.276073 39.973642, -111.267596 39.967864, -111.259121 39.962085, -111.250648 39.956306, -111.242176 39.950527, -111.233705 39.944746, -111.225236 39.938966, -111.216768 39.933184, -111.208301 39.927402, -111.199836 39.921619, -111.191373 39.915836, -111.182911 39.910052, -111.174450 39.904267, -111.165991 39.898482, -111.157533 39.892696, -111.149077 39.886910, -111.140622 39.881123, -111.132168 39.875335, -111.123716 39.869547, -111.115266 39.863758, -111.106816 39.857969, -111.098368 39.852179, -111.089922 39.846388, -111.081477 39.840596, -111.073034 39.834805, -111.064591 39.829012, -111.056151 39.823219, -111.047711 39.817425, -111.039274 39.811631, -111.030837 39.805836, -111.022402 39.800040, -111.013969 39.794244, -111.005536 39.788447, -110.997106 39.782650, -110.988676 39.776852, -110.980248 39.771053, -110.971822 39.765254, -110.963397 39.759454, -110.954973 39.753653, -110.946551 39.747852, -110.938130 39.742050, -110.929711 39.736248, -110.921293 39.730445, -110.912876 39.724642, -110.904461 39.718838, -110.896047 39.713033, -110.887635 39.707227, -110.879224 39.701422, -110.870815 39.695615, -110.862407 39.689808, -110.854000 39.684000, -110.846972 39.677141, -110.839945 39.670281, -110.832919 39.663421, -110.825895 39.656560, -110.818873 39.649699, -110.811851 39.642838, -110.804832 39.635976, -110.797813 39.629113, -110.790796 39.622251, -110.783780 39.615388, -110.776766 39.608524, -110.769753 39.601660, -110.762742 39.594796, -110.755731 39.587931, -110.748723 39.581066, -110.741715 39.574200, -110.734709 39.567334, -110.727705 39.560467, -110.720702 39.553600, -110.713700 39.546733, -110.706699 39.539865, -110.699700 39.532997, -110.692703 39.526129, -110.685706 39.519259, -110.678711 39.512390, -110.671718 39.505520, -110.664726 39.498650, -110.657735 39.491779, -110.650746 39.484908, -110.643758 39.478037, -110.636771 39.471165, -110.629786 39.464292, -110.622802 39.457419, -110.615820 39.450546, -110.608839 39.443673, -110.601859 39.436798, -110.594881 39.429924, -110.587904 39.423049, -110.580928 39.416174, -110.573954 39.409298, -110.566981 39.402422, -110.560010 39.395545, -110.553039 39.388668, -110.546071 39.381791, -110.539103 39.374913, -110.532137 39.368035, -110.525173 39.361156, -110.518210 39.354277, -110.511248 39.347398, -110.504287 39.340518, -110.497328 39.333638, -110.490371 39.326757, -110.483414 39.319876, -110.476459 39.312995, -110.469506 39.306113, -110.462553 39.299230, -110.455602 39.292347, -110.448653 39.285464, -110.441705 39.278581, -110.434758 39.271697, -110.427813 39.264812, -110.420868 39.257927, -110.413926 39.251042, -110.406984 39.244157, -110.400044 39.237270, -110.393106 39.230384, -110.386169 39.223497, -110.379233 39.216610, -110.372298 39.209722, -110.365365 39.202834, -110.358433 39.195945, -110.351503 39.189056, -110.344574 39.182167, -110.337646 39.175277, -110.330720 39.168387, -110.323795 39.161497, -110.316871 39.154606, -110.309949 39.147714, -110.303028 39.140822, -110.296108 39.133930, -110.289190 39.127038, -110.282273 39.120144, -110.275357 39.113251, -110.268443 39.106357, -110.261530 39.099463, -110.254619 39.092568, -110.247709 39.085673, -110.240800 39.078778, -110.233893 39.071882, -110.226987 39.064985, -110.220082 39.058089, -110.213178 39.051192, -110.206276 39.044294, -110.199376 39.037396, -110.192476 39.030498, -110.185578 39.023599, -110.178682 39.016700, -110.171787 39.009800, -110.164893 39.002900, -110.158000 38.996000, -110.146773 38.996545, -110.135547 38.997089, -110.124320 38.997632, -110.113092 38.998174, -110.101865 38.998714, -110.090638 38.999254, -110.079410 38.999793, -110.068182 39.000330, -110.056954 39.000867, -110.045726 39.001402, -110.034498 39.001936, -110.023269 39.002469, -110.012041 39.003001, -110.000812 39.003533, -109.989583 39.004063, -109.978354 39.004591, -109.967124 39.005119, -109.955895 39.005646, -109.944665 39.006172, -109.933435 39.006696, -109.922205 39.007220, -109.910975 39.007742, -109.899745 39.008263, -109.888514 39.008784, -109.877283 39.009303, -109.866053 39.009821, -109.854822 39.010338, -109.843590 39.010854, -109.832359 39.011369, -109.821128 39.011883, -109.809896 39.012396, -109.798664 39.012907, -109.787432 39.013418, -109.776200 39.013927, -109.764968 39.014436, -109.753735 39.014943, -109.742503 39.015449, -109.731270 39.015955, -109.720037 39.016459, -109.708804 39.016962, -109.697570 39.017464, -109.686337 39.017965, -109.675103 39.018464, -109.663870 39.018963, -109.652636 39.019461, -109.641402 39.019957, -109.630168 39.020453, -109.618933 39.020947, -109.607699 39.021441, -109.596464 39.021933, -109.585229 39.022424, -109.573994 39.022914, -109.562759 39.023403, -109.551524 39.023891, -109.540288 39.024378, -109.529053 39.024864, -109.517817 39.025349, -109.506581 39.025832, -109.495345 39.026315, -109.484109 39.026796, -109.472872 39.027277, -109.461636 39.027756, -109.450399 39.028234, -109.439162 39.028712, -109.427925 39.029188, -109.416688 39.029663, -109.405451 39.030137, -109.394213 39.030610, -109.382976 39.031081, -109.371738 39.031552, -109.360500 39.032022, -109.349262 39.032490, -109.338024 39.032958, -109.326785 39.033424, -109.315547 39.033890, -109.304308 39.034354, -109.293069 39.034817, -109.281830 39.035279, -109.270591 39.035740, -109.259352 39.036200, -109.248113 39.036659, -109.236873 39.037117, -109.225634 39.037573, -109.214394 39.038029, -109.203154 39.038483, -109.191914 39.038937, -109.180673 39.039389, -109.169433 39.039841, -109.158192 39.040291, -109.146952 39.040740, -109.135711 39.041188, -109.124470 39.041635, -109.113229 39.042081, -109.101988 39.042526, -109.090746 39.042969, -109.079505 39.043412, -109.068263 39.043854, -109.057021 39.044294, -109.045779 39.044734, -109.034537 39.045172, -109.023295 39.045609, -109.012053 39.046046, -109.000810 39.046481, -108.989567 39.046915, -108.978325 39.047348, -108.967082 39.047780, -108.955839 39.048210, -108.944595 39.048640, -108.933352 39.049069, -108.922109 39.049496, -108.910865 39.049923, -108.899621 39.050348, -108.888377 39.050772, -108.877133 39.051196, -108.865889 39.051618, -108.854645 39.052039, -108.843401 39.052459, -108.832156 39.052878, -108.820911 39.053296, -108.809667 39.053712, -108.798422 39.054128, -108.787177 39.054543, -108.775931 39.054956, -108.764686 39.055369, -108.753441 39.055780, -108.742195 39.056190, -108.730949 39.056600, -108.719703 39.057008, -108.708457 39.057415, -108.697211 39.057821, -108.685965 39.058226, -108.674719 39.058629, -108.663472 39.059032, -108.652225 39.059434, -108.640979 39.059834, -108.629732 39.060234, -108.618485 39.060632, -108.607238 39.061030, -108.595990 39.061426, -108.584743 39.061821, -108.573495 39.062215, -108.562248 39.062608, -108.551000 39.063000, -108.541012 39.067044, -108.531023 39.071087, -108.521033 39.075129, -108.511041 39.079170, -108.501048 39.083211, -108.491055 39.087251, -108.481060 39.091289, -108.471064 39.095327, -108.461067 39.099364, -108.451068 39.103401, -108.441069 39.107436, -108.431068 39.111470, -108.421066 39.115504, -108.411064 39.119537, -108.401060 39.123569, -108.391054 39.127600, -108.381048 39.131630, -108.371040 39.135659, -108.361032 39.139688, -108.351022 39.143716, -108.341011 39.147742, -108.330999 39.151768, -108.320986 39.155793, -108.310972 39.159818, -108.300956 39.163841, -108.290939 39.167864, -108.280922 39.171885, -108.270903 39.175906, -108.260883 39.179926, -108.250861 39.183945, -108.240839 39.187963, -108.230815 39.191981, -108.220791 39.195997, -108.210765 39.200013, -108.200738 39.204028, -108.190710 39.208042, -108.180681 39.212055, -108.170650 39.216067, -108.160619 39.220078, -108.150586 39.224089, -108.140552 39.228098, -108.130517 39.232107, -108.120481 39.236115, -108.110444 39.240122, -108.100405 39.244128, -108.090366 39.248134, -108.080325 39.252138, -108.070283 39.256142, -108.060240 39.260144, -108.050196 39.264146, -108.040151 39.268147, -108.030104 39.272147, -108.020057 39.276147, -108.010008 39.280145, -107.999958 39.284143, -107.989907 39.288139, -107.979855 39.292135, -107.969802 39.296130, -107.959747 39.300124, -107.949691 39.304118, -107.939635 39.308110, -107.929577 39.312101, -107.919518 39.316092, -107.909457 39.320082, -107.899396 39.324071, -107.889334 39.328059, -107.879270 39.332046, -107.869205 39.336032, -107.859139 39.340018, -107.849072 39.344002, -107.839004 39.347986, -107.828934 39.351969, -107.818864 39.355951, -107.808792 39.359932, -107.798719 39.363912, -107.788645 39.367892, -107.778570 39.371870, -107.768494 39.375848, -107.758416 39.379825, -107.748338 39.383800, -107.738258 39.387775, -107.728177 39.391750, -107.718095 39.395723, -107.708012 39.399695, -107.697928 39.403667, -107.687842 39.407637, -107.677756 39.411607, -107.667668 39.415576, -107.657579 39.419544, -107.647489 39.423511, -107.637398 39.427478, -107.627305 39.431443, -107.617212 39.435408, -107.607117 39.439372, -107.597021 39.443334, -107.586924 39.447296, -107.576826 39.451257, -107.566727 39.455218, -107.556627 39.459177, -107.546525 39.463135, -107.536422 39.467093, -107.526318 39.471050, -107.516213 39.475006, -107.506107 39.478960, -107.496000 39.482915, -107.485892 39.486868, -107.475782 39.490820, -107.465671 39.494772, -107.455559 39.498722, -107.445446 39.502672, -107.435332 39.506621, -107.425217 39.510569, -107.415100 39.514516, -107.404983 39.518462, -107.394864 39.522407, -107.384744 39.526352, -107.374623 39.530295, -107.364500 39.534238, -107.354377 39.538180, -107.344253 39.542121, -107.334127 39.546061, -107.324000 39.550000, -107.313897 39.553511, -107.303794 39.557021, -107.293689 39.560530, -107.283583 39.564039, -107.273477 39.567546, -107.263369 39.571053, -107.253260 39.574558, -107.243151 39.578063, -107.233040 39.581567, -107.222928 39.585070, -107.212815 39.588572, -107.202701 39.592074, -107.192586 39.595574, -107.182470 39.599074, -107.172354 39.602572, -107.162236 39.606070, -107.152117 39.609567, -107.141997 39.613063, -107.131876 39.616558, -107.121754 39.620053, -107.111631 39.623546, -107.101507 39.627039, -107.091381 39.630530, -107.081255 39.634021, -107.071128 39.637511, -107.061000 39.641000, -107.052331 39.646479, -107.043661 39.651957, -107.034990 39.657434, -107.026317 39.662911, -107.017643 39.668387, -107.008967 39.673863, -107.000290 39.679337, -106.991612 39.684812, -106.982932 39.690285, -106.974251 39.695758, -106.965568 39.701230, -106.956884 39.706702, -106.948199 39.712173, -106.939513 39.717643, -106.930825 39.723113, -106.922135 39.728582, -106.913444 39.734050, -106.904752 39.739518, -106.896059 39.744985, -106.887364 39.750452, -106.878668 39.755917, -106.869970 39.761383, -106.861271 39.766847, -106.852571 39.772311, -106.843869 39.777774, -106.835166 39.783237, -106.826461 39.788698, -106.817755 39.794160, -106.809048 39.799620, -106.800339 39.805080, -106.791629 39.810539, -106.782918 39.815998, -106.774205 39.821456, -106.765490 39.826913, -106.756775 39.832370, -106.748058 39.837826, -106.739339 39.843281, -106.730620 39.848736, -106.721899 39.854190, -106.713176 39.859644, -106.704452 39.865096, -106.695727 39.870549, -106.687000 39.876000, -106.675576 39.876314, -106.664151 39.876627, -106.652727 39.876939, -106.641302 39.877250, -106.629877 39.877560, -106.618452 39.877868, -106.607027 39.878176, -106.595602 39.878482, -106.584177 39.878787, -106.572752 39.879092, -106.561326 39.879395, -106.549901 39.879696, -106.538475 39.879997, -106.527050 39.880297, -106.515624 39.880595, -106.504198 39.880893, -106.492772 39.881189, -106.481346 39.881484, -106.469920 39.881778, -106.458493 39.882071, -106.447067 39.882363, -106.435640 39.882653, -106.424214 39.882943, -106.412787 39.883231, -106.401360 39.883519, -106.389933 39.883805, -106.378507 39.884090, -106.367079 39.884374, -106.355652 39.884657, -106.344225 39.884938, -106.332798 39.885219, -106.321370 39.885498, -106.309943 39.885777, -106.298515 39.886054, -106.287087 39.886330, -106.275660 39.886605, -106.264232 39.886879, -106.252804 39.887152, -106.241376 39.887423, -106.229948 39.887694, -106.218519 39.887963, -106.207091 39.888231, -106.195662 39.888498, -106.184234 39.888764, -106.172805 39.889029, -106.161377 39.889293, -106.149948 39.889555, -106.138519 39.889817, -106.127090 39.890077, -106.115661 39.890337, -106.104232 39.890595, -106.092803 39.890852, -106.081373 39.891108, -106.069944 39.891362, -106.058514 39.891616, -106.047085 39.891869, -106.035655 39.892120, -106.024226 39.892370, -106.012796 39.892619, -106.001366 39.892867, -105.989936 39.893114, -105.978506 39.893360, -105.967076 39.893605, -105.955645 39.893848, -105.944215 39.894091, -105.932785 39.894332, -105.921354 39.894572, -105.909924 39.894811, -105.898493 39.895049, -105.887062 39.895286, -105.875632 39.895522, -105.864201 39.895756, -105.852770 39.895990, -105.841339 39.896222, -105.829908 39.896453, -105.818477 39.896683, -105.807045 39.896912, -105.795614 39.897140, -105.784183 39.897367, -105.772751 39.897593, -105.761320 39.897817, -105.749888 39.898040, -105.738456 39.898263, -105.727024 39.898484, -105.715593 39.898704, -105.704161 39.898923, -105.692729 39.899140, -105.681297 39.899357, -105.669864 39.899572, -105.658432 39.899787, -105.647000 39.900000, -105.636123 39.897391, -105.625246 39.894781, -105.614370 39.892170, -105.603495 39.889558, -105.592621 39.886945, -105.581748 39.884331, -105.570875 39.881716, -105.560004 39.879100, -105.549133 39.876483, -105.538263 39.873865, -105.527394 39.871246, -105.516526 39.868625, -105.505658 39.866004, -105.494792 39.863382, -105.483926 39.860759, -105.473061 39.858135, -105.462197 39.855510, -105.451333 39.852883, -105.440471 39.850256, -105.429609 39.847628, -105.418748 39.844999, -105.407888 39.842368, -105.397029 39.839737, -105.386171 39.837105, -105.375314 39.834472, -105.364457 39.831837, -105.353601 39.829202, -105.342746 39.826566, -105.331892 39.823928, -105.321039 39.821290, -105.310186 39.818650, -105.299334 39.816010, -105.288484 39.813369, -105.277634 39.810726, -105.266785 39.808083, -105.255936 39.805438, -105.245089 39.802793, -105.234242 39.800147, -105.223396 39.797499, -105.212551 39.794851, -105.201707 39.792201, -105.190864 39.789551, -105.180021 39.786899, -105.169180 39.784247, -105.158339 39.781593, -105.147499 39.778939, -105.136660 39.776283, -105.125822 39.773627, -105.114984 39.770969, -105.104147 39.768311, -105.093312 39.765651, -105.082477 39.762990, -105.071643 39.760329, -105.060809 39.757666, -105.049977 39.755003, -105.039145 39.752338, -105.028315 39.749672, -105.017485 39.747006, -105.006656 39.744338, -104.995827 39.741670, -104.985000 39.739000, -104.973756 39.740413, -104.962511 39.741825, -104.951266 39.743236, -104.940021 39.744646, -104.928775 39.746055, -104.917529 39.747463, -104.906282 39.748869, -104.895034 39.750275, -104.883787 39.751679, -104.872538 39.753083, -104.861290 39.754485, -104.850040 39.755886, -104.838791 39.757286, -104.827541 39.758685, -104.816290 39.760083, -104.805039 39.761480, -104.793788 39.762876, -104.782536 39.764271, -104.771284 39.765664, -104.760031 39.767057, -104.748778 39.768448, -104.737524 39.769838, -104.726270 39.771228, -104.715015 39.772616, -104.703760 39.774003, -104.692504 39.775389, -104.681249 39.776774, -104.669992 39.778158, -104.658735 39.779540, -104.647478 39.780922, -104.636220 39.782303, -104.624962 39.783682, -104.613703 39.785060, -104.602444 39.786438, -104.591184 39.787814, -104.579924 39.789189, -104.568664 39.790563, -104.557403 39.791936, -104.546142 39.793308, -104.534880 39.794679, -104.523617 39.796048, -104.512355 39.797417, -104.501091 39.798784, -104.489828 39.800151, -104.478564 39.801516, -104.467299 39.802880, -104.456034 39.804244, -104.444769 39.805606, -104.433503 39.806967, -104.422237 39.808326, -104.410970 39.809685, -104.399703 39.811043, -104.388435 39.812400, -104.377167 39.813755, -104.365898 39.815110, -104.354629 39.816463, -104.343360 39.817815, -104.332090 39.819166, -104.320820 39.820516, -104.309549 39.821865, -104.298278 39.823213, -104.287006 39.824560, -104.275734 39.825906, -104.264462 39.827250, -104.253189 39.828594, -104.241915 39.829936, -104.230641 39.831278, -104.219367 39.832618, -104.208092 39.833957, -104.196817 39.835295, -104.185542 39.836632, -104.174266 39.837968, -104.162989 39.839303, -104.151712 39.840636, -104.140435 39.841969, -104.129157 39.843301, -104.117879 39.844631, -104.106600 39.845960, -104.095321 39.847289, -104.084041 39.848616, -104.072761 39.849942, -104.061481 39.851267, -104.050200 39.852591, -104.038919 39.853913, -104.027637 39.855235, -104.016355 39.856556, -104.005072 39.857875, -103.993789 39.859193, -103.982506 39.860511, -103.971222 39.861827, -103.959938 39.863142, -103.948653 39.864456, -103.937368 39.865769, -103.926082 39.867081, -103.914796 39.868392, -103.903510 39.869701, -103.892223 39.871010, -103.880935 39.872317, -103.869648 39.873624, -103.858359 39.874929, -103.847071 39.876233, -103.835782 39.877536, -103.824492 39.878838, -103.813202 39.880139, -103.801912 39.881439, -103.790621 39.882738, -103.779330 39.884035, -103.768038 39.885332, -103.756746 39.886627, -103.745454 39.887922, -103.734161 39.889215, -103.722868 39.890507, -103.711574 39.891798, -103.700280 39.893088, -103.688985 39.894377, -103.677690 39.895665, -103.666395 39.896951, -103.655099 39.898237, -103.643802 39.899521, -103.632506 39.900805, -103.621209 39.902087, -103.609911 39.903368, -103.598613 39.904648, -103.587315 39.905927, -103.576016 39.907205, -103.564716 39.908482, -103.553417 39.909758, -103.542117 39.911032, -103.530816 39.912306, -103.519515 39.913578, -103.508214 39.914850, -103.496912 39.916120, -103.485610 39.917389, -103.474307 39.918657, -103.463004 39.919924, -103.451701 39.921190, -103.440397 39.922454, -103.429093 39.923718, -103.417788 39.924981, -103.406483 39.926242, -103.395177 39.927502, -103.383871 39.928762, -103.372565 39.930020, -103.361258 39.931277, -103.349951 39.932533, -103.338643 39.933788, -103.327335 39.935041, -103.316027 39.936294, -103.304718 39.937546, -103.293409 39.938796, -103.282099 39.940045, -103.270789 39.941294, -103.259478 39.942541, -103.248167 39.943787, -103.236856 39.945032, -103.225544 39.946276, -103.214232 39.947518, -103.202920 39.948760, -103.191607 39.950001, -103.180293 39.951240, -103.168979 39.952478, -103.157665 39.953716, -103.146351 39.954952, -103.135036 39.956187, -103.123720 39.957421, -103.112404 39.958654, -103.101088 39.959886, -103.089771 39.961116, -103.078454 39.962346, -103.067137 39.963574, -103.055819 39.964802, -103.044501 39.966028, -103.033182 39.967253, -103.021863 39.968477, -103.010543 39.969700, -102.999223 39.970922, -102.987903 39.972143, -102.976582 39.973362, -102.965261 39.974581, -102.953940 39.975798, -102.942618 39.977015, -102.931296 39.978230, -102.919973 39.979444, -102.908650 39.980657, -102.897326 39.981869, -102.886002 39.983080, -102.874678 39.984290, -102.863353 39.985498, -102.852028 39.986706, -102.840702 39.987912, -102.829376 39.989118, -102.818050 39.990322, -102.806723 39.991525, -102.795396 39.992727, -102.784069 39.993928, -102.772741 39.995128, -102.761412 39.996326, -102.750084 39.997524, -102.738755 39.998721, -102.727425 39.999916, -102.716095 40.001110, -102.704765 40.002303, -102.693434 40.003496, -102.682103 40.004687, -102.670771 40.005876, -102.659440 40.007065, -102.648107 40.008253, -102.636775 40.009439, -102.625442 40.010625, -102.614108 40.011809, -102.602774 40.012993, -102.591440 40.014175, -102.580105 40.015356, -102.568770 40.016536, -102.557435 40.017715, -102.546099 40.018892, -102.534763 40.020069, -102.523426 40.021245, -102.512089 40.022419, -102.500752 40.023592, -102.489414 40.024765, -102.478076 40.025936, -102.466737 40.027106, -102.455398 40.028275, -102.444059 40.029442, -102.432719 40.030609, -102.421379 40.031775, -102.410039 40.032939, -102.398698 40.034103, -102.387356 40.035265, -102.376015 40.036426, -102.364673 40.037586, -102.353330 40.038745, -102.341987 40.039903, -102.330644 40.041060, -102.319301 40.042215, -102.307957 40.043370, -102.296612 40.044523, -102.285268 40.045676, -102.273922 40.046827, -102.262577 40.047977, -102.251231 40.049126, -102.239885 40.050274, -102.228538 40.051421, -102.217191 40.052566, -102.205844 40.053711, -102.194496 40.054854, -102.183148 40.055997, -102.171799 40.057138, -102.160450 40.058278, -102.149101 40.059417, -102.137751 40.060555, -102.126401 40.061692, -102.115051 40.062828, -102.103700 40.063962, -102.092349 40.065096, -102.080997 40.066228, -102.069645 40.067359, -102.058293 40.068490, -102.046940 40.069619, -102.035587 40.070747, -102.024233 40.071873, -102.012880 40.072999, -102.001525 40.074124, -101.990171 40.075247, -101.978816 40.076370, -101.967460 40.077491, -101.956105 40.078611, -101.944749 40.079730, -101.933392 40.080848, -101.922035 40.081965, -101.910678 40.083081, -101.899321 40.084196, -101.887963 40.085309, -101.876604 40.086422, -101.865246 40.087533, -101.853887 40.088643, -101.842527 40.089752, -101.831167 40.090860, -101.819807 40.091967, -101.808447 40.093073, -101.797086 40.094178, -101.785724 40.095281, -101.774363 40.096384, -101.763001 40.097485, -101.751638 40.098585, -101.740276 40.099684, -101.728912 40.100782, -101.717549 40.101879, -101.706185 40.102975, -101.694821 40.104070, -101.683456 40.105163, -101.672091 40.106256, -101.660726 40.107347, -101.649360 40.108437, -101.637994 40.109526, -101.626628 40.110614, -101.615261 40.111701, -101.603894 40.112787, -101.592526 40.113872, -101.581159 40.114955, -101.569790 40.116038, -101.558422 40.117119, -101.547053 40.118199, -101.535684 40.119279, -101.524314 40.120357, -101.512944 40.121433, -101.501573 40.122509, -101.490203 40.123584, -101.478832 40.124658, -101.467460 40.125730, -101.456088 40.126801, -101.444716 40.127872, -101.433344 40.128941, -101.421971 40.130009, -101.410597 40.131076, -101.399224 40.132141, -101.387850 40.133206, -101.376475 40.134270, -101.365101 40.135332, -101.353726 40.136393, -101.342350 40.137454, -101.330975 40.138513, -101.319599 40.139571, -101.308222 40.140627, -101.296845 40.141683, -101.285468 40.142738, -101.274091 40.143791, -101.262713 40.144844, -101.251335 40.145895, -101.239956 40.146945, -101.228577 40.147994, -101.217198 40.149042, -101.205818 40.150089, -101.194438 40.151135, -101.183058 40.152180, -101.171677 40.153223, -101.160296 40.154266, -101.148915 40.155307, -101.137533 40.156347, -101.126151 40.157386, -101.114769 40.158424, -101.103386 40.159461, -101.092003 40.160496, -101.080619 40.161531, -101.069235 40.162565, -101.057851 40.163597, -101.046467 40.164628, -101.035082 40.165658, -101.023697 40.166687, -101.012311 40.167715, -101.000925 40.168742, -100.989539 40.169768, -100.978152 40.170792, -100.966765 40.171816, -100.955378 40.172838, -100.943991 40.173859, -100.932603 40.174879, -100.921214 40.175898, -100.909826 40.176916, -100.898437 40.177933, -100.887047 40.178949, -100.875658 40.179963, -100.864268 40.180977, -100.852878 40.181989, -100.841487 40.183000, -100.830096 40.184010, -100.818704 40.185019, -100.807313 40.186027, -100.795921 40.187033, -100.784528 40.188039, -100.773136 40.189044, -100.761743 40.190047, -100.750349 40.191049, -100.738956 40.192050, -100.727562 40.193050, -100.716167 40.194049, -100.704772 40.195047, -100.693377 40.196044, -100.681982 40.197039, -100.670586 40.198034, -100.659190 40.199027, -100.647794 40.200019, -100.636397 40.201010, -100.625000 40.202000, -100.613834 40.204052, -100.602667 40.206103, -100.591500 40.208152, -100.580332 40.210201, -100.569163 40.212249, -100.557994 40.214295, -100.546824 40.216340, -100.535653 40.218385, -100.524481 40.220428, -100.513309 40.222470, -100.502137 40.224511, -100.490963 40.226551, -100.479789 40.228590, -100.468614 40.230628, -100.457439 40.232665, -100.446263 40.234701, -100.435086 40.236735, -100.423908 40.238769, -100.412730 40.240802, -100.401551 40.242833, -100.390372 40.244863, -100.379192 40.246893, -100.368011 40.248921, -100.356829 40.250948, -100.345647 40.252974, -100.334464 40.254999, -100.323281 40.257023, -100.312097 40.259046, -100.300912 40.261068, -100.289726 40.263088, -100.278540 40.265108, -100.267353 40.267126, -100.256166 40.269144, -100.244978 40.271160, -100.233789 40.273175, -100.222599 40.275190, -100.211409 40.277203, -100.200218 40.279215, -100.189027 40.281226, -100.177835 40.283236, -100.166642 40.285245, -100.155448 40.287252, -100.144254 40.289259, -100.133059 40.291265, -100.121864 40.293269, -100.110668 40.295273, -100.099471 40.297275, -100.088273 40.299276, -100.077075 40.301276, -100.065876 40.303275, -100.054677 40.305274, -100.043477 40.307270, -100.032276 40.309266, -100.021074 40.311261, -100.009872 40.313255, -99.998669 40.315247, -99.987466 40.317239, -99.976262 40.319230, -99.965057 40.321219, -99.953852 40.323207, -99.942646 40.325194, -99.931439 40.327181, -99.920231 40.329166, -99.909023 40.331150, -99.897815 40.333133, -99.886605 40.335114, -99.875395 40.337095, -99.864184 40.339075, -99.852973 40.341053, -99.841761 40.343031, -99.830548 40.345007, -99.819335 40.346983, -99.808121 40.348957, -99.796906 40.350930, -99.785691 40.352902, -99.774475 40.354873, -99.763258 40.356843, -99.752041 40.358812, -99.740823 40.360779, -99.729605 40.362746, -99.718385 40.364712, -99.707166 40.366676, -99.695945 40.368640, -99.684724 40.370602, -99.673502 40.372563, -99.662279 40.374523, -99.651056 40.376482, -99.639832 40.378440, -99.628608 40.380397, -99.617383 40.382353, -99.606157 40.384308, -99.594931 40.386261, -99.583704 40.388214, -99.572476 40.390165, -99.561248 40.392116, -99.550019 40.394065, -99.538789 40.396013, -99.527559 40.397960, -99.516328 40.399906, -99.505096 40.401851, -99.493864 40.403795, -99.482631 40.405738, -99.471397 40.407680, -99.460163 40.409620, -99.448928 40.411560, -99.437693 40.413498, -99.426456 40.415436, -99.415220 40.417372, -99.403982 40.419307, -99.392744 40.421241, -99.381505 40.423174, -99.370266 40.425106, -99.359026 40.427037, -99.347785 40.428967, -99.336544 40.430895, -99.325302 40.432823, -99.314059 40.434749, -99.302816 40.436675, -99.291572 40.438599, -99.280328 40.440522, -99.269083 40.442444, -99.257837 40.444365, -99.246590 40.446285, -99.235343 40.448204, -99.224095 40.450122, -99.212847 40.452038, -99.201598 40.453954, -99.190348 40.455868, -99.179098 40.457782, -99.167847 40.459694, -99.156595 40.461605, -99.145343 40.463515, -99.134090 40.465424, -99.122837 40.467332, -99.111583 40.469239, -99.100328 40.471145, -99.089072 40.473049, -99.077816 40.474953, -99.066560 40.476855, -99.055302 40.478757, -99.044044 40.480657, -99.032786 40.482556, -99.021526 40.484454, -99.010266 40.486351, -98.999006 40.488247, -98.987745 40.490142, -98.976483 40.492036, -98.965220 40.493928, -98.953957 40.495820, -98.942694 40.497710, -98.931429 40.499600, -98.920164 40.501488, -98.908899 40.503375, -98.897632 40.505261, -98.886366 40.507146, -98.875098 40.509030, -98.863830 40.510913, -98.852561 40.512795, -98.841292 40.514675, -98.830022 40.516555, -98.818751 40.518433, -98.807480 40.520310, -98.796208 40.522187, -98.784935 40.524062, -98.773662 40.525936, -98.762388 40.527809, -98.751114 40.529681, -98.739839 40.531551, -98.728563 40.533421, -98.717286 40.535290, -98.706010 40.537157, -98.694732 40.539023, -98.683454 40.540889, -98.672175 40.542753, -98.660895 40.544616, -98.649615 40.546478, -98.638334 40.548339, -98.627053 40.550198, -98.615771 40.552057, -98.604488 40.553915, -98.593205 40.555771, -98.581921 40.557627, -98.570637 40.559481, -98.559352 40.561334, -98.548066 40.563186, -98.536780 40.565037, -98.525493 40.566887, -98.514205 40.568736, -98.502917 40.570583, -98.491628 40.572430, -98.480338 40.574276, -98.469048 40.576120, -98.457757 40.577963, -98.446466 40.579805, -98.435174 40.581647, -98.423882 40.583487, -98.412588 40.585325, -98.401294 40.587163, -98.390000 40.589000, -98.378710 40.590585, -98.367419 40.592169, -98.356127 40.593752, -98.344835 40.595334, -98.333543 40.596915, -98.322249 40.598494, -98.310956 40.600073, -98.299662 40.601650, -98.288367 40.603226, -98.277072 40.604802, -98.265776 40.606376, -98.254480 40.607949, -98.243183 40.609521, -98.231885 40.611091, -98.220588 40.612661, -98.209289 40.614230, -98.197990 40.615797, -98.186691 40.617364, -98.175391 40.618929, -98.164090 40.620493, -98.152789 40.622056, -98.141487 40.623618, -98.130185 40.625179, -98.118883 40.626739, -98.107580 40.628298, -98.096276 40.629855, -98.084972 40.631412, -98.073667 40.632967, -98.062362 40.634521, -98.051056 40.636075, -98.039749 40.637627, -98.028442 40.639178, -98.017135 40.640728, -98.005827 40.642276, -97.994519 40.643824, -97.983210 40.645371, -97.971900 40.646916, -97.960590 40.648460, -97.949280 40.650004, -97.937969 40.651546, -97.926657 40.653087, -97.915345 40.654627, -97.904032 40.656166, -97.892719 40.657703, -97.881406 40.659240, -97.870091 40.660775, -97.858777 40.662310, -97.847461 40.663843, -97.836146 40.665375, -97.824829 40.666907, -97.813513 40.668437, -97.802195 40.669965, -97.790877 40.671493, -97.779559 40.673020, -97.768240 40.674546, -97.756921 40.676070, -97.745601 40.677593, -97.734281 40.679116, -97.722960 40.680637, -97.711638 40.682157, -97.700316 40.683676, -97.688994 40.685194, -97.677671 40.686710, -97.666347 40.688226, -97.655023 40.689741, -97.643699 40.691254, -97.632374 40.692766, -97.621048 40.694277, -97.609722 40.695788, -97.598395 40.697297, -97.587068 40.698804, -97.575741 40.700311, -97.564412 40.701817, -97.553084 40.703321, -97.541755 40.704825, -97.530425 40.706327, -97.519095 40.707829, -97.507764 40.709329, -97.496433 40.710828, -97.485101 40.712326, -97.473769 40.713822, -97.462436 40.715318, -97.451103 40.716813, -97.439769 40.718306, -97.428435 40.719799, -97.417100 40.721290, -97.405765 40.722780, -97.394429 40.724269, -97.383093 40.725757, -97.371756 40.727244, -97.360419 40.728730, -97.349081 40.730214, -97.337743 40.731698, -97.326404 40.733180, -97.315064 40.734661, -97.303725 40.736142, -97.292384 40.737621, -97.281043 40.739099, -97.269702 40.740575, -97.258360 40.742051, -97.247018 40.743526, -97.235675 40.744999, -97.224332 40.746472, -97.212988 40.747943, -97.201643 40.749413, -97.190299 40.750882, -97.178953 40.752350, -97.167607 40.753817, -97.156261 40.755283, -97.144914 40.756747, -97.133567 40.758211, -97.122219 40.759673, -97.110871 40.761135, -97.099522 40.762595, -97.088172 40.764054, -97.076823 40.765512, -97.065472 40.766969, -97.054121 40.768424, -97.042770 40.769879, -97.031418 40.771333, -97.020066 40.772785, -97.008713 40.774236, -96.997360 40.775686, -96.986006 40.777135, -96.974651 40.778583, -96.963297 40.780030, -96.951941 40.781476, -96.940586 40.782921, -96.929229 40.784364, -96.917872 40.785806, -96.906515 40.787248, -96.895157 40.788688, -96.883799 40.790127, -96.872440 40.791565, -96.861081 40.793002, -96.849721 40.794437, -96.838361 40.795872, -96.827000 40.797305, -96.815639 40.798738, -96.804277 40.800169, -96.792915 40.801599, -96.781553 40.803028, -96.770189 40.804456, -96.758826 40.805883, -96.747462 40.807308, -96.736097 40.808733, -96.724732 40.810156, -96.713366 40.811579, -96.702000 40.813000, -96.692904 40.818403, -96.683807 40.823805, -96.674709 40.829207, -96.665609 40.834608, -96.656508 40.840008, -96.647405 40.845408, -96.638300 40.850806, -96.629194 40.856205, -96.620087 40.861602, -96.610978 40.866998, -96.601868 40.872394, -96.592756 40.877790, -96.583643 40.883184, -96.574528 40.888578, -96.565412 40.893971, -96.556294 40.899363, -96.547175 40.904755, -96.538054 40.910146, -96.528932 40.915536, -96.519808 40.920925, -96.510683 40.926314, -96.501556 40.931702, -96.492428 40.937089, -96.483298 40.942476, -96.474167 40.947862, -96.465034 40.953247, -96.455900 40.958631, -96.446764 40.964015, -96.437627 40.969398, -96.428489 40.974780, -96.419349 40.980162, -96.410207 40.985542, -96.401064 40.990923, -96.391919 40.996302, -96.382773 41.001681, -96.373626 41.007058, -96.364477 41.012436, -96.355326 41.017812, -96.346174 41.023188, -96.337020 41.028563, -96.327865 41.033937, -96.318709 41.039311, -96.309551 41.044684, -96.300391 41.050056, -96.291230 41.055427, -96.282068 41.060798, -96.272904 41.066168, -96.263738 41.071537, -96.254571 41.076905, -96.245403 41.082273, -96.236233 41.087640, -96.227061 41.093007, -96.217888 41.098372, -96.208714 41.103737, -96.199538 41.109101, -96.190360 41.114464, -96.181181 41.119827, -96.172001 41.125189, -96.162819 41.130550, -96.153635 41.135911, -96.144450 41.141271, -96.135264 41.146630, -96.126076 41.151988, -96.116886 41.157345, -96.107695 41.162702, -96.098503 41.168058, -96.089309 41.173414, -96.080113 41.178768, -96.070916 41.184122, -96.061718 41.189475, -96.052518 41.194828, -96.043316 41.200180, -96.034113 41.205531, -96.024909 41.210881, -96.015703 41.216230, -96.006495 41.221579, -95.997286 41.226927, -95.988075 41.232274, -95.978863 41.237621, -95.969650 41.242967, -95.960435 41.248312, -95.951218 41.253656, -95.942000 41.259000, -95.930380 41.258377, -95.918759 41.257753, -95.907139 41.257127, -95.895520 41.256501, -95.883900 41.255873, -95.872281 41.255244, -95.860662 41.254614, -95.849043 41.253983, -95.837424 41.253350, -95.825806 41.252717, -95.814187 41.252082, -95.802569 41.251446, -95.790952 41.250809, -95.779334 41.250170, -95.767717 41.249531, -95.756100 41.248890, -95.744483 41.248249, -95.732866 41.247606, -95.721250 41.246962, -95.709634 41.246316, -95.698018 41.245670, -95.686402 41.245022, -95.674787 41.244374, -95.663171 41.243724, -95.651556 41.243072, -95.639942 41.242420, -95.628327 41.241767, -95.616713 41.241112, -95.605099 41.240456, -95.593485 41.239799, -95.581871 41.239141, -95.570258 41.238482, -95.558645 41.237822, -95.547032 41.237160, -95.535419 41.236497, -95.523807 41.235833, -95.512195 41.235168, -95.500583 41.234502, -95.488971 41.233834, -95.477359 41.233166, -95.465748 41.232496, -95.454137 41.231825, -95.442526 41.231153, -95.430916 41.230480, -95.419306 41.229805, -95.407695 41.229130, -95.396086 41.228453, -95.384476 41.227775, -95.372867 41.227096, -95.361258 41.226415, -95.349649 41.225734, -95.338040 41.225051, -95.326432 41.224368, -95.314824 41.223683, -95.303216 41.222997, -95.291608 41.222309, -95.280001 41.221621, -95.268394 41.220931, -95.256787 41.220241, -95.245180 41.219549, -95.233574 41.218855, -95.221968 41.218161, -95.210362 41.217466, -95.198756 41.216769, -95.187151 41.216071, -95.175545 41.215373, -95.163940 41.214672, -95.152336 41.213971, -95.140731 41.213269, -95.129127 41.212565, -95.117523 41.211860, -95.105920 41.211154, -95.094316 41.210447, -95.082713 41.209739, -95.071110 41.209030, -95.059507 41.208319, -95.047905 41.207607, -95.036303 41.206895, -95.024701 41.206180, -95.013099 41.205465, -95.001498 41.204749, -94.989897 41.204031, -94.978296 41.203313, -94.966695 41.202593, -94.955095 41.201872, -94.943494 41.201149, -94.931895 41.200426, -94.920295 41.199702, -94.908696 41.198976, -94.897097 41.198249, -94.885498 41.197521, -94.873899 41.196792, -94.862301 41.196061, -94.850703 41.195330, -94.839105 41.194597, -94.827507 41.193863, -94.815910 41.193128, -94.804313 41.192392, -94.792716 41.191655, -94.781120 41.190916, -94.769523 41.190177, -94.757927 41.189436, -94.746332 41.188694, -94.734736 41.187951, -94.723141 41.187206, -94.711546 41.186461, -94.699951 41.185714, -94.688357 41.184966, -94.676763 41.184217, -94.665169 41.183467, -94.653575 41.182716, -94.641982 41.181963, -94.630389 41.181210, -94.618796 41.180455, -94.607204 41.179699, -94.595611 41.178942, -94.584019 41.178184, -94.572428 41.177424, -94.560836 41.176664, -94.549245 41.175902, -94.537654 41.175139, -94.526063 41.174375, -94.514473 41.173610, -94.502883 41.172843, -94.491293 41.172076, -94.479703 41.171307, -94.468114 41.170537, -94.456525 41.169766, -94.444936 41.168994, -94.433348 41.168220, -94.421760 41.167446, -94.410172 41.166670, -94.398584 41.165893, -94.386997 41.165115, -94.375410 41.164336, -94.363823 41.163556, -94.352236 41.162774, -94.340650 41.161992, -94.329064 41.161208, -94.317478 41.160423, -94.305893 41.159637, -94.294308 41.158849, -94.282723 41.158061, -94.271138 41.157271, -94.259554 41.156481, -94.247970 41.155689, -94.236386 41.154895, -94.224802 41.154101, -94.213219 41.153306, -94.201636 41.152509, -94.190054 41.151711, -94.178471 41.150912, -94.166889 41.150112, -94.155307 41.149311, -94.143726 41.148509, -94.132145 41.147705, -94.120564 41.146901, -94.108983 41.146095, -94.097403 41.145288, -94.085822 41.144479, -94.074243 41.143670, -94.062663 41.142860, -94.051084 41.142048, -94.039505 41.141235, -94.027926 41.140421, -94.016348 41.139606, -94.004770 41.138790, -93.993192 41.137972, -93.981614 41.137154, -93.970037 41.136334, -93.958460 41.135513, -93.946884 41.134691, -93.935307 41.133867, -93.923731 41.133043, -93.912155 41.132217, -93.900580 41.131391, -93.889005 41.130563, -93.877430 41.129734, -93.865855 41.128904, -93.854281 41.128072, -93.842707 41.127240, -93.831133 41.126406, -93.819560 41.125571, -93.807987 41.124735, -93.796414 41.123898, -93.784841 41.123060, -93.773269 41.122220, -93.761697 41.121379, -93.750125 41.120538, -93.738554 41.119695, -93.726983 41.118851, -93.715412 41.118005, -93.703842 41.117159, -93.692272 41.116311, -93.680702 41.115463, -93.669132 41.114613, -93.657563 41.113762, -93.645994 41.112909, -93.634425 41.112056, -93.622857 41.111202, -93.611289 41.110346, -93.599721 41.109489, -93.588154 41.108631, -93.576587 41.107772, -93.565020 41.106912, -93.553453 41.106050, -93.541887 41.105187, -93.530321 41.104324, -93.518755 41.103459, -93.507190 41.102593, -93.495625 41.101725, -93.484060 41.100857, -93.472496 41.099987, -93.460932 41.099117, -93.449368 41.098245, -93.437804 41.097372, -93.426241 41.096498, -93.414678 41.095622, -93.403116 41.094746, -93.391553 41.093868, -93.379991 41.092989, -93.368430 41.092109, -93.356869 41.091228, -93.345307 41.090346, -93.333747 41.089462, -93.322186 41.088578, -93.310626 41.087692, -93.299066 41.086805, -93.287507 41.085917, -93.275948 41.085028, -93.264389 41.084138, -93.252830 41.083246, -93.241272 41.082353, -93.229714 41.081460, -93.218157 41.080565, -93.206600 41.079668, -93.195043 41.078771, -93.183486 41.077873, -93.171930 41.076973, -93.160374 41.076072, -93.148818 41.075170, -93.137263 41.074267, -93.125707 41.073363, -93.114153 41.072458, -93.102598 41.071551, -93.091044 41.070643, -93.079490 41.069735, -93.067937 41.068825, -93.056384 41.067914, -93.044831 41.067001, -93.033278 41.066088, -93.021726 41.065173, -93.010174 41.064257, -92.998623 41.063340, -92.987072 41.062422, -92.975521 41.061503, -92.963970 41.060583, -92.952420 41.059661, -92.940870 41.058739, -92.929320 41.057815, -92.917771 41.056890, -92.906222 41.055964, -92.894674 41.055036, -92.883125 41.054108, -92.871577 41.053178, -92.860030 41.052248, -92.848482 41.051316, -92.836935 41.050383, -92.825389 41.049448, -92.813842 41.048513, -92.802296 41.047576, -92.790751 41.046639, -92.779205 41.045700, -92.767660 41.044760, -92.756116 41.043819, -92.744571 41.042877, -92.733027 41.041933, -92.721484 41.040989, -92.709940 41.040043, -92.698397 41.039096, -92.686855 41.038148, -92.675312 41.037199, -92.663770 41.036248, -92.652228 41.035297, -92.640687 41.034344, -92.629146 41.033391, -92.617605 41.032436, -92.606065 41.031479, -92.594525 41.030522, -92.582985 41.029564, -92.571446 41.028604, -92.559907 41.027644, -92.548368 41.026682, -92.536830 41.025719, -92.525292 41.024755, -92.513754 41.023789, -92.502217 41.022823, -92.490680 41.021855, -92.479143 41.020887, -92.467607 41.019917, -92.456071 41.018946, -92.444535 41.017973, -92.433000 41.017000, -92.421668 41.015293, -92.410337 41.013586, -92.399007 41.011877, -92.387677 41.010167, -92.376348 41.008456, -92.365019 41.006744, -92.353691 41.005031, -92.342363 41.003316, -92.331036 41.001601, -92.319710 40.999885, -92.308384 40.998167, -92.297059 40.996448, -92.285734 40.994728, -92.274410 40.993007, -92.263087 40.991285, -92.251764 40.989562, -92.240442 40.987838, -92.229120 40.986112, -92.217799 40.984386, -92.206479 40.982658, -92.195159 40.980929, -92.183839 40.979200, -92.172521 40.977469, -92.161203 40.975737, -92.149885 40.974003, -92.138568 40.972269, -92.127252 40.970534, -92.115936 40.968797, -92.104621 40.967060, -92.093307 40.965321, -92.081993 40.963581, -92.070679 40.961840, -92.059367 40.960098, -92.048055 40.958355, -92.036743 40.956611, -92.025432 40.954866, -92.014122 40.953119, -92.002812 40.951372, -91.991503 40.949623, -91.980194 40.947873, -91.968886 40.946123, -91.957579 40.944371, -91.946272 40.942618, -91.934966 40.940863, -91.923661 40.939108, -91.912356 40.937352, -91.901051 40.935594, -91.889748 40.933836, -91.878445 40.932076, -91.867142 40.930315, -91.855840 40.928553, -91.844539 40.926790, -91.833238 40.925026, -91.821938 40.923261, -91.810638 40.921495, -91.799340 40.919727, -91.788041 40.917959, -91.776744 40.916189, -91.765446 40.914419, -91.754150 40.912647, -91.742854 40.910874, -91.731559 40.909100, -91.720264 40.907325, -91.708970 40.905549, -91.697677 40.903771, -91.686384 40.901993, -91.675092 40.900213, -91.663800 40.898433, -91.652509 40.896651, -91.641219 40.894868, -91.629929 40.893084, -91.618640 40.891299, -91.607351 40.889513, -91.596063 40.887726, -91.584776 40.885937, -91.573489 40.884148, -91.562203 40.882357, -91.550917 40.880566, -91.539632 40.878773, -91.528348 40.876979, -91.517064 40.875184, -91.505781 40.873388, -91.494499 40.871591, -91.483217 40.869793, -91.471936 40.867994, -91.460655 40.866193, -91.449375 40.864392, -91.438095 40.862589, -91.426817 40.860785, -91.415538 40.858981, -91.404261 40.857175, -91.392984 40.855368, -91.381708 40.853559, -91.370432 40.851750, -91.359157 40.849940, -91.347882 40.848129, -91.336608 40.846316, -91.325335 40.844502, -91.314062 40.842688, -91.302790 40.840872, -91.291519 40.839055, -91.280248 40.837237, -91.268978 40.835418, -91.257709 40.833598, -91.246440 40.831776, -91.235171 40.829954, -91.223904 40.828131, -91.212637 40.826306, -91.201370 40.824480, -91.190104 40.822654, -91.178839 40.820826, -91.167574 40.818997, -91.156311 40.817167, -91.145047 40.815336, -91.133784 40.813503, -91.122522 40.811670, -91.111261 40.809836, -91.100000 40.808000, -91.088808 40.810173, -91.077615 40.812345, -91.066421 40.814516, -91.055227 40.816686, -91.044032 40.818855, -91.032836 40.821023, -91.021640 40.823189, -91.010443 40.825355, -90.999245 40.827520, -90.988046 40.829683, -90.976847 40.831845, -90.965646 40.834007, -90.954446 40.836167, -90.943244 40.838326, -90.932042 40.840484, -90.920838 40.842641, -90.909635 40.844797, -90.898430 40.846952, -90.887225 40.849105, -90.876019 40.851258, -90.864812 40.853409, -90.853605 40.855560, -90.842397 40.857709, -90.831188 40.859857, -90.819978 40.862005, -90.808768 40.864151, -90.797557 40.866296, -90.786345 40.868440, -90.775132 40.870582, -90.763919 40.872724, -90.752705 40.874865, -90.741490 40.877004, -90.730275 40.879143, -90.719059 40.881280, -90.707842 40.883417, -90.696624 40.885552, -90.685406 40.887686, -90.674187 40.889819, -90.662967 40.891951, -90.651747 40.894082, -90.640525 40.896212, -90.629303 40.898340, -90.618081 40.900468, -90.606857 40.902594, -90.595633 40.904720, -90.584408 40.906844, -90.573183 40.908968, -90.561957 40.911090, -90.550730 40.913211, -90.539502 40.915331, -90.528273 40.917450, -90.517044 40.919568, -90.505814 40.921684, -90.494584 40.923800, -90.483353 40.925914, -90.472121 40.928028, -90.460888 40.930140, -90.449654 40.932252, -90.438420 40.934362, -90.427185 40.936471, -90.415950 40.938579, -90.404713 40.940686, -90.393476 40.942792, -90.382238 40.944896, -90.371000 40.947000, -90.360528 40.950733, -90.350055 40.954465, -90.339580 40.958196, -90.329104 40.961926, -90.318627 40.965655, -90.308149 40.969383, -90.297670 40.973110, -90.287190 40.976836, -90.276708 40.980561, -90.266225 40.984286, -90.255741 40.988009, -90.245256 40.991731, -90.234770 40.995453, -90.224282 40.999173, -90.213793 41.002893, -90.203303 41.006612, -90.192812 41.010329, -90.182320 41.014046, -90.171827 41.017762, -90.161332 41.021476, -90.150836 41.025190, -90.140339 41.028903, -90.129841 41.032615, -90.119342 41.036326, -90.108841 41.040036, -90.098339 41.043745, -90.087836 41.047453, -90.077332 41.051161, -90.066827 41.054867, -90.056320 41.058572, -90.045813 41.062276, -90.035304 41.065980, -90.024794 41.069682, -90.014283 41.073384, -90.003770 41.077084, -89.993257 41.080784, -89.982742 41.084482, -89.972226 41.088180, -89.961709 41.091876, -89.951190 41.095572, -89.940671 41.099267, -89.930150 41.102961, -89.919628 41.106654, -89.909105 41.110345, -89.898581 41.114036, -89.888056 41.117726, -89.877529 41.121415, -89.867001 41.125103, -89.856472 41.128790, -89.845942 41.132477, -89.835411 41.136162, -89.824878 41.139846, -89.814345 41.143529, -89.803810 41.147212, -89.793274 41.150893, -89.782736 41.154573, -89.772198 41.158253, -89.761658 41.161931, -89.751117 41.165609, -89.740575 41.169285, -89.730032 41.172961, -89.719488 41.176635, -89.708942 41.180309, -89.698396 41.183982, -89.687848 41.187653, -89.677299 41.191324, -89.666748 41.194994, -89.656197 41.198663, -89.645644 41.202331, -89.635091 41.205998, -89.624536 41.209664, -89.613979 41.213329, -89.603422 41.216993, -89.592863 41.220656, -89.582304 41.224318, -89.571743 41.227979, -89.561181 41.231639, -89.550617 41.235298, -89.540053 41.238956, -89.529487 41.242614, -89.518921 41.246270, -89.508353 41.249925, -89.497783 41.253580, -89.487213 41.257233, -89.476641 41.260885, -89.466069 41.264537, -89.455495 41.268187, -89.444920 41.271837, -89.434343 41.275486, -89.423766 41.279133, -89.413187 41.282780, -89.402607 41.286425, -89.392026 41.290070, -89.381444 41.293714, -89.370861 41.297357, -89.360276 41.300998, -89.349691 41.304639, -89.339104 41.308279, -89.328515 41.311918, -89.317926 41.315556, -89.307336 41.319193, -89.296744 41.322829, -89.286151 41.326464, -89.275557 41.330098, -89.264962 41.333731, -89.254366 41.337363, -89.243768 41.340994, -89.233169 41.344624, -89.222569 41.348253, -89.211968 41.351881, -89.201366 41.355509, -89.190763 41.359135, -89.180158 41.362760, -89.169552 41.366384, -89.158945 41.370008, -89.148337 41.373630, -89.137728 41.377251, -89.127117 41.380872, -89.116505 41.384491, -89.105892 41.388110, -89.095278 41.391727, -89.084663 41.395344, -89.074046 41.398959, -89.063429 41.402574, -89.052810 41.406187, -89.042190 41.409800, -89.031569 41.413412, -89.020946 41.417022, -89.010323 41.420632, -88.999698 41.424241, -88.989072 41.427848, -88.978445 41.431455, -88.967817 41.435061, -88.957187 41.438665, -88.946557 41.442269, -88.935925 41.445872, -88.925292 41.449474, -88.914658 41.453075, -88.904022 41.456675, -88.893386 41.460274, -88.882748 41.463871, -88.872109 41.467468, -88.861469 41.471064, -88.850828 41.474659, -88.840186 41.478253, -88.829542 41.481846, -88.818897 41.485438, -88.808251 41.489029, -88.797604 41.492620, -88.786956 41.496209, -88.776306 41.499797, -88.765655 41.503384, -88.755004 41.506970, -88.744351 41.510555, -88.733696 41.514139, -88.723041 41.517722, -88.712384 41.521305, -88.701727 41.524886, -88.691068 41.528466, -88.680407 41.532045, -88.669746 41.535624, -88.659084 41.539201, -88.648420 41.542777, -88.637755 41.546353, -88.627089 41.549927, -88.616422 41.553500, -88.605753 41.557073, -88.595084 41.560644, -88.584413 41.564214, -88.573741 41.567784, -88.563068 41.571352, -88.552394 41.574920, -88.541718 41.578486, -88.531042 41.582052, -88.520364 41.585616, -88.509685 41.589179, -88.499005 41.592742, -88.488323 41.596303, -88.477641 41.599864, -88.466957 41.603423, -88.456272 41.606982, -88.445586 41.610540, -88.434899 41.614096, -88.424210 41.617652, -88.413521 41.621206, -88.402830 41.624760, -88.392138 41.628312, -88.381445 41.631864, -88.370751 41.635415, -88.360055 41.638964, -88.349358 41.642513, -88.338661 41.646061, -88.327961 41.649607, -88.317261 41.653153, -88.306560 41.656697, -88.295857 41.660241, -88.285154 41.663784, -88.274449 41.667325, -88.263743 41.670866, -88.253035 41.674406, -88.242327 41.677945, -88.231617 41.681482, -88.220906 41.685019, -88.210194 41.688555, -88.199481 41.692089, -88.188767 41.695623, -88.178051 41.699156, -88.167335 41.702688, -88.156617 41.706218, -88.145898 41.709748, -88.135177 41.713277, -88.124456 41.716805, -88.113733 41.720331, -88.103010 41.723857, -88.092285 41.727382, -88.081559 41.730906, -88.070831 41.734428, -88.060103 41.737950, -88.049373 41.741471, -88.038642 41.744991, -88.027910 41.748509, -88.017177 41.752027, -88.006443 41.755544, -87.995707 41.759060, -87.984971 41.762575, -87.974233 41.766088, -87.963494 41.769601, -87.952753 41.773113, -87.942012 41.776624, -87.931269 41.780133, -87.920526 41.783642, -87.909781 41.787150, -87.899035 41.790657, -87.888287 41.794163, -87.877539 41.797667, -87.866789 41.801171, -87.856038 41.804674, -87.845286 41.808176, -87.834533 41.811676, -87.823779 41.815176, -87.813023 41.818675, -87.802267 41.822173, -87.791509 41.825669, -87.780750 41.829165, -87.769990 41.832660, -87.759228 41.836154, -87.748466 41.839646, -87.737702 41.843138, -87.726937 41.846629, -87.716171 41.850118, -87.705404 41.853607, -87.694635 41.857095, -87.683866 41.860582, -87.673095 41.864067, -87.662323 41.867552, -87.651550 41.871036, -87.640775 41.874518, -87.630000 41.878000)
