LINESTRING (-0.176000 51.519000, -0.174714 51.519143, -0.173429 51.519286, -0.172143 51.519429, -0.170857 51.519572, -0.169571 51.519714, -0.168286 51.519857, -0.167000 51.520000, -0.165750 51.520250, -0.164500 51.520500, -0.163250 51.520750, -0.162000 51.521000, -0.160750 51.521250, -0.159500 51.521500, -0.158250 51.521750, -0.157000 51.522000, -0.155600 51.522200, -0.154200 51.522400, -0.152800 51.522600, -0.151400 51.522800, -0.150000 51.523000, -0.148600 51.523200, -0.147200 51.523400, -0.145800 51.523600, -0.144400 51.523800, -0.143000 51.524000, -0.141667 51.524167, -0.140333 51.524333, -0.139000 51.524500, -0.137667 51.524667, -0.136333 51.524833, -0.135000 51.525000, -0.133800 51.525500, -0.132600 51.526000, -0.131400 51.526500, -0.130200 51.527000, -0.129000 51.527500, -0.127800 51.528000, -0.126600 51.528500, -0.125400 51.529000, -0.124200 51.529500, -0.123000 51.530000, -0.121941 51.529412, -0.120882 51.528824, -0.119823 51.528235, -0.118764 51.527647, -0.117705 51.527059, -0.116646 51.526471, -0.115587 51.525883, -0.114528 51.525294, -0.113470 51.524706, -0.112411 51.524118, -0.111352 51.523530, -0.110293 51.522941, -0.109235 51.522353, -0.108176 51.521765, -0.107117 51.521177, -0.106059 51.520588, -0.105000 51.520000)
