LINESTRING (138.601000 -34.928000, 138.602598 -34.924474, 138.604195 -34.920948, 138.605793 -34.917422, 138.607390 -34.913896, 138.608987 -34.910370, 138.610584 -34.906844, 138.612181 -34.903318, 138.613778 -34.899792, 138.615374 -34.896266, 138.616971 -34.892740, 138.618567 -34.889214, 138.620163 -34.885688, 138.621759 -34.882161, 138.623355 -34.878635, 138.624951 -34.875109, 138.626546 -34.871583, 138.628142 -34.868056, 138.629737 -34.864530, 138.631332 -34.861004, 138.632927 -34.857478, 138.634522 -34.853951, 138.636117 -34.850425, 138.637712 -34.846898, 138.639306 -34.843372, 138.640901 -34.839846, 138.642495 -34.836319, 138.644089 -34.832793, 138.645683 -34.829266, 138.647277 -34.825740, 138.648871 -34.822213, 138.650464 -34.818687, 138.652058 -34.815160, 138.653651 -34.811633, 138.655244 -34.808107, 138.656837 -34.804580, 138.658430 -34.801054, 138.660023 -34.797527, 138.661615 -34.794000, 138.663208 -34.790473, 138.664800 -34.786947, 138.666392 -34.783420, 138.667984 -34.779893, 138.669576 -34.776366, 138.671168 -34.772840, 138.672760 -34.769313, 138.674351 -34.765786, 138.675943 -34.762259, 138.677534 -34.758732, 138.679125 -34.755205, 138.680716 -34.751678, 138.682307 -34.748151, 138.683898 -34.744624, 138.685488 -34.741097, 138.687079 -34.737570, 138.688669 -34.734043, 138.690259 -34.730516, 138.691849 -34.726989, 138.693439 -34.723462, 138.695029 -34.719935, 138.696618 -34.716408, 138.698208 -34.712880, 138.699797 -34.709353, 138.701386 -34.705826, 138.702976 -34.702299, 138.704564 -34.698772, 138.706153 -34.695244, 138.707742 -34.691717, 138.709330 -34.688190, 138.710919 -34.684662, 138.712507 -34.681135, 138.714095 -34.677608, 138.715683 -34.674080, 138.717271 -34.670553, 138.718859 -34.667025, 138.720446 -34.663498, 138.722034 -34.659970, 138.723621 -34.656443, 138.725208 -34.652915, 138.726795 -34.649388, 138.728382 -34.645860, 138.729969 -34.642333, 138.731556 -34.638805, 138.733142 -34.635277, 138.734729 -34.631750, 138.736315 -34.628222, 138.737901 -34.624694, 138.739487 -34.621167, 138.741073 -34.617639, 138.742659 -34.614111, 138.744244 -34.610583, 138.745830 -34.607056, 138.747415 -34.603528, 138.749000 -34.600000, 138.747169 -34.596548, 138.745338 -34.593096, 138.743508 -34.589644, 138.741678 -34.586192, 138.739847 -34.582740, 138.738017 -34.579288, 138.736187 -34.575836, 138.734358 -34.572383, 138.732528 -34.568931, 138.730699 -34.565479, 138.728869 -34.562027, 138.727040 -34.558575, 138.725211 -34.555122, 138.723382 -34.551670, 138.721554 -34.548218, 138.719725 -34.544765, 138.717897 -34.541313, 138.716068 -34.537860, 138.714240 -34.534408, 138.712412 -34.530955, 138.710584 -34.527503, 138.708757 -34.524050, 138.706929 -34.520598, 138.705102 -34.517145, 138.703275 -34.513692, 138.701448 -34.510240, 138.699621 -34.506787, 138.697794 -34.503334, 138.695968 -34.499882, 138.694141 -34.496429, 138.692315 -34.492976, 138.690489 -34.489523, 138.688663 -34.486070, 138.686837 -34.482618, 138.685011 -34.479165, 138.683186 -34.475712, 138.681360 -34.472259, 138.679535 -34.468806, 138.677710 -34.465353, 138.675885 -34.461900, 138.674060 -34.458447, 138.672236 -34.454994, 138.670411 -34.451540, 138.668587 -34.448087, 138.666763 -34.444634, 138.664939 -34.441181, 138.663115 -34.437728, 138.661291 -34.434274, 138.659468 -34.430821, 138.657644 -34.427368, 138.655821 -34.423915, 138.653998 -34.420461, 138.652175 -34.417008, 138.650352 -34.413554, 138.648529 -34.410101, 138.646707 -34.406647, 138.644885 -34.403194, 138.643062 -34.399740, 138.641240 -34.396287, 138.639418 -34.392833, 138.637597 -34.389380, 138.635775 -34.385926, 138.633954 -34.382472, 138.632132 -34.379019, 138.630311 -34.375565, 138.628490 -34.372111, 138.626669 -34.368658, 138.624849 -34.365204, 138.623028 -34.361750, 138.621208 -34.358296, 138.619387 -34.354842, 138.617567 -34.351388, 138.615747 -34.347934, 138.613928 -34.344480, 138.612108 -34.341026, 138.610288 -34.337572, 138.608469 -34.334118, 138.606650 -34.330664, 138.604831 -34.327210, 138.603012 -34.323756, 138.601193 -34.320302, 138.599375 -34.316848, 138.597556 -34.313394, 138.595738 -34.309939, 138.593920 -34.306485, 138.592102 -34.303031, 138.590284 -34.299577, 138.588466 -34.296122, 138.586648 -34.292668, 138.584831 -34.289213, 138.583014 -34.285759, 138.581197 -34.282305, 138.579380 -34.278850, 138.577563 -34.275396, 138.575746 -34.271941, 138.573930 -34.268487, 138.572113 -34.265032, 138.570297 -34.261577, 138.568481 -34.258123, 138.566665 -34.254668, 138.564849 -34.251213, 138.563034 -34.247759, 138.561218 -34.244304, 138.559403 -34.240849, 138.557588 -34.237394, 138.555773 -34.233940, 138.553958 -34.230485, 138.552143 -34.227030, 138.550329 -34.223575, 138.548514 -34.220120, 138.546700 -34.216665, 138.544886 -34.213210, 138.543072 -34.209755, 138.541258 -34.206300, 138.539444 -34.202845, 138.537631 -34.199390, 138.535817 -34.195935, 138.534004 -34.192480, 138.532191 -34.189025, 138.530378 -34.185569, 138.528565 -34.182114, 138.526753 -34.178659, 138.524940 -34.175204, 138.523128 -34.171748, 138.521316 -34.168293, 138.519504 -34.164838, 138.517692 -34.161382, 138.515880 -34.157927, 138.514068 -34.154472, 138.512257 -34.151016, 138.510446 -34.147561, 138.508634 -34.144105, 138.506823 -34.140650, 138.505013 -34.137194, 138.503202 -34.133738, 138.501391 -34.130283, 138.499581 -34.126827, 138.497771 -34.123372, 138.495960 -34.119916, 138.494150 -34.116460, 138.492341 -34.113004, 138.490531 -34.109549, 138.488721 -34.106093, 138.486912 -34.102637, 138.485103 -34.099181, 138.483294 -34.095725, 138.481485 -34.092269, 138.479676 -34.088813, 138.477867 -34.085357, 138.476059 -34.081901, 138.474251 -34.078445, 138.472442 -34.074989, 138.470634 -34.071533, 138.468826 -34.068077, 138.467019 -34.064621, 138.465211 -34.061165, 138.463404 -34.057709, 138.461596 -34.054253, 138.459789 -34.050796, 138.457982 -34.047340, 138.456175 -34.043884, 138.454368 -34.040428, 138.452562 -34.036971, 138.450755 -34.033515, 138.448949 -34.030059, 138.447143 -34.026602, 138.445337 -34.023146, 138.443531 -34.019689, 138.441725 -34.016233, 138.439920 -34.012776, 138.438114 -34.009320, 138.436309 -34.005863, 138.434504 -34.002407, 138.432699 -33.998950, 138.430894 -33.995493, 138.429090 -33.992037, 138.427285 -33.988580, 138.425481 -33.985123, 138.423677 -33.981666, 138.421872 -33.978210, 138.420069 -33.974753, 138.418265 -33.971296, 138.416461 -33.967839, 138.414658 -33.964382, 138.412854 -33.960925, 138.411051 -33.957468, 138.409248 -33.954011, 138.407445 -33.950554, 138.405642 -33.947097, 138.403840 -33.943640, 138.402037 -33.940183, 138.400235 -33.936726, 138.398433 -33.933269, 138.396631 -33.929812, 138.394829 -33.926355, 138.393027 -33.922898, 138.391226 -33.919440, 138.389424 -33.915983, 138.387623 -33.912526, 138.385822 -33.909069, 138.384021 -33.905611, 138.382220 -33.902154, 138.380419 -33.898697, 138.378618 -33.895239, 138.376818 -33.891782, 138.375018 -33.888324, 138.373218 -33.884867, 138.371418 -33.881409, 138.369618 -33.877952, 138.367818 -33.874494, 138.366019 -33.871037, 138.364219 -33.867579, 138.362420 -33.864121, 138.360621 -33.860664, 138.358822 -33.857206, 138.357023 -33.853748, 138.355224 -33.850290, 138.353426 -33.846833, 138.351627 -33.843375, 138.349829 -33.839917, 138.348031 -33.836459, 138.346233 -33.833001, 138.344435 -33.829543, 138.342638 -33.826085, 138.340840 -33.822628, 138.339043 -33.819170, 138.337246 -33.815712, 138.335449 -33.812253, 138.333652 -33.808795, 138.331855 -33.805337, 138.330058 -33.801879, 138.328262 -33.798421, 138.326465 -33.794963, 138.324669 -33.791505, 138.322873 -33.788047, 138.321077 -33.784588, 138.319281 -33.781130, 138.317486 -33.777672, 138.315690 -33.774213, 138.313895 -33.770755, 138.312100 -33.767297, 138.310305 -33.763838, 138.308510 -33.760380, 138.306715 -33.756921, 138.304920 -33.753463, 138.303126 -33.750004, 138.301332 -33.746546, 138.299538 -33.743087, 138.297743 -33.739629, 138.295950 -33.736170, 138.294156 -33.732712, 138.292362 -33.729253, 138.290569 -33.725794, 138.288776 -33.722335, 138.286982 -33.718877, 138.285189 -33.715418, 138.283396 -33.711959, 138.281604 -33.708500, 138.279811 -33.705042, 138.278019 -33.701583, 138.276226 -33.698124, 138.274434 -33.694665, 138.272642 -33.691206, 138.270850 -33.687747, 138.269059 -33.684288, 138.267267 -33.680829, 138.265476 -33.677370, 138.263684 -33.673911, 138.261893 -33.670452, 138.260102 -33.666993, 138.258311 -33.663533, 138.256521 -33.660074, 138.254730 -33.656615, 138.252940 -33.653156, 138.251149 -33.649697, 138.249359 -33.646237, 138.247569 -33.642778, 138.245779 -33.639319, 138.243990 -33.635859, 138.242200 -33.632400, 138.240411 -33.628940, 138.238622 -33.625481, 138.236832 -33.622022, 138.235043 -33.618562, 138.233255 -33.615103, 138.231466 -33.611643, 138.229677 -33.608184, 138.227889 -33.604724, 138.226101 -33.601264, 138.224313 -33.597805, 138.222525 -33.594345, 138.220737 -33.590885, 138.218949 -33.587426, 138.217161 -33.583966, 138.215374 -33.580506, 138.213587 -33.577046, 138.211800 -33.573586, 138.210013 -33.570127, 138.208226 -33.566667, 138.206439 -33.563207, 138.204653 -33.559747, 138.202866 -33.556287, 138.201080 -33.552827, 138.199294 -33.549367, 138.197508 -33.545907, 138.195722 -33.542447, 138.193936 -33.538987, 138.192151 -33.535527, 138.190365 -33.532067, 138.188580 -33.528606, 138.186795 -33.525146, 138.185010 -33.521686, 138.183225 -33.518226, 138.181441 -33.514766, 138.179656 -33.511305, 138.177872 -33.507845, 138.176087 -33.504385, 138.174303 -33.500924, 138.172519 -33.497464, 138.170735 -33.494004, 138.168952 -33.490543, 138.167168 -33.487083, 138.165385 -33.483622, 138.163602 -33.480162, 138.161818 -33.476701, 138.160035 -33.473241, 138.158253 -33.469780, 138.156470 -33.466319, 138.154687 -33.462859, 138.152905 -33.459398, 138.151123 -33.455937, 138.149341 -33.452477, 138.147559 -33.449016, 138.145777 -33.445555, 138.143995 -33.442094, 138.142214 -33.438634, 138.140432 -33.435173, 138.138651 -33.431712, 138.136870 -33.428251, 138.135089 -33.424790, 138.133308 -33.421329, 138.131527 -33.417868, 138.129747 -33.414407, 138.127966 -33.410946, 138.126186 -33.407485, 138.124406 -33.404024, 138.122626 -33.400563, 138.120846 -33.397102, 138.119066 -33.393641, 138.117287 -33.390179, 138.115507 -33.386718, 138.113728 -33.383257, 138.111949 -33.379796, 138.110170 -33.376334, 138.108391 -33.372873, 138.106612 -33.369412, 138.104834 -33.365950, 138.103055 -33.362489, 138.101277 -33.359028, 138.099499 -33.355566, 138.097721 -33.352105, 138.095943 -33.348643, 138.094165 -33.345182, 138.092388 -33.341720, 138.090610 -33.338259, 138.088833 -33.334797, 138.087056 -33.331336, 138.085279 -33.327874, 138.083502 -33.324412, 138.081725 -33.320951, 138.079948 -33.317489, 138.078172 -33.314027, 138.076396 -33.310565, 138.074620 -33.307104, 138.072843 -33.303642, 138.071068 -33.300180, 138.069292 -33.296718, 138.067516 -33.293256, 138.065741 -33.289794, 138.063965 -33.286332, 138.062190 -33.282870, 138.060415 -33.279408, 138.058640 -33.275946, 138.056866 -33.272484, 138.055091 -33.269022, 138.053316 -33.265560, 138.051542 -33.262098, 138.049768 -33.258636, 138.047994 -33.255174, 138.046220 -33.251712, 138.044446 -33.248249, 138.042672 -33.244787, 138.040899 -33.241325, 138.039126 -33.237863, 138.037352 -33.234400, 138.035579 -33.230938, 138.033806 -33.227476, 138.032034 -33.224013, 138.030261 -33.220551, 138.028488 -33.217088, 138.026716 -33.213626, 138.024944 -33.210164, 138.023172 -33.206701, 138.021400 -33.203238, 138.019628 -33.199776, 138.017856 -33.196313, 138.016085 -33.192851, 138.014313 -33.189388, 138.012542 -33.185925, 138.010771 -33.182463, 138.009000 -33.179000, 138.007713 -33.175399, 138.006425 -33.171798, 138.005138 -33.168197, 138.003851 -33.164597, 138.002564 -33.160996, 138.001277 -33.157395, 137.999990 -33.153794, 137.998704 -33.150193, 137.997417 -33.146592, 137.996131 -33.142991, 137.994844 -33.139390, 137.993558 -33.135789, 137.992272 -33.132188, 137.990986 -33.128587, 137.989700 -33.124986, 137.988414 -33.121385, 137.987129 -33.117784, 137.985843 -33.114183, 137.984557 -33.110582, 137.983272 -33.106980, 137.981987 -33.103379, 137.980702 -33.099778, 137.979416 -33.096177, 137.978132 -33.092576, 137.976847 -33.088975, 137.975562 -33.085374, 137.974277 -33.081772, 137.972993 -33.078171, 137.971708 -33.074570, 137.970424 -33.070969, 137.969140 -33.067367, 137.967856 -33.063766, 137.966571 -33.060165, 137.965288 -33.056564, 137.964004 -33.052962, 137.962720 -33.049361, 137.961436 -33.045760, 137.960153 -33.042158, 137.958870 -33.038557, 137.957586 -33.034956, 137.956303 -33.031354, 137.955020 -33.027753, 137.953737 -33.024151, 137.952454 -33.020550, 137.951171 -33.016949, 137.949889 -33.013347, 137.948606 -33.009746, 137.947324 -33.006144, 137.946041 -33.002543, 137.944759 -32.998941, 137.943477 -32.995340, 137.942195 -32.991738, 137.940913 -32.988137, 137.939631 -32.984535, 137.938349 -32.980933, 137.937068 -32.977332, 137.935786 -32.973730, 137.934505 -32.970129, 137.933224 -32.966527, 137.931942 -32.962925, 137.930661 -32.959324, 137.929380 -32.955722, 137.928099 -32.952121, 137.926819 -32.948519, 137.925538 -32.944917, 137.924257 -32.941315, 137.922977 -32.937714, 137.921697 -32.934112, 137.920416 -32.930510, 137.919136 -32.926908, 137.917856 -32.923307, 137.916576 -32.919705, 137.915296 -32.916103, 137.914017 -32.912501, 137.912737 -32.908899, 137.911457 -32.905298, 137.910178 -32.901696, 137.908899 -32.898094, 137.907619 -32.894492, 137.906340 -32.890890, 137.905061 -32.887288, 137.903782 -32.883686, 137.902504 -32.880084, 137.901225 -32.876482, 137.899946 -32.872880, 137.898668 -32.869279, 137.897389 -32.865677, 137.896111 -32.862075, 137.894833 -32.858473, 137.893555 -32.854871, 137.892277 -32.851268, 137.890999 -32.847666, 137.889721 -32.844064, 137.888444 -32.840462, 137.887166 -32.836860, 137.885889 -32.833258, 137.884611 -32.829656, 137.883334 -32.826054, 137.882057 -32.822452, 137.880780 -32.818850, 137.879503 -32.815247, 137.878226 -32.811645, 137.876949 -32.808043, 137.875673 -32.804441, 137.874396 -32.800839, 137.873120 -32.797236, 137.871843 -32.793634, 137.870567 -32.790032, 137.869291 -32.786430, 137.868015 -32.782827, 137.866739 -32.779225, 137.865463 -32.775623, 137.864188 -32.772020, 137.862912 -32.768418, 137.861637 -32.764816, 137.860361 -32.761213, 137.859086 -32.757611, 137.857811 -32.754009, 137.856536 -32.750406, 137.855261 -32.746804, 137.853986 -32.743201, 137.852711 -32.739599, 137.851436 -32.735997, 137.850162 -32.732394, 137.848887 -32.728792, 137.847613 -32.725189, 137.846339 -32.721587, 137.845065 -32.717984, 137.843791 -32.714382, 137.842517 -32.710779, 137.841243 -32.707177, 137.839969 -32.703574, 137.838696 -32.699971, 137.837422 -32.696369, 137.836149 -32.692766, 137.834875 -32.689164, 137.833602 -32.685561, 137.832329 -32.681958, 137.831056 -32.678356, 137.829783 -32.674753, 137.828510 -32.671150, 137.827237 -32.667548, 137.825965 -32.663945, 137.824692 -32.660342, 137.823420 -32.656739, 137.822148 -32.653137, 137.820875 -32.649534, 137.819603 -32.645931, 137.818331 -32.642328, 137.817059 -32.638726, 137.815788 -32.635123, 137.814516 -32.631520, 137.813244 -32.627917, 137.811973 -32.624314, 137.810702 -32.620711, 137.809430 -32.617109, 137.808159 -32.613506, 137.806888 -32.609903, 137.805617 -32.606300, 137.804346 -32.602697, 137.803075 -32.599094, 137.801805 -32.595491, 137.800534 -32.591888, 137.799264 -32.588285, 137.797993 -32.584682, 137.796723 -32.581079, 137.795453 -32.577476, 137.794183 -32.573873, 137.792913 -32.570270, 137.791643 -32.566667, 137.790373 -32.563064, 137.789104 -32.559461, 137.787834 -32.555858, 137.786565 -32.552255, 137.785295 -32.548652, 137.784026 -32.545048, 137.782757 -32.541445, 137.781488 -32.537842, 137.780219 -32.534239, 137.778950 -32.530636, 137.777682 -32.527033, 137.776413 -32.523429, 137.775144 -32.519826, 137.773876 -32.516223, 137.772608 -32.512620, 137.771340 -32.509016, 137.770071 -32.505413, 137.768803 -32.501810, 137.767536 -32.498207, 137.766268 -32.494603, 137.765000 -32.491000, 137.768787 -32.489018, 137.772573 -32.487035, 137.776360 -32.485053, 137.780146 -32.483070, 137.783932 -32.481088, 137.787718 -32.479105, 137.791504 -32.477122, 137.795290 -32.475139, 137.799075 -32.473156, 137.802861 -32.471173, 137.806646 -32.469189, 137.810431 -32.467206, 137.814216 -32.465222, 137.818000 -32.463238, 137.821785 -32.461255, 137.825569 -32.459271, 137.829353 -32.457287, 137.833137 -32.455303, 137.836921 -32.453318, 137.840705 -32.451334, 137.844488 -32.449349, 137.848272 -32.447365, 137.852055 -32.445380, 137.855838 -32.443395, 137.859620 -32.441410, 137.863403 -32.439425, 137.867186 -32.437440, 137.870968 -32.435455, 137.874750 -32.433469, 137.878532 -32.431484, 137.882314 -32.429498, 137.886096 -32.427512, 137.889877 -32.425527, 137.893658 -32.423541, 137.897439 -32.421555, 137.901220 -32.419568, 137.905001 -32.417582, 137.908782 -32.415596, 137.912562 -32.413609, 137.916343 -32.411622, 137.920123 -32.409636, 137.923903 -32.407649, 137.927683 -32.405662, 137.931462 -32.403675, 137.935242 -32.401688, 137.939021 -32.399700, 137.942800 -32.397713, 137.946579 -32.395725, 137.950358 -32.393738, 137.954137 -32.391750, 137.957915 -32.389762, 137.961694 -32.387774, 137.965472 -32.385786, 137.969250 -32.383798, 137.973028 -32.381809, 137.976805 -32.379821, 137.980583 -32.377832, 137.984360 -32.375844, 137.988137 -32.373855, 137.991914 -32.371866, 137.995691 -32.369877, 137.999468 -32.367888, 138.003244 -32.365899, 138.007021 -32.363909, 138.010797 -32.361920, 138.014573 -32.359930, 138.018349 -32.357940, 138.022124 -32.355951, 138.025900 -32.353961, 138.029675 -32.351971, 138.033450 -32.349981, 138.037225 -32.347990, 138.041000 -32.346000, 138.043583 -32.342930, 138.046166 -32.339860, 138.048749 -32.336790, 138.051332 -32.333720, 138.053915 -32.330650, 138.056497 -32.327579, 138.059080 -32.324509, 138.061662 -32.321439, 138.064244 -32.318368, 138.066825 -32.315298, 138.069407 -32.312227, 138.071988 -32.309157, 138.074570 -32.306086, 138.077151 -32.303016, 138.079732 -32.299945, 138.082312 -32.296874, 138.084893 -32.293803, 138.087473 -32.290733, 138.090053 -32.287662, 138.092633 -32.284591, 138.095213 -32.281520, 138.097793 -32.278449, 138.100372 -32.275377, 138.102952 -32.272306, 138.105531 -32.269235, 138.108110 -32.266164, 138.110689 -32.263092, 138.113267 -32.260021, 138.115846 -32.256950, 138.118424 -32.253878, 138.121002 -32.250807, 138.123580 -32.247735, 138.126158 -32.244663, 138.128735 -32.241592, 138.131313 -32.238520, 138.133890 -32.235448, 138.136467 -32.232376, 138.139044 -32.229304, 138.141620 -32.226232, 138.144197 -32.223160, 138.146773 -32.220088, 138.149349 -32.217016, 138.151925 -32.213944, 138.154501 -32.210872, 138.157077 -32.207800, 138.159652 -32.204727, 138.162228 -32.201655, 138.164803 -32.198582, 138.167378 -32.195510, 138.169953 -32.192437, 138.172527 -32.189365, 138.175102 -32.186292, 138.177676 -32.183220, 138.180250 -32.180147, 138.182824 -32.177074, 138.185398 -32.174001, 138.187971 -32.170928, 138.190545 -32.167855, 138.193118 -32.164782, 138.195691 -32.161709, 138.198264 -32.158636, 138.200836 -32.155563, 138.203409 -32.152490, 138.205981 -32.149417, 138.208553 -32.146343, 138.211125 -32.143270, 138.213697 -32.140196, 138.216269 -32.137123, 138.218840 -32.134049, 138.221412 -32.130976, 138.223983 -32.127902, 138.226554 -32.124829, 138.229125 -32.121755, 138.231695 -32.118681, 138.234266 -32.115607, 138.236836 -32.112533, 138.239406 -32.109459, 138.241976 -32.106385, 138.244546 -32.103311, 138.247115 -32.100237, 138.249685 -32.097163, 138.252254 -32.094089, 138.254823 -32.091015, 138.257392 -32.087940, 138.259961 -32.084866, 138.262529 -32.081792, 138.265097 -32.078717, 138.267666 -32.075643, 138.270234 -32.072568, 138.272802 -32.069493, 138.275369 -32.066419, 138.277937 -32.063344, 138.280504 -32.060269, 138.283071 -32.057194, 138.285638 -32.054120, 138.288205 -32.051045, 138.290772 -32.047970, 138.293338 -32.044895, 138.295904 -32.041820, 138.298471 -32.038744, 138.301036 -32.035669, 138.303602 -32.032594, 138.306168 -32.029519, 138.308733 -32.026443, 138.311299 -32.023368, 138.313864 -32.020293, 138.316429 -32.017217, 138.318993 -32.014142, 138.321558 -32.011066, 138.324122 -32.007990, 138.326687 -32.004915, 138.329251 -32.001839, 138.331814 -31.998763, 138.334378 -31.995687, 138.336942 -31.992611, 138.339505 -31.989535, 138.342068 -31.986459, 138.344631 -31.983383, 138.347194 -31.980307, 138.349757 -31.977231, 138.352319 -31.974155, 138.354882 -31.971079, 138.357444 -31.968002, 138.360006 -31.964926, 138.362568 -31.961849, 138.365129 -31.958773, 138.367691 -31.955696, 138.370252 -31.952620, 138.372813 -31.949543, 138.375374 -31.946467, 138.377935 -31.943390, 138.380496 -31.940313, 138.383056 -31.937236, 138.385616 -31.934159, 138.388176 -31.931082, 138.390736 -31.928005, 138.393296 -31.924928, 138.395856 -31.921851, 138.398415 -31.918774, 138.400974 -31.915697, 138.403534 -31.912620, 138.406092 -31.909542, 138.408651 -31.906465, 138.411210 -31.903388, 138.413768 -31.900310, 138.416326 -31.897233, 138.418884 -31.894155, 138.421442 -31.891078, 138.424000 -31.888000, 138.423947 -31.884238, 138.423894 -31.880476, 138.423841 -31.876713, 138.423788 -31.872951, 138.423735 -31.869189, 138.423682 -31.865427, 138.423629 -31.861664, 138.423576 -31.857902, 138.423523 -31.854140, 138.423470 -31.850378, 138.423417 -31.846615, 138.423364 -31.842853, 138.423311 -31.839091, 138.423258 -31.835329, 138.423205 -31.831566, 138.423152 -31.827804, 138.423099 -31.824042, 138.423046 -31.820280, 138.422993 -31.816518, 138.422940 -31.812755, 138.422887 -31.808993, 138.422834 -31.805231, 138.422781 -31.801469, 138.422728 -31.797706, 138.422675 -31.793944, 138.422622 -31.790182, 138.422569 -31.786420, 138.422516 -31.782657, 138.422463 -31.778895, 138.422410 -31.775133, 138.422357 -31.771371, 138.422304 -31.767608, 138.422252 -31.763846, 138.422199 -31.760084, 138.422146 -31.756322, 138.422093 -31.752560, 138.422040 -31.748797, 138.421987 -31.745035, 138.421934 -31.741273, 138.421881 -31.737511, 138.421828 -31.733748, 138.421776 -31.729986, 138.421723 -31.726224, 138.421670 -31.722462, 138.421617 -31.718699, 138.421564 -31.714937, 138.421511 -31.711175, 138.421458 -31.707413, 138.421406 -31.703650, 138.421353 -31.699888, 138.421300 -31.696126, 138.421247 -31.692364, 138.421194 -31.688602, 138.421141 -31.684839, 138.421089 -31.681077, 138.421036 -31.677315, 138.420983 -31.673553, 138.420930 -31.669790, 138.420877 -31.666028, 138.420825 -31.662266, 138.420772 -31.658504, 138.420719 -31.654741, 138.420666 -31.650979, 138.420613 -31.647217, 138.420561 -31.643455, 138.420508 -31.639692, 138.420455 -31.635930, 138.420402 -31.632168, 138.420350 -31.628406, 138.420297 -31.624644, 138.420244 -31.620881, 138.420191 -31.617119, 138.420139 -31.613357, 138.420086 -31.609595, 138.420033 -31.605832, 138.419980 -31.602070, 138.419928 -31.598308, 138.419875 -31.594546, 138.419822 -31.590783, 138.419769 -31.587021, 138.419717 -31.583259, 138.419664 -31.579497, 138.419611 -31.575734, 138.419559 -31.571972, 138.419506 -31.568210, 138.419453 -31.564448, 138.419401 -31.560686, 138.419348 -31.556923, 138.419295 -31.553161, 138.419243 -31.549399, 138.419190 -31.545637, 138.419137 -31.541874, 138.419085 -31.538112, 138.419032 -31.534350, 138.418979 -31.530588, 138.418927 -31.526825, 138.418874 -31.523063, 138.418821 -31.519301, 138.418769 -31.515539, 138.418716 -31.511776, 138.418663 -31.508014, 138.418611 -31.504252, 138.418558 -31.500490, 138.418506 -31.496727, 138.418453 -31.492965, 138.418400 -31.489203, 138.418348 -31.485441, 138.418295 -31.481679, 138.418243 -31.477916, 138.418190 -31.474154, 138.418137 -31.470392, 138.418085 -31.466630, 138.418032 -31.462867, 138.417980 -31.459105, 138.417927 -31.455343, 138.417875 -31.451581, 138.417822 -31.447818, 138.417770 -31.444056, 138.417717 -31.440294, 138.417664 -31.436532, 138.417612 -31.432769, 138.417559 -31.429007, 138.417507 -31.425245, 138.417454 -31.421483, 138.417402 -31.417720, 138.417349 -31.413958, 138.417297 -31.410196, 138.417244 -31.406434, 138.417192 -31.402672, 138.417139 -31.398909, 138.417087 -31.395147, 138.417034 -31.391385, 138.416982 -31.387623, 138.416929 -31.383860, 138.416877 -31.380098, 138.416824 -31.376336, 138.416772 -31.372574, 138.416719 -31.368811, 138.416667 -31.365049, 138.416614 -31.361287, 138.416562 -31.357525, 138.416510 -31.353762, 138.416457 -31.350000, 138.416405 -31.346238, 138.416352 -31.342476, 138.416300 -31.338714, 138.416247 -31.334951, 138.416195 -31.331189, 138.416143 -31.327427, 138.416090 -31.323665, 138.416038 -31.319902, 138.415985 -31.316140, 138.415933 -31.312378, 138.415880 -31.308616, 138.415828 -31.304853, 138.415776 -31.301091, 138.415723 -31.297329, 138.415671 -31.293567, 138.415619 -31.289804, 138.415566 -31.286042, 138.415514 -31.282280, 138.415461 -31.278518, 138.415409 -31.274755, 138.415357 -31.270993, 138.415304 -31.267231, 138.415252 -31.263469, 138.415200 -31.259707, 138.415147 -31.255944, 138.415095 -31.252182, 138.415043 -31.248420, 138.414990 -31.244658, 138.414938 -31.240895, 138.414886 -31.237133, 138.414833 -31.233371, 138.414781 -31.229609, 138.414729 -31.225846, 138.414676 -31.222084, 138.414624 -31.218322, 138.414572 -31.214560, 138.414520 -31.210797, 138.414467 -31.207035, 138.414415 -31.203273, 138.414363 -31.199511, 138.414310 -31.195748, 138.414258 -31.191986, 138.414206 -31.188224, 138.414154 -31.184462, 138.414101 -31.180699, 138.414049 -31.176937, 138.413997 -31.173175, 138.413945 -31.169413, 138.413892 -31.165651, 138.413840 -31.161888, 138.413788 -31.158126, 138.413736 -31.154364, 138.413683 -31.150602, 138.413631 -31.146839, 138.413579 -31.143077, 138.413527 -31.139315, 138.413475 -31.135553, 138.413422 -31.131790, 138.413370 -31.128028, 138.413318 -31.124266, 138.413266 -31.120504, 138.413214 -31.116741, 138.413161 -31.112979, 138.413109 -31.109217, 138.413057 -31.105455, 138.413005 -31.101692, 138.412953 -31.097930, 138.412901 -31.094168, 138.412848 -31.090406, 138.412796 -31.086644, 138.412744 -31.082881, 138.412692 -31.079119, 138.412640 -31.075357, 138.412588 -31.071595, 138.412536 -31.067832, 138.412483 -31.064070, 138.412431 -31.060308, 138.412379 -31.056546, 138.412327 -31.052783, 138.412275 -31.049021, 138.412223 -31.045259, 138.412171 -31.041497, 138.412119 -31.037734, 138.412066 -31.033972, 138.412014 -31.030210, 138.411962 -31.026448, 138.411910 -31.022685, 138.411858 -31.018923, 138.411806 -31.015161, 138.411754 -31.011399, 138.411702 -31.007636, 138.411650 -31.003874, 138.411598 -31.000112, 138.411546 -30.996350, 138.411494 -30.992588, 138.411442 -30.988825, 138.411390 -30.985063, 138.411338 -30.981301, 138.411286 -30.977539, 138.411233 -30.973776, 138.411181 -30.970014, 138.411129 -30.966252, 138.411077 -30.962490, 138.411025 -30.958727, 138.410973 -30.954965, 138.410921 -30.951203, 138.410869 -30.947441, 138.410817 -30.943678, 138.410765 -30.939916, 138.410713 -30.936154, 138.410661 -30.932392, 138.410609 -30.928629, 138.410557 -30.924867, 138.410505 -30.921105, 138.410454 -30.917343, 138.410402 -30.913580, 138.410350 -30.909818, 138.410298 -30.906056, 138.410246 -30.902294, 138.410194 -30.898532, 138.410142 -30.894769, 138.410090 -30.891007, 138.410038 -30.887245, 138.409986 -30.883483, 138.409934 -30.879720, 138.409882 -30.875958, 138.409830 -30.872196, 138.409778 -30.868434, 138.409726 -30.864671, 138.409674 -30.860909, 138.409623 -30.857147, 138.409571 -30.853385, 138.409519 -30.849622, 138.409467 -30.845860, 138.409415 -30.842098, 138.409363 -30.838336, 138.409311 -30.834573, 138.409259 -30.830811, 138.409207 -30.827049, 138.409156 -30.823287, 138.409104 -30.819524, 138.409052 -30.815762, 138.409000 -30.812000, 138.408377 -30.808282, 138.407754 -30.804563, 138.407132 -30.800845, 138.406509 -30.797127, 138.405887 -30.793408, 138.405264 -30.789690, 138.404641 -30.785972, 138.404019 -30.782253, 138.403397 -30.778535, 138.402774 -30.774817, 138.402152 -30.771099, 138.401530 -30.767380, 138.400907 -30.763662, 138.400285 -30.759943, 138.399663 -30.756225, 138.399041 -30.752507, 138.398419 -30.748788, 138.397797 -30.745070, 138.397175 -30.741352, 138.396553 -30.737633, 138.395931 -30.733915, 138.395310 -30.730197, 138.394688 -30.726478, 138.394066 -30.722760, 138.393445 -30.719042, 138.392823 -30.715323, 138.392201 -30.711605, 138.391580 -30.707886, 138.390959 -30.704168, 138.390337 -30.700450, 138.389716 -30.696731, 138.389094 -30.693013, 138.388473 -30.689294, 138.387852 -30.685576, 138.387231 -30.681858, 138.386610 -30.678139, 138.385989 -30.674421, 138.385368 -30.670702, 138.384747 -30.666984, 138.384126 -30.663266, 138.383505 -30.659547, 138.382884 -30.655829, 138.382263 -30.652110, 138.381643 -30.648392, 138.381022 -30.644673, 138.380401 -30.640955, 138.379781 -30.637237, 138.379160 -30.633518, 138.378540 -30.629800, 138.377919 -30.626081, 138.377299 -30.622363, 138.376678 -30.618644, 138.376058 -30.614926, 138.375438 -30.611207, 138.374818 -30.607489, 138.374198 -30.603770, 138.373577 -30.600052, 138.372957 -30.596334, 138.372337 -30.592615, 138.371717 -30.588897, 138.371097 -30.585178, 138.370478 -30.581460, 138.369858 -30.577741, 138.369238 -30.574023, 138.368618 -30.570304, 138.367999 -30.566586, 138.367379 -30.562867, 138.366759 -30.559149, 138.366140 -30.555430, 138.365520 -30.551712, 138.364901 -30.547993, 138.364281 -30.544275, 138.363662 -30.540556, 138.363043 -30.536838, 138.362424 -30.533119, 138.361804 -30.529401, 138.361185 -30.525682, 138.360566 -30.521964, 138.359947 -30.518245, 138.359328 -30.514526, 138.358709 -30.510808, 138.358090 -30.507089, 138.357471 -30.503371, 138.356852 -30.499652, 138.356234 -30.495934, 138.355615 -30.492215, 138.354996 -30.488497, 138.354378 -30.484778, 138.353759 -30.481059, 138.353140 -30.477341, 138.352522 -30.473622, 138.351903 -30.469904, 138.351285 -30.466185, 138.350667 -30.462467, 138.350048 -30.458748, 138.349430 -30.455029, 138.348812 -30.451311, 138.348194 -30.447592, 138.347576 -30.443874, 138.346958 -30.440155, 138.346340 -30.436437, 138.345722 -30.432718, 138.345104 -30.428999, 138.344486 -30.425281, 138.343868 -30.421562, 138.343250 -30.417843, 138.342632 -30.414125, 138.342015 -30.410406, 138.341397 -30.406688, 138.340779 -30.402969, 138.340162 -30.399250, 138.339544 -30.395532, 138.338927 -30.391813, 138.338309 -30.388094, 138.337692 -30.384376, 138.337075 -30.380657, 138.336458 -30.376939, 138.335840 -30.373220, 138.335223 -30.369501, 138.334606 -30.365783, 138.333989 -30.362064, 138.333372 -30.358345, 138.332755 -30.354627, 138.332138 -30.350908, 138.331521 -30.347189, 138.330904 -30.343471, 138.330287 -30.339752, 138.329671 -30.336033, 138.329054 -30.332315, 138.328437 -30.328596, 138.327821 -30.324877, 138.327204 -30.321159, 138.326588 -30.317440, 138.325971 -30.313721, 138.325355 -30.310002, 138.324738 -30.306284, 138.324122 -30.302565, 138.323506 -30.298846, 138.322889 -30.295128, 138.322273 -30.291409, 138.321657 -30.287690, 138.321041 -30.283972, 138.320425 -30.280253, 138.319809 -30.276534, 138.319193 -30.272815, 138.318577 -30.269097, 138.317961 -30.265378, 138.317345 -30.261659, 138.316730 -30.257940, 138.316114 -30.254222, 138.315498 -30.250503, 138.314882 -30.246784, 138.314267 -30.243065, 138.313651 -30.239347, 138.313036 -30.235628, 138.312420 -30.231909, 138.311805 -30.228190, 138.311190 -30.224472, 138.310574 -30.220753, 138.309959 -30.217034, 138.309344 -30.213315, 138.308729 -30.209597, 138.308114 -30.205878, 138.307498 -30.202159, 138.306883 -30.198440, 138.306268 -30.194722, 138.305654 -30.191003, 138.305039 -30.187284, 138.304424 -30.183565, 138.303809 -30.179846, 138.303194 -30.176128, 138.302580 -30.172409, 138.301965 -30.168690, 138.301350 -30.164971, 138.300736 -30.161252, 138.300121 -30.157533, 138.299507 -30.153815, 138.298892 -30.150096, 138.298278 -30.146377, 138.297664 -30.142658, 138.297049 -30.138939, 138.296435 -30.135221, 138.295821 -30.131502, 138.295207 -30.127783, 138.294593 -30.124064, 138.293979 -30.120345, 138.293365 -30.116626, 138.292751 -30.112908, 138.292137 -30.109189, 138.291523 -30.105470, 138.290909 -30.101751, 138.290295 -30.098032, 138.289681 -30.094313, 138.289068 -30.090594, 138.288454 -30.086875, 138.287841 -30.083157, 138.287227 -30.079438, 138.286613 -30.075719, 138.286000 -30.072000, 138.284220 -30.068571, 138.282440 -30.065141, 138.280661 -30.061712, 138.278881 -30.058282, 138.277102 -30.054853, 138.275323 -30.051423, 138.273544 -30.047993, 138.271765 -30.044564, 138.269986 -30.041134, 138.268207 -30.037704, 138.266429 -30.034275, 138.264650 -30.030845, 138.262872 -30.027415, 138.261094 -30.023986, 138.259316 -30.020556, 138.257538 -30.017126, 138.255760 -30.013696, 138.253982 -30.010266, 138.252204 -30.006836, 138.250427 -30.003407, 138.248650 -29.999977, 138.246872 -29.996547, 138.245095 -29.993117, 138.243318 -29.989687, 138.241541 -29.986257, 138.239765 -29.982827, 138.237988 -29.979397, 138.236212 -29.975967, 138.234435 -29.972536, 138.232659 -29.969106, 138.230883 -29.965676, 138.229107 -29.962246, 138.227331 -29.958816, 138.225555 -29.955385, 138.223779 -29.951955, 138.222004 -29.948525, 138.220229 -29.945095, 138.218453 -29.941664, 138.216678 -29.938234, 138.214903 -29.934804, 138.213128 -29.931373, 138.211353 -29.927943, 138.209579 -29.924512, 138.207804 -29.921082, 138.206030 -29.917651, 138.204256 -29.914221, 138.202481 -29.910790, 138.200707 -29.907360, 138.198933 -29.903929, 138.197160 -29.900499, 138.195386 -29.897068, 138.193612 -29.893637, 138.191839 -29.890207, 138.190066 -29.886776, 138.188292 -29.883345, 138.186519 -29.879914, 138.184746 -29.876484, 138.182973 -29.873053, 138.181201 -29.869622, 138.179428 -29.866191, 138.177656 -29.862760, 138.175883 -29.859329, 138.174111 -29.855898, 138.172339 -29.852467, 138.170567 -29.849036, 138.168795 -29.845605, 138.167024 -29.842174, 138.165252 -29.838743, 138.163480 -29.835312, 138.161709 -29.831881, 138.159938 -29.828450, 138.158167 -29.825019, 138.156396 -29.821588, 138.154625 -29.818157, 138.152854 -29.814725, 138.151083 -29.811294, 138.149313 -29.807863, 138.147542 -29.804432, 138.145772 -29.801000, 138.144002 -29.797569, 138.142232 -29.794138, 138.140462 -29.790706, 138.138692 -29.787275, 138.136923 -29.783844, 138.135153 -29.780412, 138.133384 -29.776981, 138.131614 -29.773549, 138.129845 -29.770118, 138.128076 -29.766686, 138.126307 -29.763255, 138.124538 -29.759823, 138.122770 -29.756391, 138.121001 -29.752960, 138.119233 -29.749528, 138.117464 -29.746096, 138.115696 -29.742665, 138.113928 -29.739233, 138.112160 -29.735801, 138.110392 -29.732370, 138.108624 -29.728938, 138.106857 -29.725506, 138.105089 -29.722074, 138.103322 -29.718642, 138.101555 -29.715210, 138.099788 -29.711778, 138.098021 -29.708346, 138.096254 -29.704915, 138.094487 -29.701483, 138.092720 -29.698051, 138.090954 -29.694618, 138.089187 -29.691186, 138.087421 -29.687754, 138.085655 -29.684322, 138.083889 -29.680890, 138.082123 -29.677458, 138.080357 -29.674026, 138.078592 -29.670594, 138.076826 -29.667161, 138.075061 -29.663729, 138.073295 -29.660297, 138.071530 -29.656865, 138.069765 -29.653432, 138.068000 -29.650000, 138.063775 -29.649191, 138.059550 -29.648382, 138.055325 -29.647572, 138.051101 -29.646763, 138.046876 -29.645953, 138.042651 -29.645144, 138.038427 -29.644334, 138.034202 -29.643524, 138.029978 -29.642714, 138.025753 -29.641903, 138.021529 -29.641093, 138.017305 -29.640282, 138.013081 -29.639472, 138.008857 -29.638661, 138.004633 -29.637850, 138.000409 -29.637039, 137.996185 -29.636228, 137.991961 -29.635416, 137.987737 -29.634605, 137.983514 -29.633793, 137.979290 -29.632981, 137.975066 -29.632170, 137.970843 -29.631358, 137.966620 -29.630545, 137.962396 -29.629733, 137.958173 -29.628921, 137.953950 -29.628108, 137.949727 -29.627296, 137.945504 -29.626483, 137.941281 -29.625670, 137.937058 -29.624857, 137.932835 -29.624043, 137.928612 -29.623230, 137.924389 -29.622417, 137.920167 -29.621603, 137.915944 -29.620789, 137.911722 -29.619975, 137.907499 -29.619161, 137.903277 -29.618347, 137.899054 -29.617533, 137.894832 -29.616719, 137.890610 -29.615904, 137.886388 -29.615089, 137.882166 -29.614274, 137.877944 -29.613460, 137.873722 -29.612644, 137.869500 -29.611829, 137.865278 -29.611014, 137.861057 -29.610198, 137.856835 -29.609383, 137.852614 -29.608567, 137.848392 -29.607751, 137.844171 -29.606935, 137.839949 -29.606119, 137.835728 -29.605303, 137.831507 -29.604486, 137.827286 -29.603670, 137.823065 -29.602853, 137.818844 -29.602036, 137.814623 -29.601219, 137.810402 -29.600402, 137.806181 -29.599585, 137.801960 -29.598768, 137.797739 -29.597950, 137.793519 -29.597132, 137.789298 -29.596315, 137.785078 -29.595497, 137.780857 -29.594679, 137.776637 -29.593861, 137.772417 -29.593042, 137.768197 -29.592224, 137.763977 -29.591405, 137.759757 -29.590587, 137.755537 -29.589768, 137.751317 -29.588949, 137.747097 -29.588130, 137.742877 -29.587310, 137.738657 -29.586491, 137.734438 -29.585672, 137.730218 -29.584852, 137.725999 -29.584032, 137.721779 -29.583212, 137.717560 -29.582392, 137.713340 -29.581572, 137.709121 -29.580752, 137.704902 -29.579931, 137.700683 -29.579111, 137.696464 -29.578290, 137.692245 -29.577469, 137.688026 -29.576648, 137.683807 -29.575827, 137.679588 -29.575006, 137.675370 -29.574185, 137.671151 -29.573363, 137.666933 -29.572542, 137.662714 -29.571720, 137.658496 -29.570898, 137.654277 -29.570076, 137.650059 -29.569254, 137.645841 -29.568431, 137.641623 -29.567609, 137.637405 -29.566786, 137.633187 -29.565964, 137.628969 -29.565141, 137.624751 -29.564318, 137.620533 -29.563495, 137.616315 -29.562672, 137.612098 -29.561848, 137.607880 -29.561025, 137.603663 -29.560201, 137.599445 -29.559377, 137.595228 -29.558554, 137.591011 -29.557730, 137.586793 -29.556905, 137.582576 -29.556081, 137.578359 -29.555257, 137.574142 -29.554432, 137.569925 -29.553607, 137.565708 -29.552783, 137.561491 -29.551958, 137.557275 -29.551133, 137.553058 -29.550307, 137.548841 -29.549482, 137.544625 -29.548656, 137.540408 -29.547831, 137.536192 -29.547005, 137.531975 -29.546179, 137.527759 -29.545353, 137.523543 -29.544527, 137.519327 -29.543701, 137.515111 -29.542874, 137.510895 -29.542048, 137.506679 -29.541221, 137.502463 -29.540394, 137.498247 -29.539567, 137.494031 -29.538740, 137.489816 -29.537913, 137.485600 -29.537086, 137.481385 -29.536258, 137.477169 -29.535430, 137.472954 -29.534603, 137.468739 -29.533775, 137.464523 -29.532947, 137.460308 -29.532119, 137.456093 -29.531290, 137.451878 -29.530462, 137.447663 -29.529633, 137.443448 -29.528805, 137.439233 -29.527976, 137.435019 -29.527147, 137.430804 -29.526318, 137.426589 -29.525489, 137.422375 -29.524659, 137.418160 -29.523830, 137.413946 -29.523000, 137.409731 -29.522170, 137.405517 -29.521341, 137.401303 -29.520511, 137.397089 -29.519680, 137.392875 -29.518850, 137.388661 -29.518020, 137.384447 -29.517189, 137.380233 -29.516359, 137.376019 -29.515528, 137.371805 -29.514697, 137.367592 -29.513866, 137.363378 -29.513034, 137.359165 -29.512203, 137.354951 -29.511372, 137.350738 -29.510540, 137.346525 -29.509708, 137.342311 -29.508876, 137.338098 -29.508044, 137.333885 -29.507212, 137.329672 -29.506380, 137.325459 -29.505548, 137.321246 -29.504715, 137.317033 -29.503882, 137.312821 -29.503050, 137.308608 -29.502217, 137.304395 -29.501384, 137.300183 -29.500550, 137.295970 -29.499717, 137.291758 -29.498884, 137.287546 -29.498050, 137.283333 -29.497216, 137.279121 -29.496382, 137.274909 -29.495548, 137.270697 -29.494714, 137.266485 -29.493880, 137.262273 -29.493046, 137.258061 -29.492211, 137.253849 -29.491376, 137.249638 -29.490542, 137.245426 -29.489707, 137.241214 -29.488872, 137.237003 -29.488036, 137.232791 -29.487201, 137.228580 -29.486366, 137.224369 -29.485530, 137.220158 -29.484694, 137.215946 -29.483858, 137.211735 -29.483023, 137.207524 -29.482186, 137.203313 -29.481350, 137.199103 -29.480514, 137.194892 -29.479677, 137.190681 -29.478841, 137.186470 -29.478004, 137.182260 -29.477167, 137.178049 -29.476330, 137.173839 -29.475493, 137.169628 -29.474655, 137.165418 -29.473818, 137.161208 -29.472980, 137.156998 -29.472143, 137.152787 -29.471305, 137.148577 -29.470467, 137.144367 -29.469629, 137.140158 -29.468790, 137.135948 -29.467952, 137.131738 -29.467114, 137.127528 -29.466275, 137.123319 -29.465436, 137.119109 -29.464597, 137.114900 -29.463758, 137.110690 -29.462919, 137.106481 -29.462080, 137.102272 -29.461240, 137.098062 -29.460401, 137.093853 -29.459561, 137.089644 -29.458721, 137.085435 -29.457881, 137.081226 -29.457041, 137.077017 -29.456201, 137.072809 -29.455361, 137.068600 -29.454520, 137.064391 -29.453679, 137.060183 -29.452839, 137.055974 -29.451998, 137.051766 -29.451157, 137.047557 -29.450316, 137.043349 -29.449474, 137.039141 -29.448633, 137.034933 -29.447791, 137.030724 -29.446950, 137.026516 -29.446108, 137.022308 -29.445266, 137.018101 -29.444424, 137.013893 -29.443582, 137.009685 -29.442739, 137.005477 -29.441897, 137.001270 -29.441054, 136.997062 -29.440211, 136.992855 -29.439369, 136.988647 -29.438526, 136.984440 -29.437682, 136.980233 -29.436839, 136.976026 -29.435996, 136.971818 -29.435152, 136.967611 -29.434309, 136.963404 -29.433465, 136.959198 -29.432621, 136.954991 -29.431777, 136.950784 -29.430933, 136.946577 -29.430088, 136.942371 -29.429244, 136.938164 -29.428399, 136.933958 -29.427554, 136.929751 -29.426710, 136.925545 -29.425865, 136.921339 -29.425020, 136.917132 -29.424174, 136.912926 -29.423329, 136.908720 -29.422483, 136.904514 -29.421638, 136.900308 -29.420792, 136.896102 -29.419946, 136.891897 -29.419100, 136.887691 -29.418254, 136.883485 -29.417407, 136.879280 -29.416561, 136.875074 -29.415714, 136.870869 -29.414868, 136.866663 -29.414021, 136.862458 -29.413174, 136.858253 -29.412327, 136.854048 -29.411480, 136.849843 -29.410632, 136.845638 -29.409785, 136.841433 -29.408937, 136.837228 -29.408089, 136.833023 -29.407241, 136.828818 -29.406393, 136.824614 -29.405545, 136.820409 -29.404697, 136.816204 -29.403849, 136.812000 -29.403000, 136.809243 -29.400121, 136.806485 -29.397242, 136.803728 -29.394363, 136.800971 -29.391484, 136.798214 -29.388605, 136.795458 -29.385726, 136.792701 -29.382846, 136.789945 -29.379967, 136.787189 -29.377088, 136.784433 -29.374208, 136.781677 -29.371329, 136.778921 -29.368449, 136.776166 -29.365570, 136.773410 -29.362690, 136.770655 -29.359810, 136.767900 -29.356931, 136.765145 -29.354051, 136.762390 -29.351171, 136.759636 -29.348291, 136.756881 -29.345411, 136.754127 -29.342531, 136.751373 -29.339651, 136.748619 -29.336771, 136.745865 -29.333890, 136.743111 -29.331010, 136.740358 -29.328130, 136.737604 -29.325249, 136.734851 -29.322369, 136.732098 -29.319488, 136.729345 -29.316608, 136.726592 -29.313727, 136.723840 -29.310847, 136.721087 -29.307966, 136.718335 -29.305085, 136.715583 -29.302204, 136.712831 -29.299323, 136.710079 -29.296442, 136.707328 -29.293561, 136.704576 -29.290680, 136.701825 -29.287799, 136.699074 -29.284918, 136.696323 -29.282037, 136.693572 -29.279155, 136.690821 -29.276274, 136.688070 -29.273393, 136.685320 -29.270511, 136.682570 -29.267630, 136.679820 -29.264748, 136.677070 -29.261867, 136.674320 -29.258985, 136.671570 -29.256103, 136.668821 -29.253221, 136.666071 -29.250339, 136.663322 -29.247458, 136.660573 -29.244576, 136.657824 -29.241694, 136.655076 -29.238811, 136.652327 -29.235929, 136.649579 -29.233047, 136.646830 -29.230165, 136.644082 -29.227283, 136.641334 -29.224400, 136.638587 -29.221518, 136.635839 -29.218635, 136.633091 -29.215753, 136.630344 -29.212870, 136.627597 -29.209988, 136.624850 -29.207105, 136.622103 -29.204222, 136.619356 -29.201339, 136.616610 -29.198456, 136.613863 -29.195574, 136.611117 -29.192691, 136.608371 -29.189808, 136.605625 -29.186924, 136.602879 -29.184041, 136.600134 -29.181158, 136.597388 -29.178275, 136.594643 -29.175392, 136.591898 -29.172508, 136.589153 -29.169625, 136.586408 -29.166741, 136.583663 -29.163858, 136.580919 -29.160974, 136.578174 -29.158090, 136.575430 -29.155207, 136.572686 -29.152323, 136.569942 -29.149439, 136.567198 -29.146555, 136.564455 -29.143671, 136.561711 -29.140787, 136.558968 -29.137903, 136.556225 -29.135019, 136.553482 -29.132135, 136.550739 -29.129251, 136.547996 -29.126367, 136.545254 -29.123482, 136.542511 -29.120598, 136.539769 -29.117714, 136.537027 -29.114829, 136.534285 -29.111945, 136.531543 -29.109060, 136.528802 -29.106175, 136.526060 -29.103291, 136.523319 -29.100406, 136.520578 -29.097521, 136.517837 -29.094636, 136.515096 -29.091751, 136.512355 -29.088866, 136.509615 -29.085981, 136.506874 -29.083096, 136.504134 -29.080211, 136.501394 -29.077326, 136.498654 -29.074440, 136.495914 -29.071555, 136.493175 -29.068670, 136.490435 -29.065784, 136.487696 -29.062899, 136.484957 -29.060013, 136.482218 -29.057128, 136.479479 -29.054242, 136.476740 -29.051356, 136.474002 -29.048470, 136.471263 -29.045585, 136.468525 -29.042699, 136.465787 -29.039813, 136.463049 -29.036927, 136.460311 -29.034041, 136.457574 -29.031155, 136.454836 -29.028269, 136.452099 -29.025382, 136.449362 -29.022496, 136.446625 -29.019610, 136.443888 -29.016723, 136.441151 -29.013837, 136.438414 -29.010950, 136.435678 -29.008064, 136.432942 -29.005177, 136.430206 -29.002291, 136.427470 -28.999404, 136.424734 -28.996517, 136.421998 -28.993630, 136.419263 -28.990743, 136.416527 -28.987857, 136.413792 -28.984970, 136.411057 -28.982083, 136.408322 -28.979195, 136.405588 -28.976308, 136.402853 -28.973421, 136.400119 -28.970534, 136.397384 -28.967646, 136.394650 -28.964759, 136.391916 -28.961872, 136.389183 -28.958984, 136.386449 -28.956097, 136.383715 -28.953209, 136.380982 -28.950321, 136.378249 -28.947434, 136.375516 -28.944546, 136.372783 -28.941658, 136.370050 -28.938770, 136.367318 -28.935882, 136.364585 -28.932994, 136.361853 -28.930106, 136.359121 -28.927218, 136.356389 -28.924330, 136.353657 -28.921442, 136.350925 -28.918554, 136.348194 -28.915665, 136.345462 -28.912777, 136.342731 -28.909888, 136.340000 -28.907000, 136.337836 -28.903751, 136.335672 -28.900502, 136.333509 -28.897253, 136.331345 -28.894004, 136.329182 -28.890755, 136.327019 -28.887506, 136.324856 -28.884257, 136.322693 -28.881007, 136.320530 -28.877758, 136.318367 -28.874509, 136.316205 -28.871259, 136.314042 -28.868010, 136.311880 -28.864761, 136.309718 -28.861511, 136.307556 -28.858262, 136.305394 -28.855012, 136.303232 -28.851763, 136.301071 -28.848513, 136.298909 -28.845264, 136.296748 -28.842014, 136.294587 -28.838764, 136.292426 -28.835515, 136.290265 -28.832265, 136.288104 -28.829015, 136.285943 -28.825766, 136.283783 -28.822516, 136.281622 -28.819266, 136.279462 -28.816016, 136.277302 -28.812766, 136.275142 -28.809516, 136.272982 -28.806266, 136.270822 -28.803016, 136.268663 -28.799766, 136.266503 -28.796516, 136.264344 -28.793266, 136.262185 -28.790016, 136.260026 -28.786765, 136.257867 -28.783515, 136.255708 -28.780265, 136.253550 -28.777015, 136.251391 -28.773764, 136.249233 -28.770514, 136.247074 -28.767263, 136.244916 -28.764013, 136.242758 -28.760762, 136.240601 -28.757512, 136.238443 -28.754261, 136.236285 -28.751011, 136.234128 -28.747760, 136.231971 -28.744510, 136.229814 -28.741259, 136.227656 -28.738008, 136.225500 -28.734757, 136.223343 -28.731507, 136.221186 -28.728256, 136.219030 -28.725005, 136.216873 -28.721754, 136.214717 -28.718503, 136.212561 -28.715252, 136.210405 -28.712001, 136.208249 -28.708750, 136.206094 -28.705499, 136.203938 -28.702248, 136.201783 -28.698997, 136.199627 -28.695746, 136.197472 -28.692494, 136.195317 -28.689243, 136.193162 -28.685992, 136.191008 -28.682741, 136.188853 -28.679489, 136.186699 -28.676238, 136.184544 -28.672987, 136.182390 -28.669735, 136.180236 -28.666484, 136.178082 -28.663232, 136.175928 -28.659981, 136.173775 -28.656729, 136.171621 -28.653477, 136.169468 -28.650226, 136.167314 -28.646974, 136.165161 -28.643722, 136.163008 -28.640471, 136.160855 -28.637219, 136.158703 -28.633967, 136.156550 -28.630715, 136.154398 -28.627463, 136.152245 -28.624211, 136.150093 -28.620960, 136.147941 -28.617708, 136.145789 -28.614456, 136.143637 -28.611203, 136.141486 -28.607951, 136.139334 -28.604699, 136.137183 -28.601447, 136.135031 -28.598195, 136.132880 -28.594943, 136.130729 -28.591690, 136.128578 -28.588438, 136.126428 -28.585186, 136.124277 -28.581934, 136.122127 -28.578681, 136.119976 -28.575429, 136.117826 -28.572176, 136.115676 -28.568924, 136.113526 -28.565671, 136.111376 -28.562419, 136.109226 -28.559166, 136.107077 -28.555913, 136.104928 -28.552661, 136.102778 -28.549408, 136.100629 -28.546155, 136.098480 -28.542903, 136.096331 -28.539650, 136.094182 -28.536397, 136.092034 -28.533144, 136.089885 -28.529891, 136.087737 -28.526638, 136.085589 -28.523385, 136.083441 -28.520132, 136.081293 -28.516879, 136.079145 -28.513626, 136.076997 -28.510373, 136.074850 -28.507120, 136.072702 -28.503867, 136.070555 -28.500614, 136.068408 -28.497360, 136.066261 -28.494107, 136.064114 -28.490854, 136.061967 -28.487600, 136.059821 -28.484347, 136.057674 -28.481094, 136.055528 -28.477840, 136.053381 -28.474587, 136.051235 -28.471333, 136.049089 -28.468080, 136.046944 -28.464826, 136.044798 -28.461573, 136.042652 -28.458319, 136.040507 -28.455065, 136.038362 -28.451812, 136.036216 -28.448558, 136.034071 -28.445304, 136.031926 -28.442050, 136.029782 -28.438796, 136.027637 -28.435543, 136.025493 -28.432289, 136.023348 -28.429035, 136.021204 -28.425781, 136.019060 -28.422527, 136.016916 -28.419273, 136.014772 -28.416019, 136.012628 -28.412764, 136.010485 -28.409510, 136.008341 -28.406256, 136.006198 -28.403002, 136.004055 -28.399748, 136.001912 -28.396493, 135.999769 -28.393239, 135.997626 -28.389985, 135.995483 -28.386730, 135.993341 -28.383476, 135.991198 -28.380222, 135.989056 -28.376967, 135.986914 -28.373713, 135.984772 -28.370458, 135.982630 -28.367203, 135.980488 -28.363949, 135.978347 -28.360694, 135.976205 -28.357439, 135.974064 -28.354185, 135.971923 -28.350930, 135.969781 -28.347675, 135.967641 -28.344420, 135.965500 -28.341166, 135.963359 -28.337911, 135.961218 -28.334656, 135.959078 -28.331401, 135.956938 -28.328146, 135.954798 -28.324891, 135.952657 -28.321636, 135.950518 -28.318381, 135.948378 -28.315126, 135.946238 -28.311870, 135.944099 -28.308615, 135.941959 -28.305360, 135.939820 -28.302105, 135.937681 -28.298850, 135.935542 -28.295594, 135.933403 -28.292339, 135.931264 -28.289084, 135.929126 -28.285828, 135.926987 -28.282573, 135.924849 -28.279317, 135.922711 -28.276062, 135.920573 -28.272806, 135.918435 -28.269551, 135.916297 -28.266295, 135.914159 -28.263039, 135.912022 -28.259784, 135.909884 -28.256528, 135.907747 -28.253272, 135.905610 -28.250016, 135.903473 -28.246761, 135.901336 -28.243505, 135.899199 -28.240249, 135.897062 -28.236993, 135.894926 -28.233737, 135.892789 -28.230481, 135.890653 -28.227225, 135.888517 -28.223969, 135.886381 -28.220713, 135.884245 -28.217457, 135.882109 -28.214201, 135.879974 -28.210944, 135.877838 -28.207688, 135.875703 -28.204432, 135.873568 -28.201176, 135.871433 -28.197919, 135.869298 -28.194663, 135.867163 -28.191407, 135.865028 -28.188150, 135.862894 -28.184894, 135.860759 -28.181637, 135.858625 -28.178381, 135.856491 -28.175124, 135.854357 -28.171868, 135.852223 -28.168611, 135.850089 -28.165354, 135.847955 -28.162098, 135.845822 -28.158841, 135.843689 -28.155584, 135.841555 -28.152328, 135.839422 -28.149071, 135.837289 -28.145814, 135.835156 -28.142557, 135.833024 -28.139300, 135.830891 -28.136043, 135.828758 -28.132786, 135.826626 -28.129529, 135.824494 -28.126272, 135.822362 -28.123015, 135.820230 -28.119758, 135.818098 -28.116501, 135.815966 -28.113244, 135.813835 -28.109986, 135.811703 -28.106729, 135.809572 -28.103472, 135.807441 -28.100215, 135.805310 -28.096957, 135.803179 -28.093700, 135.801048 -28.090443, 135.798917 -28.087185, 135.796787 -28.083928, 135.794656 -28.080670, 135.792526 -28.077413, 135.790396 -28.074155, 135.788266 -28.070897, 135.786136 -28.067640, 135.784006 -28.064382, 135.781877 -28.061124, 135.779747 -28.057867, 135.777618 -28.054609, 135.775489 -28.051351, 135.773359 -28.048093, 135.771230 -28.044836, 135.769102 -28.041578, 135.766973 -28.038320, 135.764844 -28.035062, 135.762716 -28.031804, 135.760587 -28.028546, 135.758459 -28.025288, 135.756331 -28.022030, 135.754203 -28.018771, 135.752075 -28.015513, 135.749948 -28.012255, 135.747820 -28.008997, 135.745693 -28.005739, 135.743565 -28.002480, 135.741438 -27.999222, 135.739311 -27.995964, 135.737184 -27.992705, 135.735057 -27.989447, 135.732931 -27.986188, 135.730804 -27.982930, 135.728678 -27.979671, 135.726551 -27.976413, 135.724425 -27.973154, 135.722299 -27.969896, 135.720173 -27.966637, 135.718048 -27.963378, 135.715922 -27.960120, 135.713796 -27.956861, 135.711671 -27.953602, 135.709546 -27.950343, 135.707421 -27.947084, 135.705296 -27.943826, 135.703171 -27.940567, 135.701046 -27.937308, 135.698921 -27.934049, 135.696797 -27.930790, 135.694672 -27.927531, 135.692548 -27.924272, 135.690424 -27.921013, 135.688300 -27.917753, 135.686176 -27.914494, 135.684053 -27.911235, 135.681929 -27.907976, 135.679806 -27.904717, 135.677682 -27.901457, 135.675559 -27.898198, 135.673436 -27.894939, 135.671313 -27.891679, 135.669190 -27.888420, 135.667067 -27.885160, 135.664945 -27.881901, 135.662822 -27.878641, 135.660700 -27.875382, 135.658578 -27.872122, 135.656456 -27.868862, 135.654334 -27.865603, 135.652212 -27.862343, 135.650090 -27.859083, 135.647969 -27.855824, 135.645847 -27.852564, 135.643726 -27.849304, 135.641605 -27.846044, 135.639484 -27.842784, 135.637363 -27.839524, 135.635242 -27.836264, 135.633122 -27.833004, 135.631001 -27.829744, 135.628881 -27.826484, 135.626760 -27.823224, 135.624640 -27.819964, 135.622520 -27.816704, 135.620400 -27.813444, 135.618281 -27.810184, 135.616161 -27.806923, 135.614041 -27.803663, 135.611922 -27.800403, 135.609803 -27.797143, 135.607684 -27.793882, 135.605565 -27.790622, 135.603446 -27.787361, 135.601327 -27.784101, 135.599208 -27.780840, 135.597090 -27.777580, 135.594972 -27.774319, 135.592853 -27.771059, 135.590735 -27.767798, 135.588617 -27.764537, 135.586499 -27.761277, 135.584382 -27.758016, 135.582264 -27.754755, 135.580147 -27.751494, 135.578029 -27.748234, 135.575912 -27.744973, 135.573795 -27.741712, 135.571678 -27.738451, 135.569561 -27.735190, 135.567444 -27.731929, 135.565328 -27.728668, 135.563211 -27.725407, 135.561095 -27.722146, 135.558979 -27.718885, 135.556863 -27.715624, 135.554747 -27.712362, 135.552631 -27.709101, 135.550515 -27.705840, 135.548400 -27.702579, 135.546284 -27.699317, 135.544169 -27.696056, 135.542054 -27.692795, 135.539938 -27.689533, 135.537824 -27.686272, 135.535709 -27.683010, 135.533594 -27.679749, 135.531479 -27.676487, 135.529365 -27.673226, 135.527251 -27.669964, 135.525137 -27.666703, 135.523022 -27.663441, 135.520909 -27.660179, 135.518795 -27.656918, 135.516681 -27.653656, 135.514567 -27.650394, 135.512454 -27.647132, 135.510341 -27.643870, 135.508228 -27.640608, 135.506114 -27.637347, 135.504002 -27.634085, 135.501889 -27.630823, 135.499776 -27.627561, 135.497664 -27.624299, 135.495551 -27.621037, 135.493439 -27.617774, 135.491327 -27.614512, 135.489215 -27.611250, 135.487103 -27.607988, 135.484991 -27.604726, 135.482879 -27.601463, 135.480768 -27.598201, 135.478656 -27.594939, 135.476545 -27.591676, 135.474434 -27.588414, 135.472323 -27.585152, 135.470212 -27.581889, 135.468101 -27.578627, 135.465990 -27.575364, 135.463880 -27.572102, 135.461769 -27.568839, 135.459659 -27.565576, 135.457549 -27.562314, 135.455439 -27.559051, 135.453329 -27.555788, 135.451219 -27.552526, 135.449110 -27.549263, 135.447000 -27.546000, 135.445680 -27.542420, 135.444359 -27.538839, 135.443039 -27.535259, 135.441719 -27.531678, 135.440399 -27.528098, 135.439079 -27.524517, 135.437760 -27.520937, 135.436440 -27.517356, 135.435120 -27.513776, 135.433801 -27.510195, 135.432481 -27.506615, 135.431162 -27.503034, 135.429843 -27.499453, 135.428524 -27.495873, 135.427204 -27.492292, 135.425885 -27.488712, 135.424566 -27.485131, 135.423248 -27.481550, 135.421929 -27.477970, 135.420610 -27.474389, 135.419292 -27.470808, 135.417973 -27.467228, 135.416655 -27.463647, 135.415336 -27.460066, 135.414018 -27.456485, 135.412700 -27.452905, 135.411382 -27.449324, 135.410064 -27.445743, 135.408746 -27.442162, 135.407428 -27.438582, 135.406110 -27.435001, 135.404793 -27.431420, 135.403475 -27.427839, 135.402158 -27.424258, 135.400840 -27.420677, 135.399523 -27.417097, 135.398206 -27.413516, 135.396889 -27.409935, 135.395572 -27.406354, 135.394255 -27.402773, 135.392938 -27.399192, 135.391621 -27.395611, 135.390304 -27.392030, 135.388988 -27.388449, 135.387671 -27.384868, 135.386355 -27.381287, 135.385038 -27.377706, 135.383722 -27.374125, 135.382406 -27.370544, 135.381090 -27.366963, 135.379774 -27.363382, 135.378458 -27.359801, 135.377142 -27.356220, 135.375826 -27.352639, 135.374510 -27.349058, 135.373195 -27.345477, 135.371879 -27.341896, 135.370564 -27.338314, 135.369249 -27.334733, 135.367933 -27.331152, 135.366618 -27.327571, 135.365303 -27.323990, 135.363988 -27.320409, 135.362673 -27.316827, 135.361358 -27.313246, 135.360044 -27.309665, 135.358729 -27.306084, 135.357414 -27.302502, 135.356100 -27.298921, 135.354785 -27.295340, 135.353471 -27.291759, 135.352157 -27.288177, 135.350843 -27.284596, 135.349529 -27.281015, 135.348215 -27.277433, 135.346901 -27.273852, 135.345587 -27.270270, 135.344273 -27.266689, 135.342959 -27.263108, 135.341646 -27.259526, 135.340332 -27.255945, 135.339019 -27.252363, 135.337706 -27.248782, 135.336392 -27.245201, 135.335079 -27.241619, 135.333766 -27.238038, 135.332453 -27.234456, 135.331140 -27.230875, 135.329828 -27.227293, 135.328515 -27.223712, 135.327202 -27.220130, 135.325890 -27.216548, 135.324577 -27.212967, 135.323265 -27.209385, 135.321953 -27.205804, 135.320640 -27.202222, 135.319328 -27.198640, 135.318016 -27.195059, 135.316704 -27.191477, 135.315392 -27.187896, 135.314081 -27.184314, 135.312769 -27.180732, 135.311457 -27.177151, 135.310146 -27.173569, 135.308834 -27.169987, 135.307523 -27.166405, 135.306212 -27.162824, 135.304900 -27.159242, 135.303589 -27.155660, 135.302278 -27.152078, 135.300967 -27.148497, 135.299656 -27.144915, 135.298346 -27.141333, 135.297035 -27.137751, 135.295724 -27.134169, 135.294414 -27.130587, 135.293103 -27.127006, 135.291793 -27.123424, 135.290483 -27.119842, 135.289172 -27.116260, 135.287862 -27.112678, 135.286552 -27.109096, 135.285242 -27.105514, 135.283933 -27.101932, 135.282623 -27.098350, 135.281313 -27.094768, 135.280003 -27.091186, 135.278694 -27.087604, 135.277385 -27.084022, 135.276075 -27.080440, 135.274766 -27.076858, 135.273457 -27.073276, 135.272148 -27.069694, 135.270839 -27.066112, 135.269530 -27.062530, 135.268221 -27.058948, 135.266912 -27.055366, 135.265603 -27.051784, 135.264295 -27.048202, 135.262986 -27.044619, 135.261678 -27.041037, 135.260369 -27.037455, 135.259061 -27.033873, 135.257753 -27.030291, 135.256445 -27.026709, 135.255137 -27.023126, 135.253829 -27.019544, 135.252521 -27.015962, 135.251213 -27.012380, 135.249906 -27.008797, 135.248598 -27.005215, 135.247290 -27.001633, 135.245983 -26.998051, 135.244676 -26.994468, 135.243368 -26.990886, 135.242061 -26.987304, 135.240754 -26.983721, 135.239447 -26.980139, 135.238140 -26.976556, 135.236833 -26.972974, 135.235527 -26.969392, 135.234220 -26.965809, 135.232913 -26.962227, 135.231607 -26.958644, 135.230300 -26.955062, 135.228994 -26.951480, 135.227688 -26.947897, 135.226381 -26.944315, 135.225075 -26.940732, 135.223769 -26.937150, 135.222463 -26.933567, 135.221158 -26.929985, 135.219852 -26.926402, 135.218546 -26.922820, 135.217240 -26.919237, 135.215935 -26.915654, 135.214629 -26.912072, 135.213324 -26.908489, 135.212019 -26.904907, 135.210714 -26.901324, 135.209409 -26.897741, 135.208104 -26.894159, 135.206799 -26.890576, 135.205494 -26.886993, 135.204189 -26.883411, 135.202884 -26.879828, 135.201580 -26.876245, 135.200275 -26.872663, 135.198971 -26.869080, 135.197666 -26.865497, 135.196362 -26.861914, 135.195058 -26.858332, 135.193754 -26.854749, 135.192450 -26.851166, 135.191146 -26.847583, 135.189842 -26.844000, 135.188538 -26.840418, 135.187234 -26.836835, 135.185931 -26.833252, 135.184627 -26.829669, 135.183324 -26.826086, 135.182020 -26.822503, 135.180717 -26.818920, 135.179414 -26.815337, 135.178111 -26.811755, 135.176808 -26.808172, 135.175505 -26.804589, 135.174202 -26.801006, 135.172899 -26.797423, 135.171596 -26.793840, 135.170294 -26.790257, 135.168991 -26.786674, 135.167689 -26.783091, 135.166386 -26.779508, 135.165084 -26.775925, 135.163782 -26.772342, 135.162480 -26.768759, 135.161178 -26.765175, 135.159876 -26.761592, 135.158574 -26.758009, 135.157272 -26.754426, 135.155970 -26.750843, 135.154668 -26.747260, 135.153367 -26.743677, 135.152065 -26.740094, 135.150764 -26.736510, 135.149463 -26.732927, 135.148161 -26.729344, 135.146860 -26.725761, 135.145559 -26.722178, 135.144258 -26.718594, 135.142957 -26.715011, 135.141656 -26.711428, 135.140356 -26.707845, 135.139055 -26.704261, 135.137754 -26.700678, 135.136454 -26.697095, 135.135154 -26.693511, 135.133853 -26.689928, 135.132553 -26.686345, 135.131253 -26.682761, 135.129953 -26.679178, 135.128653 -26.675595, 135.127353 -26.672011, 135.126053 -26.668428, 135.124753 -26.664845, 135.123453 -26.661261, 135.122154 -26.657678, 135.120854 -26.654094, 135.119555 -26.650511, 135.118256 -26.646927, 135.116956 -26.643344, 135.115657 -26.639760, 135.114358 -26.636177, 135.113059 -26.632593, 135.111760 -26.629010, 135.110461 -26.625426, 135.109162 -26.621843, 135.107864 -26.618259, 135.106565 -26.614676, 135.105266 -26.611092, 135.103968 -26.607508, 135.102670 -26.603925, 135.101371 -26.600341, 135.100073 -26.596758, 135.098775 -26.593174, 135.097477 -26.589590, 135.096179 -26.586007, 135.094881 -26.582423, 135.093583 -26.578839, 135.092285 -26.575256, 135.090988 -26.571672, 135.089690 -26.568088, 135.088393 -26.564504, 135.087095 -26.560921, 135.085798 -26.557337, 135.084501 -26.553753, 135.083204 -26.550169, 135.081907 -26.546585, 135.080610 -26.543002, 135.079313 -26.539418, 135.078016 -26.535834, 135.076719 -26.532250, 135.075422 -26.528666, 135.074126 -26.525082, 135.072829 -26.521499, 135.071533 -26.517915, 135.070236 -26.514331, 135.068940 -26.510747, 135.067644 -26.507163, 135.066348 -26.503579, 135.065052 -26.499995, 135.063756 -26.496411, 135.062460 -26.492827, 135.061164 -26.489243, 135.059869 -26.485659, 135.058573 -26.482075, 135.057277 -26.478491, 135.055982 -26.474907, 135.054687 -26.471323, 135.053391 -26.467739, 135.052096 -26.464155, 135.050801 -26.460571, 135.049506 -26.456987, 135.048211 -26.453403, 135.046916 -26.449819, 135.045621 -26.446234, 135.044326 -26.442650, 135.043032 -26.439066, 135.041737 -26.435482, 135.040443 -26.431898, 135.039148 -26.428314, 135.037854 -26.424729, 135.036560 -26.421145, 135.035266 -26.417561, 135.033971 -26.413977, 135.032677 -26.410393, 135.031383 -26.406808, 135.030090 -26.403224, 135.028796 -26.399640, 135.027502 -26.396055, 135.026209 -26.392471, 135.024915 -26.388887, 135.023622 -26.385303, 135.022328 -26.381718, 135.021035 -26.378134, 135.019742 -26.374549, 135.018449 -26.370965, 135.017156 -26.367381, 135.015863 -26.363796, 135.014570 -26.360212, 135.013277 -26.356628, 135.011984 -26.353043, 135.010691 -26.349459, 135.009399 -26.345874, 135.008106 -26.342290, 135.006814 -26.338705, 135.005522 -26.335121, 135.004229 -26.331536, 135.002937 -26.327952, 135.001645 -26.324367, 135.000353 -26.320783, 134.999061 -26.317198, 134.997769 -26.313614, 134.996478 -26.310029, 134.995186 -26.306445, 134.993894 -26.302860, 134.992603 -26.299275, 134.991311 -26.295691, 134.990020 -26.292106, 134.988729 -26.288521, 134.987437 -26.284937, 134.986146 -26.281352, 134.984855 -26.277767, 134.983564 -26.274183, 134.982273 -26.270598, 134.980983 -26.267013, 134.979692 -26.263429, 134.978401 -26.259844, 134.977111 -26.256259, 134.975820 -26.252674, 134.974530 -26.249090, 134.973239 -26.245505, 134.971949 -26.241920, 134.970659 -26.238335, 134.969369 -26.234751, 134.968079 -26.231166, 134.966789 -26.227581, 134.965499 -26.223996, 134.964209 -26.220411, 134.962920 -26.216826, 134.961630 -26.213241, 134.960341 -26.209657, 134.959051 -26.206072, 134.957762 -26.202487, 134.956472 -26.198902, 134.955183 -26.195317, 134.953894 -26.191732, 134.952605 -26.188147, 134.951316 -26.184562, 134.950027 -26.180977, 134.948738 -26.177392, 134.947449 -26.173807, 134.946161 -26.170222, 134.944872 -26.166637, 134.943584 -26.163052, 134.942295 -26.159467, 134.941007 -26.155882, 134.939719 -26.152297, 134.938431 -26.148712, 134.937142 -26.145127, 134.935854 -26.141541, 134.934566 -26.137956, 134.933279 -26.134371, 134.931991 -26.130786, 134.930703 -26.127201, 134.929415 -26.123616, 134.928128 -26.120031, 134.926840 -26.116445, 134.925553 -26.112860, 134.924266 -26.109275, 134.922978 -26.105690, 134.921691 -26.102105, 134.920404 -26.098519, 134.919117 -26.094934, 134.917830 -26.091349, 134.916543 -26.087764, 134.915257 -26.084178, 134.913970 -26.080593, 134.912683 -26.077008, 134.911397 -26.073422, 134.910110 -26.069837, 134.908824 -26.066252, 134.907538 -26.062666, 134.906251 -26.059081, 134.904965 -26.055495, 134.903679 -26.051910, 134.902393 -26.048325, 134.901107 -26.044739, 134.899822 -26.041154, 134.898536 -26.037568, 134.897250 -26.033983, 134.895965 -26.030398, 134.894679 -26.026812, 134.893394 -26.023227, 134.892108 -26.019641, 134.890823 -26.016056, 134.889538 -26.012470, 134.888253 -26.008885, 134.886968 -26.005299, 134.885683 -26.001713, 134.884398 -25.998128, 134.883113 -25.994542, 134.881828 -25.990957, 134.880544 -25.987371, 134.879259 -25.983785, 134.877975 -25.980200, 134.876690 -25.976614, 134.875406 -25.973029, 134.874122 -25.969443, 134.872837 -25.965857, 134.871553 -25.962272, 134.870269 -25.958686, 134.868985 -25.955100, 134.867702 -25.951514, 134.866418 -25.947929, 134.865134 -25.944343, 134.863850 -25.940757, 134.862567 -25.937172, 134.861283 -25.933586, 134.860000 -25.930000, 134.857546 -25.926967, 134.855091 -25.923934, 134.852637 -25.920902, 134.850183 -25.917869, 134.847729 -25.914836, 134.845275 -25.911803, 134.842821 -25.908770, 134.840368 -25.905737, 134.837914 -25.902704, 134.835461 -25.899670, 134.833008 -25.896637, 134.830555 -25.893604, 134.828102 -25.890571, 134.825649 -25.887537, 134.823196 -25.884504, 134.820744 -25.881471, 134.818291 -25.878437, 134.815839 -25.875404, 134.813387 -25.872370, 134.810935 -25.869337, 134.808483 -25.866303, 134.806031 -25.863270, 134.803579 -25.860236, 134.801128 -25.857202, 134.798676 -25.854168, 134.796225 -25.851135, 134.793774 -25.848101, 134.791323 -25.845067, 134.788872 -25.842033, 134.786421 -25.838999, 134.783970 -25.835965, 134.781520 -25.832931, 134.779069 -25.829897, 134.776619 -25.826863, 134.774169 -25.823829, 134.771719 -25.820794, 134.769269 -25.817760, 134.766819 -25.814726, 134.764369 -25.811691, 134.761920 -25.808657, 134.759471 -25.805623, 134.757021 -25.802588, 134.754572 -25.799554, 134.752123 -25.796519, 134.749674 -25.793485, 134.747225 -25.790450, 134.744777 -25.787415, 134.742328 -25.784381, 134.739880 -25.781346, 134.737431 -25.778311, 134.734983 -25.775276, 134.732535 -25.772241, 134.730087 -25.769207, 134.727639 -25.766172, 134.725192 -25.763137, 134.722744 -25.760102, 134.720297 -25.757066, 134.717849 -25.754031, 134.715402 -25.750996, 134.712955 -25.747961, 134.710508 -25.744926, 134.708062 -25.741890, 134.705615 -25.738855, 134.703168 -25.735820, 134.700722 -25.732784, 134.698276 -25.729749, 134.695829 -25.726714, 134.693383 -25.723678, 134.690937 -25.720642, 134.688492 -25.717607, 134.686046 -25.714571, 134.683600 -25.711535, 134.681155 -25.708500, 134.678710 -25.705464, 134.676265 -25.702428, 134.673820 -25.699392, 134.671375 -25.696356, 134.668930 -25.693321, 134.666485 -25.690285, 134.664041 -25.687249, 134.661596 -25.684212, 134.659152 -25.681176, 134.656708 -25.678140, 134.654264 -25.675104, 134.651820 -25.672068, 134.649376 -25.669032, 134.646932 -25.665995, 134.644489 -25.662959, 134.642045 -25.659923, 134.639602 -25.656886, 134.637159 -25.653850, 134.634716 -25.650813, 134.632273 -25.647777, 134.629830 -25.644740, 134.627387 -25.641704, 134.624945 -25.638667, 134.622502 -25.635630, 134.620060 -25.632593, 134.617618 -25.629557, 134.615176 -25.626520, 134.612734 -25.623483, 134.610292 -25.620446, 134.607850 -25.617409, 134.605409 -25.614372, 134.602967 -25.611335, 134.600526 -25.608298, 134.598085 -25.605261, 134.595644 -25.602224, 134.593203 -25.599187, 134.590762 -25.596149, 134.588321 -25.593112, 134.585881 -25.590075, 134.583440 -25.587037, 134.581000 -25.584000, 134.579654 -25.580433, 134.578308 -25.576866, 134.576962 -25.573299, 134.575616 -25.569732, 134.574270 -25.566165, 134.572925 -25.562598, 134.571579 -25.559031, 134.570233 -25.555464, 134.568888 -25.551897, 134.567542 -25.548330, 134.566197 -25.544763, 134.564852 -25.541196, 134.563507 -25.537629, 134.562162 -25.534062, 134.560817 -25.530494, 134.559472 -25.526927, 134.558127 -25.523360, 134.556782 -25.519793, 134.555438 -25.516226, 134.554093 -25.512659, 134.552748 -25.509091, 134.551404 -25.505524, 134.550060 -25.501957, 134.548715 -25.498390, 134.547371 -25.494823, 134.546027 -25.491255, 134.544683 -25.487688, 134.543339 -25.484121, 134.541995 -25.480553, 134.540651 -25.476986, 134.539308 -25.473419, 134.537964 -25.469851, 134.536620 -25.466284, 134.535277 -25.462717, 134.533934 -25.459149, 134.532590 -25.455582, 134.531247 -25.452015, 134.529904 -25.448447, 134.528561 -25.444880, 134.527218 -25.441312, 134.525875 -25.437745, 134.524532 -25.434177, 134.523189 -25.430610, 134.521847 -25.427042, 134.520504 -25.423475, 134.519161 -25.419907, 134.517819 -25.416340, 134.516477 -25.412772, 134.515134 -25.409205, 134.513792 -25.405637, 134.512450 -25.402070, 134.511108 -25.398502, 134.509766 -25.394935, 134.508424 -25.391367, 134.507082 -25.387799, 134.505741 -25.384232, 134.504399 -25.380664, 134.503057 -25.377096, 134.501716 -25.373529, 134.500374 -25.369961, 134.499033 -25.366393, 134.497692 -25.362826, 134.496351 -25.359258, 134.495010 -25.355690, 134.493669 -25.352123, 134.492328 -25.348555, 134.490987 -25.344987, 134.489646 -25.341419, 134.488305 -25.337852, 134.486965 -25.334284, 134.485624 -25.330716, 134.484284 -25.327148, 134.482943 -25.323580, 134.481603 -25.320012, 134.480263 -25.316445, 134.478923 -25.312877, 134.477583 -25.309309, 134.476243 -25.305741, 134.474903 -25.302173, 134.473563 -25.298605, 134.472223 -25.295037, 134.470883 -25.291469, 134.469544 -25.287901, 134.468204 -25.284333, 134.466865 -25.280765, 134.465526 -25.277197, 134.464186 -25.273629, 134.462847 -25.270061, 134.461508 -25.266493, 134.460169 -25.262925, 134.458830 -25.259357, 134.457491 -25.255789, 134.456152 -25.252221, 134.454813 -25.248653, 134.453475 -25.245085, 134.452136 -25.241517, 134.450798 -25.237949, 134.449459 -25.234381, 134.448121 -25.230812, 134.446783 -25.227244, 134.445445 -25.223676, 134.444106 -25.220108, 134.442768 -25.216540, 134.441431 -25.212971, 134.440093 -25.209403, 134.438755 -25.205835, 134.437417 -25.202267, 134.436080 -25.198699, 134.434742 -25.195130, 134.433405 -25.191562, 134.432067 -25.187994, 134.430730 -25.184425, 134.429393 -25.180857, 134.428055 -25.177289, 134.426718 -25.173720, 134.425381 -25.170152, 134.424044 -25.166584, 134.422708 -25.163015, 134.421371 -25.159447, 134.420034 -25.155879, 134.418697 -25.152310, 134.417361 -25.148742, 134.416024 -25.145173, 134.414688 -25.141605, 134.413352 -25.138036, 134.412016 -25.134468, 134.410679 -25.130899, 134.409343 -25.127331, 134.408007 -25.123762, 134.406671 -25.120194, 134.405336 -25.116625, 134.404000 -25.113057, 134.402664 -25.109488, 134.401329 -25.105920, 134.399993 -25.102351, 134.398658 -25.098783, 134.397322 -25.095214, 134.395987 -25.091645, 134.394652 -25.088077, 134.393317 -25.084508, 134.391982 -25.080939, 134.390647 -25.077371, 134.389312 -25.073802, 134.387977 -25.070233, 134.386642 -25.066665, 134.385308 -25.063096, 134.383973 -25.059527, 134.382638 -25.055958, 134.381304 -25.052390, 134.379970 -25.048821, 134.378635 -25.045252, 134.377301 -25.041683, 134.375967 -25.038115, 134.374633 -25.034546, 134.373299 -25.030977, 134.371965 -25.027408, 134.370631 -25.023839, 134.369298 -25.020271, 134.367964 -25.016702, 134.366630 -25.013133, 134.365297 -25.009564, 134.363964 -25.005995, 134.362630 -25.002426, 134.361297 -24.998857, 134.359964 -24.995288, 134.358631 -24.991719, 134.357298 -24.988150, 134.355965 -24.984581, 134.354632 -24.981012, 134.353299 -24.977443, 134.351966 -24.973874, 134.350634 -24.970305, 134.349301 -24.966736, 134.347969 -24.963167, 134.346636 -24.959598, 134.345304 -24.956029, 134.343972 -24.952460, 134.342639 -24.948891, 134.341307 -24.945322, 134.339975 -24.941753, 134.338643 -24.938184, 134.337311 -24.934614, 134.335980 -24.931045, 134.334648 -24.927476, 134.333316 -24.923907, 134.331985 -24.920338, 134.330653 -24.916769, 134.329322 -24.913199, 134.327990 -24.909630, 134.326659 -24.906061, 134.325328 -24.902492, 134.323997 -24.898922, 134.322666 -24.895353, 134.321335 -24.891784, 134.320004 -24.888215, 134.318673 -24.884645, 134.317343 -24.881076, 134.316012 -24.877507, 134.314681 -24.873937, 134.313351 -24.870368, 134.312020 -24.866799, 134.310690 -24.863229, 134.309360 -24.859660, 134.308030 -24.856090, 134.306700 -24.852521, 134.305370 -24.848952, 134.304040 -24.845382, 134.302710 -24.841813, 134.301380 -24.838243, 134.300050 -24.834674, 134.298721 -24.831104, 134.297391 -24.827535, 134.296061 -24.823965, 134.294732 -24.820396, 134.293403 -24.816826, 134.292073 -24.813257, 134.290744 -24.809687, 134.289415 -24.806118, 134.288086 -24.802548, 134.286757 -24.798978, 134.285428 -24.795409, 134.284100 -24.791839, 134.282771 -24.788270, 134.281442 -24.784700, 134.280114 -24.781130, 134.278785 -24.777561, 134.277457 -24.773991, 134.276128 -24.770421, 134.274800 -24.766852, 134.273472 -24.763282, 134.272144 -24.759712, 134.270816 -24.756143, 134.269488 -24.752573, 134.268160 -24.749003, 134.266832 -24.745433, 134.265504 -24.741864, 134.264177 -24.738294, 134.262849 -24.734724, 134.261522 -24.731154, 134.260194 -24.727584, 134.258867 -24.724014, 134.257540 -24.720445, 134.256212 -24.716875, 134.254885 -24.713305, 134.253558 -24.709735, 134.252231 -24.706165, 134.250904 -24.702595, 134.249577 -24.699025, 134.248251 -24.695455, 134.246924 -24.691885, 134.245597 -24.688315, 134.244271 -24.684746, 134.242945 -24.681176, 134.241618 -24.677606, 134.240292 -24.674036, 134.238966 -24.670466, 134.237640 -24.666896, 134.236313 -24.663326, 134.234988 -24.659755, 134.233662 -24.656185, 134.232336 -24.652615, 134.231010 -24.649045, 134.229684 -24.645475, 134.228359 -24.641905, 134.227033 -24.638335, 134.225708 -24.634765, 134.224382 -24.631195, 134.223057 -24.627625, 134.221732 -24.624054, 134.220407 -24.620484, 134.219082 -24.616914, 134.217757 -24.613344, 134.216432 -24.609774, 134.215107 -24.606203, 134.213782 -24.602633, 134.212457 -24.599063, 134.211133 -24.595493, 134.209808 -24.591922, 134.208484 -24.588352, 134.207159 -24.584782, 134.205835 -24.581212, 134.204511 -24.577641, 134.203187 -24.574071, 134.201863 -24.570501, 134.200539 -24.566930, 134.199215 -24.563360, 134.197891 -24.559790, 134.196567 -24.556219, 134.195243 -24.552649, 134.193920 -24.549078, 134.192596 -24.545508, 134.191273 -24.541938, 134.189949 -24.538367, 134.188626 -24.534797, 134.187303 -24.531226, 134.185979 -24.527656, 134.184656 -24.524085, 134.183333 -24.520515, 134.182010 -24.516944, 134.180687 -24.513374, 134.179365 -24.509803, 134.178042 -24.506233, 134.176719 -24.502662, 134.175397 -24.499092, 134.174074 -24.495521, 134.172752 -24.491950, 134.171429 -24.488380, 134.170107 -24.484809, 134.168785 -24.481239, 134.167463 -24.477668, 134.166141 -24.474097, 134.164819 -24.470527, 134.163497 -24.466956, 134.162175 -24.463385, 134.160853 -24.459815, 134.159531 -24.456244, 134.158210 -24.452673, 134.156888 -24.449103, 134.155567 -24.445532, 134.154245 -24.441961, 134.152924 -24.438390, 134.151603 -24.434820, 134.150282 -24.431249, 134.148961 -24.427678, 134.147640 -24.424107, 134.146319 -24.420536, 134.144998 -24.416965, 134.143677 -24.413395, 134.142356 -24.409824, 134.141036 -24.406253, 134.139715 -24.402682, 134.138395 -24.399111, 134.137074 -24.395540, 134.135754 -24.391969, 134.134434 -24.388398, 134.133113 -24.384828, 134.131793 -24.381257, 134.130473 -24.377686, 134.129153 -24.374115, 134.127833 -24.370544, 134.126514 -24.366973, 134.125194 -24.363402, 134.123874 -24.359831, 134.122555 -24.356260, 134.121235 -24.352689, 134.119916 -24.349118, 134.118596 -24.345547, 134.117277 -24.341975, 134.115958 -24.338404, 134.114639 -24.334833, 134.113320 -24.331262, 134.112001 -24.327691, 134.110682 -24.324120, 134.109363 -24.320549, 134.108044 -24.316978, 134.106725 -24.313407, 134.105407 -24.309835, 134.104088 -24.306264, 134.102770 -24.302693, 134.101451 -24.299122, 134.100133 -24.295551, 134.098815 -24.291979, 134.097496 -24.288408, 134.096178 -24.284837, 134.094860 -24.281266, 134.093542 -24.277694, 134.092224 -24.274123, 134.090907 -24.270552, 134.089589 -24.266980, 134.088271 -24.263409, 134.086954 -24.259838, 134.085636 -24.256266, 134.084319 -24.252695, 134.083001 -24.249124, 134.081684 -24.245552, 134.080367 -24.241981, 134.079050 -24.238410, 134.077733 -24.234838, 134.076416 -24.231267, 134.075099 -24.227695, 134.073782 -24.224124, 134.072465 -24.220552, 134.071148 -24.216981, 134.069832 -24.213409, 134.068515 -24.209838, 134.067199 -24.206266, 134.065882 -24.202695, 134.064566 -24.199123, 134.063250 -24.195552, 134.061934 -24.191980, 134.060617 -24.188409, 134.059301 -24.184837, 134.057985 -24.181266, 134.056670 -24.177694, 134.055354 -24.174122, 134.054038 -24.170551, 134.052722 -24.166979, 134.051407 -24.163408, 134.050091 -24.159836, 134.048776 -24.156264, 134.047460 -24.152693, 134.046145 -24.149121, 134.044830 -24.145549, 134.043515 -24.141978, 134.042200 -24.138406, 134.040885 -24.134834, 134.039570 -24.131262, 134.038255 -24.127691, 134.036940 -24.124119, 134.035625 -24.120547, 134.034311 -24.116975, 134.032996 -24.113404, 134.031682 -24.109832, 134.030367 -24.106260, 134.029053 -24.102688, 134.027739 -24.099116, 134.026424 -24.095544, 134.025110 -24.091973, 134.023796 -24.088401, 134.022482 -24.084829, 134.021168 -24.081257, 134.019854 -24.077685, 134.018541 -24.074113, 134.017227 -24.070541, 134.015913 -24.066969, 134.014600 -24.063397, 134.013286 -24.059825, 134.011973 -24.056253, 134.010660 -24.052681, 134.009346 -24.049109, 134.008033 -24.045537, 134.006720 -24.041965, 134.005407 -24.038393, 134.004094 -24.034821, 134.002781 -24.031249, 134.001468 -24.027677, 134.000156 -24.024105, 133.998843 -24.020533, 133.997530 -24.016961, 133.996218 -24.013389, 133.994906 -24.009817, 133.993593 -24.006245, 133.992281 -24.002672, 133.990969 -23.999100, 133.989656 -23.995528, 133.988344 -23.991956, 133.987032 -23.988384, 133.985720 -23.984812, 133.984409 -23.981239, 133.983097 -23.977667, 133.981785 -23.974095, 133.980473 -23.970523, 133.979162 -23.966950, 133.977850 -23.963378, 133.976539 -23.959806, 133.975228 -23.956234, 133.973916 -23.952661, 133.972605 -23.949089, 133.971294 -23.945517, 133.969983 -23.941944, 133.968672 -23.938372, 133.967361 -23.934800, 133.966050 -23.931227, 133.964739 -23.927655, 133.963429 -23.924083, 133.962118 -23.920510, 133.960807 -23.916938, 133.959497 -23.913365, 133.958187 -23.909793, 133.956876 -23.906220, 133.955566 -23.902648, 133.954256 -23.899076, 133.952946 -23.895503, 133.951636 -23.891931, 133.950326 -23.888358, 133.949016 -23.884786, 133.947706 -23.881213, 133.946396 -23.877641, 133.945086 -23.874068, 133.943777 -23.870495, 133.942467 -23.866923, 133.941158 -23.863350, 133.939848 -23.859778, 133.938539 -23.856205, 133.937230 -23.852633, 133.935921 -23.849060, 133.934612 -23.845487, 133.933302 -23.841915, 133.931994 -23.838342, 133.930685 -23.834769, 133.929376 -23.831197, 133.928067 -23.827624, 133.926758 -23.824051, 133.925450 -23.820479, 133.924141 -23.816906, 133.922833 -23.813333, 133.921524 -23.809760, 133.920216 -23.806188, 133.918908 -23.802615, 133.917600 -23.799042, 133.916292 -23.795469, 133.914984 -23.791897, 133.913676 -23.788324, 133.912368 -23.784751, 133.911060 -23.781178, 133.909752 -23.777605, 133.908444 -23.774032, 133.907137 -23.770460, 133.905829 -23.766887, 133.904522 -23.763314, 133.903215 -23.759741, 133.901907 -23.756168, 133.900600 -23.752595, 133.899293 -23.749022, 133.897986 -23.745449, 133.896679 -23.741876, 133.895372 -23.738303, 133.894065 -23.734730, 133.892758 -23.731157, 133.891451 -23.727584, 133.890145 -23.724011, 133.888838 -23.720438, 133.887532 -23.716865, 133.886225 -23.713292, 133.884919 -23.709719, 133.883612 -23.706146, 133.882306 -23.702573, 133.881000 -23.699000)
