LINESTRING (-0.113000 51.503000, -0.114081 51.502080, -0.115161 51.501160, -0.116241 51.500240, -0.117322 51.499320, -0.118402 51.498400, -0.119482 51.497481, -0.120563 51.496561, -0.121643 51.495641, -0.122723 51.494721, -0.123803 51.493801, -0.124883 51.492881, -0.125963 51.491961, -0.127043 51.491041, -0.128123 51.490121, -0.129203 51.489201, -0.130283 51.488281, -0.131363 51.487361, -0.132443 51.486441, -0.133522 51.485521, -0.134602 51.484600, -0.135682 51.483680, -0.136761 51.482760, -0.137841 51.481840, -0.138921 51.480920, -0.140000 51.480000, -0.138750 51.479150, -0.137499 51.478300, -0.136249 51.477450, -0.134999 51.476600, -0.133748 51.475750, -0.132498 51.474901, -0.131248 51.474051, -0.129998 51.473201, -0.128748 51.472351, -0.127498 51.471501, -0.126248 51.470651, -0.124998 51.469801, -0.123748 51.468951, -0.122498 51.468101, -0.121248 51.467250, -0.119999 51.466400, -0.118749 51.465550, -0.117499 51.464700, -0.116250 51.463850, -0.115000 51.463000, -0.113818 51.462091, -0.112636 51.461182, -0.111454 51.460273, -0.110272 51.459364, -0.109090 51.458455, -0.107908 51.457546, -0.106727 51.456637, -0.105545 51.455727, -0.104363 51.454818, -0.103182 51.453909, -0.102000 51.453000, -0.100460 51.452321, -0.098920 51.451643, -0.097379 51.450964, -0.095839 51.450285, -0.094299 51.449606, -0.092759 51.448927, -0.091219 51.448249, -0.089679 51.447570, -0.088140 51.446891, -0.086600 51.446212, -0.085060 51.445533, -0.083520 51.444854, -0.081981 51.444175, -0.080441 51.443496, -0.078901 51.442817, -0.077362 51.442138, -0.075822 51.441459, -0.074283 51.440780, -0.072744 51.440101, -0.071204 51.439422, -0.069665 51.438743, -0.068126 51.438064, -0.066586 51.437385, -0.065047 51.436705, -0.063508 51.436026, -0.061969 51.435347, -0.060430 51.434668, -0.058891 51.433988, -0.057352 51.433309, -0.055813 51.432630, -0.054274 51.431951, -0.052736 51.431271, -0.051197 51.430592, -0.049658 51.429912, -0.048119 51.429233, -0.046581 51.428554, -0.045042 51.427874, -0.043504 51.427195, -0.041965 51.426515, -0.040427 51.425836, -0.038888 51.425156, -0.037350 51.424477, -0.035812 51.423797, -0.034273 51.423118, -0.032735 51.422438, -0.031197 51.421758, -0.029659 51.421079, -0.028121 51.420399, -0.026583 51.419719, -0.025045 51.419040, -0.023507 51.418360, -0.021969 51.417680, -0.020431 51.417001, -0.018893 51.416321, -0.017356 51.415641, -0.015818 51.414961, -0.014280 51.414281, -0.012743 51.413601, -0.011205 51.412922, -0.009668 51.412242, -0.008130 51.411562, -0.006593 51.410882, -0.005055 51.410202, -0.003518 51.409522, -0.001981 51.408842, -0.000443 51.408162, 0.001094 51.407482, 0.002631 51.406802, 0.004168 51.406122, 0.005705 51.405442, 0.007242 51.404761, 0.008779 51.404081, 0.010316 51.403401, 0.011853 51.402721, 0.013390 51.402041, 0.014927 51.401361, 0.016463 51.400680, 0.018000 51.400000, 0.019579 51.399400, 0.021157 51.398801, 0.022736 51.398201, 0.024315 51.397602, 0.025893 51.397002, 0.027472 51.396402, 0.029050 51.395803, 0.030628 51.395203, 0.032207 51.394603, 0.033785 51.394004, 0.035363 51.393404, 0.036942 51.392804, 0.038520 51.392204, 0.040098 51.391605, 0.041676 51.391005, 0.043254 51.390405, 0.044832 51.389805, 0.046410 51.389205, 0.047988 51.388605, 0.049566 51.388005, 0.051144 51.387405, 0.052722 51.386805, 0.054299 51.386205, 0.055877 51.385605, 0.057455 51.385005, 0.059032 51.384405, 0.060610 51.383805, 0.062188 51.383205, 0.063765 51.382605, 0.065343 51.382005, 0.066920 51.381405, 0.068497 51.380804, 0.070075 51.380204, 0.071652 51.379604, 0.073229 51.379004, 0.074807 51.378403, 0.076384 51.377803, 0.077961 51.377203, 0.079538 51.376602, 0.081115 51.376002, 0.082692 51.375402, 0.084269 51.374801, 0.085846 51.374201, 0.087423 51.373600, 0.089000 51.373000, 0.089971 51.372000, 0.090941 51.371001, 0.091912 51.370001, 0.092883 51.369001, 0.093853 51.368002, 0.094824 51.367002, 0.095794 51.366002, 0.096765 51.365003, 0.097735 51.364003, 0.098706 51.363003, 0.099676 51.362004, 0.100646 51.361004, 0.101617 51.360004, 0.102587 51.359005, 0.103557 51.358005, 0.104527 51.357005, 0.105497 51.356005, 0.106467 51.355006, 0.107437 51.354006, 0.108407 51.353006, 0.109377 51.352006, 0.110347 51.351007, 0.111317 51.350007, 0.112287 51.349007, 0.113256 51.348007, 0.114226 51.347007, 0.115196 51.346007, 0.116165 51.345008, 0.117135 51.344008, 0.118104 51.343008, 0.119074 51.342008, 0.120043 51.341008, 0.121013 51.340008, 0.121982 51.339008, 0.122951 51.338009, 0.123921 51.337009, 0.124890 51.336009, 0.125859 51.335009, 0.126828 51.334009, 0.127797 51.333009, 0.128766 51.332009, 0.129735 51.331009, 0.130704 51.330009, 0.131673 51.329009, 0.132642 51.328009, 0.133611 51.327009, 0.134580 51.326009, 0.135549 51.325009, 0.136517 51.324009, 0.137486 51.323009, 0.138455 51.322009, 0.139423 51.321009, 0.140392 51.320009, 0.141360 51.319009, 0.142329 51.318009, 0.143297 51.317009, 0.144266 51.316009, 0.145234 51.315009, 0.146202 51.314009, 0.147171 51.313009, 0.148139 51.312009, 0.149107 51.311008, 0.150075 51.310008, 0.151043 51.309008, 0.152011 51.308008, 0.152979 51.307008, 0.153947 51.306008, 0.154915 51.305008, 0.155883 51.304007, 0.156851 51.303007, 0.157819 51.302007, 0.158786 51.301007, 0.159754 51.300007, 0.160722 51.299007, 0.161689 51.298006, 0.162657 51.297006, 0.163625 51.296006, 0.164592 51.295006, 0.165560 51.294005, 0.166527 51.293005, 0.167494 51.292005, 0.168462 51.291005, 0.169429 51.290004, 0.170396 51.289004, 0.171363 51.288004, 0.172331 51.287003, 0.173298 51.286003, 0.174265 51.285003, 0.175232 51.284002, 0.176199 51.283002, 0.177166 51.282002, 0.178133 51.281001, 0.179100 51.280001, 0.180066 51.279001, 0.181033 51.278000, 0.182000 51.277000, 0.183047 51.276034, 0.184095 51.275069, 0.185142 51.274103, 0.186189 51.273138, 0.187236 51.272172, 0.188284 51.271207, 0.189331 51.270241, 0.190378 51.269276, 0.191425 51.268310, 0.192472 51.267345, 0.193519 51.266379, 0.194565 51.265413, 0.195612 51.264448, 0.196659 51.263482, 0.197706 51.262516, 0.198753 51.261551, 0.199799 51.260585, 0.200846 51.259620, 0.201892 51.258654, 0.202939 51.257688, 0.203985 51.256722, 0.205032 51.255757, 0.206078 51.254791, 0.207125 51.253825, 0.208171 51.252860, 0.209217 51.251894, 0.210263 51.250928, 0.211310 51.249962, 0.212356 51.248997, 0.213402 51.248031, 0.214448 51.247065, 0.215494 51.246099, 0.216540 51.245133, 0.217586 51.244168, 0.218632 51.243202, 0.219677 51.242236, 0.220723 51.241270, 0.221769 51.240304, 0.222815 51.239338, 0.223860 51.238373, 0.224906 51.237407, 0.225951 51.236441, 0.226997 51.235475, 0.228042 51.234509, 0.229088 51.233543, 0.230133 51.232577, 0.231179 51.231611, 0.232224 51.230645, 0.233269 51.229679, 0.234314 51.228713, 0.235360 51.227747, 0.236405 51.226781, 0.237450 51.225815, 0.238495 51.224849, 0.239540 51.223883, 0.240585 51.222917, 0.241630 51.221951, 0.242675 51.220985, 0.243719 51.220019, 0.244764 51.219053, 0.245809 51.218087, 0.246854 51.217121, 0.247898 51.216155, 0.248943 51.215189, 0.249987 51.214223, 0.251032 51.213257, 0.252076 51.212291, 0.253121 51.211325, 0.254165 51.210358, 0.255209 51.209392, 0.256254 51.208426, 0.257298 51.207460, 0.258342 51.206494, 0.259386 51.205528, 0.260430 51.204561, 0.261475 51.203595, 0.262519 51.202629, 0.263563 51.201663, 0.264607 51.200696, 0.265650 51.199730, 0.266694 51.198764, 0.267738 51.197798, 0.268782 51.196831, 0.269826 51.195865, 0.270869 51.194899, 0.271913 51.193933, 0.272956 51.192966, 0.274000 51.192000, 0.275855 51.191856, 0.277710 51.191711, 0.279566 51.191567, 0.281421 51.191423, 0.283276 51.191278, 0.285131 51.191134, 0.286986 51.190990, 0.288841 51.190845, 0.290696 51.190701, 0.292551 51.190556, 0.294406 51.190411, 0.296262 51.190267, 0.298117 51.190122, 0.299972 51.189978, 0.301827 51.189833, 0.303682 51.189688, 0.305537 51.189543, 0.307392 51.189399, 0.309247 51.189254, 0.311102 51.189109, 0.312957 51.188964, 0.314812 51.188819, 0.316667 51.188674, 0.318521 51.188530, 0.320376 51.188385, 0.322231 51.188240, 0.324086 51.188095, 0.325941 51.187949, 0.327796 51.187804, 0.329651 51.187659, 0.331506 51.187514, 0.333360 51.187369, 0.335215 51.187224, 0.337070 51.187078, 0.338925 51.186933, 0.340780 51.186788, 0.342634 51.186643, 0.344489 51.186497, 0.346344 51.186352, 0.348199 51.186206, 0.350053 51.186061, 0.351908 51.185916, 0.353763 51.185770, 0.355618 51.185625, 0.357472 51.185479, 0.359327 51.185333, 0.361182 51.185188, 0.363036 51.185042, 0.364891 51.184896, 0.366745 51.184751, 0.368600 51.184605, 0.370455 51.184459, 0.372309 51.184313, 0.374164 51.184168, 0.376018 51.184022, 0.377873 51.183876, 0.379727 51.183730, 0.381582 51.183584, 0.383437 51.183438, 0.385291 51.183292, 0.387146 51.183146, 0.389000 51.183000, 0.390860 51.182869, 0.392720 51.182738, 0.394580 51.182607, 0.396440 51.182476, 0.398300 51.182345, 0.400160 51.182214, 0.402020 51.182083, 0.403880 51.181952, 0.405740 51.181820, 0.407600 51.181689, 0.409460 51.181558, 0.411320 51.181427, 0.413180 51.181295, 0.415040 51.181164, 0.416900 51.181033, 0.418760 51.180901, 0.420619 51.180770, 0.422479 51.180639, 0.424339 51.180507, 0.426199 51.180376, 0.428059 51.180244, 0.429919 51.180112, 0.431779 51.179981, 0.433638 51.179849, 0.435498 51.179718, 0.437358 51.179586, 0.439218 51.179454, 0.441077 51.179323, 0.442937 51.179191, 0.444797 51.179059, 0.446657 51.178927, 0.448516 51.178795, 0.450376 51.178663, 0.452236 51.178531, 0.454096 51.178400, 0.455955 51.178268, 0.457815 51.178136, 0.459675 51.178004, 0.461534 51.177871, 0.463394 51.177739, 0.465253 51.177607, 0.467113 51.177475, 0.468973 51.177343, 0.470832 51.177211, 0.472692 51.177078, 0.474551 51.176946, 0.476411 51.176814, 0.478271 51.176682, 0.480130 51.176549, 0.481990 51.176417, 0.483849 51.176284, 0.485709 51.176152, 0.487568 51.176020, 0.489428 51.175887, 0.491287 51.175754, 0.493147 51.175622, 0.495006 51.175489, 0.496865 51.175357, 0.498725 51.175224, 0.500584 51.175091, 0.502444 51.174959, 0.504303 51.174826, 0.506163 51.174693, 0.508022 51.174560, 0.509881 51.174428, 0.511741 51.174295, 0.513600 51.174162, 0.515459 51.174029, 0.517319 51.173896, 0.519178 51.173763, 0.521037 51.173630, 0.522897 51.173497, 0.524756 51.173364, 0.526615 51.173231, 0.528474 51.173098, 0.530334 51.172964, 0.532193 51.172831, 0.534052 51.172698, 0.535911 51.172565, 0.537771 51.172432, 0.539630 51.172298, 0.541489 51.172165, 0.543348 51.172032, 0.545207 51.171898, 0.547066 51.171765, 0.548926 51.171631, 0.550785 51.171498, 0.552644 51.171364, 0.554503 51.171231, 0.556362 51.171097, 0.558221 51.170964, 0.560080 51.170830, 0.561939 51.170696, 0.563798 51.170563, 0.565657 51.170429, 0.567516 51.170295, 0.569376 51.170161, 0.571235 51.170028, 0.573094 51.169894, 0.574953 51.169760, 0.576812 51.169626, 0.578670 51.169492, 0.580529 51.169358, 0.582388 51.169224, 0.584247 51.169090, 0.586106 51.168956, 0.587965 51.168822, 0.589824 51.168688, 0.591683 51.168554, 0.593542 51.168420, 0.595401 51.168286, 0.597260 51.168151, 0.599118 51.168017, 0.600977 51.167883, 0.602836 51.167749, 0.604695 51.167614, 0.606554 51.167480, 0.608413 51.167346, 0.610271 51.167211, 0.612130 51.167077, 0.613989 51.166942, 0.615848 51.166808, 0.617706 51.166673, 0.619565 51.166539, 0.621424 51.166404, 0.623283 51.166269, 0.625141 51.166135, 0.627000 51.166000, 0.628858 51.165829, 0.630716 51.165658, 0.632574 51.165487, 0.634432 51.165316, 0.636290 51.165145, 0.638148 51.164974, 0.640006 51.164802, 0.641864 51.164631, 0.643722 51.164460, 0.645580 51.164289, 0.647438 51.164117, 0.649296 51.163946, 0.651154 51.163775, 0.653012 51.163603, 0.654869 51.163432, 0.656727 51.163261, 0.658585 51.163089, 0.660443 51.162918, 0.662301 51.162746, 0.664159 51.162575, 0.666016 51.162403, 0.667874 51.162231, 0.669732 51.162060, 0.671590 51.161888, 0.673447 51.161716, 0.675305 51.161545, 0.677163 51.161373, 0.679020 51.161201, 0.680878 51.161029, 0.682736 51.160857, 0.684593 51.160686, 0.686451 51.160514, 0.688309 51.160342, 0.690166 51.160170, 0.692024 51.159998, 0.693881 51.159826, 0.695739 51.159654, 0.697597 51.159482, 0.699454 51.159310, 0.701312 51.159137, 0.703169 51.158965, 0.705027 51.158793, 0.706884 51.158621, 0.708742 51.158449, 0.710599 51.158276, 0.712456 51.158104, 0.714314 51.157932, 0.716171 51.157759, 0.718029 51.157587, 0.719886 51.157414, 0.721743 51.157242, 0.723601 51.157069, 0.725458 51.156897, 0.727315 51.156724, 0.729173 51.156552, 0.731030 51.156379, 0.732887 51.156207, 0.734745 51.156034, 0.736602 51.155861, 0.738459 51.155688, 0.740316 51.155516, 0.742173 51.155343, 0.744031 51.155170, 0.745888 51.154997, 0.747745 51.154824, 0.749602 51.154651, 0.751459 51.154479, 0.753316 51.154306, 0.755174 51.154133, 0.757031 51.153960, 0.758888 51.153787, 0.760745 51.153613, 0.762602 51.153440, 0.764459 51.153267, 0.766316 51.153094, 0.768173 51.152921, 0.770030 51.152748, 0.771887 51.152574, 0.773744 51.152401, 0.775601 51.152228, 0.777458 51.152054, 0.779315 51.151881, 0.781172 51.151708, 0.783029 51.151534, 0.784886 51.151361, 0.786742 51.151187, 0.788599 51.151014, 0.790456 51.150840, 0.792313 51.150667, 0.794170 51.150493, 0.796027 51.150319, 0.797883 51.150146, 0.799740 51.149972, 0.801597 51.149798, 0.803454 51.149624, 0.805310 51.149451, 0.807167 51.149277, 0.809024 51.149103, 0.810881 51.148929, 0.812737 51.148755, 0.814594 51.148581, 0.816451 51.148407, 0.818307 51.148233, 0.820164 51.148059, 0.822021 51.147885, 0.823877 51.147711, 0.825734 51.147537, 0.827590 51.147363, 0.829447 51.147189, 0.831303 51.147015, 0.833160 51.146840, 0.835016 51.146666, 0.836873 51.146492, 0.838729 51.146318, 0.840586 51.146143, 0.842442 51.145969, 0.844299 51.145794, 0.846155 51.145620, 0.848012 51.145446, 0.849868 51.145271, 0.851724 51.145097, 0.853581 51.144922, 0.855437 51.144747, 0.857294 51.144573, 0.859150 51.144398, 0.861006 51.144223, 0.862862 51.144049, 0.864719 51.143874, 0.866575 51.143699, 0.868431 51.143525, 0.870288 51.143350, 0.872144 51.143175, 0.874000 51.143000, 0.875692 51.142496, 0.877385 51.141992, 0.879077 51.141488, 0.880770 51.140984, 0.882462 51.140480, 0.884154 51.139976, 0.885847 51.139472, 0.887539 51.138967, 0.889231 51.138463, 0.890923 51.137959, 0.892615 51.137455, 0.894308 51.136951, 0.896000 51.136446, 0.897692 51.135942, 0.899384 51.135438, 0.901076 51.134933, 0.902767 51.134429, 0.904459 51.133925, 0.906151 51.133420, 0.907843 51.132916, 0.909535 51.132411, 0.911226 51.131907, 0.912918 51.131402, 0.914610 51.130898, 0.916301 51.130393, 0.917993 51.129888, 0.919684 51.129384, 0.921376 51.128879, 0.923067 51.128375, 0.924759 51.127870, 0.926450 51.127365, 0.928142 51.126860, 0.929833 51.126356, 0.931524 51.125851, 0.933215 51.125346, 0.934907 51.124841, 0.936598 51.124336, 0.938289 51.123831, 0.939980 51.123327, 0.941671 51.122822, 0.943362 51.122317, 0.945053 51.121812, 0.946744 51.121307, 0.948435 51.120802, 0.950126 51.120297, 0.951817 51.119791, 0.953507 51.119286, 0.955198 51.118781, 0.956889 51.118276, 0.958580 51.117771, 0.960270 51.117266, 0.961961 51.116760, 0.963651 51.116255, 0.965342 51.115750, 0.967032 51.115245, 0.968723 51.114739, 0.970413 51.114234, 0.972104 51.113729, 0.973794 51.113223, 0.975484 51.112718, 0.977175 51.112212, 0.978865 51.111707, 0.980555 51.111201, 0.982245 51.110696, 0.983935 51.110190, 0.985625 51.109685, 0.987316 51.109179, 0.989006 51.108674, 0.990696 51.108168, 0.992385 51.107662, 0.994075 51.107157, 0.995765 51.106651, 0.997455 51.106145, 0.999145 51.105639, 1.000835 51.105134, 1.002524 51.104628, 1.004214 51.104122, 1.005904 51.103616, 1.007593 51.103110, 1.009283 51.102604, 1.010972 51.102098, 1.012662 51.101592, 1.014351 51.101086, 1.016041 51.100580, 1.017730 51.100074, 1.019420 51.099568, 1.021109 51.099062, 1.022798 51.098556, 1.024487 51.098050, 1.026177 51.097544, 1.027866 51.097038, 1.029555 51.096531, 1.031244 51.096025, 1.032933 51.095519, 1.034622 51.095013, 1.036311 51.094506, 1.038000 51.094000, 1.039864 51.094046, 1.041727 51.094092, 1.043591 51.094138, 1.045454 51.094184, 1.047318 51.094230, 1.049181 51.094276, 1.051045 51.094322, 1.052909 51.094368, 1.054772 51.094414, 1.056636 51.094460, 1.058499 51.094505, 1.060363 51.094551, 1.062227 51.094597, 1.064090 51.094643, 1.065954 51.094688, 1.067817 51.094734, 1.069681 51.094780, 1.071545 51.094825, 1.073408 51.094871, 1.075272 51.094916, 1.077135 51.094962, 1.078999 51.095007, 1.080863 51.095053, 1.082726 51.095098, 1.084590 51.095143, 1.086454 51.095189, 1.088317 51.095234, 1.090181 51.095279, 1.092045 51.095325, 1.093908 51.095370, 1.095772 51.095415, 1.097636 51.095460, 1.099499 51.095505, 1.101363 51.095550, 1.103227 51.095596, 1.105090 51.095641, 1.106954 51.095686, 1.108818 51.095731, 1.110681 51.095776, 1.112545 51.095821, 1.114409 51.095865, 1.116273 51.095910, 1.118136 51.095955, 1.120000 51.096000, 1.121850 51.095900, 1.123700 51.095801, 1.125550 51.095701, 1.127400 51.095601, 1.129250 51.095501, 1.131100 51.095401, 1.132950 51.095301, 1.134800 51.095201, 1.136650 51.095101, 1.138500 51.095001, 1.140350 51.094901, 1.142200 51.094801, 1.144050 51.094701, 1.145900 51.094601, 1.147750 51.094501, 1.149600 51.094401, 1.151450 51.094301, 1.153300 51.094201, 1.155150 51.094100, 1.157000 51.094000, 1.158728 51.093541, 1.160457 51.093083, 1.162185 51.092624, 1.163913 51.092166, 1.165641 51.091707, 1.167370 51.091248, 1.169098 51.090789, 1.170826 51.090331, 1.172554 51.089872, 1.174282 51.089413, 1.176010 51.088954, 1.177738 51.088495, 1.179466 51.088037, 1.181194 51.087578, 1.182922 51.087119, 1.184650 51.086660, 1.186377 51.086201, 1.188105 51.085742, 1.189833 51.085283, 1.191561 51.084824, 1.193288 51.084365, 1.195016 51.083906, 1.196744 51.083446, 1.198471 51.082987, 1.200199 51.082528, 1.201926 51.082069, 1.203654 51.081610, 1.205381 51.081150, 1.207108 51.080691, 1.208836 51.080232, 1.210563 51.079772, 1.212290 51.079313, 1.214018 51.078854, 1.215745 51.078394, 1.217472 51.077935, 1.219199 51.077475, 1.220926 51.077016, 1.222654 51.076556, 1.224381 51.076097, 1.226108 51.075637, 1.227835 51.075178, 1.229562 51.074718, 1.231288 51.074258, 1.233015 51.073799, 1.234742 51.073339, 1.236469 51.072879, 1.238196 51.072420, 1.239923 51.071960, 1.241649 51.071500, 1.243376 51.071040, 1.245103 51.070580, 1.246829 51.070120, 1.248556 51.069661, 1.250282 51.069201, 1.252009 51.068741, 1.253735 51.068281, 1.255462 51.067821, 1.257188 51.067361, 1.258914 51.066901, 1.260641 51.066441, 1.262367 51.065980, 1.264093 51.065520, 1.265820 51.065060, 1.267546 51.064600, 1.269272 51.064140, 1.270998 51.063680, 1.272724 51.063219, 1.274450 51.062759, 1.276176 51.062299, 1.277902 51.061838, 1.279628 51.061378, 1.281354 51.060918, 1.283080 51.060457, 1.284806 51.059997, 1.286532 51.059536, 1.288257 51.059076, 1.289983 51.058615, 1.291709 51.058155, 1.293435 51.057694, 1.295160 51.057234, 1.296886 51.056773, 1.298611 51.056312, 1.300337 51.055852, 1.302063 51.055391, 1.303788 51.054930, 1.305513 51.054470, 1.307239 51.054009, 1.308964 51.053548, 1.310690 51.053087, 1.312415 51.052626, 1.314140 51.052166, 1.315865 51.051705, 1.317591 51.051244, 1.319316 51.050783, 1.321041 51.050322, 1.322766 51.049861, 1.324491 51.049400, 1.326216 51.048939, 1.327941 51.048478, 1.329666 51.048017, 1.331391 51.047556, 1.333116 51.047094, 1.334841 51.046633, 1.336566 51.046172, 1.338290 51.045711, 1.340015 51.045250, 1.341740 51.044788, 1.343465 51.044327, 1.345189 51.043866, 1.346914 51.043404, 1.348638 51.042943, 1.350363 51.042482, 1.352087 51.042020, 1.353812 51.041559, 1.355536 51.041097, 1.357261 51.040636, 1.358985 51.040174, 1.360709 51.039713, 1.362434 51.039251, 1.364158 51.038790, 1.365882 51.038328, 1.367607 51.037866, 1.369331 51.037405, 1.371055 51.036943, 1.372779 51.036481, 1.374503 51.036019, 1.376227 51.035558, 1.377951 51.035096, 1.379675 51.034634, 1.381399 51.034172, 1.383123 51.033710, 1.384847 51.033248, 1.386571 51.032786, 1.388294 51.032325, 1.390018 51.031863, 1.391742 51.031401, 1.393465 51.030939, 1.395189 51.030476, 1.396913 51.030014, 1.398636 51.029552, 1.400360 51.029090, 1.402083 51.028628, 1.403807 51.028166, 1.405530 51.027704, 1.407254 51.027241, 1.408977 51.026779, 1.410700 51.026317, 1.412424 51.025855, 1.414147 51.025392, 1.415870 51.024930, 1.417594 51.024467, 1.419317 51.024005, 1.421040 51.023543, 1.422763 51.023080, 1.424486 51.022618, 1.426209 51.022155, 1.427932 51.021693, 1.429655 51.021230, 1.431378 51.020767, 1.433101 51.020305, 1.434824 51.019842, 1.436547 51.019380, 1.438269 51.018917, 1.439992 51.018454, 1.441715 51.017991, 1.443438 51.017529, 1.445160 51.017066, 1.446883 51.016603, 1.448605 51.016140, 1.450328 51.015677, 1.452050 51.015214, 1.453773 51.014752, 1.455495 51.014289, 1.457218 51.013826, 1.458940 51.013363, 1.460663 51.012900, 1.462385 51.012437, 1.464107 51.011973, 1.465829 51.011510, 1.467552 51.011047, 1.469274 51.010584, 1.470996 51.010121, 1.472718 51.009658, 1.474440 51.009195, 1.476162 51.008731, 1.477884 51.008268, 1.479606 51.007805, 1.481328 51.007341, 1.483050 51.006878, 1.484772 51.006415, 1.486494 51.005951, 1.488215 51.005488, 1.489937 51.005024, 1.491659 51.004561, 1.493381 51.004097, 1.495102 51.003634, 1.496824 51.003170, 1.498546 51.002707, 1.500267 51.002243, 1.501989 51.001780, 1.503710 51.001316, 1.505432 51.000852, 1.507153 51.000389, 1.508874 50.999925, 1.510596 50.999461, 1.512317 50.998997, 1.514038 50.998533, 1.515760 50.998070, 1.517481 50.997606, 1.519202 50.997142, 1.520923 50.996678, 1.522644 50.996214, 1.524365 50.995750, 1.526086 50.995286, 1.527807 50.994822, 1.529528 50.994358, 1.531249 50.993894, 1.532970 50.993430, 1.534691 50.992966, 1.536412 50.992502, 1.538133 50.992038, 1.539853 50.991573, 1.541574 50.991109, 1.543295 50.990645, 1.545016 50.990181, 1.546736 50.989716, 1.548457 50.989252, 1.550177 50.988788, 1.551898 50.988323, 1.553618 50.987859, 1.555339 50.987395, 1.557059 50.986930, 1.558780 50.986466, 1.560500 50.986001, 1.562220 50.985537, 1.563941 50.985072, 1.565661 50.984608, 1.567381 50.984143, 1.569101 50.983678, 1.570821 50.983214, 1.572541 50.982749, 1.574262 50.982284, 1.575982 50.981820, 1.577702 50.981355, 1.579422 50.980890, 1.581142 50.980425, 1.582861 50.979961, 1.584581 50.979496, 1.586301 50.979031, 1.588021 50.978566, 1.589741 50.978101, 1.591460 50.977636, 1.593180 50.977171, 1.594900 50.976706, 1.596619 50.976241, 1.598339 50.975776, 1.600059 50.975311, 1.601778 50.974846, 1.603498 50.974381, 1.605217 50.973916, 1.606937 50.973451, 1.608656 50.972985, 1.610375 50.972520, 1.612095 50.972055, 1.613814 50.971590, 1.615533 50.971124, 1.617252 50.970659, 1.618972 50.970194, 1.620691 50.969728, 1.622410 50.969263, 1.624129 50.968798, 1.625848 50.968332, 1.627567 50.967867, 1.629286 50.967401, 1.631005 50.966936, 1.632724 50.966470, 1.634443 50.966005, 1.636161 50.965539, 1.637880 50.965073, 1.639599 50.964608, 1.641318 50.964142, 1.643036 50.963676, 1.644755 50.963211, 1.646474 50.962745, 1.648192 50.962279, 1.649911 50.961813, 1.651629 50.961347, 1.653348 50.960882, 1.655066 50.960416, 1.656785 50.959950, 1.658503 50.959484, 1.660222 50.959018, 1.661940 50.958552, 1.663658 50.958086, 1.665376 50.957620, 1.667095 50.957154, 1.668813 50.956688, 1.670531 50.956222, 1.672249 50.955756, 1.673967 50.955289, 1.675685 50.954823, 1.677403 50.954357, 1.679121 50.953891, 1.680839 50.953425, 1.682557 50.952958, 1.684275 50.952492, 1.685993 50.952026, 1.687711 50.951559, 1.689428 50.951093, 1.691146 50.950627, 1.692864 50.950160, 1.694581 50.949694, 1.696299 50.949227, 1.698017 50.948761, 1.699734 50.948294, 1.701452 50.947828, 1.703169 50.947361, 1.704887 50.946894, 1.706604 50.946428, 1.708322 50.945961, 1.710039 50.945494, 1.711756 50.945028, 1.713474 50.944561, 1.715191 50.944094, 1.716908 50.943627, 1.718625 50.943161, 1.720342 50.942694, 1.722059 50.942227, 1.723777 50.941760, 1.725494 50.941293, 1.727211 50.940826, 1.728928 50.940359, 1.730644 50.939892, 1.732361 50.939425, 1.734078 50.938958, 1.735795 50.938491, 1.737512 50.938024, 1.739229 50.937557, 1.740945 50.937090, 1.742662 50.936623, 1.744379 50.936156, 1.746095 50.935688, 1.747812 50.935221, 1.749529 50.934754, 1.751245 50.934287, 1.752962 50.933819, 1.754678 50.933352, 1.756394 50.932885, 1.758111 50.932417, 1.759827 50.931950, 1.761544 50.931482, 1.763260 50.931015, 1.764976 50.930547, 1.766692 50.930080, 1.768408 50.929612, 1.770125 50.929145, 1.771841 50.928677, 1.773557 50.928210, 1.775273 50.927742, 1.776989 50.927274, 1.778705 50.926807, 1.780421 50.926339, 1.782137 50.925871, 1.783853 50.925403, 1.785568 50.924936, 1.787284 50.924468, 1.789000 50.924000, 1.789959 50.923042, 1.790918 50.922084, 1.791876 50.921125, 1.792835 50.920167, 1.793794 50.919209, 1.794752 50.918250, 1.795711 50.917292, 1.796669 50.916334, 1.797628 50.915376, 1.798586 50.914417, 1.799544 50.913459, 1.800503 50.912501, 1.801461 50.911542, 1.802419 50.910584, 1.803378 50.909626, 1.804336 50.908667, 1.805294 50.907709, 1.806252 50.906750, 1.807210 50.905792, 1.808168 50.904834, 1.809126 50.903875, 1.810084 50.902917, 1.811042 50.901958, 1.812000 50.901000, 1.813779 50.900643, 1.815557 50.900285, 1.817336 50.899928, 1.819115 50.899570, 1.820893 50.899213, 1.822672 50.898855, 1.824451 50.898498, 1.826229 50.898140, 1.828008 50.897783, 1.829786 50.897425, 1.831565 50.897067, 1.833343 50.896710, 1.835122 50.896352, 1.836900 50.895994, 1.838678 50.895637, 1.840457 50.895279, 1.842235 50.894921, 1.844013 50.894563, 1.845792 50.894205, 1.847570 50.893847, 1.849348 50.893489, 1.851126 50.893131, 1.852904 50.892774, 1.854682 50.892416, 1.856461 50.892057, 1.858239 50.891699, 1.860017 50.891341, 1.861795 50.890983, 1.863573 50.890625, 1.865351 50.890267, 1.867129 50.889909, 1.868906 50.889551, 1.870684 50.889192, 1.872462 50.888834, 1.874240 50.888476, 1.876018 50.888117, 1.877796 50.887759, 1.879573 50.887401, 1.881351 50.887042, 1.883129 50.886684, 1.884906 50.886325, 1.886684 50.885967, 1.888462 50.885608, 1.890239 50.885250, 1.892017 50.884891, 1.893794 50.884533, 1.895572 50.884174, 1.897349 50.883815, 1.899127 50.883457, 1.900904 50.883098, 1.902681 50.882739, 1.904459 50.882381, 1.906236 50.882022, 1.908013 50.881663, 1.909791 50.881304, 1.911568 50.880945, 1.913345 50.880586, 1.915122 50.880228, 1.916899 50.879869, 1.918677 50.879510, 1.920454 50.879151, 1.922231 50.878792, 1.924008 50.878433, 1.925785 50.878073, 1.927562 50.877714, 1.929339 50.877355, 1.931116 50.876996, 1.932893 50.876637, 1.934670 50.876278, 1.936446 50.875918, 1.938223 50.875559, 1.940000 50.875200, 1.941777 50.874841, 1.943554 50.874481, 1.945330 50.874122, 1.947107 50.873762, 1.948884 50.873403, 1.950660 50.873044, 1.952437 50.872684, 1.954214 50.872325, 1.955990 50.871965, 1.957767 50.871605, 1.959543 50.871246, 1.961320 50.870886, 1.963096 50.870527, 1.964872 50.870167, 1.966649 50.869807, 1.968425 50.869447, 1.970202 50.869088, 1.971978 50.868728, 1.973754 50.868368, 1.975530 50.868008, 1.977307 50.867648, 1.979083 50.867289, 1.980859 50.866929, 1.982635 50.866569, 1.984411 50.866209, 1.986187 50.865849, 1.987963 50.865489, 1.989740 50.865129, 1.991516 50.864769, 1.993291 50.864409, 1.995067 50.864048, 1.996843 50.863688, 1.998619 50.863328, 2.000395 50.862968, 2.002171 50.862608, 2.003947 50.862247, 2.005723 50.861887, 2.007498 50.861527, 2.009274 50.861166, 2.011050 50.860806, 2.012826 50.860446, 2.014601 50.860085, 2.016377 50.859725, 2.018152 50.859364, 2.019928 50.859004, 2.021704 50.858643, 2.023479 50.858283, 2.025255 50.857922, 2.027030 50.857561, 2.028805 50.857201, 2.030581 50.856840, 2.032356 50.856479, 2.034132 50.856119, 2.035907 50.855758, 2.037682 50.855397, 2.039457 50.855036, 2.041233 50.854676, 2.043008 50.854315, 2.044783 50.853954, 2.046558 50.853593, 2.048333 50.853232, 2.050109 50.852871, 2.051884 50.852510, 2.053659 50.852149, 2.055434 50.851788, 2.057209 50.851427, 2.058984 50.851066, 2.060759 50.850705, 2.062533 50.850344, 2.064308 50.849982, 2.066083 50.849621, 2.067858 50.849260, 2.069633 50.848899, 2.071408 50.848537, 2.073182 50.848176, 2.074957 50.847815, 2.076732 50.847453, 2.078506 50.847092, 2.080281 50.846731, 2.082056 50.846369, 2.083830 50.846008, 2.085605 50.845646, 2.087379 50.845285, 2.089154 50.844923, 2.090928 50.844561, 2.092703 50.844200, 2.094477 50.843838, 2.096252 50.843476, 2.098026 50.843115, 2.099800 50.842753, 2.101575 50.842391, 2.103349 50.842030, 2.105123 50.841668, 2.106897 50.841306, 2.108672 50.840944, 2.110446 50.840582, 2.112220 50.840220, 2.113994 50.839858, 2.115768 50.839496, 2.117542 50.839134, 2.119316 50.838772, 2.121090 50.838410, 2.122864 50.838048, 2.124638 50.837686, 2.126412 50.837324, 2.128186 50.836962, 2.129960 50.836600, 2.131734 50.836238, 2.133507 50.835875, 2.135281 50.835513, 2.137055 50.835151, 2.138829 50.834788, 2.140602 50.834426, 2.142376 50.834064, 2.144150 50.833701, 2.145923 50.833339, 2.147697 50.832977, 2.149471 50.832614, 2.151244 50.832252, 2.153018 50.831889, 2.154791 50.831526, 2.156565 50.831164, 2.158338 50.830801, 2.160111 50.830439, 2.161885 50.830076, 2.163658 50.829713, 2.165431 50.829351, 2.167205 50.828988, 2.168978 50.828625, 2.170751 50.828262, 2.172524 50.827899, 2.174298 50.827537, 2.176071 50.827174, 2.177844 50.826811, 2.179617 50.826448, 2.181390 50.826085, 2.183163 50.825722, 2.184936 50.825359, 2.186709 50.824996, 2.188482 50.824633, 2.190255 50.824270, 2.192028 50.823907, 2.193801 50.823544, 2.195574 50.823180, 2.197346 50.822817, 2.199119 50.822454, 2.200892 50.822091, 2.202665 50.821727, 2.204437 50.821364, 2.206210 50.821001, 2.207983 50.820637, 2.209755 50.820274, 2.211528 50.819911, 2.213301 50.819547, 2.215073 50.819184, 2.216846 50.818820, 2.218618 50.818457, 2.220391 50.818093, 2.222163 50.817730, 2.223935 50.817366, 2.225708 50.817002, 2.227480 50.816639, 2.229252 50.816275, 2.231025 50.815911, 2.232797 50.815548, 2.234569 50.815184, 2.236341 50.814820, 2.238114 50.814456, 2.239886 50.814092, 2.241658 50.813729, 2.243430 50.813365, 2.245202 50.813001, 2.246974 50.812637, 2.248746 50.812273, 2.250518 50.811909, 2.252290 50.811545, 2.254062 50.811181, 2.255834 50.810817, 2.257606 50.810453, 2.259378 50.810088, 2.261150 50.809724, 2.262921 50.809360, 2.264693 50.808996, 2.266465 50.808632, 2.268237 50.808267, 2.270008 50.807903, 2.271780 50.807539, 2.273552 50.807174, 2.275323 50.806810, 2.277095 50.806446, 2.278866 50.806081, 2.280638 50.805717, 2.282409 50.805352, 2.284181 50.804988, 2.285952 50.804623, 2.287724 50.804259, 2.289495 50.803894, 2.291266 50.803529, 2.293038 50.803165, 2.294809 50.802800, 2.296580 50.802435, 2.298352 50.802071, 2.300123 50.801706, 2.301894 50.801341, 2.303665 50.800976, 2.305436 50.800611, 2.307207 50.800247, 2.308978 50.799882, 2.310749 50.799517, 2.312521 50.799152, 2.314292 50.798787, 2.316062 50.798422, 2.317833 50.798057, 2.319604 50.797692, 2.321375 50.797327, 2.323146 50.796962, 2.324917 50.796596, 2.326688 50.796231, 2.328459 50.795866, 2.330229 50.795501, 2.332000 50.795136, 2.333771 50.794770, 2.335541 50.794405, 2.337312 50.794040, 2.339083 50.793674, 2.340853 50.793309, 2.342624 50.792944, 2.344394 50.792578, 2.346165 50.792213, 2.347935 50.791847, 2.349706 50.791482, 2.351476 50.791116, 2.353246 50.790751, 2.355017 50.790385, 2.356787 50.790020, 2.358557 50.789654, 2.360328 50.789288, 2.362098 50.788923, 2.363868 50.788557, 2.365638 50.788191, 2.367409 50.787825, 2.369179 50.787460, 2.370949 50.787094, 2.372719 50.786728, 2.374489 50.786362, 2.376259 50.785996, 2.378029 50.785630, 2.379799 50.785264, 2.381569 50.784898, 2.383339 50.784532, 2.385109 50.784166, 2.386879 50.783800, 2.388648 50.783434, 2.390418 50.783068, 2.392188 50.782702, 2.393958 50.782336, 2.395728 50.781969, 2.397497 50.781603, 2.399267 50.781237, 2.401037 50.780871, 2.402806 50.780504, 2.404576 50.780138, 2.406345 50.779772, 2.408115 50.779405, 2.409884 50.779039, 2.411654 50.778672, 2.413423 50.778306, 2.415193 50.777939, 2.416962 50.777573, 2.418731 50.777206, 2.420501 50.776840, 2.422270 50.776473, 2.424039 50.776107, 2.425809 50.775740, 2.427578 50.775373, 2.429347 50.775006, 2.431116 50.774640, 2.432885 50.774273, 2.434654 50.773906, 2.436424 50.773539, 2.438193 50.773173, 2.439962 50.772806, 2.441731 50.772439, 2.443500 50.772072, 2.445269 50.771705, 2.447037 50.771338, 2.448806 50.770971, 2.450575 50.770604, 2.452344 50.770237, 2.454113 50.769870, 2.455882 50.769503, 2.457650 50.769135, 2.459419 50.768768, 2.461188 50.768401, 2.462956 50.768034, 2.464725 50.767667, 2.466494 50.767299, 2.468262 50.766932, 2.470031 50.766565, 2.471799 50.766197, 2.473568 50.765830, 2.475336 50.765463, 2.477105 50.765095, 2.478873 50.764728, 2.480642 50.764360, 2.482410 50.763993, 2.484178 50.763625, 2.485947 50.763258, 2.487715 50.762890, 2.489483 50.762522, 2.491251 50.762155, 2.493020 50.761787, 2.494788 50.761419, 2.496556 50.761052, 2.498324 50.760684, 2.500092 50.760316, 2.501860 50.759948, 2.503628 50.759581, 2.505396 50.759213, 2.507164 50.758845, 2.508932 50.758477, 2.510700 50.758109, 2.512468 50.757741, 2.514236 50.757373, 2.516004 50.757005, 2.517771 50.756637, 2.519539 50.756269, 2.521307 50.755901, 2.523075 50.755533, 2.524842 50.755164, 2.526610 50.754796, 2.528378 50.754428, 2.530145 50.754060, 2.531913 50.753692, 2.533680 50.753323, 2.535448 50.752955, 2.537216 50.752587, 2.538983 50.752218, 2.540750 50.751850, 2.542518 50.751481, 2.544285 50.751113, 2.546053 50.750745, 2.547820 50.750376, 2.549587 50.750008, 2.551355 50.749639, 2.553122 50.749270, 2.554889 50.748902, 2.556656 50.748533, 2.558423 50.748164, 2.560191 50.747796, 2.561958 50.747427, 2.563725 50.747058, 2.565492 50.746690, 2.567259 50.746321, 2.569026 50.745952, 2.570793 50.745583, 2.572560 50.745214, 2.574327 50.744845, 2.576094 50.744476, 2.577860 50.744107, 2.579627 50.743738, 2.581394 50.743369, 2.583161 50.743000, 2.584928 50.742631, 2.586694 50.742262, 2.588461 50.741893, 2.590228 50.741524, 2.591994 50.741155, 2.593761 50.740786, 2.595527 50.740416, 2.597294 50.740047, 2.599061 50.739678, 2.600827 50.739309, 2.602594 50.738939, 2.604360 50.738570, 2.606126 50.738201, 2.607893 50.737831, 2.609659 50.737462, 2.611425 50.737092, 2.613192 50.736723, 2.614958 50.736353, 2.616724 50.735984, 2.618491 50.735614, 2.620257 50.735245, 2.622023 50.734875, 2.623789 50.734505, 2.625555 50.734136, 2.627321 50.733766, 2.629087 50.733396, 2.630853 50.733026, 2.632619 50.732657, 2.634385 50.732287, 2.636151 50.731917, 2.637917 50.731547, 2.639683 50.731177, 2.641449 50.730807, 2.643215 50.730437, 2.644981 50.730067, 2.646746 50.729697, 2.648512 50.729327, 2.650278 50.728957, 2.652043 50.728587, 2.653809 50.728217, 2.655575 50.727847, 2.657340 50.727477, 2.659106 50.727107, 2.660871 50.726737, 2.662637 50.726366, 2.664403 50.725996, 2.666168 50.725626, 2.667933 50.725255, 2.669699 50.724885, 2.671464 50.724515, 2.673230 50.724144, 2.674995 50.723774, 2.676760 50.723403, 2.678525 50.723033, 2.680291 50.722662, 2.682056 50.722292, 2.683821 50.721921, 2.685586 50.721551, 2.687351 50.721180, 2.689117 50.720810, 2.690882 50.720439, 2.692647 50.720068, 2.694412 50.719698, 2.696177 50.719327, 2.697942 50.718956, 2.699707 50.718585, 2.701471 50.718214, 2.703236 50.717844, 2.705001 50.717473, 2.706766 50.717102, 2.708531 50.716731, 2.710296 50.716360, 2.712060 50.715989, 2.713825 50.715618, 2.715590 50.715247, 2.717354 50.714876, 2.719119 50.714505, 2.720884 50.714134, 2.722648 50.713762, 2.724413 50.713391, 2.726177 50.713020, 2.727942 50.712649, 2.729706 50.712278, 2.731471 50.711906, 2.733235 50.711535, 2.734999 50.711164, 2.736764 50.710792, 2.738528 50.710421, 2.740292 50.710050, 2.742057 50.709678, 2.743821 50.709307, 2.745585 50.708935, 2.747349 50.708564, 2.749114 50.708192, 2.750878 50.707821, 2.752642 50.707449, 2.754406 50.707077, 2.756170 50.706706, 2.757934 50.706334, 2.759698 50.705962, 2.761462 50.705591, 2.763226 50.705219, 2.764990 50.704847, 2.766754 50.704475, 2.768517 50.704103, 2.770281 50.703732, 2.772045 50.703360, 2.773809 50.702988, 2.775572 50.702616, 2.777336 50.702244, 2.779100 50.701872, 2.780864 50.701500, 2.782627 50.701128, 2.784391 50.700756, 2.786154 50.700384, 2.787918 50.700012, 2.789681 50.699639, 2.791445 50.699267, 2.793208 50.698895, 2.794972 50.698523, 2.796735 50.698150, 2.798499 50.697778, 2.800262 50.697406, 2.802025 50.697034, 2.803788 50.696661, 2.805552 50.696289, 2.807315 50.695916, 2.809078 50.695544, 2.810841 50.695171, 2.812604 50.694799, 2.814368 50.694426, 2.816131 50.694054, 2.817894 50.693681, 2.819657 50.693309, 2.821420 50.692936, 2.823183 50.692563, 2.824946 50.692191, 2.826709 50.691818, 2.828472 50.691445, 2.830234 50.691073, 2.831997 50.690700, 2.833760 50.690327, 2.835523 50.689954, 2.837286 50.689581, 2.839048 50.689208, 2.840811 50.688835, 2.842574 50.688462, 2.844336 50.688089, 2.846099 50.687716, 2.847862 50.687343, 2.849624 50.686970, 2.851387 50.686597, 2.853149 50.686224, 2.854912 50.685851, 2.856674 50.685478, 2.858437 50.685105, 2.860199 50.684731, 2.861961 50.684358, 2.863724 50.683985, 2.865486 50.683612, 2.867248 50.683238, 2.869010 50.682865, 2.870773 50.682492, 2.872535 50.682118, 2.874297 50.681745, 2.876059 50.681371, 2.877821 50.680998, 2.879583 50.680624, 2.881345 50.680251, 2.883107 50.679877, 2.884869 50.679504, 2.886631 50.679130, 2.888393 50.678756, 2.890155 50.678383, 2.891917 50.678009, 2.893679 50.677635, 2.895441 50.677262, 2.897203 50.676888, 2.898964 50.676514, 2.900726 50.676140, 2.902488 50.675766, 2.904250 50.675392, 2.906011 50.675019, 2.907773 50.674645, 2.909534 50.674271, 2.911296 50.673897, 2.913058 50.673523, 2.914819 50.673149, 2.916581 50.672775, 2.918342 50.672400, 2.920104 50.672026, 2.921865 50.671652, 2.923626 50.671278, 2.925388 50.670904, 2.927149 50.670530, 2.928910 50.670155, 2.930672 50.669781, 2.932433 50.669407, 2.934194 50.669032, 2.935955 50.668658, 2.937716 50.668284, 2.939478 50.667909, 2.941239 50.667535, 2.943000 50.667160, 2.944761 50.666786, 2.946522 50.666411, 2.948283 50.666037, 2.950044 50.665662, 2.951805 50.665288, 2.953566 50.664913, 2.955326 50.664538, 2.957087 50.664164, 2.958848 50.663789, 2.960609 50.663414, 2.962370 50.663040, 2.964130 50.662665, 2.965891 50.662290, 2.967652 50.661915, 2.969412 50.661540, 2.971173 50.661165, 2.972934 50.660790, 2.974694 50.660415, 2.976455 50.660041, 2.978215 50.659666, 2.979976 50.659290, 2.981736 50.658915, 2.983497 50.658540, 2.985257 50.658165, 2.987017 50.657790, 2.988778 50.657415, 2.990538 50.657040, 2.992298 50.656665, 2.994059 50.656289, 2.995819 50.655914, 2.997579 50.655539, 2.999339 50.655164, 3.001099 50.654788, 3.002859 50.654413, 3.004620 50.654037, 3.006380 50.653662, 3.008140 50.653287, 3.009900 50.652911, 3.011660 50.652536, 3.013420 50.652160, 3.015179 50.651785, 3.016939 50.651409, 3.018699 50.651033, 3.020459 50.650658, 3.022219 50.650282, 3.023979 50.649906, 3.025738 50.649531, 3.027498 50.649155, 3.029258 50.648779, 3.031017 50.648403, 3.032777 50.648028, 3.034537 50.647652, 3.036296 50.647276, 3.038056 50.646900, 3.039815 50.646524, 3.041575 50.646148, 3.043334 50.645772, 3.045094 50.645396, 3.046853 50.645020, 3.048613 50.644644, 3.050372 50.644268, 3.052131 50.643892, 3.053891 50.643516, 3.055650 50.643140, 3.057409 50.642763, 3.059168 50.642387, 3.060928 50.642011, 3.062687 50.641635, 3.064446 50.641258, 3.066205 50.640882, 3.067964 50.640506, 3.069723 50.640129, 3.071482 50.639753, 3.073241 50.639376, 3.075000 50.639000, 3.074109 50.637968, 3.073218 50.636937, 3.072328 50.635905, 3.071437 50.634874, 3.070546 50.633842, 3.069656 50.632811, 3.068765 50.631779, 3.067875 50.630748, 3.066984 50.629716, 3.066094 50.628685, 3.065203 50.627653, 3.064313 50.626621, 3.063423 50.625590, 3.062533 50.624558, 3.061642 50.623527, 3.060752 50.622495, 3.059862 50.621463, 3.058972 50.620432, 3.058082 50.619400, 3.057192 50.618369, 3.056302 50.617337, 3.055412 50.616305, 3.054522 50.615274, 3.053632 50.614242, 3.052742 50.613210, 3.051852 50.612179, 3.050962 50.611147, 3.050073 50.610115, 3.049183 50.609083, 3.048293 50.608052, 3.047404 50.607020, 3.046514 50.605988, 3.045625 50.604957, 3.044735 50.603925, 3.043846 50.602893, 3.042956 50.601861, 3.042067 50.600830, 3.041178 50.599798, 3.040288 50.598766, 3.039399 50.597734, 3.038510 50.596703, 3.037621 50.595671, 3.036731 50.594639, 3.035842 50.593607, 3.034953 50.592575, 3.034064 50.591544, 3.033175 50.590512, 3.032286 50.589480, 3.031397 50.588448, 3.030508 50.587416, 3.029620 50.586384, 3.028731 50.585352, 3.027842 50.584321, 3.026953 50.583289, 3.026065 50.582257, 3.025176 50.581225, 3.024287 50.580193, 3.023399 50.579161, 3.022510 50.578129, 3.021622 50.577097, 3.020733 50.576065, 3.019845 50.575034, 3.018957 50.574002, 3.018068 50.572970, 3.017180 50.571938, 3.016292 50.570906, 3.015404 50.569874, 3.014515 50.568842, 3.013627 50.567810, 3.012739 50.566778, 3.011851 50.565746, 3.010963 50.564714, 3.010075 50.563682, 3.009187 50.562650, 3.008299 50.561618, 3.007411 50.560586, 3.006524 50.559554, 3.005636 50.558522, 3.004748 50.557490, 3.003860 50.556458, 3.002973 50.555426, 3.002085 50.554394, 3.001197 50.553362, 3.000310 50.552330, 2.999422 50.551297, 2.998535 50.550265, 2.997647 50.549233, 2.996760 50.548201, 2.995873 50.547169, 2.994985 50.546137, 2.994098 50.545105, 2.993211 50.544073, 2.992324 50.543041, 2.991436 50.542008, 2.990549 50.540976, 2.989662 50.539944, 2.988775 50.538912, 2.987888 50.537880, 2.987001 50.536848, 2.986114 50.535815, 2.985227 50.534783, 2.984341 50.533751, 2.983454 50.532719, 2.982567 50.531687, 2.981680 50.530654, 2.980794 50.529622, 2.979907 50.528590, 2.979020 50.527558, 2.978134 50.526526, 2.977247 50.525493, 2.976361 50.524461, 2.975474 50.523429, 2.974588 50.522396, 2.973701 50.521364, 2.972815 50.520332, 2.971929 50.519300, 2.971042 50.518267, 2.970156 50.517235, 2.969270 50.516203, 2.968384 50.515170, 2.967498 50.514138, 2.966612 50.513106, 2.965726 50.512073, 2.964840 50.511041, 2.963954 50.510009, 2.963068 50.508976, 2.962182 50.507944, 2.961296 50.506912, 2.960410 50.505879, 2.959524 50.504847, 2.958639 50.503815, 2.957753 50.502782, 2.956867 50.501750, 2.955982 50.500717, 2.955096 50.499685, 2.954211 50.498652, 2.953325 50.497620, 2.952440 50.496588, 2.951554 50.495555, 2.950669 50.494523, 2.949784 50.493490, 2.948898 50.492458, 2.948013 50.491425, 2.947128 50.490393, 2.946243 50.489360, 2.945357 50.488328, 2.944472 50.487295, 2.943587 50.486263, 2.942702 50.485230, 2.941817 50.484198, 2.940932 50.483165, 2.940047 50.482133, 2.939162 50.481100, 2.938278 50.480068, 2.937393 50.479035, 2.936508 50.478003, 2.935623 50.476970, 2.934739 50.475937, 2.933854 50.474905, 2.932969 50.473872, 2.932085 50.472840, 2.931200 50.471807, 2.930316 50.470775, 2.929431 50.469742, 2.928547 50.468709, 2.927663 50.467677, 2.926778 50.466644, 2.925894 50.465611, 2.925010 50.464579, 2.924125 50.463546, 2.923241 50.462513, 2.922357 50.461481, 2.921473 50.460448, 2.920589 50.459415, 2.919705 50.458383, 2.918821 50.457350, 2.917937 50.456317, 2.917053 50.455285, 2.916169 50.454252, 2.915285 50.453219, 2.914402 50.452187, 2.913518 50.451154, 2.912634 50.450121, 2.911750 50.449088, 2.910867 50.448056, 2.909983 50.447023, 2.909100 50.445990, 2.908216 50.444957, 2.907333 50.443925, 2.906449 50.442892, 2.905566 50.441859, 2.904682 50.440826, 2.903799 50.439793, 2.902916 50.438761, 2.902032 50.437728, 2.901149 50.436695, 2.900266 50.435662, 2.899383 50.434629, 2.898500 50.433596, 2.897617 50.432564, 2.896734 50.431531, 2.895851 50.430498, 2.894968 50.429465, 2.894085 50.428432, 2.893202 50.427399, 2.892319 50.426366, 2.891436 50.425333, 2.890554 50.424300, 2.889671 50.423268, 2.888788 50.422235, 2.887906 50.421202, 2.887023 50.420169, 2.886140 50.419136, 2.885258 50.418103, 2.884375 50.417070, 2.883493 50.416037, 2.882611 50.415004, 2.881728 50.413971, 2.880846 50.412938, 2.879964 50.411905, 2.879081 50.410872, 2.878199 50.409839, 2.877317 50.408806, 2.876435 50.407773, 2.875553 50.406740, 2.874671 50.405707, 2.873789 50.404674, 2.872907 50.403641, 2.872025 50.402608, 2.871143 50.401575, 2.870261 50.400542, 2.869379 50.399509, 2.868497 50.398476, 2.867615 50.397443, 2.866734 50.396410, 2.865852 50.395376, 2.864970 50.394343, 2.864089 50.393310, 2.863207 50.392277, 2.862326 50.391244, 2.861444 50.390211, 2.860563 50.389178, 2.859681 50.388145, 2.858800 50.387111, 2.857919 50.386078, 2.857037 50.385045, 2.856156 50.384012, 2.855275 50.382979, 2.854394 50.381946, 2.853513 50.380912, 2.852632 50.379879, 2.851750 50.378846, 2.850869 50.377813, 2.849988 50.376780, 2.849107 50.375746, 2.848227 50.374713, 2.847346 50.373680, 2.846465 50.372647, 2.845584 50.371614, 2.844703 50.370580, 2.843823 50.369547, 2.842942 50.368514, 2.842061 50.367480, 2.841181 50.366447, 2.840300 50.365414, 2.839420 50.364381, 2.838539 50.363347, 2.837659 50.362314, 2.836778 50.361281, 2.835898 50.360247, 2.835018 50.359214, 2.834137 50.358181, 2.833257 50.357147, 2.832377 50.356114, 2.831497 50.355081, 2.830616 50.354047, 2.829736 50.353014, 2.828856 50.351981, 2.827976 50.350947, 2.827096 50.349914, 2.826216 50.348880, 2.825336 50.347847, 2.824456 50.346814, 2.823577 50.345780, 2.822697 50.344747, 2.821817 50.343713, 2.820937 50.342680, 2.820058 50.341647, 2.819178 50.340613, 2.818298 50.339580, 2.817419 50.338546, 2.816539 50.337513, 2.815660 50.336479, 2.814780 50.335446, 2.813901 50.334412, 2.813022 50.333379, 2.812142 50.332345, 2.811263 50.331312, 2.810384 50.330278, 2.809504 50.329245, 2.808625 50.328211, 2.807746 50.327178, 2.806867 50.326144, 2.805988 50.325111, 2.805109 50.324077, 2.804230 50.323044, 2.803351 50.322010, 2.802472 50.320976, 2.801593 50.319943, 2.800714 50.318909, 2.799836 50.317876, 2.798957 50.316842, 2.798078 50.315808, 2.797199 50.314775, 2.796321 50.313741, 2.795442 50.312708, 2.794563 50.311674, 2.793685 50.310640, 2.792806 50.309607, 2.791928 50.308573, 2.791050 50.307539, 2.790171 50.306506, 2.789293 50.305472, 2.788415 50.304438, 2.787536 50.303405, 2.786658 50.302371, 2.785780 50.301337, 2.784902 50.300304, 2.784024 50.299270, 2.783145 50.298236, 2.782267 50.297202, 2.781389 50.296169, 2.780511 50.295135, 2.779634 50.294101, 2.778756 50.293068, 2.777878 50.292034, 2.777000 50.291000, 2.776644 50.289844, 2.776288 50.288688, 2.775932 50.287532, 2.775576 50.286376, 2.775220 50.285220, 2.774864 50.284064, 2.774508 50.282909, 2.774152 50.281753, 2.773796 50.280597, 2.773440 50.279441, 2.773084 50.278285, 2.772728 50.277129, 2.772372 50.275973, 2.772016 50.274817, 2.771661 50.273661, 2.771305 50.272505, 2.770949 50.271349, 2.770593 50.270193, 2.770237 50.269037, 2.769882 50.267881, 2.769526 50.266725, 2.769170 50.265570, 2.768815 50.264414, 2.768459 50.263258, 2.768103 50.262102, 2.767748 50.260946, 2.767392 50.259790, 2.767036 50.258634, 2.766681 50.257478, 2.766325 50.256322, 2.765970 50.255166, 2.765614 50.254010, 2.765259 50.252854, 2.764903 50.251698, 2.764548 50.250542, 2.764192 50.249386, 2.763837 50.248230, 2.763481 50.247074, 2.763126 50.245918, 2.762770 50.244762, 2.762415 50.243606, 2.762060 50.242451, 2.761704 50.241295, 2.761349 50.240139, 2.760994 50.238983, 2.760638 50.237827, 2.760283 50.236671, 2.759928 50.235515, 2.759572 50.234359, 2.759217 50.233203, 2.758862 50.232047, 2.758507 50.230891, 2.758152 50.229735, 2.757796 50.228579, 2.757441 50.227423, 2.757086 50.226267, 2.756731 50.225111, 2.756376 50.223955, 2.756021 50.222799, 2.755666 50.221643, 2.755311 50.220487, 2.754956 50.219331, 2.754601 50.218175, 2.754246 50.217019, 2.753891 50.215863, 2.753536 50.214707, 2.753181 50.213551, 2.752826 50.212395, 2.752471 50.211239, 2.752116 50.210083, 2.751761 50.208927, 2.751406 50.207771, 2.751052 50.206615, 2.750697 50.205459, 2.750342 50.204303, 2.749987 50.203147, 2.749632 50.201991, 2.749278 50.200835, 2.748923 50.199679, 2.748568 50.198523, 2.748214 50.197367, 2.747859 50.196211, 2.747504 50.195055, 2.747150 50.193899, 2.746795 50.192743, 2.746440 50.191587, 2.746086 50.190431, 2.745731 50.189275, 2.745377 50.188119, 2.745022 50.186963, 2.744668 50.185807, 2.744313 50.184651, 2.743959 50.183495, 2.743604 50.182339, 2.743250 50.181183, 2.742895 50.180027, 2.742541 50.178871, 2.742186 50.177715, 2.741832 50.176559, 2.741478 50.175403, 2.741123 50.174247, 2.740769 50.173091, 2.740415 50.171935, 2.740060 50.170779, 2.739706 50.169623, 2.739352 50.168467, 2.738997 50.167311, 2.738643 50.166155, 2.738289 50.164999, 2.737935 50.163843, 2.737581 50.162687, 2.737226 50.161530, 2.736872 50.160374, 2.736518 50.159218, 2.736164 50.158062, 2.735810 50.156906, 2.735456 50.155750, 2.735102 50.154594, 2.734748 50.153438, 2.734394 50.152282, 2.734040 50.151126, 2.733686 50.149970, 2.733332 50.148814, 2.732978 50.147658, 2.732624 50.146502, 2.732270 50.145346, 2.731916 50.144190, 2.731562 50.143034, 2.731208 50.141878, 2.730854 50.140722, 2.730500 50.139566, 2.730147 50.138409, 2.729793 50.137253, 2.729439 50.136097, 2.729085 50.134941, 2.728732 50.133785, 2.728378 50.132629, 2.728024 50.131473, 2.727670 50.130317, 2.727317 50.129161, 2.726963 50.128005, 2.726609 50.126849, 2.726256 50.125693, 2.725902 50.124537, 2.725548 50.123381, 2.725195 50.122225, 2.724841 50.121068, 2.724488 50.119912, 2.724134 50.118756, 2.723781 50.117600, 2.723427 50.116444, 2.723074 50.115288, 2.722720 50.114132, 2.722367 50.112976, 2.722013 50.111820, 2.721660 50.110664, 2.721307 50.109508, 2.720953 50.108352, 2.720600 50.107195, 2.720246 50.106039, 2.719893 50.104883, 2.719540 50.103727, 2.719187 50.102571, 2.718833 50.101415, 2.718480 50.100259, 2.718127 50.099103, 2.717774 50.097947, 2.717420 50.096791, 2.717067 50.095635, 2.716714 50.094478, 2.716361 50.093322, 2.716008 50.092166, 2.715655 50.091010, 2.715301 50.089854, 2.714948 50.088698, 2.714595 50.087542, 2.714242 50.086386, 2.713889 50.085230, 2.713536 50.084073, 2.713183 50.082917, 2.712830 50.081761, 2.712477 50.080605, 2.712124 50.079449, 2.711771 50.078293, 2.711418 50.077137, 2.711065 50.075981, 2.710713 50.074825, 2.710360 50.073668, 2.710007 50.072512, 2.709654 50.071356, 2.709301 50.070200, 2.708948 50.069044, 2.708596 50.067888, 2.708243 50.066732, 2.707890 50.065576, 2.707537 50.064419, 2.707185 50.063263, 2.706832 50.062107, 2.706479 50.060951, 2.706127 50.059795, 2.705774 50.058639, 2.705421 50.057483, 2.705069 50.056327, 2.704716 50.055170, 2.704364 50.054014, 2.704011 50.052858, 2.703658 50.051702, 2.703306 50.050546, 2.702953 50.049390, 2.702601 50.048234, 2.702248 50.047077, 2.701896 50.045921, 2.701543 50.044765, 2.701191 50.043609, 2.700839 50.042453, 2.700486 50.041297, 2.700134 50.040141, 2.699781 50.038984, 2.699429 50.037828, 2.699077 50.036672, 2.698725 50.035516, 2.698372 50.034360, 2.698020 50.033204, 2.697668 50.032047, 2.697315 50.030891, 2.696963 50.029735, 2.696611 50.028579, 2.696259 50.027423, 2.695907 50.026267, 2.695554 50.025110, 2.695202 50.023954, 2.694850 50.022798, 2.694498 50.021642, 2.694146 50.020486, 2.693794 50.019330, 2.693442 50.018173, 2.693090 50.017017, 2.692738 50.015861, 2.692386 50.014705, 2.692034 50.013549, 2.691682 50.012393, 2.691330 50.011236, 2.690978 50.010080, 2.690626 50.008924, 2.690274 50.007768, 2.689922 50.006612, 2.689570 50.005456, 2.689219 50.004299, 2.688867 50.003143, 2.688515 50.001987, 2.688163 50.000831, 2.687811 49.999675, 2.687460 49.998518, 2.687108 49.997362, 2.686756 49.996206, 2.686404 49.995050, 2.686053 49.993894, 2.685701 49.992737, 2.685349 49.991581, 2.684998 49.990425, 2.684646 49.989269, 2.684294 49.988113, 2.683943 49.986956, 2.683591 49.985800, 2.683240 49.984644, 2.682888 49.983488, 2.682537 49.982332, 2.682185 49.981175, 2.681834 49.980019, 2.681482 49.978863, 2.681131 49.977707, 2.680779 49.976551, 2.680428 49.975394, 2.680076 49.974238, 2.679725 49.973082, 2.679374 49.971926, 2.679022 49.970770, 2.678671 49.969613, 2.678320 49.968457, 2.677968 49.967301, 2.677617 49.966145, 2.677266 49.964988, 2.676914 49.963832, 2.676563 49.962676, 2.676212 49.961520, 2.675861 49.960364, 2.675510 49.959207, 2.675158 49.958051, 2.674807 49.956895, 2.674456 49.955739, 2.674105 49.954582, 2.673754 49.953426, 2.673403 49.952270, 2.673052 49.951114, 2.672701 49.949957, 2.672350 49.948801, 2.671999 49.947645, 2.671648 49.946489, 2.671297 49.945333, 2.670946 49.944176, 2.670595 49.943020, 2.670244 49.941864, 2.669893 49.940708, 2.669542 49.939551, 2.669191 49.938395, 2.668840 49.937239, 2.668489 49.936083, 2.668138 49.934926, 2.667788 49.933770, 2.667437 49.932614, 2.667086 49.931458, 2.666735 49.930301, 2.666384 49.929145, 2.666034 49.927989, 2.665683 49.926833, 2.665332 49.925676, 2.664982 49.924520, 2.664631 49.923364, 2.664280 49.922208, 2.663930 49.921051, 2.663579 49.919895, 2.663228 49.918739, 2.662878 49.917583, 2.662527 49.916426, 2.662177 49.915270, 2.661826 49.914114, 2.661476 49.912957, 2.661125 49.911801, 2.660775 49.910645, 2.660424 49.909489, 2.660074 49.908332, 2.659723 49.907176, 2.659373 49.906020, 2.659022 49.904864, 2.658672 49.903707, 2.658322 49.902551, 2.657971 49.901395, 2.657621 49.900238, 2.657271 49.899082, 2.656920 49.897926, 2.656570 49.896770, 2.656220 49.895613, 2.655870 49.894457, 2.655519 49.893301, 2.655169 49.892144, 2.654819 49.890988, 2.654469 49.889832, 2.654119 49.888676, 2.653768 49.887519, 2.653418 49.886363, 2.653068 49.885207, 2.652718 49.884050, 2.652368 49.882894, 2.652018 49.881738, 2.651668 49.880582, 2.651318 49.879425, 2.650968 49.878269, 2.650618 49.877113, 2.650268 49.875956, 2.649918 49.874800, 2.649568 49.873644, 2.649218 49.872487, 2.648868 49.871331, 2.648518 49.870175, 2.648168 49.869019, 2.647819 49.867862, 2.647469 49.866706, 2.647119 49.865550, 2.646769 49.864393, 2.646419 49.863237, 2.646069 49.862081, 2.645720 49.860924, 2.645370 49.859768, 2.645020 49.858612, 2.644670 49.857455, 2.644321 49.856299, 2.643971 49.855143, 2.643621 49.853986, 2.643272 49.852830, 2.642922 49.851674, 2.642573 49.850517, 2.642223 49.849361, 2.641873 49.848205, 2.641524 49.847048, 2.641174 49.845892, 2.640825 49.844736, 2.640475 49.843580, 2.640126 49.842423, 2.639776 49.841267, 2.639427 49.840111, 2.639077 49.838954, 2.638728 49.837798, 2.638378 49.836641, 2.638029 49.835485, 2.637680 49.834329, 2.637330 49.833172, 2.636981 49.832016, 2.636632 49.830860, 2.636282 49.829703, 2.635933 49.828547, 2.635584 49.827391, 2.635235 49.826234, 2.634885 49.825078, 2.634536 49.823922, 2.634187 49.822765, 2.633838 49.821609, 2.633488 49.820453, 2.633139 49.819296, 2.632790 49.818140, 2.632441 49.816984, 2.632092 49.815827, 2.631743 49.814671, 2.631394 49.813515, 2.631045 49.812358, 2.630696 49.811202, 2.630347 49.810045, 2.629998 49.808889, 2.629649 49.807733, 2.629300 49.806576, 2.628951 49.805420, 2.628602 49.804264, 2.628253 49.803107, 2.627904 49.801951, 2.627555 49.800795, 2.627206 49.799638, 2.626857 49.798482, 2.626508 49.797325, 2.626160 49.796169, 2.625811 49.795013, 2.625462 49.793856, 2.625113 49.792700, 2.624764 49.791544, 2.624416 49.790387, 2.624067 49.789231, 2.623718 49.788074, 2.623370 49.786918, 2.623021 49.785762, 2.622672 49.784605, 2.622324 49.783449, 2.621975 49.782292, 2.621626 49.781136, 2.621278 49.779980, 2.620929 49.778823, 2.620581 49.777667, 2.620232 49.776511, 2.619883 49.775354, 2.619535 49.774198, 2.619186 49.773041, 2.618838 49.771885, 2.618490 49.770729, 2.618141 49.769572, 2.617793 49.768416, 2.617444 49.767259, 2.617096 49.766103, 2.616747 49.764947, 2.616399 49.763790, 2.616051 49.762634, 2.615702 49.761477, 2.615354 49.760321, 2.615006 49.759165, 2.614658 49.758008, 2.614309 49.756852, 2.613961 49.755695, 2.613613 49.754539, 2.613265 49.753382, 2.612916 49.752226, 2.612568 49.751070, 2.612220 49.749913, 2.611872 49.748757, 2.611524 49.747600, 2.611176 49.746444, 2.610828 49.745288, 2.610479 49.744131, 2.610131 49.742975, 2.609783 49.741818, 2.609435 49.740662, 2.609087 49.739505, 2.608739 49.738349, 2.608391 49.737193, 2.608043 49.736036, 2.607695 49.734880, 2.607347 49.733723, 2.607000 49.732567, 2.606652 49.731410, 2.606304 49.730254, 2.605956 49.729098, 2.605608 49.727941, 2.605260 49.726785, 2.604912 49.725628, 2.604565 49.724472, 2.604217 49.723315, 2.603869 49.722159, 2.603521 49.721003, 2.603174 49.719846, 2.602826 49.718690, 2.602478 49.717533, 2.602130 49.716377, 2.601783 49.715220, 2.601435 49.714064, 2.601088 49.712907, 2.600740 49.711751, 2.600392 49.710595, 2.600045 49.709438, 2.599697 49.708282, 2.599350 49.707125, 2.599002 49.705969, 2.598655 49.704812, 2.598307 49.703656, 2.597960 49.702499, 2.597612 49.701343, 2.597265 49.700186, 2.596917 49.699030, 2.596570 49.697873, 2.596222 49.696717, 2.595875 49.695561, 2.595528 49.694404, 2.595180 49.693248, 2.594833 49.692091, 2.594486 49.690935, 2.594138 49.689778, 2.593791 49.688622, 2.593444 49.687465, 2.593097 49.686309, 2.592749 49.685152, 2.592402 49.683996, 2.592055 49.682839, 2.591708 49.681683, 2.591361 49.680526, 2.591013 49.679370, 2.590666 49.678213, 2.590319 49.677057, 2.589972 49.675901, 2.589625 49.674744, 2.589278 49.673588, 2.588931 49.672431, 2.588584 49.671275, 2.588237 49.670118, 2.587890 49.668962, 2.587543 49.667805, 2.587196 49.666649, 2.586849 49.665492, 2.586502 49.664336, 2.586155 49.663179, 2.585808 49.662023, 2.585461 49.660866, 2.585114 49.659710, 2.584767 49.658553, 2.584421 49.657397, 2.584074 49.656240, 2.583727 49.655084, 2.583380 49.653927, 2.583033 49.652771, 2.582687 49.651614, 2.582340 49.650458, 2.581993 49.649301, 2.581646 49.648145, 2.581300 49.646988, 2.580953 49.645832, 2.580606 49.644675, 2.580260 49.643519, 2.579913 49.642362, 2.579567 49.641206, 2.579220 49.640049, 2.578873 49.638893, 2.578527 49.637736, 2.578180 49.636580, 2.577834 49.635423, 2.577487 49.634266, 2.577141 49.633110, 2.576794 49.631953, 2.576448 49.630797, 2.576101 49.629640, 2.575755 49.628484, 2.575409 49.627327, 2.575062 49.626171, 2.574716 49.625014, 2.574369 49.623858, 2.574023 49.622701, 2.573677 49.621545, 2.573330 49.620388, 2.572984 49.619232, 2.572638 49.618075, 2.572292 49.616919, 2.571945 49.615762, 2.571599 49.614605, 2.571253 49.613449, 2.570907 49.612292, 2.570560 49.611136, 2.570214 49.609979, 2.569868 49.608823, 2.569522 49.607666, 2.569176 49.606510, 2.568830 49.605353, 2.568484 49.604197, 2.568138 49.603040, 2.567792 49.601884, 2.567446 49.600727, 2.567100 49.599570, 2.566754 49.598414, 2.566408 49.597257, 2.566062 49.596101, 2.565716 49.594944, 2.565370 49.593788, 2.565024 49.592631, 2.564678 49.591475, 2.564332 49.590318, 2.563986 49.589161, 2.563640 49.588005, 2.563294 49.586848, 2.562949 49.585692, 2.562603 49.584535, 2.562257 49.583379, 2.561911 49.582222, 2.561566 49.581065, 2.561220 49.579909, 2.560874 49.578752, 2.560528 49.577596, 2.560183 49.576439, 2.559837 49.575283, 2.559491 49.574126, 2.559146 49.572969, 2.558800 49.571813, 2.558454 49.570656, 2.558109 49.569500, 2.557763 49.568343, 2.557418 49.567187, 2.557072 49.566030, 2.556727 49.564873, 2.556381 49.563717, 2.556036 49.562560, 2.555690 49.561404, 2.555345 49.560247, 2.554999 49.559091, 2.554654 49.557934, 2.554308 49.556777, 2.553963 49.555621, 2.553618 49.554464, 2.553272 49.553308, 2.552927 49.552151, 2.552582 49.550994, 2.552236 49.549838, 2.551891 49.548681, 2.551546 49.547525, 2.551200 49.546368, 2.550855 49.545211, 2.550510 49.544055, 2.550165 49.542898, 2.549820 49.541742, 2.549474 49.540585, 2.549129 49.539428, 2.548784 49.538272, 2.548439 49.537115, 2.548094 49.535959, 2.547749 49.534802, 2.547404 49.533645, 2.547059 49.532489, 2.546714 49.531332, 2.546368 49.530176, 2.546023 49.529019, 2.545678 49.527862, 2.545333 49.526706, 2.544989 49.525549, 2.544644 49.524392, 2.544299 49.523236, 2.543954 49.522079, 2.543609 49.520923, 2.543264 49.519766, 2.542919 49.518609, 2.542574 49.517453, 2.542229 49.516296, 2.541885 49.515139, 2.541540 49.513983, 2.541195 49.512826, 2.540850 49.511670, 2.540505 49.510513, 2.540161 49.509356, 2.539816 49.508200, 2.539471 49.507043, 2.539127 49.505886, 2.538782 49.504730, 2.538437 49.503573, 2.538093 49.502417, 2.537748 49.501260, 2.537403 49.500103, 2.537059 49.498947, 2.536714 49.497790, 2.536370 49.496633, 2.536025 49.495477, 2.535680 49.494320, 2.535336 49.493163, 2.534991 49.492007, 2.534647 49.490850, 2.534303 49.489693, 2.533958 49.488537, 2.533614 49.487380, 2.533269 49.486224, 2.532925 49.485067, 2.532580 49.483910, 2.532236 49.482754, 2.531892 49.481597, 2.531547 49.480440, 2.531203 49.479284, 2.530859 49.478127, 2.530514 49.476970, 2.530170 49.475814, 2.529826 49.474657, 2.529482 49.473500, 2.529137 49.472344, 2.528793 49.471187, 2.528449 49.470030, 2.528105 49.468874, 2.527761 49.467717, 2.527417 49.466560, 2.527073 49.465404, 2.526728 49.464247, 2.526384 49.463090, 2.526040 49.461934, 2.525696 49.460777, 2.525352 49.459620, 2.525008 49.458464, 2.524664 49.457307, 2.524320 49.456150, 2.523976 49.454994, 2.523632 49.453837, 2.523288 49.452680, 2.522944 49.451524, 2.522600 49.450367, 2.522256 49.449210, 2.521913 49.448053, 2.521569 49.446897, 2.521225 49.445740, 2.520881 49.444583, 2.520537 49.443427, 2.520193 49.442270, 2.519850 49.441113, 2.519506 49.439957, 2.519162 49.438800, 2.518818 49.437643, 2.518475 49.436487, 2.518131 49.435330, 2.517787 49.434173, 2.517444 49.433016, 2.517100 49.431860, 2.516756 49.430703, 2.516413 49.429546, 2.516069 49.428390, 2.515726 49.427233, 2.515382 49.426076, 2.515038 49.424920, 2.514695 49.423763, 2.514351 49.422606, 2.514008 49.421449, 2.513664 49.420293, 2.513321 49.419136, 2.512977 49.417979, 2.512634 49.416823, 2.512291 49.415666, 2.511947 49.414509, 2.511604 49.413352, 2.511260 49.412196, 2.510917 49.411039, 2.510574 49.409882, 2.510230 49.408726, 2.509887 49.407569, 2.509544 49.406412, 2.509200 49.405255, 2.508857 49.404099, 2.508514 49.402942, 2.508171 49.401785, 2.507827 49.400629, 2.507484 49.399472, 2.507141 49.398315, 2.506798 49.397158, 2.506455 49.396002, 2.506112 49.394845, 2.505769 49.393688, 2.505425 49.392531, 2.505082 49.391375, 2.504739 49.390218, 2.504396 49.389061, 2.504053 49.387904, 2.503710 49.386748, 2.503367 49.385591, 2.503024 49.384434, 2.502681 49.383278, 2.502338 49.382121, 2.501995 49.380964, 2.501652 49.379807, 2.501309 49.378651, 2.500967 49.377494, 2.500624 49.376337, 2.500281 49.375180, 2.499938 49.374024, 2.499595 49.372867, 2.499252 49.371710, 2.498910 49.370553, 2.498567 49.369397, 2.498224 49.368240, 2.497881 49.367083, 2.497539 49.365926, 2.497196 49.364770, 2.496853 49.363613, 2.496510 49.362456, 2.496168 49.361299, 2.495825 49.360142, 2.495482 49.358986, 2.495140 49.357829, 2.494797 49.356672, 2.494455 49.355515, 2.494112 49.354359, 2.493770 49.353202, 2.493427 49.352045, 2.493084 49.350888, 2.492742 49.349732, 2.492399 49.348575, 2.492057 49.347418, 2.491715 49.346261, 2.491372 49.345104, 2.491030 49.343948, 2.490687 49.342791, 2.490345 49.341634, 2.490003 49.340477, 2.489660 49.339321, 2.489318 49.338164, 2.488975 49.337007, 2.488633 49.335850, 2.488291 49.334693, 2.487949 49.333537, 2.487606 49.332380, 2.487264 49.331223, 2.486922 49.330066, 2.486580 49.328910, 2.486237 49.327753, 2.485895 49.326596, 2.485553 49.325439, 2.485211 49.324282, 2.484869 49.323126, 2.484527 49.321969, 2.484185 49.320812, 2.483842 49.319655, 2.483500 49.318498, 2.483158 49.317342, 2.482816 49.316185, 2.482474 49.315028, 2.482132 49.313871, 2.481790 49.312714, 2.481448 49.311558, 2.481106 49.310401, 2.480764 49.309244, 2.480422 49.308087, 2.480081 49.306930, 2.479739 49.305774, 2.479397 49.304617, 2.479055 49.303460, 2.478713 49.302303, 2.478371 49.301146, 2.478029 49.299989, 2.477688 49.298833, 2.477346 49.297676, 2.477004 49.296519, 2.476662 49.295362, 2.476321 49.294205, 2.475979 49.293049, 2.475637 49.291892, 2.475296 49.290735, 2.474954 49.289578, 2.474612 49.288421, 2.474271 49.287264, 2.473929 49.286108, 2.473587 49.284951, 2.473246 49.283794, 2.472904 49.282637, 2.472563 49.281480, 2.472221 49.280323, 2.471880 49.279167, 2.471538 49.278010, 2.471197 49.276853, 2.470855 49.275696, 2.470514 49.274539, 2.470172 49.273382, 2.469831 49.272226, 2.469489 49.271069, 2.469148 49.269912, 2.468807 49.268755, 2.468465 49.267598, 2.468124 49.266441, 2.467782 49.265285, 2.467441 49.264128, 2.467100 49.262971, 2.466759 49.261814, 2.466417 49.260657, 2.466076 49.259500, 2.465735 49.258343, 2.465394 49.257187, 2.465052 49.256030, 2.464711 49.254873, 2.464370 49.253716, 2.464029 49.252559, 2.463688 49.251402, 2.463347 49.250246, 2.463005 49.249089, 2.462664 49.247932, 2.462323 49.246775, 2.461982 49.245618, 2.461641 49.244461, 2.461300 49.243304, 2.460959 49.242147, 2.460618 49.240991, 2.460277 49.239834, 2.459936 49.238677, 2.459595 49.237520, 2.459254 49.236363, 2.458913 49.235206, 2.458573 49.234049, 2.458232 49.232893, 2.457891 49.231736, 2.457550 49.230579, 2.457209 49.229422, 2.456868 49.228265, 2.456527 49.227108, 2.456187 49.225951, 2.455846 49.224794, 2.455505 49.223638, 2.455164 49.222481, 2.454824 49.221324, 2.454483 49.220167, 2.454142 49.219010, 2.453802 49.217853, 2.453461 49.216696, 2.453120 49.215539, 2.452780 49.214382, 2.452439 49.213226, 2.452098 49.212069, 2.451758 49.210912, 2.451417 49.209755, 2.451077 49.208598, 2.450736 49.207441, 2.450396 49.206284, 2.450055 49.205127, 2.449715 49.203970, 2.449374 49.202813, 2.449034 49.201657, 2.448693 49.200500, 2.448353 49.199343, 2.448012 49.198186, 2.447672 49.197029, 2.447332 49.195872, 2.446991 49.194715, 2.446651 49.193558, 2.446311 49.192401, 2.445970 49.191244, 2.445630 49.190088, 2.445290 49.188931, 2.444950 49.187774, 2.444609 49.186617, 2.444269 49.185460, 2.443929 49.184303, 2.443589 49.183146, 2.443248 49.181989, 2.442908 49.180832, 2.442568 49.179675, 2.442228 49.178518, 2.441888 49.177361, 2.441548 49.176205, 2.441208 49.175048, 2.440868 49.173891, 2.440528 49.172734, 2.440188 49.171577, 2.439847 49.170420, 2.439507 49.169263, 2.439167 49.168106, 2.438827 49.166949, 2.438488 49.165792, 2.438148 49.164635, 2.437808 49.163478, 2.437468 49.162321, 2.437128 49.161164, 2.436788 49.160008, 2.436448 49.158851, 2.436108 49.157694, 2.435768 49.156537, 2.435429 49.155380, 2.435089 49.154223, 2.434749 49.153066, 2.434409 49.151909, 2.434069 49.150752, 2.433730 49.149595, 2.433390 49.148438, 2.433050 49.147281, 2.432711 49.146124, 2.432371 49.144967, 2.432031 49.143810, 2.431692 49.142653, 2.431352 49.141496, 2.431012 49.140339, 2.430673 49.139183, 2.430333 49.138026, 2.429994 49.136869, 2.429654 49.135712, 2.429315 49.134555, 2.428975 49.133398, 2.428636 49.132241, 2.428296 49.131084, 2.427957 49.129927, 2.427617 49.128770, 2.427278 49.127613, 2.426938 49.126456, 2.426599 49.125299, 2.426259 49.124142, 2.425920 49.122985, 2.425581 49.121828, 2.425241 49.120671, 2.424902 49.119514, 2.424563 49.118357, 2.424223 49.117200, 2.423884 49.116043, 2.423545 49.114886, 2.423206 49.113729, 2.422866 49.112572, 2.422527 49.111415, 2.422188 49.110258, 2.421849 49.109101, 2.421510 49.107944, 2.421170 49.106787, 2.420831 49.105630, 2.420492 49.104473, 2.420153 49.103316, 2.419814 49.102159, 2.419475 49.101002, 2.419136 49.099846, 2.418797 49.098689, 2.418458 49.097532, 2.418119 49.096375, 2.417780 49.095218, 2.417441 49.094061, 2.417102 49.092904, 2.416763 49.091747, 2.416424 49.090590, 2.416085 49.089433, 2.415746 49.088276, 2.415407 49.087119, 2.415068 49.085962, 2.414730 49.084805, 2.414391 49.083648, 2.414052 49.082491, 2.413713 49.081334, 2.413374 49.080177, 2.413036 49.079020, 2.412697 49.077863, 2.412358 49.076706, 2.412019 49.075549, 2.411681 49.074392, 2.411342 49.073235, 2.411003 49.072078, 2.410665 49.070921, 2.410326 49.069763, 2.409987 49.068606, 2.409649 49.067449, 2.409310 49.066292, 2.408971 49.065135, 2.408633 49.063978, 2.408294 49.062821, 2.407956 49.061664, 2.407617 49.060507, 2.407279 49.059350, 2.406940 49.058193, 2.406602 49.057036, 2.406263 49.055879, 2.405925 49.054722, 2.405587 49.053565, 2.405248 49.052408, 2.404910 49.051251, 2.404571 49.050094, 2.404233 49.048937, 2.403895 49.047780, 2.403556 49.046623, 2.403218 49.045466, 2.402880 49.044309, 2.402541 49.043152, 2.402203 49.041995, 2.401865 49.040838, 2.401527 49.039681, 2.401188 49.038524, 2.400850 49.037367, 2.400512 49.036210, 2.400174 49.035053, 2.399836 49.033896, 2.399497 49.032739, 2.399159 49.031582, 2.398821 49.030424, 2.398483 49.029267, 2.398145 49.028110, 2.397807 49.026953, 2.397469 49.025796, 2.397131 49.024639, 2.396793 49.023482, 2.396455 49.022325, 2.396117 49.021168, 2.395779 49.020011, 2.395441 49.018854, 2.395103 49.017697, 2.394765 49.016540, 2.394427 49.015383, 2.394089 49.014226, 2.393751 49.013069, 2.393414 49.011912, 2.393076 49.010755, 2.392738 49.009597, 2.392400 49.008440, 2.392062 49.007283, 2.391725 49.006126, 2.391387 49.004969, 2.391049 49.003812, 2.390711 49.002655, 2.390374 49.001498, 2.390036 49.000341, 2.389698 48.999184, 2.389360 48.998027, 2.389023 48.996870, 2.388685 48.995713, 2.388348 48.994556, 2.388010 48.993398, 2.387672 48.992241, 2.387335 48.991084, 2.386997 48.989927, 2.386660 48.988770, 2.386322 48.987613, 2.385985 48.986456, 2.385647 48.985299, 2.385310 48.984142, 2.384972 48.982985, 2.384635 48.981828, 2.384297 48.980671, 2.383960 48.979513, 2.383622 48.978356, 2.383285 48.977199, 2.382948 48.976042, 2.382610 48.974885, 2.382273 48.973728, 2.381936 48.972571, 2.381598 48.971414, 2.381261 48.970257, 2.380924 48.969100, 2.380586 48.967942, 2.380249 48.966785, 2.379912 48.965628, 2.379575 48.964471, 2.379238 48.963314, 2.378900 48.962157, 2.378563 48.961000, 2.378226 48.959843, 2.377889 48.958686, 2.377552 48.957529, 2.377215 48.956371, 2.376878 48.955214, 2.376541 48.954057, 2.376203 48.952900, 2.375866 48.951743, 2.375529 48.950586, 2.375192 48.949429, 2.374855 48.948272, 2.374518 48.947115, 2.374181 48.945957, 2.373844 48.944800, 2.373508 48.943643, 2.373171 48.942486, 2.372834 48.941329, 2.372497 48.940172, 2.372160 48.939015, 2.371823 48.937858, 2.371486 48.936700, 2.371149 48.935543, 2.370813 48.934386, 2.370476 48.933229, 2.370139 48.932072, 2.369802 48.930915, 2.369465 48.929758, 2.369129 48.928600, 2.368792 48.927443, 2.368455 48.926286, 2.368119 48.925129, 2.367782 48.923972, 2.367445 48.922815, 2.367109 48.921658, 2.366772 48.920501, 2.366435 48.919343, 2.366099 48.918186, 2.365762 48.917029, 2.365426 48.915872, 2.365089 48.914715, 2.364753 48.913558, 2.364416 48.912401, 2.364080 48.911243, 2.363743 48.910086, 2.363407 48.908929, 2.363070 48.907772, 2.362734 48.906615, 2.362397 48.905458, 2.362061 48.904300, 2.361725 48.903143, 2.361388 48.901986, 2.361052 48.900829, 2.360715 48.899672, 2.360379 48.898515, 2.360043 48.897358, 2.359707 48.896200, 2.359370 48.895043, 2.359034 48.893886, 2.358698 48.892729, 2.358361 48.891572, 2.358025 48.890415, 2.357689 48.889257, 2.357353 48.888100, 2.357017 48.886943, 2.356681 48.885786, 2.356344 48.884629, 2.356008 48.883472, 2.355672 48.882314, 2.355336 48.881157, 2.355000 48.880000)
