LINESTRING (-0.124000 51.531000, -0.124176 51.532489, -0.124351 51.533979, -0.124527 51.535468, -0.124702 51.536958, -0.124878 51.538447, -0.125054 51.539936, -0.125229 51.541426, -0.125405 51.542915, -0.125581 51.544405, -0.125757 51.545894, -0.125932 51.547383, -0.126108 51.548873, -0.126284 51.550362, -0.126460 51.551852, -0.126635 51.553341, -0.126811 51.554830, -0.126987 51.556320, -0.127163 51.557809, -0.127338 51.559298, -0.127514 51.560788, -0.127690 51.562277, -0.127866 51.563767, -0.128042 51.565256, -0.128218 51.566745, -0.128394 51.568235, -0.128570 51.569724, -0.128745 51.571214, -0.128921 51.572703, -0.129097 51.574192, -0.129273 51.575682, -0.129449 51.577171, -0.129625 51.578661, -0.129801 51.580150, -0.129977 51.581639, -0.130153 51.583129, -0.130329 51.584618, -0.130505 51.586107, -0.130681 51.587597, -0.130857 51.589086, -0.131033 51.590576, -0.131209 51.592065, -0.131385 51.593554, -0.131561 51.595044, -0.131738 51.596533, -0.131914 51.598023, -0.132090 51.599512, -0.132266 51.601001, -0.132442 51.602491, -0.132618 51.603980, -0.132794 51.605469, -0.132971 51.606959, -0.133147 51.608448, -0.133323 51.609938, -0.133499 51.611427, -0.133675 51.612916, -0.133852 51.614406, -0.134028 51.615895, -0.134204 51.617384, -0.134381 51.618874, -0.134557 51.620363, -0.134733 51.621853, -0.134909 51.623342, -0.135086 51.624831, -0.135262 51.626321, -0.135438 51.627810, -0.135615 51.629300, -0.135791 51.630789, -0.135968 51.632278, -0.136144 51.633768, -0.136320 51.635257, -0.136497 51.636746, -0.136673 51.638236, -0.136850 51.639725, -0.137026 51.641215, -0.137203 51.642704, -0.137379 51.644193, -0.137555 51.645683, -0.137732 51.647172, -0.137908 51.648661, -0.138085 51.650151, -0.138262 51.651640, -0.138438 51.653130, -0.138615 51.654619, -0.138791 51.656108, -0.138968 51.657598, -0.139144 51.659087, -0.139321 51.660576, -0.139498 51.662066, -0.139674 51.663555, -0.139851 51.665045, -0.140027 51.666534, -0.140204 51.668023, -0.140381 51.669513, -0.140557 51.671002, -0.140734 51.672491, -0.140911 51.673981, -0.141088 51.675470, -0.141264 51.676959, -0.141441 51.678449, -0.141618 51.679938, -0.141795 51.681428, -0.141971 51.682917, -0.142148 51.684406, -0.142325 51.685896, -0.142502 51.687385, -0.142679 51.688874, -0.142855 51.690364, -0.143032 51.691853, -0.143209 51.693343, -0.143386 51.694832, -0.143563 51.696321, -0.143740 51.697811, -0.143917 51.699300, -0.144094 51.700789, -0.144270 51.702279, -0.144447 51.703768, -0.144624 51.705257, -0.144801 51.706747, -0.144978 51.708236, -0.145155 51.709726, -0.145332 51.711215, -0.145509 51.712704, -0.145686 51.714194, -0.145863 51.715683, -0.146040 51.717172, -0.146217 51.718662, -0.146394 51.720151, -0.146572 51.721640, -0.146749 51.723130, -0.146926 51.724619, -0.147103 51.726109, -0.147280 51.727598, -0.147457 51.729087, -0.147634 51.730577, -0.147811 51.732066, -0.147989 51.733555, -0.148166 51.735045, -0.148343 51.736534, -0.148520 51.738023, -0.148697 51.739513, -0.148875 51.741002, -0.149052 51.742492, -0.149229 51.743981, -0.149406 51.745470, -0.149584 51.746960, -0.149761 51.748449, -0.149938 51.749938, -0.150116 51.751428, -0.150293 51.752917, -0.150470 51.754406, -0.150648 51.755896, -0.150825 51.757385, -0.151002 51.758874, -0.151180 51.760364, -0.151357 51.761853, -0.151534 51.763342, -0.151712 51.764832, -0.151889 51.766321, -0.152067 51.767811, -0.152244 51.769300, -0.152422 51.770789, -0.152599 51.772279, -0.152777 51.773768, -0.152954 51.775257, -0.153132 51.776747, -0.153309 51.778236, -0.153487 51.779725, -0.153664 51.781215, -0.153842 51.782704, -0.154019 51.784193, -0.154197 51.785683, -0.154375 51.787172, -0.154552 51.788661, -0.154730 51.790151, -0.154907 51.791640, -0.155085 51.793130, -0.155263 51.794619, -0.155440 51.796108, -0.155618 51.797598, -0.155796 51.799087, -0.155973 51.800576, -0.156151 51.802066, -0.156329 51.803555, -0.156507 51.805044, -0.156684 51.806534, -0.156862 51.808023, -0.157040 51.809512, -0.157218 51.811002, -0.157395 51.812491, -0.157573 51.813980, -0.157751 51.815470, -0.157929 51.816959, -0.158107 51.818448, -0.158285 51.819938, -0.158462 51.821427, -0.158640 51.822916, -0.158818 51.824406, -0.158996 51.825895, -0.159174 51.827384, -0.159352 51.828874, -0.159530 51.830363, -0.159708 51.831852, -0.159886 51.833342, -0.160064 51.834831, -0.160242 51.836321, -0.160420 51.837810, -0.160598 51.839299, -0.160776 51.840789, -0.160954 51.842278, -0.161132 51.843767, -0.161310 51.845257, -0.161488 51.846746, -0.161666 51.848235, -0.161844 51.849725, -0.162022 51.851214, -0.162200 51.852703, -0.162378 51.854193, -0.162556 51.855682, -0.162735 51.857171, -0.162913 51.858661, -0.163091 51.860150, -0.163269 51.861639, -0.163447 51.863129, -0.163626 51.864618, -0.163804 51.866107, -0.163982 51.867597, -0.164160 51.869086, -0.164338 51.870575, -0.164517 51.872065, -0.164695 51.873554, -0.164873 51.875043, -0.165052 51.876533, -0.165230 51.878022, -0.165408 51.879511, -0.165587 51.881001, -0.165765 51.882490, -0.165943 51.883979, -0.166122 51.885469, -0.166300 51.886958, -0.166478 51.888447, -0.166657 51.889937, -0.166835 51.891426, -0.167014 51.892915, -0.167192 51.894405, -0.167371 51.895894, -0.167549 51.897383, -0.167727 51.898873, -0.167906 51.900362, -0.168084 51.901851, -0.168263 51.903341, -0.168441 51.904830, -0.168620 51.906319, -0.168799 51.907809, -0.168977 51.909298, -0.169156 51.910787, -0.169334 51.912277, -0.169513 51.913766, -0.169691 51.915255, -0.169870 51.916745, -0.170049 51.918234, -0.170227 51.919723, -0.170406 51.921213, -0.170585 51.922702, -0.170763 51.924191, -0.170942 51.925681, -0.171121 51.927170, -0.171299 51.928659, -0.171478 51.930148, -0.171657 51.931638, -0.171836 51.933127, -0.172014 51.934616, -0.172193 51.936106, -0.172372 51.937595, -0.172551 51.939084, -0.172730 51.940574, -0.172908 51.942063, -0.173087 51.943552, -0.173266 51.945042, -0.173445 51.946531, -0.173624 51.948020, -0.173803 51.949510, -0.173982 51.950999, -0.174160 51.952488, -0.174339 51.953978, -0.174518 51.955467, -0.174697 51.956956, -0.174876 51.958446, -0.175055 51.959935, -0.175234 51.961424, -0.175413 51.962914, -0.175592 51.964403, -0.175771 51.965892, -0.175950 51.967381, -0.176129 51.968871, -0.176308 51.970360, -0.176487 51.971849, -0.176666 51.973339, -0.176845 51.974828, -0.177025 51.976317, -0.177204 51.977807, -0.177383 51.979296, -0.177562 51.980785, -0.177741 51.982275, -0.177920 51.983764, -0.178099 51.985253, -0.178279 51.986743, -0.178458 51.988232, -0.178637 51.989721, -0.178816 51.991211, -0.178995 51.992700, -0.179175 51.994189, -0.179354 51.995678, -0.179533 51.997168, -0.179712 51.998657, -0.179892 52.000146, -0.180071 52.001636, -0.180250 52.003125, -0.180430 52.004614, -0.180609 52.006104, -0.180788 52.007593, -0.180968 52.009082, -0.181147 52.010572, -0.181326 52.012061, -0.181506 52.013550, -0.181685 52.015040, -0.181865 52.016529, -0.182044 52.018018, -0.182223 52.019507, -0.182403 52.020997, -0.182582 52.022486, -0.182762 52.023975, -0.182941 52.025465, -0.183121 52.026954, -0.183300 52.028443, -0.183480 52.029933, -0.183659 52.031422, -0.183839 52.032911, -0.184018 52.034401, -0.184198 52.035890, -0.184378 52.037379, -0.184557 52.038868, -0.184737 52.040358, -0.184916 52.041847, -0.185096 52.043336, -0.185276 52.044826, -0.185455 52.046315, -0.185635 52.047804, -0.185815 52.049294, -0.185994 52.050783, -0.186174 52.052272, -0.186354 52.053761, -0.186534 52.055251, -0.186713 52.056740, -0.186893 52.058229, -0.187073 52.059719, -0.187253 52.061208, -0.187432 52.062697, -0.187612 52.064187, -0.187792 52.065676, -0.187972 52.067165, -0.188152 52.068654, -0.188331 52.070144, -0.188511 52.071633, -0.188691 52.073122, -0.188871 52.074612, -0.189051 52.076101, -0.189231 52.077590, -0.189411 52.079080, -0.189591 52.080569, -0.189771 52.082058, -0.189951 52.083547, -0.190131 52.085037, -0.190311 52.086526, -0.190491 52.088015, -0.190671 52.089505, -0.190851 52.090994, -0.191031 52.092483, -0.191211 52.093972, -0.191391 52.095462, -0.191571 52.096951, -0.191751 52.098440, -0.191931 52.099930, -0.192111 52.101419, -0.192291 52.102908, -0.192471 52.104398, -0.192651 52.105887, -0.192831 52.107376, -0.193012 52.108865, -0.193192 52.110355, -0.193372 52.111844, -0.193552 52.113333, -0.193732 52.114823, -0.193913 52.116312, -0.194093 52.117801, -0.194273 52.119290, -0.194453 52.120780, -0.194634 52.122269, -0.194814 52.123758, -0.194994 52.125248, -0.195174 52.126737, -0.195355 52.128226, -0.195535 52.129715, -0.195715 52.131205, -0.195896 52.132694, -0.196076 52.134183, -0.196257 52.135673, -0.196437 52.137162, -0.196617 52.138651, -0.196798 52.140140, -0.196978 52.141630, -0.197159 52.143119, -0.197339 52.144608, -0.197519 52.146098, -0.197700 52.147587, -0.197880 52.149076, -0.198061 52.150565, -0.198241 52.152055, -0.198422 52.153544, -0.198603 52.155033, -0.198783 52.156523, -0.198964 52.158012, -0.199144 52.159501, -0.199325 52.160990, -0.199505 52.162480, -0.199686 52.163969, -0.199867 52.165458, -0.200047 52.166948, -0.200228 52.168437, -0.200408 52.169926, -0.200589 52.171415, -0.200770 52.172905, -0.200951 52.174394, -0.201131 52.175883, -0.201312 52.177373, -0.201493 52.178862, -0.201673 52.180351, -0.201854 52.181840, -0.202035 52.183330, -0.202216 52.184819, -0.202396 52.186308, -0.202577 52.187797, -0.202758 52.189287, -0.202939 52.190776, -0.203120 52.192265, -0.203301 52.193755, -0.203481 52.195244, -0.203662 52.196733, -0.203843 52.198222, -0.204024 52.199712, -0.204205 52.201201, -0.204386 52.202690, -0.204567 52.204179, -0.204748 52.205669, -0.204929 52.207158, -0.205110 52.208647, -0.205291 52.210137, -0.205472 52.211626, -0.205653 52.213115, -0.205834 52.214604, -0.206015 52.216094, -0.206196 52.217583, -0.206377 52.219072, -0.206558 52.220561, -0.206739 52.222051, -0.206920 52.223540, -0.207101 52.225029, -0.207282 52.226519, -0.207463 52.228008, -0.207645 52.229497, -0.207826 52.230986, -0.208007 52.232476, -0.208188 52.233965, -0.208369 52.235454, -0.208550 52.236943, -0.208732 52.238433, -0.208913 52.239922, -0.209094 52.241411, -0.209275 52.242901, -0.209457 52.244390, -0.209638 52.245879, -0.209819 52.247368, -0.210000 52.248858, -0.210182 52.250347, -0.210363 52.251836, -0.210544 52.253325, -0.210726 52.254815, -0.210907 52.256304, -0.211088 52.257793, -0.211270 52.259282, -0.211451 52.260772, -0.211633 52.262261, -0.211814 52.263750, -0.211995 52.265239, -0.212177 52.266729, -0.212358 52.268218, -0.212540 52.269707, -0.212721 52.271197, -0.212903 52.272686, -0.213084 52.274175, -0.213266 52.275664, -0.213447 52.277154, -0.213629 52.278643, -0.213810 52.280132, -0.213992 52.281621, -0.214174 52.283111, -0.214355 52.284600, -0.214537 52.286089, -0.214718 52.287578, -0.214900 52.289068, -0.215082 52.290557, -0.215263 52.292046, -0.215445 52.293535, -0.215627 52.295025, -0.215808 52.296514, -0.215990 52.298003, -0.216172 52.299492, -0.216353 52.300982, -0.216535 52.302471, -0.216717 52.303960, -0.216899 52.305449, -0.217080 52.306939, -0.217262 52.308428, -0.217444 52.309917, -0.217626 52.311406, -0.217808 52.312896, -0.217990 52.314385, -0.218171 52.315874, -0.218353 52.317364, -0.218535 52.318853, -0.218717 52.320342, -0.218899 52.321831, -0.219081 52.323321, -0.219263 52.324810, -0.219445 52.326299, -0.219627 52.327788, -0.219809 52.329278, -0.219990 52.330767, -0.220172 52.332256, -0.220354 52.333745, -0.220536 52.335235, -0.220718 52.336724, -0.220900 52.338213, -0.221083 52.339702, -0.221265 52.341192, -0.221447 52.342681, -0.221629 52.344170, -0.221811 52.345659, -0.221993 52.347149, -0.222175 52.348638, -0.222357 52.350127, -0.222539 52.351616, -0.222721 52.353105, -0.222904 52.354595, -0.223086 52.356084, -0.223268 52.357573, -0.223450 52.359062, -0.223632 52.360552, -0.223815 52.362041, -0.223997 52.363530, -0.224179 52.365019, -0.224361 52.366509, -0.224544 52.367998, -0.224726 52.369487, -0.224908 52.370976, -0.225091 52.372466, -0.225273 52.373955, -0.225455 52.375444, -0.225638 52.376933, -0.225820 52.378423, -0.226002 52.379912, -0.226185 52.381401, -0.226367 52.382890, -0.226549 52.384380, -0.226732 52.385869, -0.226914 52.387358, -0.227097 52.388847, -0.227279 52.390337, -0.227462 52.391826, -0.227644 52.393315, -0.227827 52.394804, -0.228009 52.396293, -0.228192 52.397783, -0.228374 52.399272, -0.228557 52.400761, -0.228739 52.402250, -0.228922 52.403740, -0.229104 52.405229, -0.229287 52.406718, -0.229470 52.408207, -0.229652 52.409697, -0.229835 52.411186, -0.230018 52.412675, -0.230200 52.414164, -0.230383 52.415654, -0.230566 52.417143, -0.230748 52.418632, -0.230931 52.420121, -0.231114 52.421611, -0.231296 52.423100, -0.231479 52.424589, -0.231662 52.426078, -0.231845 52.427567, -0.232027 52.429057, -0.232210 52.430546, -0.232393 52.432035, -0.232576 52.433524, -0.232759 52.435014, -0.232942 52.436503, -0.233124 52.437992, -0.233307 52.439481, -0.233490 52.440971, -0.233673 52.442460, -0.233856 52.443949, -0.234039 52.445438, -0.234222 52.446927, -0.234405 52.448417, -0.234588 52.449906, -0.234771 52.451395, -0.234954 52.452884, -0.235137 52.454374, -0.235320 52.455863, -0.235503 52.457352, -0.235686 52.458841, -0.235869 52.460330, -0.236052 52.461820, -0.236235 52.463309, -0.236418 52.464798, -0.236601 52.466287, -0.236784 52.467777, -0.236967 52.469266, -0.237150 52.470755, -0.237333 52.472244, -0.237517 52.473733, -0.237700 52.475223, -0.237883 52.476712, -0.238066 52.478201, -0.238249 52.479690, -0.238433 52.481180, -0.238616 52.482669, -0.238799 52.484158, -0.238982 52.485647, -0.239166 52.487136, -0.239349 52.488626, -0.239532 52.490115, -0.239715 52.491604, -0.239899 52.493093, -0.240082 52.494583, -0.240265 52.496072, -0.240449 52.497561, -0.240632 52.499050, -0.240815 52.500539, -0.240999 52.502029, -0.241182 52.503518, -0.241366 52.505007, -0.241549 52.506496, -0.241732 52.507986, -0.241916 52.509475, -0.242099 52.510964, -0.242283 52.512453, -0.242466 52.513942, -0.242650 52.515432, -0.242833 52.516921, -0.243017 52.518410, -0.243200 52.519899, -0.243384 52.521388, -0.243568 52.522878, -0.243751 52.524367, -0.243935 52.525856, -0.244118 52.527345, -0.244302 52.528835, -0.244486 52.530324, -0.244669 52.531813, -0.244853 52.533302, -0.245036 52.534791, -0.245220 52.536281, -0.245404 52.537770, -0.245588 52.539259, -0.245771 52.540748, -0.245955 52.542237, -0.246139 52.543727, -0.246322 52.545216, -0.246506 52.546705, -0.246690 52.548194, -0.246874 52.549683, -0.247058 52.551173, -0.247241 52.552662, -0.247425 52.554151, -0.247609 52.555640, -0.247793 52.557130, -0.247977 52.558619, -0.248161 52.560108, -0.248344 52.561597, -0.248528 52.563086, -0.248712 52.564576, -0.248896 52.566065, -0.249080 52.567554, -0.249264 52.569043, -0.249448 52.570532, -0.249632 52.572022, -0.249816 52.573511, -0.250000 52.575000, -0.251429 52.576215, -0.252857 52.577430, -0.254286 52.578644, -0.255715 52.579859, -0.257144 52.581074, -0.258573 52.582289, -0.260003 52.583503, -0.261432 52.584718, -0.262861 52.585933, -0.264291 52.587147, -0.265720 52.588362, -0.267150 52.589577, -0.268579 52.590791, -0.270009 52.592006, -0.271439 52.593220, -0.272869 52.594435, -0.274299 52.595649, -0.275729 52.596864, -0.277159 52.598079, -0.278589 52.599293, -0.280020 52.600507, -0.281450 52.601722, -0.282880 52.602936, -0.284311 52.604151, -0.285742 52.605365, -0.287172 52.606580, -0.288603 52.607794, -0.290034 52.609008, -0.291465 52.610223, -0.292896 52.611437, -0.294327 52.612651, -0.295758 52.613866, -0.297189 52.615080, -0.298621 52.616294, -0.300052 52.617508, -0.301483 52.618722, -0.302915 52.619937, -0.304347 52.621151, -0.305778 52.622365, -0.307210 52.623579, -0.308642 52.624793, -0.310074 52.626007, -0.311506 52.627221, -0.312938 52.628436, -0.314370 52.629650, -0.315803 52.630864, -0.317235 52.632078, -0.318667 52.633292, -0.320100 52.634506, -0.321533 52.635720, -0.322965 52.636934, -0.324398 52.638147, -0.325831 52.639361, -0.327264 52.640575, -0.328697 52.641789, -0.330130 52.643003, -0.331563 52.644217, -0.332996 52.645431, -0.334430 52.646645, -0.335863 52.647858, -0.337296 52.649072, -0.338730 52.650286, -0.340164 52.651500, -0.341597 52.652713, -0.343031 52.653927, -0.344465 52.655141, -0.345899 52.656354, -0.347333 52.657568, -0.348767 52.658782, -0.350201 52.659995, -0.351635 52.661209, -0.353070 52.662423, -0.354504 52.663636, -0.355939 52.664850, -0.357373 52.666063, -0.358808 52.667277, -0.360243 52.668490, -0.361678 52.669704, -0.363113 52.670917, -0.364547 52.672131, -0.365983 52.673344, -0.367418 52.674557, -0.368853 52.675771, -0.370288 52.676984, -0.371724 52.678198, -0.373159 52.679411, -0.374595 52.680624, -0.376030 52.681838, -0.377466 52.683051, -0.378902 52.684264, -0.380338 52.685477, -0.381774 52.686691, -0.383210 52.687904, -0.384646 52.689117, -0.386082 52.690330, -0.387518 52.691543, -0.388954 52.692757, -0.390391 52.693970, -0.391827 52.695183, -0.393264 52.696396, -0.394701 52.697609, -0.396137 52.698822, -0.397574 52.700035, -0.399011 52.701248, -0.400448 52.702461, -0.401885 52.703674, -0.403322 52.704887, -0.404759 52.706100, -0.406197 52.707313, -0.407634 52.708526, -0.409072 52.709739, -0.410509 52.710952, -0.411947 52.712165, -0.413384 52.713378, -0.414822 52.714590, -0.416260 52.715803, -0.417698 52.717016, -0.419136 52.718229, -0.420574 52.719442, -0.422012 52.720654, -0.423451 52.721867, -0.424889 52.723080, -0.426327 52.724293, -0.427766 52.725505, -0.429204 52.726718, -0.430643 52.727931, -0.432082 52.729143, -0.433521 52.730356, -0.434960 52.731568, -0.436399 52.732781, -0.437838 52.733994, -0.439277 52.735206, -0.440716 52.736419, -0.442155 52.737631, -0.443595 52.738844, -0.445034 52.740056, -0.446474 52.741269, -0.447913 52.742481, -0.449353 52.743693, -0.450793 52.744906, -0.452233 52.746118, -0.453673 52.747331, -0.455113 52.748543, -0.456553 52.749755, -0.457993 52.750968, -0.459433 52.752180, -0.460873 52.753392, -0.462314 52.754604, -0.463754 52.755817, -0.465195 52.757029, -0.466636 52.758241, -0.468076 52.759453, -0.469517 52.760666, -0.470958 52.761878, -0.472399 52.763090, -0.473840 52.764302, -0.475281 52.765514, -0.476722 52.766726, -0.478164 52.767938, -0.479605 52.769150, -0.481047 52.770362, -0.482488 52.771574, -0.483930 52.772786, -0.485371 52.773998, -0.486813 52.775210, -0.488255 52.776422, -0.489697 52.777634, -0.491139 52.778846, -0.492581 52.780058, -0.494023 52.781270, -0.495466 52.782482, -0.496908 52.783694, -0.498350 52.784906, -0.499793 52.786117, -0.501236 52.787329, -0.502678 52.788541, -0.504121 52.789753, -0.505564 52.790964, -0.507007 52.792176, -0.508450 52.793388, -0.509893 52.794600, -0.511336 52.795811, -0.512779 52.797023, -0.514222 52.798235, -0.515666 52.799446, -0.517109 52.800658, -0.518553 52.801869, -0.519996 52.803081, -0.521440 52.804292, -0.522884 52.805504, -0.524328 52.806715, -0.525772 52.807927, -0.527216 52.809138, -0.528660 52.810350, -0.530104 52.811561, -0.531548 52.812773, -0.532993 52.813984, -0.534437 52.815196, -0.535882 52.816407, -0.537326 52.817618, -0.538771 52.818830, -0.540216 52.820041, -0.541661 52.821252, -0.543106 52.822464, -0.544551 52.823675, -0.545996 52.824886, -0.547441 52.826097, -0.548886 52.827309, -0.550331 52.828520, -0.551777 52.829731, -0.553222 52.830942, -0.554668 52.832153, -0.556113 52.833364, -0.557559 52.834576, -0.559005 52.835787, -0.560451 52.836998, -0.561897 52.838209, -0.563343 52.839420, -0.564789 52.840631, -0.566235 52.841842, -0.567682 52.843053, -0.569128 52.844264, -0.570574 52.845475, -0.572021 52.846686, -0.573467 52.847897, -0.574914 52.849107, -0.576361 52.850318, -0.577808 52.851529, -0.579255 52.852740, -0.580702 52.853951, -0.582149 52.855162, -0.583596 52.856373, -0.585043 52.857583, -0.586491 52.858794, -0.587938 52.860005, -0.589386 52.861216, -0.590833 52.862426, -0.592281 52.863637, -0.593729 52.864848, -0.595176 52.866058, -0.596624 52.867269, -0.598072 52.868480, -0.599520 52.869690, -0.600969 52.870901, -0.602417 52.872111, -0.603865 52.873322, -0.605313 52.874532, -0.606762 52.875743, -0.608210 52.876953, -0.609659 52.878164, -0.611108 52.879374, -0.612557 52.880585, -0.614005 52.881795, -0.615454 52.883006, -0.616903 52.884216, -0.618353 52.885426, -0.619802 52.886637, -0.621251 52.887847, -0.622700 52.889057, -0.624150 52.890268, -0.625599 52.891478, -0.627049 52.892688, -0.628499 52.893898, -0.629948 52.895109, -0.631398 52.896319, -0.632848 52.897529, -0.634298 52.898739, -0.635748 52.899949, -0.637199 52.901160, -0.638649 52.902370, -0.640099 52.903580, -0.641550 52.904790, -0.643000 52.906000, -0.644168 52.907309, -0.645337 52.908618, -0.646505 52.909927, -0.647673 52.911236, -0.648842 52.912545, -0.650011 52.913854, -0.651179 52.915163, -0.652348 52.916472, -0.653517 52.917781, -0.654686 52.919090, -0.655855 52.920399, -0.657024 52.921708, -0.658193 52.923017, -0.659362 52.924325, -0.660531 52.925634, -0.661701 52.926943, -0.662870 52.928252, -0.664039 52.929561, -0.665209 52.930870, -0.666378 52.932178, -0.667548 52.933487, -0.668718 52.934796, -0.669888 52.936105, -0.671058 52.937414, -0.672228 52.938722, -0.673398 52.940031, -0.674568 52.941340, -0.675738 52.942649, -0.676908 52.943957, -0.678078 52.945266, -0.679249 52.946575, -0.680419 52.947883, -0.681590 52.949192, -0.682760 52.950501, -0.683931 52.951809, -0.685102 52.953118, -0.686272 52.954426, -0.687443 52.955735, -0.688614 52.957044, -0.689785 52.958352, -0.690956 52.959661, -0.692127 52.960969, -0.693299 52.962278, -0.694470 52.963586, -0.695641 52.964895, -0.696813 52.966204, -0.697984 52.967512, -0.699156 52.968821, -0.700328 52.970129, -0.701499 52.971437, -0.702671 52.972746, -0.703843 52.974054, -0.705015 52.975363, -0.706187 52.976671, -0.707359 52.977980, -0.708531 52.979288, -0.709703 52.980596, -0.710876 52.981905, -0.712048 52.983213, -0.713220 52.984522, -0.714393 52.985830, -0.715565 52.987138, -0.716738 52.988446, -0.717911 52.989755, -0.719084 52.991063, -0.720256 52.992371, -0.721429 52.993680, -0.722602 52.994988, -0.723775 52.996296, -0.724949 52.997604, -0.726122 52.998913, -0.727295 53.000221, -0.728468 53.001529, -0.729642 53.002837, -0.730815 53.004145, -0.731989 53.005454, -0.733163 53.006762, -0.734336 53.008070, -0.735510 53.009378, -0.736684 53.010686, -0.737858 53.011994, -0.739032 53.013302, -0.740206 53.014610, -0.741380 53.015919, -0.742554 53.017227, -0.743728 53.018535, -0.744903 53.019843, -0.746077 53.021151, -0.747252 53.022459, -0.748426 53.023767, -0.749601 53.025075, -0.750776 53.026383, -0.751950 53.027691, -0.753125 53.028999, -0.754300 53.030307, -0.755475 53.031615, -0.756650 53.032922, -0.757825 53.034230, -0.759001 53.035538, -0.760176 53.036846, -0.761351 53.038154, -0.762527 53.039462, -0.763702 53.040770, -0.764878 53.042078, -0.766053 53.043385, -0.767229 53.044693, -0.768405 53.046001, -0.769581 53.047309, -0.770757 53.048617, -0.771933 53.049924, -0.773109 53.051232, -0.774285 53.052540, -0.775461 53.053848, -0.776637 53.055155, -0.777814 53.056463, -0.778990 53.057771, -0.780166 53.059078, -0.781343 53.060386, -0.782520 53.061694, -0.783696 53.063002, -0.784873 53.064309, -0.786050 53.065617, -0.787227 53.066924, -0.788404 53.068232, -0.789581 53.069540, -0.790758 53.070847, -0.791935 53.072155, -0.793113 53.073462, -0.794290 53.074770, -0.795467 53.076077, -0.796645 53.077385, -0.797822 53.078692, -0.799000 53.080000, -0.800032 53.081357, -0.801065 53.082715, -0.802097 53.084072, -0.803129 53.085429, -0.804162 53.086786, -0.805194 53.088144, -0.806227 53.089501, -0.807260 53.090858, -0.808293 53.092215, -0.809325 53.093573, -0.810358 53.094930, -0.811391 53.096287, -0.812424 53.097644, -0.813457 53.099001, -0.814491 53.100359, -0.815524 53.101716, -0.816557 53.103073, -0.817590 53.104430, -0.818624 53.105787, -0.819657 53.107144, -0.820691 53.108501, -0.821724 53.109858, -0.822758 53.111216, -0.823792 53.112573, -0.824826 53.113930, -0.825860 53.115287, -0.826893 53.116644, -0.827927 53.118001, -0.828962 53.119358, -0.829996 53.120715, -0.831030 53.122072, -0.832064 53.123429, -0.833098 53.124786, -0.834133 53.126143, -0.835167 53.127500, -0.836202 53.128857, -0.837236 53.130214, -0.838271 53.131571, -0.839306 53.132928, -0.840341 53.134285, -0.841375 53.135642, -0.842410 53.136999, -0.843445 53.138356, -0.844480 53.139713, -0.845516 53.141070, -0.846551 53.142426, -0.847586 53.143783, -0.848621 53.145140, -0.849657 53.146497, -0.850692 53.147854, -0.851728 53.149211, -0.852763 53.150568, -0.853799 53.151924, -0.854835 53.153281, -0.855870 53.154638, -0.856906 53.155995, -0.857942 53.157352, -0.858978 53.158708, -0.860014 53.160065, -0.861050 53.161422, -0.862086 53.162779, -0.863123 53.164136, -0.864159 53.165492, -0.865195 53.166849, -0.866232 53.168206, -0.867268 53.169562, -0.868305 53.170919, -0.869341 53.172276, -0.870378 53.173633, -0.871415 53.174989, -0.872452 53.176346, -0.873488 53.177703, -0.874525 53.179059, -0.875562 53.180416, -0.876599 53.181772, -0.877637 53.183129, -0.878674 53.184486, -0.879711 53.185842, -0.880748 53.187199, -0.881786 53.188555, -0.882823 53.189912, -0.883861 53.191269, -0.884898 53.192625, -0.885936 53.193982, -0.886974 53.195338, -0.888012 53.196695, -0.889050 53.198051, -0.890087 53.199408, -0.891125 53.200764, -0.892164 53.202121, -0.893202 53.203477, -0.894240 53.204834, -0.895278 53.206190, -0.896316 53.207547, -0.897355 53.208903, -0.898393 53.210260, -0.899432 53.211616, -0.900470 53.212973, -0.901509 53.214329, -0.902548 53.215685, -0.903587 53.217042, -0.904625 53.218398, -0.905664 53.219755, -0.906703 53.221111, -0.907742 53.222467, -0.908782 53.223824, -0.909821 53.225180, -0.910860 53.226536, -0.911899 53.227893, -0.912939 53.229249, -0.913978 53.230605, -0.915018 53.231962, -0.916057 53.233318, -0.917097 53.234674, -0.918137 53.236030, -0.919176 53.237387, -0.920216 53.238743, -0.921256 53.240099, -0.922296 53.241455, -0.923336 53.242812, -0.924376 53.244168, -0.925416 53.245524, -0.926457 53.246880, -0.927497 53.248236, -0.928537 53.249593, -0.929578 53.250949, -0.930618 53.252305, -0.931659 53.253661, -0.932699 53.255017, -0.933740 53.256373, -0.934781 53.257730, -0.935822 53.259086, -0.936863 53.260442, -0.937904 53.261798, -0.938945 53.263154, -0.939986 53.264510, -0.941027 53.265866, -0.942068 53.267222, -0.943109 53.268578, -0.944151 53.269934, -0.945192 53.271290, -0.946234 53.272646, -0.947275 53.274002, -0.948317 53.275358, -0.949359 53.276714, -0.950400 53.278070, -0.951442 53.279426, -0.952484 53.280782, -0.953526 53.282138, -0.954568 53.283494, -0.955610 53.284850, -0.956652 53.286206, -0.957694 53.287562, -0.958737 53.288918, -0.959779 53.290274, -0.960821 53.291630, -0.961864 53.292986, -0.962907 53.294342, -0.963949 53.295697, -0.964992 53.297053, -0.966035 53.298409, -0.967077 53.299765, -0.968120 53.301121, -0.969163 53.302477, -0.970206 53.303832, -0.971249 53.305188, -0.972292 53.306544, -0.973336 53.307900, -0.974379 53.309256, -0.975422 53.310611, -0.976466 53.311967, -0.977509 53.313323, -0.978553 53.314679, -0.979596 53.316034, -0.980640 53.317390, -0.981684 53.318746, -0.982728 53.320102, -0.983771 53.321457, -0.984815 53.322813, -0.985859 53.324169, -0.986903 53.325524, -0.987948 53.326880, -0.988992 53.328236, -0.990036 53.329591, -0.991080 53.330947, -0.992125 53.332303, -0.993169 53.333658, -0.994214 53.335014, -0.995258 53.336369, -0.996303 53.337725, -0.997348 53.339081, -0.998393 53.340436, -0.999437 53.341792, -1.000482 53.343147, -1.001527 53.344503, -1.002572 53.345858, -1.003618 53.347214, -1.004663 53.348569, -1.005708 53.349925, -1.006753 53.351280, -1.007799 53.352636, -1.008844 53.353991, -1.009890 53.355347, -1.010935 53.356702, -1.011981 53.358058, -1.013027 53.359413, -1.014073 53.360769, -1.015119 53.362124, -1.016164 53.363480, -1.017210 53.364835, -1.018257 53.366190, -1.019303 53.367546, -1.020349 53.368901, -1.021395 53.370256, -1.022441 53.371612, -1.023488 53.372967, -1.024534 53.374323, -1.025581 53.375678, -1.026627 53.377033, -1.027674 53.378388, -1.028721 53.379744, -1.029768 53.381099, -1.030815 53.382454, -1.031861 53.383810, -1.032908 53.385165, -1.033956 53.386520, -1.035003 53.387875, -1.036050 53.389231, -1.037097 53.390586, -1.038144 53.391941, -1.039192 53.393296, -1.040239 53.394652, -1.041287 53.396007, -1.042334 53.397362, -1.043382 53.398717, -1.044430 53.400072, -1.045478 53.401427, -1.046526 53.402783, -1.047573 53.404138, -1.048621 53.405493, -1.049670 53.406848, -1.050718 53.408203, -1.051766 53.409558, -1.052814 53.410913, -1.053862 53.412268, -1.054911 53.413624, -1.055959 53.414979, -1.057008 53.416334, -1.058056 53.417689, -1.059105 53.419044, -1.060154 53.420399, -1.061203 53.421754, -1.062252 53.423109, -1.063300 53.424464, -1.064349 53.425819, -1.065399 53.427174, -1.066448 53.428529, -1.067497 53.429884, -1.068546 53.431239, -1.069595 53.432594, -1.070645 53.433949, -1.071694 53.435304, -1.072744 53.436658, -1.073794 53.438013, -1.074843 53.439368, -1.075893 53.440723, -1.076943 53.442078, -1.077993 53.443433, -1.079043 53.444788, -1.080093 53.446143, -1.081143 53.447498, -1.082193 53.448852, -1.083243 53.450207, -1.084293 53.451562, -1.085344 53.452917, -1.086394 53.454272, -1.087444 53.455626, -1.088495 53.456981, -1.089546 53.458336, -1.090596 53.459691, -1.091647 53.461045, -1.092698 53.462400, -1.093749 53.463755, -1.094800 53.465110, -1.095851 53.466464, -1.096902 53.467819, -1.097953 53.469174, -1.099004 53.470529, -1.100055 53.471883, -1.101107 53.473238, -1.102158 53.474593, -1.103210 53.475947, -1.104261 53.477302, -1.105313 53.478656, -1.106364 53.480011, -1.107416 53.481366, -1.108468 53.482720, -1.109520 53.484075, -1.110572 53.485430, -1.111624 53.486784, -1.112676 53.488139, -1.113728 53.489493, -1.114780 53.490848, -1.115833 53.492202, -1.116885 53.493557, -1.117937 53.494911, -1.118990 53.496266, -1.120042 53.497620, -1.121095 53.498975, -1.122148 53.500329, -1.123201 53.501684, -1.124253 53.503038, -1.125306 53.504393, -1.126359 53.505747, -1.127412 53.507102, -1.128465 53.508456, -1.129519 53.509811, -1.130572 53.511165, -1.131625 53.512519, -1.132678 53.513874, -1.133732 53.515228, -1.134785 53.516583, -1.135839 53.517937, -1.136893 53.519291, -1.137946 53.520646, -1.139000 53.522000, -1.138841 53.523488, -1.138682 53.524976, -1.138524 53.526464, -1.138365 53.527952, -1.138206 53.529440, -1.138047 53.530929, -1.137888 53.532417, -1.137730 53.533905, -1.137571 53.535393, -1.137412 53.536881, -1.137253 53.538369, -1.137094 53.539857, -1.136935 53.541345, -1.136776 53.542833, -1.136617 53.544321, -1.136458 53.545809, -1.136300 53.547297, -1.136141 53.548786, -1.135982 53.550274, -1.135823 53.551762, -1.135664 53.553250, -1.135505 53.554738, -1.135346 53.556226, -1.135187 53.557714, -1.135028 53.559202, -1.134869 53.560690, -1.134710 53.562178, -1.134550 53.563666, -1.134391 53.565154, -1.134232 53.566642, -1.134073 53.568131, -1.133914 53.569619, -1.133755 53.571107, -1.133596 53.572595, -1.133437 53.574083, -1.133278 53.575571, -1.133118 53.577059, -1.132959 53.578547, -1.132800 53.580035, -1.132641 53.581523, -1.132482 53.583011, -1.132322 53.584499, -1.132163 53.585987, -1.132004 53.587476, -1.131845 53.588964, -1.131685 53.590452, -1.131526 53.591940, -1.131367 53.593428, -1.131208 53.594916, -1.131048 53.596404, -1.130889 53.597892, -1.130730 53.599380, -1.130570 53.600868, -1.130411 53.602356, -1.130252 53.603844, -1.130092 53.605332, -1.129933 53.606821, -1.129773 53.608309, -1.129614 53.609797, -1.129455 53.611285, -1.129295 53.612773, -1.129136 53.614261, -1.128976 53.615749, -1.128817 53.617237, -1.128657 53.618725, -1.128498 53.620213, -1.128338 53.621701, -1.128179 53.623189, -1.128019 53.624677, -1.127860 53.626165, -1.127700 53.627654, -1.127541 53.629142, -1.127381 53.630630, -1.127221 53.632118, -1.127062 53.633606, -1.126902 53.635094, -1.126743 53.636582, -1.126583 53.638070, -1.126423 53.639558, -1.126264 53.641046, -1.126104 53.642534, -1.125944 53.644022, -1.125785 53.645510, -1.125625 53.646998, -1.125465 53.648487, -1.125306 53.649975, -1.125146 53.651463, -1.124986 53.652951, -1.124826 53.654439, -1.124667 53.655927, -1.124507 53.657415, -1.124347 53.658903, -1.124187 53.660391, -1.124028 53.661879, -1.123868 53.663367, -1.123708 53.664855, -1.123548 53.666343, -1.123388 53.667831, -1.123228 53.669319, -1.123068 53.670808, -1.122909 53.672296, -1.122749 53.673784, -1.122589 53.675272, -1.122429 53.676760, -1.122269 53.678248, -1.122109 53.679736, -1.121949 53.681224, -1.121789 53.682712, -1.121629 53.684200, -1.121469 53.685688, -1.121309 53.687176, -1.121149 53.688664, -1.120989 53.690152, -1.120829 53.691640, -1.120669 53.693128, -1.120509 53.694617, -1.120349 53.696105, -1.120189 53.697593, -1.120029 53.699081, -1.119869 53.700569, -1.119709 53.702057, -1.119548 53.703545, -1.119388 53.705033, -1.119228 53.706521, -1.119068 53.708009, -1.118908 53.709497, -1.118748 53.710985, -1.118587 53.712473, -1.118427 53.713961, -1.118267 53.715449, -1.118107 53.716937, -1.117947 53.718425, -1.117786 53.719914, -1.117626 53.721402, -1.117466 53.722890, -1.117306 53.724378, -1.117145 53.725866, -1.116985 53.727354, -1.116825 53.728842, -1.116664 53.730330, -1.116504 53.731818, -1.116344 53.733306, -1.116183 53.734794, -1.116023 53.736282, -1.115862 53.737770, -1.115702 53.739258, -1.115542 53.740746, -1.115381 53.742234, -1.115221 53.743722, -1.115060 53.745210, -1.114900 53.746699, -1.114740 53.748187, -1.114579 53.749675, -1.114419 53.751163, -1.114258 53.752651, -1.114098 53.754139, -1.113937 53.755627, -1.113776 53.757115, -1.113616 53.758603, -1.113455 53.760091, -1.113295 53.761579, -1.113134 53.763067, -1.112974 53.764555, -1.112813 53.766043, -1.112652 53.767531, -1.112492 53.769019, -1.112331 53.770507, -1.112171 53.771995, -1.112010 53.773483, -1.111849 53.774972, -1.111689 53.776460, -1.111528 53.777948, -1.111367 53.779436, -1.111206 53.780924, -1.111046 53.782412, -1.110885 53.783900, -1.110724 53.785388, -1.110564 53.786876, -1.110403 53.788364, -1.110242 53.789852, -1.110081 53.791340, -1.109920 53.792828, -1.109760 53.794316, -1.109599 53.795804, -1.109438 53.797292, -1.109277 53.798780, -1.109116 53.800268, -1.108955 53.801756, -1.108794 53.803244, -1.108634 53.804732, -1.108473 53.806221, -1.108312 53.807709, -1.108151 53.809197, -1.107990 53.810685, -1.107829 53.812173, -1.107668 53.813661, -1.107507 53.815149, -1.107346 53.816637, -1.107185 53.818125, -1.107024 53.819613, -1.106863 53.821101, -1.106702 53.822589, -1.106541 53.824077, -1.106380 53.825565, -1.106219 53.827053, -1.106058 53.828541, -1.105897 53.830029, -1.105735 53.831517, -1.105574 53.833005, -1.105413 53.834493, -1.105252 53.835981, -1.105091 53.837469, -1.104930 53.838957, -1.104769 53.840446, -1.104607 53.841934, -1.104446 53.843422, -1.104285 53.844910, -1.104124 53.846398, -1.103963 53.847886, -1.103801 53.849374, -1.103640 53.850862, -1.103479 53.852350, -1.103318 53.853838, -1.103156 53.855326, -1.102995 53.856814, -1.102834 53.858302, -1.102672 53.859790, -1.102511 53.861278, -1.102350 53.862766, -1.102188 53.864254, -1.102027 53.865742, -1.101866 53.867230, -1.101704 53.868718, -1.101543 53.870206, -1.101381 53.871694, -1.101220 53.873182, -1.101059 53.874670, -1.100897 53.876158, -1.100736 53.877646, -1.100574 53.879134, -1.100413 53.880623, -1.100251 53.882111, -1.100090 53.883599, -1.099928 53.885087, -1.099767 53.886575, -1.099605 53.888063, -1.099444 53.889551, -1.099282 53.891039, -1.099121 53.892527, -1.098959 53.894015, -1.098797 53.895503, -1.098636 53.896991, -1.098474 53.898479, -1.098312 53.899967, -1.098151 53.901455, -1.097989 53.902943, -1.097828 53.904431, -1.097666 53.905919, -1.097504 53.907407, -1.097342 53.908895, -1.097181 53.910383, -1.097019 53.911871, -1.096857 53.913359, -1.096696 53.914847, -1.096534 53.916335, -1.096372 53.917823, -1.096210 53.919311, -1.096048 53.920799, -1.095887 53.922287, -1.095725 53.923775, -1.095563 53.925263, -1.095401 53.926751, -1.095239 53.928239, -1.095078 53.929728, -1.094916 53.931216, -1.094754 53.932704, -1.094592 53.934192, -1.094430 53.935680, -1.094268 53.937168, -1.094106 53.938656, -1.093944 53.940144, -1.093782 53.941632, -1.093620 53.943120, -1.093458 53.944608, -1.093296 53.946096, -1.093134 53.947584, -1.092972 53.949072, -1.092810 53.950560, -1.092648 53.952048, -1.092486 53.953536, -1.092324 53.955024, -1.092162 53.956512, -1.092000 53.958000, -1.093076 53.959350, -1.094153 53.960700, -1.095229 53.962049, -1.096306 53.963399, -1.097383 53.964749, -1.098460 53.966098, -1.099536 53.967448, -1.100613 53.968798, -1.101690 53.970147, -1.102767 53.971497, -1.103844 53.972847, -1.104922 53.974196, -1.105999 53.975546, -1.107076 53.976896, -1.108153 53.978245, -1.109231 53.979595, -1.110308 53.980945, -1.111386 53.982294, -1.112464 53.983644, -1.113541 53.984993, -1.114619 53.986343, -1.115697 53.987692, -1.116775 53.989042, -1.117853 53.990391, -1.118931 53.991741, -1.120009 53.993091, -1.121088 53.994440, -1.122166 53.995790, -1.123244 53.997139, -1.124323 53.998488, -1.125401 53.999838, -1.126480 54.001187, -1.127558 54.002537, -1.128637 54.003886, -1.129716 54.005236, -1.130795 54.006585, -1.131874 54.007935, -1.132953 54.009284, -1.134032 54.010633, -1.135111 54.011983, -1.136190 54.013332, -1.137269 54.014681, -1.138349 54.016031, -1.139428 54.017380, -1.140508 54.018729, -1.141587 54.020079, -1.142667 54.021428, -1.143746 54.022777, -1.144826 54.024127, -1.145906 54.025476, -1.146986 54.026825, -1.148066 54.028174, -1.149146 54.029524, -1.150226 54.030873, -1.151306 54.032222, -1.152387 54.033571, -1.153467 54.034921, -1.154547 54.036270, -1.155628 54.037619, -1.156708 54.038968, -1.157789 54.040317, -1.158870 54.041667, -1.159950 54.043016, -1.161031 54.044365, -1.162112 54.045714, -1.163193 54.047063, -1.164274 54.048412, -1.165355 54.049761, -1.166436 54.051110, -1.167518 54.052460, -1.168599 54.053809, -1.169680 54.055158, -1.170762 54.056507, -1.171843 54.057856, -1.172925 54.059205, -1.174006 54.060554, -1.175088 54.061903, -1.176170 54.063252, -1.177252 54.064601, -1.178334 54.065950, -1.179416 54.067299, -1.180498 54.068648, -1.181580 54.069997, -1.182662 54.071346, -1.183745 54.072695, -1.184827 54.074044, -1.185909 54.075393, -1.186992 54.076742, -1.188074 54.078090, -1.189157 54.079439, -1.190240 54.080788, -1.191323 54.082137, -1.192405 54.083486, -1.193488 54.084835, -1.194571 54.086184, -1.195654 54.087532, -1.196738 54.088881, -1.197821 54.090230, -1.198904 54.091579, -1.199987 54.092928, -1.201071 54.094277, -1.202154 54.095625, -1.203238 54.096974, -1.204321 54.098323, -1.205405 54.099672, -1.206489 54.101020, -1.207573 54.102369, -1.208657 54.103718, -1.209741 54.105066, -1.210825 54.106415, -1.211909 54.107764, -1.212993 54.109113, -1.214077 54.110461, -1.215162 54.111810, -1.216246 54.113159, -1.217331 54.114507, -1.218415 54.115856, -1.219500 54.117204, -1.220584 54.118553, -1.221669 54.119902, -1.222754 54.121250, -1.223839 54.122599, -1.224924 54.123947, -1.226009 54.125296, -1.227094 54.126644, -1.228179 54.127993, -1.229264 54.129342, -1.230350 54.130690, -1.231435 54.132039, -1.232521 54.133387, -1.233606 54.134736, -1.234692 54.136084, -1.235777 54.137433, -1.236863 54.138781, -1.237949 54.140129, -1.239035 54.141478, -1.240121 54.142826, -1.241207 54.144175, -1.242293 54.145523, -1.243379 54.146872, -1.244465 54.148220, -1.245552 54.149568, -1.246638 54.150917, -1.247725 54.152265, -1.248811 54.153614, -1.249898 54.154962, -1.250984 54.156310, -1.252071 54.157659, -1.253158 54.159007, -1.254245 54.160355, -1.255332 54.161703, -1.256419 54.163052, -1.257506 54.164400, -1.258593 54.165748, -1.259680 54.167097, -1.260768 54.168445, -1.261855 54.169793, -1.262942 54.171141, -1.264030 54.172489, -1.265117 54.173838, -1.266205 54.175186, -1.267293 54.176534, -1.268381 54.177882, -1.269469 54.179230, -1.270556 54.180579, -1.271644 54.181927, -1.272733 54.183275, -1.273821 54.184623, -1.274909 54.185971, -1.275997 54.187319, -1.277086 54.188667, -1.278174 54.190015, -1.279263 54.191364, -1.280351 54.192712, -1.281440 54.194060, -1.282529 54.195408, -1.283617 54.196756, -1.284706 54.198104, -1.285795 54.199452, -1.286884 54.200800, -1.287973 54.202148, -1.289062 54.203496, -1.290152 54.204844, -1.291241 54.206192, -1.292330 54.207540, -1.293420 54.208888, -1.294509 54.210236, -1.295599 54.211584, -1.296688 54.212932, -1.297778 54.214279, -1.298868 54.215627, -1.299958 54.216975, -1.301048 54.218323, -1.302138 54.219671, -1.303228 54.221019, -1.304318 54.222367, -1.305408 54.223715, -1.306498 54.225062, -1.307589 54.226410, -1.308679 54.227758, -1.309770 54.229106, -1.310860 54.230454, -1.311951 54.231802, -1.313042 54.233149, -1.314132 54.234497, -1.315223 54.235845, -1.316314 54.237193, -1.317405 54.238540, -1.318496 54.239888, -1.319587 54.241236, -1.320679 54.242583, -1.321770 54.243931, -1.322861 54.245279, -1.323953 54.246627, -1.325044 54.247974, -1.326136 54.249322, -1.327227 54.250670, -1.328319 54.252017, -1.329411 54.253365, -1.330503 54.254712, -1.331595 54.256060, -1.332687 54.257408, -1.333779 54.258755, -1.334871 54.260103, -1.335963 54.261450, -1.337055 54.262798, -1.338148 54.264145, -1.339240 54.265493, -1.340333 54.266841, -1.341425 54.268188, -1.342518 54.269536, -1.343611 54.270883, -1.344703 54.272231, -1.345796 54.273578, -1.346889 54.274926, -1.347982 54.276273, -1.349075 54.277620, -1.350168 54.278968, -1.351262 54.280315, -1.352355 54.281663, -1.353448 54.283010, -1.354542 54.284358, -1.355635 54.285705, -1.356729 54.287052, -1.357822 54.288400, -1.358916 54.289747, -1.360010 54.291094, -1.361104 54.292442, -1.362198 54.293789, -1.363292 54.295136, -1.364386 54.296484, -1.365480 54.297831, -1.366574 54.299178, -1.367668 54.300526, -1.368763 54.301873, -1.369857 54.303220, -1.370952 54.304567, -1.372046 54.305915, -1.373141 54.307262, -1.374236 54.308609, -1.375330 54.309956, -1.376425 54.311304, -1.377520 54.312651, -1.378615 54.313998, -1.379710 54.315345, -1.380805 54.316692, -1.381901 54.318039, -1.382996 54.319387, -1.384091 54.320734, -1.385187 54.322081, -1.386282 54.323428, -1.387378 54.324775, -1.388473 54.326122, -1.389569 54.327469, -1.390665 54.328816, -1.391761 54.330163, -1.392857 54.331511, -1.393953 54.332858, -1.395049 54.334205, -1.396145 54.335552, -1.397241 54.336899, -1.398338 54.338246, -1.399434 54.339593, -1.400530 54.340940, -1.401627 54.342287, -1.402723 54.343634, -1.403820 54.344981, -1.404917 54.346327, -1.406014 54.347674, -1.407110 54.349021, -1.408207 54.350368, -1.409304 54.351715, -1.410402 54.353062, -1.411499 54.354409, -1.412596 54.355756, -1.413693 54.357103, -1.414791 54.358450, -1.415888 54.359796, -1.416986 54.361143, -1.418083 54.362490, -1.419181 54.363837, -1.420279 54.365184, -1.421376 54.366531, -1.422474 54.367877, -1.423572 54.369224, -1.424670 54.370571, -1.425768 54.371918, -1.426866 54.373264, -1.427965 54.374611, -1.429063 54.375958, -1.430161 54.377305, -1.431260 54.378651, -1.432358 54.379998, -1.433457 54.381345, -1.434556 54.382691, -1.435654 54.384038, -1.436753 54.385385, -1.437852 54.386731, -1.438951 54.388078, -1.440050 54.389425, -1.441149 54.390771, -1.442248 54.392118, -1.443348 54.393464, -1.444447 54.394811, -1.445546 54.396158, -1.446646 54.397504, -1.447745 54.398851, -1.448845 54.400197, -1.449945 54.401544, -1.451044 54.402890, -1.452144 54.404237, -1.453244 54.405583, -1.454344 54.406930, -1.455444 54.408276, -1.456544 54.409623, -1.457644 54.410969, -1.458745 54.412316, -1.459845 54.413662, -1.460945 54.415009, -1.462046 54.416355, -1.463146 54.417701, -1.464247 54.419048, -1.465348 54.420394, -1.466448 54.421741, -1.467549 54.423087, -1.468650 54.424433, -1.469751 54.425780, -1.470852 54.427126, -1.471953 54.428472, -1.473055 54.429819, -1.474156 54.431165, -1.475257 54.432511, -1.476359 54.433858, -1.477460 54.435204, -1.478562 54.436550, -1.479663 54.437897, -1.480765 54.439243, -1.481867 54.440589, -1.482969 54.441935, -1.484070 54.443282, -1.485172 54.444628, -1.486275 54.445974, -1.487377 54.447320, -1.488479 54.448666, -1.489581 54.450013, -1.490684 54.451359, -1.491786 54.452705, -1.492888 54.454051, -1.493991 54.455397, -1.495094 54.456743, -1.496196 54.458089, -1.497299 54.459436, -1.498402 54.460782, -1.499505 54.462128, -1.500608 54.463474, -1.501711 54.464820, -1.502814 54.466166, -1.503917 54.467512, -1.505021 54.468858, -1.506124 54.470204, -1.507228 54.471550, -1.508331 54.472896, -1.509435 54.474242, -1.510538 54.475588, -1.511642 54.476934, -1.512746 54.478280, -1.513850 54.479626, -1.514954 54.480972, -1.516058 54.482318, -1.517162 54.483664, -1.518266 54.485010, -1.519370 54.486356, -1.520475 54.487701, -1.521579 54.489047, -1.522683 54.490393, -1.523788 54.491739, -1.524893 54.493085, -1.525997 54.494431, -1.527102 54.495777, -1.528207 54.497122, -1.529312 54.498468, -1.530417 54.499814, -1.531522 54.501160, -1.532627 54.502506, -1.533732 54.503851, -1.534837 54.505197, -1.535943 54.506543, -1.537048 54.507889, -1.538154 54.509234, -1.539259 54.510580, -1.540365 54.511926, -1.541470 54.513272, -1.542576 54.514617, -1.543682 54.515963, -1.544788 54.517309, -1.545894 54.518654, -1.547000 54.520000, -1.547229 54.521487, -1.547459 54.522974, -1.547688 54.524460, -1.547917 54.525947, -1.548146 54.527434, -1.548376 54.528921, -1.548605 54.530408, -1.548834 54.531895, -1.549064 54.533381, -1.549293 54.534868, -1.549523 54.536355, -1.549752 54.537842, -1.549981 54.539329, -1.550211 54.540815, -1.550440 54.542302, -1.550670 54.543789, -1.550899 54.545276, -1.551129 54.546763, -1.551358 54.548250, -1.551588 54.549736, -1.551818 54.551223, -1.552047 54.552710, -1.552277 54.554197, -1.552506 54.555684, -1.552736 54.557170, -1.552966 54.558657, -1.553195 54.560144, -1.553425 54.561631, -1.553655 54.563118, -1.553885 54.564604, -1.554114 54.566091, -1.554344 54.567578, -1.554574 54.569065, -1.554804 54.570552, -1.555033 54.572038, -1.555263 54.573525, -1.555493 54.575012, -1.555723 54.576499, -1.555953 54.577986, -1.556183 54.579473, -1.556413 54.580959, -1.556643 54.582446, -1.556873 54.583933, -1.557103 54.585420, -1.557333 54.586907, -1.557562 54.588393, -1.557793 54.589880, -1.558023 54.591367, -1.558253 54.592854, -1.558483 54.594341, -1.558713 54.595827, -1.558943 54.597314, -1.559173 54.598801, -1.559403 54.600288, -1.559633 54.601775, -1.559863 54.603261, -1.560094 54.604748, -1.560324 54.606235, -1.560554 54.607722, -1.560784 54.609208, -1.561014 54.610695, -1.561245 54.612182, -1.561475 54.613669, -1.561705 54.615156, -1.561936 54.616642, -1.562166 54.618129, -1.562396 54.619616, -1.562627 54.621103, -1.562857 54.622590, -1.563087 54.624076, -1.563318 54.625563, -1.563548 54.627050, -1.563779 54.628537, -1.564009 54.630024, -1.564240 54.631510, -1.564470 54.632997, -1.564701 54.634484, -1.564931 54.635971, -1.565162 54.637458, -1.565392 54.638944, -1.565623 54.640431, -1.565854 54.641918, -1.566084 54.643405, -1.566315 54.644891, -1.566545 54.646378, -1.566776 54.647865, -1.567007 54.649352, -1.567238 54.650839, -1.567468 54.652325, -1.567699 54.653812, -1.567930 54.655299, -1.568161 54.656786, -1.568391 54.658272, -1.568622 54.659759, -1.568853 54.661246, -1.569084 54.662733, -1.569315 54.664220, -1.569546 54.665706, -1.569776 54.667193, -1.570007 54.668680, -1.570238 54.670167, -1.570469 54.671654, -1.570700 54.673140, -1.570931 54.674627, -1.571162 54.676114, -1.571393 54.677601, -1.571624 54.679087, -1.571855 54.680574, -1.572086 54.682061, -1.572317 54.683548, -1.572548 54.685034, -1.572779 54.686521, -1.573011 54.688008, -1.573242 54.689495, -1.573473 54.690982, -1.573704 54.692468, -1.573935 54.693955, -1.574167 54.695442, -1.574398 54.696929, -1.574629 54.698415, -1.574860 54.699902, -1.575092 54.701389, -1.575323 54.702876, -1.575554 54.704362, -1.575785 54.705849, -1.576017 54.707336, -1.576248 54.708823, -1.576480 54.710310, -1.576711 54.711796, -1.576942 54.713283, -1.577174 54.714770, -1.577405 54.716257, -1.577637 54.717743, -1.577868 54.719230, -1.578100 54.720717, -1.578331 54.722204, -1.578563 54.723690, -1.578794 54.725177, -1.579026 54.726664, -1.579257 54.728151, -1.579489 54.729637, -1.579721 54.731124, -1.579952 54.732611, -1.580184 54.734098, -1.580416 54.735584, -1.580647 54.737071, -1.580879 54.738558, -1.581111 54.740045, -1.581342 54.741532, -1.581574 54.743018, -1.581806 54.744505, -1.582038 54.745992, -1.582270 54.747479, -1.582501 54.748965, -1.582733 54.750452, -1.582965 54.751939, -1.583197 54.753426, -1.583429 54.754912, -1.583661 54.756399, -1.583893 54.757886, -1.584125 54.759373, -1.584357 54.760859, -1.584589 54.762346, -1.584821 54.763833, -1.585053 54.765320, -1.585285 54.766806, -1.585517 54.768293, -1.585749 54.769780, -1.585981 54.771267, -1.586213 54.772753, -1.586445 54.774240, -1.586677 54.775727, -1.586909 54.777214, -1.587141 54.778700, -1.587374 54.780187, -1.587606 54.781674, -1.587838 54.783161, -1.588070 54.784647, -1.588303 54.786134, -1.588535 54.787621, -1.588767 54.789107, -1.588999 54.790594, -1.589232 54.792081, -1.589464 54.793568, -1.589696 54.795054, -1.589929 54.796541, -1.590161 54.798028, -1.590394 54.799515, -1.590626 54.801001, -1.590858 54.802488, -1.591091 54.803975, -1.591323 54.805462, -1.591556 54.806948, -1.591788 54.808435, -1.592021 54.809922, -1.592253 54.811409, -1.592486 54.812895, -1.592718 54.814382, -1.592951 54.815869, -1.593184 54.817356, -1.593416 54.818842, -1.593649 54.820329, -1.593882 54.821816, -1.594114 54.823302, -1.594347 54.824789, -1.594580 54.826276, -1.594812 54.827763, -1.595045 54.829249, -1.595278 54.830736, -1.595511 54.832223, -1.595743 54.833710, -1.595976 54.835196, -1.596209 54.836683, -1.596442 54.838170, -1.596675 54.839656, -1.596908 54.841143, -1.597141 54.842630, -1.597374 54.844117, -1.597606 54.845603, -1.597839 54.847090, -1.598072 54.848577, -1.598305 54.850064, -1.598538 54.851550, -1.598771 54.853037, -1.599004 54.854524, -1.599237 54.856010, -1.599471 54.857497, -1.599704 54.858984, -1.599937 54.860471, -1.600170 54.861957, -1.600403 54.863444, -1.600636 54.864931, -1.600869 54.866417, -1.601103 54.867904, -1.601336 54.869391, -1.601569 54.870878, -1.601802 54.872364, -1.602035 54.873851, -1.602269 54.875338, -1.602502 54.876824, -1.602735 54.878311, -1.602969 54.879798, -1.603202 54.881285, -1.603435 54.882771, -1.603669 54.884258, -1.603902 54.885745, -1.604136 54.887231, -1.604369 54.888718, -1.604602 54.890205, -1.604836 54.891692, -1.605069 54.893178, -1.605303 54.894665, -1.605536 54.896152, -1.605770 54.897638, -1.606004 54.899125, -1.606237 54.900612, -1.606471 54.902099, -1.606704 54.903585, -1.606938 54.905072, -1.607172 54.906559, -1.607405 54.908045, -1.607639 54.909532, -1.607873 54.911019, -1.608106 54.912506, -1.608340 54.913992, -1.608574 54.915479, -1.608808 54.916966, -1.609041 54.918452, -1.609275 54.919939, -1.609509 54.921426, -1.609743 54.922912, -1.609977 54.924399, -1.610210 54.925886, -1.610444 54.927373, -1.610678 54.928859, -1.610912 54.930346, -1.611146 54.931833, -1.611380 54.933319, -1.611614 54.934806, -1.611848 54.936293, -1.612082 54.937779, -1.612316 54.939266, -1.612550 54.940753, -1.612784 54.942240, -1.613018 54.943726, -1.613252 54.945213, -1.613486 54.946700, -1.613720 54.948186, -1.613955 54.949673, -1.614189 54.951160, -1.614423 54.952646, -1.614657 54.954133, -1.614891 54.955620, -1.615126 54.957106, -1.615360 54.958593, -1.615594 54.960080, -1.615828 54.961567, -1.616063 54.963053, -1.616297 54.964540, -1.616531 54.966027, -1.616766 54.967513, -1.617000 54.969000, -1.617688 54.970438, -1.618376 54.971876, -1.619065 54.973313, -1.619753 54.974751, -1.620441 54.976189, -1.621130 54.977627, -1.621818 54.979065, -1.622507 54.980503, -1.623196 54.981940, -1.623884 54.983378, -1.624573 54.984816, -1.625262 54.986254, -1.625950 54.987692, -1.626639 54.989129, -1.627328 54.990567, -1.628017 54.992005, -1.628706 54.993443, -1.629395 54.994880, -1.630084 54.996318, -1.630773 54.997756, -1.631463 54.999194, -1.632152 55.000631, -1.632841 55.002069, -1.633530 55.003507, -1.634220 55.004945, -1.634909 55.006382, -1.635599 55.007820, -1.636288 55.009258, -1.636978 55.010696, -1.637667 55.012133, -1.638357 55.013571, -1.639047 55.015009, -1.639737 55.016446, -1.640426 55.017884, -1.641116 55.019322, -1.641806 55.020760, -1.642496 55.022197, -1.643186 55.023635, -1.643876 55.025073, -1.644566 55.026510, -1.645257 55.027948, -1.645947 55.029386, -1.646637 55.030823, -1.647327 55.032261, -1.648018 55.033699, -1.648708 55.035136, -1.649399 55.036574, -1.650089 55.038012, -1.650780 55.039449, -1.651470 55.040887, -1.652161 55.042325, -1.652852 55.043762, -1.653543 55.045200, -1.654233 55.046637, -1.654924 55.048075, -1.655615 55.049513, -1.656306 55.050950, -1.656997 55.052388, -1.657688 55.053826, -1.658379 55.055263, -1.659070 55.056701, -1.659762 55.058138, -1.660453 55.059576, -1.661144 55.061014, -1.661836 55.062451, -1.662527 55.063889, -1.663219 55.065326, -1.663910 55.066764, -1.664602 55.068201, -1.665293 55.069639, -1.665985 55.071077, -1.666677 55.072514, -1.667368 55.073952, -1.668060 55.075389, -1.668752 55.076827, -1.669444 55.078264, -1.670136 55.079702, -1.670828 55.081139, -1.671520 55.082577, -1.672212 55.084014, -1.672904 55.085452, -1.673596 55.086889, -1.674289 55.088327, -1.674981 55.089764, -1.675673 55.091202, -1.676366 55.092639, -1.677058 55.094077, -1.677751 55.095514, -1.678443 55.096952, -1.679136 55.098389, -1.679829 55.099827, -1.680521 55.101264, -1.681214 55.102702, -1.681907 55.104139, -1.682600 55.105577, -1.683293 55.107014, -1.683986 55.108452, -1.684679 55.109889, -1.685372 55.111327, -1.686065 55.112764, -1.686758 55.114202, -1.687451 55.115639, -1.688144 55.117076, -1.688838 55.118514, -1.689531 55.119951, -1.690224 55.121389, -1.690918 55.122826, -1.691611 55.124264, -1.692305 55.125701, -1.692999 55.127138, -1.693692 55.128576, -1.694386 55.130013, -1.695080 55.131451, -1.695773 55.132888, -1.696467 55.134325, -1.697161 55.135763, -1.697855 55.137200, -1.698549 55.138637, -1.699243 55.140075, -1.699937 55.141512, -1.700632 55.142950, -1.701326 55.144387, -1.702020 55.145824, -1.702714 55.147262, -1.703409 55.148699, -1.704103 55.150136, -1.704797 55.151574, -1.705492 55.153011, -1.706187 55.154448, -1.706881 55.155886, -1.707576 55.157323, -1.708271 55.158760, -1.708965 55.160198, -1.709660 55.161635, -1.710355 55.163072, -1.711050 55.164510, -1.711745 55.165947, -1.712440 55.167384, -1.713135 55.168821, -1.713830 55.170259, -1.714525 55.171696, -1.715220 55.173133, -1.715916 55.174571, -1.716611 55.176008, -1.717306 55.177445, -1.718002 55.178882, -1.718697 55.180320, -1.719393 55.181757, -1.720088 55.183194, -1.720784 55.184631, -1.721479 55.186069, -1.722175 55.187506, -1.722871 55.188943, -1.723567 55.190380, -1.724263 55.191818, -1.724958 55.193255, -1.725654 55.194692, -1.726350 55.196129, -1.727046 55.197566, -1.727743 55.199004, -1.728439 55.200441, -1.729135 55.201878, -1.729831 55.203315, -1.730528 55.204752, -1.731224 55.206190, -1.731920 55.207627, -1.732617 55.209064, -1.733313 55.210501, -1.734010 55.211938, -1.734706 55.213376, -1.735403 55.214813, -1.736100 55.216250, -1.736797 55.217687, -1.737493 55.219124, -1.738190 55.220561, -1.738887 55.221999, -1.739584 55.223436, -1.740281 55.224873, -1.740978 55.226310, -1.741675 55.227747, -1.742373 55.229184, -1.743070 55.230621, -1.743767 55.232058, -1.744464 55.233496, -1.745162 55.234933, -1.745859 55.236370, -1.746557 55.237807, -1.747254 55.239244, -1.747952 55.240681, -1.748649 55.242118, -1.749347 55.243555, -1.750045 55.244992, -1.750742 55.246429, -1.751440 55.247866, -1.752138 55.249304, -1.752836 55.250741, -1.753534 55.252178, -1.754232 55.253615, -1.754930 55.255052, -1.755628 55.256489, -1.756326 55.257926, -1.757025 55.259363, -1.757723 55.260800, -1.758421 55.262237, -1.759120 55.263674, -1.759818 55.265111, -1.760517 55.266548, -1.761215 55.267985, -1.761914 55.269422, -1.762612 55.270859, -1.763311 55.272296, -1.764010 55.273733, -1.764708 55.275170, -1.765407 55.276607, -1.766106 55.278044, -1.766805 55.279481, -1.767504 55.280918, -1.768203 55.282355, -1.768902 55.283792, -1.769601 55.285229, -1.770301 55.286666, -1.771000 55.288103, -1.771699 55.289540, -1.772398 55.290977, -1.773098 55.292414, -1.773797 55.293851, -1.774497 55.295288, -1.775196 55.296725, -1.775896 55.298162, -1.776596 55.299599, -1.777295 55.301035, -1.777995 55.302472, -1.778695 55.303909, -1.779395 55.305346, -1.780094 55.306783, -1.780794 55.308220, -1.781494 55.309657, -1.782194 55.311094, -1.782895 55.312531, -1.783595 55.313968, -1.784295 55.315404, -1.784995 55.316841, -1.785695 55.318278, -1.786396 55.319715, -1.787096 55.321152, -1.787797 55.322589, -1.788497 55.324026, -1.789198 55.325463, -1.789898 55.326899, -1.790599 55.328336, -1.791300 55.329773, -1.792000 55.331210, -1.792701 55.332647, -1.793402 55.334084, -1.794103 55.335521, -1.794804 55.336957, -1.795505 55.338394, -1.796206 55.339831, -1.796907 55.341268, -1.797608 55.342705, -1.798310 55.344141, -1.799011 55.345578, -1.799712 55.347015, -1.800414 55.348452, -1.801115 55.349889, -1.801816 55.351325, -1.802518 55.352762, -1.803220 55.354199, -1.803921 55.355636, -1.804623 55.357072, -1.805325 55.358509, -1.806026 55.359946, -1.806728 55.361383, -1.807430 55.362820, -1.808132 55.364256, -1.808834 55.365693, -1.809536 55.367130, -1.810238 55.368567, -1.810940 55.370003, -1.811642 55.371440, -1.812345 55.372877, -1.813047 55.374313, -1.813749 55.375750, -1.814452 55.377187, -1.815154 55.378624, -1.815857 55.380060, -1.816559 55.381497, -1.817262 55.382934, -1.817964 55.384370, -1.818667 55.385807, -1.819370 55.387244, -1.820073 55.388680, -1.820775 55.390117, -1.821478 55.391554, -1.822181 55.392990, -1.822884 55.394427, -1.823587 55.395864, -1.824290 55.397300, -1.824994 55.398737, -1.825697 55.400174, -1.826400 55.401610, -1.827103 55.403047, -1.827807 55.404484, -1.828510 55.405920, -1.829214 55.407357, -1.829917 55.408794, -1.830621 55.410230, -1.831324 55.411667, -1.832028 55.413103, -1.832732 55.414540, -1.833435 55.415977, -1.834139 55.417413, -1.834843 55.418850, -1.835547 55.420286, -1.836251 55.421723, -1.836955 55.423160, -1.837659 55.424596, -1.838363 55.426033, -1.839067 55.427469, -1.839772 55.428906, -1.840476 55.430342, -1.841180 55.431779, -1.841885 55.433216, -1.842589 55.434652, -1.843293 55.436089, -1.843998 55.437525, -1.844703 55.438962, -1.845407 55.440398, -1.846112 55.441835, -1.846817 55.443271, -1.847521 55.444708, -1.848226 55.446144, -1.848931 55.447581, -1.849636 55.449017, -1.850341 55.450454, -1.851046 55.451890, -1.851751 55.453327, -1.852456 55.454763, -1.853162 55.456200, -1.853867 55.457636, -1.854572 55.459073, -1.855278 55.460509, -1.855983 55.461946, -1.856688 55.463382, -1.857394 55.464819, -1.858100 55.466255, -1.858805 55.467692, -1.859511 55.469128, -1.860217 55.470565, -1.860922 55.472001, -1.861628 55.473438, -1.862334 55.474874, -1.863040 55.476310, -1.863746 55.477747, -1.864452 55.479183, -1.865158 55.480620, -1.865864 55.482056, -1.866570 55.483493, -1.867277 55.484929, -1.867983 55.486365, -1.868689 55.487802, -1.869396 55.489238, -1.870102 55.490675, -1.870808 55.492111, -1.871515 55.493547, -1.872222 55.494984, -1.872928 55.496420, -1.873635 55.497856, -1.874342 55.499293, -1.875048 55.500729, -1.875755 55.502166, -1.876462 55.503602, -1.877169 55.505038, -1.877876 55.506475, -1.878583 55.507911, -1.879290 55.509347, -1.879998 55.510784, -1.880705 55.512220, -1.881412 55.513656, -1.882119 55.515093, -1.882827 55.516529, -1.883534 55.517965, -1.884242 55.519402, -1.884949 55.520838, -1.885657 55.522274, -1.886364 55.523711, -1.887072 55.525147, -1.887780 55.526583, -1.888487 55.528019, -1.889195 55.529456, -1.889903 55.530892, -1.890611 55.532328, -1.891319 55.533765, -1.892027 55.535201, -1.892735 55.536637, -1.893443 55.538073, -1.894152 55.539510, -1.894860 55.540946, -1.895568 55.542382, -1.896276 55.543818, -1.896985 55.545255, -1.897693 55.546691, -1.898402 55.548127, -1.899110 55.549563, -1.899819 55.550999, -1.900528 55.552436, -1.901236 55.553872, -1.901945 55.555308, -1.902654 55.556744, -1.903363 55.558181, -1.904072 55.559617, -1.904781 55.561053, -1.905490 55.562489, -1.906199 55.563925, -1.906908 55.565361, -1.907617 55.566798, -1.908326 55.568234, -1.909036 55.569670, -1.909745 55.571106, -1.910454 55.572542, -1.911164 55.573979, -1.911873 55.575415, -1.912583 55.576851, -1.913292 55.578287, -1.914002 55.579723, -1.914712 55.581159, -1.915421 55.582595, -1.916131 55.584031, -1.916841 55.585468, -1.917551 55.586904, -1.918261 55.588340, -1.918971 55.589776, -1.919681 55.591212, -1.920391 55.592648, -1.921101 55.594084, -1.921812 55.595520, -1.922522 55.596956, -1.923232 55.598393, -1.923942 55.599829, -1.924653 55.601265, -1.925363 55.602701, -1.926074 55.604137, -1.926784 55.605573, -1.927495 55.607009, -1.928206 55.608445, -1.928917 55.609881, -1.929627 55.611317, -1.930338 55.612753, -1.931049 55.614189, -1.931760 55.615625, -1.932471 55.617061, -1.933182 55.618497, -1.933893 55.619933, -1.934604 55.621369, -1.935315 55.622805, -1.936027 55.624241, -1.936738 55.625677, -1.937449 55.627113, -1.938161 55.628549, -1.938872 55.629985, -1.939584 55.631421, -1.940295 55.632857, -1.941007 55.634293, -1.941719 55.635729, -1.942430 55.637165, -1.943142 55.638601, -1.943854 55.640037, -1.944566 55.641473, -1.945278 55.642909, -1.945990 55.644345, -1.946702 55.645781, -1.947414 55.647217, -1.948126 55.648653, -1.948838 55.650089, -1.949551 55.651525, -1.950263 55.652961, -1.950975 55.654397, -1.951688 55.655833, -1.952400 55.657269, -1.953113 55.658705, -1.953825 55.660140, -1.954538 55.661576, -1.955250 55.663012, -1.955963 55.664448, -1.956676 55.665884, -1.957389 55.667320, -1.958102 55.668756, -1.958815 55.670192, -1.959527 55.671628, -1.960241 55.673064, -1.960954 55.674499, -1.961667 55.675935, -1.962380 55.677371, -1.963093 55.678807, -1.963806 55.680243, -1.964520 55.681679, -1.965233 55.683115, -1.965947 55.684550, -1.966660 55.685986, -1.967374 55.687422, -1.968087 55.688858, -1.968801 55.690294, -1.969515 55.691729, -1.970228 55.693165, -1.970942 55.694601, -1.971656 55.696037, -1.972370 55.697473, -1.973084 55.698909, -1.973798 55.700344, -1.974512 55.701780, -1.975226 55.703216, -1.975940 55.704652, -1.976655 55.706087, -1.977369 55.707523, -1.978083 55.708959, -1.978798 55.710395, -1.979512 55.711831, -1.980227 55.713266, -1.980941 55.714702, -1.981656 55.716138, -1.982371 55.717574, -1.983085 55.719009, -1.983800 55.720445, -1.984515 55.721881, -1.985230 55.723317, -1.985945 55.724752, -1.986660 55.726188, -1.987375 55.727624, -1.988090 55.729059, -1.988805 55.730495, -1.989520 55.731931, -1.990235 55.733366, -1.990951 55.734802, -1.991666 55.736238, -1.992381 55.737674, -1.993097 55.739109, -1.993812 55.740545, -1.994528 55.741981, -1.995243 55.743416, -1.995959 55.744852, -1.996675 55.746288, -1.997390 55.747723, -1.998106 55.749159, -1.998822 55.750595, -1.999538 55.752030, -2.000254 55.753466, -2.000970 55.754902, -2.001686 55.756337, -2.002402 55.757773, -2.003118 55.759208, -2.003835 55.760644, -2.004551 55.762080, -2.005267 55.763515, -2.005984 55.764951, -2.006700 55.766386, -2.007417 55.767822, -2.008133 55.769258, -2.008850 55.770693, -2.009567 55.772129, -2.010283 55.773564, -2.011000 55.775000, -2.013058 55.775938, -2.015116 55.776877, -2.017174 55.777815, -2.019232 55.778753, -2.021291 55.779691, -2.023349 55.780630, -2.025408 55.781568, -2.027466 55.782506, -2.029525 55.783444, -2.031584 55.784382, -2.033643 55.785320, -2.035702 55.786258, -2.037761 55.787196, -2.039820 55.788134, -2.041879 55.789072, -2.043939 55.790009, -2.045998 55.790947, -2.048058 55.791885, -2.050117 55.792823, -2.052177 55.793760, -2.054237 55.794698, -2.056297 55.795636, -2.058357 55.796573, -2.060418 55.797511, -2.062478 55.798448, -2.064538 55.799386, -2.066599 55.800323, -2.068659 55.801261, -2.070720 55.802198, -2.072781 55.803135, -2.074842 55.804073, -2.076903 55.805010, -2.078964 55.805947, -2.081025 55.806884, -2.083086 55.807822, -2.085148 55.808759, -2.087209 55.809696, -2.089271 55.810633, -2.091332 55.811570, -2.093394 55.812507, -2.095456 55.813444, -2.097518 55.814381, -2.099580 55.815318, -2.101642 55.816255, -2.103705 55.817191, -2.105767 55.818128, -2.107830 55.819065, -2.109892 55.820002, -2.111955 55.820938, -2.114018 55.821875, -2.116081 55.822812, -2.118144 55.823748, -2.120207 55.824685, -2.122270 55.825621, -2.124333 55.826558, -2.126396 55.827494, -2.128460 55.828431, -2.130524 55.829367, -2.132587 55.830303, -2.134651 55.831240, -2.136715 55.832176, -2.138779 55.833112, -2.140843 55.834048, -2.142907 55.834985, -2.144971 55.835921, -2.147036 55.836857, -2.149100 55.837793, -2.151165 55.838729, -2.153229 55.839665, -2.155294 55.840601, -2.157359 55.841537, -2.159424 55.842473, -2.161489 55.843409, -2.163554 55.844344, -2.165620 55.845280, -2.167685 55.846216, -2.169750 55.847152, -2.171816 55.848087, -2.173882 55.849023, -2.175947 55.849959, -2.178013 55.850894, -2.180079 55.851830, -2.182145 55.852765, -2.184211 55.853701, -2.186278 55.854636, -2.188344 55.855572, -2.190411 55.856507, -2.192477 55.857442, -2.194544 55.858378, -2.196611 55.859313, -2.198677 55.860248, -2.200744 55.861183, -2.202811 55.862119, -2.204879 55.863054, -2.206946 55.863989, -2.209013 55.864924, -2.211081 55.865859, -2.213148 55.866794, -2.215216 55.867729, -2.217284 55.868664, -2.219351 55.869599, -2.221419 55.870534, -2.223487 55.871468, -2.225556 55.872403, -2.227624 55.873338, -2.229692 55.874273, -2.231761 55.875207, -2.233829 55.876142, -2.235898 55.877077, -2.237967 55.878011, -2.240036 55.878946, -2.242104 55.879880, -2.244174 55.880815, -2.246243 55.881749, -2.248312 55.882683, -2.250381 55.883618, -2.252451 55.884552, -2.254520 55.885487, -2.256590 55.886421, -2.258660 55.887355, -2.260730 55.888289, -2.262799 55.889223, -2.264869 55.890157, -2.266940 55.891092, -2.269010 55.892026, -2.271080 55.892960, -2.273151 55.893894, -2.275221 55.894828, -2.277292 55.895762, -2.279363 55.896695, -2.281433 55.897629, -2.283504 55.898563, -2.285575 55.899497, -2.287647 55.900431, -2.289718 55.901364, -2.291789 55.902298, -2.293861 55.903232, -2.295932 55.904165, -2.298004 55.905099, -2.300076 55.906032, -2.302147 55.906966, -2.304219 55.907899, -2.306291 55.908833, -2.308364 55.909766, -2.310436 55.910700, -2.312508 55.911633, -2.314581 55.912566, -2.316653 55.913499, -2.318726 55.914433, -2.320798 55.915366, -2.322871 55.916299, -2.324944 55.917232, -2.327017 55.918165, -2.329090 55.919098, -2.331164 55.920031, -2.333237 55.920964, -2.335310 55.921897, -2.337384 55.922830, -2.339458 55.923763, -2.341531 55.924696, -2.343605 55.925629, -2.345679 55.926561, -2.347753 55.927494, -2.349827 55.928427, -2.351902 55.929360, -2.353976 55.930292, -2.356050 55.931225, -2.358125 55.932157, -2.360199 55.933090, -2.362274 55.934022, -2.364349 55.934955, -2.366424 55.935887, -2.368499 55.936820, -2.370574 55.937752, -2.372649 55.938684, -2.374725 55.939617, -2.376800 55.940549, -2.378876 55.941481, -2.380951 55.942413, -2.383027 55.943345, -2.385103 55.944277, -2.387179 55.945210, -2.389255 55.946142, -2.391331 55.947074, -2.393407 55.948006, -2.395484 55.948937, -2.397560 55.949869, -2.399637 55.950801, -2.401713 55.951733, -2.403790 55.952665, -2.405867 55.953597, -2.407944 55.954528, -2.410021 55.955460, -2.412098 55.956392, -2.414175 55.957323, -2.416252 55.958255, -2.418330 55.959186, -2.420407 55.960118, -2.422485 55.961049, -2.424563 55.961981, -2.426641 55.962912, -2.428719 55.963844, -2.430797 55.964775, -2.432875 55.965706, -2.434953 55.966638, -2.437031 55.967569, -2.439110 55.968500, -2.441188 55.969431, -2.443267 55.970362, -2.445346 55.971293, -2.447424 55.972225, -2.449503 55.973156, -2.451582 55.974087, -2.453662 55.975017, -2.455741 55.975948, -2.457820 55.976879, -2.459900 55.977810, -2.461979 55.978741, -2.464059 55.979672, -2.466138 55.980602, -2.468218 55.981533, -2.470298 55.982464, -2.472378 55.983395, -2.474458 55.984325, -2.476539 55.985256, -2.478619 55.986186, -2.480699 55.987117, -2.482780 55.988047, -2.484861 55.988978, -2.486941 55.989908, -2.489022 55.990838, -2.491103 55.991769, -2.493184 55.992699, -2.495265 55.993629, -2.497346 55.994559, -2.499428 55.995490, -2.501509 55.996420, -2.503591 55.997350, -2.505672 55.998280, -2.507754 55.999210, -2.509836 56.000140, -2.511918 56.001070, -2.514000 56.002000, -2.516647 56.001811, -2.519293 56.001622, -2.521939 56.001433, -2.524586 56.001244, -2.527232 56.001055, -2.529879 56.000866, -2.532525 56.000677, -2.535171 56.000487, -2.537818 56.000298, -2.540464 56.000109, -2.543110 55.999919, -2.545756 55.999730, -2.548403 55.999540, -2.551049 55.999350, -2.553695 55.999161, -2.556341 55.998971, -2.558987 55.998781, -2.561633 55.998591, -2.564279 55.998401, -2.566925 55.998211, -2.569571 55.998021, -2.572217 55.997831, -2.574863 55.997641, -2.577509 55.997451, -2.580155 55.997261, -2.582801 55.997070, -2.585446 55.996880, -2.588092 55.996690, -2.590738 55.996499, -2.593384 55.996309, -2.596029 55.996118, -2.598675 55.995927, -2.601321 55.995737, -2.603966 55.995546, -2.606612 55.995355, -2.609258 55.995164, -2.611903 55.994973, -2.614549 55.994782, -2.617194 55.994591, -2.619840 55.994400, -2.622485 55.994209, -2.625131 55.994018, -2.627776 55.993826, -2.630421 55.993635, -2.633067 55.993444, -2.635712 55.993252, -2.638357 55.993061, -2.641003 55.992869, -2.643648 55.992678, -2.646293 55.992486, -2.648938 55.992294, -2.651584 55.992102, -2.654229 55.991911, -2.656874 55.991719, -2.659519 55.991527, -2.662164 55.991335, -2.664809 55.991143, -2.667454 55.990951, -2.670099 55.990758, -2.672744 55.990566, -2.675389 55.990374, -2.678034 55.990182, -2.680679 55.989989, -2.683324 55.989797, -2.685968 55.989604, -2.688613 55.989412, -2.691258 55.989219, -2.693903 55.989026, -2.696548 55.988834, -2.699192 55.988641, -2.701837 55.988448, -2.704482 55.988255, -2.707126 55.988062, -2.709771 55.987869, -2.712415 55.987676, -2.715060 55.987483, -2.717704 55.987290, -2.720349 55.987096, -2.722993 55.986903, -2.725638 55.986710, -2.728282 55.986516, -2.730927 55.986323, -2.733571 55.986129, -2.736215 55.985936, -2.738860 55.985742, -2.741504 55.985548, -2.744148 55.985355, -2.746792 55.985161, -2.749436 55.984967, -2.752081 55.984773, -2.754725 55.984579, -2.757369 55.984385, -2.760013 55.984191, -2.762657 55.983997, -2.765301 55.983802, -2.767945 55.983608, -2.770589 55.983414, -2.773233 55.983219, -2.775877 55.983025, -2.778521 55.982830, -2.781165 55.982636, -2.783809 55.982441, -2.786452 55.982247, -2.789096 55.982052, -2.791740 55.981857, -2.794384 55.981662, -2.797027 55.981467, -2.799671 55.981272, -2.802315 55.981077, -2.804958 55.980882, -2.807602 55.980687, -2.810246 55.980492, -2.812889 55.980297, -2.815533 55.980102, -2.818176 55.979906, -2.820820 55.979711, -2.823463 55.979515, -2.826107 55.979320, -2.828750 55.979124, -2.831393 55.978929, -2.834037 55.978733, -2.836680 55.978537, -2.839323 55.978341, -2.841967 55.978146, -2.844610 55.977950, -2.847253 55.977754, -2.849896 55.977558, -2.852539 55.977362, -2.855183 55.977165, -2.857826 55.976969, -2.860469 55.976773, -2.863112 55.976577, -2.865755 55.976380, -2.868398 55.976184, -2.871041 55.975987, -2.873684 55.975791, -2.876327 55.975594, -2.878969 55.975398, -2.881612 55.975201, -2.884255 55.975004, -2.886898 55.974807, -2.889541 55.974610, -2.892184 55.974414, -2.894826 55.974217, -2.897469 55.974020, -2.900112 55.973822, -2.902754 55.973625, -2.905397 55.973428, -2.908039 55.973231, -2.910682 55.973033, -2.913325 55.972836, -2.915967 55.972639, -2.918610 55.972441, -2.921252 55.972244, -2.923894 55.972046, -2.926537 55.971848, -2.929179 55.971651, -2.931822 55.971453, -2.934464 55.971255, -2.937106 55.971057, -2.939748 55.970859, -2.942391 55.970661, -2.945033 55.970463, -2.947675 55.970265, -2.950317 55.970067, -2.952959 55.969869, -2.955602 55.969670, -2.958244 55.969472, -2.960886 55.969274, -2.963528 55.969075, -2.966170 55.968877, -2.968812 55.968678, -2.971454 55.968479, -2.974096 55.968281, -2.976737 55.968082, -2.979379 55.967883, -2.982021 55.967684, -2.984663 55.967485, -2.987305 55.967286, -2.989946 55.967087, -2.992588 55.966888, -2.995230 55.966689, -2.997872 55.966490, -3.000513 55.966291, -3.003155 55.966091, -3.005796 55.965892, -3.008438 55.965693, -3.011079 55.965493, -3.013721 55.965294, -3.016362 55.965094, -3.019004 55.964894, -3.021645 55.964695, -3.024287 55.964495, -3.026928 55.964295, -3.029569 55.964095, -3.032211 55.963895, -3.034852 55.963695, -3.037493 55.963495, -3.040135 55.963295, -3.042776 55.963095, -3.045417 55.962895, -3.048058 55.962695, -3.050699 55.962494, -3.053340 55.962294, -3.055981 55.962094, -3.058622 55.961893, -3.061263 55.961693, -3.063904 55.961492, -3.066545 55.961291, -3.069186 55.961091, -3.071827 55.960890, -3.074468 55.960689, -3.077109 55.960488, -3.079750 55.960287, -3.082391 55.960086, -3.085031 55.959885, -3.087672 55.959684, -3.090313 55.959483, -3.092954 55.959282, -3.095594 55.959080, -3.098235 55.958879, -3.100875 55.958678, -3.103516 55.958476, -3.106157 55.958275, -3.108797 55.958073, -3.111438 55.957871, -3.114078 55.957670, -3.116719 55.957468, -3.119359 55.957266, -3.121999 55.957064, -3.124640 55.956863, -3.127280 55.956661, -3.129920 55.956459, -3.132561 55.956256, -3.135201 55.956054, -3.137841 55.955852, -3.140481 55.955650, -3.143121 55.955448, -3.145762 55.955245, -3.148402 55.955043, -3.151042 55.954840, -3.153682 55.954638, -3.156322 55.954435, -3.158962 55.954233, -3.161602 55.954030, -3.164242 55.953827, -3.166882 55.953624, -3.169522 55.953422, -3.172161 55.953219, -3.174801 55.953016, -3.177441 55.952813, -3.180081 55.952610, -3.182721 55.952406, -3.185360 55.952203, -3.188000 55.952000)
