MULTILINESTRING ((-94.578000 39.100000, -94.579157 39.099950, -94.580313 39.099899, -94.581470 39.099849, -94.582627 39.099798, -94.583783 39.099748, -94.584940 39.099698, -94.586096 39.099647, -94.587253 39.099597, -94.588410 39.099546, -94.589566 39.099496, -94.590723 39.099445, -94.591879 39.099395, -94.593036 39.099344, -94.594193 39.099294, -94.595349 39.099243, -94.596506 39.099193, -94.597662 39.099142, -94.598819 39.099092, -94.599976 39.099041, -94.601132 39.098990, -94.602289 39.098940, -94.603445 39.098889, -94.604602 39.098839, -94.605759 39.098788, -94.606915 39.098737, -94.608072 39.098687, -94.609228 39.098636, -94.610385 39.098585, -94.611542 39.098535, -94.612698 39.098484, -94.613855 39.098433, -94.615011 39.098382, -94.616168 39.098332, -94.617324 39.098281, -94.618481 39.098230, -94.619638 39.098179, -94.620794 39.098129, -94.621951 39.098078, -94.623107 39.098027, -94.624264 39.097976, -94.625420 39.097925, -94.626577 39.097875, -94.627734 39.097824, -94.628890 39.097773, -94.630047 39.097722, -94.631203 39.097671, -94.632360 39.097620, -94.633516 39.097569, -94.634673 39.097518, -94.635829 39.097467, -94.636986 39.097416, -94.638143 39.097365, -94.639299 39.097314, -94.640456 39.097264, -94.641612 39.097213, -94.642769 39.097162, -94.643925 39.097111, -94.645082 39.097059, -94.646238 39.097008, -94.647395 39.096957, -94.648551 39.096906, -94.649708 39.096855, -94.650864 39.096804, -94.652021 39.096753, -94.653177 39.096702, -94.654334 39.096651, -94.655490 39.096600, -94.656647 39.096549, -94.657804 39.096497, -94.658960 39.096446, -94.660117 39.096395, -94.661273 39.096344, -94.662430 39.096293, -94.663586 39.096242, -94.664743 39.096190, -94.665899 39.096139, -94.667056 39.096088, -94.668212 39.096037, -94.669369 39.095985, -94.670525 39.095934, -94.671682 39.095883, -94.672838 39.095831, -94.673995 39.095780, -94.675151 39.095729, -94.676308 39.095678, -94.677464 39.095626, -94.678621 39.095575, -94.679777 39.095523, -94.680933 39.095472, -94.682090 39.095421, -94.683246 39.095369, -94.684403 39.095318, -94.685559 39.095266, -94.686716 39.095215, -94.687872 39.095164, -94.689029 39.095112, -94.690185 39.095061, -94.691342 39.095009, -94.692498 39.094958, -94.693655 39.094906, -94.694811 39.094855, -94.695968 39.094803, -94.697124 39.094752, -94.698281 39.094700, -94.699437 39.094648, -94.700593 39.094597, -94.701750 39.094545, -94.702906 39.094494, -94.704063 39.094442, -94.705219 39.094390, -94.706376 39.094339, -94.707532 39.094287, -94.708689 39.094236, -94.709845 39.094184, -94.711001 39.094132, -94.712158 39.094081, -94.713314 39.094029, -94.714471 39.093977, -94.715627 39.093925, -94.716784 39.093874, -94.717940 39.093822, -94.719096 39.093770, -94.720253 39.093718, -94.721409 39.093667, -94.722566 39.093615, -94.723722 39.093563, -94.724879 39.093511, -94.726035 39.093459, -94.727191 39.093408, -94.728348 39.093356, -94.729504 39.093304, -94.730661 39.093252, -94.731817 39.093200, -94.732973 39.093148, -94.734130 39.093096, -94.735286 39.093044, -94.736443 39.092992, -94.737599 39.092941, -94.738755 39.092889, -94.739912 39.092837, -94.741068 39.092785, -94.742225 39.092733, -94.743381 39.092681, -94.744537 39.092629, -94.745694 39.092577, -94.746850 39.092525, -94.748007 39.092473, -94.749163 39.092421, -94.750319 39.092368, -94.751476 39.092316, -94.752632 39.092264, -94.753788 39.092212, -94.754945 39.092160, -94.756101 39.092108, -94.757258 39.092056, -94.758414 39.092004, -94.759570 39.091952, -94.760727 39.091899, -94.761883 39.091847, -94.763039 39.091795, -94.764196 39.091743, -94.765352 39.091691, -94.766508 39.091638, -94.767665 39.091586, -94.768821 39.091534, -94.769978 39.091482, -94.771134 39.091429, -94.772290 39.091377, -94.773447 39.091325, -94.774603 39.091272, -94.775759 39.091220, -94.776916 39.091168, -94.778072 39.091116, -94.779228 39.091063, -94.780385 39.091011, -94.781541 39.090958, -94.782697 39.090906, -94.783854 39.090854, -94.785010 39.090801, -94.786166 39.090749, -94.787323 39.090696, -94.788479 39.090644, -94.789635 39.090592, -94.790792 39.090539, -94.791948 39.090487, -94.793104 39.090434, -94.794260 39.090382, -94.795417 39.090329, -94.796573 39.090277, -94.797729 39.090224, -94.798886 39.090171, -94.800042 39.090119, -94.801198 39.090066, -94.802355 39.090014, -94.803511 39.089961, -94.804667 39.089909, -94.805824 39.089856, -94.806980 39.089803, -94.808136 39.089751, -94.809292 39.089698, -94.810449 39.089645, -94.811605 39.089593, -94.812761 39.089540, -94.813918 39.089487, -94.815074 39.089435, -94.816230 39.089382, -94.817386 39.089329, -94.818543 39.089276, -94.819699 39.089224, -94.820855 39.089171, -94.822012 39.089118, -94.823168 39.089065, -94.824324 39.089013, -94.825480 39.088960, -94.826637 39.088907, -94.827793 39.088854, -94.828949 39.088801, -94.830105 39.088748, -94.831262 39.088696, -94.832418 39.088643, -94.833574 39.088590, -94.834730 39.088537, -94.835887 39.088484, -94.837043 39.088431, -94.838199 39.088378, -94.839355 39.088325, -94.840512 39.088272, -94.841668 39.088219, -94.842824 39.088166, -94.843980 39.088113, -94.845137 39.088060, -94.846293 39.088007, -94.847449 39.087954, -94.848605 39.087901, -94.849762 39.087848, -94.850918 39.087795, -94.852074 39.087742, -94.853230 39.087689, -94.854387 39.087636, -94.855543 39.087583, -94.856699 39.087530, -94.857855 39.087477, -94.859011 39.087423, -94.860168 39.087370, -94.861324 39.087317, -94.862480 39.087264, -94.863636 39.087211, -94.864792 39.087158, -94.865949 39.087104, -94.867105 39.087051, -94.868261 39.086998, -94.869417 39.086945, -94.870573 39.086891, -94.871730 39.086838, -94.872886 39.086785, -94.874042 39.086732, -94.875198 39.086678, -94.876354 39.086625, -94.877511 39.086572, -94.878667 39.086518, -94.879823 39.086465, -94.880979 39.086412, -94.882135 39.086358, -94.883292 39.086305, -94.884448 39.086252, -94.885604 39.086198, -94.886760 39.086145, -94.887916 39.086091, -94.889072 39.086038, -94.890229 39.085984, -94.891385 39.085931, -94.892541 39.085878, -94.893697 39.085824, -94.894853 39.085771, -94.896009 39.085717, -94.897166 39.085664, -94.898322 39.085610, -94.899478 39.085556, -94.900634 39.085503, -94.901790 39.085449, -94.902946 39.085396, -94.904103 39.085342, -94.905259 39.085289, -94.906415 39.085235, -94.907571 39.085181, -94.908727 39.085128, -94.909883 39.085074, -94.911039 39.085020, -94.912196 39.084967, -94.913352 39.084913, -94.914508 39.084859, -94.915664 39.084806, -94.916820 39.084752, -94.917976 39.084698, -94.919132 39.084645, -94.920288 39.084591, -94.921445 39.084537, -94.922601 39.084483, -94.923757 39.084430, -94.924913 39.084376, -94.926069 39.084322, -94.927225 39.084268, -94.928381 39.084214, -94.929537 39.084161, -94.930693 39.084107, -94.931850 39.084053, -94.933006 39.083999, -94.934162 39.083945, -94.935318 39.083891, -94.936474 39.083837, -94.937630 39.083783, -94.938786 39.083729, -94.939942 39.083675, -94.941098 39.083622, -94.942254 39.083568, -94.943411 39.083514, -94.944567 39.083460, -94.945723 39.083406, -94.946879 39.083352, -94.948035 39.083298, -94.949191 39.083244, -94.950347 39.083190, -94.951503 39.083136, -94.952659 39.083081, -94.953815 39.083027, -94.954971 39.082973, -94.956127 39.082919, -94.957284 39.082865, -94.958440 39.082811, -94.959596 39.082757, -94.960752 39.082703, -94.961908 39.082649, -94.963064 39.082594, -94.964220 39.082540, -94.965376 39.082486, -94.966532 39.082432, -94.967688 39.082378, -94.968844 39.082323, -94.970000 39.082269, -94.971156 39.082215, -94.972312 39.082161, -94.973468 39.082106, -94.974624 39.082052, -94.975780 39.081998, -94.976936 39.081944, -94.978092 39.081889, -94.979249 39.081835, -94.980405 39.081781, -94.981561 39.081726, -94.982717 39.081672, -94.983873 39.081617, -94.985029 39.081563, -94.986185 39.081509, -94.987341 39.081454, -94.988497 39.081400, -94.989653 39.081345, -94.990809 39.081291, -94.991965 39.081237, -94.993121 39.081182, -94.994277 39.081128, -94.995433 39.081073, -94.996589 39.081019, -94.997745 39.080964, -94.998901 39.080910, -95.000057 39.080855, -95.001213 39.080801, -95.002369 39.080746, -95.003525 39.080691, -95.004681 39.080637, -95.005837 39.080582, -95.006993 39.080528, -95.008149 39.080473, -95.009305 39.080418, -95.010461 39.080364, -95.011617 39.080309, -95.012773 39.080254, -95.013929 39.080200, -95.015085 39.080145, -95.016241 39.080090, -95.017397 39.080036, -95.018553 39.079981, -95.019709 39.079926, -95.020865 39.079872, -95.022021 39.079817, -95.023177 39.079762, -95.024332 39.079707, -95.025488 39.079653, -95.026644 39.079598, -95.027800 39.079543, -95.028956 39.079488, -95.030112 39.079433, -95.031268 39.079378, -95.032424 39.079324, -95.033580 39.079269, -95.034736 39.079214, -95.035892 39.079159, -95.037048 39.079104, -95.038204 39.079049, -95.039360 39.078994, -95.040516 39.078939, -95.041672 39.078884, -95.042828 39.078829, -95.043984 39.078774, -95.045140 39.078719, -95.046295 39.078665, -95.047451 39.078610, -95.048607 39.078555, -95.049763 39.078499, -95.050919 39.078444, -95.052075 39.078389, -95.053231 39.078334, -95.054387 39.078279, -95.055543 39.078224, -95.056699 39.078169, -95.057855 39.078114, -95.059011 39.078059, -95.060167 39.078004, -95.061322 39.077949, -95.062478 39.077893, -95.063634 39.077838, -95.064790 39.077783, -95.065946 39.077728, -95.067102 39.077673, -95.068258 39.077618, -95.069414 39.077562, -95.070570 39.077507, -95.071726 39.077452, -95.072881 39.077397, -95.074037 39.077341, -95.075193 39.077286, -95.076349 39.077231, -95.077505 39.077176, -95.078661 39.077120, -95.079817 39.077065, -95.080973 39.077010, -95.082128 39.076954, -95.083284 39.076899, -95.084440 39.076844, -95.085596 39.076788, -95.086752 39.076733, -95.087908 39.076677, -95.089064 39.076622, -95.090220 39.076567, -95.091375 39.076511, -95.092531 39.076456, -95.093687 39.076400, -95.094843 39.076345, -95.095999 39.076289, -95.097155 39.076234, -95.098311 39.076178, -95.099466 39.076123, -95.100622 39.076067, -95.101778 39.076012, -95.102934 39.075956, -95.104090 39.075901, -95.105246 39.075845, -95.106401 39.075789, -95.107557 39.075734, -95.108713 39.075678, -95.109869 39.075623, -95.111025 39.075567, -95.112181 39.075511, -95.113336 39.075456, -95.114492 39.075400, -95.115648 39.075344, -95.116804 39.075289, -95.117960 39.075233, -95.119115 39.075177, -95.120271 39.075122, -95.121427 39.075066, -95.122583 39.075010, -95.123739 39.074954, -95.124895 39.074899, -95.126050 39.074843, -95.127206 39.074787, -95.128362 39.074731, -95.129518 39.074675, -95.130674 39.074620, -95.131829 39.074564, -95.132985 39.074508, -95.134141 39.074452, -95.135297 39.074396, -95.136453 39.074340, -95.137608 39.074285, -95.138764 39.074229, -95.139920 39.074173, -95.141076 39.074117, -95.142231 39.074061, -95.143387 39.074005, -95.144543 39.073949, -95.145699 39.073893, -95.146855 39.073837, -95.148010 39.073781, -95.149166 39.073725, -95.150322 39.073669, -95.151478 39.073613, -95.152633 39.073557, -95.153789 39.073501, -95.154945 39.073445, -95.156101 39.073389, -95.157256 39.073333, -95.158412 39.073277, -95.159568 39.073220, -95.160724 39.073164, -95.161879 39.073108, -95.163035 39.073052, -95.164191 39.072996, -95.165347 39.072940, -95.166502 39.072884, -95.167658 39.072827, -95.168814 39.072771, -95.169970 39.072715, -95.171125 39.072659, -95.172281 39.072603, -95.173437 39.072546, -95.174593 39.072490, -95.175748 39.072434, -95.176904 39.072378, -95.178060 39.072321, -95.179215 39.072265, -95.180371 39.072209, -95.181527 39.072152, -95.182683 39.072096, -95.183838 39.072040, -95.184994 39.071983, -95.186150 39.071927, -95.187305 39.071871, -95.188461 39.071814, -95.189617 39.071758, -95.190773 39.071701, -95.191928 39.071645, -95.193084 39.071588, -95.194240 39.071532, -95.195395 39.071476, -95.196551 39.071419, -95.197707 39.071363, -95.198862 39.071306, -95.200018 39.071250, -95.201174 39.071193, -95.202330 39.071137, -95.203485 39.071080, -95.204641 39.071023, -95.205797 39.070967, -95.206952 39.070910, -95.208108 39.070854, -95.209264 39.070797, -95.210419 39.070741, -95.211575 39.070684, -95.212731 39.070627, -95.213886 39.070571, -95.215042 39.070514, -95.216198 39.070457, -95.217353 39.070401, -95.218509 39.070344, -95.219665 39.070287, -95.220820 39.070231, -95.221976 39.070174, -95.223132 39.070117, -95.224287 39.070060, -95.225443 39.070004, -95.226598 39.069947, -95.227754 39.069890, -95.228910 39.069833, -95.230065 39.069777, -95.231221 39.069720, -95.232377 39.069663, -95.233532 39.069606, -95.234688 39.069549, -95.235844 39.069492, -95.236999 39.069435, -95.238155 39.069379, -95.239310 39.069322, -95.240466 39.069265, -95.241622 39.069208, -95.242777 39.069151, -95.243933 39.069094, -95.245089 39.069037, -95.246244 39.068980, -95.247400 39.068923, -95.248555 39.068866, -95.249711 39.068809, -95.250867 39.068752, -95.252022 39.068695, -95.253178 39.068638, -95.254333 39.068581, -95.255489 39.068524, -95.256645 39.068467, -95.257800 39.068410, -95.258956 39.068353, -95.260111 39.068296, -95.261267 39.068239, -95.262423 39.068181, -95.263578 39.068124, -95.264734 39.068067, -95.265889 39.068010, -95.267045 39.067953, -95.268200 39.067896, -95.269356 39.067839, -95.270512 39.067781, -95.271667 39.067724, -95.272823 39.067667, -95.273978 39.067610, -95.275134 39.067552, -95.276289 39.067495, -95.277445 39.067438, -95.278601 39.067381, -95.279756 39.067323, -95.280912 39.067266, -95.282067 39.067209, -95.283223 39.067151, -95.284378 39.067094, -95.285534 39.067037, -95.286689 39.066979, -95.287845 39.066922, -95.289001 39.066865, -95.290156 39.066807, -95.291312 39.066750, -95.292467 39.066692, -95.293623 39.066635, -95.294778 39.066577, -95.295934 39.066520, -95.297089 39.066463, -95.298245 39.066405, -95.299400 39.066348, -95.300556 39.066290, -95.301711 39.066233, -95.302867 39.066175, -95.304022 39.066118, -95.305178 39.066060, -95.306333 39.066002, -95.307489 39.065945, -95.308645 39.065887, -95.309800 39.065830, -95.310956 39.065772, -95.312111 39.065715, -95.313267 39.065657, -95.314422 39.065599, -95.315578 39.065542, -95.316733 39.065484, -95.317889 39.065426, -95.319044 39.065369, -95.320200 39.065311, -95.321355 39.065253, -95.322511 39.065196, -95.323666 39.065138, -95.324822 39.065080, -95.325977 39.065022, -95.327132 39.064965, -95.328288 39.064907, -95.329443 39.064849, -95.330599 39.064791, -95.331754 39.064733, -95.332910 39.064676, -95.334065 39.064618, -95.335221 39.064560, -95.336376 39.064502, -95.337532 39.064444, -95.338687 39.064386, -95.339843 39.064328, -95.340998 39.064271, -95.342154 39.064213, -95.343309 39.064155, -95.344464 39.064097, -95.345620 39.064039, -95.346775 39.063981, -95.347931 39.063923, -95.349086 39.063865, -95.350242 39.063807, -95.351397 39.063749, -95.352553 39.063691, -95.353708 39.063633, -95.354863 39.063575, -95.356019 39.063517, -95.357174 39.063459, -95.358330 39.063401, -95.359485 39.063343, -95.360641 39.063285, -95.361796 39.063226, -95.362951 39.063168, -95.364107 39.063110, -95.365262 39.063052, -95.366418 39.062994, -95.367573 39.062936, -95.368729 39.062878, -95.369884 39.062819, -95.371039 39.062761, -95.372195 39.062703, -95.373350 39.062645, -95.374506 39.062587, -95.375661 39.062528, -95.376816 39.062470, -95.377972 39.062412, -95.379127 39.062354, -95.380283 39.062295, -95.381438 39.062237, -95.382593 39.062179, -95.383749 39.062120, -95.384904 39.062062, -95.386060 39.062004, -95.387215 39.061945, -95.388370 39.061887, -95.389526 39.061829, -95.390681 39.061770, -95.391836 39.061712, -95.392992 39.061653, -95.394147 39.061595, -95.395303 39.061537, -95.396458 39.061478, -95.397613 39.061420, -95.398769 39.061361, -95.399924 39.061303, -95.401079 39.061244, -95.402235 39.061186, -95.403390 39.061127, -95.404545 39.061069, -95.405701 39.061010, -95.406856 39.060952, -95.408012 39.060893, -95.409167 39.060835, -95.410322 39.060776, -95.411478 39.060717, -95.412633 39.060659, -95.413788 39.060600, -95.414944 39.060542, -95.416099 39.060483, -95.417254 39.060424, -95.418410 39.060366, -95.419565 39.060307, -95.420720 39.060248, -95.421876 39.060190, -95.423031 39.060131, -95.424186 39.060072, -95.425342 39.060013, -95.426497 39.059955, -95.427652 39.059896, -95.428807 39.059837, -95.429963 39.059778, -95.431118 39.059720, -95.432273 39.059661, -95.433429 39.059602, -95.434584 39.059543, -95.435739 39.059484, -95.436895 39.059426, -95.438050 39.059367, -95.439205 39.059308, -95.440361 39.059249, -95.441516 39.059190, -95.442671 39.059131, -95.443826 39.059072, -95.444982 39.059013, -95.446137 39.058954, -95.447292 39.058895, -95.448448 39.058836, -95.449603 39.058777, -95.450758 39.058719, -95.451913 39.058660, -95.453069 39.058601, -95.454224 39.058542, -95.455379 39.058482, -95.456534 39.058423, -95.457690 39.058364, -95.458845 39.058305, -95.460000 39.058246, -95.461156 39.058187, -95.462311 39.058128, -95.463466 39.058069, -95.464621 39.058010, -95.465777 39.057951, -95.466932 39.057892, -95.468087 39.057832, -95.469242 39.057773, -95.470398 39.057714, -95.471553 39.057655, -95.472708 39.057596, -95.473863 39.057537, -95.475018 39.057477, -95.476174 39.057418, -95.477329 39.057359, -95.478484 39.057300, -95.479639 39.057240, -95.480795 39.057181, -95.481950 39.057122, -95.483105 39.057063, -95.484260 39.057003, -95.485416 39.056944, -95.486571 39.056885, -95.487726 39.056825, -95.488881 39.056766, -95.490036 39.056706, -95.491192 39.056647, -95.492347 39.056588, -95.493502 39.056528, -95.494657 39.056469, -95.495812 39.056409, -95.496968 39.056350, -95.498123 39.056291, -95.499278 39.056231, -95.500433 39.056172, -95.501588 39.056112, -95.502744 39.056053, -95.503899 39.055993, -95.505054 39.055934, -95.506209 39.055874, -95.507364 39.055815, -95.508520 39.055755, -95.509675 39.055696, -95.510830 39.055636, -95.511985 39.055576, -95.513140 39.055517, -95.514295 39.055457, -95.515451 39.055398, -95.516606 39.055338, -95.517761 39.055278, -95.518916 39.055219, -95.520071 39.055159, -95.521226 39.055099, -95.522382 39.055040, -95.523537 39.054980, -95.524692 39.054920, -95.525847 39.054860, -95.527002 39.054801, -95.528157 39.054741, -95.529312 39.054681, -95.530468 39.054621, -95.531623 39.054562, -95.532778 39.054502, -95.533933 39.054442, -95.535088 39.054382, -95.536243 39.054323, -95.537398 39.054263, -95.538554 39.054203, -95.539709 39.054143, -95.540864 39.054083, -95.542019 39.054023, -95.543174 39.053963, -95.544329 39.053903, -95.545484 39.053844, -95.546639 39.053784, -95.547795 39.053724, -95.548950 39.053664, -95.550105 39.053604, -95.551260 39.053544, -95.552415 39.053484, -95.553570 39.053424, -95.554725 39.053364, -95.555880 39.053304, -95.557035 39.053244, -95.558190 39.053184, -95.559346 39.053124, -95.560501 39.053064, -95.561656 39.053004, -95.562811 39.052943, -95.563966 39.052883, -95.565121 39.052823, -95.566276 39.052763, -95.567431 39.052703, -95.568586 39.052643, -95.569741 39.052583, -95.570896 39.052523, -95.572051 39.052462, -95.573207 39.052402, -95.574362 39.052342, -95.575517 39.052282, -95.576672 39.052222, -95.577827 39.052161, -95.578982 39.052101, -95.580137 39.052041, -95.581292 39.051981, -95.582447 39.051920, -95.583602 39.051860, -95.584757 39.051800, -95.585912 39.051739, -95.587067 39.051679, -95.588222 39.051619, -95.589377 39.051558, -95.590532 39.051498, -95.591687 39.051438, -95.592842 39.051377, -95.593998 39.051317, -95.595153 39.051256, -95.596308 39.051196, -95.597463 39.051136, -95.598618 39.051075, -95.599773 39.051015, -95.600928 39.050954, -95.602083 39.050894, -95.603238 39.050833, -95.604393 39.050773, -95.605548 39.050712, -95.606703 39.050652, -95.607858 39.050591, -95.609013 39.050531, -95.610168 39.050470, -95.611323 39.050410, -95.612478 39.050349, -95.613633 39.050289, -95.614788 39.050228, -95.615943 39.050167, -95.617098 39.050107, -95.618253 39.050046, -95.619408 39.049985, -95.620563 39.049925, -95.621718 39.049864, -95.622873 39.049803, -95.624028 39.049743, -95.625183 39.049682, -95.626338 39.049621, -95.627493 39.049561, -95.628648 39.049500, -95.629803 39.049439, -95.630958 39.049378, -95.632113 39.049318, -95.633268 39.049257, -95.634423 39.049196, -95.635577 39.049135, -95.636732 39.049074, -95.637887 39.049014, -95.639042 39.048953, -95.640197 39.048892, -95.641352 39.048831, -95.642507 39.048770, -95.643662 39.048709, -95.644817 39.048648, -95.645972 39.048587, -95.647127 39.048527, -95.648282 39.048466, -95.649437 39.048405, -95.650592 39.048344, -95.651747 39.048283, -95.652902 39.048222, -95.654057 39.048161, -95.655212 39.048100, -95.656367 39.048039, -95.657521 39.047978, -95.658676 39.047917, -95.659831 39.047856, -95.660986 39.047795, -95.662141 39.047734, -95.663296 39.047673, -95.664451 39.047611, -95.665606 39.047550, -95.666761 39.047489, -95.667916 39.047428, -95.669071 39.047367, -95.670226 39.047306, -95.671380 39.047245, -95.672535 39.047184, -95.673690 39.047122, -95.674845 39.047061, -95.676000 39.047000, -95.676806 39.046355, -95.677613 39.045710, -95.678419 39.045065, -95.679226 39.044420, -95.680032 39.043775, -95.680838 39.043129, -95.681645 39.042484, -95.682451 39.041839, -95.683257 39.041194, -95.684064 39.040549, -95.684870 39.039904, -95.685676 39.039259, -95.686482 39.038614, -95.687289 39.037968, -95.688095 39.037323, -95.688901 39.036678, -95.689707 39.036033, -95.690513 39.035388, -95.691320 39.034743, -95.692126 39.034097, -95.692932 39.033452, -95.693738 39.032807, -95.694544 39.032162, -95.695350 39.031517, -95.696156 39.030871, -95.696962 39.030226, -95.697768 39.029581, -95.698574 39.028936, -95.699380 39.028290, -95.700186 39.027645, -95.700992 39.027000, -95.701798 39.026355, -95.702604 39.025709, -95.703410 39.025064, -95.704216 39.024419, -95.705022 39.023774, -95.705828 39.023128, -95.706634 39.022483, -95.707440 39.021838, -95.708246 39.021192, -95.709051 39.020547, -95.709857 39.019902, -95.710663 39.019257, -95.711469 39.018611, -95.712275 39.017966, -95.713080 39.017321, -95.713886 39.016675, -95.714692 39.016030, -95.715498 39.015385, -95.716303 39.014739, -95.717109 39.014094, -95.717915 39.013448, -95.718720 39.012803, -95.719526 39.012158, -95.720332 39.011512, -95.721137 39.010867, -95.721943 39.010222, -95.722748 39.009576, -95.723554 39.008931, -95.724359 39.008285, -95.725165 39.007640, -95.725971 39.006994, -95.726776 39.006349, -95.727582 39.005704, -95.728387 39.005058, -95.729193 39.004413, -95.729998 39.003767, -95.730803 39.003122, -95.731609 39.002476, -95.732414 39.001831, -95.733220 39.001185, -95.734025 39.000540, -95.734830 38.999895, -95.735636 38.999249, -95.736441 38.998604, -95.737246 38.997958, -95.738052 38.997313, -95.738857 38.996667, -95.739662 38.996022, -95.740468 38.995376, -95.741273 38.994730, -95.742078 38.994085, -95.742883 38.993439, -95.743688 38.992794, -95.744494 38.992148, -95.745299 38.991503, -95.746104 38.990857, -95.746909 38.990212, -95.747714 38.989566, -95.748519 38.988921, -95.749324 38.988275, -95.750130 38.987629, -95.750935 38.986984, -95.751740 38.986338, -95.752545 38.985693, -95.753350 38.985047, -95.754155 38.984401, -95.754960 38.983756, -95.755765 38.983110, -95.756570 38.982464, -95.757375 38.981819, -95.758180 38.981173, -95.758985 38.980528, -95.759789 38.979882, -95.760594 38.979236, -95.761399 38.978591, -95.762204 38.977945, -95.763009 38.977299, -95.763814 38.976654, -95.764619 38.976008, -95.765423 38.975362, -95.766228 38.974716, -95.767033 38.974071, -95.767838 38.973425, -95.768643 38.972779, -95.769447 38.972134, -95.770252 38.971488, -95.771057 38.970842, -95.771861 38.970196, -95.772666 38.969551, -95.773471 38.968905, -95.774275 38.968259, -95.775080 38.967613, -95.775885 38.966968, -95.776689 38.966322, -95.777494 38.965676, -95.778298 38.965030, -95.779103 38.964385, -95.779907 38.963739, -95.780712 38.963093, -95.781517 38.962447, -95.782321 38.961801, -95.783125 38.961156, -95.783930 38.960510, -95.784734 38.959864, -95.785539 38.959218, -95.786343 38.958572, -95.787148 38.957926, -95.787952 38.957281, -95.788756 38.956635, -95.789561 38.955989, -95.790365 38.955343, -95.791170 38.954697, -95.791974 38.954051, -95.792778 38.953405, -95.793582 38.952760, -95.794387 38.952114, -95.795191 38.951468, -95.795995 38.950822, -95.796799 38.950176, -95.797604 38.949530, -95.798408 38.948884, -95.799212 38.948238, -95.800016 38.947592, -95.800820 38.946946, -95.801625 38.946300, -95.802429 38.945654, -95.803233 38.945008, -95.804037 38.944363, -95.804841 38.943717, -95.805645 38.943071, -95.806449 38.942425, -95.807253 38.941779, -95.808057 38.941133, -95.808861 38.940487, -95.809665 38.939841, -95.810469 38.939195, -95.811273 38.938549, -95.812077 38.937903, -95.812881 38.937257, -95.813685 38.936611, -95.814489 38.935965, -95.815293 38.935319, -95.816097 38.934673, -95.816901 38.934027, -95.817704 38.933380, -95.818508 38.932734, -95.819312 38.932088, -95.820116 38.931442, -95.820920 38.930796, -95.821724 38.930150, -95.822527 38.929504, -95.823331 38.928858, -95.824135 38.928212, -95.824939 38.927566, -95.825742 38.926920, -95.826546 38.926274, -95.827350 38.925627, -95.828153 38.924981, -95.828957 38.924335, -95.829761 38.923689, -95.830564 38.923043, -95.831368 38.922397, -95.832171 38.921751, -95.832975 38.921104, -95.833779 38.920458, -95.834582 38.919812, -95.835386 38.919166, -95.836189 38.918520, -95.836993 38.917874, -95.837796 38.917227, -95.838600 38.916581, -95.839403 38.915935, -95.840206 38.915289, -95.841010 38.914643, -95.841813 38.913996, -95.842617 38.913350, -95.843420 38.912704, -95.844224 38.912058, -95.845027 38.911412, -95.845830 38.910765, -95.846634 38.910119, -95.847437 38.909473, -95.848240 38.908827, -95.849043 38.908180, -95.849847 38.907534, -95.850650 38.906888, -95.851453 38.906241, -95.852256 38.905595, -95.853060 38.904949, -95.853863 38.904303, -95.854666 38.903656, -95.855469 38.903010, -95.856272 38.902364, -95.857075 38.901717, -95.857879 38.901071, -95.858682 38.900425, -95.859485 38.899778, -95.860288 38.899132, -95.861091 38.898486, -95.861894 38.897839, -95.862697 38.897193, -95.863500 38.896547, -95.864303 38.895900, -95.865106 38.895254, -95.865909 38.894607, -95.866712 38.893961, -95.867515 38.893315, -95.868318 38.892668, -95.869121 38.892022, -95.869924 38.891375, -95.870727 38.890729, -95.871529 38.890083, -95.872332 38.889436, -95.873135 38.888790, -95.873938 38.888143, -95.874741 38.887497, -95.875544 38.886850, -95.876346 38.886204, -95.877149 38.885558, -95.877952 38.884911, -95.878755 38.884265, -95.879557 38.883618, -95.880360 38.882972, -95.881163 38.882325, -95.881966 38.881679, -95.882768 38.881032, -95.883571 38.880386, -95.884373 38.879739, -95.885176 38.879093, -95.885979 38.878446, -95.886781 38.877800, -95.887584 38.877153, -95.888386 38.876507, -95.889189 38.875860, -95.889992 38.875213, -95.890794 38.874567, -95.891597 38.873920, -95.892399 38.873274, -95.893202 38.872627, -95.894004 38.871981, -95.894806 38.871334, -95.895609 38.870688, -95.896411 38.870041, -95.897214 38.869394, -95.898016 38.868748, -95.898819 38.868101, -95.899621 38.867455, -95.900423 38.866808, -95.901226 38.866161, -95.902028 38.865515, -95.902830 38.864868, -95.903632 38.864221, -95.904435 38.863575, -95.905237 38.862928, -95.906039 38.862281, -95.906842 38.861635, -95.907644 38.860988, -95.908446 38.860341, -95.909248 38.859695, -95.910050 38.859048, -95.910852 38.858401, -95.911655 38.857755, -95.912457 38.857108, -95.913259 38.856461, -95.914061 38.855815, -95.914863 38.855168, -95.915665 38.854521, -95.916467 38.853874, -95.917269 38.853228, -95.918071 38.852581, -95.918873 38.851934, -95.919675 38.851287, -95.920477 38.850641, -95.921279 38.849994, -95.922081 38.849347, -95.922883 38.848700, -95.923685 38.848054, -95.924487 38.847407, -95.925289 38.846760, -95.926091 38.846113, -95.926893 38.845467, -95.927694 38.844820, -95.928496 38.844173, -95.929298 38.843526, -95.930100 38.842879, -95.930902 38.842232, -95.931703 38.841586, -95.932505 38.840939, -95.933307 38.840292, -95.934109 38.839645, -95.934910 38.838998, -95.935712 38.838351, -95.936514 38.837705, -95.937316 38.837058, -95.938117 38.836411, -95.938919 38.835764, -95.939720 38.835117, -95.940522 38.834470, -95.941324 38.833823, -95.942125 38.833176, -95.942927 38.832529, -95.943728 38.831883, -95.944530 38.831236, -95.945332 38.830589, -95.946133 38.829942, -95.946935 38.829295, -95.947736 38.828648, -95.948538 38.828001, -95.949339 38.827354, -95.950140 38.826707, -95.950942 38.826060, -95.951743 38.825413, -95.952545 38.824766, -95.953346 38.824119, -95.954147 38.823472, -95.954949 38.822825, -95.955750 38.822178, -95.956551 38.821531, -95.957353 38.820884, -95.958154 38.820237, -95.958955 38.819590, -95.959757 38.818943, -95.960558 38.818296, -95.961359 38.817649, -95.962160 38.817002, -95.962962 38.816355, -95.963763 38.815708, -95.964564 38.815061, -95.965365 38.814414, -95.966166 38.813767, -95.966967 38.813120, -95.967769 38.812473, -95.968570 38.811826, -95.969371 38.811178, -95.970172 38.810531, -95.970973 38.809884, -95.971774 38.809237, -95.972575 38.808590, -95.973376 38.807943, -95.974177 38.807296, -95.974978 38.806649, -95.975779 38.806002, -95.976580 38.805354, -95.977381 38.804707, -95.978182 38.804060, -95.978983 38.803413, -95.979784 38.802766, -95.980585 38.802119, -95.981385 38.801471, -95.982186 38.800824, -95.982987 38.800177, -95.983788 38.799530, -95.984589 38.798883, -95.985390 38.798236, -95.986190 38.797588, -95.986991 38.796941, -95.987792 38.796294, -95.988593 38.795647, -95.989393 38.794999, -95.990194 38.794352, -95.990995 38.793705, -95.991796 38.793058, -95.992596 38.792411, -95.993397 38.791763, -95.994197 38.791116, -95.994998 38.790469, -95.995799 38.789821, -95.996599 38.789174, -95.997400 38.788527, -95.998200 38.787880, -95.999001 38.787232, -95.999802 38.786585, -96.000602 38.785938, -96.001403 38.785290, -96.002203 38.784643, -96.003004 38.783996, -96.003804 38.783349, -96.004605 38.782701, -96.005405 38.782054, -96.006205 38.781407, -96.007006 38.780759, -96.007806 38.780112, -96.008607 38.779464, -96.009407 38.778817, -96.010207 38.778170, -96.011008 38.777522, -96.011808 38.776875, -96.012608 38.776228, -96.013409 38.775580, -96.014209 38.774933, -96.015009 38.774285, -96.015809 38.773638, -96.016610 38.772991, -96.017410 38.772343, -96.018210 38.771696, -96.019010 38.771048, -96.019810 38.770401, -96.020611 38.769753, -96.021411 38.769106, -96.022211 38.768459, -96.023011 38.767811, -96.023811 38.767164, -96.024611 38.766516, -96.025411 38.765869, -96.026211 38.765221, -96.027011 38.764574, -96.027811 38.763926, -96.028611 38.763279, -96.029411 38.762631, -96.030211 38.761984, -96.031011 38.761336, -96.031811 38.760689, -96.032611 38.760041, -96.033411 38.759394, -96.034211 38.758746, -96.035011 38.758099, -96.035811 38.757451, -96.036611 38.756804, -96.037411 38.756156, -96.038211 38.755509, -96.039010 38.754861, -96.039810 38.754213, -96.040610 38.753566, -96.041410 38.752918, -96.042210 38.752271, -96.043009 38.751623, -96.043809 38.750975, -96.044609 38.750328, -96.045409 38.749680, -96.046208 38.749033, -96.047008 38.748385, -96.047808 38.747737, -96.048607 38.747090, -96.049407 38.746442, -96.050207 38.745795, -96.051006 38.745147, -96.051806 38.744499, -96.052605 38.743852, -96.053405 38.743204, -96.054204 38.742556, -96.055004 38.741909, -96.055804 38.741261, -96.056603 38.740613, -96.057403 38.739966, -96.058202 38.739318, -96.059001 38.738670, -96.059801 38.738022, -96.060600 38.737375, -96.061400 38.736727, -96.062199 38.736079, -96.062999 38.735432, -96.063798 38.734784, -96.064597 38.734136, -96.065397 38.733488, -96.066196 38.732841, -96.066995 38.732193, -96.067795 38.731545, -96.068594 38.730897, -96.069393 38.730250, -96.070193 38.729602, -96.070992 38.728954, -96.071791 38.728306, -96.072590 38.727658, -96.073389 38.727011, -96.074189 38.726363, -96.074988 38.725715, -96.075787 38.725067, -96.076586 38.724419, -96.077385 38.723772, -96.078184 38.723124, -96.078983 38.722476, -96.079783 38.721828, -96.080582 38.721180, -96.081381 38.720532, -96.082180 38.719885, -96.082979 38.719237, -96.083778 38.718589, -96.084577 38.717941, -96.085376 38.717293, -96.086175 38.716645, -96.086974 38.715997, -96.087773 38.715349, -96.088572 38.714701, -96.089371 38.714054, -96.090169 38.713406, -96.090968 38.712758, -96.091767 38.712110, -96.092566 38.711462, -96.093365 38.710814, -96.094164 38.710166, -96.094963 38.709518, -96.095761 38.708870, -96.096560 38.708222, -96.097359 38.707574, -96.098158 38.706926, -96.098956 38.706278, -96.099755 38.705630, -96.100554 38.704982, -96.101353 38.704334, -96.102151 38.703686, -96.102950 38.703038, -96.103749 38.702390, -96.104547 38.701742, -96.105346 38.701094, -96.106144 38.700446, -96.106943 38.699798, -96.107742 38.699150, -96.108540 38.698502, -96.109339 38.697854, -96.110137 38.697206, -96.110936 38.696558, -96.111734 38.695910, -96.112533 38.695262, -96.113331 38.694614, -96.114130 38.693966, -96.114928 38.693318, -96.115727 38.692670, -96.116525 38.692022, -96.117324 38.691373, -96.118122 38.690725, -96.118920 38.690077, -96.119719 38.689429, -96.120517 38.688781, -96.121315 38.688133, -96.122114 38.687485, -96.122912 38.686837, -96.123710 38.686189, -96.124509 38.685540, -96.125307 38.684892, -96.126105 38.684244, -96.126903 38.683596, -96.127702 38.682948, -96.128500 38.682300, -96.129298 38.681651, -96.130096 38.681003, -96.130894 38.680355, -96.131693 38.679707, -96.132491 38.679059, -96.133289 38.678410, -96.134087 38.677762, -96.134885 38.677114, -96.135683 38.676466, -96.136481 38.675818, -96.137279 38.675169, -96.138077 38.674521, -96.138875 38.673873, -96.139673 38.673225, -96.140471 38.672576, -96.141269 38.671928, -96.142067 38.671280, -96.142865 38.670632, -96.143663 38.669983, -96.144461 38.669335, -96.145259 38.668687, -96.146057 38.668038, -96.146855 38.667390, -96.147652 38.666742, -96.148450 38.666094, -96.149248 38.665445, -96.150046 38.664797, -96.150844 38.664149, -96.151642 38.663500, -96.152439 38.662852, -96.153237 38.662204, -96.154035 38.661555, -96.154833 38.660907, -96.155630 38.660259, -96.156428 38.659610, -96.157226 38.658962, -96.158023 38.658313, -96.158821 38.657665, -96.159619 38.657017, -96.160416 38.656368, -96.161214 38.655720, -96.162012 38.655071, -96.162809 38.654423, -96.163607 38.653775, -96.164404 38.653126, -96.165202 38.652478, -96.165999 38.651829, -96.166797 38.651181, -96.167594 38.650533, -96.168392 38.649884, -96.169189 38.649236, -96.169987 38.648587, -96.170784 38.647939, -96.171582 38.647290, -96.172379 38.646642, -96.173176 38.645993, -96.173974 38.645345, -96.174771 38.644696, -96.175569 38.644048, -96.176366 38.643399, -96.177163 38.642751, -96.177961 38.642102, -96.178758 38.641454, -96.179555 38.640805, -96.180352 38.640157, -96.181150 38.639508, -96.181947 38.638860, -96.182744 38.638211, -96.183541 38.637563, -96.184339 38.636914, -96.185136 38.636266, -96.185933 38.635617, -96.186730 38.634968, -96.187527 38.634320, -96.188324 38.633671, -96.189121 38.633023, -96.189919 38.632374, -96.190716 38.631726, -96.191513 38.631077, -96.192310 38.630428, -96.193107 38.629780, -96.193904 38.629131, -96.194701 38.628482, -96.195498 38.627834, -96.196295 38.627185, -96.197092 38.626537, -96.197889 38.625888, -96.198686 38.625239, -96.199483 38.624591, -96.200279 38.623942, -96.201076 38.623293, -96.201873 38.622645, -96.202670 38.621996, -96.203467 38.621347, -96.204264 38.620699, -96.205061 38.620050, -96.205857 38.619401, -96.206654 38.618752, -96.207451 38.618104, -96.208248 38.617455, -96.209045 38.616806, -96.209841 38.616158, -96.210638 38.615509, -96.211435 38.614860, -96.212231 38.614211, -96.213028 38.613563, -96.213825 38.612914, -96.214621 38.612265, -96.215418 38.611616, -96.216215 38.610968, -96.217011 38.610319, -96.217808 38.609670, -96.218604 38.609021, -96.219401 38.608373, -96.220198 38.607724, -96.220994 38.607075, -96.221791 38.606426, -96.222587 38.605777, -96.223384 38.605129, -96.224180 38.604480, -96.224977 38.603831, -96.225773 38.603182, -96.226569 38.602533, -96.227366 38.601884, -96.228162 38.601236, -96.228959 38.600587, -96.229755 38.599938, -96.230551 38.599289, -96.231348 38.598640, -96.232144 38.597991, -96.232940 38.597342, -96.233737 38.596693, -96.234533 38.596045, -96.235329 38.595396, -96.236125 38.594747, -96.236922 38.594098, -96.237718 38.593449, -96.238514 38.592800, -96.239310 38.592151, -96.240107 38.591502, -96.240903 38.590853, -96.241699 38.590204, -96.242495 38.589555, -96.243291 38.588906, -96.244087 38.588257, -96.244883 38.587608, -96.245680 38.586959, -96.246476 38.586311, -96.247272 38.585662, -96.248068 38.585013, -96.248864 38.584364, -96.249660 38.583715, -96.250456 38.583066, -96.251252 38.582417, -96.252048 38.581768, -96.252844 38.581119, -96.253640 38.580470, -96.254436 38.579821, -96.255231 38.579171, -96.256027 38.578522, -96.256823 38.577873, -96.257619 38.577224, -96.258415 38.576575, -96.259211 38.575926, -96.260007 38.575277, -96.260802 38.574628, -96.261598 38.573979, -96.262394 38.573330, -96.263190 38.572681, -96.263986 38.572032, -96.264781 38.571383, -96.265577 38.570734, -96.266373 38.570084, -96.267168 38.569435, -96.267964 38.568786, -96.268760 38.568137, -96.269555 38.567488, -96.270351 38.566839, -96.271147 38.566190, -96.271942 38.565541, -96.272738 38.564891, -96.273534 38.564242, -96.274329 38.563593, -96.275125 38.562944, -96.275920 38.562295, -96.276716 38.561646, -96.277511 38.560996, -96.278307 38.560347, -96.279102 38.559698, -96.279898 38.559049, -96.280693 38.558400, -96.281489 38.557750, -96.282284 38.557101, -96.283079 38.556452, -96.283875 38.555803, -96.284670 38.555154, -96.285466 38.554504, -96.286261 38.553855, -96.287056 38.553206, -96.287852 38.552557, -96.288647 38.551907, -96.289442 38.551258, -96.290238 38.550609, -96.291033 38.549960, -96.291828 38.549310, -96.292623 38.548661, -96.293418 38.548012, -96.294214 38.547362, -96.295009 38.546713, -96.295804 38.546064, -96.296599 38.545414, -96.297394 38.544765, -96.298190 38.544116, -96.298985 38.543466, -96.299780 38.542817, -96.300575 38.542168, -96.301370 38.541518, -96.302165 38.540869, -96.302960 38.540220, -96.303755 38.539570, -96.304550 38.538921, -96.305345 38.538272, -96.306140 38.537622, -96.306935 38.536973, -96.307730 38.536324, -96.308525 38.535674, -96.309320 38.535025, -96.310115 38.534375, -96.310910 38.533726, -96.311705 38.533077, -96.312500 38.532427, -96.313294 38.531778, -96.314089 38.531128, -96.314884 38.530479, -96.315679 38.529829, -96.316474 38.529180, -96.317269 38.528530, -96.318063 38.527881, -96.318858 38.527232, -96.319653 38.526582, -96.320448 38.525933, -96.321242 38.525283, -96.322037 38.524634, -96.322832 38.523984, -96.323626 38.523335, -96.324421 38.522685, -96.325216 38.522036, -96.326010 38.521386, -96.326805 38.520737, -96.327600 38.520087, -96.328394 38.519438, -96.329189 38.518788, -96.329983 38.518139, -96.330778 38.517489, -96.331572 38.516839, -96.332367 38.516190, -96.333162 38.515540, -96.333956 38.514891, -96.334750 38.514241, -96.335545 38.513592, -96.336339 38.512942, -96.337134 38.512292, -96.337928 38.511643, -96.338723 38.510993, -96.339517 38.510344, -96.340311 38.509694, -96.341106 38.509044, -96.341900 38.508395, -96.342694 38.507745, -96.343489 38.507096, -96.344283 38.506446, -96.345077 38.505796, -96.345872 38.505147, -96.346666 38.504497, -96.347460 38.503847, -96.348254 38.503198, -96.349049 38.502548, -96.349843 38.501898, -96.350637 38.501249, -96.351431 38.500599, -96.352225 38.499949, -96.353020 38.499300, -96.353814 38.498650, -96.354608 38.498000, -96.355402 38.497351, -96.356196 38.496701, -96.356990 38.496051, -96.357784 38.495401, -96.358578 38.494752, -96.359372 38.494102, -96.360166 38.493452, -96.360960 38.492802, -96.361754 38.492153, -96.362548 38.491503, -96.363342 38.490853, -96.364136 38.490203, -96.364930 38.489554, -96.365724 38.488904, -96.366518 38.488254, -96.367312 38.487604, -96.368106 38.486954, -96.368900 38.486305, -96.369693 38.485655, -96.370487 38.485005, -96.371281 38.484355, -96.372075 38.483705, -96.372869 38.483056, -96.373662 38.482406, -96.374456 38.481756, -96.375250 38.481106, -96.376044 38.480456, -96.376837 38.479806, -96.377631 38.479157, -96.378425 38.478507, -96.379218 38.477857, -96.380012 38.477207, -96.380806 38.476557, -96.381599 38.475907, -96.382393 38.475257, -96.383187 38.474607, -96.383980 38.473957, -96.384774 38.473308, -96.385567 38.472658, -96.386361 38.472008, -96.387154 38.471358, -96.387948 38.470708, -96.388741 38.470058, -96.389535 38.469408, -96.390328 38.468758, -96.391122 38.468108, -96.391915 38.467458, -96.392709 38.466808, -96.393502 38.466158, -96.394296 38.465508, -96.395089 38.464858, -96.395882 38.464208, -96.396676 38.463558, -96.397469 38.462908, -96.398262 38.462258, -96.399056 38.461608, -96.399849 38.460958, -96.400642 38.460308, -96.401436 38.459658, -96.402229 38.459008, -96.403022 38.458358, -96.403815 38.457708, -96.404609 38.457058, -96.405402 38.456408, -96.406195 38.455758, -96.406988 38.455108, -96.407781 38.454458, -96.408575 38.453808, -96.409368 38.453158, -96.410161 38.452508, -96.410954 38.451858, -96.411747 38.451208, -96.412540 38.450557, -96.413333 38.449907, -96.414126 38.449257, -96.414919 38.448607, -96.415712 38.447957, -96.416505 38.447307, -96.417298 38.446657, -96.418091 38.446007, -96.418884 38.445357, -96.419677 38.444706, -96.420470 38.444056, -96.421263 38.443406, -96.422056 38.442756, -96.422849 38.442106, -96.423642 38.441456, -96.424434 38.440805, -96.425227 38.440155, -96.426020 38.439505, -96.426813 38.438855, -96.427606 38.438205, -96.428399 38.437554, -96.429191 38.436904, -96.429984 38.436254, -96.430777 38.435604, -96.431570 38.434954, -96.432362 38.434303, -96.433155 38.433653, -96.433948 38.433003, -96.434740 38.432353, -96.435533 38.431702, -96.436326 38.431052, -96.437118 38.430402, -96.437911 38.429752, -96.438704 38.429101, -96.439496 38.428451, -96.440289 38.427801, -96.441081 38.427151, -96.441874 38.426500, -96.442666 38.425850, -96.443459 38.425200, -96.444251 38.424549, -96.445044 38.423899, -96.445836 38.423249, -96.446629 38.422598, -96.447421 38.421948, -96.448214 38.421298, -96.449006 38.420647, -96.449799 38.419997, -96.450591 38.419347, -96.451383 38.418696, -96.452176 38.418046, -96.452968 38.417396, -96.453760 38.416745, -96.454553 38.416095, -96.455345 38.415444, -96.456137 38.414794, -96.456930 38.414144, -96.457722 38.413493, -96.458514 38.412843, -96.459306 38.412192, -96.460099 38.411542, -96.460891 38.410892, -96.461683 38.410241, -96.462475 38.409591, -96.463267 38.408940, -96.464059 38.408290, -96.464852 38.407639, -96.465644 38.406989, -96.466436 38.406339, -96.467228 38.405688, -96.468020 38.405038, -96.468812 38.404387, -96.469604 38.403737, -96.470396 38.403086, -96.471188 38.402436, -96.471980 38.401785, -96.472772 38.401135, -96.473564 38.400484, -96.474356 38.399834, -96.475148 38.399183, -96.475940 38.398533, -96.476732 38.397882, -96.477524 38.397232, -96.478316 38.396581, -96.479108 38.395931, -96.479899 38.395280, -96.480691 38.394629, -96.481483 38.393979, -96.482275 38.393328, -96.483067 38.392678, -96.483859 38.392027, -96.484650 38.391377, -96.485442 38.390726, -96.486234 38.390075, -96.487026 38.389425, -96.487817 38.388774, -96.488609 38.388124, -96.489401 38.387473, -96.490192 38.386822, -96.490984 38.386172, -96.491776 38.385521, -96.492567 38.384870, -96.493359 38.384220, -96.494151 38.383569, -96.494942 38.382919, -96.495734 38.382268, -96.496525 38.381617, -96.497317 38.380967, -96.498108 38.380316, -96.498900 38.379665, -96.499691 38.379015, -96.500483 38.378364, -96.501274 38.377713, -96.502066 38.377062, -96.502857 38.376412, -96.503649 38.375761, -96.504440 38.375110, -96.505232 38.374460, -96.506023 38.373809, -96.506814 38.373158, -96.507606 38.372507, -96.508397 38.371857, -96.509188 38.371206, -96.509980 38.370555, -96.510771 38.369904, -96.511562 38.369254, -96.512354 38.368603, -96.513145 38.367952, -96.513936 38.367301, -96.514727 38.366651, -96.515519 38.366000, -96.516310 38.365349, -96.517101 38.364698, -96.517892 38.364047, -96.518683 38.363397, -96.519474 38.362746, -96.520266 38.362095, -96.521057 38.361444, -96.521848 38.360793, -96.522639 38.360142, -96.523430 38.359492, -96.524221 38.358841, -96.525012 38.358190, -96.525803 38.357539, -96.526594 38.356888, -96.527385 38.356237, -96.528176 38.355586, -96.528967 38.354936, -96.529758 38.354285, -96.530549 38.353634, -96.531340 38.352983, -96.532131 38.352332, -96.532922 38.351681, -96.533713 38.351030, -96.534504 38.350379, -96.535295 38.349728, -96.536085 38.349077, -96.536876 38.348427, -96.537667 38.347776, -96.538458 38.347125, -96.539249 38.346474, -96.540039 38.345823, -96.540830 38.345172, -96.541621 38.344521, -96.542412 38.343870, -96.543202 38.343219, -96.543993 38.342568, -96.544784 38.341917, -96.545575 38.341266, -96.546365 38.340615, -96.547156 38.339964, -96.547946 38.339313, -96.548737 38.338662, -96.549528 38.338011, -96.550318 38.337360, -96.551109 38.336709, -96.551899 38.336058, -96.552690 38.335407, -96.553481 38.334756, -96.554271 38.334105, -96.555062 38.333454, -96.555852 38.332803, -96.556643 38.332152, -96.557433 38.331500, -96.558224 38.330849, -96.559014 38.330198, -96.559804 38.329547, -96.560595 38.328896, -96.561385 38.328245, -96.562176 38.327594, -96.562966 38.326943, -96.563756 38.326292, -96.564547 38.325641, -96.565337 38.324990, -96.566127 38.324338, -96.566918 38.323687, -96.567708 38.323036, -96.568498 38.322385, -96.569288 38.321734, -96.570079 38.321083, -96.570869 38.320432, -96.571659 38.319780, -96.572449 38.319129, -96.573239 38.318478, -96.574030 38.317827, -96.574820 38.317176, -96.575610 38.316524, -96.576400 38.315873, -96.577190 38.315222, -96.577980 38.314571, -96.578770 38.313920, -96.579560 38.313268, -96.580351 38.312617, -96.581141 38.311966, -96.581931 38.311315, -96.582721 38.310664, -96.583511 38.310012, -96.584301 38.309361, -96.585091 38.308710, -96.585881 38.308058, -96.586670 38.307407, -96.587460 38.306756, -96.588250 38.306105, -96.589040 38.305453, -96.589830 38.304802, -96.590620 38.304151, -96.591410 38.303500, -96.592200 38.302848, -96.592990 38.302197, -96.593779 38.301546, -96.594569 38.300894, -96.595359 38.300243, -96.596149 38.299592, -96.596938 38.298940, -96.597728 38.298289, -96.598518 38.297638, -96.599308 38.296986, -96.600097 38.296335, -96.600887 38.295684, -96.601677 38.295032, -96.602466 38.294381, -96.603256 38.293729, -96.604046 38.293078, -96.604835 38.292427, -96.605625 38.291775, -96.606414 38.291124, -96.607204 38.290472, -96.607994 38.289821, -96.608783 38.289170, -96.609573 38.288518, -96.610362 38.287867, -96.611152 38.287215, -96.611941 38.286564, -96.612731 38.285913, -96.613520 38.285261, -96.614310 38.284610, -96.615099 38.283958, -96.615888 38.283307, -96.616678 38.282655, -96.617467 38.282004, -96.618257 38.281352, -96.619046 38.280701, -96.619835 38.280049, -96.620625 38.279398, -96.621414 38.278746, -96.622203 38.278095, -96.622993 38.277443, -96.623782 38.276792, -96.624571 38.276140, -96.625360 38.275489, -96.626150 38.274837, -96.626939 38.274186, -96.627728 38.273534, -96.628517 38.272883, -96.629306 38.272231, -96.630096 38.271580, -96.630885 38.270928, -96.631674 38.270276, -96.632463 38.269625, -96.633252 38.268973, -96.634041 38.268322, -96.634830 38.267670, -96.635619 38.267018, -96.636408 38.266367, -96.637197 38.265715, -96.637986 38.265064, -96.638775 38.264412, -96.639564 38.263760, -96.640353 38.263109, -96.641142 38.262457, -96.641931 38.261806, -96.642720 38.261154, -96.643509 38.260502, -96.644298 38.259851, -96.645087 38.259199, -96.645876 38.258547, -96.646665 38.257896, -96.647454 38.257244, -96.648242 38.256592, -96.649031 38.255941, -96.649820 38.255289, -96.650609 38.254637, -96.651398 38.253986, -96.652186 38.253334, -96.652975 38.252682, -96.653764 38.252030, -96.654553 38.251379, -96.655341 38.250727, -96.656130 38.250075, -96.656919 38.249423, -96.657707 38.248772, -96.658496 38.248120, -96.659285 38.247468, -96.660073 38.246816, -96.660862 38.246165, -96.661651 38.245513, -96.662439 38.244861, -96.663228 38.244209, -96.664016 38.243558, -96.664805 38.242906, -96.665593 38.242254, -96.666382 38.241602, -96.667170 38.240950, -96.667959 38.240299, -96.668747 38.239647, -96.669536 38.238995, -96.670324 38.238343, -96.671113 38.237691, -96.671901 38.237040, -96.672689 38.236388, -96.673478 38.235736, -96.674266 38.235084, -96.675055 38.234432, -96.675843 38.233780, -96.676631 38.233128, -96.677420 38.232477, -96.678208 38.231825, -96.678996 38.231173, -96.679784 38.230521, -96.680573 38.229869, -96.681361 38.229217, -96.682149 38.228565, -96.682937 38.227913, -96.683726 38.227261, -96.684514 38.226609, -96.685302 38.225958, -96.686090 38.225306, -96.686878 38.224654, -96.687666 38.224002, -96.688455 38.223350, -96.689243 38.222698, -96.690031 38.222046, -96.690819 38.221394, -96.691607 38.220742, -96.692395 38.220090, -96.693183 38.219438, -96.693971 38.218786, -96.694759 38.218134, -96.695547 38.217482, -96.696335 38.216830, -96.697123 38.216178, -96.697911 38.215526, -96.698699 38.214874, -96.699487 38.214222, -96.700275 38.213570, -96.701063 38.212918, -96.701850 38.212266, -96.702638 38.211614, -96.703426 38.210962, -96.704214 38.210310, -96.705002 38.209658, -96.705790 38.209006, -96.706577 38.208354, -96.707365 38.207701, -96.708153 38.207049, -96.708941 38.206397, -96.709728 38.205745, -96.710516 38.205093, -96.711304 38.204441, -96.712092 38.203789, -96.712879 38.203137, -96.713667 38.202485, -96.714455 38.201833, -96.715242 38.201180, -96.716030 38.200528, -96.716817 38.199876, -96.717605 38.199224, -96.718393 38.198572, -96.719180 38.197920, -96.719968 38.197268, -96.720755 38.196615, -96.721543 38.195963, -96.722330 38.195311, -96.723118 38.194659, -96.723905 38.194007, -96.724693 38.193355, -96.725480 38.192702, -96.726268 38.192050, -96.727055 38.191398, -96.727842 38.190746, -96.728630 38.190094, -96.729417 38.189441, -96.730205 38.188789, -96.730992 38.188137, -96.731779 38.187485, -96.732567 38.186832, -96.733354 38.186180, -96.734141 38.185528, -96.734929 38.184876, -96.735716 38.184223, -96.736503 38.183571, -96.737290 38.182919, -96.738078 38.182267, -96.738865 38.181614, -96.739652 38.180962, -96.740439 38.180310, -96.741226 38.179657, -96.742013 38.179005, -96.742801 38.178353, -96.743588 38.177700, -96.744375 38.177048, -96.745162 38.176396, -96.745949 38.175743, -96.746736 38.175091, -96.747523 38.174439, -96.748310 38.173786, -96.749097 38.173134, -96.749884 38.172482, -96.750671 38.171829, -96.751458 38.171177, -96.752245 38.170525, -96.753032 38.169872, -96.753819 38.169220, -96.754606 38.168567, -96.755393 38.167915, -96.756180 38.167263, -96.756967 38.166610, -96.757754 38.165958, -96.758541 38.165305, -96.759327 38.164653, -96.760114 38.164001, -96.760901 38.163348, -96.761688 38.162696, -96.762475 38.162043, -96.763261 38.161391, -96.764048 38.160738, -96.764835 38.160086, -96.765622 38.159433, -96.766408 38.158781, -96.767195 38.158129, -96.767982 38.157476, -96.768769 38.156824, -96.769555 38.156171, -96.770342 38.155519, -96.771128 38.154866, -96.771915 38.154214, -96.772702 38.153561, -96.773488 38.152909, -96.774275 38.152256, -96.775061 38.151604, -96.775848 38.150951, -96.776635 38.150298, -96.777421 38.149646, -96.778208 38.148993, -96.778994 38.148341, -96.779781 38.147688, -96.780567 38.147036, -96.781353 38.146383, -96.782140 38.145731, -96.782926 38.145078, -96.783713 38.144425, -96.784499 38.143773, -96.785286 38.143120, -96.786072 38.142468, -96.786858 38.141815, -96.787645 38.141162, -96.788431 38.140510, -96.789217 38.139857, -96.790004 38.139205, -96.790790 38.138552, -96.791576 38.137899, -96.792362 38.137247, -96.793149 38.136594, -96.793935 38.135941, -96.794721 38.135289, -96.795507 38.134636, -96.796293 38.133983, -96.797080 38.133331, -96.797866 38.132678, -96.798652 38.132025, -96.799438 38.131373, -96.800224 38.130720, -96.801010 38.130067, -96.801796 38.129415, -96.802582 38.128762, -96.803369 38.128109, -96.804155 38.127456, -96.804941 38.126804, -96.805727 38.126151, -96.806513 38.125498, -96.807299 38.124846, -96.808085 38.124193, -96.808871 38.123540, -96.809657 38.122887, -96.810442 38.122235, -96.811228 38.121582, -96.812014 38.120929, -96.812800 38.120276, -96.813586 38.119623, -96.814372 38.118971, -96.815158 38.118318, -96.815944 38.117665, -96.816729 38.117012, -96.817515 38.116359, -96.818301 38.115707, -96.819087 38.115054, -96.819873 38.114401, -96.820658 38.113748, -96.821444 38.113095, -96.822230 38.112442, -96.823015 38.111790, -96.823801 38.111137, -96.824587 38.110484, -96.825373 38.109831, -96.826158 38.109178, -96.826944 38.108525, -96.827729 38.107872, -96.828515 38.107220, -96.829301 38.106567, -96.830086 38.105914, -96.830872 38.105261, -96.831657 38.104608, -96.832443 38.103955, -96.833228 38.103302, -96.834014 38.102649, -96.834799 38.101996, -96.835585 38.101343, -96.836370 38.100690, -96.837156 38.100038, -96.837941 38.099385, -96.838727 38.098732, -96.839512 38.098079, -96.840298 38.097426, -96.841083 38.096773, -96.841868 38.096120, -96.842654 38.095467, -96.843439 38.094814, -96.844224 38.094161, -96.845010 38.093508, -96.845795 38.092855, -96.846580 38.092202, -96.847366 38.091549, -96.848151 38.090896, -96.848936 38.090243, -96.849721 38.089590, -96.850506 38.088937, -96.851292 38.088284, -96.852077 38.087631, -96.852862 38.086978, -96.853647 38.086325, -96.854432 38.085672, -96.855218 38.085019, -96.856003 38.084365, -96.856788 38.083712, -96.857573 38.083059, -96.858358 38.082406, -96.859143 38.081753, -96.859928 38.081100, -96.860713 38.080447, -96.861498 38.079794, -96.862283 38.079141, -96.863068 38.078488, -96.863853 38.077835, -96.864638 38.077181, -96.865423 38.076528, -96.866208 38.075875, -96.866993 38.075222, -96.867778 38.074569, -96.868563 38.073916, -96.869348 38.073263, -96.870132 38.072609, -96.870917 38.071956, -96.871702 38.071303, -96.872487 38.070650, -96.873272 38.069997, -96.874057 38.069344, -96.874841 38.068690, -96.875626 38.068037, -96.876411 38.067384, -96.877196 38.066731, -96.877980 38.066078, -96.878765 38.065424, -96.879550 38.064771, -96.880334 38.064118, -96.881119 38.063465, -96.881904 38.062811, -96.882688 38.062158, -96.883473 38.061505, -96.884258 38.060852, -96.885042 38.060198, -96.885827 38.059545, -96.886611 38.058892, -96.887396 38.058239, -96.888181 38.057585, -96.888965 38.056932, -96.889750 38.056279, -96.890534 38.055625, -96.891319 38.054972, -96.892103 38.054319, -96.892887 38.053666, -96.893672 38.053012, -96.894456 38.052359, -96.895241 38.051706, -96.896025 38.051052, -96.896810 38.050399, -96.897594 38.049746, -96.898378 38.049092, -96.899163 38.048439, -96.899947 38.047786, -96.900731 38.047132, -96.901516 38.046479, -96.902300 38.045825, -96.903084 38.045172, -96.903868 38.044519, -96.904653 38.043865, -96.905437 38.043212, -96.906221 38.042559, -96.907005 38.041905, -96.907790 38.041252, -96.908574 38.040598, -96.909358 38.039945, -96.910142 38.039291, -96.910926 38.038638, -96.911710 38.037985, -96.912494 38.037331, -96.913279 38.036678, -96.914063 38.036024, -96.914847 38.035371, -96.915631 38.034717, -96.916415 38.034064, -96.917199 38.033410, -96.917983 38.032757, -96.918767 38.032103, -96.919551 38.031450, -96.920335 38.030796, -96.921119 38.030143, -96.921903 38.029489, -96.922687 38.028836, -96.923471 38.028182, -96.924254 38.027529, -96.925038 38.026875, -96.925822 38.026222, -96.926606 38.025568, -96.927390 38.024915, -96.928174 38.024261, -96.928958 38.023608, -96.929741 38.022954, -96.930525 38.022301, -96.931309 38.021647, -96.932093 38.020994, -96.932876 38.020340, -96.933660 38.019686, -96.934444 38.019033, -96.935228 38.018379, -96.936011 38.017726, -96.936795 38.017072, -96.937579 38.016418, -96.938362 38.015765, -96.939146 38.015111, -96.939930 38.014458, -96.940713 38.013804, -96.941497 38.013150, -96.942280 38.012497, -96.943064 38.011843, -96.943847 38.011189, -96.944631 38.010536, -96.945415 38.009882, -96.946198 38.009228, -96.946982 38.008575, -96.947765 38.007921, -96.948549 38.007267, -96.949332 38.006614, -96.950115 38.005960, -96.950899 38.005306, -96.951682 38.004653, -96.952466 38.003999, -96.953249 38.003345, -96.954032 38.002691, -96.954816 38.002038, -96.955599 38.001384, -96.956382 38.000730, -96.957166 38.000077, -96.957949 37.999423, -96.958732 37.998769, -96.959516 37.998115, -96.960299 37.997462, -96.961082 37.996808, -96.961865 37.996154, -96.962649 37.995500, -96.963432 37.994846, -96.964215 37.994193, -96.964998 37.993539, -96.965781 37.992885, -96.966564 37.992231, -96.967348 37.991577, -96.968131 37.990924, -96.968914 37.990270, -96.969697 37.989616, -96.970480 37.988962, -96.971263 37.988308, -96.972046 37.987655, -96.972829 37.987001, -96.973612 37.986347, -96.974395 37.985693, -96.975178 37.985039, -96.975961 37.984385, -96.976744 37.983731, -96.977527 37.983078, -96.978310 37.982424, -96.979093 37.981770, -96.979876 37.981116, -96.980659 37.980462, -96.981442 37.979808, -96.982224 37.979154, -96.983007 37.978500, -96.983790 37.977846, -96.984573 37.977193, -96.985356 37.976539, -96.986139 37.975885, -96.986921 37.975231, -96.987704 37.974577, -96.988487 37.973923, -96.989270 37.973269, -96.990052 37.972615, -96.990835 37.971961, -96.991618 37.971307, -96.992400 37.970653, -96.993183 37.969999, -96.993966 37.969345, -96.994748 37.968691, -96.995531 37.968037, -96.996314 37.967383, -96.997096 37.966729, -96.997879 37.966075, -96.998661 37.965421, -96.999444 37.964767, -97.000227 37.964113, -97.001009 37.963459, -97.001792 37.962805, -97.002574 37.962151, -97.003357 37.961497, -97.004139 37.960843, -97.004922 37.960189, -97.005704 37.959535, -97.006486 37.958881, -97.007269 37.958227, -97.008051 37.957573, -97.008834 37.956919, -97.009616 37.956264, -97.010398 37.955610, -97.011181 37.954956, -97.011963 37.954302, -97.012745 37.953648, -97.013528 37.952994, -97.014310 37.952340, -97.015092 37.951686, -97.015875 37.951032, -97.016657 37.950377, -97.017439 37.949723, -97.018221 37.949069, -97.019004 37.948415, -97.019786 37.947761, -97.020568 37.947107, -97.021350 37.946453, -97.022132 37.945798, -97.022914 37.945144, -97.023697 37.944490, -97.024479 37.943836, -97.025261 37.943182, -97.026043 37.942527, -97.026825 37.941873, -97.027607 37.941219, -97.028389 37.940565, -97.029171 37.939911, -97.029953 37.939256, -97.030735 37.938602, -97.031517 37.937948, -97.032299 37.937294, -97.033081 37.936640, -97.033863 37.935985, -97.034645 37.935331, -97.035427 37.934677, -97.036209 37.934023, -97.036991 37.933368, -97.037772 37.932714, -97.038554 37.932060, -97.039336 37.931405, -97.040118 37.930751, -97.040900 37.930097, -97.041682 37.929443, -97.042463 37.928788, -97.043245 37.928134, -97.044027 37.927480, -97.044809 37.926825, -97.045590 37.926171, -97.046372 37.925517, -97.047154 37.924862, -97.047936 37.924208, -97.048717 37.923554, -97.049499 37.922899, -97.050281 37.922245, -97.051062 37.921591, -97.051844 37.920936, -97.052626 37.920282, -97.053407 37.919627, -97.054189 37.918973, -97.054970 37.918319, -97.055752 37.917664, -97.056533 37.917010, -97.057315 37.916356, -97.058096 37.915701, -97.058878 37.915047, -97.059659 37.914392, -97.060441 37.913738, -97.061222 37.913083, -97.062004 37.912429, -97.062785 37.911775, -97.063567 37.911120, -97.064348 37.910466, -97.065129 37.909811, -97.065911 37.909157, -97.066692 37.908502, -97.067474 37.907848, -97.068255 37.907193, -97.069036 37.906539, -97.069818 37.905884, -97.070599 37.905230, -97.071380 37.904575, -97.072161 37.903921, -97.072943 37.903266, -97.073724 37.902612, -97.074505 37.901957, -97.075286 37.901303, -97.076067 37.900648, -97.076849 37.899994, -97.077630 37.899339, -97.078411 37.898685, -97.079192 37.898030, -97.079973 37.897376, -97.080754 37.896721, -97.081535 37.896067, -97.082317 37.895412, -97.083098 37.894757, -97.083879 37.894103, -97.084660 37.893448, -97.085441 37.892794, -97.086222 37.892139, -97.087003 37.891485, -97.087784 37.890830, -97.088565 37.890175, -97.089346 37.889521, -97.090127 37.888866, -97.090908 37.888212, -97.091689 37.887557, -97.092469 37.886902, -97.093250 37.886248, -97.094031 37.885593, -97.094812 37.884938, -97.095593 37.884284, -97.096374 37.883629, -97.097155 37.882974, -97.097935 37.882320, -97.098716 37.881665, -97.099497 37.881010, -97.100278 37.880356, -97.101058 37.879701, -97.101839 37.879046, -97.102620 37.878392, -97.103401 37.877737, -97.104181 37.877082, -97.104962 37.876427, -97.105743 37.875773, -97.106523 37.875118, -97.107304 37.874463, -97.108085 37.873809, -97.108865 37.873154, -97.109646 37.872499, -97.110426 37.871844, -97.111207 37.871190, -97.111988 37.870535, -97.112768 37.869880, -97.113549 37.869225, -97.114329 37.868570, -97.115110 37.867916, -97.115890 37.867261, -97.116671 37.866606, -97.117451 37.865951, -97.118232 37.865297, -97.119012 37.864642, -97.119792 37.863987, -97.120573 37.863332, -97.121353 37.862677, -97.122134 37.862022, -97.122914 37.861368, -97.123694 37.860713, -97.124475 37.860058, -97.125255 37.859403, -97.126035 37.858748, -97.126816 37.858093, -97.127596 37.857439, -97.128376 37.856784, -97.129156 37.856129, -97.129937 37.855474, -97.130717 37.854819, -97.131497 37.854164, -97.132277 37.853509, -97.133057 37.852854, -97.133838 37.852199, -97.134618 37.851545, -97.135398 37.850890, -97.136178 37.850235, -97.136958 37.849580, -97.137738 37.848925, -97.138518 37.848270, -97.139298 37.847615, -97.140078 37.846960, -97.140859 37.846305, -97.141639 37.845650, -97.142419 37.844995, -97.143199 37.844340, -97.143979 37.843685, -97.144759 37.843030, -97.145538 37.842375, -97.146318 37.841720, -97.147098 37.841065, -97.147878 37.840410, -97.148658 37.839755, -97.149438 37.839100, -97.150218 37.838445, -97.150998 37.837790, -97.151778 37.837135, -97.152558 37.836480, -97.153337 37.835825, -97.154117 37.835170, -97.154897 37.834515, -97.155677 37.833860, -97.156457 37.833205, -97.157236 37.832550, -97.158016 37.831895, -97.158796 37.831240, -97.159575 37.830585, -97.160355 37.829930, -97.161135 37.829275, -97.161915 37.828619, -97.162694 37.827964, -97.163474 37.827309, -97.164253 37.826654, -97.165033 37.825999, -97.165813 37.825344, -97.166592 37.824689, -97.167372 37.824034, -97.168151 37.823379, -97.168931 37.822723, -97.169710 37.822068, -97.170490 37.821413, -97.171269 37.820758, -97.172049 37.820103, -97.172828 37.819448, -97.173608 37.818792, -97.174387 37.818137, -97.175167 37.817482, -97.175946 37.816827, -97.176726 37.816172, -97.177505 37.815517, -97.178284 37.814861, -97.179064 37.814206, -97.179843 37.813551, -97.180622 37.812896, -97.181402 37.812241, -97.182181 37.811585, -97.182960 37.810930, -97.183740 37.810275, -97.184519 37.809620, -97.185298 37.808964, -97.186077 37.808309, -97.186857 37.807654, -97.187636 37.806999, -97.188415 37.806343, -97.189194 37.805688, -97.189973 37.805033, -97.190753 37.804378, -97.191532 37.803722, -97.192311 37.803067, -97.193090 37.802412, -97.193869 37.801756, -97.194648 37.801101, -97.195427 37.800446, -97.196206 37.799790, -97.196985 37.799135, -97.197764 37.798480, -97.198543 37.797824, -97.199322 37.797169, -97.200101 37.796514, -97.200880 37.795858, -97.201659 37.795203, -97.202438 37.794548, -97.203217 37.793892, -97.203996 37.793237, -97.204775 37.792582, -97.205554 37.791926, -97.206333 37.791271, -97.207112 37.790615, -97.207891 37.789960, -97.208670 37.789305, -97.209448 37.788649, -97.210227 37.787994, -97.211006 37.787338, -97.211785 37.786683, -97.212564 37.786028, -97.213342 37.785372, -97.214121 37.784717, -97.214900 37.784061, -97.215678 37.783406, -97.216457 37.782750, -97.217236 37.782095, -97.218015 37.781439, -97.218793 37.780784, -97.219572 37.780129, -97.220350 37.779473, -97.221129 37.778818, -97.221908 37.778162, -97.222686 37.777507, -97.223465 37.776851, -97.224243 37.776196, -97.225022 37.775540, -97.225801 37.774885, -97.226579 37.774229, -97.227358 37.773574, -97.228136 37.772918, -97.228915 37.772263, -97.229693 37.771607, -97.230471 37.770951, -97.231250 37.770296, -97.232028 37.769640, -97.232807 37.768985, -97.233585 37.768329, -97.234364 37.767674, -97.235142 37.767018, -97.235920 37.766363, -97.236699 37.765707, -97.237477 37.765051, -97.238255 37.764396, -97.239034 37.763740, -97.239812 37.763085, -97.240590 37.762429, -97.241368 37.761773, -97.242147 37.761118, -97.242925 37.760462, -97.243703 37.759806, -97.244481 37.759151, -97.245260 37.758495, -97.246038 37.757840, -97.246816 37.757184, -97.247594 37.756528, -97.248372 37.755873, -97.249150 37.755217, -97.249928 37.754561, -97.250706 37.753906, -97.251485 37.753250, -97.252263 37.752594, -97.253041 37.751939, -97.253819 37.751283, -97.254597 37.750627, -97.255375 37.749971, -97.256153 37.749316, -97.256931 37.748660, -97.257709 37.748004, -97.258487 37.747349, -97.259265 37.746693, -97.260043 37.746037, -97.260820 37.745381, -97.261598 37.744726, -97.262376 37.744070, -97.263154 37.743414, -97.263932 37.742758, -97.264710 37.742103, -97.265488 37.741447, -97.266266 37.740791, -97.267043 37.740135, -97.267821 37.739479, -97.268599 37.738824, -97.269377 37.738168, -97.270154 37.737512, -97.270932 37.736856, -97.271710 37.736200, -97.272488 37.735545, -97.273265 37.734889, -97.274043 37.734233, -97.274821 37.733577, -97.275598 37.732921, -97.276376 37.732265, -97.277154 37.731610, -97.277931 37.730954, -97.278709 37.730298, -97.279486 37.729642, -97.280264 37.728986, -97.281042 37.728330, -97.281819 37.727674, -97.282597 37.727019, -97.283374 37.726363, -97.284152 37.725707, -97.284929 37.725051, -97.285707 37.724395, -97.286484 37.723739, -97.287261 37.723083, -97.288039 37.722427, -97.288816 37.721771, -97.289594 37.721115, -97.290371 37.720459, -97.291149 37.719803, -97.291926 37.719148, -97.292703 37.718492, -97.293481 37.717836, -97.294258 37.717180, -97.295035 37.716524, -97.295813 37.715868, -97.296590 37.715212, -97.297367 37.714556, -97.298144 37.713900, -97.298922 37.713244, -97.299699 37.712588, -97.300476 37.711932, -97.301253 37.711276, -97.302030 37.710620, -97.302808 37.709964, -97.303585 37.709308, -97.304362 37.708652, -97.305139 37.707996, -97.305916 37.707340, -97.306693 37.706684, -97.307470 37.706028, -97.308247 37.705372, -97.309024 37.704715, -97.309802 37.704059, -97.310579 37.703403, -97.311356 37.702747, -97.312133 37.702091, -97.312910 37.701435, -97.313687 37.700779, -97.314464 37.700123, -97.315240 37.699467, -97.316017 37.698811, -97.316794 37.698155, -97.317571 37.697499, -97.318348 37.696842, -97.319125 37.696186, -97.319902 37.695530, -97.320679 37.694874, -97.321456 37.694218, -97.322232 37.693562, -97.323009 37.692906, -97.323786 37.692249, -97.324563 37.691593, -97.325340 37.690937, -97.326116 37.690281, -97.326893 37.689625, -97.327670 37.688969, -97.328447 37.688312, -97.329223 37.687656, -97.330000 37.687000), (-104.985000 39.739000, -104.984838 39.738110, -104.984676 39.737220, -104.984513 39.736330, -104.984351 39.735441, -104.984189 39.734551, -104.984027 39.733661, -104.983865 39.732771, -104.983702 39.731881, -104.983540 39.730991, -104.983378 39.730101, -104.983216 39.729211, -104.983054 39.728322, -104.982892 39.727432, -104.982729 39.726542, -104.982567 39.725652, -104.982405 39.724762, -104.982243 39.723872, -104.982081 39.722982, -104.981919 39.722092, -104.981757 39.721203, -104.981595 39.720313, -104.981432 39.719423, -104.981270 39.718533, -104.981108 39.717643, -104.980946 39.716753, -104.980784 39.715863, -104.980622 39.714973, -104.980460 39.714084, -104.980298 39.713194, -104.980136 39.712304, -104.979974 39.711414, -104.979811 39.710524, -104.979649 39.709634, -104.979487 39.708744, -104.979325 39.707854, -104.979163 39.706965, -104.979001 39.706075, -104.978839 39.705185, -104.978677 39.704295, -104.978515 39.703405, -104.978353 39.702515, -104.978191 39.701625, -104.978029 39.700735, -104.977867 39.699846, -104.977705 39.698956, -104.977543 39.698066, -104.977381 39.697176, -104.977219 39.696286, -104.977057 39.695396, -104.976895 39.694506, -104.976733 39.693616, -104.976571 39.692727, -104.976409 39.691837, -104.976247 39.690947, -104.976085 39.690057, -104.975923 39.689167, -104.975761 39.688277, -104.975599 39.687387, -104.975437 39.686497, -104.975275 39.685608, -104.975113 39.684718, -104.974951 39.683828, -104.974789 39.682938, -104.974627 39.682048, -104.974465 39.681158, -104.974303 39.680268, -104.974141 39.679378, -104.973979 39.678488, -104.973818 39.677599, -104.973656 39.676709, -104.973494 39.675819, -104.973332 39.674929, -104.973170 39.674039, -104.973008 39.673149, -104.972846 39.672259, -104.972684 39.671369, -104.972522 39.670480, -104.972360 39.669590, -104.972199 39.668700, -104.972037 39.667810, -104.971875 39.666920, -104.971713 39.666030, -104.971551 39.665140, -104.971389 39.664250, -104.971227 39.663360, -104.971065 39.662471, -104.970904 39.661581, -104.970742 39.660691, -104.970580 39.659801, -104.970418 39.658911, -104.970256 39.658021, -104.970094 39.657131, -104.969933 39.656241, -104.969771 39.655351, -104.969609 39.654462, -104.969447 39.653572, -104.969285 39.652682, -104.969124 39.651792, -104.968962 39.650902, -104.968800 39.650012, -104.968638 39.649122, -104.968476 39.648232, -104.968315 39.647342, -104.968153 39.646453, -104.967991 39.645563, -104.967829 39.644673, -104.967668 39.643783, -104.967506 39.642893, -104.967344 39.642003, -104.967182 39.641113, -104.967021 39.640223, -104.966859 39.639333, -104.966697 39.638444, -104.966535 39.637554, -104.966374 39.636664, -104.966212 39.635774, -104.966050 39.634884, -104.965888 39.633994, -104.965727 39.633104, -104.965565 39.632214, -104.965403 39.631324, -104.965242 39.630434, -104.965080 39.629545, -104.964918 39.628655, -104.964756 39.627765, -104.964595 39.626875, -104.964433 39.625985, -104.964271 39.625095, -104.964110 39.624205, -104.963948 39.623315, -104.963786 39.622425, -104.963625 39.621536, -104.963463 39.620646, -104.963301 39.619756, -104.963140 39.618866, -104.962978 39.617976, -104.962817 39.617086, -104.962655 39.616196, -104.962493 39.615306, -104.962332 39.614416, -104.962170 39.613526, -104.962008 39.612637, -104.961847 39.611747, -104.961685 39.610857, -104.961524 39.609967, -104.961362 39.609077, -104.961200 39.608187, -104.961039 39.607297, -104.960877 39.606407, -104.960716 39.605517, -104.960554 39.604627, -104.960392 39.603738, -104.960231 39.602848, -104.960069 39.601958, -104.959908 39.601068, -104.959746 39.600178, -104.959585 39.599288, -104.959423 39.598398, -104.959261 39.597508, -104.959100 39.596618, -104.958938 39.595728, -104.958777 39.594838, -104.958615 39.593949, -104.958454 39.593059, -104.958292 39.592169, -104.958131 39.591279, -104.957969 39.590389, -104.957808 39.589499, -104.957646 39.588609, -104.957485 39.587719, -104.957323 39.586829, -104.957162 39.585939, -104.957000 39.585050, -104.956839 39.584160, -104.956677 39.583270, -104.956516 39.582380, -104.956354 39.581490, -104.956193 39.580600, -104.956031 39.579710, -104.955870 39.578820, -104.955708 39.577930, -104.955547 39.577040, -104.955386 39.576150, -104.955224 39.575261, -104.955063 39.574371, -104.954901 39.573481, -104.954740 39.572591, -104.954578 39.571701, -104.954417 39.570811, -104.954256 39.569921, -104.954094 39.569031, -104.953933 39.568141, -104.953771 39.567251, -104.953610 39.566361, -104.953449 39.565472, -104.953287 39.564582, -104.953126 39.563692, -104.952964 39.562802, -104.952803 39.561912, -104.952642 39.561022, -104.952480 39.560132, -104.952319 39.559242, -104.952157 39.558352, -104.951996 39.557462, -104.951835 39.556572, -104.951673 39.555682, -104.951512 39.554793, -104.951351 39.553903, -104.951189 39.553013, -104.951028 39.552123, -104.950867 39.551233, -104.950705 39.550343, -104.950544 39.549453, -104.950383 39.548563, -104.950221 39.547673, -104.950060 39.546783, -104.949899 39.545893, -104.949737 39.545004, -104.949576 39.544114, -104.949415 39.543224, -104.949254 39.542334, -104.949092 39.541444, -104.948931 39.540554, -104.948770 39.539664, -104.948608 39.538774, -104.948447 39.537884, -104.948286 39.536994, -104.948125 39.536104, -104.947963 39.535214, -104.947802 39.534324, -104.947641 39.533435, -104.947480 39.532545, -104.947318 39.531655, -104.947157 39.530765, -104.946996 39.529875, -104.946835 39.528985, -104.946673 39.528095, -104.946512 39.527205, -104.946351 39.526315, -104.946190 39.525425, -104.946029 39.524535, -104.945867 39.523645, -104.945706 39.522756, -104.945545 39.521866, -104.945384 39.520976, -104.945223 39.520086, -104.945061 39.519196, -104.944900 39.518306, -104.944739 39.517416, -104.944578 39.516526, -104.944417 39.515636, -104.944256 39.514746, -104.944094 39.513856, -104.943933 39.512966, -104.943772 39.512076, -104.943611 39.511187, -104.943450 39.510297, -104.943289 39.509407, -104.943128 39.508517, -104.942966 39.507627, -104.942805 39.506737, -104.942644 39.505847, -104.942483 39.504957, -104.942322 39.504067, -104.942161 39.503177, -104.942000 39.502287, -104.941839 39.501397, -104.941678 39.500507, -104.941516 39.499617, -104.941355 39.498728, -104.941194 39.497838, -104.941033 39.496948, -104.940872 39.496058, -104.940711 39.495168, -104.940550 39.494278, -104.940389 39.493388, -104.940228 39.492498, -104.940067 39.491608, -104.939906 39.490718, -104.939745 39.489828, -104.939584 39.488938, -104.939423 39.488048, -104.939262 39.487158, -104.939101 39.486269, -104.938940 39.485379, -104.938779 39.484489, -104.938617 39.483599, -104.938456 39.482709, -104.938295 39.481819, -104.938134 39.480929, -104.937973 39.480039, -104.937812 39.479149, -104.937651 39.478259, -104.937490 39.477369, -104.937329 39.476479, -104.937169 39.475589, -104.937008 39.474699, -104.936847 39.473809, -104.936686 39.472920, -104.936525 39.472030, -104.936364 39.471140, -104.936203 39.470250, -104.936042 39.469360, -104.935881 39.468470, -104.935720 39.467580, -104.935559 39.466690, -104.935398 39.465800, -104.935237 39.464910, -104.935076 39.464020, -104.934915 39.463130, -104.934754 39.462240, -104.934593 39.461350, -104.934432 39.460460, -104.934272 39.459570, -104.934111 39.458681, -104.933950 39.457791, -104.933789 39.456901, -104.933628 39.456011, -104.933467 39.455121, -104.933306 39.454231, -104.933145 39.453341, -104.932984 39.452451, -104.932824 39.451561, -104.932663 39.450671, -104.932502 39.449781, -104.932341 39.448891, -104.932180 39.448001, -104.932019 39.447111, -104.931858 39.446221, -104.931698 39.445331, -104.931537 39.444442, -104.931376 39.443552, -104.931215 39.442662, -104.931054 39.441772, -104.930893 39.440882, -104.930733 39.439992, -104.930572 39.439102, -104.930411 39.438212, -104.930250 39.437322, -104.930089 39.436432, -104.929929 39.435542, -104.929768 39.434652, -104.929607 39.433762, -104.929446 39.432872, -104.929285 39.431982, -104.929125 39.431092, -104.928964 39.430202, -104.928803 39.429312, -104.928642 39.428423, -104.928482 39.427533, -104.928321 39.426643, -104.928160 39.425753, -104.927999 39.424863, -104.927839 39.423973, -104.927678 39.423083, -104.927517 39.422193, -104.927356 39.421303, -104.927196 39.420413, -104.927035 39.419523, -104.926874 39.418633, -104.926714 39.417743, -104.926553 39.416853, -104.926392 39.415963, -104.926231 39.415073, -104.926071 39.414183, -104.925910 39.413293, -104.925749 39.412403, -104.925589 39.411514, -104.925428 39.410624, -104.925267 39.409734, -104.925107 39.408844, -104.924946 39.407954, -104.924785 39.407064, -104.924625 39.406174, -104.924464 39.405284, -104.924303 39.404394, -104.924143 39.403504, -104.923982 39.402614, -104.923821 39.401724, -104.923661 39.400834, -104.923500 39.399944, -104.923339 39.399054, -104.923179 39.398164, -104.923018 39.397274, -104.922858 39.396384, -104.922697 39.395494, -104.922536 39.394604, -104.922376 39.393714, -104.922215 39.392825, -104.922055 39.391935, -104.921894 39.391045, -104.921733 39.390155, -104.921573 39.389265, -104.921412 39.388375, -104.921252 39.387485, -104.921091 39.386595, -104.920931 39.385705, -104.920770 39.384815, -104.920609 39.383925, -104.920449 39.383035, -104.920288 39.382145, -104.920128 39.381255, -104.919967 39.380365, -104.919807 39.379475, -104.919646 39.378585, -104.919486 39.377695, -104.919325 39.376805, -104.919165 39.375915, -104.919004 39.375025, -104.918844 39.374135, -104.918683 39.373245, -104.918522 39.372356, -104.918362 39.371466, -104.918201 39.370576, -104.918041 39.369686, -104.917881 39.368796, -104.917720 39.367906, -104.917560 39.367016, -104.917399 39.366126, -104.917239 39.365236, -104.917078 39.364346, -104.916918 39.363456, -104.916757 39.362566, -104.916597 39.361676, -104.916436 39.360786, -104.916276 39.359896, -104.916115 39.359006, -104.915955 39.358116, -104.915795 39.357226, -104.915634 39.356336, -104.915474 39.355446, -104.915313 39.354556, -104.915153 39.353666, -104.914992 39.352776, -104.914832 39.351886, -104.914672 39.350996, -104.914511 39.350106, -104.914351 39.349216, -104.914190 39.348327, -104.914030 39.347437, -104.913870 39.346547, -104.913709 39.345657, -104.913549 39.344767, -104.913388 39.343877, -104.913228 39.342987, -104.913068 39.342097, -104.912907 39.341207, -104.912747 39.340317, -104.912587 39.339427, -104.912426 39.338537, -104.912266 39.337647, -104.912106 39.336757, -104.911945 39.335867, -104.911785 39.334977, -104.911625 39.334087, -104.911464 39.333197, -104.911304 39.332307, -104.911144 39.331417, -104.910983 39.330527, -104.910823 39.329637, -104.910663 39.328747, -104.910502 39.327857, -104.910342 39.326967, -104.910182 39.326077, -104.910022 39.325187, -104.909861 39.324297, -104.909701 39.323407, -104.909541 39.322517, -104.909380 39.321627, -104.909220 39.320737, -104.909060 39.319848, -104.908900 39.318958, -104.908739 39.318068, -104.908579 39.317178, -104.908419 39.316288, -104.908259 39.315398, -104.908098 39.314508, -104.907938 39.313618, -104.907778 39.312728, -104.907618 39.311838, -104.907457 39.310948, -104.907297 39.310058, -104.907137 39.309168, -104.906977 39.308278, -104.906817 39.307388, -104.906656 39.306498, -104.906496 39.305608, -104.906336 39.304718, -104.906176 39.303828, -104.906016 39.302938, -104.905855 39.302048, -104.905695 39.301158, -104.905535 39.300268, -104.905375 39.299378, -104.905215 39.298488, -104.905055 39.297598, -104.904894 39.296708, -104.904734 39.295818, -104.904574 39.294928, -104.904414 39.294038, -104.904254 39.293148, -104.904094 39.292258, -104.903934 39.291368, -104.903773 39.290478, -104.903613 39.289588, -104.903453 39.288698, -104.903293 39.287808, -104.903133 39.286918, -104.902973 39.286028, -104.902813 39.285138, -104.902653 39.284248, -104.902493 39.283358, -104.902332 39.282468, -104.902172 39.281578, -104.902012 39.280689, -104.901852 39.279799, -104.901692 39.278909, -104.901532 39.278019, -104.901372 39.277129, -104.901212 39.276239, -104.901052 39.275349, -104.900892 39.274459, -104.900732 39.273569, -104.900572 39.272679, -104.900412 39.271789, -104.900252 39.270899, -104.900092 39.270009, -104.899932 39.269119, -104.899771 39.268229, -104.899611 39.267339, -104.899451 39.266449, -104.899291 39.265559, -104.899131 39.264669, -104.898971 39.263779, -104.898811 39.262889, -104.898651 39.261999, -104.898491 39.261109, -104.898331 39.260219, -104.898171 39.259329, -104.898011 39.258439, -104.897851 39.257549, -104.897691 39.256659, -104.897532 39.255769, -104.897372 39.254879, -104.897212 39.253989, -104.897052 39.253099, -104.896892 39.252209, -104.896732 39.251319, -104.896572 39.250429, -104.896412 39.249539, -104.896252 39.248649, -104.896092 39.247759, -104.895932 39.246869, -104.895772 39.245979, -104.895612 39.245089, -104.895452 39.244199, -104.895292 39.243309, -104.895132 39.242419, -104.894973 39.241529, -104.894813 39.240639, -104.894653 39.239749, -104.894493 39.238859, -104.894333 39.237969, -104.894173 39.237079, -104.894013 39.236189, -104.893853 39.235299, -104.893693 39.234409, -104.893534 39.233519, -104.893374 39.232629, -104.893214 39.231739, -104.893054 39.230849, -104.892894 39.229959, -104.892734 39.229069, -104.892574 39.228179, -104.892415 39.227289, -104.892255 39.226399, -104.892095 39.225509, -104.891935 39.224619, -104.891775 39.223729, -104.891615 39.222839, -104.891456 39.221949, -104.891296 39.221059, -104.891136 39.220169, -104.890976 39.219279, -104.890816 39.218389, -104.890657 39.217499, -104.890497 39.216609, -104.890337 39.215719, -104.890177 39.214829, -104.890017 39.213939, -104.889858 39.213049, -104.889698 39.212159, -104.889538 39.211269, -104.889378 39.210379, -104.889219 39.209489, -104.889059 39.208599, -104.888899 39.207709, -104.888739 39.206819, -104.888580 39.205929, -104.888420 39.205039, -104.888260 39.204149, -104.888100 39.203259, -104.887941 39.202369, -104.887781 39.201479, -104.887621 39.200589, -104.887461 39.199699, -104.887302 39.198809, -104.887142 39.197919, -104.886982 39.197029, -104.886823 39.196139, -104.886663 39.195249, -104.886503 39.194359, -104.886344 39.193469, -104.886184 39.192579, -104.886024 39.191689, -104.885865 39.190799, -104.885705 39.189909, -104.885545 39.189019, -104.885386 39.188129, -104.885226 39.187239, -104.885066 39.186349, -104.884907 39.185459, -104.884747 39.184569, -104.884587 39.183679, -104.884428 39.182789, -104.884268 39.181899, -104.884108 39.181009, -104.883949 39.180119, -104.883789 39.179229, -104.883630 39.178339, -104.883470 39.177449, -104.883310 39.176559, -104.883151 39.175669, -104.882991 39.174779, -104.882831 39.173889, -104.882672 39.172999, -104.882512 39.172109, -104.882353 39.171219, -104.882193 39.170329, -104.882034 39.169439, -104.881874 39.168549, -104.881714 39.167659, -104.881555 39.166769, -104.881395 39.165879, -104.881236 39.164989, -104.881076 39.164099, -104.880917 39.163209, -104.880757 39.162319, -104.880598 39.161429, -104.880438 39.160539, -104.880278 39.159649, -104.880119 39.158759, -104.879959 39.157869, -104.879800 39.156979, -104.879640 39.156089, -104.879481 39.155199, -104.879321 39.154309, -104.879162 39.153419, -104.879002 39.152529, -104.878843 39.151639, -104.878683 39.150749, -104.878524 39.149859, -104.878364 39.148969, -104.878205 39.148079, -104.878045 39.147189, -104.877886 39.146299, -104.877726 39.145409, -104.877567 39.144519, -104.877408 39.143629, -104.877248 39.142739, -104.877089 39.141849, -104.876929 39.140959, -104.876770 39.140069, -104.876610 39.139179, -104.876451 39.138289, -104.876291 39.137399, -104.876132 39.136509, -104.875973 39.135619, -104.875813 39.134728, -104.875654 39.133838, -104.875494 39.132948, -104.875335 39.132058, -104.875175 39.131168, -104.875016 39.130278, -104.874857 39.129388, -104.874697 39.128498, -104.874538 39.127608, -104.874379 39.126718, -104.874219 39.125828, -104.874060 39.124938, -104.873900 39.124048, -104.873741 39.123158, -104.873582 39.122268, -104.873422 39.121378, -104.873263 39.120488, -104.873104 39.119598, -104.872944 39.118708, -104.872785 39.117818, -104.872626 39.116928, -104.872466 39.116038, -104.872307 39.115148, -104.872148 39.114258, -104.871988 39.113368, -104.871829 39.112478, -104.871670 39.111588, -104.871510 39.110698, -104.871351 39.109808, -104.871192 39.108918, -104.871032 39.108028, -104.870873 39.107138, -104.870714 39.106248, -104.870554 39.105358, -104.870395 39.104468, -104.870236 39.103578, -104.870077 39.102688, -104.869917 39.101798, -104.869758 39.100908, -104.869599 39.100018, -104.869440 39.099128, -104.869280 39.098238, -104.869121 39.097348, -104.868962 39.096458, -104.868803 39.095567, -104.868643 39.094677, -104.868484 39.093787, -104.868325 39.092897, -104.868166 39.092007, -104.868006 39.091117, -104.867847 39.090227, -104.867688 39.089337, -104.867529 39.088447, -104.867370 39.087557, -104.867210 39.086667, -104.867051 39.085777, -104.866892 39.084887, -104.866733 39.083997, -104.866574 39.083107, -104.866414 39.082217, -104.866255 39.081327, -104.866096 39.080437, -104.865937 39.079547, -104.865778 39.078657, -104.865619 39.077767, -104.865459 39.076877, -104.865300 39.075987, -104.865141 39.075097, -104.864982 39.074207, -104.864823 39.073317, -104.864664 39.072427, -104.864504 39.071537, -104.864345 39.070647, -104.864186 39.069757, -104.864027 39.068867, -104.863868 39.067977, -104.863709 39.067087, -104.863550 39.066196, -104.863391 39.065306, -104.863232 39.064416, -104.863072 39.063526, -104.862913 39.062636, -104.862754 39.061746, -104.862595 39.060856, -104.862436 39.059966, -104.862277 39.059076, -104.862118 39.058186, -104.861959 39.057296, -104.861800 39.056406, -104.861641 39.055516, -104.861482 39.054626, -104.861323 39.053736, -104.861164 39.052846, -104.861004 39.051956, -104.860845 39.051066, -104.860686 39.050176, -104.860527 39.049286, -104.860368 39.048396, -104.860209 39.047506, -104.860050 39.046616, -104.859891 39.045726, -104.859732 39.044836, -104.859573 39.043946, -104.859414 39.043055, -104.859255 39.042165, -104.859096 39.041275, -104.858937 39.040385, -104.858778 39.039495, -104.858619 39.038605, -104.858460 39.037715, -104.858301 39.036825, -104.858142 39.035935, -104.857983 39.035045, -104.857824 39.034155, -104.857665 39.033265, -104.857506 39.032375, -104.857348 39.031485, -104.857189 39.030595, -104.857030 39.029705, -104.856871 39.028815, -104.856712 39.027925, -104.856553 39.027035, -104.856394 39.026145, -104.856235 39.025255, -104.856076 39.024365, -104.855917 39.023475, -104.855758 39.022585, -104.855599 39.021694, -104.855440 39.020804, -104.855281 39.019914, -104.855123 39.019024, -104.854964 39.018134, -104.854805 39.017244, -104.854646 39.016354, -104.854487 39.015464, -104.854328 39.014574, -104.854169 39.013684, -104.854010 39.012794, -104.853851 39.011904, -104.853693 39.011014, -104.853534 39.010124, -104.853375 39.009234, -104.853216 39.008344, -104.853057 39.007454, -104.852898 39.006564, -104.852740 39.005674, -104.852581 39.004784, -104.852422 39.003894, -104.852263 39.003003, -104.852104 39.002113, -104.851945 39.001223, -104.851787 39.000333, -104.851628 38.999443, -104.851469 38.998553, -104.851310 38.997663, -104.851151 38.996773, -104.850993 38.995883, -104.850834 38.994993, -104.850675 38.994103, -104.850516 38.993213, -104.850357 38.992323, -104.850199 38.991433, -104.850040 38.990543, -104.849881 38.989653, -104.849722 38.988763, -104.849564 38.987873, -104.849405 38.986983, -104.849246 38.986092, -104.849087 38.985202, -104.848929 38.984312, -104.848770 38.983422, -104.848611 38.982532, -104.848452 38.981642, -104.848294 38.980752, -104.848135 38.979862, -104.847976 38.978972, -104.847817 38.978082, -104.847659 38.977192, -104.847500 38.976302, -104.847341 38.975412, -104.847183 38.974522, -104.847024 38.973632, -104.846865 38.972742, -104.846707 38.971852, -104.846548 38.970962, -104.846389 38.970071, -104.846231 38.969181, -104.846072 38.968291, -104.845913 38.967401, -104.845755 38.966511, -104.845596 38.965621, -104.845437 38.964731, -104.845279 38.963841, -104.845120 38.962951, -104.844961 38.962061, -104.844803 38.961171, -104.844644 38.960281, -104.844485 38.959391, -104.844327 38.958501, -104.844168 38.957611, -104.844010 38.956721, -104.843851 38.955831, -104.843692 38.954940, -104.843534 38.954050, -104.843375 38.953160, -104.843216 38.952270, -104.843058 38.951380, -104.842899 38.950490, -104.842741 38.949600, -104.842582 38.948710, -104.842424 38.947820, -104.842265 38.946930, -104.842106 38.946040, -104.841948 38.945150, -104.841789 38.944260, -104.841631 38.943370, -104.841472 38.942480, -104.841314 38.941590, -104.841155 38.940699, -104.840996 38.939809, -104.840838 38.938919, -104.840679 38.938029, -104.840521 38.937139, -104.840362 38.936249, -104.840204 38.935359, -104.840045 38.934469, -104.839887 38.933579, -104.839728 38.932689, -104.839570 38.931799, -104.839411 38.930909, -104.839253 38.930019, -104.839094 38.929129, -104.838936 38.928239, -104.838777 38.927348, -104.838619 38.926458, -104.838460 38.925568, -104.838302 38.924678, -104.838143 38.923788, -104.837985 38.922898, -104.837826 38.922008, -104.837668 38.921118, -104.837510 38.920228, -104.837351 38.919338, -104.837193 38.918448, -104.837034 38.917558, -104.836876 38.916668, -104.836717 38.915778, -104.836559 38.914887, -104.836400 38.913997, -104.836242 38.913107, -104.836084 38.912217, -104.835925 38.911327, -104.835767 38.910437, -104.835608 38.909547, -104.835450 38.908657, -104.835292 38.907767, -104.835133 38.906877, -104.834975 38.905987, -104.834816 38.905097, -104.834658 38.904207, -104.834500 38.903317, -104.834341 38.902426, -104.834183 38.901536, -104.834024 38.900646, -104.833866 38.899756, -104.833708 38.898866, -104.833549 38.897976, -104.833391 38.897086, -104.833233 38.896196, -104.833074 38.895306, -104.832916 38.894416, -104.832758 38.893526, -104.832599 38.892636, -104.832441 38.891746, -104.832283 38.890855, -104.832124 38.889965, -104.831966 38.889075, -104.831808 38.888185, -104.831649 38.887295, -104.831491 38.886405, -104.831333 38.885515, -104.831175 38.884625, -104.831016 38.883735, -104.830858 38.882845, -104.830700 38.881955, -104.830541 38.881065, -104.830383 38.880175, -104.830225 38.879284, -104.830067 38.878394, -104.829908 38.877504, -104.829750 38.876614, -104.829592 38.875724, -104.829433 38.874834, -104.829275 38.873944, -104.829117 38.873054, -104.828959 38.872164, -104.828801 38.871274, -104.828642 38.870384, -104.828484 38.869494, -104.828326 38.868603, -104.828168 38.867713, -104.828009 38.866823, -104.827851 38.865933, -104.827693 38.865043, -104.827535 38.864153, -104.827377 38.863263, -104.827218 38.862373, -104.827060 38.861483, -104.826902 38.860593, -104.826744 38.859703, -104.826586 38.858813, -104.826427 38.857922, -104.826269 38.857032, -104.826111 38.856142, -104.825953 38.855252, -104.825795 38.854362, -104.825637 38.853472, -104.825478 38.852582, -104.825320 38.851692, -104.825162 38.850802, -104.825004 38.849912, -104.824846 38.849022, -104.824688 38.848132, -104.824530 38.847241, -104.824371 38.846351, -104.824213 38.845461, -104.824055 38.844571, -104.823897 38.843681, -104.823739 38.842791, -104.823581 38.841901, -104.823423 38.841011, -104.823265 38.840121, -104.823107 38.839231, -104.822948 38.838341, -104.822790 38.837450, -104.822632 38.836560, -104.822474 38.835670, -104.822316 38.834780, -104.822158 38.833890, -104.822000 38.833000))
