LINESTRING (151.209000 -33.868000, 151.198592 -33.865225, 151.188186 -33.862449, 151.177779 -33.859672, 151.167374 -33.856895, 151.156969 -33.854116, 151.146565 -33.851337, 151.136161 -33.848557, 151.125759 -33.845776, 151.115356 -33.842994, 151.104955 -33.840211, 151.094554 -33.837427, 151.084154 -33.834642, 151.073755 -33.831857, 151.063356 -33.829071, 151.052958 -33.826283, 151.042561 -33.823495, 151.032164 -33.820706, 151.021768 -33.817917, 151.011372 -33.815126, 151.000978 -33.812334, 150.990584 -33.809542, 150.980190 -33.806748, 150.969798 -33.803954, 150.959406 -33.801159, 150.949015 -33.798363, 150.938624 -33.795566, 150.928234 -33.792769, 150.917845 -33.789970, 150.907456 -33.787171, 150.897068 -33.784371, 150.886681 -33.781569, 150.876295 -33.778767, 150.865909 -33.775964, 150.855524 -33.773161, 150.845139 -33.770356, 150.834755 -33.767551, 150.824372 -33.764744, 150.813990 -33.761937, 150.803608 -33.759129, 150.793227 -33.756320, 150.782847 -33.753510, 150.772467 -33.750699, 150.762088 -33.747888, 150.751709 -33.745075, 150.741332 -33.742262, 150.730955 -33.739448, 150.720578 -33.736633, 150.710203 -33.733817, 150.699828 -33.731000, 150.689454 -33.728182, 150.679080 -33.725364, 150.668707 -33.722544, 150.658335 -33.719724, 150.647963 -33.716903, 150.637592 -33.714081, 150.627222 -33.711258, 150.616853 -33.708434, 150.606484 -33.705610, 150.596116 -33.702784, 150.585748 -33.699958, 150.575382 -33.697131, 150.565015 -33.694302, 150.554650 -33.691474, 150.544285 -33.688644, 150.533921 -33.685813, 150.523558 -33.682982, 150.513195 -33.680149, 150.502833 -33.677316, 150.492472 -33.674482, 150.482111 -33.671647, 150.471751 -33.668811, 150.461392 -33.665974, 150.451033 -33.663137, 150.440676 -33.660298, 150.430318 -33.657459, 150.419962 -33.654619, 150.409606 -33.651778, 150.399251 -33.648936, 150.388896 -33.646093, 150.378543 -33.643249, 150.368189 -33.640405, 150.357837 -33.637560, 150.347485 -33.634713, 150.337134 -33.631866, 150.326784 -33.629018, 150.316434 -33.626170, 150.306085 -33.623320, 150.295737 -33.620469, 150.285389 -33.617618, 150.275042 -33.614766, 150.264696 -33.611913, 150.254350 -33.609059, 150.244005 -33.606204, 150.233661 -33.603348, 150.223318 -33.600492, 150.212975 -33.597634, 150.202633 -33.594776, 150.192291 -33.591917, 150.181950 -33.589057, 150.171610 -33.586196, 150.161271 -33.583334, 150.150932 -33.580472, 150.140594 -33.577608, 150.130257 -33.574744, 150.119920 -33.571879, 150.109584 -33.569013, 150.099249 -33.566146, 150.088914 -33.563278, 150.078580 -33.560409, 150.068247 -33.557540, 150.057915 -33.554670, 150.047583 -33.551799, 150.037252 -33.548927, 150.026921 -33.546054, 150.016591 -33.543180, 150.006262 -33.540305, 149.995934 -33.537430, 149.985606 -33.534554, 149.975279 -33.531676, 149.964953 -33.528798, 149.954627 -33.525919, 149.944302 -33.523040, 149.933978 -33.520159, 149.923654 -33.517278, 149.913331 -33.514395, 149.903009 -33.511512, 149.892687 -33.508628, 149.882366 -33.505743, 149.872046 -33.502858, 149.861727 -33.499971, 149.851408 -33.497084, 149.841090 -33.494195, 149.830772 -33.491306, 149.820456 -33.488416, 149.810140 -33.485525, 149.799824 -33.482633, 149.789510 -33.479741, 149.779196 -33.476847, 149.768882 -33.473953, 149.758570 -33.471058, 149.748258 -33.468162, 149.737947 -33.465265, 149.727636 -33.462368, 149.717326 -33.459469, 149.707017 -33.456570, 149.696709 -33.453669, 149.686401 -33.450768, 149.676094 -33.447866, 149.665787 -33.444963, 149.655482 -33.442060, 149.645177 -33.439155, 149.634872 -33.436250, 149.624569 -33.433344, 149.614266 -33.430437, 149.603963 -33.427529, 149.593662 -33.424620, 149.583361 -33.421710, 149.573061 -33.418800, 149.562761 -33.415888, 149.552462 -33.412976, 149.542164 -33.410063, 149.531867 -33.407149, 149.521570 -33.404235, 149.511274 -33.401319, 149.500979 -33.398403, 149.490684 -33.395485, 149.480390 -33.392567, 149.470097 -33.389648, 149.459804 -33.386728, 149.449512 -33.383808, 149.439221 -33.380886, 149.428931 -33.377964, 149.418641 -33.375041, 149.408352 -33.372116, 149.398063 -33.369192, 149.387776 -33.366266, 149.377489 -33.363339, 149.367202 -33.360412, 149.356917 -33.357483, 149.346632 -33.354554, 149.336347 -33.351624, 149.326064 -33.348693, 149.315781 -33.345762, 149.305499 -33.342829, 149.295217 -33.339896, 149.284936 -33.336961, 149.274656 -33.334026, 149.264377 -33.331090, 149.254098 -33.328153, 149.243820 -33.325216, 149.233543 -33.322277, 149.223266 -33.319338, 149.212990 -33.316398, 149.202715 -33.313457, 149.192440 -33.310515, 149.182166 -33.307572, 149.171893 -33.304629, 149.161620 -33.301684, 149.151349 -33.298739, 149.141078 -33.295793, 149.130807 -33.292846, 149.120537 -33.289898, 149.110268 -33.286949, 149.100000 -33.284000, 149.089350 -33.282349, 149.078701 -33.280698, 149.068052 -33.279045, 149.057404 -33.277392, 149.046755 -33.275737, 149.036108 -33.274082, 149.025460 -33.272426, 149.014813 -33.270769, 149.004167 -33.269111, 148.993521 -33.267452, 148.982875 -33.265792, 148.972230 -33.264131, 148.961585 -33.262470, 148.950941 -33.260807, 148.940296 -33.259144, 148.929653 -33.257480, 148.919010 -33.255814, 148.908367 -33.254148, 148.897724 -33.252481, 148.887082 -33.250813, 148.876441 -33.249144, 148.865799 -33.247475, 148.855159 -33.245804, 148.844518 -33.244132, 148.833878 -33.242460, 148.823238 -33.240786, 148.812599 -33.239112, 148.801961 -33.237437, 148.791322 -33.235761, 148.780684 -33.234084, 148.770047 -33.232406, 148.759409 -33.230727, 148.748773 -33.229047, 148.738136 -33.227367, 148.727500 -33.225685, 148.716865 -33.224003, 148.706230 -33.222319, 148.695595 -33.220635, 148.684961 -33.218950, 148.674327 -33.217264, 148.663693 -33.215577, 148.653060 -33.213889, 148.642428 -33.212200, 148.631796 -33.210510, 148.621164 -33.208820, 148.610532 -33.207128, 148.599901 -33.205436, 148.589271 -33.203743, 148.578640 -33.202048, 148.568011 -33.200353, 148.557381 -33.198657, 148.546752 -33.196960, 148.536124 -33.195263, 148.525496 -33.193564, 148.514868 -33.191864, 148.504241 -33.190164, 148.493614 -33.188462, 148.482987 -33.186760, 148.472361 -33.185057, 148.461736 -33.183353, 148.451110 -33.181648, 148.440486 -33.179942, 148.429861 -33.178235, 148.419237 -33.176527, 148.408614 -33.174818, 148.397990 -33.173109, 148.387368 -33.171398, 148.376745 -33.169687, 148.366123 -33.167975, 148.355502 -33.166262, 148.344881 -33.164548, 148.334260 -33.162833, 148.323640 -33.161117, 148.313020 -33.159400, 148.302401 -33.157682, 148.291782 -33.155964, 148.281163 -33.154244, 148.270545 -33.152524, 148.259927 -33.150803, 148.249310 -33.149080, 148.238693 -33.147357, 148.228076 -33.145633, 148.217460 -33.143909, 148.206845 -33.142183, 148.196229 -33.140456, 148.185614 -33.138728, 148.175000 -33.137000, 148.164332 -33.135423, 148.153664 -33.133845, 148.142997 -33.132266, 148.132330 -33.130686, 148.121663 -33.129105, 148.110997 -33.127523, 148.100331 -33.125940, 148.089665 -33.124357, 148.079000 -33.122772, 148.068336 -33.121187, 148.057671 -33.119600, 148.047007 -33.118013, 148.036344 -33.116425, 148.025681 -33.114836, 148.015018 -33.113246, 148.004356 -33.111655, 147.993694 -33.110063, 147.983032 -33.108471, 147.972371 -33.106877, 147.961710 -33.105282, 147.951049 -33.103687, 147.940389 -33.102091, 147.929730 -33.100493, 147.919070 -33.098895, 147.908411 -33.097296, 147.897753 -33.095696, 147.887095 -33.094096, 147.876437 -33.092494, 147.865780 -33.090891, 147.855123 -33.089287, 147.844466 -33.087683, 147.833810 -33.086078, 147.823154 -33.084471, 147.812499 -33.082864, 147.801844 -33.081256, 147.791189 -33.079647, 147.780535 -33.078037, 147.769881 -33.076426, 147.759228 -33.074815, 147.748574 -33.073202, 147.737922 -33.071588, 147.727270 -33.069974, 147.716618 -33.068359, 147.705966 -33.066742, 147.695315 -33.065125, 147.684664 -33.063507, 147.674014 -33.061888, 147.663364 -33.060268, 147.652714 -33.058647, 147.642065 -33.057026, 147.631417 -33.055403, 147.620768 -33.053780, 147.610120 -33.052155, 147.599473 -33.050530, 147.588825 -33.048904, 147.578179 -33.047277, 147.567532 -33.045649, 147.556886 -33.044020, 147.546241 -33.042390, 147.535595 -33.040759, 147.524951 -33.039127, 147.514306 -33.037495, 147.503662 -33.035861, 147.493018 -33.034227, 147.482375 -33.032592, 147.471732 -33.030956, 147.461090 -33.029319, 147.450448 -33.027681, 147.439806 -33.026042, 147.429165 -33.024402, 147.418524 -33.022761, 147.407884 -33.021120, 147.397243 -33.019477, 147.386604 -33.017834, 147.375964 -33.016190, 147.365326 -33.014544, 147.354687 -33.012898, 147.344049 -33.011251, 147.333411 -33.009603, 147.322774 -33.007955, 147.312137 -33.006305, 147.301501 -33.004654, 147.290864 -33.003003, 147.280229 -33.001350, 147.269593 -32.999697, 147.258959 -32.998043, 147.248324 -32.996388, 147.237690 -32.994732, 147.227056 -32.993075, 147.216423 -32.991417, 147.205790 -32.989758, 147.195157 -32.988099, 147.184525 -32.986438, 147.173894 -32.984777, 147.163262 -32.983114, 147.152631 -32.981451, 147.142001 -32.979787, 147.131371 -32.978122, 147.120741 -32.976456, 147.110112 -32.974789, 147.099483 -32.973122, 147.088854 -32.971453, 147.078226 -32.969783, 147.067598 -32.968113, 147.056971 -32.966442, 147.046344 -32.964769, 147.035718 -32.963096, 147.025092 -32.961422, 147.014466 -32.959747, 147.003841 -32.958072, 146.993216 -32.956395, 146.982591 -32.954717, 146.971967 -32.953039, 146.961344 -32.951359, 146.950720 -32.949679, 146.940097 -32.947998, 146.929475 -32.946316, 146.918853 -32.944633, 146.908231 -32.942949, 146.897610 -32.941264, 146.886989 -32.939578, 146.876369 -32.937892, 146.865749 -32.936204, 146.855129 -32.934516, 146.844510 -32.932826, 146.833891 -32.931136, 146.823272 -32.929445, 146.812654 -32.927753, 146.802037 -32.926060, 146.791420 -32.924366, 146.780803 -32.922672, 146.770187 -32.920976, 146.759571 -32.919280, 146.748955 -32.917582, 146.738340 -32.915884, 146.727725 -32.914185, 146.717111 -32.912485, 146.706497 -32.910784, 146.695883 -32.909082, 146.685270 -32.907379, 146.674657 -32.905675, 146.664045 -32.903971, 146.653433 -32.902265, 146.642822 -32.900559, 146.632211 -32.898852, 146.621600 -32.897144, 146.610990 -32.895435, 146.600380 -32.893725, 146.589770 -32.892014, 146.579161 -32.890302, 146.568553 -32.888589, 146.557945 -32.886876, 146.547337 -32.885162, 146.536729 -32.883446, 146.526122 -32.881730, 146.515516 -32.880013, 146.504910 -32.878295, 146.494304 -32.876576, 146.483699 -32.874856, 146.473094 -32.873136, 146.462489 -32.871414, 146.451885 -32.869692, 146.441281 -32.867968, 146.430678 -32.866244, 146.420075 -32.864519, 146.409473 -32.862793, 146.398871 -32.861066, 146.388269 -32.859338, 146.377668 -32.857609, 146.367067 -32.855880, 146.356467 -32.854149, 146.345867 -32.852418, 146.335267 -32.850685, 146.324668 -32.848952, 146.314069 -32.847218, 146.303471 -32.845483, 146.292873 -32.843747, 146.282276 -32.842010, 146.271678 -32.840273, 146.261082 -32.838534, 146.250486 -32.836795, 146.239890 -32.835054, 146.229294 -32.833313, 146.218699 -32.831571, 146.208105 -32.829828, 146.197511 -32.828084, 146.186917 -32.826339, 146.176324 -32.824594, 146.165731 -32.822847, 146.155138 -32.821100, 146.144546 -32.819351, 146.133954 -32.817602, 146.123363 -32.815852, 146.112772 -32.814101, 146.102182 -32.812349, 146.091592 -32.810596, 146.081002 -32.808842, 146.070413 -32.807088, 146.059824 -32.805332, 146.049236 -32.803576, 146.038648 -32.801818, 146.028061 -32.800060, 146.017474 -32.798301, 146.006887 -32.796541, 145.996301 -32.794780, 145.985715 -32.793019, 145.975130 -32.791256, 145.964545 -32.789492, 145.953960 -32.787728, 145.943376 -32.785963, 145.932792 -32.784196, 145.922209 -32.782429, 145.911626 -32.780661, 145.901044 -32.778893, 145.890462 -32.777123, 145.879880 -32.775352, 145.869299 -32.773581, 145.858718 -32.771808, 145.848138 -32.770035, 145.837558 -32.768261, 145.826978 -32.766486, 145.816399 -32.764710, 145.805820 -32.762933, 145.795242 -32.761155, 145.784664 -32.759376, 145.774087 -32.757597, 145.763510 -32.755816, 145.752934 -32.754035, 145.742357 -32.752253, 145.731782 -32.750470, 145.721206 -32.748686, 145.710632 -32.746901, 145.700057 -32.745115, 145.689483 -32.743329, 145.678910 -32.741541, 145.668336 -32.739753, 145.657764 -32.737963, 145.647191 -32.736173, 145.636620 -32.734382, 145.626048 -32.732590, 145.615477 -32.730797, 145.604906 -32.729004, 145.594336 -32.727209, 145.583767 -32.725413, 145.573197 -32.723617, 145.562628 -32.721820, 145.552060 -32.720022, 145.541492 -32.718223, 145.530924 -32.716423, 145.520357 -32.714622, 145.509790 -32.712820, 145.499224 -32.711017, 145.488658 -32.709214, 145.478093 -32.707410, 145.467527 -32.705604, 145.456963 -32.703798, 145.446399 -32.701991, 145.435835 -32.700183, 145.425271 -32.698374, 145.414709 -32.696565, 145.404146 -32.694754, 145.393584 -32.692943, 145.383022 -32.691130, 145.372461 -32.689317, 145.361900 -32.687503, 145.351340 -32.685688, 145.340780 -32.683872, 145.330221 -32.682055, 145.319662 -32.680238, 145.309103 -32.678419, 145.298545 -32.676600, 145.287987 -32.674779, 145.277430 -32.672958, 145.266873 -32.671136, 145.256316 -32.669313, 145.245760 -32.667489, 145.235205 -32.665665, 145.224649 -32.663839, 145.214095 -32.662013, 145.203540 -32.660185, 145.192987 -32.658357, 145.182433 -32.656528, 145.171880 -32.654698, 145.161327 -32.652867, 145.150775 -32.651035, 145.140224 -32.649202, 145.129672 -32.647369, 145.119121 -32.645534, 145.108571 -32.643699, 145.098021 -32.641863, 145.087471 -32.640026, 145.076922 -32.638188, 145.066374 -32.636349, 145.055825 -32.634509, 145.045277 -32.632669, 145.034730 -32.630827, 145.024183 -32.628985, 145.013637 -32.627141, 145.003091 -32.625297, 144.992545 -32.623452, 144.982000 -32.621606, 144.971455 -32.619760, 144.960911 -32.617912, 144.950367 -32.616063, 144.939823 -32.614214, 144.929280 -32.612364, 144.918737 -32.610513, 144.908195 -32.608660, 144.897654 -32.606808, 144.887112 -32.604954, 144.876571 -32.603099, 144.866031 -32.601243, 144.855491 -32.599387, 144.844951 -32.597530, 144.834412 -32.595671, 144.823874 -32.593812, 144.813335 -32.591952, 144.802798 -32.590091, 144.792260 -32.588230, 144.781723 -32.586367, 144.771187 -32.584503, 144.760651 -32.582639, 144.750115 -32.580774, 144.739580 -32.578908, 144.729045 -32.577041, 144.718511 -32.575173, 144.707977 -32.573304, 144.697444 -32.571434, 144.686911 -32.569564, 144.676378 -32.567692, 144.665846 -32.565820, 144.655314 -32.563947, 144.644783 -32.562073, 144.634252 -32.560198, 144.623722 -32.558322, 144.613192 -32.556445, 144.602663 -32.554568, 144.592134 -32.552689, 144.581605 -32.550810, 144.571077 -32.548930, 144.560549 -32.547049, 144.550022 -32.545167, 144.539495 -32.543284, 144.528969 -32.541400, 144.518443 -32.539516, 144.507917 -32.537630, 144.497392 -32.535744, 144.486868 -32.533857, 144.476344 -32.531969, 144.465820 -32.530080, 144.455297 -32.528190, 144.444774 -32.526299, 144.434251 -32.524408, 144.423729 -32.522515, 144.413208 -32.520622, 144.402687 -32.518728, 144.392166 -32.516832, 144.381646 -32.514936, 144.371126 -32.513040, 144.360607 -32.511142, 144.350088 -32.509243, 144.339570 -32.507344, 144.329052 -32.505444, 144.318534 -32.503542, 144.308017 -32.501640, 144.297501 -32.499737, 144.286984 -32.497833, 144.276469 -32.495929, 144.265953 -32.494023, 144.255439 -32.492117, 144.244924 -32.490209, 144.234410 -32.488301, 144.223897 -32.486392, 144.213384 -32.484482, 144.202871 -32.482571, 144.192359 -32.480659, 144.181847 -32.478747, 144.171336 -32.476833, 144.160825 -32.474919, 144.150315 -32.473004, 144.139805 -32.471088, 144.129295 -32.469171, 144.118786 -32.467253, 144.108278 -32.465334, 144.097770 -32.463415, 144.087262 -32.461494, 144.076755 -32.459573, 144.066248 -32.457651, 144.055741 -32.455728, 144.045236 -32.453804, 144.034730 -32.451879, 144.024225 -32.449953, 144.013721 -32.448027, 144.003216 -32.446099, 143.992713 -32.444171, 143.982210 -32.442242, 143.971707 -32.440312, 143.961205 -32.438381, 143.950703 -32.436449, 143.940201 -32.434516, 143.929700 -32.432583, 143.919200 -32.430648, 143.908700 -32.428713, 143.898200 -32.426777, 143.887701 -32.424840, 143.877202 -32.422902, 143.866704 -32.420963, 143.856206 -32.419024, 143.845709 -32.417083, 143.835212 -32.415142, 143.824716 -32.413200, 143.814220 -32.411257, 143.803724 -32.409313, 143.793229 -32.407368, 143.782734 -32.405422, 143.772240 -32.403475, 143.761747 -32.401528, 143.751253 -32.399580, 143.740760 -32.397631, 143.730268 -32.395680, 143.719776 -32.393730, 143.709285 -32.391778, 143.698794 -32.389825, 143.688303 -32.387872, 143.677813 -32.385917, 143.667323 -32.383962, 143.656834 -32.382006, 143.646346 -32.380049, 143.635857 -32.378091, 143.625369 -32.376132, 143.614882 -32.374172, 143.604395 -32.372212, 143.593909 -32.370251, 143.583423 -32.368288, 143.572937 -32.366325, 143.562452 -32.364361, 143.551967 -32.362397, 143.541483 -32.360431, 143.530999 -32.358464, 143.520516 -32.356497, 143.510033 -32.354529, 143.499551 -32.352559, 143.489069 -32.350589, 143.478588 -32.348619, 143.468107 -32.346647, 143.457626 -32.344674, 143.447146 -32.342701, 143.436666 -32.340726, 143.426187 -32.338751, 143.415709 -32.336775, 143.405230 -32.334798, 143.394753 -32.332820, 143.384275 -32.330842, 143.373798 -32.328862, 143.363322 -32.326882, 143.352846 -32.324900, 143.342370 -32.322918, 143.331895 -32.320935, 143.321421 -32.318951, 143.310947 -32.316966, 143.300473 -32.314981, 143.290000 -32.312994, 143.279527 -32.311007, 143.269055 -32.309019, 143.258583 -32.307030, 143.248112 -32.305040, 143.237641 -32.303049, 143.227170 -32.301057, 143.216700 -32.299065, 143.206231 -32.297071, 143.195762 -32.295077, 143.185293 -32.293082, 143.174825 -32.291086, 143.164357 -32.289089, 143.153890 -32.287092, 143.143423 -32.285093, 143.132957 -32.283093, 143.122491 -32.281093, 143.112026 -32.279092, 143.101561 -32.277090, 143.091096 -32.275087, 143.080632 -32.273083, 143.070169 -32.271079, 143.059706 -32.269073, 143.049243 -32.267067, 143.038781 -32.265060, 143.028319 -32.263052, 143.017858 -32.261043, 143.007398 -32.259033, 142.996937 -32.257022, 142.986477 -32.255011, 142.976018 -32.252998, 142.965559 -32.250985, 142.955101 -32.248971, 142.944643 -32.246956, 142.934185 -32.244940, 142.923728 -32.242924, 142.913272 -32.240906, 142.902816 -32.238888, 142.892360 -32.236868, 142.881905 -32.234848, 142.871450 -32.232827, 142.860996 -32.230805, 142.850542 -32.228783, 142.840089 -32.226759, 142.829636 -32.224735, 142.819183 -32.222709, 142.808732 -32.220683, 142.798280 -32.218656, 142.787829 -32.216628, 142.777379 -32.214600, 142.766929 -32.212570, 142.756479 -32.210540, 142.746030 -32.208508, 142.735581 -32.206476, 142.725133 -32.204443, 142.714685 -32.202409, 142.704238 -32.200374, 142.693791 -32.198339, 142.683345 -32.196302, 142.672899 -32.194265, 142.662454 -32.192227, 142.652009 -32.190188, 142.641564 -32.188148, 142.631120 -32.186107, 142.620677 -32.184066, 142.610234 -32.182023, 142.599791 -32.179980, 142.589349 -32.177936, 142.578907 -32.175891, 142.568466 -32.173845, 142.558026 -32.171798, 142.547585 -32.169750, 142.537146 -32.167702, 142.526706 -32.165652, 142.516267 -32.163602, 142.505829 -32.161551, 142.495391 -32.159499, 142.484954 -32.157447, 142.474517 -32.155393, 142.464080 -32.153338, 142.453644 -32.151283, 142.443209 -32.149227, 142.432774 -32.147170, 142.422339 -32.145112, 142.411905 -32.143053, 142.401471 -32.140994, 142.391038 -32.138933, 142.380606 -32.136872, 142.370173 -32.134810, 142.359742 -32.132747, 142.349310 -32.130683, 142.338880 -32.128618, 142.328449 -32.126552, 142.318019 -32.124486, 142.307590 -32.122419, 142.297161 -32.120351, 142.286733 -32.118281, 142.276305 -32.116212, 142.265877 -32.114141, 142.255450 -32.112069, 142.245023 -32.109997, 142.234597 -32.107924, 142.224172 -32.105849, 142.213747 -32.103774, 142.203322 -32.101699, 142.192898 -32.099622, 142.182474 -32.097544, 142.172051 -32.095466, 142.161628 -32.093387, 142.151206 -32.091306, 142.140784 -32.089226, 142.130363 -32.087144, 142.119942 -32.085061, 142.109521 -32.082977, 142.099101 -32.080893, 142.088682 -32.078808, 142.078263 -32.076722, 142.067844 -32.074635, 142.057426 -32.072547, 142.047009 -32.070458, 142.036592 -32.068369, 142.026175 -32.066279, 142.015759 -32.064187, 142.005344 -32.062095, 141.994928 -32.060002, 141.984514 -32.057909, 141.974099 -32.055814, 141.963686 -32.053718, 141.953273 -32.051622, 141.942860 -32.049525, 141.932447 -32.047427, 141.922036 -32.045328, 141.911624 -32.043228, 141.901213 -32.041128, 141.890803 -32.039026, 141.880393 -32.036924, 141.869984 -32.034821, 141.859575 -32.032717, 141.849166 -32.030612, 141.838758 -32.028507, 141.828351 -32.026400, 141.817944 -32.024293, 141.807537 -32.022184, 141.797131 -32.020075, 141.786725 -32.017965, 141.776320 -32.015855, 141.765916 -32.013743, 141.755512 -32.011631, 141.745108 -32.009517, 141.734705 -32.007403, 141.724302 -32.005288, 141.713900 -32.003172, 141.703498 -32.001055, 141.693097 -31.998938, 141.682696 -31.996820, 141.672296 -31.994700, 141.661896 -31.992580, 141.651496 -31.990459, 141.641097 -31.988337, 141.630699 -31.986215, 141.620301 -31.984091, 141.609904 -31.981967, 141.599507 -31.979842, 141.589110 -31.977716, 141.578714 -31.975589, 141.568319 -31.973461, 141.557924 -31.971332, 141.547529 -31.969203, 141.537135 -31.967073, 141.526742 -31.964942, 141.516348 -31.962810, 141.505956 -31.960677, 141.495564 -31.958543, 141.485172 -31.956409, 141.474781 -31.954273, 141.464390 -31.952137, 141.454000 -31.950000, 141.444374 -31.953902, 141.434747 -31.957804, 141.425119 -31.961705, 141.415491 -31.965605, 141.405862 -31.969504, 141.396231 -31.973403, 141.386600 -31.977301, 141.376969 -31.981198, 141.367336 -31.985095, 141.357703 -31.988991, 141.348068 -31.992886, 141.338433 -31.996780, 141.328797 -32.000674, 141.319161 -32.004567, 141.309523 -32.008459, 141.299885 -32.012350, 141.290246 -32.016241, 141.280606 -32.020131, 141.270965 -32.024020, 141.261323 -32.027909, 141.251681 -32.031797, 141.242038 -32.035684, 141.232394 -32.039570, 141.222749 -32.043456, 141.213103 -32.047341, 141.203457 -32.051225, 141.193809 -32.055108, 141.184161 -32.058991, 141.174512 -32.062873, 141.164862 -32.066754, 141.155212 -32.070634, 141.145560 -32.074514, 141.135908 -32.078393, 141.126255 -32.082271, 141.116601 -32.086149, 141.106947 -32.090026, 141.097291 -32.093902, 141.087635 -32.097777, 141.077977 -32.101652, 141.068319 -32.105526, 141.058661 -32.109399, 141.049001 -32.113271, 141.039341 -32.117143, 141.029679 -32.121014, 141.020017 -32.124884, 141.010354 -32.128754, 141.000691 -32.132623, 140.991026 -32.136491, 140.981361 -32.140358, 140.971695 -32.144225, 140.962028 -32.148090, 140.952360 -32.151955, 140.942691 -32.155820, 140.933022 -32.159683, 140.923351 -32.163546, 140.913680 -32.167408, 140.904008 -32.171270, 140.894336 -32.175131, 140.884662 -32.178991, 140.874988 -32.182850, 140.865313 -32.186708, 140.855637 -32.190566, 140.845960 -32.194423, 140.836282 -32.198279, 140.826604 -32.202135, 140.816924 -32.205989, 140.807244 -32.209844, 140.797563 -32.213697, 140.787881 -32.217549, 140.778199 -32.221401, 140.768516 -32.225252, 140.758831 -32.229103, 140.749146 -32.232952, 140.739460 -32.236801, 140.729774 -32.240649, 140.720086 -32.244497, 140.710398 -32.248343, 140.700709 -32.252189, 140.691019 -32.256035, 140.681328 -32.259879, 140.671636 -32.263723, 140.661944 -32.267566, 140.652251 -32.271408, 140.642557 -32.275249, 140.632862 -32.279090, 140.623166 -32.282930, 140.613470 -32.286769, 140.603772 -32.290608, 140.594074 -32.294446, 140.584375 -32.298283, 140.574675 -32.302119, 140.564975 -32.305955, 140.555273 -32.309789, 140.545571 -32.313623, 140.535868 -32.317457, 140.526164 -32.321289, 140.516459 -32.325121, 140.506753 -32.328952, 140.497047 -32.332783, 140.487340 -32.336612, 140.477632 -32.340441, 140.467923 -32.344269, 140.458213 -32.348097, 140.448503 -32.351923, 140.438792 -32.355749, 140.429079 -32.359574, 140.419366 -32.363399, 140.409653 -32.367222, 140.399938 -32.371045, 140.390223 -32.374868, 140.380506 -32.378689, 140.370789 -32.382510, 140.361071 -32.386330, 140.351353 -32.390149, 140.341633 -32.393967, 140.331913 -32.397785, 140.322192 -32.401602, 140.312470 -32.405418, 140.302747 -32.409234, 140.293023 -32.413048, 140.283299 -32.416862, 140.273573 -32.420675, 140.263847 -32.424488, 140.254120 -32.428300, 140.244393 -32.432111, 140.234664 -32.435921, 140.224935 -32.439730, 140.215205 -32.443539, 140.205473 -32.447347, 140.195742 -32.451154, 140.186009 -32.454961, 140.176275 -32.458767, 140.166541 -32.462572, 140.156806 -32.466376, 140.147070 -32.470179, 140.137333 -32.473982, 140.127596 -32.477784, 140.117857 -32.481585, 140.108118 -32.485386, 140.098378 -32.489186, 140.088637 -32.492985, 140.078895 -32.496783, 140.069153 -32.500580, 140.059409 -32.504377, 140.049665 -32.508173, 140.039920 -32.511968, 140.030174 -32.515763, 140.020427 -32.519556, 140.010680 -32.523349, 140.000932 -32.527142, 139.991182 -32.530933, 139.981433 -32.534724, 139.971682 -32.538514, 139.961930 -32.542303, 139.952178 -32.546092, 139.942424 -32.549879, 139.932670 -32.553666, 139.922915 -32.557453, 139.913160 -32.561238, 139.903403 -32.565023, 139.893646 -32.568807, 139.883888 -32.572590, 139.874129 -32.576372, 139.864369 -32.580154, 139.854608 -32.583935, 139.844847 -32.587715, 139.835084 -32.591495, 139.825321 -32.595273, 139.815557 -32.599051, 139.805792 -32.602828, 139.796027 -32.606605, 139.786260 -32.610380, 139.776493 -32.614155, 139.766725 -32.617929, 139.756956 -32.621703, 139.747186 -32.625475, 139.737416 -32.629247, 139.727645 -32.633018, 139.717872 -32.636789, 139.708099 -32.640558, 139.698326 -32.644327, 139.688551 -32.648095, 139.678775 -32.651863, 139.668999 -32.655629, 139.659222 -32.659395, 139.649444 -32.663160, 139.639665 -32.666924, 139.629886 -32.670688, 139.620105 -32.674451, 139.610324 -32.678213, 139.600542 -32.681974, 139.590759 -32.685734, 139.580975 -32.689494, 139.571191 -32.693253, 139.561405 -32.697011, 139.551619 -32.700769, 139.541832 -32.704526, 139.532044 -32.708282, 139.522256 -32.712037, 139.512466 -32.715791, 139.502676 -32.719545, 139.492885 -32.723298, 139.483093 -32.727050, 139.473300 -32.730801, 139.463506 -32.734552, 139.453712 -32.738302, 139.443917 -32.742051, 139.434121 -32.745799, 139.424324 -32.749547, 139.414526 -32.753294, 139.404727 -32.757040, 139.394928 -32.760785, 139.385128 -32.764529, 139.375327 -32.768273, 139.365525 -32.772016, 139.355722 -32.775758, 139.345919 -32.779500, 139.336114 -32.783241, 139.326309 -32.786981, 139.316503 -32.790720, 139.306696 -32.794458, 139.296889 -32.798196, 139.287080 -32.801933, 139.277271 -32.805669, 139.267461 -32.809404, 139.257650 -32.813139, 139.247838 -32.816873, 139.238026 -32.820606, 139.228212 -32.824338, 139.218398 -32.828069, 139.208583 -32.831800, 139.198767 -32.835530, 139.188950 -32.839259, 139.179133 -32.842988, 139.169315 -32.846716, 139.159495 -32.850443, 139.149675 -32.854169, 139.139855 -32.857894, 139.130033 -32.861619, 139.120211 -32.865343, 139.110387 -32.869066, 139.100563 -32.872788, 139.090738 -32.876510, 139.080912 -32.880230, 139.071086 -32.883950, 139.061258 -32.887670, 139.051430 -32.891388, 139.041601 -32.895106, 139.031771 -32.898823, 139.021940 -32.902539, 139.012109 -32.906254, 139.002277 -32.909969, 138.992443 -32.913683, 138.982609 -32.917396, 138.972774 -32.921108, 138.962939 -32.924820, 138.953102 -32.928531, 138.943265 -32.932241, 138.933427 -32.935950, 138.923588 -32.939658, 138.913748 -32.943366, 138.903907 -32.947073, 138.894066 -32.950779, 138.884224 -32.954485, 138.874381 -32.958189, 138.864537 -32.961893, 138.854692 -32.965596, 138.844846 -32.969298, 138.835000 -32.973000, 138.824631 -32.975616, 138.814262 -32.978231, 138.803892 -32.980845, 138.793522 -32.983458, 138.783151 -32.986071, 138.772779 -32.988682, 138.762407 -32.991293, 138.752034 -32.993903, 138.741661 -32.996512, 138.731287 -32.999120, 138.720912 -33.001727, 138.710537 -33.004333, 138.700161 -33.006939, 138.689784 -33.009544, 138.679407 -33.012147, 138.669029 -33.014750, 138.658651 -33.017352, 138.648272 -33.019954, 138.637892 -33.022554, 138.627512 -33.025154, 138.617131 -33.027752, 138.606750 -33.030350, 138.596368 -33.032947, 138.585985 -33.035543, 138.575602 -33.038138, 138.565218 -33.040733, 138.554834 -33.043326, 138.544449 -33.045919, 138.534063 -33.048511, 138.523677 -33.051102, 138.513290 -33.053692, 138.502902 -33.056281, 138.492514 -33.058869, 138.482125 -33.061457, 138.471736 -33.064043, 138.461346 -33.066629, 138.450955 -33.069214, 138.440564 -33.071798, 138.430172 -33.074381, 138.419780 -33.076964, 138.409387 -33.079545, 138.398993 -33.082126, 138.388599 -33.084705, 138.378204 -33.087284, 138.367808 -33.089862, 138.357412 -33.092439, 138.347016 -33.095016, 138.336618 -33.097591, 138.326220 -33.100166, 138.315822 -33.102739, 138.305423 -33.105312, 138.295023 -33.107884, 138.284623 -33.110455, 138.274222 -33.113025, 138.263820 -33.115595, 138.253418 -33.118163, 138.243015 -33.120731, 138.232612 -33.123298, 138.222208 -33.125864, 138.211803 -33.128429, 138.201398 -33.130993, 138.190992 -33.133556, 138.180586 -33.136119, 138.170178 -33.138680, 138.159771 -33.141241, 138.149363 -33.143801, 138.138954 -33.146360, 138.128544 -33.148918, 138.118134 -33.151475, 138.107723 -33.154031, 138.097312 -33.156587, 138.086900 -33.159142, 138.076488 -33.161695, 138.066075 -33.164248, 138.055661 -33.166800, 138.045247 -33.169352, 138.034832 -33.171902, 138.024416 -33.174451, 138.014000 -33.177000, 138.010824 -33.168320, 138.007648 -33.159639, 138.004474 -33.150958, 138.001299 -33.142278, 137.998126 -33.133597, 137.994953 -33.124916, 137.991780 -33.116235, 137.988609 -33.107554, 137.985438 -33.098873, 137.982267 -33.090192, 137.979097 -33.081511, 137.975928 -33.072829, 137.972760 -33.064148, 137.969592 -33.055466, 137.966424 -33.046785, 137.963258 -33.038103, 137.960092 -33.029422, 137.956926 -33.020740, 137.953761 -33.012058, 137.950597 -33.003376, 137.947433 -32.994694, 137.944271 -32.986012, 137.941108 -32.977330, 137.937946 -32.968647, 137.934785 -32.959965, 137.931625 -32.951282, 137.928465 -32.942600, 137.925306 -32.933917, 137.922147 -32.925235, 137.918989 -32.916552, 137.915832 -32.907869, 137.912675 -32.899186, 137.909519 -32.890503, 137.906363 -32.881820, 137.903208 -32.873137, 137.900054 -32.864454, 137.896901 -32.855770, 137.893747 -32.847087, 137.890595 -32.838403, 137.887443 -32.829720, 137.884292 -32.821036, 137.881141 -32.812352, 137.877991 -32.803669, 137.874842 -32.794985, 137.871693 -32.786301, 137.868545 -32.777617, 137.865398 -32.768933, 137.862251 -32.760249, 137.859105 -32.751564, 137.855959 -32.742880, 137.852814 -32.734196, 137.849669 -32.725511, 137.846526 -32.716826, 137.843382 -32.708142, 137.840240 -32.699457, 137.837098 -32.690772, 137.833956 -32.682087, 137.830816 -32.673402, 137.827675 -32.664717, 137.824536 -32.656032, 137.821397 -32.647347, 137.818259 -32.638662, 137.815121 -32.629976, 137.811984 -32.621291, 137.808847 -32.612605, 137.805711 -32.603920, 137.802576 -32.595234, 137.799441 -32.586548, 137.796307 -32.577863, 137.793174 -32.569177, 137.790041 -32.560491, 137.786909 -32.551805, 137.783777 -32.543118, 137.780646 -32.534432, 137.777516 -32.525746, 137.774386 -32.517060, 137.771257 -32.508373, 137.768128 -32.499687, 137.765000 -32.491000, 137.755920 -32.486157, 137.746840 -32.481314, 137.737762 -32.476470, 137.728685 -32.471626, 137.719608 -32.466781, 137.710533 -32.461935, 137.701458 -32.457088, 137.692385 -32.452241, 137.683312 -32.447393, 137.674241 -32.442545, 137.665170 -32.437696, 137.656101 -32.432846, 137.647032 -32.427996, 137.637965 -32.423145, 137.628898 -32.418293, 137.619832 -32.413441, 137.610768 -32.408588, 137.601704 -32.403734, 137.592641 -32.398880, 137.583579 -32.394025, 137.574519 -32.389169, 137.565459 -32.384313, 137.556400 -32.379456, 137.547342 -32.374598, 137.538285 -32.369740, 137.529229 -32.364882, 137.520174 -32.360022, 137.511120 -32.355162, 137.502067 -32.350301, 137.493015 -32.345440, 137.483964 -32.340578, 137.474914 -32.335715, 137.465865 -32.330852, 137.456817 -32.325988, 137.447770 -32.321123, 137.438723 -32.316258, 137.429678 -32.311392, 137.420634 -32.306525, 137.411591 -32.301658, 137.402548 -32.296790, 137.393507 -32.291922, 137.384467 -32.287052, 137.375427 -32.282183, 137.366389 -32.277312, 137.357351 -32.272441, 137.348315 -32.267569, 137.339279 -32.262697, 137.330245 -32.257824, 137.321211 -32.252950, 137.312179 -32.248076, 137.303147 -32.243201, 137.294116 -32.238326, 137.285087 -32.233449, 137.276058 -32.228572, 137.267030 -32.223695, 137.258003 -32.218817, 137.248978 -32.213938, 137.239953 -32.209059, 137.230929 -32.204178, 137.221906 -32.199298, 137.212884 -32.194416, 137.203863 -32.189534, 137.194843 -32.184652, 137.185824 -32.179769, 137.176806 -32.174885, 137.167789 -32.170000, 137.158773 -32.165115, 137.149757 -32.160229, 137.140743 -32.155343, 137.131730 -32.150455, 137.122718 -32.145568, 137.113706 -32.140679, 137.104696 -32.135790, 137.095687 -32.130901, 137.086678 -32.126010, 137.077671 -32.121119, 137.068664 -32.116228, 137.059659 -32.111336, 137.050654 -32.106443, 137.041651 -32.101549, 137.032648 -32.096655, 137.023646 -32.091760, 137.014646 -32.086865, 137.005646 -32.081969, 136.996647 -32.077072, 136.987649 -32.072175, 136.978653 -32.067277, 136.969657 -32.062378, 136.960662 -32.057479, 136.951668 -32.052579, 136.942675 -32.047679, 136.933683 -32.042778, 136.924692 -32.037876, 136.915702 -32.032973, 136.906713 -32.028070, 136.897724 -32.023167, 136.888737 -32.018262, 136.879751 -32.013358, 136.870766 -32.008452, 136.861781 -32.003546, 136.852798 -31.998639, 136.843816 -31.993732, 136.834834 -31.988823, 136.825854 -31.983915, 136.816874 -31.979005, 136.807896 -31.974095, 136.798918 -31.969185, 136.789941 -31.964273, 136.780966 -31.959362, 136.771991 -31.954449, 136.763017 -31.949536, 136.754045 -31.944622, 136.745073 -31.939708, 136.736102 -31.934793, 136.727132 -31.929877, 136.718163 -31.924961, 136.709195 -31.920044, 136.700228 -31.915126, 136.691262 -31.910208, 136.682297 -31.905289, 136.673333 -31.900370, 136.664369 -31.895450, 136.655407 -31.890529, 136.646446 -31.885608, 136.637486 -31.880686, 136.628526 -31.875763, 136.619568 -31.870840, 136.610610 -31.865916, 136.601654 -31.860992, 136.592698 -31.856066, 136.583744 -31.851141, 136.574790 -31.846214, 136.565837 -31.841287, 136.556886 -31.836360, 136.547935 -31.831431, 136.538985 -31.826503, 136.530036 -31.821573, 136.521088 -31.816643, 136.512141 -31.811712, 136.503195 -31.806781, 136.494250 -31.801849, 136.485306 -31.796916, 136.476363 -31.791983, 136.467421 -31.787049, 136.458480 -31.782115, 136.449540 -31.777180, 136.440600 -31.772244, 136.431662 -31.767307, 136.422725 -31.762370, 136.413788 -31.757433, 136.404853 -31.752495, 136.395918 -31.747556, 136.386984 -31.742616, 136.378052 -31.737676, 136.369120 -31.732735, 136.360189 -31.727794, 136.351260 -31.722852, 136.342331 -31.717909, 136.333403 -31.712966, 136.324476 -31.708022, 136.315550 -31.703078, 136.306625 -31.698133, 136.297701 -31.693187, 136.288778 -31.688241, 136.279856 -31.683294, 136.270935 -31.678346, 136.262014 -31.673398, 136.253095 -31.668449, 136.244177 -31.663500, 136.235259 -31.658550, 136.226343 -31.653599, 136.217427 -31.648648, 136.208513 -31.643696, 136.199599 -31.638743, 136.190687 -31.633790, 136.181775 -31.628836, 136.172864 -31.623882, 136.163954 -31.618927, 136.155045 -31.613971, 136.146137 -31.609015, 136.137231 -31.604058, 136.128325 -31.599101, 136.119419 -31.594143, 136.110515 -31.589184, 136.101612 -31.584225, 136.092710 -31.579265, 136.083809 -31.574304, 136.074908 -31.569343, 136.066009 -31.564381, 136.057111 -31.559419, 136.048213 -31.554456, 136.039317 -31.549492, 136.030421 -31.544528, 136.021526 -31.539563, 136.012633 -31.534597, 136.003740 -31.529631, 135.994848 -31.524664, 135.985957 -31.519697, 135.977067 -31.514729, 135.968178 -31.509761, 135.959290 -31.504791, 135.950403 -31.499822, 135.941517 -31.494851, 135.932632 -31.489880, 135.923748 -31.484908, 135.914864 -31.479936, 135.905982 -31.474963, 135.897101 -31.469990, 135.888220 -31.465016, 135.879341 -31.460041, 135.870462 -31.455066, 135.861584 -31.450090, 135.852708 -31.445113, 135.843832 -31.440136, 135.834957 -31.435158, 135.826083 -31.430180, 135.817210 -31.425201, 135.808338 -31.420221, 135.799467 -31.415241, 135.790597 -31.410260, 135.781728 -31.405279, 135.772860 -31.400297, 135.763992 -31.395314, 135.755126 -31.390331, 135.746261 -31.385347, 135.737396 -31.380362, 135.728533 -31.375377, 135.719670 -31.370392, 135.710809 -31.365405, 135.701948 -31.360418, 135.693088 -31.355431, 135.684229 -31.350443, 135.675371 -31.345454, 135.666514 -31.340465, 135.657658 -31.335475, 135.648803 -31.330484, 135.639949 -31.325493, 135.631096 -31.320501, 135.622244 -31.315509, 135.613393 -31.310516, 135.604542 -31.305522, 135.595693 -31.300528, 135.586844 -31.295533, 135.577997 -31.290538, 135.569150 -31.285541, 135.560305 -31.280545, 135.551460 -31.275548, 135.542616 -31.270550, 135.533773 -31.265551, 135.524931 -31.260552, 135.516090 -31.255553, 135.507250 -31.250552, 135.498411 -31.245551, 135.489573 -31.240550, 135.480736 -31.235548, 135.471899 -31.230545, 135.463064 -31.225542, 135.454230 -31.220538, 135.445396 -31.215533, 135.436563 -31.210528, 135.427732 -31.205522, 135.418901 -31.200516, 135.410071 -31.195509, 135.401243 -31.190502, 135.392415 -31.185494, 135.383588 -31.180485, 135.374762 -31.175476, 135.365937 -31.170466, 135.357112 -31.165455, 135.348289 -31.160444, 135.339467 -31.155432, 135.330646 -31.150420, 135.321825 -31.145407, 135.313006 -31.140393, 135.304187 -31.135379, 135.295369 -31.130364, 135.286553 -31.125349, 135.277737 -31.120333, 135.268922 -31.115317, 135.260108 -31.110299, 135.251295 -31.105282, 135.242483 -31.100263, 135.233672 -31.095244, 135.224862 -31.090225, 135.216053 -31.085205, 135.207244 -31.080184, 135.198437 -31.075163, 135.189631 -31.070141, 135.180825 -31.065118, 135.172021 -31.060095, 135.163217 -31.055071, 135.154414 -31.050047, 135.145612 -31.045022, 135.136811 -31.039997, 135.128012 -31.034970, 135.119213 -31.029944, 135.110414 -31.024916, 135.101617 -31.019888, 135.092821 -31.014860, 135.084026 -31.009831, 135.075231 -31.004801, 135.066438 -30.999771, 135.057645 -30.994740, 135.048854 -30.989708, 135.040063 -30.984676, 135.031273 -30.979644, 135.022485 -30.974610, 135.013697 -30.969576, 135.004910 -30.964542, 134.996124 -30.959507, 134.987339 -30.954471, 134.978555 -30.949435, 134.969771 -30.944398, 134.960989 -30.939361, 134.952208 -30.934323, 134.943427 -30.929284, 134.934648 -30.924245, 134.925869 -30.919205, 134.917091 -30.914165, 134.908314 -30.909124, 134.899539 -30.904082, 134.890764 -30.899040, 134.881990 -30.893997, 134.873217 -30.888954, 134.864444 -30.883910, 134.855673 -30.878865, 134.846903 -30.873820, 134.838134 -30.868774, 134.829365 -30.863728, 134.820598 -30.858681, 134.811831 -30.853634, 134.803065 -30.848586, 134.794301 -30.843537, 134.785537 -30.838488, 134.776774 -30.833438, 134.768012 -30.828387, 134.759251 -30.823336, 134.750491 -30.818285, 134.741731 -30.813232, 134.732973 -30.808180, 134.724216 -30.803126, 134.715459 -30.798072, 134.706704 -30.793018, 134.697949 -30.787963, 134.689195 -30.782907, 134.680442 -30.777850, 134.671691 -30.772793, 134.662940 -30.767736, 134.654190 -30.762678, 134.645441 -30.757619, 134.636692 -30.752560, 134.627945 -30.747500, 134.619199 -30.742440, 134.610453 -30.737379, 134.601709 -30.732317, 134.592965 -30.727255, 134.584223 -30.722192, 134.575481 -30.717129, 134.566740 -30.712065, 134.558000 -30.707000, 134.547451 -30.706914, 134.536902 -30.706826, 134.526353 -30.706738, 134.515804 -30.706649, 134.505255 -30.706559, 134.494706 -30.706468, 134.484157 -30.706377, 134.473608 -30.706284, 134.463059 -30.706191, 134.452510 -30.706097, 134.441961 -30.706002, 134.431412 -30.705906, 134.420863 -30.705809, 134.410314 -30.705712, 134.399765 -30.705613, 134.389217 -30.705514, 134.378668 -30.705414, 134.368119 -30.705313, 134.357570 -30.705211, 134.347022 -30.705109, 134.336473 -30.705005, 134.325924 -30.704901, 134.315376 -30.704796, 134.304827 -30.704689, 134.294278 -30.704582, 134.283730 -30.704475, 134.273181 -30.704366, 134.262633 -30.704257, 134.252084 -30.704146, 134.241536 -30.704035, 134.230987 -30.703923, 134.220439 -30.703810, 134.209890 -30.703696, 134.199342 -30.703582, 134.188794 -30.703466, 134.178245 -30.703350, 134.167697 -30.703233, 134.157149 -30.703115, 134.146600 -30.702996, 134.136052 -30.702876, 134.125504 -30.702756, 134.114956 -30.702634, 134.104408 -30.702512, 134.093860 -30.702389, 134.083311 -30.702265, 134.072763 -30.702140, 134.062215 -30.702014, 134.051667 -30.701888, 134.041119 -30.701760, 134.030571 -30.701632, 134.020023 -30.701503, 134.009476 -30.701373, 133.998928 -30.701242, 133.988380 -30.701111, 133.977832 -30.700978, 133.967284 -30.700845, 133.956736 -30.700711, 133.946189 -30.700575, 133.935641 -30.700440, 133.925093 -30.700303, 133.914546 -30.700165, 133.903998 -30.700027, 133.893450 -30.699887, 133.882903 -30.699747, 133.872355 -30.699606, 133.861808 -30.699464, 133.851260 -30.699322, 133.840713 -30.699178, 133.830166 -30.699033, 133.819618 -30.698888, 133.809071 -30.698742, 133.798524 -30.698595, 133.787976 -30.698447, 133.777429 -30.698298, 133.766882 -30.698149, 133.756335 -30.697999, 133.745788 -30.697847, 133.735241 -30.697695, 133.724693 -30.697542, 133.714146 -30.697388, 133.703599 -30.697234, 133.693052 -30.697078, 133.682506 -30.696922, 133.671959 -30.696765, 133.661412 -30.696606, 133.650865 -30.696448, 133.640318 -30.696288, 133.629771 -30.696127, 133.619225 -30.695966, 133.608678 -30.695803, 133.598131 -30.695640, 133.587585 -30.695476, 133.577038 -30.695311, 133.566492 -30.695145, 133.555945 -30.694979, 133.545399 -30.694811, 133.534852 -30.694643, 133.524306 -30.694474, 133.513759 -30.694304, 133.503213 -30.694133, 133.492667 -30.693961, 133.482120 -30.693789, 133.471574 -30.693615, 133.461028 -30.693441, 133.450482 -30.693266, 133.439936 -30.693090, 133.429390 -30.692913, 133.418844 -30.692735, 133.408298 -30.692557, 133.397752 -30.692378, 133.387206 -30.692197, 133.376660 -30.692016, 133.366114 -30.691834, 133.355568 -30.691652, 133.345023 -30.691468, 133.334477 -30.691283, 133.323931 -30.691098, 133.313386 -30.690912, 133.302840 -30.690725, 133.292295 -30.690537, 133.281749 -30.690348, 133.271204 -30.690159, 133.260658 -30.689968, 133.250113 -30.689777, 133.239567 -30.689585, 133.229022 -30.689392, 133.218477 -30.689198, 133.207932 -30.689003, 133.197387 -30.688807, 133.186841 -30.688611, 133.176296 -30.688414, 133.165751 -30.688216, 133.155206 -30.688017, 133.144661 -30.687817, 133.134116 -30.687616, 133.123572 -30.687415, 133.113027 -30.687212, 133.102482 -30.687009, 133.091937 -30.686805, 133.081393 -30.686600, 133.070848 -30.686394, 133.060303 -30.686188, 133.049759 -30.685980, 133.039214 -30.685772, 133.028670 -30.685563, 133.018125 -30.685352, 133.007581 -30.685142, 132.997037 -30.684930, 132.986492 -30.684717, 132.975948 -30.684504, 132.965404 -30.684289, 132.954860 -30.684074, 132.944316 -30.683858, 132.933772 -30.683641, 132.923228 -30.683424, 132.912684 -30.683205, 132.902140 -30.682986, 132.891596 -30.682765, 132.881052 -30.682544, 132.870509 -30.682322, 132.859965 -30.682100, 132.849421 -30.681876, 132.838878 -30.681651, 132.828334 -30.681426, 132.817791 -30.681200, 132.807247 -30.680973, 132.796704 -30.680745, 132.786160 -30.680516, 132.775617 -30.680286, 132.765074 -30.680056, 132.754531 -30.679825, 132.743987 -30.679592, 132.733444 -30.679359, 132.722901 -30.679125, 132.712358 -30.678891, 132.701815 -30.678655, 132.691272 -30.678419, 132.680730 -30.678181, 132.670187 -30.677943, 132.659644 -30.677704, 132.649101 -30.677464, 132.638559 -30.677224, 132.628016 -30.676982, 132.617474 -30.676740, 132.606931 -30.676496, 132.596389 -30.676252, 132.585846 -30.676007, 132.575304 -30.675762, 132.564762 -30.675515, 132.554219 -30.675267, 132.543677 -30.675019, 132.533135 -30.674770, 132.522593 -30.674520, 132.512051 -30.674269, 132.501509 -30.674017, 132.490967 -30.673765, 132.480425 -30.673511, 132.469884 -30.673257, 132.459342 -30.673002, 132.448800 -30.672746, 132.438259 -30.672489, 132.427717 -30.672231, 132.417176 -30.671972, 132.406634 -30.671713, 132.396093 -30.671453, 132.385551 -30.671192, 132.375010 -30.670930, 132.364469 -30.670667, 132.353928 -30.670403, 132.343387 -30.670139, 132.332846 -30.669873, 132.322305 -30.669607, 132.311764 -30.669340, 132.301223 -30.669072, 132.290682 -30.668803, 132.280141 -30.668534, 132.269601 -30.668263, 132.259060 -30.667992, 132.248519 -30.667720, 132.237979 -30.667446, 132.227439 -30.667173, 132.216898 -30.666898, 132.206358 -30.666622, 132.195818 -30.666346, 132.185277 -30.666069, 132.174737 -30.665790, 132.164197 -30.665511, 132.153657 -30.665232, 132.143117 -30.664951, 132.132577 -30.664669, 132.122037 -30.664387, 132.111498 -30.664104, 132.100958 -30.663820, 132.090418 -30.663535, 132.079879 -30.663249, 132.069339 -30.662962, 132.058800 -30.662675, 132.048260 -30.662386, 132.037721 -30.662097, 132.027182 -30.661807, 132.016642 -30.661516, 132.006103 -30.661224, 131.995564 -30.660932, 131.985025 -30.660638, 131.974486 -30.660344, 131.963947 -30.660049, 131.953408 -30.659753, 131.942870 -30.659456, 131.932331 -30.659158, 131.921792 -30.658860, 131.911254 -30.658560, 131.900715 -30.658260, 131.890177 -30.657959, 131.879638 -30.657657, 131.869100 -30.657354, 131.858562 -30.657051, 131.848024 -30.656746, 131.837485 -30.656441, 131.826947 -30.656135, 131.816409 -30.655828, 131.805871 -30.655520, 131.795334 -30.655211, 131.784796 -30.654901, 131.774258 -30.654591, 131.763721 -30.654280, 131.753183 -30.653967, 131.742645 -30.653654, 131.732108 -30.653341, 131.721571 -30.653026, 131.711033 -30.652710, 131.700496 -30.652394, 131.689959 -30.652077, 131.679422 -30.651759, 131.668885 -30.651440, 131.658348 -30.651120, 131.647811 -30.650799, 131.637274 -30.650478, 131.626737 -30.650155, 131.616201 -30.649832, 131.605664 -30.649508, 131.595128 -30.649183, 131.584591 -30.648857, 131.574055 -30.648531, 131.563518 -30.648203, 131.552982 -30.647875, 131.542446 -30.647546, 131.531910 -30.647216, 131.521374 -30.646885, 131.510838 -30.646553, 131.500302 -30.646221, 131.489766 -30.645887, 131.479230 -30.645553, 131.468695 -30.645218, 131.458159 -30.644882, 131.447624 -30.644545, 131.437088 -30.644208, 131.426553 -30.643869, 131.416018 -30.643530, 131.405482 -30.643190, 131.394947 -30.642849, 131.384412 -30.642507, 131.373877 -30.642164, 131.363342 -30.641820, 131.352807 -30.641476, 131.342272 -30.641131, 131.331738 -30.640784, 131.321203 -30.640437, 131.310669 -30.640090, 131.300134 -30.639741, 131.289600 -30.639391, 131.279065 -30.639041, 131.268531 -30.638690, 131.257997 -30.638338, 131.247463 -30.637985, 131.236929 -30.637631, 131.226395 -30.637276, 131.215861 -30.636921, 131.205327 -30.636564, 131.194794 -30.636207, 131.184260 -30.635849, 131.173726 -30.635490, 131.163193 -30.635131, 131.152659 -30.634770, 131.142126 -30.634409, 131.131593 -30.634046, 131.121060 -30.633683, 131.110527 -30.633319, 131.099994 -30.632954, 131.089461 -30.632589, 131.078928 -30.632222, 131.068395 -30.631855, 131.057862 -30.631487, 131.047330 -30.631118, 131.036797 -30.630748, 131.026265 -30.630377, 131.015732 -30.630005, 131.005200 -30.629633, 130.994668 -30.629260, 130.984136 -30.628885, 130.973604 -30.628510, 130.963072 -30.628134, 130.952540 -30.627758, 130.942008 -30.627380, 130.931477 -30.627002, 130.920945 -30.626623, 130.910413 -30.626242, 130.899882 -30.625862, 130.889351 -30.625480, 130.878819 -30.625097, 130.868288 -30.624714, 130.857757 -30.624329, 130.847226 -30.623944, 130.836695 -30.623558, 130.826164 -30.623171, 130.815633 -30.622783, 130.805102 -30.622395, 130.794572 -30.622005, 130.784041 -30.621615, 130.773511 -30.621224, 130.762981 -30.620832, 130.752450 -30.620439, 130.741920 -30.620045, 130.731390 -30.619651, 130.720860 -30.619256, 130.710330 -30.618859, 130.699800 -30.618462, 130.689270 -30.618064, 130.678741 -30.617666, 130.668211 -30.617266, 130.657682 -30.616865, 130.647152 -30.616464, 130.636623 -30.616062, 130.626094 -30.615659, 130.615564 -30.615255, 130.605035 -30.614850, 130.594506 -30.614445, 130.583977 -30.614039, 130.573449 -30.613631, 130.562920 -30.613223, 130.552391 -30.612814, 130.541863 -30.612404, 130.531334 -30.611994, 130.520806 -30.611582, 130.510278 -30.611170, 130.499750 -30.610757, 130.489221 -30.610343, 130.478693 -30.609928, 130.468166 -30.609512, 130.457638 -30.609096, 130.447110 -30.608678, 130.436582 -30.608260, 130.426055 -30.607841, 130.415527 -30.607421, 130.405000 -30.607000, 130.394517 -30.608044, 130.384033 -30.609088, 130.373549 -30.610130, 130.363065 -30.611172, 130.352581 -30.612213, 130.342096 -30.613253, 130.331611 -30.614292, 130.321126 -30.615331, 130.310641 -30.616368, 130.300156 -30.617405, 130.289670 -30.618441, 130.279184 -30.619476, 130.268698 -30.620510, 130.258212 -30.621543, 130.247725 -30.622576, 130.237238 -30.623607, 130.226751 -30.624638, 130.216264 -30.625668, 130.205777 -30.626697, 130.195289 -30.627726, 130.184801 -30.628753, 130.174313 -30.629780, 130.163824 -30.630805, 130.153336 -30.631830, 130.142847 -30.632854, 130.132358 -30.633878, 130.121869 -30.634900, 130.111379 -30.635922, 130.100890 -30.636942, 130.090400 -30.637962, 130.079910 -30.638981, 130.069419 -30.639999, 130.058929 -30.641017, 130.048438 -30.642033, 130.037947 -30.643049, 130.027456 -30.644064, 130.016964 -30.645078, 130.006473 -30.646091, 129.995981 -30.647103, 129.985489 -30.648115, 129.974996 -30.649125, 129.964504 -30.650135, 129.954011 -30.651144, 129.943518 -30.652152, 129.933025 -30.653159, 129.922531 -30.654165, 129.912038 -30.655171, 129.901544 -30.656176, 129.891050 -30.657180, 129.880555 -30.658183, 129.870061 -30.659185, 129.859566 -30.660186, 129.849071 -30.661187, 129.838576 -30.662186, 129.828081 -30.663185, 129.817585 -30.664183, 129.807089 -30.665180, 129.796593 -30.666176, 129.786097 -30.667172, 129.775601 -30.668166, 129.765104 -30.669160, 129.754607 -30.670153, 129.744110 -30.671145, 129.733613 -30.672136, 129.723115 -30.673127, 129.712617 -30.674116, 129.702119 -30.675105, 129.691621 -30.676093, 129.681123 -30.677080, 129.670624 -30.678066, 129.660125 -30.679051, 129.649626 -30.680036, 129.639127 -30.681019, 129.628627 -30.682002, 129.618128 -30.682984, 129.607628 -30.683965, 129.597128 -30.684945, 129.586627 -30.685925, 129.576127 -30.686903, 129.565626 -30.687881, 129.555125 -30.688858, 129.544624 -30.689834, 129.534123 -30.690809, 129.523621 -30.691783, 129.513119 -30.692757, 129.502617 -30.693729, 129.492115 -30.694701, 129.481612 -30.695672, 129.471110 -30.696642, 129.460607 -30.697611, 129.450104 -30.698580, 129.439601 -30.699547, 129.429097 -30.700514, 129.418593 -30.701480, 129.408089 -30.702445, 129.397585 -30.703409, 129.387081 -30.704372, 129.376576 -30.705335, 129.366072 -30.706297, 129.355567 -30.707257, 129.345061 -30.708217, 129.334556 -30.709176, 129.324050 -30.710135, 129.313545 -30.711092, 129.303039 -30.712049, 129.292532 -30.713004, 129.282026 -30.713959, 129.271519 -30.714913, 129.261013 -30.715866, 129.250505 -30.716819, 129.239998 -30.717770, 129.229491 -30.718721, 129.218983 -30.719671, 129.208475 -30.720620, 129.197967 -30.721568, 129.187459 -30.722515, 129.176950 -30.723461, 129.166442 -30.724407, 129.155933 -30.725352, 129.145424 -30.726296, 129.134914 -30.727239, 129.124405 -30.728181, 129.113895 -30.729122, 129.103385 -30.730063, 129.092875 -30.731002, 129.082364 -30.731941, 129.071854 -30.732879, 129.061343 -30.733816, 129.050832 -30.734752, 129.040321 -30.735688, 129.029810 -30.736622, 129.019298 -30.737556, 129.008786 -30.738489, 128.998274 -30.739421, 128.987762 -30.740352, 128.977250 -30.741282, 128.966737 -30.742212, 128.956224 -30.743141, 128.945711 -30.744068, 128.935198 -30.744995, 128.924685 -30.745921, 128.914171 -30.746847, 128.903657 -30.747771, 128.893143 -30.748695, 128.882629 -30.749617, 128.872115 -30.750539, 128.861600 -30.751460, 128.851085 -30.752380, 128.840570 -30.753300, 128.830055 -30.754218, 128.819540 -30.755136, 128.809024 -30.756052, 128.798508 -30.756968, 128.787992 -30.757883, 128.777476 -30.758798, 128.766959 -30.759711, 128.756443 -30.760623, 128.745926 -30.761535, 128.735409 -30.762446, 128.724892 -30.763356, 128.714374 -30.764265, 128.703857 -30.765173, 128.693339 -30.766081, 128.682821 -30.766987, 128.672303 -30.767893, 128.661784 -30.768798, 128.651266 -30.769702, 128.640747 -30.770605, 128.630228 -30.771507, 128.619709 -30.772409, 128.609189 -30.773310, 128.598670 -30.774209, 128.588150 -30.775108, 128.577630 -30.776006, 128.567110 -30.776904, 128.556589 -30.777800, 128.546069 -30.778696, 128.535548 -30.779590, 128.525027 -30.780484, 128.514506 -30.781377, 128.503985 -30.782269, 128.493463 -30.783161, 128.482941 -30.784051, 128.472419 -30.784941, 128.461897 -30.785829, 128.451375 -30.786717, 128.440852 -30.787604, 128.430330 -30.788490, 128.419807 -30.789376, 128.409284 -30.790260, 128.398760 -30.791144, 128.388237 -30.792027, 128.377713 -30.792909, 128.367189 -30.793790, 128.356665 -30.794670, 128.346141 -30.795549, 128.335617 -30.796428, 128.325092 -30.797306, 128.314567 -30.798183, 128.304042 -30.799059, 128.293517 -30.799934, 128.282991 -30.800808, 128.272466 -30.801681, 128.261940 -30.802554, 128.251414 -30.803426, 128.240888 -30.804297, 128.230361 -30.805167, 128.219835 -30.806036, 128.209308 -30.806904, 128.198781 -30.807772, 128.188254 -30.808638, 128.177727 -30.809504, 128.167199 -30.810369, 128.156672 -30.811233, 128.146144 -30.812096, 128.135616 -30.812959, 128.125087 -30.813820, 128.114559 -30.814681, 128.104030 -30.815541, 128.093501 -30.816400, 128.082972 -30.817258, 128.072443 -30.818115, 128.061914 -30.818972, 128.051384 -30.819827, 128.040854 -30.820682, 128.030324 -30.821536, 128.019794 -30.822389, 128.009264 -30.823241, 127.998733 -30.824092, 127.988203 -30.824943, 127.977672 -30.825792, 127.967141 -30.826641, 127.956610 -30.827489, 127.946078 -30.828336, 127.935546 -30.829182, 127.925015 -30.830028, 127.914483 -30.830872, 127.903950 -30.831716, 127.893418 -30.832559, 127.882885 -30.833401, 127.872353 -30.834242, 127.861820 -30.835082, 127.851287 -30.835921, 127.840753 -30.836760, 127.830220 -30.837598, 127.819686 -30.838434, 127.809152 -30.839270, 127.798618 -30.840105, 127.788084 -30.840940, 127.777550 -30.841773, 127.767015 -30.842606, 127.756480 -30.843437, 127.745945 -30.844268, 127.735410 -30.845098, 127.724875 -30.845927, 127.714340 -30.846756, 127.703804 -30.847583, 127.693268 -30.848410, 127.682732 -30.849236, 127.672196 -30.850061, 127.661659 -30.850885, 127.651123 -30.851708, 127.640586 -30.852530, 127.630049 -30.853352, 127.619512 -30.854172, 127.608975 -30.854992, 127.598437 -30.855811, 127.587899 -30.856629, 127.577362 -30.857446, 127.566824 -30.858263, 127.556285 -30.859078, 127.545747 -30.859893, 127.535208 -30.860707, 127.524670 -30.861519, 127.514131 -30.862332, 127.503592 -30.863143, 127.493052 -30.863953, 127.482513 -30.864763, 127.471973 -30.865571, 127.461433 -30.866379, 127.450893 -30.867186, 127.440353 -30.867992, 127.429813 -30.868798, 127.419272 -30.869602, 127.408732 -30.870406, 127.398191 -30.871208, 127.387650 -30.872010, 127.377109 -30.872811, 127.366567 -30.873611, 127.356026 -30.874411, 127.345484 -30.875209, 127.334942 -30.876007, 127.324400 -30.876803, 127.313858 -30.877599, 127.303315 -30.878394, 127.292772 -30.879188, 127.282230 -30.879982, 127.271687 -30.880774, 127.261144 -30.881566, 127.250600 -30.882356, 127.240057 -30.883146, 127.229513 -30.883935, 127.218969 -30.884724, 127.208425 -30.885511, 127.197881 -30.886297, 127.187337 -30.887083, 127.176792 -30.887868, 127.166247 -30.888652, 127.155702 -30.889435, 127.145157 -30.890217, 127.134612 -30.890998, 127.124067 -30.891779, 127.113521 -30.892558, 127.102975 -30.893337, 127.092430 -30.894115, 127.081883 -30.894892, 127.071337 -30.895668, 127.060791 -30.896444, 127.050244 -30.897218, 127.039697 -30.897992, 127.029150 -30.898765, 127.018603 -30.899536, 127.008056 -30.900308, 126.997509 -30.901078, 126.986961 -30.901847, 126.976413 -30.902616, 126.965865 -30.903383, 126.955317 -30.904150, 126.944769 -30.904916, 126.934220 -30.905681, 126.923672 -30.906445, 126.913123 -30.907209, 126.902574 -30.907971, 126.892025 -30.908733, 126.881475 -30.909494, 126.870926 -30.910254, 126.860376 -30.911013, 126.849827 -30.911771, 126.839277 -30.912528, 126.828726 -30.913285, 126.818176 -30.914041, 126.807626 -30.914795, 126.797075 -30.915549, 126.786524 -30.916302, 126.775973 -30.917055, 126.765422 -30.917806, 126.754871 -30.918557, 126.744319 -30.919306, 126.733768 -30.920055, 126.723216 -30.920803, 126.712664 -30.921550, 126.702112 -30.922296, 126.691559 -30.923042, 126.681007 -30.923786, 126.670454 -30.924530, 126.659902 -30.925273, 126.649349 -30.926015, 126.638795 -30.926756, 126.628242 -30.927496, 126.617689 -30.928236, 126.607135 -30.928974, 126.596581 -30.929712, 126.586027 -30.930449, 126.575473 -30.931185, 126.564919 -30.931920, 126.554365 -30.932654, 126.543810 -30.933387, 126.533255 -30.934120, 126.522700 -30.934852, 126.512145 -30.935582, 126.501590 -30.936312, 126.491035 -30.937041, 126.480479 -30.937770, 126.469923 -30.938497, 126.459368 -30.939224, 126.448812 -30.939949, 126.438255 -30.940674, 126.427699 -30.941398, 126.417143 -30.942121, 126.406586 -30.942843, 126.396029 -30.943565, 126.385472 -30.944285, 126.374915 -30.945005, 126.364358 -30.945724, 126.353800 -30.946442, 126.343242 -30.947159, 126.332685 -30.947875, 126.322127 -30.948590, 126.311569 -30.949305, 126.301010 -30.950019, 126.290452 -30.950731, 126.279893 -30.951443, 126.269335 -30.952155, 126.258776 -30.952865, 126.248217 -30.953574, 126.237658 -30.954283, 126.227098 -30.954990, 126.216539 -30.955697, 126.205979 -30.956403, 126.195419 -30.957108, 126.184859 -30.957812, 126.174299 -30.958516, 126.163739 -30.959218, 126.153178 -30.959920, 126.142618 -30.960621, 126.132057 -30.961321, 126.121496 -30.962020, 126.110935 -30.962718, 126.100374 -30.963415, 126.089812 -30.964112, 126.079251 -30.964807, 126.068689 -30.965502, 126.058127 -30.966196, 126.047565 -30.966889, 126.037003 -30.967581, 126.026441 -30.968273, 126.015878 -30.968963, 126.005316 -30.969653, 125.994753 -30.970342, 125.984190 -30.971029, 125.973627 -30.971716, 125.963064 -30.972403, 125.952500 -30.973088, 125.941937 -30.973772, 125.931373 -30.974456, 125.920809 -30.975139, 125.910246 -30.975821, 125.899681 -30.976502, 125.889117 -30.977182, 125.878553 -30.977861, 125.867988 -30.978540, 125.857423 -30.979217, 125.846859 -30.979894, 125.836294 -30.980570, 125.825728 -30.981245, 125.815163 -30.981919, 125.804598 -30.982592, 125.794032 -30.983265, 125.783466 -30.983936, 125.772900 -30.984607, 125.762334 -30.985277, 125.751768 -30.985946, 125.741202 -30.986614, 125.730635 -30.987281, 125.720068 -30.987948, 125.709502 -30.988613, 125.698935 -30.989278, 125.688368 -30.989942, 125.677800 -30.990605, 125.667233 -30.991267, 125.656665 -30.991928, 125.646098 -30.992588, 125.635530 -30.993248, 125.624962 -30.993907, 125.614394 -30.994565, 125.603826 -30.995221, 125.593257 -30.995878, 125.582689 -30.996533, 125.572120 -30.997187, 125.561551 -30.997841, 125.550982 -30.998493, 125.540413 -30.999145, 125.529844 -30.999796, 125.519274 -31.000446, 125.508705 -31.001095, 125.498135 -31.001744, 125.487565 -31.002391, 125.476995 -31.003038, 125.466425 -31.003683, 125.455855 -31.004328, 125.445284 -31.004972, 125.434714 -31.005616, 125.424143 -31.006258, 125.413572 -31.006899, 125.403001 -31.007540, 125.392430 -31.008180, 125.381859 -31.008819, 125.371287 -31.009457, 125.360716 -31.010094, 125.350144 -31.010730, 125.339572 -31.011365, 125.329000 -31.012000, 125.318447 -31.011440, 125.307895 -31.010879, 125.297342 -31.010317, 125.286790 -31.009754, 125.276238 -31.009190, 125.265686 -31.008625, 125.255134 -31.008060, 125.244582 -31.007494, 125.234030 -31.006926, 125.223479 -31.006358, 125.212927 -31.005789, 125.202376 -31.005220, 125.191825 -31.004649, 125.181274 -31.004078, 125.170723 -31.003505, 125.160172 -31.002932, 125.149621 -31.002358, 125.139071 -31.001783, 125.128520 -31.001207, 125.117970 -31.000631, 125.107420 -31.000053, 125.096870 -30.999475, 125.086320 -30.998896, 125.075770 -30.998316, 125.065220 -30.997735, 125.054671 -30.997153, 125.044122 -30.996571, 125.033572 -30.995987, 125.023023 -30.995403, 125.012474 -30.994818, 125.001925 -30.994232, 124.991377 -30.993645, 124.980828 -30.993057, 124.970279 -30.992468, 124.959731 -30.991879, 124.949183 -30.991289, 124.938635 -30.990697, 124.928087 -30.990105, 124.917539 -30.989512, 124.906991 -30.988919, 124.896444 -30.988324, 124.885896 -30.987729, 124.875349 -30.987132, 124.864802 -30.986535, 124.854255 -30.985937, 124.843708 -30.985338, 124.833161 -30.984738, 124.822614 -30.984138, 124.812068 -30.983536, 124.801521 -30.982934, 124.790975 -30.982331, 124.780429 -30.981727, 124.769883 -30.981122, 124.759337 -30.980516, 124.748791 -30.979910, 124.738246 -30.979302, 124.727700 -30.978694, 124.717155 -30.978085, 124.706610 -30.977475, 124.696065 -30.976864, 124.685520 -30.976252, 124.674975 -30.975639, 124.664431 -30.975026, 124.653886 -30.974412, 124.643342 -30.973796, 124.632797 -30.973180, 124.622253 -30.972564, 124.611709 -30.971946, 124.601166 -30.971327, 124.590622 -30.970708, 124.580078 -30.970087, 124.569535 -30.969466, 124.558992 -30.968844, 124.548449 -30.968221, 124.537906 -30.967598, 124.527363 -30.966973, 124.516820 -30.966348, 124.506277 -30.965721, 124.495735 -30.965094, 124.485193 -30.964466, 124.474650 -30.963837, 124.464108 -30.963208, 124.453567 -30.962577, 124.443025 -30.961946, 124.432483 -30.961313, 124.421942 -30.960680, 124.411400 -30.960046, 124.400859 -30.959411, 124.390318 -30.958776, 124.379777 -30.958139, 124.369236 -30.957502, 124.358696 -30.956863, 124.348155 -30.956224, 124.337615 -30.955584, 124.327075 -30.954943, 124.316535 -30.954302, 124.305995 -30.953659, 124.295455 -30.953016, 124.284915 -30.952371, 124.274376 -30.951726, 124.263836 -30.951080, 124.253297 -30.950434, 124.242758 -30.949786, 124.232219 -30.949137, 124.221680 -30.948488, 124.211142 -30.947838, 124.200603 -30.947187, 124.190065 -30.946535, 124.179527 -30.945882, 124.168989 -30.945228, 124.158451 -30.944574, 124.147913 -30.943918, 124.137375 -30.943262, 124.126838 -30.942605, 124.116301 -30.941947, 124.105763 -30.941288, 124.095226 -30.940628, 124.084689 -30.939968, 124.074153 -30.939307, 124.063616 -30.938644, 124.053080 -30.937981, 124.042543 -30.937317, 124.032007 -30.936653, 124.021471 -30.935987, 124.010935 -30.935320, 124.000399 -30.934653, 123.989864 -30.933985, 123.979328 -30.933316, 123.968793 -30.932646, 123.958258 -30.931975, 123.947723 -30.931304, 123.937188 -30.930631, 123.926653 -30.929958, 123.916119 -30.929284, 123.905584 -30.928609, 123.895050 -30.927933, 123.884516 -30.927256, 123.873982 -30.926578, 123.863448 -30.925900, 123.852915 -30.925221, 123.842381 -30.924541, 123.831848 -30.923860, 123.821315 -30.923178, 123.810782 -30.922495, 123.800249 -30.921811, 123.789716 -30.921127, 123.779183 -30.920442, 123.768651 -30.919756, 123.758118 -30.919069, 123.747586 -30.918381, 123.737054 -30.917692, 123.726522 -30.917003, 123.715991 -30.916312, 123.705459 -30.915621, 123.694928 -30.914929, 123.684397 -30.914236, 123.673866 -30.913542, 123.663335 -30.912847, 123.652804 -30.912152, 123.642273 -30.911456, 123.631743 -30.910758, 123.621212 -30.910060, 123.610682 -30.909361, 123.600152 -30.908662, 123.589622 -30.907961, 123.579093 -30.907259, 123.568563 -30.906557, 123.558034 -30.905854, 123.547504 -30.905150, 123.536975 -30.904445, 123.526446 -30.903739, 123.515918 -30.903033, 123.505389 -30.902325, 123.494861 -30.901617, 123.484332 -30.900908, 123.473804 -30.900198, 123.463276 -30.899487, 123.452748 -30.898775, 123.442221 -30.898063, 123.431693 -30.897349, 123.421166 -30.896635, 123.410638 -30.895920, 123.400111 -30.895204, 123.389585 -30.894487, 123.379058 -30.893769, 123.368531 -30.893051, 123.358005 -30.892331, 123.347478 -30.891611, 123.336952 -30.890890, 123.326426 -30.890168, 123.315901 -30.889445, 123.305375 -30.888722, 123.294850 -30.887997, 123.284324 -30.887272, 123.273799 -30.886546, 123.263274 -30.885819, 123.252749 -30.885091, 123.242225 -30.884362, 123.231700 -30.883632, 123.221176 -30.882902, 123.210652 -30.882170, 123.200127 -30.881438, 123.189604 -30.880705, 123.179080 -30.879971, 123.168556 -30.879237, 123.158033 -30.878501, 123.147510 -30.877765, 123.136987 -30.877027, 123.126464 -30.876289, 123.115941 -30.875550, 123.105418 -30.874811, 123.094896 -30.874070, 123.084374 -30.873328, 123.073852 -30.872586, 123.063330 -30.871843, 123.052808 -30.871099, 123.042286 -30.870354, 123.031765 -30.869608, 123.021244 -30.868861, 123.010723 -30.868114, 123.000202 -30.867365, 122.989681 -30.866616, 122.979160 -30.865866, 122.968640 -30.865115, 122.958120 -30.864364, 122.947599 -30.863611, 122.937079 -30.862858, 122.926560 -30.862103, 122.916040 -30.861348, 122.905521 -30.860592, 122.895001 -30.859835, 122.884482 -30.859078, 122.873963 -30.858319, 122.863444 -30.857560, 122.852926 -30.856800, 122.842407 -30.856038, 122.831889 -30.855276, 122.821371 -30.854514, 122.810853 -30.853750, 122.800335 -30.852986, 122.789818 -30.852220, 122.779300 -30.851454, 122.768783 -30.850687, 122.758266 -30.849919, 122.747749 -30.849150, 122.737232 -30.848381, 122.726715 -30.847610, 122.716199 -30.846839, 122.705683 -30.846067, 122.695167 -30.845294, 122.684651 -30.844520, 122.674135 -30.843745, 122.663619 -30.842970, 122.653104 -30.842193, 122.642589 -30.841416, 122.632073 -30.840638, 122.621559 -30.839859, 122.611044 -30.839079, 122.600529 -30.838299, 122.590015 -30.837517, 122.579501 -30.836735, 122.568987 -30.835952, 122.558473 -30.835168, 122.547959 -30.834383, 122.537445 -30.833597, 122.526932 -30.832811, 122.516419 -30.832023, 122.505906 -30.831235, 122.495393 -30.830446, 122.484880 -30.829656, 122.474368 -30.828865, 122.463855 -30.828073, 122.453343 -30.827281, 122.442831 -30.826487, 122.432319 -30.825693, 122.421808 -30.824898, 122.411296 -30.824102, 122.400785 -30.823305, 122.390274 -30.822508, 122.379763 -30.821709, 122.369252 -30.820910, 122.358742 -30.820110, 122.348231 -30.819309, 122.337721 -30.818507, 122.327211 -30.817704, 122.316701 -30.816901, 122.306191 -30.816096, 122.295682 -30.815291, 122.285172 -30.814485, 122.274663 -30.813678, 122.264154 -30.812870, 122.253645 -30.812062, 122.243137 -30.811252, 122.232628 -30.810442, 122.222120 -30.809631, 122.211612 -30.808819, 122.201104 -30.808006, 122.190596 -30.807192, 122.180089 -30.806377, 122.169581 -30.805562, 122.159074 -30.804746, 122.148567 -30.803929, 122.138060 -30.803111, 122.127553 -30.802292, 122.117047 -30.801472, 122.106540 -30.800652, 122.096034 -30.799830, 122.085528 -30.799008, 122.075023 -30.798185, 122.064517 -30.797361, 122.054011 -30.796536, 122.043506 -30.795711, 122.033001 -30.794884, 122.022496 -30.794057, 122.011992 -30.793229, 122.001487 -30.792400, 121.990983 -30.791570, 121.980478 -30.790739, 121.969974 -30.789908, 121.959471 -30.789076, 121.948967 -30.788242, 121.938464 -30.787408, 121.927960 -30.786573, 121.917457 -30.785738, 121.906954 -30.784901, 121.896452 -30.784064, 121.885949 -30.783225, 121.875447 -30.782386, 121.864945 -30.781546, 121.854443 -30.780705, 121.843941 -30.779864, 121.833439 -30.779021, 121.822938 -30.778178, 121.812437 -30.777334, 121.801936 -30.776489, 121.791435 -30.775643, 121.780934 -30.774796, 121.770433 -30.773948, 121.759933 -30.773100, 121.749433 -30.772250, 121.738933 -30.771400, 121.728433 -30.770549, 121.717934 -30.769698, 121.707434 -30.768845, 121.696935 -30.767991, 121.686436 -30.767137, 121.675937 -30.766282, 121.665439 -30.765426, 121.654940 -30.764569, 121.644442 -30.763711, 121.633944 -30.762852, 121.623446 -30.761993, 121.612948 -30.761133, 121.602451 -30.760272, 121.591953 -30.759410, 121.581456 -30.758547, 121.570959 -30.757683, 121.560462 -30.756819, 121.549966 -30.755953, 121.539469 -30.755087, 121.528973 -30.754220, 121.518477 -30.753352, 121.507981 -30.752483, 121.497486 -30.751614, 121.486990 -30.750743, 121.476495 -30.749872, 121.466000 -30.749000, 121.455827 -30.751375, 121.445653 -30.753750, 121.435478 -30.756123, 121.425303 -30.758496, 121.415128 -30.760868, 121.404952 -30.763239, 121.394776 -30.765610, 121.384599 -30.767980, 121.374421 -30.770348, 121.364243 -30.772717, 121.354065 -30.775084, 121.343886 -30.777450, 121.333707 -30.779816, 121.323527 -30.782181, 121.313346 -30.784545, 121.303165 -30.786908, 121.292984 -30.789271, 121.282802 -30.791633, 121.272619 -30.793994, 121.262436 -30.796354, 121.252253 -30.798713, 121.242069 -30.801072, 121.231885 -30.803429, 121.221700 -30.805786, 121.211514 -30.808142, 121.201328 -30.810498, 121.191142 -30.812852, 121.180955 -30.815206, 121.170768 -30.817559, 121.160580 -30.819911, 121.150391 -30.822263, 121.140202 -30.824613, 121.130013 -30.826963, 121.119823 -30.829312, 121.109633 -30.831660, 121.099442 -30.834007, 121.089250 -30.836354, 121.079058 -30.838700, 121.068866 -30.841045, 121.058673 -30.843389, 121.048480 -30.845732, 121.038286 -30.848075, 121.028091 -30.850417, 121.017896 -30.852758, 121.007701 -30.855098, 120.997505 -30.857437, 120.987309 -30.859776, 120.977112 -30.862114, 120.966914 -30.864451, 120.956717 -30.866787, 120.946518 -30.869122, 120.936319 -30.871457, 120.926120 -30.873791, 120.915920 -30.876124, 120.905720 -30.878456, 120.895519 -30.880787, 120.885317 -30.883118, 120.875116 -30.885448, 120.864913 -30.887777, 120.854710 -30.890105, 120.844507 -30.892432, 120.834303 -30.894759, 120.824099 -30.897085, 120.813894 -30.899410, 120.803689 -30.901734, 120.793483 -30.904057, 120.783276 -30.906380, 120.773070 -30.908702, 120.762862 -30.911023, 120.752655 -30.913343, 120.742446 -30.915662, 120.732237 -30.917981, 120.722028 -30.920299, 120.711818 -30.922616, 120.701608 -30.924932, 120.691397 -30.927247, 120.681186 -30.929562, 120.670974 -30.931876, 120.660762 -30.934189, 120.650549 -30.936501, 120.640336 -30.938812, 120.630122 -30.941123, 120.619908 -30.943432, 120.609693 -30.945741, 120.599478 -30.948050, 120.589262 -30.950357, 120.579046 -30.952663, 120.568829 -30.954969, 120.558612 -30.957274, 120.548395 -30.959578, 120.538176 -30.961882, 120.527958 -30.964184, 120.517739 -30.966486, 120.507519 -30.968787, 120.497299 -30.971087, 120.487078 -30.973386, 120.476857 -30.975685, 120.466635 -30.977982, 120.456413 -30.980279, 120.446191 -30.982575, 120.435968 -30.984871, 120.425744 -30.987165, 120.415520 -30.989459, 120.405295 -30.991752, 120.395070 -30.994044, 120.384845 -30.996335, 120.374619 -30.998626, 120.364392 -31.000915, 120.354165 -31.003204, 120.343937 -31.005492, 120.333709 -31.007779, 120.323481 -31.010066, 120.313252 -31.012351, 120.303022 -31.014636, 120.292792 -31.016920, 120.282562 -31.019203, 120.272331 -31.021486, 120.262100 -31.023767, 120.251868 -31.026048, 120.241635 -31.028328, 120.231402 -31.030607, 120.221169 -31.032886, 120.210935 -31.035163, 120.200701 -31.037440, 120.190466 -31.039716, 120.180230 -31.041991, 120.169995 -31.044265, 120.159758 -31.046539, 120.149521 -31.048812, 120.139284 -31.051084, 120.129046 -31.053355, 120.118808 -31.055625, 120.108569 -31.057894, 120.098330 -31.060163, 120.088090 -31.062431, 120.077850 -31.064698, 120.067609 -31.066964, 120.057368 -31.069230, 120.047126 -31.071494, 120.036884 -31.073758, 120.026641 -31.076021, 120.016398 -31.078283, 120.006154 -31.080545, 119.995910 -31.082805, 119.985666 -31.085065, 119.975420 -31.087324, 119.965175 -31.089582, 119.954929 -31.091839, 119.944682 -31.094096, 119.934435 -31.096352, 119.924187 -31.098606, 119.913939 -31.100861, 119.903691 -31.103114, 119.893442 -31.105366, 119.883192 -31.107618, 119.872942 -31.109869, 119.862692 -31.112119, 119.852441 -31.114368, 119.842189 -31.116616, 119.831938 -31.118864, 119.821685 -31.121111, 119.811432 -31.123357, 119.801179 -31.125602, 119.790925 -31.127846, 119.780671 -31.130090, 119.770416 -31.132333, 119.760160 -31.134575, 119.749905 -31.136816, 119.739648 -31.139056, 119.729391 -31.141295, 119.719134 -31.143534, 119.708876 -31.145772, 119.698618 -31.148009, 119.688359 -31.150245, 119.678100 -31.152481, 119.667841 -31.154715, 119.657580 -31.156949, 119.647320 -31.159182, 119.637059 -31.161414, 119.626797 -31.163645, 119.616535 -31.165876, 119.606272 -31.168106, 119.596009 -31.170335, 119.585746 -31.172563, 119.575482 -31.174790, 119.565217 -31.177016, 119.554952 -31.179242, 119.544687 -31.181467, 119.534421 -31.183691, 119.524154 -31.185914, 119.513887 -31.188137, 119.503620 -31.190358, 119.493352 -31.192579, 119.483083 -31.194799, 119.472815 -31.197018, 119.462545 -31.199236, 119.452275 -31.201454, 119.442005 -31.203670, 119.431734 -31.205886, 119.421463 -31.208101, 119.411191 -31.210316, 119.400919 -31.212529, 119.390646 -31.214742, 119.380373 -31.216953, 119.370100 -31.219164, 119.359825 -31.221374, 119.349551 -31.223584, 119.339276 -31.225792, 119.329000 -31.228000, 119.318823 -31.230507, 119.308646 -31.233013, 119.298469 -31.235519, 119.288291 -31.238024, 119.278112 -31.240527, 119.267933 -31.243031, 119.257753 -31.245533, 119.247573 -31.248034, 119.237392 -31.250535, 119.227211 -31.253035, 119.217029 -31.255534, 119.206846 -31.258032, 119.196663 -31.260530, 119.186480 -31.263026, 119.176296 -31.265522, 119.166111 -31.268017, 119.155926 -31.270512, 119.145740 -31.273005, 119.135554 -31.275498, 119.125367 -31.277990, 119.115180 -31.280481, 119.104992 -31.282971, 119.094804 -31.285460, 119.084615 -31.287949, 119.074426 -31.290437, 119.064236 -31.292924, 119.054045 -31.295410, 119.043854 -31.297895, 119.033662 -31.300380, 119.023470 -31.302864, 119.013278 -31.305347, 119.003084 -31.307829, 118.992891 -31.310310, 118.982696 -31.312791, 118.972502 -31.315271, 118.962306 -31.317750, 118.952110 -31.320228, 118.941914 -31.322705, 118.931717 -31.325182, 118.921519 -31.327658, 118.911321 -31.330133, 118.901123 -31.332607, 118.890924 -31.335080, 118.880724 -31.337553, 118.870524 -31.340024, 118.860323 -31.342495, 118.850122 -31.344965, 118.839920 -31.347435, 118.829718 -31.349903, 118.819515 -31.352371, 118.809312 -31.354838, 118.799108 -31.357304, 118.788903 -31.359769, 118.778698 -31.362234, 118.768493 -31.364697, 118.758287 -31.367160, 118.748080 -31.369622, 118.737873 -31.372083, 118.727665 -31.374544, 118.717457 -31.377003, 118.707248 -31.379462, 118.697039 -31.381920, 118.686829 -31.384377, 118.676619 -31.386834, 118.666408 -31.389289, 118.656197 -31.391744, 118.645985 -31.394198, 118.635772 -31.396651, 118.625559 -31.399103, 118.615346 -31.401555, 118.605132 -31.404006, 118.594917 -31.406455, 118.584702 -31.408905, 118.574486 -31.411353, 118.564270 -31.413800, 118.554053 -31.416247, 118.543836 -31.418693, 118.533618 -31.421138, 118.523400 -31.423582, 118.513181 -31.426026, 118.502961 -31.428468, 118.492742 -31.430910, 118.482521 -31.433351, 118.472300 -31.435791, 118.462079 -31.438230, 118.451856 -31.440669, 118.441634 -31.443107, 118.431411 -31.445544, 118.421187 -31.447980, 118.410963 -31.450415, 118.400738 -31.452850, 118.390513 -31.455283, 118.380287 -31.457716, 118.370061 -31.460148, 118.359834 -31.462579, 118.349607 -31.465010, 118.339379 -31.467439, 118.329150 -31.469868, 118.318921 -31.472296, 118.308692 -31.474723, 118.298462 -31.477150, 118.288231 -31.479575, 118.278000 -31.482000, 118.267447 -31.483197, 118.256894 -31.484393, 118.246341 -31.485589, 118.235788 -31.486783, 118.225234 -31.487977, 118.214680 -31.489170, 118.204126 -31.490362, 118.193571 -31.491553, 118.183016 -31.492743, 118.172461 -31.493933, 118.161906 -31.495121, 118.151350 -31.496309, 118.140794 -31.497496, 118.130238 -31.498682, 118.119682 -31.499867, 118.109125 -31.501051, 118.098568 -31.502234, 118.088011 -31.503416, 118.077454 -31.504598, 118.066896 -31.505779, 118.056338 -31.506959, 118.045779 -31.508138, 118.035221 -31.509316, 118.024662 -31.510493, 118.014103 -31.511669, 118.003544 -31.512845, 117.992984 -31.514019, 117.982424 -31.515193, 117.971864 -31.516366, 117.961304 -31.517538, 117.950743 -31.518709, 117.940182 -31.519880, 117.929621 -31.521049, 117.919059 -31.522218, 117.908498 -31.523385, 117.897936 -31.524552, 117.887373 -31.525718, 117.876811 -31.526883, 117.866248 -31.528047, 117.855685 -31.529211, 117.845122 -31.530373, 117.834558 -31.531535, 117.823994 -31.532696, 117.813430 -31.533856, 117.802866 -31.535015, 117.792301 -31.536173, 117.781736 -31.537330, 117.771171 -31.538486, 117.760606 -31.539642, 117.750040 -31.540797, 117.739474 -31.541950, 117.728908 -31.543103, 117.718341 -31.544255, 117.707775 -31.545407, 117.697208 -31.546557, 117.686640 -31.547706, 117.676073 -31.548855, 117.665505 -31.550003, 117.654937 -31.551150, 117.644369 -31.552296, 117.633800 -31.553441, 117.623231 -31.554585, 117.612662 -31.555728, 117.602093 -31.556871, 117.591523 -31.558013, 117.580954 -31.559153, 117.570384 -31.560293, 117.559813 -31.561432, 117.549243 -31.562570, 117.538672 -31.563708, 117.528101 -31.564844, 117.517529 -31.565980, 117.506958 -31.567114, 117.496386 -31.568248, 117.485813 -31.569381, 117.475241 -31.570513, 117.464668 -31.571644, 117.454095 -31.572775, 117.443522 -31.573904, 117.432949 -31.575033, 117.422375 -31.576160, 117.411801 -31.577287, 117.401227 -31.578413, 117.390653 -31.579538, 117.380078 -31.580663, 117.369503 -31.581786, 117.358928 -31.582908, 117.348352 -31.584030, 117.337776 -31.585151, 117.327200 -31.586271, 117.316624 -31.587390, 117.306048 -31.588508, 117.295471 -31.589625, 117.284894 -31.590742, 117.274317 -31.591857, 117.263739 -31.592972, 117.253161 -31.594086, 117.242583 -31.595198, 117.232005 -31.596310, 117.221427 -31.597422, 117.210848 -31.598532, 117.200269 -31.599641, 117.189690 -31.600750, 117.179110 -31.601858, 117.168530 -31.602964, 117.157950 -31.604070, 117.147370 -31.605175, 117.136789 -31.606280, 117.126209 -31.607383, 117.115628 -31.608485, 117.105046 -31.609587, 117.094465 -31.610688, 117.083883 -31.611788, 117.073301 -31.612886, 117.062719 -31.613985, 117.052136 -31.615082, 117.041553 -31.616178, 117.030970 -31.617274, 117.020387 -31.618368, 117.009803 -31.619462, 116.999220 -31.620555, 116.988636 -31.621647, 116.978051 -31.622738, 116.967467 -31.623828, 116.956882 -31.624917, 116.946297 -31.626006, 116.935712 -31.627094, 116.925126 -31.628180, 116.914540 -31.629266, 116.903954 -31.630351, 116.893368 -31.631435, 116.882782 -31.632519, 116.872195 -31.633601, 116.861608 -31.634682, 116.851021 -31.635763, 116.840433 -31.636843, 116.829845 -31.637922, 116.819257 -31.639000, 116.808669 -31.640077, 116.798081 -31.641153, 116.787492 -31.642228, 116.776903 -31.643303, 116.766314 -31.644377, 116.755724 -31.645449, 116.745135 -31.646521, 116.734545 -31.647592, 116.723955 -31.648662, 116.713364 -31.649732, 116.702773 -31.650800, 116.692183 -31.651868, 116.681591 -31.652934, 116.671000 -31.654000, 116.661260 -31.657609, 116.651519 -31.661217, 116.641778 -31.664824, 116.632035 -31.668431, 116.622292 -31.672037, 116.612548 -31.675642, 116.602804 -31.679246, 116.593058 -31.682850, 116.583312 -31.686453, 116.573565 -31.690055, 116.563818 -31.693656, 116.554069 -31.697257, 116.544320 -31.700857, 116.534570 -31.704456, 116.524820 -31.708055, 116.515068 -31.711652, 116.505316 -31.715249, 116.495563 -31.718845, 116.485810 -31.722441, 116.476055 -31.726036, 116.466300 -31.729630, 116.456544 -31.733223, 116.446787 -31.736815, 116.437030 -31.740407, 116.427272 -31.743998, 116.417513 -31.747589, 116.407753 -31.751178, 116.397992 -31.754767, 116.388231 -31.758355, 116.378469 -31.761942, 116.368706 -31.765529, 116.358943 -31.769115, 116.349179 -31.772700, 116.339414 -31.776284, 116.329648 -31.779868, 116.319881 -31.783450, 116.310114 -31.787033, 116.300346 -31.790614, 116.290577 -31.794194, 116.280807 -31.797774, 116.271037 -31.801353, 116.261266 -31.804932, 116.251494 -31.808509, 116.241722 -31.812086, 116.231948 -31.815662, 116.222174 -31.819238, 116.212399 -31.822812, 116.202624 -31.826386, 116.192847 -31.829959, 116.183070 -31.833532, 116.173292 -31.837103, 116.163514 -31.840674, 116.153734 -31.844244, 116.143954 -31.847814, 116.134173 -31.851382, 116.124391 -31.854950, 116.114609 -31.858517, 116.104826 -31.862084, 116.095042 -31.865650, 116.085257 -31.869214, 116.075472 -31.872779, 116.065685 -31.876342, 116.055899 -31.879905, 116.046111 -31.883467, 116.036322 -31.887028, 116.026533 -31.890588, 116.016743 -31.894148, 116.006952 -31.897707, 115.997161 -31.901265, 115.987368 -31.904822, 115.977575 -31.908379, 115.967782 -31.911935, 115.957987 -31.915490, 115.948192 -31.919044, 115.938396 -31.922598, 115.928599 -31.926151, 115.918801 -31.929703, 115.909003 -31.933254, 115.899204 -31.936805, 115.889404 -31.940355, 115.879603 -31.943904, 115.869802 -31.947452, 115.860000 -31.951000)
