LINESTRING (37.656000 55.774000, 37.681793 55.760419, 37.707567 55.746833, 37.733324 55.733241, 37.759063 55.719644, 37.784784 55.706041, 37.810487 55.692434, 37.836172 55.678820, 37.861839 55.665202, 37.887489 55.651578, 37.913120 55.637949, 37.938734 55.624314, 37.964330 55.610674, 37.989908 55.597029, 38.015468 55.583378, 38.041011 55.569722, 38.066536 55.556061, 38.092043 55.542394, 38.117532 55.528723, 38.143003 55.515046, 38.168457 55.501363, 38.193894 55.487676, 38.219312 55.473983, 38.244713 55.460284, 38.270096 55.446581, 38.295462 55.432872, 38.320810 55.419158, 38.346140 55.405439, 38.371453 55.391715, 38.396748 55.377985, 38.422026 55.364250, 38.447286 55.350510, 38.472529 55.336765, 38.497754 55.323015, 38.522961 55.309259, 38.548151 55.295498, 38.573324 55.281732, 38.598479 55.267961, 38.623617 55.254185, 38.648737 55.240403, 38.673840 55.226616, 38.698926 55.212825, 38.723994 55.199028, 38.749045 55.185226, 38.774078 55.171418, 38.799094 55.157606, 38.824093 55.143788, 38.849074 55.129966, 38.874038 55.116138, 38.898985 55.102305, 38.923915 55.088468, 38.948827 55.074625, 38.973722 55.060777, 38.998600 55.046923, 39.023461 55.033065, 39.048304 55.019202, 39.073131 55.005334, 39.097940 54.991460, 39.122732 54.977582, 39.147507 54.963698, 39.172264 54.949810, 39.197005 54.935916, 39.221728 54.922018, 39.246435 54.908114, 39.271124 54.894206, 39.295797 54.880292, 39.320452 54.866374, 39.345090 54.852450, 39.369712 54.838522, 39.394316 54.824588, 39.418903 54.810650, 39.443474 54.796706, 39.468027 54.782758, 39.492563 54.768805, 39.517083 54.754846, 39.541586 54.740883, 39.566071 54.726915, 39.590540 54.712942, 39.614992 54.698964, 39.639427 54.684981, 39.663846 54.670993, 39.688247 54.657000, 39.712632 54.643003, 39.737000 54.629000, 39.744024 54.609413, 39.751041 54.589826, 39.758052 54.570239, 39.765055 54.550651, 39.772052 54.531063, 39.779043 54.511474, 39.786026 54.491885, 39.793003 54.472296, 39.799973 54.452706, 39.806937 54.433115, 39.813894 54.413525, 39.820844 54.393934, 39.827788 54.374342, 39.834725 54.354750, 39.841655 54.335158, 39.848579 54.315566, 39.855496 54.295972, 39.862407 54.276379, 39.869311 54.256785, 39.876208 54.237191, 39.883099 54.217596, 39.889983 54.198001, 39.896861 54.178406, 39.903733 54.158810, 39.910597 54.139214, 39.917456 54.119617, 39.924308 54.100020, 39.931153 54.080423, 39.937992 54.060825, 39.944824 54.041227, 39.951651 54.021629, 39.958470 54.002030, 39.965283 53.982430, 39.972090 53.962831, 39.978891 53.943231, 39.985685 53.923630, 39.992472 53.904029, 39.999253 53.884428, 40.006028 53.864826, 40.012797 53.845224, 40.019559 53.825622, 40.026315 53.806019, 40.033065 53.786416, 40.039808 53.766813, 40.046545 53.747209, 40.053276 53.727605, 40.060000 53.708000, 40.093432 53.705271, 40.126860 53.702533, 40.160284 53.699786, 40.193703 53.697029, 40.227118 53.694263, 40.260528 53.691488, 40.293934 53.688703, 40.327336 53.685909, 40.360733 53.683106, 40.394126 53.680294, 40.427514 53.677472, 40.460898 53.674641, 40.494277 53.671801, 40.527652 53.668951, 40.561022 53.666092, 40.594388 53.663224, 40.627749 53.660347, 40.661105 53.657460, 40.694457 53.654564, 40.727805 53.651659, 40.761148 53.648744, 40.794486 53.645820, 40.827819 53.642887, 40.861148 53.639945, 40.894473 53.636994, 40.927792 53.634033, 40.961107 53.631063, 40.994417 53.628084, 41.027723 53.625095, 41.061024 53.622097, 41.094320 53.619090, 41.127611 53.616074, 41.160897 53.613049, 41.194179 53.610014, 41.227456 53.606970, 41.260728 53.603917, 41.293996 53.600854, 41.327258 53.597783, 41.360516 53.594702, 41.393769 53.591612, 41.427017 53.588512, 41.460260 53.585404, 41.493498 53.582286, 41.526731 53.579159, 41.559959 53.576023, 41.593183 53.572878, 41.626401 53.569723, 41.659615 53.566560, 41.692823 53.563387, 41.726027 53.560205, 41.759225 53.557013, 41.792419 53.553813, 41.825607 53.550603, 41.858791 53.547384, 41.891969 53.544156, 41.925142 53.540919, 41.958310 53.537672, 41.991474 53.534417, 42.024632 53.531152, 42.057785 53.527878, 42.090932 53.524595, 42.124075 53.521303, 42.157212 53.518001, 42.190345 53.514691, 42.223472 53.511371, 42.256594 53.508042, 42.289710 53.504704, 42.322822 53.501357, 42.355928 53.498000, 42.389029 53.494635, 42.422125 53.491260, 42.455215 53.487876, 42.488301 53.484483, 42.521380 53.481081, 42.554455 53.477670, 42.587524 53.474250, 42.620588 53.470820, 42.653647 53.467382, 42.686700 53.463934, 42.719748 53.460477, 42.752790 53.457011, 42.785827 53.453536, 42.818859 53.450052, 42.851885 53.446558, 42.884906 53.443056, 42.917921 53.439545, 42.950931 53.436024, 42.983935 53.432494, 43.016934 53.428956, 43.049927 53.425408, 43.082915 53.421851, 43.115898 53.418285, 43.148874 53.414709, 43.181846 53.411125, 43.214811 53.407532, 43.247771 53.403930, 43.280726 53.400318, 43.313675 53.396698, 43.346618 53.393068, 43.379556 53.389429, 43.412488 53.385782, 43.445414 53.382125, 43.478335 53.378459, 43.511250 53.374784, 43.544159 53.371100, 43.577063 53.367407, 43.609961 53.363705, 43.642853 53.359994, 43.675740 53.356274, 43.708621 53.352545, 43.741496 53.348807, 43.774365 53.345059, 43.807228 53.341303, 43.840086 53.337538, 43.872938 53.333763, 43.905784 53.329980, 43.938624 53.326188, 43.971458 53.322386, 44.004287 53.318576, 44.037109 53.314757, 44.069926 53.310928, 44.102737 53.307091, 44.135542 53.303244, 44.168341 53.299389, 44.201134 53.295525, 44.233921 53.291651, 44.266702 53.287769, 44.299478 53.283878, 44.332247 53.279977, 44.365010 53.276068, 44.397767 53.272150, 44.430519 53.268222, 44.463264 53.264286, 44.496003 53.260341, 44.528736 53.256387, 44.561463 53.252423, 44.594184 53.248451, 44.626899 53.244470, 44.659608 53.240480, 44.692311 53.236481, 44.725007 53.232473, 44.757698 53.228457, 44.790382 53.224431, 44.823061 53.220396, 44.855733 53.216352, 44.888398 53.212300, 44.921058 53.208238, 44.953712 53.204168, 44.986359 53.200088, 45.019000 53.196000, 45.052502 53.196110, 45.086005 53.196211, 45.119507 53.196302, 45.153010 53.196384, 45.186513 53.196457, 45.220016 53.196520, 45.253519 53.196574, 45.287022 53.196618, 45.320525 53.196653, 45.354028 53.196678, 45.387531 53.196694, 45.421034 53.196701, 45.454538 53.196699, 45.488041 53.196687, 45.521544 53.196665, 45.555047 53.196634, 45.588550 53.196594, 45.622053 53.196544, 45.655556 53.196485, 45.689059 53.196417, 45.722562 53.196339, 45.756065 53.196252, 45.789567 53.196155, 45.823069 53.196049, 45.856571 53.195934, 45.890073 53.195809, 45.923575 53.195675, 45.957077 53.195531, 45.990578 53.195378, 46.024079 53.195216, 46.057580 53.195044, 46.091080 53.194863, 46.124580 53.194672, 46.158080 53.194472, 46.191580 53.194263, 46.225079 53.194044, 46.258578 53.193816, 46.292077 53.193579, 46.325575 53.193332, 46.359073 53.193075, 46.392570 53.192810, 46.426067 53.192534, 46.459563 53.192250, 46.493059 53.191956, 46.526555 53.191653, 46.560050 53.191340, 46.593545 53.191018, 46.627039 53.190686, 46.660532 53.190345, 46.694026 53.189995, 46.727518 53.189636, 46.761010 53.189266, 46.794501 53.188888, 46.827992 53.188500, 46.861482 53.188103, 46.894972 53.187696, 46.928460 53.187280, 46.961949 53.186855, 46.995436 53.186420, 47.028923 53.185976, 47.062409 53.185522, 47.095894 53.185059, 47.129379 53.184587, 47.162863 53.184105, 47.196346 53.183614, 47.229829 53.183114, 47.263310 53.182604, 47.296791 53.182085, 47.330271 53.181556, 47.363750 53.181018, 47.397229 53.180470, 47.430706 53.179914, 47.464183 53.179347, 47.497658 53.178772, 47.531133 53.178187, 47.564607 53.177592, 47.598080 53.176989, 47.631552 53.176376, 47.665023 53.175753, 47.698493 53.175121, 47.731962 53.174480, 47.765430 53.173829, 47.798897 53.173169, 47.832363 53.172500, 47.865828 53.171821, 47.899292 53.171133, 47.932754 53.170435, 47.966216 53.169728, 47.999677 53.169012, 48.033136 53.168287, 48.066594 53.167551, 48.100052 53.166807, 48.133508 53.166053, 48.166962 53.165290, 48.200416 53.164518, 48.233868 53.163736, 48.267320 53.162944, 48.300769 53.162144, 48.334218 53.161334, 48.367666 53.160514, 48.401112 53.159686, 48.434556 53.158847, 48.468000 53.158000, 48.501296 53.158978, 48.534593 53.159947, 48.567892 53.160907, 48.601192 53.161857, 48.634493 53.162798, 48.667796 53.163730, 48.701101 53.164652, 48.734407 53.165566, 48.767714 53.166469, 48.801023 53.167364, 48.834333 53.168249, 48.867645 53.169125, 48.900957 53.169992, 48.934272 53.170850, 48.967587 53.171698, 49.000904 53.172536, 49.034222 53.173366, 49.067542 53.174186, 49.100862 53.174997, 49.134184 53.175799, 49.167507 53.176591, 49.200832 53.177374, 49.234157 53.178148, 49.267484 53.178913, 49.300812 53.179668, 49.334141 53.180414, 49.367471 53.181150, 49.400803 53.181877, 49.434135 53.182595, 49.467469 53.183304, 49.500804 53.184003, 49.534140 53.184693, 49.567477 53.185374, 49.600814 53.186046, 49.634153 53.186708, 49.667493 53.187360, 49.700834 53.188004, 49.734176 53.188638, 49.767519 53.189263, 49.800863 53.189879, 49.834208 53.190485, 49.867554 53.191082, 49.900901 53.191670, 49.934249 53.192248, 49.967597 53.192817, 50.000947 53.193377, 50.034297 53.193927, 50.067648 53.194468, 50.101000 53.195000, 50.130910 53.203901, 50.160832 53.212794, 50.190767 53.221680, 50.220714 53.230558, 50.250674 53.239429, 50.280646 53.248292, 50.310630 53.257148, 50.340627 53.265996, 50.370636 53.274837, 50.400658 53.283670, 50.430692 53.292496, 50.460738 53.301314, 50.490797 53.310124, 50.520868 53.318927, 50.550952 53.327722, 50.581048 53.336510, 50.611156 53.345291, 50.641277 53.354063, 50.671410 53.362828, 50.701556 53.371586, 50.731714 53.380336, 50.761884 53.389078, 50.792067 53.397813, 50.822262 53.406540, 50.852470 53.415259, 50.882690 53.423971, 50.912922 53.432675, 50.943167 53.441372, 50.973424 53.450061, 51.003694 53.458742, 51.033976 53.467415, 51.064270 53.476081, 51.094576 53.484740, 51.124895 53.493390, 51.155227 53.502033, 51.185570 53.510668, 51.215926 53.519296, 51.246295 53.527916, 51.276676 53.536528, 51.307069 53.545133, 51.337474 53.553729, 51.367892 53.562318, 51.398322 53.570900, 51.428765 53.579473, 51.459220 53.588039, 51.489687 53.596597, 51.520167 53.605148, 51.550659 53.613690, 51.581163 53.622225, 51.611679 53.630752, 51.642208 53.639272, 51.672749 53.647783, 51.703303 53.656287, 51.733869 53.664783, 51.764447 53.673272, 51.795038 53.681752, 51.825641 53.690225, 51.856256 53.698690, 51.886883 53.707147, 51.917523 53.715596, 51.948175 53.724037, 51.978839 53.732471, 52.009516 53.740897, 52.040205 53.749315, 52.070906 53.757725, 52.101620 53.766127, 52.132346 53.774522, 52.163084 53.782908, 52.193834 53.791287, 52.224597 53.799658, 52.255372 53.808020, 52.286159 53.816376, 52.316959 53.824723, 52.347771 53.833062, 52.378595 53.841393, 52.409431 53.849717, 52.440280 53.858032, 52.471141 53.866340, 52.502014 53.874640, 52.532899 53.882932, 52.563797 53.891216, 52.594707 53.899491, 52.625629 53.907759, 52.656563 53.916020, 52.687510 53.924272, 52.718468 53.932516, 52.749439 53.940752, 52.780423 53.948980, 52.811418 53.957200, 52.842426 53.965413, 52.873446 53.973617, 52.904478 53.981813, 52.935522 53.990001, 52.966579 53.998182, 52.997647 54.006354, 53.028728 54.014518, 53.059821 54.022675, 53.090927 54.030823, 53.122044 54.038963, 53.153174 54.047095, 53.184316 54.055219, 53.215470 54.063335, 53.246636 54.071443, 53.277815 54.079543, 53.309005 54.087635, 53.340208 54.095719, 53.371423 54.103795, 53.402650 54.111862, 53.433889 54.119922, 53.465140 54.127973, 53.496404 54.136017, 53.527679 54.144052, 53.558967 54.152079, 53.590267 54.160098, 53.621579 54.168109, 53.652903 54.176112, 53.684239 54.184107, 53.715588 54.192093, 53.746948 54.200072, 53.778321 54.208042, 53.809705 54.216004, 53.841102 54.223958, 53.872511 54.231904, 53.903932 54.239841, 53.935365 54.247771, 53.966810 54.255692, 53.998267 54.263605, 54.029736 54.271510, 54.061218 54.279407, 54.092711 54.287295, 54.124217 54.295176, 54.155734 54.303048, 54.187264 54.310911, 54.218805 54.318767, 54.250359 54.326614, 54.281925 54.334454, 54.313502 54.342285, 54.345092 54.350107, 54.376694 54.357922, 54.408308 54.365728, 54.439933 54.373526, 54.471571 54.381315, 54.503221 54.389097, 54.534883 54.396870, 54.566557 54.404635, 54.598242 54.412391, 54.629940 54.420139, 54.661650 54.427879, 54.693372 54.435611, 54.725105 54.443334, 54.756851 54.451049, 54.788609 54.458756, 54.820378 54.466454, 54.852160 54.474144, 54.883953 54.481826, 54.915759 54.489499, 54.947576 54.497164, 54.979405 54.504820, 55.011246 54.512469, 55.043099 54.520109, 55.074964 54.527740, 55.106841 54.535363, 55.138730 54.542978, 55.170631 54.550584, 55.202544 54.558182, 55.234468 54.565772, 55.266405 54.573353, 55.298353 54.580926, 55.330313 54.588490, 55.362285 54.596046, 55.394269 54.603593, 55.426265 54.611132, 55.458272 54.618663, 55.490292 54.626185, 55.522323 54.633699, 55.554366 54.641204, 55.586421 54.648701, 55.618488 54.656189, 55.650566 54.663669, 55.682656 54.671140, 55.714759 54.678603, 55.746873 54.686057, 55.778998 54.693503, 55.811136 54.700941, 55.843285 54.708370, 55.875446 54.715790, 55.907619 54.723202, 55.939804 54.730605, 55.972000 54.738000, 56.006183 54.741480, 56.040372 54.744951, 56.074567 54.748412, 56.108768 54.751863, 56.142974 54.755305, 56.177186 54.758737, 56.211404 54.762159, 56.245628 54.765572, 56.279858 54.768975, 56.314093 54.772369, 56.348334 54.775753, 56.382581 54.779127, 56.416834 54.782492, 56.451092 54.785847, 56.485356 54.789192, 56.519626 54.792528, 56.553901 54.795854, 56.588182 54.799170, 56.622468 54.802477, 56.656760 54.805774, 56.691058 54.809061, 56.725361 54.812339, 56.759670 54.815607, 56.793984 54.818865, 56.828304 54.822114, 56.862630 54.825353, 56.896960 54.828582, 56.931297 54.831802, 56.965639 54.835012, 56.999986 54.838212, 57.034339 54.841403, 57.068697 54.844583, 57.103060 54.847755, 57.137429 54.850916, 57.171804 54.854068, 57.206183 54.857210, 57.240568 54.860342, 57.274959 54.863465, 57.309355 54.866578, 57.343756 54.869681, 57.378162 54.872774, 57.412573 54.875858, 57.446990 54.878932, 57.481412 54.881996, 57.515840 54.885051, 57.550272 54.888095, 57.584710 54.891130, 57.619153 54.894156, 57.653601 54.897171, 57.688054 54.900177, 57.722512 54.903173, 57.756976 54.906159, 57.791444 54.909136, 57.825918 54.912103, 57.860397 54.915060, 57.894880 54.918007, 57.929369 54.920945, 57.963863 54.923872, 57.998362 54.926790, 58.032866 54.929699, 58.067375 54.932597, 58.101889 54.935486, 58.136407 54.938365, 58.170931 54.941234, 58.205460 54.944093, 58.239993 54.946943, 58.274532 54.949782, 58.309075 54.952612, 58.343623 54.955433, 58.378176 54.958243, 58.412734 54.961044, 58.447296 54.963834, 58.481864 54.966615, 58.516436 54.969387, 58.551013 54.972148, 58.585595 54.974899, 58.620181 54.977641, 58.654772 54.980373, 58.689368 54.983095, 58.723968 54.985808, 58.758574 54.988510, 58.793184 54.991203, 58.827798 54.993886, 58.862417 54.996559, 58.897041 54.999222, 58.931669 55.001875, 58.966302 55.004519, 59.000939 55.007152, 59.035581 55.009776, 59.070228 55.012390, 59.104879 55.014994, 59.139534 55.017589, 59.174194 55.020173, 59.208859 55.022748, 59.243528 55.025313, 59.278201 55.027867, 59.312879 55.030413, 59.347561 55.032948, 59.382247 55.035473, 59.416938 55.037989, 59.451633 55.040494, 59.486333 55.042990, 59.521037 55.045476, 59.555745 55.047952, 59.590457 55.050418, 59.625174 55.052874, 59.659895 55.055320, 59.694620 55.057757, 59.729349 55.060184, 59.764083 55.062600, 59.798821 55.065007, 59.833563 55.067404, 59.868309 55.069791, 59.903059 55.072168, 59.937814 55.074536, 59.972572 55.076893, 60.007335 55.079240, 60.042101 55.081578, 60.076872 55.083906, 60.111647 55.086223, 60.146425 55.088531, 60.181208 55.090829, 60.215995 55.093117, 60.250786 55.095395, 60.285580 55.097664, 60.320379 55.099922, 60.355181 55.102170, 60.389988 55.104409, 60.424798 55.106637, 60.459612 55.108856, 60.494431 55.111065, 60.529252 55.113263, 60.564078 55.115452, 60.598908 55.117631, 60.633741 55.119800, 60.668578 55.121959, 60.703419 55.124108, 60.738264 55.126247, 60.773112 55.128376, 60.807964 55.130496, 60.842820 55.132605, 60.877679 55.134704, 60.912542 55.136794, 60.947409 55.138873, 60.982279 55.140943, 61.017153 55.143002, 61.052031 55.145052, 61.086912 55.147092, 61.121797 55.149121, 61.156685 55.151141, 61.191577 55.153151, 61.226472 55.155151, 61.261371 55.157140, 61.296273 55.159120, 61.331178 55.161090, 61.366087 55.163050, 61.401000 55.165000, 61.435628 55.168077, 61.470262 55.171144, 61.504901 55.174201, 61.539545 55.177248, 61.574195 55.180285, 61.608850 55.183313, 61.643510 55.186331, 61.678175 55.189339, 61.712845 55.192337, 61.747521 55.195325, 61.782202 55.198303, 61.816888 55.201272, 61.851580 55.204231, 61.886276 55.207180, 61.920978 55.210119, 61.955684 55.213048, 61.990396 55.215967, 62.025113 55.218877, 62.059835 55.221777, 62.094562 55.224666, 62.129294 55.227546, 62.164031 55.230416, 62.198773 55.233277, 62.233520 55.236127, 62.268272 55.238967, 62.303029 55.241798, 62.337791 55.244619, 62.372558 55.247429, 62.407330 55.250230, 62.442106 55.253021, 62.476888 55.255803, 62.511674 55.258574, 62.546465 55.261335, 62.581261 55.264087, 62.616062 55.266828, 62.650868 55.269560, 62.685678 55.272282, 62.720494 55.274994, 62.755314 55.277696, 62.790138 55.280388, 62.824968 55.283070, 62.859802 55.285742, 62.894641 55.288405, 62.929484 55.291057, 62.964332 55.293700, 62.999185 55.296332, 63.034042 55.298955, 63.068904 55.301568, 63.103771 55.304170, 63.138642 55.306763, 63.173517 55.309346, 63.208397 55.311919, 63.243282 55.314482, 63.278171 55.317035, 63.313065 55.319579, 63.347963 55.322112, 63.382866 55.324635, 63.417773 55.327148, 63.452684 55.329652, 63.487600 55.332145, 63.522520 55.334629, 63.557445 55.337102, 63.592374 55.339566, 63.627307 55.342020, 63.662245 55.344463, 63.697187 55.346897, 63.732133 55.349321, 63.767083 55.351734, 63.802038 55.354138, 63.836997 55.356532, 63.871960 55.358916, 63.906928 55.361289, 63.941899 55.363653, 63.976875 55.366007, 64.011855 55.368351, 64.046839 55.370685, 64.081827 55.373009, 64.116819 55.375323, 64.151816 55.377627, 64.186816 55.379921, 64.221820 55.382205, 64.256829 55.384478, 64.291841 55.386742, 64.326858 55.388996, 64.361878 55.391240, 64.396903 55.393474, 64.431931 55.395698, 64.466964 55.397912, 64.502000 55.400116, 64.537040 55.402310, 64.572084 55.404494, 64.607132 55.406667, 64.642184 55.408831, 64.677239 55.410985, 64.712299 55.413129, 64.747362 55.415262, 64.782429 55.417386, 64.817499 55.419500, 64.852574 55.421603, 64.887652 55.423697, 64.922734 55.425781, 64.957820 55.427854, 64.992909 55.429918, 65.028002 55.431971, 65.063098 55.434015, 65.098199 55.436048, 65.133302 55.438071, 65.168410 55.440084, 65.203521 55.442088, 65.238635 55.444081, 65.273753 55.446064, 65.308875 55.448037, 65.344000 55.450000, 65.378152 55.445418, 65.412296 55.440826, 65.446432 55.436225, 65.480560 55.431615, 65.514680 55.426995, 65.548793 55.422365, 65.582897 55.417726, 65.616993 55.413077, 65.651081 55.408419, 65.685161 55.403752, 65.719233 55.399075, 65.753297 55.394388, 65.787353 55.389693, 65.821401 55.384987, 65.855440 55.380272, 65.889472 55.375548, 65.923495 55.370814, 65.957510 55.366071, 65.991517 55.361319, 66.025516 55.356556, 66.059507 55.351785, 66.093490 55.347004, 66.127464 55.342214, 66.161430 55.337414, 66.195388 55.332605, 66.229337 55.327786, 66.263279 55.322958, 66.297212 55.318121, 66.331137 55.313274, 66.365053 55.308418, 66.398961 55.303552, 66.432861 55.298677, 66.466752 55.293793, 66.500636 55.288899, 66.534510 55.283996, 66.568377 55.279083, 66.602235 55.274162, 66.636084 55.269230, 66.669926 55.264290, 66.703758 55.259340, 66.737583 55.254381, 66.771399 55.249412, 66.805206 55.244434, 66.839005 55.239447, 66.872796 55.234450, 66.906578 55.229444, 66.940351 55.224428, 66.974116 55.219404, 67.007872 55.214370, 67.041620 55.209327, 67.075360 55.204274, 67.109090 55.199212, 67.142812 55.194141, 67.176526 55.189060, 67.210231 55.183970, 67.243927 55.178871, 67.277615 55.173763, 67.311294 55.168645, 67.344965 55.163518, 67.378626 55.158382, 67.412279 55.153237, 67.445924 55.148082, 67.479559 55.142918, 67.513186 55.137744, 67.546805 55.132562, 67.580414 55.127370, 67.614015 55.122169, 67.647607 55.116959, 67.681190 55.111739, 67.714765 55.106510, 67.748330 55.101272, 67.781887 55.096025, 67.815435 55.090769, 67.848975 55.085503, 67.882505 55.080228, 67.916026 55.074944, 67.949539 55.069651, 67.983043 55.064349, 68.016538 55.059037, 68.050024 55.053716, 68.083501 55.048386, 68.116969 55.043047, 68.150428 55.037698, 68.183879 55.032341, 68.217320 55.026974, 68.250753 55.021598, 68.284176 55.016213, 68.317590 55.010819, 68.350996 55.005415, 68.384392 55.000003, 68.417780 54.994581, 68.451158 54.989150, 68.484528 54.983711, 68.517888 54.978261, 68.551239 54.972803, 68.584581 54.967336, 68.617914 54.961859, 68.651238 54.956374, 68.684553 54.950879, 68.717859 54.945375, 68.751156 54.939863, 68.784443 54.934341, 68.817722 54.928810, 68.850991 54.923269, 68.884251 54.917720, 68.917502 54.912162, 68.950743 54.906595, 68.983976 54.901018, 69.017199 54.895433, 69.050413 54.889838, 69.083618 54.884234, 69.116814 54.878622, 69.150000 54.873000, 69.184744 54.874589, 69.219491 54.876169, 69.254241 54.877738, 69.288993 54.879298, 69.323748 54.880847, 69.358506 54.882387, 69.393266 54.883917, 69.428029 54.885437, 69.462795 54.886947, 69.497563 54.888447, 69.532334 54.889937, 69.567107 54.891417, 69.601883 54.892887, 69.636662 54.894348, 69.671443 54.895798, 69.706226 54.897238, 69.741012 54.898669, 69.775801 54.900090, 69.810591 54.901500, 69.845385 54.902901, 69.880180 54.904292, 69.914978 54.905672, 69.949779 54.907043, 69.984582 54.908404, 70.019387 54.909755, 70.054194 54.911096, 70.089004 54.912427, 70.123816 54.913748, 70.158631 54.915060, 70.193447 54.916361, 70.228266 54.917652, 70.263087 54.918934, 70.297911 54.920205, 70.332736 54.921466, 70.367564 54.922718, 70.402394 54.923959, 70.437226 54.925191, 70.472060 54.926412, 70.506896 54.927624, 70.541734 54.928826, 70.576574 54.930017, 70.611417 54.931199, 70.646261 54.932371, 70.681108 54.933533, 70.715956 54.934685, 70.750807 54.935827, 70.785659 54.936958, 70.820514 54.938080, 70.855370 54.939192, 70.890228 54.940294, 70.925088 54.941386, 70.959950 54.942469, 70.994814 54.943541, 71.029680 54.944603, 71.064548 54.945655, 71.099417 54.946697, 71.134288 54.947729, 71.169161 54.948751, 71.204036 54.949764, 71.238913 54.950766, 71.273791 54.951758, 71.308671 54.952740, 71.343552 54.953713, 71.378436 54.954675, 71.413321 54.955627, 71.448207 54.956570, 71.483096 54.957502, 71.517986 54.958424, 71.552877 54.959337, 71.587770 54.960239, 71.622665 54.961132, 71.657561 54.962014, 71.692458 54.962886, 71.727358 54.963749, 71.762258 54.964601, 71.797160 54.965444, 71.832064 54.966276, 71.866969 54.967099, 71.901876 54.967911, 71.936783 54.968713, 71.971693 54.969506, 72.006603 54.970288, 72.041515 54.971061, 72.076428 54.971823, 72.111343 54.972576, 72.146259 54.973318, 72.181176 54.974051, 72.216095 54.974773, 72.251014 54.975486, 72.285935 54.976188, 72.320857 54.976881, 72.355781 54.977563, 72.390705 54.978236, 72.425631 54.978898, 72.460558 54.979550, 72.495486 54.980193, 72.530415 54.980825, 72.565345 54.981448, 72.600276 54.982060, 72.635209 54.982662, 72.670142 54.983255, 72.705076 54.983837, 72.740012 54.984410, 72.774948 54.984972, 72.809885 54.985524, 72.844824 54.986067, 72.879763 54.986599, 72.914703 54.987121, 72.949644 54.987634, 72.984586 54.988136, 73.019529 54.988628, 73.054472 54.989110, 73.089417 54.989583, 73.124362 54.990045, 73.159308 54.990497, 73.194255 54.990939, 73.229202 54.991371, 73.264151 54.991794, 73.299100 54.992206, 73.334050 54.992608, 73.369000 54.993000, 73.403882 54.994515, 73.438767 54.996021, 73.473654 54.997516, 73.508544 54.999002, 73.543437 55.000477, 73.578332 55.001943, 73.613229 55.003399, 73.648130 55.004844, 73.683032 55.006280, 73.717937 55.007705, 73.752845 55.009121, 73.787755 55.010527, 73.822668 55.011922, 73.857582 55.013308, 73.892500 55.014683, 73.927419 55.016049, 73.962342 55.017405, 73.997266 55.018750, 74.032193 55.020086, 74.067122 55.021412, 74.102053 55.022727, 74.136987 55.024033, 74.171923 55.025328, 74.206861 55.026614, 74.241802 55.027890, 74.276744 55.029155, 74.311689 55.030411, 74.346636 55.031656, 74.381585 55.032892, 74.416537 55.034118, 74.451490 55.035333, 74.486446 55.036539, 74.521403 55.037734, 74.556363 55.038920, 74.591325 55.040095, 74.626289 55.041261, 74.661255 55.042416, 74.696223 55.043561, 74.731192 55.044697, 74.766164 55.045822, 74.801138 55.046938, 74.836114 55.048043, 74.871092 55.049138, 74.906071 55.050223, 74.941053 55.051299, 74.976036 55.052364, 75.011021 55.053419, 75.046008 55.054464, 75.080997 55.055499, 75.115988 55.056524, 75.150980 55.057539, 75.185974 55.058544, 75.220970 55.059539, 75.255968 55.060524, 75.290967 55.061499, 75.325968 55.062464, 75.360971 55.063419, 75.395975 55.064364, 75.430982 55.065299, 75.465989 55.066223, 75.500999 55.067138, 75.536009 55.068043, 75.571022 55.068937, 75.606036 55.069822, 75.641051 55.070696, 75.676069 55.071561, 75.711087 55.072415, 75.746107 55.073259, 75.781129 55.074094, 75.816152 55.074918, 75.851176 55.075732, 75.886202 55.076536, 75.921229 55.077330, 75.956258 55.078115, 75.991288 55.078889, 76.026319 55.079652, 76.061352 55.080406, 76.096386 55.081150, 76.131421 55.081884, 76.166458 55.082608, 76.201496 55.083321, 76.236535 55.084025, 76.271575 55.084719, 76.306616 55.085402, 76.341659 55.086076, 76.376703 55.086739, 76.411748 55.087392, 76.446794 55.088036, 76.481841 55.088669, 76.516890 55.089292, 76.551939 55.089905, 76.586990 55.090508, 76.622041 55.091101, 76.657094 55.091684, 76.692147 55.092257, 76.727202 55.092819, 76.762257 55.093372, 76.797314 55.093915, 76.832371 55.094447, 76.867430 55.094970, 76.902489 55.095482, 76.937549 55.095985, 76.972610 55.096477, 77.007672 55.096959, 77.042735 55.097431, 77.077799 55.097893, 77.112863 55.098346, 77.147928 55.098787, 77.182994 55.099219, 77.218061 55.099641, 77.253128 55.100053, 77.288196 55.100455, 77.323265 55.100846, 77.358335 55.101228, 77.393405 55.101599, 77.428476 55.101961, 77.463547 55.102312, 77.498619 55.102653, 77.533692 55.102984, 77.568765 55.103305, 77.603839 55.103616, 77.638913 55.103917, 77.673988 55.104208, 77.709063 55.104489, 77.744139 55.104760, 77.779215 55.105020, 77.814292 55.105271, 77.849369 55.105511, 77.884447 55.105742, 77.919524 55.105962, 77.954603 55.106172, 77.989682 55.106372, 78.024761 55.106563, 78.059840 55.106743, 78.094920 55.106913, 78.130000 55.107072, 78.165080 55.107222, 78.200160 55.107362, 78.235241 55.107492, 78.270322 55.107611, 78.305403 55.107721, 78.340484 55.107820, 78.375566 55.107909, 78.410647 55.107989, 78.445729 55.108058, 78.480811 55.108117, 78.515893 55.108166, 78.550975 55.108205, 78.586057 55.108234, 78.621139 55.108252, 78.656222 55.108261, 78.691304 55.108260, 78.726386 55.108248, 78.761468 55.108227, 78.796550 55.108195, 78.831632 55.108153, 78.866714 55.108102, 78.901796 55.108040, 78.936878 55.107968, 78.971959 55.107886, 79.007041 55.107794, 79.042122 55.107692, 79.077203 55.107579, 79.112284 55.107457, 79.147365 55.107325, 79.182445 55.107182, 79.217525 55.107029, 79.252605 55.106867, 79.287685 55.106694, 79.322764 55.106511, 79.357843 55.106318, 79.392921 55.106116, 79.428000 55.105902, 79.463077 55.105679, 79.498155 55.105446, 79.533232 55.105203, 79.568309 55.104950, 79.603385 55.104686, 79.638460 55.104413, 79.673536 55.104129, 79.708610 55.103836, 79.743684 55.103532, 79.778758 55.103218, 79.813831 55.102894, 79.848903 55.102560, 79.883975 55.102216, 79.919047 55.101862, 79.954117 55.101498, 79.989187 55.101124, 80.024256 55.100740, 80.059325 55.100345, 80.094393 55.099941, 80.129460 55.099526, 80.164527 55.099102, 80.199592 55.098667, 80.234657 55.098222, 80.269722 55.097767, 80.304785 55.097303, 80.339847 55.096828, 80.374909 55.096343, 80.409970 55.095848, 80.445030 55.095342, 80.480089 55.094827, 80.515147 55.094302, 80.550204 55.093767, 80.585261 55.093221, 80.620316 55.092666, 80.655370 55.092100, 80.690424 55.091525, 80.725476 55.090939, 80.760527 55.090343, 80.795577 55.089738, 80.830626 55.089122, 80.865675 55.088496, 80.900721 55.087860, 80.935767 55.087214, 80.970812 55.086558, 81.005856 55.085891, 81.040898 55.085215, 81.075939 55.084529, 81.110979 55.083833, 81.146018 55.083126, 81.181055 55.082410, 81.216091 55.081683, 81.251126 55.080947, 81.286160 55.080200, 81.321192 55.079444, 81.356223 55.078677, 81.391253 55.077900, 81.426281 55.077113, 81.461308 55.076316, 81.496333 55.075509, 81.531357 55.074692, 81.566380 55.073865, 81.601401 55.073028, 81.636421 55.072181, 81.671439 55.071324, 81.706456 55.070457, 81.741471 55.069580, 81.776484 55.068692, 81.811496 55.067795, 81.846507 55.066888, 81.881516 55.065970, 81.916523 55.065043, 81.951529 55.064105, 81.986533 55.063158, 82.021535 55.062200, 82.056535 55.061232, 82.091534 55.060255, 82.126532 55.059267, 82.161527 55.058269, 82.196521 55.057261, 82.231513 55.056244, 82.266503 55.055216, 82.301491 55.054178, 82.336478 55.053130, 82.371462 55.052072, 82.406445 55.051004, 82.441426 55.049926, 82.476405 55.048838, 82.511382 55.047740, 82.546358 55.046632, 82.581331 55.045514, 82.616302 55.044386, 82.651271 55.043248, 82.686239 55.042099, 82.721204 55.040941, 82.756167 55.039773, 82.791129 55.038595, 82.826088 55.037407, 82.861045 55.036208, 82.896000 55.035000, 82.929967 55.039811, 82.963943 55.044613, 82.997927 55.049405, 83.031918 55.054188, 83.065918 55.058961, 83.099926 55.063725, 83.133942 55.068479, 83.167966 55.073224, 83.201999 55.077959, 83.236039 55.082685, 83.270087 55.087402, 83.304144 55.092109, 83.338208 55.096806, 83.372280 55.101494, 83.406361 55.106172, 83.440449 55.110841, 83.474545 55.115500, 83.508649 55.120150, 83.542761 55.124790, 83.576881 55.129421, 83.611009 55.134042, 83.645145 55.138654, 83.679289 55.143256, 83.713441 55.147849, 83.747600 55.152432, 83.781767 55.157005, 83.815943 55.161569, 83.850126 55.166124, 83.884316 55.170669, 83.918515 55.175204, 83.952721 55.179730, 83.986935 55.184246, 84.021157 55.188752, 84.055387 55.193249, 84.089624 55.197736, 84.123869 55.202214, 84.158122 55.206682, 84.192382 55.211141, 84.226650 55.215590, 84.260926 55.220029, 84.295209 55.224459, 84.329500 55.228879, 84.363798 55.233290, 84.398105 55.237691, 84.432418 55.242082, 84.466740 55.246464, 84.501069 55.250836, 84.535405 55.255198, 84.569749 55.259551, 84.604100 55.263894, 84.638459 55.268227, 84.672826 55.272551, 84.707200 55.276865, 84.741581 55.281170, 84.775970 55.285465, 84.810366 55.289750, 84.844770 55.294025, 84.879181 55.298291, 84.913600 55.302547, 84.948026 55.306794, 84.982459 55.311031, 85.016899 55.315258, 85.051347 55.319475, 85.085803 55.323683, 85.120265 55.327881, 85.154735 55.332069, 85.189212 55.336248, 85.223697 55.340417, 85.258188 55.344576, 85.292687 55.348726, 85.327193 55.352866, 85.361707 55.356996, 85.396227 55.361116, 85.430755 55.365227, 85.465290 55.369327, 85.499832 55.373419, 85.534381 55.377500, 85.568937 55.381572, 85.603500 55.385634, 85.638071 55.389686, 85.672648 55.393728, 85.707233 55.397761, 85.741825 55.401784, 85.776423 55.405797, 85.811029 55.409800, 85.845642 55.413794, 85.880261 55.417778, 85.914888 55.421752, 85.949522 55.425716, 85.984162 55.429670, 86.018810 55.433615, 86.053464 55.437550, 86.088126 55.441475, 86.122794 55.445391, 86.157469 55.449296, 86.192151 55.453192, 86.226840 55.457078, 86.261535 55.460954, 86.296238 55.464820, 86.330947 55.468676, 86.365663 55.472523, 86.400386 55.476360, 86.435115 55.480187, 86.469851 55.484004, 86.504594 55.487811, 86.539344 55.491609, 86.574101 55.495397, 86.608864 55.499174, 86.643633 55.502942, 86.678410 55.506700, 86.713193 55.510449, 86.747982 55.514187, 86.782779 55.517916, 86.817581 55.521634, 86.852391 55.525343, 86.887207 55.529042, 86.922029 55.532731, 86.956858 55.536410, 86.991694 55.540079, 87.026536 55.543739, 87.061384 55.547388, 87.096239 55.551028, 87.131100 55.554658, 87.165968 55.558278, 87.200842 55.561888, 87.235723 55.565488, 87.270610 55.569078, 87.305504 55.572658, 87.340403 55.576228, 87.375309 55.579789, 87.410222 55.583339, 87.445140 55.586880, 87.480065 55.590410, 87.514997 55.593931, 87.549934 55.597442, 87.584878 55.600943, 87.619828 55.604434, 87.654784 55.607915, 87.689747 55.611386, 87.724715 55.614847, 87.759690 55.618298, 87.794671 55.621739, 87.829658 55.625170, 87.864651 55.628592, 87.899650 55.632003, 87.934656 55.635404, 87.969667 55.638796, 88.004685 55.642177, 88.039708 55.645549, 88.074738 55.648910, 88.109773 55.652262, 88.144815 55.655603, 88.179862 55.658935, 88.214916 55.662256, 88.249975 55.665568, 88.285041 55.668869, 88.320112 55.672161, 88.355189 55.675442, 88.390272 55.678714, 88.425361 55.681976, 88.460456 55.685227, 88.495556 55.688469, 88.530662 55.691700, 88.565775 55.694922, 88.600892 55.698133, 88.636016 55.701335, 88.671146 55.704526, 88.706281 55.707707, 88.741422 55.710879, 88.776568 55.714040, 88.811720 55.717192, 88.846878 55.720333, 88.882042 55.723464, 88.917211 55.726585, 88.952386 55.729696, 88.987566 55.732797, 89.022752 55.735888, 89.057944 55.738969, 89.093141 55.742040, 89.128344 55.745101, 89.163552 55.748152, 89.198765 55.751193, 89.233984 55.754223, 89.269209 55.757244, 89.304439 55.760254, 89.339675 55.763255, 89.374915 55.766245, 89.410162 55.769226, 89.445413 55.772196, 89.480670 55.775156, 89.515933 55.778106, 89.551200 55.781046, 89.586473 55.783976, 89.621752 55.786895, 89.657035 55.789805, 89.692324 55.792704, 89.727618 55.795594, 89.762918 55.798473, 89.798222 55.801342, 89.833532 55.804201, 89.868847 55.807050, 89.904167 55.809889, 89.939492 55.812718, 89.974822 55.815536, 90.010158 55.818345, 90.045498 55.821143, 90.080844 55.823931, 90.116195 55.826709, 90.151550 55.829477, 90.186911 55.832235, 90.222277 55.834983, 90.257647 55.837720, 90.293023 55.840448, 90.328404 55.843165, 90.363789 55.845872, 90.399180 55.848569, 90.434575 55.851256, 90.469976 55.853932, 90.505381 55.856599, 90.540791 55.859255, 90.576206 55.861901, 90.611625 55.864537, 90.647050 55.867163, 90.682479 55.869778, 90.717913 55.872383, 90.753352 55.874979, 90.788795 55.877564, 90.824243 55.880139, 90.859696 55.882703, 90.895154 55.885258, 90.930616 55.887802, 90.966083 55.890336, 91.001554 55.892860, 91.037030 55.895374, 91.072511 55.897877, 91.107996 55.900371, 91.143486 55.902854, 91.178980 55.905326, 91.214479 55.907789, 91.249983 55.910242, 91.285490 55.912684, 91.321003 55.915116, 91.356519 55.917538, 91.392041 55.919949, 91.427566 55.922351, 91.463096 55.924742, 91.498631 55.927123, 91.534169 55.929494, 91.569712 55.931854, 91.605260 55.934204, 91.640811 55.936544, 91.676367 55.938874, 91.711927 55.941194, 91.747492 55.943503, 91.783061 55.945802, 91.818634 55.948091, 91.854211 55.950369, 91.889792 55.952638, 91.925377 55.954896, 91.960967 55.957143, 91.996561 55.959381, 92.032159 55.961608, 92.067760 55.963825, 92.103366 55.966032, 92.138976 55.968229, 92.174591 55.970415, 92.210209 55.972591, 92.245831 55.974756, 92.281457 55.976912, 92.317087 55.979057, 92.352721 55.981192, 92.388359 55.983316, 92.424000 55.985431, 92.459646 55.987535, 92.495296 55.989629, 92.530949 55.991712, 92.566606 55.993785, 92.602267 55.995848, 92.637932 55.997901, 92.673601 55.999943, 92.709273 56.001975, 92.744949 56.003997, 92.780629 56.006008, 92.816313 56.008009, 92.852000 56.010000, 92.884694 56.001716, 92.917373 55.993423, 92.950039 55.985122, 92.982690 55.976812, 93.015328 55.968493, 93.047951 55.960166, 93.080560 55.951830, 93.113156 55.943485, 93.145737 55.935132, 93.178304 55.926771, 93.210857 55.918400, 93.243396 55.910022, 93.275921 55.901634, 93.308432 55.893238, 93.340929 55.884834, 93.373412 55.876421, 93.405881 55.867999, 93.438336 55.859569, 93.470776 55.851130, 93.503203 55.842683, 93.535615 55.834227, 93.568013 55.825763, 93.600397 55.817290, 93.632767 55.808809, 93.665123 55.800319, 93.697465 55.791820, 93.729793 55.783314, 93.762107 55.774798, 93.794406 55.766275, 93.826691 55.757742, 93.858963 55.749202, 93.891220 55.740653, 93.923463 55.732095, 93.955692 55.723529, 93.987906 55.714955, 94.020107 55.706372, 94.052293 55.697781, 94.084465 55.689181, 94.116623 55.680573, 94.148767 55.671956, 94.180897 55.663331, 94.213013 55.654698, 94.245114 55.646057, 94.277201 55.637407, 94.309274 55.628748, 94.341333 55.620081, 94.373378 55.611406, 94.405408 55.602723, 94.437425 55.594031, 94.469427 55.585331, 94.501415 55.576622, 94.533389 55.567906, 94.565348 55.559180, 94.597294 55.550447, 94.629225 55.541705, 94.661142 55.532955, 94.693045 55.524197, 94.724933 55.515430, 94.756808 55.506655, 94.788668 55.497872, 94.820514 55.489081, 94.852345 55.480281, 94.884163 55.471473, 94.915966 55.462657, 94.947755 55.453832, 94.979530 55.445000, 95.011291 55.436159, 95.043037 55.427310, 95.074769 55.418452, 95.106487 55.409587, 95.138191 55.400713, 95.169880 55.391831, 95.201555 55.382941, 95.233216 55.374043, 95.264863 55.365136, 95.296495 55.356222, 95.328114 55.347299, 95.359718 55.338368, 95.391307 55.329429, 95.422883 55.320481, 95.454444 55.311526, 95.485991 55.302563, 95.517523 55.293591, 95.549042 55.284611, 95.580546 55.275623, 95.612036 55.266627, 95.643511 55.257623, 95.674973 55.248611, 95.706420 55.239591, 95.737853 55.230562, 95.769271 55.221526, 95.800675 55.212481, 95.832065 55.203429, 95.863441 55.194368, 95.894803 55.185299, 95.926150 55.176223, 95.957483 55.167138, 95.988801 55.158045, 96.020105 55.148944, 96.051395 55.139835, 96.082671 55.130719, 96.113933 55.121594, 96.145180 55.112461, 96.176413 55.103320, 96.207631 55.094171, 96.238836 55.085014, 96.270026 55.075850, 96.301201 55.066677, 96.332363 55.057496, 96.363510 55.048308, 96.394643 55.039111, 96.425761 55.029906, 96.456865 55.020694, 96.487955 55.011474, 96.519031 55.002245, 96.550092 54.993009, 96.581139 54.983765, 96.612172 54.974513, 96.643190 54.965253, 96.674194 54.955985, 96.705184 54.946709, 96.736160 54.937426, 96.767121 54.928134, 96.798068 54.918835, 96.829000 54.909528, 96.859919 54.900213, 96.890823 54.890890, 96.921712 54.881559, 96.952588 54.872221, 96.983449 54.862874, 97.014296 54.853520, 97.045128 54.844158, 97.075946 54.834788, 97.106750 54.825411, 97.137539 54.816025, 97.168315 54.806632, 97.199075 54.797231, 97.229822 54.787822, 97.260554 54.778406, 97.291272 54.768981, 97.321976 54.759549, 97.352665 54.750109, 97.383340 54.740662, 97.414001 54.731207, 97.444647 54.721744, 97.475279 54.712273, 97.505897 54.702794, 97.536501 54.693308, 97.567090 54.683814, 97.597665 54.674313, 97.628225 54.664804, 97.658771 54.655287, 97.689303 54.645762, 97.719821 54.636230, 97.750324 54.626690, 97.780813 54.617142, 97.811288 54.607587, 97.841748 54.598024, 97.872194 54.588453, 97.902626 54.578875, 97.933043 54.569289, 97.963446 54.559696, 97.993835 54.550094, 98.024210 54.540486, 98.054570 54.530869, 98.084916 54.521246, 98.115247 54.511614, 98.145565 54.501975, 98.175868 54.492328, 98.206156 54.482674, 98.236431 54.473012, 98.266691 54.463343, 98.296937 54.453666, 98.327168 54.443981, 98.357385 54.434289, 98.387588 54.424590, 98.417777 54.414883, 98.447951 54.405168, 98.478111 54.395446, 98.508257 54.385716, 98.538388 54.375979, 98.568505 54.366234, 98.598608 54.356482, 98.628696 54.346723, 98.658771 54.336956, 98.688830 54.327181, 98.718876 54.317399, 98.748907 54.307609, 98.778924 54.297812, 98.808927 54.288008, 98.838916 54.278196, 98.868890 54.268377, 98.898850 54.258550, 98.928795 54.248716, 98.958727 54.238874, 98.988644 54.229025, 99.018547 54.219169, 99.048435 54.209305, 99.078309 54.199434, 99.108169 54.189556, 99.138015 54.179670, 99.167846 54.169776, 99.197664 54.159876, 99.227467 54.149968, 99.257255 54.140052, 99.287029 54.130129, 99.316790 54.120199, 99.346535 54.110262, 99.376267 54.100317, 99.405984 54.090365, 99.435687 54.080406, 99.465376 54.070439, 99.495051 54.060465, 99.524711 54.050484, 99.554357 54.040495, 99.583989 54.030499, 99.613606 54.020496, 99.643210 54.010485, 99.672799 54.000468, 99.702373 53.990443, 99.731934 53.980410, 99.761480 53.970371, 99.791012 53.960324, 99.820530 53.950270, 99.850034 53.940209, 99.879523 53.930141, 99.908998 53.920065, 99.938459 53.909982, 99.967906 53.899892, 99.997338 53.889795, 100.026757 53.879690, 100.056161 53.869579, 100.085550 53.859460, 100.114926 53.849334, 100.144287 53.839200, 100.173634 53.829060, 100.202967 53.818913, 100.232286 53.808758, 100.261591 53.798596, 100.290881 53.788427, 100.320157 53.778251, 100.349419 53.768068, 100.378667 53.757878, 100.407900 53.747680, 100.437120 53.737475, 100.466325 53.727264, 100.495516 53.717045, 100.524693 53.706819, 100.553855 53.696586, 100.583004 53.686346, 100.612138 53.676099, 100.641258 53.665845, 100.670364 53.655584, 100.699456 53.645315, 100.728533 53.635040, 100.757597 53.624758, 100.786646 53.614468, 100.815681 53.604172, 100.844702 53.593869, 100.873709 53.583558, 100.902701 53.573241, 100.931680 53.562916, 100.960644 53.552585, 100.989594 53.542246, 101.018530 53.531901, 101.047452 53.521548, 101.076360 53.511189, 101.105253 53.500822, 101.134133 53.490449, 101.162998 53.480069, 101.191849 53.469681, 101.220686 53.459287, 101.249509 53.448886, 101.278318 53.438478, 101.307113 53.428063, 101.335894 53.417641, 101.364660 53.407212, 101.393413 53.396776, 101.422151 53.386334, 101.450875 53.375884, 101.479585 53.365428, 101.508281 53.354964, 101.536963 53.344494, 101.565631 53.334017, 101.594285 53.323533, 101.622925 53.313042, 101.651550 53.302545, 101.680162 53.292040, 101.708759 53.281529, 101.737343 53.271010, 101.765912 53.260485, 101.794467 53.249954, 101.823008 53.239415, 101.851535 53.228869, 101.880049 53.218317, 101.908548 53.207758, 101.937033 53.197192, 101.965504 53.186619, 101.993960 53.176040, 102.022403 53.165454, 102.050832 53.154861, 102.079247 53.144261, 102.107648 53.133654, 102.136035 53.123041, 102.164407 53.112421, 102.192766 53.101794, 102.221111 53.091161, 102.249441 53.080520, 102.277758 53.069873, 102.306061 53.059220, 102.334350 53.048559, 102.362624 53.037892, 102.390885 53.027218, 102.419132 53.016538, 102.447365 53.005851, 102.475583 52.995157, 102.503788 52.984456, 102.531979 52.973749, 102.560156 52.963035, 102.588319 52.952314, 102.616468 52.941587, 102.644602 52.930853, 102.672723 52.920113, 102.700831 52.909366, 102.728924 52.898612, 102.757003 52.887852, 102.785068 52.877085, 102.813119 52.866311, 102.841157 52.855531, 102.869180 52.844744, 102.897190 52.833950, 102.925185 52.823150, 102.953167 52.812344, 102.981135 52.801531, 103.009088 52.790711, 103.037028 52.779885, 103.064954 52.769052, 103.092866 52.758212, 103.120765 52.747366, 103.148649 52.736514, 103.176520 52.725655, 103.204376 52.714789, 103.232219 52.703917, 103.260048 52.693039, 103.287863 52.682153, 103.315664 52.671262, 103.343451 52.660364, 103.371224 52.649459, 103.398984 52.638548, 103.426730 52.627630, 103.454461 52.616706, 103.482179 52.605776, 103.509884 52.594839, 103.537574 52.583895, 103.565250 52.572945, 103.592913 52.561989, 103.620562 52.551026, 103.648197 52.540057, 103.675818 52.529081, 103.703426 52.518099, 103.731019 52.507110, 103.758599 52.496115, 103.786165 52.485114, 103.813717 52.474106, 103.841256 52.463092, 103.868780 52.452072, 103.896291 52.441045, 103.923788 52.430011, 103.951272 52.418972, 103.978741 52.407925, 104.006197 52.396873, 104.033639 52.385814, 104.061068 52.374749, 104.088482 52.363678, 104.115883 52.352600, 104.143270 52.341516, 104.170644 52.330425, 104.198003 52.319328, 104.225349 52.308225, 104.252681 52.297116, 104.280000 52.286000, 104.299711 52.270387, 104.319407 52.254770, 104.339090 52.239150, 104.358759 52.223527, 104.378414 52.207901, 104.398055 52.192271, 104.417683 52.176638, 104.437296 52.161002, 104.456896 52.145363, 104.476482 52.129720, 104.496055 52.114074, 104.515613 52.098425, 104.535158 52.082773, 104.554689 52.067117, 104.574207 52.051459, 104.593711 52.035797, 104.613201 52.020131, 104.632677 52.004463, 104.652140 51.988791, 104.671590 51.973116, 104.691025 51.957438, 104.710447 51.941757, 104.729856 51.926073, 104.749251 51.910385, 104.768632 51.894694, 104.788000 51.879000, 104.757311 51.872763, 104.726631 51.866519, 104.695959 51.860267, 104.665296 51.854006, 104.634641 51.847738, 104.603995 51.841461, 104.573357 51.835177, 104.542728 51.828885, 104.512108 51.822585, 104.481496 51.816276, 104.450892 51.809960, 104.420297 51.803636, 104.389711 51.797304, 104.359134 51.790964, 104.328565 51.784616, 104.298004 51.778260, 104.267452 51.771897, 104.236909 51.765525, 104.206375 51.759146, 104.175849 51.752758, 104.145331 51.746363, 104.114823 51.739960, 104.084323 51.733548, 104.053831 51.727129, 104.023349 51.720702, 103.992875 51.714268, 103.962409 51.707825, 103.931953 51.701374, 103.901505 51.694916, 103.871066 51.688449, 103.840635 51.681975, 103.810213 51.675493, 103.779800 51.669003, 103.749396 51.662506, 103.719000 51.656000, 103.751067 51.658014, 103.783138 51.660020, 103.815211 51.662016, 103.847287 51.664004, 103.879366 51.665984, 103.911447 51.667954, 103.943531 51.669916, 103.975618 51.671869, 104.007708 51.673813, 104.039801 51.675749, 104.071896 51.677675, 104.103994 51.679593, 104.136095 51.681503, 104.168199 51.683403, 104.200305 51.685295, 104.232414 51.687178, 104.264525 51.689052, 104.296639 51.690918, 104.328756 51.692775, 104.360876 51.694623, 104.392998 51.696462, 104.425122 51.698292, 104.457250 51.700114, 104.489379 51.701927, 104.521512 51.703731, 104.553647 51.705527, 104.585784 51.707313, 104.617924 51.709091, 104.650067 51.710860, 104.682212 51.712621, 104.714360 51.714372, 104.746510 51.716115, 104.778662 51.717849, 104.810817 51.719574, 104.842975 51.721291, 104.875134 51.722999, 104.907297 51.724698, 104.939461 51.726388, 104.971628 51.728069, 105.003798 51.729742, 105.035970 51.731405, 105.068144 51.733060, 105.100321 51.734707, 105.132499 51.736344, 105.164681 51.737973, 105.196864 51.739593, 105.229050 51.741204, 105.261238 51.742806, 105.293429 51.744400, 105.325621 51.745984, 105.357816 51.747560, 105.390013 51.749127, 105.422213 51.750686, 105.454414 51.752235, 105.486618 51.753776, 105.518824 51.755308, 105.551032 51.756831, 105.583243 51.758345, 105.615455 51.759851, 105.647670 51.761347, 105.679887 51.762835, 105.712106 51.764314, 105.744327 51.765785, 105.776550 51.767246, 105.808775 51.768699, 105.841002 51.770143, 105.873231 51.771578, 105.905463 51.773004, 105.937696 51.774421, 105.969932 51.775830, 106.002169 51.777230, 106.034408 51.778621, 106.066650 51.780003, 106.098893 51.781376, 106.131138 51.782741, 106.163386 51.784096, 106.195635 51.785443, 106.227886 51.786781, 106.260139 51.788110, 106.292394 51.789431, 106.324651 51.790742, 106.356909 51.792045, 106.389170 51.793339, 106.421432 51.794624, 106.453696 51.795900, 106.485962 51.797168, 106.518230 51.798426, 106.550500 51.799676, 106.582771 51.800917, 106.615044 51.802149, 106.647319 51.803372, 106.679596 51.804587, 106.711874 51.805792, 106.744154 51.806989, 106.776436 51.808177, 106.808720 51.809356, 106.841005 51.810526, 106.873292 51.811688, 106.905580 51.812840, 106.937870 51.813984, 106.970162 51.815119, 107.002456 51.816245, 107.034751 51.817362, 107.067047 51.818470, 107.099345 51.819570, 107.131645 51.820660, 107.163947 51.821742, 107.196249 51.822815, 107.228554 51.823879, 107.260860 51.824935, 107.293167 51.825981, 107.325476 51.827018, 107.357787 51.828047, 107.390099 51.829067, 107.422412 51.830078, 107.454727 51.831080, 107.487043 51.832073, 107.519361 51.833058, 107.551680 51.834033, 107.584000 51.835000, 107.616327 51.836907, 107.648656 51.838805, 107.680988 51.840694, 107.713323 51.842574, 107.745661 51.844445, 107.778001 51.846307, 107.810344 51.848161, 107.842689 51.850006, 107.875038 51.851841, 107.907389 51.853668, 107.939742 51.855486, 107.972098 51.857296, 108.004457 51.859096, 108.036818 51.860887, 108.069182 51.862670, 108.101548 51.864443, 108.133917 51.866208, 108.166289 51.867964, 108.198663 51.869711, 108.231039 51.871449, 108.263418 51.873178, 108.295800 51.874899, 108.328184 51.876610, 108.360570 51.878313, 108.392959 51.880007, 108.425350 51.881691, 108.457744 51.883367, 108.490140 51.885034, 108.522538 51.886692, 108.554939 51.888342, 108.587343 51.889982, 108.619748 51.891613, 108.652156 51.893236, 108.684566 51.894849, 108.716979 51.896454, 108.749394 51.898050, 108.781811 51.899637, 108.814231 51.901215, 108.846653 51.902784, 108.879077 51.904344, 108.911503 51.905895, 108.943931 51.907438, 108.976362 51.908971, 109.008795 51.910496, 109.041230 51.912011, 109.073668 51.913518, 109.106107 51.915016, 109.138549 51.916505, 109.170993 51.917984, 109.203439 51.919455, 109.235887 51.920918, 109.268337 51.922371, 109.300789 51.923815, 109.333243 51.925250, 109.365700 51.926677, 109.398158 51.928094, 109.430619 51.929503, 109.463081 51.930902, 109.495546 51.932293, 109.528013 51.933675, 109.560481 51.935048, 109.592952 51.936412, 109.625424 51.937767, 109.657899 51.939113, 109.690375 51.940450, 109.722853 51.941778, 109.755334 51.943097, 109.787816 51.944407, 109.820300 51.945709, 109.852786 51.947001, 109.885274 51.948285, 109.917763 51.949559, 109.950255 51.950825, 109.982748 51.952081, 110.015243 51.953329, 110.047740 51.954568, 110.080239 51.955798, 110.112739 51.957019, 110.145242 51.958230, 110.177746 51.959433, 110.210251 51.960627, 110.242759 51.961813, 110.275268 51.962989, 110.307779 51.964156, 110.340291 51.965314, 110.372806 51.966463, 110.405322 51.967604, 110.437839 51.968735, 110.470358 51.969857, 110.502879 51.970971, 110.535402 51.972075, 110.567926 51.973171, 110.600451 51.974257, 110.632978 51.975335, 110.665507 51.976404, 110.698037 51.977463, 110.730569 51.978514, 110.763103 51.979556, 110.795637 51.980588, 110.828174 51.981612, 110.860712 51.982627, 110.893251 51.983633, 110.925792 51.984630, 110.958334 51.985618, 110.990877 51.986597, 111.023422 51.987567, 111.055969 51.988528, 111.088517 51.989480, 111.121066 51.990423, 111.153616 51.991357, 111.186168 51.992282, 111.218722 51.993199, 111.251276 51.994106, 111.283832 51.995004, 111.316389 51.995893, 111.348948 51.996774, 111.381507 51.997645, 111.414068 51.998507, 111.446631 51.999361, 111.479194 52.000205, 111.511759 52.001040, 111.544325 52.001867, 111.576892 52.002684, 111.609460 52.003493, 111.642030 52.004292, 111.674600 52.005083, 111.707172 52.005864, 111.739745 52.006637, 111.772319 52.007400, 111.804894 52.008155, 111.837470 52.008900, 111.870048 52.009637, 111.902626 52.010365, 111.935206 52.011083, 111.967786 52.011793, 112.000367 52.012493, 112.032950 52.013185, 112.065533 52.013868, 112.098118 52.014541, 112.130703 52.015206, 112.163290 52.015862, 112.195877 52.016508, 112.228466 52.017146, 112.261055 52.017775, 112.293645 52.018395, 112.326236 52.019005, 112.358828 52.019607, 112.391421 52.020200, 112.424014 52.020784, 112.456609 52.021358, 112.489204 52.021924, 112.521800 52.022481, 112.554397 52.023029, 112.586995 52.023568, 112.619593 52.024097, 112.652193 52.024618, 112.684793 52.025130, 112.717394 52.025633, 112.749995 52.026127, 112.782597 52.026611, 112.815200 52.027087, 112.847804 52.027554, 112.880408 52.028012, 112.913013 52.028461, 112.945619 52.028900, 112.978225 52.029331, 113.010832 52.029753, 113.043439 52.030166, 113.076047 52.030570, 113.108656 52.030964, 113.141265 52.031350, 113.173875 52.031727, 113.206485 52.032095, 113.239096 52.032454, 113.271707 52.032803, 113.304319 52.033144, 113.336931 52.033476, 113.369544 52.033799, 113.402158 52.034113, 113.434771 52.034417, 113.467385 52.034713, 113.500000 52.035000, 113.529080 52.043982, 113.558172 52.052957, 113.587276 52.061924, 113.616391 52.070885, 113.645518 52.079838, 113.674657 52.088784, 113.703807 52.097723, 113.732969 52.106655, 113.762143 52.115579, 113.791328 52.124497, 113.820525 52.133407, 113.849734 52.142310, 113.878954 52.151205, 113.908186 52.160094, 113.937430 52.168975, 113.966686 52.177849, 113.995953 52.186716, 114.025232 52.195575, 114.054522 52.204427, 114.083824 52.213272, 114.113138 52.222110, 114.142463 52.230941, 114.171800 52.239764, 114.201149 52.248580, 114.230510 52.257388, 114.259882 52.266190, 114.289265 52.274984, 114.318661 52.283770, 114.348068 52.292550, 114.377487 52.301322, 114.406917 52.310087, 114.436359 52.318845, 114.465813 52.327595, 114.495278 52.336338, 114.524755 52.345073, 114.554244 52.353801, 114.583744 52.362522, 114.613256 52.371236, 114.642779 52.379942, 114.672314 52.388641, 114.701861 52.397332, 114.731420 52.406016, 114.760990 52.414693, 114.790572 52.423362, 114.820165 52.432024, 114.849770 52.440679, 114.879386 52.449326, 114.909015 52.457966, 114.938655 52.466598, 114.968306 52.475223, 114.997969 52.483841, 115.027644 52.492451, 115.057330 52.501053, 115.087028 52.509649, 115.116738 52.518237, 115.146459 52.526817, 115.176192 52.535390, 115.205936 52.543955, 115.235692 52.552513, 115.265460 52.561064, 115.295239 52.569607, 115.325030 52.578143, 115.354832 52.586671, 115.384646 52.595191, 115.414472 52.603705, 115.444309 52.612210, 115.474158 52.620708, 115.504018 52.629199, 115.533890 52.637682, 115.563774 52.646158, 115.593669 52.654626, 115.623575 52.663087, 115.653494 52.671540, 115.683424 52.679985, 115.713365 52.688423, 115.743318 52.696854, 115.773282 52.705276, 115.803259 52.713692, 115.833246 52.722100, 115.863245 52.730500, 115.893256 52.738892, 115.923279 52.747277, 115.953312 52.755655, 115.983358 52.764025, 116.013415 52.772387, 116.043483 52.780742, 116.073564 52.789089, 116.103655 52.797428, 116.133758 52.805760, 116.163873 52.814085, 116.193999 52.822401, 116.224137 52.830710, 116.254286 52.839011, 116.284447 52.847305, 116.314619 52.855591, 116.344803 52.863870, 116.374998 52.872140, 116.405205 52.880404, 116.435424 52.888659, 116.465654 52.896907, 116.495895 52.905147, 116.526148 52.913379, 116.556412 52.921604, 116.586688 52.929821, 116.616975 52.938030, 116.647274 52.946232, 116.677585 52.954426, 116.707906 52.962612, 116.738240 52.970791, 116.768584 52.978961, 116.798941 52.987124, 116.829308 52.995280, 116.859688 53.003427, 116.890078 53.011567, 116.920480 53.019699, 116.950894 53.027823, 116.981319 53.035940, 117.011755 53.044049, 117.042203 53.052150, 117.072663 53.060243, 117.103134 53.068329, 117.133616 53.076406, 117.164109 53.084476, 117.194615 53.092538, 117.225131 53.100593, 117.255659 53.108639, 117.286198 53.116678, 117.316749 53.124709, 117.347311 53.132732, 117.377885 53.140747, 117.408470 53.148754, 117.439066 53.156754, 117.469674 53.164745, 117.500293 53.172729, 117.530924 53.180705, 117.561566 53.188673, 117.592219 53.196634, 117.622884 53.204586, 117.653560 53.212530, 117.684248 53.220467, 117.714947 53.228396, 117.745657 53.236317, 117.776379 53.244230, 117.807112 53.252135, 117.837856 53.260032, 117.868612 53.267921, 117.899379 53.275802, 117.930157 53.283676, 117.960947 53.291541, 117.991748 53.299399, 118.022560 53.307249, 118.053384 53.315090, 118.084219 53.322924, 118.115065 53.330750, 118.145923 53.338568, 118.176792 53.346377, 118.207672 53.354179, 118.238563 53.361973, 118.269466 53.369759, 118.300381 53.377537, 118.331306 53.385307, 118.362243 53.393069, 118.393191 53.400823, 118.424150 53.408569, 118.455120 53.416307, 118.486102 53.424037, 118.517095 53.431759, 118.548100 53.439473, 118.579115 53.447178, 118.610142 53.454876, 118.641180 53.462566, 118.672230 53.470248, 118.703290 53.477922, 118.734362 53.485587, 118.765445 53.493245, 118.796539 53.500894, 118.827645 53.508536, 118.858761 53.516169, 118.889889 53.523794, 118.921028 53.531412, 118.952178 53.539021, 118.983340 53.546622, 119.014513 53.554215, 119.045696 53.561799, 119.076891 53.569376, 119.108098 53.576945, 119.139315 53.584505, 119.170544 53.592057, 119.201783 53.599601, 119.233034 53.607138, 119.264296 53.614665, 119.295569 53.622185, 119.326853 53.629697, 119.358149 53.637200, 119.389455 53.644695, 119.420773 53.652183, 119.452102 53.659661, 119.483442 53.667132, 119.514793 53.674595, 119.546155 53.682049, 119.577528 53.689495, 119.608912 53.696933, 119.640308 53.704363, 119.671714 53.711785, 119.703132 53.719198, 119.734560 53.726603, 119.766000 53.734000, 119.799471 53.736643, 119.832946 53.739276, 119.866425 53.741900, 119.899909 53.744515, 119.933396 53.747120, 119.966888 53.749717, 120.000384 53.752303, 120.033884 53.754881, 120.067388 53.757449, 120.100896 53.760008, 120.134408 53.762557, 120.167925 53.765097, 120.201445 53.767628, 120.234970 53.770149, 120.268498 53.772661, 120.302030 53.775164, 120.335567 53.777657, 120.369107 53.780141, 120.402652 53.782615, 120.436200 53.785081, 120.469752 53.787536, 120.503308 53.789983, 120.536868 53.792420, 120.570432 53.794848, 120.604000 53.797266, 120.637572 53.799675, 120.671148 53.802075, 120.704727 53.804465, 120.738310 53.806846, 120.771897 53.809217, 120.805488 53.811579, 120.839083 53.813932, 120.872681 53.816275, 120.906283 53.818609, 120.939889 53.820934, 120.973498 53.823249, 121.007112 53.825555, 121.040729 53.827851, 121.074349 53.830138, 121.107974 53.832415, 121.141602 53.834683, 121.175233 53.836942, 121.208868 53.839192, 121.242507 53.841431, 121.276150 53.843662, 121.309796 53.845883, 121.343445 53.848095, 121.377098 53.850297, 121.410755 53.852490, 121.444415 53.854673, 121.478079 53.856847, 121.511746 53.859012, 121.545417 53.861167, 121.579091 53.863313, 121.612768 53.865449, 121.646449 53.867576, 121.680134 53.869694, 121.713821 53.871802, 121.747512 53.873900, 121.781207 53.875989, 121.814905 53.878069, 121.848606 53.880139, 121.882311 53.882200, 121.916019 53.884252, 121.949730 53.886294, 121.983444 53.888326, 122.017162 53.890349, 122.050883 53.892363, 122.084607 53.894367, 122.118335 53.896362, 122.152066 53.898347, 122.185799 53.900323, 122.219537 53.902289, 122.253277 53.904246, 122.287020 53.906194, 122.320767 53.908132, 122.354516 53.910060, 122.388269 53.911979, 122.422025 53.913889, 122.455784 53.915789, 122.489546 53.917679, 122.523311 53.919561, 122.557079 53.921432, 122.590850 53.923295, 122.624624 53.925147, 122.658401 53.926991, 122.692182 53.928824, 122.725965 53.930649, 122.759751 53.932464, 122.793540 53.934269, 122.827331 53.936065, 122.861126 53.937851, 122.894924 53.939628, 122.928724 53.941396, 122.962528 53.943154, 122.996334 53.944902, 123.030143 53.946641, 123.063955 53.948370, 123.097769 53.950090, 123.131587 53.951801, 123.165407 53.953502, 123.199230 53.955193, 123.233055 53.956875, 123.266884 53.958548, 123.300715 53.960211, 123.334549 53.961864, 123.368385 53.963508, 123.402224 53.965143, 123.436066 53.966768, 123.469911 53.968383, 123.503758 53.969989, 123.537607 53.971585, 123.571459 53.973172, 123.605314 53.974750, 123.639171 53.976318, 123.673031 53.977876, 123.706894 53.979425, 123.740759 53.980964, 123.774626 53.982494, 123.808496 53.984014, 123.842368 53.985525, 123.876243 53.987026, 123.910120 53.988518, 123.944000 53.990000, 123.967550 53.975504, 123.991083 53.961002, 124.014601 53.946497, 124.038101 53.931987, 124.061586 53.917472, 124.085054 53.902952, 124.108506 53.888428, 124.131941 53.873900, 124.155361 53.859367, 124.178764 53.844829, 124.202150 53.830287, 124.225521 53.815740, 124.248875 53.801189, 124.272213 53.786633, 124.295535 53.772072, 124.318841 53.757508, 124.342130 53.742938, 124.365404 53.728364, 124.388661 53.713786, 124.411902 53.699203, 124.435127 53.684615, 124.458336 53.670024, 124.481529 53.655427, 124.504706 53.640826, 124.527867 53.626221, 124.551011 53.611611, 124.574140 53.596997, 124.597253 53.582378, 124.620350 53.567755, 124.643431 53.553127, 124.666495 53.538495, 124.689544 53.523859, 124.712577 53.509218, 124.735594 53.494572, 124.758595 53.479923, 124.781581 53.465268, 124.804550 53.450610, 124.827504 53.435947, 124.850442 53.421279, 124.873363 53.406608, 124.896270 53.391931, 124.919160 53.377251, 124.942034 53.362566, 124.964893 53.347877, 124.987736 53.333183, 125.010563 53.318485, 125.033375 53.303783, 125.056171 53.289076, 125.078951 53.274365, 125.101716 53.259649, 125.124464 53.244930, 125.147198 53.230206, 125.169915 53.215477, 125.192617 53.200744, 125.215303 53.186007, 125.237974 53.171266, 125.260629 53.156520, 125.283269 53.141771, 125.305893 53.127016, 125.328502 53.112258, 125.351095 53.097495, 125.373672 53.082728, 125.396234 53.067957, 125.418781 53.053181, 125.441312 53.038401, 125.463827 53.023617, 125.486328 53.008829, 125.508812 52.994036, 125.531282 52.979239, 125.553736 52.964438, 125.576174 52.949633, 125.598598 52.934824, 125.621006 52.920010, 125.643398 52.905192, 125.665776 52.890370, 125.688138 52.875543, 125.710484 52.860713, 125.732816 52.845878, 125.755132 52.831039, 125.777433 52.816196, 125.799719 52.801349, 125.821989 52.786497, 125.844244 52.771642, 125.866485 52.756782, 125.888710 52.741918, 125.910919 52.727050, 125.933114 52.712178, 125.955293 52.697301, 125.977458 52.682421, 125.999607 52.667536, 126.021741 52.652647, 126.043861 52.637754, 126.065965 52.622857, 126.088054 52.607956, 126.110128 52.593051, 126.132187 52.578142, 126.154231 52.563228, 126.176260 52.548311, 126.198274 52.533389, 126.220273 52.518463, 126.242257 52.503534, 126.264226 52.488600, 126.286180 52.473662, 126.308120 52.458720, 126.330044 52.443774, 126.351954 52.428824, 126.373849 52.413870, 126.395729 52.398912, 126.417594 52.383949, 126.439444 52.368983, 126.461280 52.354013, 126.483100 52.339039, 126.504906 52.324060, 126.526697 52.309078, 126.548474 52.294092, 126.570235 52.279102, 126.591982 52.264107, 126.613715 52.249109, 126.635432 52.234107, 126.657135 52.219100, 126.678823 52.204090, 126.700497 52.189076, 126.722156 52.174058, 126.743800 52.159036, 126.765430 52.144009, 126.787045 52.128979, 126.808645 52.113945, 126.830231 52.098907, 126.851803 52.083866, 126.873360 52.068820, 126.894902 52.053770, 126.916430 52.038716, 126.937943 52.023659, 126.959442 52.008597, 126.980926 51.993532, 127.002396 51.978462, 127.023852 51.963389, 127.045293 51.948312, 127.066720 51.933231, 127.088132 51.918146, 127.109530 51.903057, 127.130913 51.887965, 127.152282 51.872868, 127.173637 51.857768, 127.194978 51.842663, 127.216304 51.827555, 127.237616 51.812443, 127.258913 51.797327, 127.280196 51.782208, 127.301465 51.767084, 127.322720 51.751957, 127.343961 51.736826, 127.365187 51.721691, 127.386399 51.706552, 127.407597 51.691409, 127.428781 51.676263, 127.449950 51.661112, 127.471106 51.645958, 127.492247 51.630800, 127.513374 51.615639, 127.534487 51.600473, 127.555586 51.585304, 127.576671 51.570131, 127.597742 51.554954, 127.618798 51.539774, 127.639841 51.524589, 127.660870 51.509401, 127.681884 51.494209, 127.702885 51.479014, 127.723872 51.463814, 127.744844 51.448611, 127.765803 51.433404, 127.786748 51.418194, 127.807679 51.402980, 127.828595 51.387762, 127.849498 51.372540, 127.870387 51.357314, 127.891263 51.342085, 127.912124 51.326852, 127.932971 51.311616, 127.953805 51.296375, 127.974625 51.281131, 127.995431 51.265884, 128.016223 51.250632, 128.037001 51.235377, 128.057766 51.220119, 128.078517 51.204856, 128.099254 51.189590, 128.119977 51.174320, 128.140687 51.159047, 128.161383 51.143770, 128.182065 51.128489, 128.202734 51.113205, 128.223389 51.097917, 128.244030 51.082625, 128.264657 51.067330, 128.285271 51.052031, 128.305872 51.036729, 128.326458 51.021423, 128.347032 51.006113, 128.367591 50.990800, 128.388137 50.975483, 128.408670 50.960162, 128.429188 50.944838, 128.449694 50.929510, 128.470186 50.914179, 128.490664 50.898844, 128.511129 50.883506, 128.531580 50.868164, 128.552018 50.852818, 128.572443 50.837469, 128.592854 50.822116, 128.613252 50.806760, 128.633636 50.791400, 128.654007 50.776036, 128.674364 50.760669, 128.694708 50.745299, 128.715039 50.729925, 128.735356 50.714547, 128.755661 50.699166, 128.775951 50.683782, 128.796229 50.668393, 128.816493 50.653002, 128.836744 50.637607, 128.856982 50.622208, 128.877206 50.606806, 128.897417 50.591400, 128.917615 50.575991, 128.937800 50.560578, 128.957971 50.545162, 128.978130 50.529742, 128.998275 50.514319, 129.018407 50.498893, 129.038526 50.483463, 129.058631 50.468029, 129.078724 50.452592, 129.098803 50.437152, 129.118870 50.421708, 129.138923 50.406260, 129.158963 50.390810, 129.178990 50.375355, 129.199005 50.359898, 129.219006 50.344437, 129.238994 50.328972, 129.258969 50.313504, 129.278931 50.298033, 129.298880 50.282558, 129.318816 50.267080, 129.338739 50.251598, 129.358649 50.236113, 129.378547 50.220625, 129.398431 50.205133, 129.418303 50.189638, 129.438161 50.174139, 129.458007 50.158637, 129.477840 50.143132, 129.497660 50.127623, 129.517467 50.112111, 129.537261 50.096595, 129.557043 50.081077, 129.576811 50.065554, 129.596567 50.050029, 129.616310 50.034500, 129.636041 50.018968, 129.655758 50.003432, 129.675463 49.987893, 129.695155 49.972351, 129.714835 49.956805, 129.734501 49.941257, 129.754155 49.925704, 129.773797 49.910149, 129.793425 49.894590, 129.813041 49.879028, 129.832645 49.863462, 129.852235 49.847893, 129.871813 49.832321, 129.891379 49.816746, 129.910932 49.801167, 129.930472 49.785585, 129.950000 49.770000, 129.979367 49.763445, 130.008725 49.756882, 130.038076 49.750312, 130.067419 49.743735, 130.096754 49.737150, 130.126080 49.730558, 130.155399 49.723959, 130.184710 49.717352, 130.214013 49.710737, 130.243308 49.704116, 130.272595 49.697487, 130.301874 49.690850, 130.331145 49.684206, 130.360408 49.677555, 130.389663 49.670896, 130.418910 49.664230, 130.448149 49.657557, 130.477380 49.650876, 130.506602 49.644188, 130.535817 49.637493, 130.565024 49.630790, 130.594223 49.624080, 130.623414 49.617362, 130.652596 49.610637, 130.681771 49.603905, 130.710937 49.597166, 130.740096 49.590419, 130.769246 49.583665, 130.798389 49.576904, 130.827523 49.570135, 130.856649 49.563359, 130.885767 49.556575, 130.914877 49.549785, 130.943979 49.542987, 130.973073 49.536181, 131.002158 49.529369, 131.031236 49.522549, 131.060305 49.515722, 131.089367 49.508887, 131.118420 49.502046, 131.147465 49.495197, 131.176502 49.488341, 131.205531 49.481477, 131.234552 49.474606, 131.263564 49.467728, 131.292569 49.460843, 131.321565 49.453950, 131.350553 49.447051, 131.379533 49.440144, 131.408505 49.433229, 131.437468 49.426308, 131.466423 49.419379, 131.495371 49.412443, 131.524310 49.405500, 131.553241 49.398550, 131.582163 49.391592, 131.611078 49.384627, 131.639984 49.377655, 131.668882 49.370676, 131.697772 49.363690, 131.726654 49.356696, 131.755527 49.349695, 131.784392 49.342687, 131.813249 49.335672, 131.842098 49.328650, 131.870938 49.321620, 131.899771 49.314583, 131.928595 49.307539, 131.957411 49.300488, 131.986218 49.293430, 132.015017 49.286365, 132.043808 49.279292, 132.072591 49.272212, 132.101366 49.265126, 132.130132 49.258032, 132.158890 49.250930, 132.187640 49.243822, 132.216381 49.236707, 132.245114 49.229584, 132.273839 49.222455, 132.302556 49.215318, 132.331264 49.208174, 132.359964 49.201023, 132.388655 49.193865, 132.417339 49.186700, 132.446014 49.179527, 132.474680 49.172348, 132.503339 49.165161, 132.531989 49.157968, 132.560631 49.150767, 132.589264 49.143559, 132.617889 49.136345, 132.646506 49.129123, 132.675114 49.121894, 132.703715 49.114658, 132.732306 49.107415, 132.760890 49.100164, 132.789465 49.092907, 132.818031 49.085643, 132.846590 49.078372, 132.875140 49.071093, 132.903681 49.063808, 132.932214 49.056515, 132.960739 49.049216, 132.989256 49.041909, 133.017764 49.034596, 133.046263 49.027275, 133.074755 49.019948, 133.103238 49.012613, 133.131712 49.005272, 133.160178 48.997923, 133.188636 48.990567, 133.217085 48.983205, 133.245526 48.975835, 133.273959 48.968459, 133.302383 48.961075, 133.330798 48.953685, 133.359206 48.946287, 133.387604 48.938883, 133.415995 48.931471, 133.444377 48.924053, 133.472750 48.916627, 133.501115 48.909195, 133.529472 48.901756, 133.557820 48.894310, 133.586160 48.886856, 133.614491 48.879396, 133.642814 48.871929, 133.671128 48.864455, 133.699434 48.856974, 133.727732 48.849486, 133.756021 48.841992, 133.784301 48.834490, 133.812573 48.826981, 133.840837 48.819466, 133.869092 48.811943, 133.897338 48.804414, 133.925577 48.796878, 133.953806 48.789335, 133.982027 48.781785, 134.010240 48.774228, 134.038444 48.766664, 134.066640 48.759093, 134.094827 48.751516, 134.123006 48.743931, 134.151176 48.736340, 134.179337 48.728742, 134.207491 48.721137, 134.235635 48.713525, 134.263771 48.705906, 134.291899 48.698281, 134.320018 48.690648, 134.348128 48.683009, 134.376230 48.675363, 134.404324 48.667710, 134.432409 48.660050, 134.460485 48.652384, 134.488553 48.644710, 134.516612 48.637030, 134.544663 48.629343, 134.572705 48.621649, 134.600739 48.613948, 134.628764 48.606241, 134.656780 48.598527, 134.684788 48.590806, 134.712788 48.583078, 134.740779 48.575343, 134.768761 48.567602, 134.796735 48.559854, 134.824700 48.552099, 134.852656 48.544337, 134.880604 48.536569, 134.908544 48.528793, 134.936475 48.521011, 134.964397 48.513223, 134.992311 48.505427, 135.020216 48.497625, 135.048112 48.489816, 135.076000 48.482000, 135.062758 48.463964, 135.049525 48.445927, 135.036302 48.427888, 135.023088 48.409847, 135.009884 48.391805, 134.996689 48.373762, 134.983503 48.355717, 134.970327 48.337670, 134.957160 48.319622, 134.944002 48.301573, 134.930853 48.283522, 134.917714 48.265469, 134.904584 48.247415, 134.891464 48.229360, 134.878352 48.211303, 134.865250 48.193244, 134.852157 48.175184, 134.839074 48.157123, 134.825999 48.139060, 134.812934 48.120995, 134.799878 48.102930, 134.786831 48.084862, 134.773793 48.066793, 134.760764 48.048723, 134.747745 48.030651, 134.734735 48.012578, 134.721733 47.994503, 134.708741 47.976427, 134.695758 47.958349, 134.682784 47.940270, 134.669820 47.922190, 134.656864 47.904108, 134.643917 47.886024, 134.630979 47.867939, 134.618051 47.849853, 134.605131 47.831765, 134.592220 47.813676, 134.579319 47.795585, 134.566426 47.777493, 134.553542 47.759399, 134.540667 47.741304, 134.527802 47.723207, 134.514945 47.705109, 134.502097 47.687010, 134.489258 47.668909, 134.476428 47.650807, 134.463606 47.632703, 134.450794 47.614598, 134.437990 47.596492, 134.425196 47.578384, 134.412410 47.560274, 134.399633 47.542163, 134.386865 47.524051, 134.374106 47.505938, 134.361355 47.487823, 134.348613 47.469706, 134.335880 47.451588, 134.323156 47.433469, 134.310441 47.415348, 134.297734 47.397226, 134.285036 47.379103, 134.272347 47.360978, 134.259667 47.342851, 134.246995 47.324724, 134.234332 47.306595, 134.221677 47.288464, 134.209032 47.270332, 134.196395 47.252199, 134.183766 47.234064, 134.171146 47.215928, 134.158535 47.197791, 134.145933 47.179652, 134.133339 47.161512, 134.120753 47.143370, 134.108177 47.125227, 134.095609 47.107083, 134.083049 47.088937, 134.070498 47.070790, 134.057955 47.052642, 134.045422 47.034492, 134.032896 47.016341, 134.020379 46.998188, 134.007871 46.980034, 133.995371 46.961879, 133.982879 46.943722, 133.970396 46.925565, 133.957922 46.907405, 133.945456 46.889244, 133.932998 46.871082, 133.920549 46.852919, 133.908108 46.834754, 133.895676 46.816588, 133.883252 46.798421, 133.870836 46.780252, 133.858429 46.762082, 133.846030 46.743910, 133.833640 46.725738, 133.821258 46.707563, 133.808884 46.689388, 133.796518 46.671211, 133.784161 46.653033, 133.771812 46.634854, 133.759472 46.616673, 133.747139 46.598491, 133.734815 46.580307, 133.722500 46.562122, 133.710192 46.543936, 133.697893 46.525749, 133.685602 46.507560, 133.673319 46.489370, 133.661045 46.471179, 133.648778 46.452986, 133.636520 46.434792, 133.624270 46.416597, 133.612028 46.398400, 133.599795 46.380202, 133.587569 46.362003, 133.575352 46.343803, 133.563142 46.325601, 133.550941 46.307398, 133.538748 46.289194, 133.526563 46.270988, 133.514387 46.252781, 133.502218 46.234573, 133.490057 46.216363, 133.477905 46.198152, 133.465760 46.179940, 133.453624 46.161727, 133.441495 46.143512, 133.429375 46.125296, 133.417262 46.107079, 133.405158 46.088860, 133.393061 46.070640, 133.380973 46.052419, 133.368893 46.034197, 133.356820 46.015973, 133.344755 45.997748, 133.332699 45.979522, 133.320650 45.961295, 133.308609 45.943066, 133.296577 45.924836, 133.284552 45.906605, 133.272535 45.888372, 133.260526 45.870138, 133.248524 45.851903, 133.236531 45.833667, 133.224545 45.815429, 133.212568 45.797191, 133.200598 45.778951, 133.188636 45.760709, 133.176682 45.742467, 133.164735 45.724223, 133.152797 45.705978, 133.140866 45.687732, 133.128943 45.669484, 133.117027 45.651236, 133.105120 45.632986, 133.093220 45.614734, 133.081328 45.596482, 133.069444 45.578228, 133.057567 45.559973, 133.045699 45.541717, 133.033838 45.523460, 133.021984 45.505201, 133.010138 45.486941, 132.998300 45.468680, 132.986470 45.450418, 132.974647 45.432155, 132.962832 45.413890, 132.951025 45.395624, 132.939225 45.377357, 132.927433 45.359088, 132.915648 45.340819, 132.903871 45.322548, 132.892102 45.304276, 132.880340 45.286003, 132.868586 45.267728, 132.856839 45.249453, 132.845100 45.231176, 132.833369 45.212898, 132.821645 45.194619, 132.809928 45.176338, 132.798219 45.158057, 132.786518 45.139774, 132.774824 45.121490, 132.763137 45.103205, 132.751458 45.084918, 132.739787 45.066631, 132.728123 45.048342, 132.716466 45.030052, 132.704817 45.011761, 132.693175 44.993469, 132.681541 44.975175, 132.669914 44.956880, 132.658295 44.938585, 132.646683 44.920288, 132.635078 44.901989, 132.623481 44.883690, 132.611891 44.865389, 132.600309 44.847088, 132.588734 44.828785, 132.577166 44.810481, 132.565605 44.792175, 132.554052 44.773869, 132.542506 44.755561, 132.530968 44.737253, 132.519437 44.718943, 132.507913 44.700632, 132.496396 44.682320, 132.484887 44.664006, 132.473385 44.645692, 132.461890 44.627376, 132.450403 44.609059, 132.438922 44.590741, 132.427449 44.572422, 132.415984 44.554102, 132.404525 44.535780, 132.393074 44.517458, 132.381629 44.499134, 132.370192 44.480809, 132.358762 44.462483, 132.347340 44.444156, 132.335924 44.425828, 132.324516 44.407498, 132.313115 44.389168, 132.301721 44.370836, 132.290334 44.352503, 132.278954 44.334170, 132.267581 44.315834, 132.256216 44.297498, 132.244857 44.279161, 132.233506 44.260823, 132.222162 44.242483, 132.210824 44.224142, 132.199494 44.205800, 132.188171 44.187458, 132.176855 44.169113, 132.165546 44.150768, 132.154244 44.132422, 132.142949 44.114075, 132.131661 44.095726, 132.120380 44.077377, 132.109106 44.059026, 132.097839 44.040674, 132.086579 44.022321, 132.075326 44.003967, 132.064080 43.985612, 132.052841 43.967256, 132.041609 43.948898, 132.030383 43.930540, 132.019165 43.912180, 132.007954 43.893820, 131.996749 43.875458, 131.985551 43.857095, 131.974361 43.838731, 131.963177 43.820366, 131.952000 43.802000, 131.949978 43.782258, 131.947957 43.762515, 131.945937 43.742773, 131.943919 43.723031, 131.941901 43.703288, 131.939886 43.683546, 131.937871 43.663803, 131.935858 43.644061, 131.933847 43.624318, 131.931836 43.604576, 131.929827 43.584833, 131.927819 43.565091, 131.925813 43.545348, 131.923808 43.525605, 131.921804 43.505862, 131.919801 43.486120, 131.917800 43.466377, 131.915800 43.446634, 131.913802 43.426891, 131.911804 43.407148, 131.909808 43.387405, 131.907814 43.367662, 131.905820 43.347919, 131.903828 43.328176, 131.901837 43.308433, 131.899848 43.288690, 131.897860 43.268947, 131.895873 43.249203, 131.893887 43.229460, 131.891903 43.209717, 131.889920 43.189974, 131.887938 43.170230, 131.885957 43.150487, 131.883978 43.130743, 131.882000 43.111000)
