LINESTRING (9.846000 46.498000, 9.846600 46.498750, 9.847200 46.499500, 9.847800 46.500250, 9.848399 46.501000, 9.848999 46.501750, 9.849599 46.502500, 9.850199 46.503250, 9.850799 46.504000, 9.851399 46.504750, 9.851999 46.505500, 9.852599 46.506250, 9.853199 46.507000, 9.853799 46.507750, 9.854399 46.508500, 9.854999 46.509250, 9.855599 46.510000, 9.856200 46.510750, 9.856800 46.511500, 9.857400 46.512250, 9.858000 46.513000, 9.859074 46.512488, 9.860147 46.511976, 9.861221 46.511464, 9.862294 46.510952, 9.863368 46.510440, 9.864441 46.509928, 9.865515 46.509416, 9.866588 46.508904, 9.867661 46.508392, 9.868735 46.507880, 9.869808 46.507368, 9.870882 46.506855, 9.871955 46.506343, 9.873028 46.505831, 9.874102 46.505319, 9.875175 46.504807, 9.876248 46.504295, 9.877321 46.503783, 9.878394 46.503270, 9.879468 46.502758, 9.880541 46.502246, 9.881614 46.501734, 9.882687 46.501222, 9.883760 46.500709, 9.884833 46.500197, 9.885906 46.499685, 9.886979 46.499173, 9.888052 46.498660, 9.889125 46.498148, 9.890198 46.497636, 9.891271 46.497124, 9.892344 46.496611, 9.893417 46.496099, 9.894490 46.495587, 9.895563 46.495074, 9.896636 46.494562, 9.897709 46.494050, 9.898782 46.493537, 9.899854 46.493025, 9.900927 46.492512, 9.902000 46.492000, 9.902691 46.491255, 9.903383 46.490509, 9.904074 46.489764, 9.904766 46.489019, 9.905457 46.488273, 9.906148 46.487528, 9.906840 46.486783, 9.907531 46.486037, 9.908222 46.485292, 9.908913 46.484546, 9.909605 46.483801, 9.910296 46.483056, 9.910987 46.482310, 9.911678 46.481565, 9.912369 46.480819, 9.913060 46.480074, 9.913752 46.479329, 9.914443 46.478583, 9.915134 46.477838, 9.915825 46.477092, 9.916516 46.476347, 9.917207 46.475602, 9.917898 46.474856, 9.918589 46.474111, 9.919280 46.473365, 9.919971 46.472620, 9.920662 46.471874, 9.921353 46.471129, 9.922043 46.470383, 9.922734 46.469638, 9.923425 46.468892, 9.924116 46.468147, 9.924807 46.467402, 9.925498 46.466656, 9.926188 46.465911, 9.926879 46.465165, 9.927570 46.464420, 9.928261 46.463674, 9.928951 46.462929, 9.929642 46.462183, 9.930333 46.461438, 9.931023 46.460692, 9.931714 46.459947, 9.932405 46.459201, 9.933095 46.458455, 9.933786 46.457710, 9.934476 46.456964, 9.935167 46.456219, 9.935857 46.455473, 9.936548 46.454728, 9.937238 46.453982, 9.937929 46.453237, 9.938619 46.452491, 9.939310 46.451746, 9.940000 46.451000, 9.941212 46.450727, 9.942425 46.450455, 9.943637 46.450182, 9.944849 46.449910, 9.946061 46.449637, 9.947274 46.449365, 9.948486 46.449092, 9.949698 46.448819, 9.950910 46.448547, 9.952123 46.448274, 9.953335 46.448002, 9.954547 46.447729, 9.955759 46.447456, 9.956971 46.447184, 9.958183 46.446911, 9.959396 46.446638, 9.960608 46.446365, 9.961820 46.446093, 9.963032 46.445820, 9.964244 46.445547, 9.965456 46.445274, 9.966668 46.445002, 9.967880 46.444729, 9.969092 46.444456, 9.970304 46.444183, 9.971516 46.443910, 9.972728 46.443637, 9.973940 46.443365, 9.975152 46.443092, 9.976364 46.442819, 9.977576 46.442546, 9.978788 46.442273, 9.980000 46.442000, 9.980817 46.441306, 9.981634 46.440613, 9.982450 46.439919, 9.983267 46.439225, 9.984084 46.438531, 9.984901 46.437837, 9.985717 46.437144, 9.986534 46.436450, 9.987351 46.435756, 9.988167 46.435062, 9.988984 46.434369, 9.989801 46.433675, 9.990617 46.432981, 9.991434 46.432287, 9.992250 46.431593, 9.993067 46.430899, 9.993883 46.430206, 9.994700 46.429512, 9.995516 46.428818, 9.996333 46.428124, 9.997149 46.427430, 9.997965 46.426736, 9.998782 46.426043, 9.999598 46.425349, 10.000414 46.424655, 10.001231 46.423961, 10.002047 46.423267, 10.002863 46.422573, 10.003679 46.421879, 10.004496 46.421185, 10.005312 46.420491, 10.006128 46.419797, 10.006944 46.419104, 10.007760 46.418410, 10.008577 46.417716, 10.009393 46.417022, 10.010209 46.416328, 10.011025 46.415634, 10.011841 46.414940, 10.012657 46.414246, 10.013473 46.413552, 10.014289 46.412858, 10.015105 46.412164, 10.015921 46.411470, 10.016737 46.410776, 10.017552 46.410082, 10.018368 46.409388, 10.019184 46.408694, 10.020000 46.408000, 10.020237 46.407132, 10.020474 46.406263, 10.020711 46.405395, 10.020948 46.404526, 10.021185 46.403658, 10.021422 46.402790, 10.021659 46.401921, 10.021896 46.401053, 10.022133 46.400184, 10.022369 46.399316, 10.022606 46.398447, 10.022843 46.397579, 10.023080 46.396711, 10.023317 46.395842, 10.023554 46.394974, 10.023791 46.394105, 10.024028 46.393237, 10.024265 46.392369, 10.024501 46.391500, 10.024738 46.390632, 10.024975 46.389763, 10.025212 46.388895, 10.025449 46.388026, 10.025685 46.387158, 10.025922 46.386290, 10.026159 46.385421, 10.026396 46.384553, 10.026633 46.383684, 10.026869 46.382816, 10.027106 46.381947, 10.027343 46.381079, 10.027580 46.380211, 10.027816 46.379342, 10.028053 46.378474, 10.028290 46.377605, 10.028527 46.376737, 10.028763 46.375868, 10.029000 46.375000, 10.029941 46.374412, 10.030883 46.373824, 10.031824 46.373235, 10.032765 46.372647, 10.033706 46.372059, 10.034648 46.371471, 10.035589 46.370883, 10.036530 46.370294, 10.037471 46.369706, 10.038412 46.369118, 10.039354 46.368530, 10.040295 46.367941, 10.041236 46.367353, 10.042177 46.366765, 10.043118 46.366177, 10.044059 46.365588, 10.045000 46.365000, 10.045218 46.364130, 10.045435 46.363261, 10.045653 46.362391, 10.045870 46.361522, 10.046088 46.360652, 10.046305 46.359783, 10.046523 46.358913, 10.046740 46.358044, 10.046958 46.357174, 10.047175 46.356304, 10.047393 46.355435, 10.047610 46.354565, 10.047828 46.353696, 10.048045 46.352826, 10.048262 46.351957, 10.048480 46.351087, 10.048697 46.350217, 10.048915 46.349348, 10.049132 46.348478, 10.049350 46.347609, 10.049567 46.346739, 10.049784 46.345870, 10.050002 46.345000, 10.050219 46.344131, 10.050437 46.343261, 10.050654 46.342391, 10.050871 46.341522, 10.051089 46.340652, 10.051306 46.339783, 10.051523 46.338913, 10.051741 46.338044, 10.051958 46.337174, 10.052175 46.336304, 10.052393 46.335435, 10.052610 46.334565, 10.052827 46.333696, 10.053045 46.332826, 10.053262 46.331957, 10.053479 46.331087, 10.053696 46.330217, 10.053914 46.329348, 10.054131 46.328478, 10.054348 46.327609, 10.054566 46.326739, 10.054783 46.325870, 10.055000 46.325000, 10.055572 46.324214, 10.056144 46.323429, 10.056715 46.322643, 10.057287 46.321857, 10.057859 46.321072, 10.058430 46.320286, 10.059002 46.319500, 10.059574 46.318715, 10.060145 46.317929, 10.060717 46.317143, 10.061289 46.316358, 10.061860 46.315572, 10.062432 46.314786, 10.063003 46.314001, 10.063575 46.313215, 10.064146 46.312429, 10.064718 46.311643, 10.065289 46.310858, 10.065861 46.310072, 10.066432 46.309286, 10.067004 46.308501, 10.067575 46.307715, 10.068146 46.306929, 10.068718 46.306143, 10.069289 46.305358, 10.069861 46.304572, 10.070432 46.303786, 10.071003 46.303001, 10.071575 46.302215, 10.072146 46.301429, 10.072717 46.300643, 10.073288 46.299858, 10.073860 46.299072, 10.074431 46.298286, 10.075002 46.297500, 10.075573 46.296715, 10.076144 46.295929, 10.076716 46.295143, 10.077287 46.294357, 10.077858 46.293572, 10.078429 46.292786, 10.079000 46.292000, 10.079786 46.291322, 10.080572 46.290643, 10.081358 46.289964, 10.082144 46.289286, 10.082930 46.288607, 10.083716 46.287929, 10.084501 46.287250, 10.085287 46.286572, 10.086073 46.285893, 10.086859 46.285215, 10.087645 46.284536, 10.088430 46.283858, 10.089216 46.283179, 10.090002 46.282501, 10.090788 46.281822, 10.091573 46.281143, 10.092359 46.280465, 10.093145 46.279786, 10.093930 46.279108, 10.094716 46.278429, 10.095501 46.277750, 10.096287 46.277072, 10.097073 46.276393, 10.097858 46.275715, 10.098644 46.275036, 10.099429 46.274357, 10.100215 46.273679, 10.101000 46.273000, 10.102000 46.272440, 10.103000 46.271880, 10.104001 46.271320, 10.105001 46.270760, 10.106001 46.270200, 10.107001 46.269640, 10.108001 46.269081, 10.109001 46.268521, 10.110001 46.267961, 10.111002 46.267401, 10.112002 46.266841, 10.113002 46.266281, 10.114002 46.265721, 10.115002 46.265161, 10.116002 46.264601, 10.117001 46.264041, 10.118001 46.263481, 10.119001 46.262921, 10.120001 46.262360, 10.121001 46.261800, 10.122001 46.261240, 10.123001 46.260680, 10.124000 46.260120, 10.125000 46.259560, 10.126000 46.259000, 10.126563 46.258219, 10.127125 46.257438, 10.127688 46.256656, 10.128251 46.255875, 10.128814 46.255094, 10.129376 46.254313, 10.129939 46.253531, 10.130502 46.252750, 10.131064 46.251969, 10.131627 46.251188, 10.132189 46.250407, 10.132752 46.249625, 10.133314 46.248844, 10.133877 46.248063, 10.134440 46.247282, 10.135002 46.246500, 10.135565 46.245719, 10.136127 46.244938, 10.136689 46.244157, 10.137252 46.243375, 10.137814 46.242594, 10.138377 46.241813, 10.138939 46.241032, 10.139502 46.240250, 10.140064 46.239469, 10.140626 46.238688, 10.141189 46.237906, 10.141751 46.237125, 10.142313 46.236344, 10.142875 46.235563, 10.143438 46.234781, 10.144000 46.234000, 10.144893 46.233357, 10.145786 46.232714, 10.146679 46.232072, 10.147572 46.231429, 10.148465 46.230786, 10.149359 46.230143, 10.150252 46.229501, 10.151145 46.228858, 10.152038 46.228215, 10.152930 46.227572, 10.153823 46.226929, 10.154716 46.226286, 10.155609 46.225644, 10.156502 46.225001, 10.157395 46.224358, 10.158288 46.223715, 10.159181 46.223072, 10.160073 46.222429, 10.160966 46.221786, 10.161859 46.221143, 10.162752 46.220501, 10.163644 46.219858, 10.164537 46.219215, 10.165430 46.218572, 10.166322 46.217929, 10.167215 46.217286, 10.168107 46.216643, 10.169000 46.216000)
