LINESTRING (139.767000 35.681000, 139.766131 35.679995, 139.765262 35.678990, 139.764393 35.677984, 139.763524 35.676979, 139.762656 35.675974, 139.761787 35.674968, 139.760918 35.673963, 139.760049 35.672958, 139.759180 35.671953, 139.758312 35.670947, 139.757443 35.669942, 139.756574 35.668937, 139.755706 35.667931, 139.754837 35.666926, 139.753968 35.665921, 139.753100 35.664915, 139.752231 35.663910, 139.751363 35.662905, 139.750494 35.661899, 139.749626 35.660894, 139.748757 35.659889, 139.747889 35.658883, 139.747020 35.657878, 139.746152 35.656872, 139.745283 35.655867, 139.744415 35.654862, 139.743547 35.653856, 139.742678 35.652851, 139.741810 35.651845, 139.740942 35.650840, 139.740073 35.649834, 139.739205 35.648829, 139.738337 35.647824, 139.737469 35.646818, 139.736601 35.645813, 139.735732 35.644807, 139.734864 35.643802, 139.733996 35.642796, 139.733128 35.641791, 139.732260 35.640785, 139.731392 35.639780, 139.730524 35.638774, 139.729656 35.637769, 139.728788 35.636763, 139.727920 35.635758, 139.727052 35.634752, 139.726184 35.633747, 139.725316 35.632741, 139.724448 35.631736, 139.723580 35.630730, 139.722713 35.629725, 139.721845 35.628719, 139.720977 35.627713, 139.720109 35.626708, 139.719241 35.625702, 139.718374 35.624697, 139.717506 35.623691, 139.716638 35.622685, 139.715771 35.621680, 139.714903 35.620674, 139.714035 35.619669, 139.713168 35.618663, 139.712300 35.617657, 139.711433 35.616652, 139.710565 35.615646, 139.709698 35.614640, 139.708830 35.613635, 139.707963 35.612629, 139.707095 35.611623, 139.706228 35.610618, 139.705360 35.609612, 139.704493 35.608606, 139.703626 35.607601, 139.702758 35.606595, 139.701891 35.605589, 139.701024 35.604584, 139.700156 35.603578, 139.699289 35.602572, 139.698422 35.601566, 139.697555 35.600561, 139.696688 35.599555, 139.695820 35.598549, 139.694953 35.597543, 139.694086 35.596538, 139.693219 35.595532, 139.692352 35.594526, 139.691485 35.593520, 139.690618 35.592515, 139.689751 35.591509, 139.688884 35.590503, 139.688017 35.589497, 139.687150 35.588491, 139.686283 35.587486, 139.685416 35.586480, 139.684549 35.585474, 139.683682 35.584468, 139.682816 35.583462, 139.681949 35.582456, 139.681082 35.581450, 139.680215 35.580445, 139.679349 35.579439, 139.678482 35.578433, 139.677615 35.577427, 139.676748 35.576421, 139.675882 35.575415, 139.675015 35.574409, 139.674149 35.573403, 139.673282 35.572398, 139.672415 35.571392, 139.671549 35.570386, 139.670682 35.569380, 139.669816 35.568374, 139.668949 35.567368, 139.668083 35.566362, 139.667216 35.565356, 139.666350 35.564350, 139.665484 35.563344, 139.664617 35.562338, 139.663751 35.561332, 139.662885 35.560326, 139.662018 35.559320, 139.661152 35.558314, 139.660286 35.557308, 139.659419 35.556302, 139.658553 35.555296, 139.657687 35.554290, 139.656821 35.553284, 139.655955 35.552278, 139.655089 35.551272, 139.654222 35.550266, 139.653356 35.549260, 139.652490 35.548254, 139.651624 35.547248, 139.650758 35.546242, 139.649892 35.545236, 139.649026 35.544229, 139.648160 35.543223, 139.647294 35.542217, 139.646428 35.541211, 139.645562 35.540205, 139.644697 35.539199, 139.643831 35.538193, 139.642965 35.537187, 139.642099 35.536181, 139.641233 35.535174, 139.640368 35.534168, 139.639502 35.533162, 139.638636 35.532156, 139.637770 35.531150, 139.636905 35.530144, 139.636039 35.529137, 139.635173 35.528131, 139.634308 35.527125, 139.633442 35.526119, 139.632577 35.525113, 139.631711 35.524106, 139.630846 35.523100, 139.629980 35.522094, 139.629115 35.521088, 139.628249 35.520082, 139.627384 35.519075, 139.626518 35.518069, 139.625653 35.517063, 139.624787 35.516057, 139.623922 35.515050, 139.623057 35.514044, 139.622191 35.513038, 139.621326 35.512032, 139.620461 35.511025, 139.619596 35.510019, 139.618730 35.509013, 139.617865 35.508006, 139.617000 35.507000, 139.615741 35.506320, 139.614481 35.505641, 139.613222 35.504961, 139.611963 35.504281, 139.610704 35.503601, 139.609444 35.502922, 139.608185 35.502242, 139.606926 35.501562, 139.605667 35.500882, 139.604408 35.500203, 139.603148 35.499523, 139.601889 35.498843, 139.600630 35.498163, 139.599371 35.497483, 139.598112 35.496803, 139.596853 35.496124, 139.595594 35.495444, 139.594335 35.494764, 139.593076 35.494084, 139.591817 35.493404, 139.590558 35.492724, 139.589300 35.492044, 139.588041 35.491364, 139.586782 35.490684, 139.585523 35.490004, 139.584264 35.489324, 139.583005 35.488644, 139.581747 35.487964, 139.580488 35.487284, 139.579229 35.486604, 139.577971 35.485924, 139.576712 35.485244, 139.575453 35.484564, 139.574195 35.483884, 139.572936 35.483204, 139.571677 35.482523, 139.570419 35.481843, 139.569160 35.481163, 139.567902 35.480483, 139.566643 35.479803, 139.565385 35.479123, 139.564126 35.478442, 139.562868 35.477762, 139.561609 35.477082, 139.560351 35.476402, 139.559093 35.475721, 139.557834 35.475041, 139.556576 35.474361, 139.555318 35.473680, 139.554059 35.473000, 139.552801 35.472320, 139.551543 35.471640, 139.550285 35.470959, 139.549026 35.470279, 139.547768 35.469598, 139.546510 35.468918, 139.545252 35.468238, 139.543994 35.467557, 139.542736 35.466877, 139.541478 35.466196, 139.540220 35.465516, 139.538961 35.464835, 139.537703 35.464155, 139.536445 35.463474, 139.535188 35.462794, 139.533930 35.462113, 139.532672 35.461433, 139.531414 35.460752, 139.530156 35.460072, 139.528898 35.459391, 139.527640 35.458711, 139.526382 35.458030, 139.525124 35.457349, 139.523867 35.456669, 139.522609 35.455988, 139.521351 35.455307, 139.520094 35.454627, 139.518836 35.453946, 139.517578 35.453265, 139.516320 35.452585, 139.515063 35.451904, 139.513805 35.451223, 139.512548 35.450542, 139.511290 35.449862, 139.510033 35.449181, 139.508775 35.448500, 139.507518 35.447819, 139.506260 35.447138, 139.505003 35.446458, 139.503745 35.445777, 139.502488 35.445096, 139.501230 35.444415, 139.499973 35.443734, 139.498716 35.443053, 139.497458 35.442372, 139.496201 35.441691, 139.494944 35.441011, 139.493686 35.440330, 139.492429 35.439649, 139.491172 35.438968, 139.489915 35.438287, 139.488657 35.437606, 139.487400 35.436925, 139.486143 35.436244, 139.484886 35.435563, 139.483629 35.434882, 139.482372 35.434201, 139.481115 35.433519, 139.479858 35.432838, 139.478601 35.432157, 139.477344 35.431476, 139.476087 35.430795, 139.474830 35.430114, 139.473573 35.429433, 139.472316 35.428752, 139.471059 35.428070, 139.469802 35.427389, 139.468545 35.426708, 139.467289 35.426027, 139.466032 35.425346, 139.464775 35.424664, 139.463518 35.423983, 139.462262 35.423302, 139.461005 35.422621, 139.459748 35.421939, 139.458491 35.421258, 139.457235 35.420577, 139.455978 35.419895, 139.454722 35.419214, 139.453465 35.418533, 139.452208 35.417851, 139.450952 35.417170, 139.449695 35.416488, 139.448439 35.415807, 139.447182 35.415126, 139.445926 35.414444, 139.444669 35.413763, 139.443413 35.413081, 139.442157 35.412400, 139.440900 35.411718, 139.439644 35.411037, 139.438388 35.410355, 139.437131 35.409674, 139.435875 35.408992, 139.434619 35.408311, 139.433362 35.407629, 139.432106 35.406947, 139.430850 35.406266, 139.429594 35.405584, 139.428338 35.404903, 139.427081 35.404221, 139.425825 35.403539, 139.424569 35.402858, 139.423313 35.402176, 139.422057 35.401494, 139.420801 35.400813, 139.419545 35.400131, 139.418289 35.399449, 139.417033 35.398767, 139.415777 35.398086, 139.414521 35.397404, 139.413265 35.396722, 139.412009 35.396040, 139.410754 35.395359, 139.409498 35.394677, 139.408242 35.393995, 139.406986 35.393313, 139.405730 35.392631, 139.404475 35.391949, 139.403219 35.391268, 139.401963 35.390586, 139.400707 35.389904, 139.399452 35.389222, 139.398196 35.388540, 139.396940 35.387858, 139.395685 35.387176, 139.394429 35.386494, 139.393174 35.385812, 139.391918 35.385130, 139.390663 35.384448, 139.389407 35.383766, 139.388152 35.383084, 139.386896 35.382402, 139.385641 35.381720, 139.384385 35.381038, 139.383130 35.380356, 139.381874 35.379674, 139.380619 35.378991, 139.379364 35.378309, 139.378108 35.377627, 139.376853 35.376945, 139.375598 35.376263, 139.374343 35.375581, 139.373087 35.374898, 139.371832 35.374216, 139.370577 35.373534, 139.369322 35.372852, 139.368067 35.372170, 139.366812 35.371487, 139.365556 35.370805, 139.364301 35.370123, 139.363046 35.369440, 139.361791 35.368758, 139.360536 35.368076, 139.359281 35.367394, 139.358026 35.366711, 139.356771 35.366029, 139.355516 35.365346, 139.354261 35.364664, 139.353007 35.363982, 139.351752 35.363299, 139.350497 35.362617, 139.349242 35.361934, 139.347987 35.361252, 139.346732 35.360569, 139.345478 35.359887, 139.344223 35.359205, 139.342968 35.358522, 139.341714 35.357839, 139.340459 35.357157, 139.339204 35.356474, 139.337950 35.355792, 139.336695 35.355109, 139.335440 35.354427, 139.334186 35.353744, 139.332931 35.353062, 139.331677 35.352379, 139.330422 35.351696, 139.329168 35.351014, 139.327913 35.350331, 139.326659 35.349648, 139.325404 35.348966, 139.324150 35.348283, 139.322896 35.347600, 139.321641 35.346917, 139.320387 35.346235, 139.319133 35.345552, 139.317878 35.344869, 139.316624 35.344186, 139.315370 35.343504, 139.314116 35.342821, 139.312861 35.342138, 139.311607 35.341455, 139.310353 35.340772, 139.309099 35.340090, 139.307845 35.339407, 139.306591 35.338724, 139.305336 35.338041, 139.304082 35.337358, 139.302828 35.336675, 139.301574 35.335992, 139.300320 35.335309, 139.299066 35.334626, 139.297812 35.333943, 139.296558 35.333260, 139.295305 35.332577, 139.294051 35.331894, 139.292797 35.331211, 139.291543 35.330528, 139.290289 35.329845, 139.289035 35.329162, 139.287782 35.328479, 139.286528 35.327796, 139.285274 35.327113, 139.284020 35.326430, 139.282767 35.325747, 139.281513 35.325063, 139.280259 35.324380, 139.279006 35.323697, 139.277752 35.323014, 139.276498 35.322331, 139.275245 35.321648, 139.273991 35.320964, 139.272738 35.320281, 139.271484 35.319598, 139.270231 35.318915, 139.268977 35.318231, 139.267724 35.317548, 139.266470 35.316865, 139.265217 35.316182, 139.263964 35.315498, 139.262710 35.314815, 139.261457 35.314132, 139.260204 35.313448, 139.258950 35.312765, 139.257697 35.312081, 139.256444 35.311398, 139.255190 35.310715, 139.253937 35.310031, 139.252684 35.309348, 139.251431 35.308664, 139.250178 35.307981, 139.248925 35.307297, 139.247671 35.306614, 139.246418 35.305930, 139.245165 35.305247, 139.243912 35.304563, 139.242659 35.303880, 139.241406 35.303196, 139.240153 35.302513, 139.238900 35.301829, 139.237647 35.301146, 139.236394 35.300462, 139.235142 35.299778, 139.233889 35.299095, 139.232636 35.298411, 139.231383 35.297727, 139.230130 35.297044, 139.228877 35.296360, 139.227625 35.295676, 139.226372 35.294993, 139.225119 35.294309, 139.223866 35.293625, 139.222614 35.292941, 139.221361 35.292258, 139.220108 35.291574, 139.218856 35.290890, 139.217603 35.290206, 139.216351 35.289522, 139.215098 35.288839, 139.213845 35.288155, 139.212593 35.287471, 139.211340 35.286787, 139.210088 35.286103, 139.208836 35.285419, 139.207583 35.284735, 139.206331 35.284052, 139.205078 35.283368, 139.203826 35.282684, 139.202574 35.282000, 139.201321 35.281316, 139.200069 35.280632, 139.198817 35.279948, 139.197564 35.279264, 139.196312 35.278580, 139.195060 35.277896, 139.193808 35.277212, 139.192556 35.276528, 139.191303 35.275844, 139.190051 35.275160, 139.188799 35.274475, 139.187547 35.273791, 139.186295 35.273107, 139.185043 35.272423, 139.183791 35.271739, 139.182539 35.271055, 139.181287 35.270371, 139.180035 35.269686, 139.178783 35.269002, 139.177531 35.268318, 139.176279 35.267634, 139.175027 35.266950, 139.173775 35.266265, 139.172524 35.265581, 139.171272 35.264897, 139.170020 35.264212, 139.168768 35.263528, 139.167516 35.262844, 139.166265 35.262160, 139.165013 35.261475, 139.163761 35.260791, 139.162510 35.260106, 139.161258 35.259422, 139.160006 35.258738, 139.158755 35.258053, 139.157503 35.257369, 139.156252 35.256684, 139.155000 35.256000, 139.154429 35.254867, 139.153857 35.253734, 139.153286 35.252601, 139.152714 35.251467, 139.152143 35.250334, 139.151572 35.249201, 139.151000 35.248068, 139.150429 35.246935, 139.149858 35.245802, 139.149286 35.244668, 139.148715 35.243535, 139.148144 35.242402, 139.147573 35.241269, 139.147001 35.240136, 139.146430 35.239002, 139.145859 35.237869, 139.145288 35.236736, 139.144717 35.235603, 139.144145 35.234470, 139.143574 35.233336, 139.143003 35.232203, 139.142432 35.231070, 139.141861 35.229937, 139.141290 35.228804, 139.140719 35.227670, 139.140148 35.226537, 139.139577 35.225404, 139.139006 35.224271, 139.138435 35.223137, 139.137864 35.222004, 139.137293 35.220871, 139.136722 35.219738, 139.136151 35.218605, 139.135580 35.217471, 139.135009 35.216338, 139.134438 35.215205, 139.133867 35.214072, 139.133297 35.212938, 139.132726 35.211805, 139.132155 35.210672, 139.131584 35.209538, 139.131013 35.208405, 139.130443 35.207272, 139.129872 35.206139, 139.129301 35.205005, 139.128730 35.203872, 139.128160 35.202739, 139.127589 35.201606, 139.127018 35.200472, 139.126448 35.199339, 139.125877 35.198206, 139.125306 35.197072, 139.124736 35.195939, 139.124165 35.194806, 139.123595 35.193673, 139.123024 35.192539, 139.122454 35.191406, 139.121883 35.190273, 139.121312 35.189139, 139.120742 35.188006, 139.120172 35.186873, 139.119601 35.185739, 139.119031 35.184606, 139.118460 35.183473, 139.117890 35.182339, 139.117319 35.181206, 139.116749 35.180073, 139.116179 35.178939, 139.115608 35.177806, 139.115038 35.176673, 139.114468 35.175539, 139.113897 35.174406, 139.113327 35.173273, 139.112757 35.172139, 139.112186 35.171006, 139.111616 35.169873, 139.111046 35.168739, 139.110476 35.167606, 139.109906 35.166473, 139.109335 35.165339, 139.108765 35.164206, 139.108195 35.163072, 139.107625 35.161939, 139.107055 35.160806, 139.106485 35.159672, 139.105915 35.158539, 139.105345 35.157406, 139.104775 35.156272, 139.104204 35.155139, 139.103634 35.154005, 139.103064 35.152872, 139.102494 35.151739, 139.101925 35.150605, 139.101355 35.149472, 139.100785 35.148338, 139.100215 35.147205, 139.099645 35.146072, 139.099075 35.144938, 139.098505 35.143805, 139.097935 35.142671, 139.097365 35.141538, 139.096795 35.140404, 139.096226 35.139271, 139.095656 35.138138, 139.095086 35.137004, 139.094516 35.135871, 139.093947 35.134737, 139.093377 35.133604, 139.092807 35.132470, 139.092237 35.131337, 139.091668 35.130204, 139.091098 35.129070, 139.090528 35.127937, 139.089959 35.126803, 139.089389 35.125670, 139.088820 35.124536, 139.088250 35.123403, 139.087680 35.122269, 139.087111 35.121136, 139.086541 35.120002, 139.085972 35.118869, 139.085402 35.117735, 139.084833 35.116602, 139.084263 35.115468, 139.083694 35.114335, 139.083124 35.113202, 139.082555 35.112068, 139.081985 35.110935, 139.081416 35.109801, 139.080847 35.108668, 139.080277 35.107534, 139.079708 35.106401, 139.079139 35.105267, 139.078569 35.104134, 139.078000 35.103000, 139.076518 35.103206, 139.075037 35.103413, 139.073555 35.103619, 139.072073 35.103825, 139.070591 35.104032, 139.069110 35.104238, 139.067628 35.104444, 139.066146 35.104650, 139.064664 35.104857, 139.063182 35.105063, 139.061701 35.105269, 139.060219 35.105475, 139.058737 35.105681, 139.057255 35.105887, 139.055773 35.106093, 139.054291 35.106300, 139.052810 35.106506, 139.051328 35.106712, 139.049846 35.106918, 139.048364 35.107124, 139.046882 35.107330, 139.045400 35.107536, 139.043918 35.107742, 139.042436 35.107948, 139.040955 35.108154, 139.039473 35.108359, 139.037991 35.108565, 139.036509 35.108771, 139.035027 35.108977, 139.033545 35.109183, 139.032063 35.109389, 139.030581 35.109595, 139.029099 35.109800, 139.027617 35.110006, 139.026135 35.110212, 139.024653 35.110418, 139.023171 35.110623, 139.021689 35.110829, 139.020207 35.111035, 139.018725 35.111240, 139.017243 35.111446, 139.015761 35.111652, 139.014279 35.111857, 139.012797 35.112063, 139.011315 35.112268, 139.009833 35.112474, 139.008351 35.112679, 139.006869 35.112885, 139.005387 35.113090, 139.003904 35.113296, 139.002422 35.113501, 139.000940 35.113707, 138.999458 35.113912, 138.997976 35.114118, 138.996494 35.114323, 138.995012 35.114528, 138.993530 35.114734, 138.992047 35.114939, 138.990565 35.115144, 138.989083 35.115350, 138.987601 35.115555, 138.986119 35.115760, 138.984637 35.115965, 138.983154 35.116171, 138.981672 35.116376, 138.980190 35.116581, 138.978708 35.116786, 138.977225 35.116991, 138.975743 35.117196, 138.974261 35.117402, 138.972779 35.117607, 138.971296 35.117812, 138.969814 35.118017, 138.968332 35.118222, 138.966850 35.118427, 138.965367 35.118632, 138.963885 35.118837, 138.962403 35.119042, 138.960920 35.119247, 138.959438 35.119452, 138.957956 35.119657, 138.956473 35.119861, 138.954991 35.120066, 138.953509 35.120271, 138.952026 35.120476, 138.950544 35.120681, 138.949062 35.120886, 138.947579 35.121090, 138.946097 35.121295, 138.944615 35.121500, 138.943132 35.121705, 138.941650 35.121909, 138.940167 35.122114, 138.938685 35.122319, 138.937202 35.122523, 138.935720 35.122728, 138.934238 35.122933, 138.932755 35.123137, 138.931273 35.123342, 138.929790 35.123547, 138.928308 35.123751, 138.926825 35.123956, 138.925343 35.124160, 138.923860 35.124365, 138.922378 35.124569, 138.920895 35.124774, 138.919413 35.124978, 138.917930 35.125182, 138.916448 35.125387, 138.914965 35.125591, 138.913483 35.125796, 138.912000 35.126000, 138.910584 35.125587, 138.909168 35.125174, 138.907752 35.124760, 138.906335 35.124347, 138.904919 35.123934, 138.903503 35.123521, 138.902087 35.123107, 138.900671 35.122694, 138.899255 35.122281, 138.897839 35.121867, 138.896423 35.121454, 138.895007 35.121041, 138.893591 35.120627, 138.892175 35.120214, 138.890759 35.119800, 138.889343 35.119387, 138.887927 35.118974, 138.886511 35.118560, 138.885095 35.118147, 138.883679 35.117733, 138.882263 35.117320, 138.880848 35.116906, 138.879432 35.116493, 138.878016 35.116079, 138.876600 35.115665, 138.875184 35.115252, 138.873768 35.114838, 138.872353 35.114425, 138.870937 35.114011, 138.869521 35.113597, 138.868105 35.113184, 138.866690 35.112770, 138.865274 35.112356, 138.863858 35.111942, 138.862443 35.111529, 138.861027 35.111115, 138.859611 35.110701, 138.858196 35.110287, 138.856780 35.109874, 138.855364 35.109460, 138.853949 35.109046, 138.852533 35.108632, 138.851118 35.108218, 138.849702 35.107804, 138.848287 35.107390, 138.846871 35.106976, 138.845456 35.106562, 138.844040 35.106148, 138.842625 35.105734, 138.841209 35.105320, 138.839794 35.104906, 138.838378 35.104492, 138.836963 35.104078, 138.835547 35.103664, 138.834132 35.103250, 138.832717 35.102836, 138.831301 35.102422, 138.829886 35.102008, 138.828471 35.101594, 138.827055 35.101180, 138.825640 35.100765, 138.824225 35.100351, 138.822809 35.099937, 138.821394 35.099523, 138.819979 35.099109, 138.818564 35.098694, 138.817148 35.098280, 138.815733 35.097866, 138.814318 35.097452, 138.812903 35.097037, 138.811488 35.096623, 138.810073 35.096208, 138.808657 35.095794, 138.807242 35.095380, 138.805827 35.094965, 138.804412 35.094551, 138.802997 35.094136, 138.801582 35.093722, 138.800167 35.093308, 138.798752 35.092893, 138.797337 35.092479, 138.795922 35.092064, 138.794507 35.091649, 138.793092 35.091235, 138.791677 35.090820, 138.790262 35.090406, 138.788847 35.089991, 138.787432 35.089577, 138.786017 35.089162, 138.784602 35.088747, 138.783187 35.088333, 138.781773 35.087918, 138.780358 35.087503, 138.778943 35.087089, 138.777528 35.086674, 138.776113 35.086259, 138.774699 35.085844, 138.773284 35.085429, 138.771869 35.085015, 138.770454 35.084600, 138.769040 35.084185, 138.767625 35.083770, 138.766210 35.083355, 138.764795 35.082940, 138.763381 35.082526, 138.761966 35.082111, 138.760551 35.081696, 138.759137 35.081281, 138.757722 35.080866, 138.756308 35.080451, 138.754893 35.080036, 138.753478 35.079621, 138.752064 35.079206, 138.750649 35.078791, 138.749235 35.078376, 138.747820 35.077961, 138.746406 35.077545, 138.744991 35.077130, 138.743577 35.076715, 138.742162 35.076300, 138.740748 35.075885, 138.739333 35.075470, 138.737919 35.075055, 138.736505 35.074639, 138.735090 35.074224, 138.733676 35.073809, 138.732262 35.073394, 138.730847 35.072978, 138.729433 35.072563, 138.728019 35.072148, 138.726604 35.071732, 138.725190 35.071317, 138.723776 35.070902, 138.722361 35.070486, 138.720947 35.070071, 138.719533 35.069656, 138.718119 35.069240, 138.716705 35.068825, 138.715290 35.068409, 138.713876 35.067994, 138.712462 35.067578, 138.711048 35.067163, 138.709634 35.066747, 138.708220 35.066332, 138.706806 35.065916, 138.705392 35.065501, 138.703977 35.065085, 138.702563 35.064669, 138.701149 35.064254, 138.699735 35.063838, 138.698321 35.063423, 138.696907 35.063007, 138.695493 35.062591, 138.694079 35.062175, 138.692665 35.061760, 138.691251 35.061344, 138.689838 35.060928, 138.688424 35.060512, 138.687010 35.060097, 138.685596 35.059681, 138.684182 35.059265, 138.682768 35.058849, 138.681354 35.058433, 138.679940 35.058018, 138.678527 35.057602, 138.677113 35.057186, 138.675699 35.056770, 138.674285 35.056354, 138.672872 35.055938, 138.671458 35.055522, 138.670044 35.055106, 138.668630 35.054690, 138.667217 35.054274, 138.665803 35.053858, 138.664389 35.053442, 138.662976 35.053026, 138.661562 35.052610, 138.660148 35.052194, 138.658735 35.051778, 138.657321 35.051361, 138.655908 35.050945, 138.654494 35.050529, 138.653081 35.050113, 138.651667 35.049697, 138.650253 35.049281, 138.648840 35.048864, 138.647426 35.048448, 138.646013 35.048032, 138.644600 35.047616, 138.643186 35.047199, 138.641773 35.046783, 138.640359 35.046367, 138.638946 35.045950, 138.637532 35.045534, 138.636119 35.045118, 138.634706 35.044701, 138.633292 35.044285, 138.631879 35.043868, 138.630466 35.043452, 138.629052 35.043035, 138.627639 35.042619, 138.626226 35.042202, 138.624813 35.041786, 138.623399 35.041369, 138.621986 35.040953, 138.620573 35.040536, 138.619160 35.040120, 138.617746 35.039703, 138.616333 35.039287, 138.614920 35.038870, 138.613507 35.038453, 138.612094 35.038037, 138.610681 35.037620, 138.609268 35.037203, 138.607855 35.036787, 138.606441 35.036370, 138.605028 35.035953, 138.603615 35.035536, 138.602202 35.035120, 138.600789 35.034703, 138.599376 35.034286, 138.597963 35.033869, 138.596550 35.033452, 138.595137 35.033036, 138.593724 35.032619, 138.592311 35.032202, 138.590899 35.031785, 138.589486 35.031368, 138.588073 35.030951, 138.586660 35.030534, 138.585247 35.030117, 138.583834 35.029700, 138.582421 35.029283, 138.581009 35.028866, 138.579596 35.028449, 138.578183 35.028032, 138.576770 35.027615, 138.575357 35.027198, 138.573945 35.026781, 138.572532 35.026364, 138.571119 35.025947, 138.569707 35.025529, 138.568294 35.025112, 138.566881 35.024695, 138.565469 35.024278, 138.564056 35.023861, 138.562643 35.023444, 138.561231 35.023026, 138.559818 35.022609, 138.558405 35.022192, 138.556993 35.021774, 138.555580 35.021357, 138.554168 35.020940, 138.552755 35.020522, 138.551343 35.020105, 138.549930 35.019688, 138.548518 35.019270, 138.547105 35.018853, 138.545693 35.018436, 138.544280 35.018018, 138.542868 35.017601, 138.541456 35.017183, 138.540043 35.016766, 138.538631 35.016348, 138.537218 35.015931, 138.535806 35.015513, 138.534394 35.015096, 138.532981 35.014678, 138.531569 35.014260, 138.530157 35.013843, 138.528745 35.013425, 138.527332 35.013008, 138.525920 35.012590, 138.524508 35.012172, 138.523096 35.011755, 138.521683 35.011337, 138.520271 35.010919, 138.518859 35.010501, 138.517447 35.010084, 138.516035 35.009666, 138.514622 35.009248, 138.513210 35.008830, 138.511798 35.008412, 138.510386 35.007995, 138.508974 35.007577, 138.507562 35.007159, 138.506150 35.006741, 138.504738 35.006323, 138.503326 35.005905, 138.501914 35.005487, 138.500502 35.005069, 138.499090 35.004651, 138.497678 35.004233, 138.496266 35.003815, 138.494854 35.003397, 138.493442 35.002979, 138.492030 35.002561, 138.490618 35.002143, 138.489206 35.001725, 138.487795 35.001307, 138.486383 35.000889, 138.484971 35.000471, 138.483559 35.000053, 138.482147 34.999635, 138.480735 34.999216, 138.479324 34.998798, 138.477912 34.998380, 138.476500 34.997962, 138.475088 34.997544, 138.473677 34.997125, 138.472265 34.996707, 138.470853 34.996289, 138.469442 34.995870, 138.468030 34.995452, 138.466618 34.995034, 138.465207 34.994615, 138.463795 34.994197, 138.462384 34.993779, 138.460972 34.993360, 138.459560 34.992942, 138.458149 34.992523, 138.456737 34.992105, 138.455326 34.991686, 138.453914 34.991268, 138.452503 34.990849, 138.451091 34.990431, 138.449680 34.990012, 138.448268 34.989594, 138.446857 34.989175, 138.445445 34.988757, 138.444034 34.988338, 138.442623 34.987920, 138.441211 34.987501, 138.439800 34.987082, 138.438388 34.986664, 138.436977 34.986245, 138.435566 34.985826, 138.434154 34.985407, 138.432743 34.984989, 138.431332 34.984570, 138.429921 34.984151, 138.428509 34.983732, 138.427098 34.983314, 138.425687 34.982895, 138.424276 34.982476, 138.422864 34.982057, 138.421453 34.981638, 138.420042 34.981219, 138.418631 34.980801, 138.417220 34.980382, 138.415809 34.979963, 138.414398 34.979544, 138.412986 34.979125, 138.411575 34.978706, 138.410164 34.978287, 138.408753 34.977868, 138.407342 34.977449, 138.405931 34.977030, 138.404520 34.976611, 138.403109 34.976192, 138.401698 34.975773, 138.400287 34.975353, 138.398876 34.974934, 138.397465 34.974515, 138.396054 34.974096, 138.394644 34.973677, 138.393233 34.973258, 138.391822 34.972838, 138.390411 34.972419, 138.389000 34.972000, 138.387655 34.971452, 138.386311 34.970905, 138.384966 34.970357, 138.383622 34.969809, 138.382277 34.969262, 138.380933 34.968714, 138.379589 34.968166, 138.378244 34.967618, 138.376900 34.967071, 138.375555 34.966523, 138.374211 34.965975, 138.372867 34.965427, 138.371522 34.964880, 138.370178 34.964332, 138.368834 34.963784, 138.367490 34.963236, 138.366145 34.962688, 138.364801 34.962140, 138.363457 34.961592, 138.362113 34.961044, 138.360769 34.960496, 138.359424 34.959948, 138.358080 34.959401, 138.356736 34.958853, 138.355392 34.958305, 138.354048 34.957757, 138.352704 34.957208, 138.351360 34.956660, 138.350016 34.956112, 138.348672 34.955564, 138.347328 34.955016, 138.345984 34.954468, 138.344640 34.953920, 138.343296 34.953372, 138.341952 34.952824, 138.340608 34.952276, 138.339264 34.951727, 138.337920 34.951179, 138.336576 34.950631, 138.335233 34.950083, 138.333889 34.949535, 138.332545 34.948986, 138.331201 34.948438, 138.329857 34.947890, 138.328514 34.947342, 138.327170 34.946793, 138.325826 34.946245, 138.324483 34.945697, 138.323139 34.945148, 138.321795 34.944600, 138.320452 34.944051, 138.319108 34.943503, 138.317764 34.942955, 138.316421 34.942406, 138.315077 34.941858, 138.313734 34.941309, 138.312390 34.940761, 138.311047 34.940212, 138.309703 34.939664, 138.308360 34.939115, 138.307016 34.938567, 138.305673 34.938018, 138.304329 34.937470, 138.302986 34.936921, 138.301643 34.936373, 138.300299 34.935824, 138.298956 34.935275, 138.297612 34.934727, 138.296269 34.934178, 138.294926 34.933629, 138.293583 34.933081, 138.292239 34.932532, 138.290896 34.931983, 138.289553 34.931435, 138.288210 34.930886, 138.286866 34.930337, 138.285523 34.929788, 138.284180 34.929240, 138.282837 34.928691, 138.281494 34.928142, 138.280151 34.927593, 138.278808 34.927044, 138.277465 34.926495, 138.276122 34.925947, 138.274779 34.925398, 138.273436 34.924849, 138.272093 34.924300, 138.270750 34.923751, 138.269407 34.923202, 138.268064 34.922653, 138.266721 34.922104, 138.265378 34.921555, 138.264035 34.921006, 138.262692 34.920457, 138.261349 34.919908, 138.260006 34.919359, 138.258664 34.918810, 138.257321 34.918261, 138.255978 34.917712, 138.254635 34.917163, 138.253293 34.916614, 138.251950 34.916064, 138.250607 34.915515, 138.249264 34.914966, 138.247922 34.914417, 138.246579 34.913868, 138.245237 34.913318, 138.243894 34.912769, 138.242551 34.912220, 138.241209 34.911671, 138.239866 34.911122, 138.238524 34.910572, 138.237181 34.910023, 138.235839 34.909474, 138.234496 34.908924, 138.233154 34.908375, 138.231811 34.907826, 138.230469 34.907276, 138.229126 34.906727, 138.227784 34.906177, 138.226442 34.905628, 138.225099 34.905079, 138.223757 34.904529, 138.222415 34.903980, 138.221072 34.903430, 138.219730 34.902881, 138.218388 34.902331, 138.217045 34.901782, 138.215703 34.901232, 138.214361 34.900683, 138.213019 34.900133, 138.211677 34.899583, 138.210334 34.899034, 138.208992 34.898484, 138.207650 34.897935, 138.206308 34.897385, 138.204966 34.896835, 138.203624 34.896286, 138.202282 34.895736, 138.200940 34.895186, 138.199598 34.894637, 138.198256 34.894087, 138.196914 34.893537, 138.195572 34.892987, 138.194230 34.892438, 138.192888 34.891888, 138.191546 34.891338, 138.190204 34.890788, 138.188862 34.890238, 138.187520 34.889689, 138.186178 34.889139, 138.184837 34.888589, 138.183495 34.888039, 138.182153 34.887489, 138.180811 34.886939, 138.179470 34.886389, 138.178128 34.885839, 138.176786 34.885289, 138.175444 34.884739, 138.174103 34.884189, 138.172761 34.883639, 138.171419 34.883089, 138.170078 34.882539, 138.168736 34.881989, 138.167395 34.881439, 138.166053 34.880889, 138.164711 34.880339, 138.163370 34.879789, 138.162028 34.879239, 138.160687 34.878689, 138.159345 34.878138, 138.158004 34.877588, 138.156663 34.877038, 138.155321 34.876488, 138.153980 34.875938, 138.152638 34.875387, 138.151297 34.874837, 138.149956 34.874287, 138.148614 34.873737, 138.147273 34.873186, 138.145932 34.872636, 138.144590 34.872086, 138.143249 34.871535, 138.141908 34.870985, 138.140567 34.870435, 138.139225 34.869884, 138.137884 34.869334, 138.136543 34.868784, 138.135202 34.868233, 138.133861 34.867683, 138.132520 34.867132, 138.131178 34.866582, 138.129837 34.866031, 138.128496 34.865481, 138.127155 34.864930, 138.125814 34.864380, 138.124473 34.863829, 138.123132 34.863279, 138.121791 34.862728, 138.120450 34.862178, 138.119109 34.861627, 138.117768 34.861076, 138.116427 34.860526, 138.115087 34.859975, 138.113746 34.859424, 138.112405 34.858874, 138.111064 34.858323, 138.109723 34.857772, 138.108382 34.857222, 138.107042 34.856671, 138.105701 34.856120, 138.104360 34.855569, 138.103019 34.855019, 138.101679 34.854468, 138.100338 34.853917, 138.098997 34.853366, 138.097657 34.852815, 138.096316 34.852265, 138.094975 34.851714, 138.093635 34.851163, 138.092294 34.850612, 138.090954 34.850061, 138.089613 34.849510, 138.088273 34.848959, 138.086932 34.848408, 138.085592 34.847857, 138.084251 34.847306, 138.082911 34.846755, 138.081570 34.846204, 138.080230 34.845653, 138.078889 34.845102, 138.077549 34.844551, 138.076209 34.844000, 138.074868 34.843449, 138.073528 34.842898, 138.072188 34.842347, 138.070847 34.841796, 138.069507 34.841245, 138.068167 34.840694, 138.066827 34.840142, 138.065486 34.839591, 138.064146 34.839040, 138.062806 34.838489, 138.061466 34.837938, 138.060126 34.837386, 138.058785 34.836835, 138.057445 34.836284, 138.056105 34.835732, 138.054765 34.835181, 138.053425 34.834630, 138.052085 34.834079, 138.050745 34.833527, 138.049405 34.832976, 138.048065 34.832424, 138.046725 34.831873, 138.045385 34.831322, 138.044045 34.830770, 138.042705 34.830219, 138.041365 34.829667, 138.040025 34.829116, 138.038686 34.828564, 138.037346 34.828013, 138.036006 34.827461, 138.034666 34.826910, 138.033326 34.826358, 138.031987 34.825807, 138.030647 34.825255, 138.029307 34.824704, 138.027967 34.824152, 138.026628 34.823600, 138.025288 34.823049, 138.023948 34.822497, 138.022609 34.821946, 138.021269 34.821394, 138.019929 34.820842, 138.018590 34.820290, 138.017250 34.819739, 138.015911 34.819187, 138.014571 34.818635, 138.013232 34.818084, 138.011892 34.817532, 138.010553 34.816980, 138.009213 34.816428, 138.007874 34.815876, 138.006534 34.815325, 138.005195 34.814773, 138.003855 34.814221, 138.002516 34.813669, 138.001177 34.813117, 137.999837 34.812565, 137.998498 34.812013, 137.997159 34.811461, 137.995819 34.810909, 137.994480 34.810357, 137.993141 34.809805, 137.991802 34.809253, 137.990462 34.808701, 137.989123 34.808149, 137.987784 34.807597, 137.986445 34.807045, 137.985106 34.806493, 137.983766 34.805941, 137.982427 34.805389, 137.981088 34.804837, 137.979749 34.804285, 137.978410 34.803733, 137.977071 34.803181, 137.975732 34.802628, 137.974393 34.802076, 137.973054 34.801524, 137.971715 34.800972, 137.970376 34.800420, 137.969037 34.799867, 137.967698 34.799315, 137.966359 34.798763, 137.965021 34.798211, 137.963682 34.797658, 137.962343 34.797106, 137.961004 34.796554, 137.959665 34.796001, 137.958326 34.795449, 137.956988 34.794897, 137.955649 34.794344, 137.954310 34.793792, 137.952971 34.793239, 137.951633 34.792687, 137.950294 34.792134, 137.948955 34.791582, 137.947617 34.791030, 137.946278 34.790477, 137.944939 34.789925, 137.943601 34.789372, 137.942262 34.788820, 137.940924 34.788267, 137.939585 34.787714, 137.938247 34.787162, 137.936908 34.786609, 137.935570 34.786057, 137.934231 34.785504, 137.932893 34.784951, 137.931554 34.784399, 137.930216 34.783846, 137.928878 34.783293, 137.927539 34.782741, 137.926201 34.782188, 137.924862 34.781635, 137.923524 34.781082, 137.922186 34.780530, 137.920848 34.779977, 137.919509 34.779424, 137.918171 34.778871, 137.916833 34.778319, 137.915495 34.777766, 137.914156 34.777213, 137.912818 34.776660, 137.911480 34.776107, 137.910142 34.775554, 137.908804 34.775001, 137.907466 34.774448, 137.906128 34.773896, 137.904790 34.773343, 137.903451 34.772790, 137.902113 34.772237, 137.900775 34.771684, 137.899437 34.771131, 137.898099 34.770578, 137.896761 34.770025, 137.895424 34.769472, 137.894086 34.768919, 137.892748 34.768365, 137.891410 34.767812, 137.890072 34.767259, 137.888734 34.766706, 137.887396 34.766153, 137.886058 34.765600, 137.884721 34.765047, 137.883383 34.764494, 137.882045 34.763940, 137.880707 34.763387, 137.879370 34.762834, 137.878032 34.762281, 137.876694 34.761727, 137.875356 34.761174, 137.874019 34.760621, 137.872681 34.760068, 137.871344 34.759514, 137.870006 34.758961, 137.868668 34.758408, 137.867331 34.757854, 137.865993 34.757301, 137.864656 34.756748, 137.863318 34.756194, 137.861981 34.755641, 137.860643 34.755087, 137.859306 34.754534, 137.857968 34.753980, 137.856631 34.753427, 137.855293 34.752873, 137.853956 34.752320, 137.852619 34.751766, 137.851281 34.751213, 137.849944 34.750659, 137.848607 34.750106, 137.847269 34.749552, 137.845932 34.748999, 137.844595 34.748445, 137.843258 34.747891, 137.841920 34.747338, 137.840583 34.746784, 137.839246 34.746230, 137.837909 34.745677, 137.836572 34.745123, 137.835234 34.744569, 137.833897 34.744016, 137.832560 34.743462, 137.831223 34.742908, 137.829886 34.742354, 137.828549 34.741801, 137.827212 34.741247, 137.825875 34.740693, 137.824538 34.740139, 137.823201 34.739585, 137.821864 34.739032, 137.820527 34.738478, 137.819190 34.737924, 137.817853 34.737370, 137.816516 34.736816, 137.815179 34.736262, 137.813843 34.735708, 137.812506 34.735154, 137.811169 34.734600, 137.809832 34.734046, 137.808495 34.733492, 137.807159 34.732938, 137.805822 34.732384, 137.804485 34.731830, 137.803148 34.731276, 137.801812 34.730722, 137.800475 34.730168, 137.799138 34.729614, 137.797802 34.729060, 137.796465 34.728506, 137.795129 34.727951, 137.793792 34.727397, 137.792455 34.726843, 137.791119 34.726289, 137.789782 34.725735, 137.788446 34.725181, 137.787109 34.724626, 137.785773 34.724072, 137.784436 34.723518, 137.783100 34.722964, 137.781764 34.722409, 137.780427 34.721855, 137.779091 34.721301, 137.777754 34.720746, 137.776418 34.720192, 137.775082 34.719638, 137.773745 34.719083, 137.772409 34.718529, 137.771073 34.717974, 137.769737 34.717420, 137.768400 34.716866, 137.767064 34.716311, 137.765728 34.715757, 137.764392 34.715202, 137.763055 34.714648, 137.761719 34.714093, 137.760383 34.713539, 137.759047 34.712984, 137.757711 34.712430, 137.756375 34.711875, 137.755039 34.711320, 137.753703 34.710766, 137.752367 34.710211, 137.751031 34.709657, 137.749695 34.709102, 137.748359 34.708547, 137.747023 34.707993, 137.745687 34.707438, 137.744351 34.706883, 137.743015 34.706329, 137.741679 34.705774, 137.740343 34.705219, 137.739007 34.704664, 137.737672 34.704110, 137.736336 34.703555, 137.735000 34.703000, 137.733534 34.703252, 137.732069 34.703504, 137.730603 34.703756, 137.729138 34.704008, 137.727672 34.704260, 137.726206 34.704512, 137.724741 34.704764, 137.723275 34.705016, 137.721809 34.705268, 137.720344 34.705520, 137.718878 34.705772, 137.717412 34.706024, 137.715946 34.706276, 137.714481 34.706528, 137.713015 34.706780, 137.711549 34.707031, 137.710084 34.707283, 137.708618 34.707535, 137.707152 34.707787, 137.705686 34.708039, 137.704220 34.708290, 137.702755 34.708542, 137.701289 34.708794, 137.699823 34.709046, 137.698357 34.709297, 137.696891 34.709549, 137.695426 34.709801, 137.693960 34.710052, 137.692494 34.710304, 137.691028 34.710555, 137.689562 34.710807, 137.688096 34.711058, 137.686630 34.711310, 137.685164 34.711562, 137.683699 34.711813, 137.682233 34.712065, 137.680767 34.712316, 137.679301 34.712567, 137.677835 34.712819, 137.676369 34.713070, 137.674903 34.713322, 137.673437 34.713573, 137.671971 34.713824, 137.670505 34.714076, 137.669039 34.714327, 137.667573 34.714578, 137.666107 34.714830, 137.664641 34.715081, 137.663175 34.715332, 137.661709 34.715583, 137.660243 34.715835, 137.658777 34.716086, 137.657311 34.716337, 137.655845 34.716588, 137.654379 34.716839, 137.652912 34.717091, 137.651446 34.717342, 137.649980 34.717593, 137.648514 34.717844, 137.647048 34.718095, 137.645582 34.718346, 137.644116 34.718597, 137.642650 34.718848, 137.641183 34.719099, 137.639717 34.719350, 137.638251 34.719601, 137.636785 34.719852, 137.635319 34.720103, 137.633852 34.720354, 137.632386 34.720605, 137.630920 34.720855, 137.629454 34.721106, 137.627987 34.721357, 137.626521 34.721608, 137.625055 34.721859, 137.623589 34.722110, 137.622122 34.722360, 137.620656 34.722611, 137.619190 34.722862, 137.617723 34.723112, 137.616257 34.723363, 137.614791 34.723614, 137.613325 34.723865, 137.611858 34.724115, 137.610392 34.724366, 137.608925 34.724616, 137.607459 34.724867, 137.605993 34.725118, 137.604526 34.725368, 137.603060 34.725619, 137.601594 34.725869, 137.600127 34.726120, 137.598661 34.726370, 137.597194 34.726621, 137.595728 34.726871, 137.594261 34.727121, 137.592795 34.727372, 137.591328 34.727622, 137.589862 34.727873, 137.588395 34.728123, 137.586929 34.728373, 137.585462 34.728624, 137.583996 34.728874, 137.582529 34.729124, 137.581063 34.729375, 137.579596 34.729625, 137.578130 34.729875, 137.576663 34.730125, 137.575197 34.730376, 137.573730 34.730626, 137.572264 34.730876, 137.570797 34.731126, 137.569330 34.731376, 137.567864 34.731626, 137.566397 34.731876, 137.564930 34.732126, 137.563464 34.732376, 137.561997 34.732627, 137.560531 34.732877, 137.559064 34.733127, 137.557597 34.733377, 137.556131 34.733627, 137.554664 34.733876, 137.553197 34.734126, 137.551730 34.734376, 137.550264 34.734626, 137.548797 34.734876, 137.547330 34.735126, 137.545864 34.735376, 137.544397 34.735626, 137.542930 34.735876, 137.541463 34.736125, 137.539996 34.736375, 137.538530 34.736625, 137.537063 34.736875, 137.535596 34.737124, 137.534129 34.737374, 137.532662 34.737624, 137.531196 34.737873, 137.529729 34.738123, 137.528262 34.738373, 137.526795 34.738622, 137.525328 34.738872, 137.523861 34.739122, 137.522394 34.739371, 137.520928 34.739621, 137.519461 34.739870, 137.517994 34.740120, 137.516527 34.740369, 137.515060 34.740619, 137.513593 34.740868, 137.512126 34.741118, 137.510659 34.741367, 137.509192 34.741616, 137.507725 34.741866, 137.506258 34.742115, 137.504791 34.742365, 137.503324 34.742614, 137.501857 34.742863, 137.500390 34.743113, 137.498923 34.743362, 137.497456 34.743611, 137.495989 34.743860, 137.494522 34.744110, 137.493055 34.744359, 137.491588 34.744608, 137.490121 34.744857, 137.488654 34.745106, 137.487187 34.745355, 137.485719 34.745605, 137.484252 34.745854, 137.482785 34.746103, 137.481318 34.746352, 137.479851 34.746601, 137.478384 34.746850, 137.476917 34.747099, 137.475449 34.747348, 137.473982 34.747597, 137.472515 34.747846, 137.471048 34.748095, 137.469581 34.748344, 137.468113 34.748593, 137.466646 34.748842, 137.465179 34.749091, 137.463712 34.749339, 137.462245 34.749588, 137.460777 34.749837, 137.459310 34.750086, 137.457843 34.750335, 137.456375 34.750584, 137.454908 34.750832, 137.453441 34.751081, 137.451974 34.751330, 137.450506 34.751578, 137.449039 34.751827, 137.447572 34.752076, 137.446104 34.752324, 137.444637 34.752573, 137.443169 34.752822, 137.441702 34.753070, 137.440235 34.753319, 137.438767 34.753567, 137.437300 34.753816, 137.435833 34.754065, 137.434365 34.754313, 137.432898 34.754562, 137.431430 34.754810, 137.429963 34.755059, 137.428495 34.755307, 137.427028 34.755555, 137.425560 34.755804, 137.424093 34.756052, 137.422625 34.756301, 137.421158 34.756549, 137.419690 34.756797, 137.418223 34.757046, 137.416755 34.757294, 137.415288 34.757542, 137.413820 34.757790, 137.412353 34.758039, 137.410885 34.758287, 137.409418 34.758535, 137.407950 34.758783, 137.406483 34.759032, 137.405015 34.759280, 137.403547 34.759528, 137.402080 34.759776, 137.400612 34.760024, 137.399144 34.760272, 137.397677 34.760520, 137.396209 34.760768, 137.394742 34.761016, 137.393274 34.761264, 137.391806 34.761512, 137.390339 34.761760, 137.388871 34.762008, 137.387403 34.762256, 137.385935 34.762504, 137.384468 34.762752, 137.383000 34.763000, 137.381939 34.763870, 137.380879 34.764741, 137.379818 34.765611, 137.378757 34.766481, 137.377696 34.767351, 137.376636 34.768221, 137.375575 34.769092, 137.374514 34.769962, 137.373453 34.770832, 137.372392 34.771702, 137.371331 34.772572, 137.370270 34.773443, 137.369209 34.774313, 137.368148 34.775183, 137.367087 34.776053, 137.366026 34.776923, 137.364965 34.777793, 137.363904 34.778663, 137.362843 34.779533, 137.361782 34.780403, 137.360721 34.781274, 137.359660 34.782144, 137.358599 34.783014, 137.357538 34.783884, 137.356476 34.784754, 137.355415 34.785624, 137.354354 34.786494, 137.353293 34.787364, 137.352231 34.788234, 137.351170 34.789104, 137.350109 34.789974, 137.349047 34.790844, 137.347986 34.791714, 137.346924 34.792584, 137.345863 34.793454, 137.344802 34.794324, 137.343740 34.795193, 137.342679 34.796063, 137.341617 34.796933, 137.340555 34.797803, 137.339494 34.798673, 137.338432 34.799543, 137.337371 34.800413, 137.336309 34.801283, 137.335247 34.802153, 137.334186 34.803022, 137.333124 34.803892, 137.332062 34.804762, 137.331000 34.805632, 137.329939 34.806502, 137.328877 34.807372, 137.327815 34.808241, 137.326753 34.809111, 137.325691 34.809981, 137.324629 34.810851, 137.323568 34.811720, 137.322506 34.812590, 137.321444 34.813460, 137.320382 34.814330, 137.319320 34.815199, 137.318258 34.816069, 137.317196 34.816939, 137.316134 34.817808, 137.315071 34.818678, 137.314009 34.819548, 137.312947 34.820417, 137.311885 34.821287, 137.310823 34.822157, 137.309761 34.823026, 137.308698 34.823896, 137.307636 34.824766, 137.306574 34.825635, 137.305512 34.826505, 137.304449 34.827374, 137.303387 34.828244, 137.302325 34.829114, 137.301262 34.829983, 137.300200 34.830853, 137.299137 34.831722, 137.298075 34.832592, 137.297013 34.833461, 137.295950 34.834331, 137.294888 34.835200, 137.293825 34.836070, 137.292762 34.836939, 137.291700 34.837809, 137.290637 34.838678, 137.289575 34.839548, 137.288512 34.840417, 137.287449 34.841287, 137.286387 34.842156, 137.285324 34.843025, 137.284261 34.843895, 137.283198 34.844764, 137.282136 34.845634, 137.281073 34.846503, 137.280010 34.847372, 137.278947 34.848242, 137.277884 34.849111, 137.276821 34.849980, 137.275758 34.850850, 137.274695 34.851719, 137.273633 34.852588, 137.272570 34.853458, 137.271507 34.854327, 137.270444 34.855196, 137.269380 34.856066, 137.268317 34.856935, 137.267254 34.857804, 137.266191 34.858673, 137.265128 34.859543, 137.264065 34.860412, 137.263002 34.861281, 137.261938 34.862150, 137.260875 34.863020, 137.259812 34.863889, 137.258749 34.864758, 137.257685 34.865627, 137.256622 34.866496, 137.255559 34.867365, 137.254495 34.868235, 137.253432 34.869104, 137.252369 34.869973, 137.251305 34.870842, 137.250242 34.871711, 137.249178 34.872580, 137.248115 34.873449, 137.247051 34.874318, 137.245988 34.875187, 137.244924 34.876057, 137.243860 34.876926, 137.242797 34.877795, 137.241733 34.878664, 137.240670 34.879533, 137.239606 34.880402, 137.238542 34.881271, 137.237478 34.882140, 137.236415 34.883009, 137.235351 34.883878, 137.234287 34.884747, 137.233223 34.885616, 137.232159 34.886485, 137.231096 34.887354, 137.230032 34.888223, 137.228968 34.889091, 137.227904 34.889960, 137.226840 34.890829, 137.225776 34.891698, 137.224712 34.892567, 137.223648 34.893436, 137.222584 34.894305, 137.221520 34.895174, 137.220456 34.896043, 137.219392 34.896911, 137.218327 34.897780, 137.217263 34.898649, 137.216199 34.899518, 137.215135 34.900387, 137.214071 34.901256, 137.213006 34.902124, 137.211942 34.902993, 137.210878 34.903862, 137.209814 34.904731, 137.208749 34.905599, 137.207685 34.906468, 137.206620 34.907337, 137.205556 34.908206, 137.204492 34.909074, 137.203427 34.909943, 137.202363 34.910812, 137.201298 34.911680, 137.200234 34.912549, 137.199169 34.913418, 137.198105 34.914286, 137.197040 34.915155, 137.195975 34.916024, 137.194911 34.916892, 137.193846 34.917761, 137.192781 34.918630, 137.191717 34.919498, 137.190652 34.920367, 137.189587 34.921235, 137.188523 34.922104, 137.187458 34.922973, 137.186393 34.923841, 137.185328 34.924710, 137.184263 34.925578, 137.183198 34.926447, 137.182134 34.927315, 137.181069 34.928184, 137.180004 34.929052, 137.178939 34.929921, 137.177874 34.930789, 137.176809 34.931658, 137.175744 34.932526, 137.174679 34.933395, 137.173613 34.934263, 137.172548 34.935131, 137.171483 34.936000, 137.170418 34.936868, 137.169353 34.937737, 137.168288 34.938605, 137.167223 34.939474, 137.166157 34.940342, 137.165092 34.941210, 137.164027 34.942079, 137.162961 34.942947, 137.161896 34.943815, 137.160831 34.944684, 137.159765 34.945552, 137.158700 34.946420, 137.157635 34.947289, 137.156569 34.948157, 137.155504 34.949025, 137.154438 34.949894, 137.153373 34.950762, 137.152307 34.951630, 137.151242 34.952498, 137.150176 34.953367, 137.149110 34.954235, 137.148045 34.955103, 137.146979 34.955971, 137.145914 34.956839, 137.144848 34.957708, 137.143782 34.958576, 137.142716 34.959444, 137.141651 34.960312, 137.140585 34.961180, 137.139519 34.962048, 137.138453 34.962917, 137.137387 34.963785, 137.136321 34.964653, 137.135256 34.965521, 137.134190 34.966389, 137.133124 34.967257, 137.132058 34.968125, 137.130992 34.968993, 137.129926 34.969861, 137.128860 34.970729, 137.127794 34.971598, 137.126728 34.972466, 137.125662 34.973334, 137.124595 34.974202, 137.123529 34.975070, 137.122463 34.975938, 137.121397 34.976806, 137.120331 34.977674, 137.119265 34.978542, 137.118198 34.979410, 137.117132 34.980277, 137.116066 34.981145, 137.114999 34.982013, 137.113933 34.982881, 137.112867 34.983749, 137.111800 34.984617, 137.110734 34.985485, 137.109667 34.986353, 137.108601 34.987221, 137.107534 34.988089, 137.106468 34.988957, 137.105401 34.989824, 137.104335 34.990692, 137.103268 34.991560, 137.102202 34.992428, 137.101135 34.993296, 137.100068 34.994163, 137.099002 34.995031, 137.097935 34.995899, 137.096868 34.996767, 137.095802 34.997635, 137.094735 34.998502, 137.093668 34.999370, 137.092601 35.000238, 137.091535 35.001106, 137.090468 35.001973, 137.089401 35.002841, 137.088334 35.003709, 137.087267 35.004576, 137.086200 35.005444, 137.085133 35.006312, 137.084066 35.007179, 137.082999 35.008047, 137.081932 35.008915, 137.080865 35.009782, 137.079798 35.010650, 137.078731 35.011518, 137.077664 35.012385, 137.076597 35.013253, 137.075530 35.014120, 137.074462 35.014988, 137.073395 35.015856, 137.072328 35.016723, 137.071261 35.017591, 137.070193 35.018458, 137.069126 35.019326, 137.068059 35.020193, 137.066991 35.021061, 137.065924 35.021928, 137.064857 35.022796, 137.063789 35.023663, 137.062722 35.024531, 137.061654 35.025398, 137.060587 35.026266, 137.059519 35.027133, 137.058452 35.028001, 137.057384 35.028868, 137.056317 35.029735, 137.055249 35.030603, 137.054182 35.031470, 137.053114 35.032338, 137.052046 35.033205, 137.050979 35.034072, 137.049911 35.034940, 137.048843 35.035807, 137.047776 35.036675, 137.046708 35.037542, 137.045640 35.038409, 137.044572 35.039276, 137.043504 35.040144, 137.042436 35.041011, 137.041369 35.041878, 137.040301 35.042746, 137.039233 35.043613, 137.038165 35.044480, 137.037097 35.045347, 137.036029 35.046215, 137.034961 35.047082, 137.033893 35.047949, 137.032825 35.048816, 137.031757 35.049684, 137.030688 35.050551, 137.029620 35.051418, 137.028552 35.052285, 137.027484 35.053152, 137.026416 35.054019, 137.025348 35.054887, 137.024279 35.055754, 137.023211 35.056621, 137.022143 35.057488, 137.021074 35.058355, 137.020006 35.059222, 137.018938 35.060089, 137.017869 35.060956, 137.016801 35.061824, 137.015733 35.062691, 137.014664 35.063558, 137.013596 35.064425, 137.012527 35.065292, 137.011459 35.066159, 137.010390 35.067026, 137.009321 35.067893, 137.008253 35.068760, 137.007184 35.069627, 137.006116 35.070494, 137.005047 35.071361, 137.003978 35.072228, 137.002910 35.073095, 137.001841 35.073962, 137.000772 35.074829, 136.999703 35.075695, 136.998635 35.076562, 136.997566 35.077429, 136.996497 35.078296, 136.995428 35.079163, 136.994359 35.080030, 136.993290 35.080897, 136.992221 35.081764, 136.991152 35.082631, 136.990083 35.083497, 136.989014 35.084364, 136.987945 35.085231, 136.986876 35.086098, 136.985807 35.086965, 136.984738 35.087831, 136.983669 35.088698, 136.982600 35.089565, 136.981531 35.090432, 136.980462 35.091299, 136.979392 35.092165, 136.978323 35.093032, 136.977254 35.093899, 136.976185 35.094765, 136.975115 35.095632, 136.974046 35.096499, 136.972977 35.097366, 136.971907 35.098232, 136.970838 35.099099, 136.969769 35.099966, 136.968699 35.100832, 136.967630 35.101699, 136.966560 35.102566, 136.965491 35.103432, 136.964421 35.104299, 136.963352 35.105165, 136.962282 35.106032, 136.961213 35.106899, 136.960143 35.107765, 136.959073 35.108632, 136.958004 35.109498, 136.956934 35.110365, 136.955864 35.111231, 136.954795 35.112098, 136.953725 35.112964, 136.952655 35.113831, 136.951585 35.114697, 136.950515 35.115564, 136.949446 35.116430, 136.948376 35.117297, 136.947306 35.118163, 136.946236 35.119030, 136.945166 35.119896, 136.944096 35.120763, 136.943026 35.121629, 136.941956 35.122496, 136.940886 35.123362, 136.939816 35.124228, 136.938746 35.125095, 136.937676 35.125961, 136.936606 35.126828, 136.935536 35.127694, 136.934466 35.128560, 136.933395 35.129427, 136.932325 35.130293, 136.931255 35.131159, 136.930185 35.132026, 136.929114 35.132892, 136.928044 35.133758, 136.926974 35.134624, 136.925903 35.135491, 136.924833 35.136357, 136.923763 35.137223, 136.922692 35.138089, 136.921622 35.138956, 136.920551 35.139822, 136.919481 35.140688, 136.918410 35.141554, 136.917340 35.142421, 136.916269 35.143287, 136.915199 35.144153, 136.914128 35.145019, 136.913058 35.145885, 136.911987 35.146751, 136.910916 35.147618, 136.909846 35.148484, 136.908775 35.149350, 136.907704 35.150216, 136.906633 35.151082, 136.905563 35.151948, 136.904492 35.152814, 136.903421 35.153680, 136.902350 35.154546, 136.901279 35.155413, 136.900209 35.156279, 136.899138 35.157145, 136.898067 35.158011, 136.896996 35.158877, 136.895925 35.159743, 136.894854 35.160609, 136.893783 35.161475, 136.892712 35.162341, 136.891641 35.163207, 136.890570 35.164073, 136.889498 35.164939, 136.888427 35.165805, 136.887356 35.166670, 136.886285 35.167536, 136.885214 35.168402, 136.884143 35.169268, 136.883071 35.170134, 136.882000 35.171000, 136.880882 35.171824, 136.879764 35.172647, 136.878646 35.173471, 136.877528 35.174295, 136.876410 35.175119, 136.875292 35.175942, 136.874173 35.176766, 136.873055 35.177590, 136.871937 35.178413, 136.870819 35.179237, 136.869700 35.180061, 136.868582 35.180884, 136.867464 35.181708, 136.866346 35.182532, 136.865227 35.183355, 136.864109 35.184179, 136.862990 35.185002, 136.861872 35.185826, 136.860754 35.186650, 136.859635 35.187473, 136.858517 35.188297, 136.857398 35.189120, 136.856280 35.189944, 136.855161 35.190767, 136.854043 35.191591, 136.852924 35.192414, 136.851805 35.193238, 136.850687 35.194061, 136.849568 35.194885, 136.848449 35.195708, 136.847331 35.196532, 136.846212 35.197355, 136.845093 35.198178, 136.843974 35.199002, 136.842856 35.199825, 136.841737 35.200649, 136.840618 35.201472, 136.839499 35.202295, 136.838380 35.203119, 136.837261 35.203942, 136.836142 35.204765, 136.835023 35.205589, 136.833904 35.206412, 136.832785 35.207235, 136.831666 35.208059, 136.830547 35.208882, 136.829428 35.209705, 136.828309 35.210529, 136.827190 35.211352, 136.826071 35.212175, 136.824952 35.212998, 136.823833 35.213822, 136.822713 35.214645, 136.821594 35.215468, 136.820475 35.216291, 136.819356 35.217114, 136.818236 35.217938, 136.817117 35.218761, 136.815998 35.219584, 136.814878 35.220407, 136.813759 35.221230, 136.812640 35.222053, 136.811520 35.222876, 136.810401 35.223699, 136.809281 35.224523, 136.808162 35.225346, 136.807042 35.226169, 136.805923 35.226992, 136.804803 35.227815, 136.803684 35.228638, 136.802564 35.229461, 136.801444 35.230284, 136.800325 35.231107, 136.799205 35.231930, 136.798085 35.232753, 136.796965 35.233576, 136.795846 35.234399, 136.794726 35.235222, 136.793606 35.236045, 136.792486 35.236868, 136.791367 35.237691, 136.790247 35.238514, 136.789127 35.239337, 136.788007 35.240159, 136.786887 35.240982, 136.785767 35.241805, 136.784647 35.242628, 136.783527 35.243451, 136.782407 35.244274, 136.781287 35.245097, 136.780167 35.245919, 136.779047 35.246742, 136.777927 35.247565, 136.776807 35.248388, 136.775686 35.249211, 136.774566 35.250033, 136.773446 35.250856, 136.772326 35.251679, 136.771206 35.252502, 136.770085 35.253324, 136.768965 35.254147, 136.767845 35.254970, 136.766724 35.255793, 136.765604 35.256615, 136.764484 35.257438, 136.763363 35.258261, 136.762243 35.259083, 136.761122 35.259906, 136.760002 35.260729, 136.758881 35.261551, 136.757761 35.262374, 136.756640 35.263196, 136.755520 35.264019, 136.754399 35.264842, 136.753278 35.265664, 136.752158 35.266487, 136.751037 35.267309, 136.749916 35.268132, 136.748796 35.268954, 136.747675 35.269777, 136.746554 35.270599, 136.745434 35.271422, 136.744313 35.272244, 136.743192 35.273067, 136.742071 35.273889, 136.740950 35.274712, 136.739829 35.275534, 136.738708 35.276357, 136.737587 35.277179, 136.736467 35.278002, 136.735346 35.278824, 136.734225 35.279646, 136.733104 35.280469, 136.731982 35.281291, 136.730861 35.282114, 136.729740 35.282936, 136.728619 35.283758, 136.727498 35.284581, 136.726377 35.285403, 136.725256 35.286225, 136.724135 35.287048, 136.723013 35.287870, 136.721892 35.288692, 136.720771 35.289514, 136.719649 35.290337, 136.718528 35.291159, 136.717407 35.291981, 136.716285 35.292803, 136.715164 35.293626, 136.714043 35.294448, 136.712921 35.295270, 136.711800 35.296092, 136.710678 35.296915, 136.709557 35.297737, 136.708435 35.298559, 136.707314 35.299381, 136.706192 35.300203, 136.705071 35.301025, 136.703949 35.301847, 136.702827 35.302670, 136.701706 35.303492, 136.700584 35.304314, 136.699462 35.305136, 136.698341 35.305958, 136.697219 35.306780, 136.696097 35.307602, 136.694975 35.308424, 136.693853 35.309246, 136.692732 35.310068, 136.691610 35.310890, 136.690488 35.311712, 136.689366 35.312534, 136.688244 35.313356, 136.687122 35.314178, 136.686000 35.315000, 136.684494 35.315002, 136.682989 35.315005, 136.681483 35.315007, 136.679977 35.315010, 136.678472 35.315012, 136.676966 35.315014, 136.675460 35.315017, 136.673954 35.315019, 136.672449 35.315021, 136.670943 35.315024, 136.669437 35.315026, 136.667932 35.315028, 136.666426 35.315030, 136.664920 35.315033, 136.663414 35.315035, 136.661909 35.315037, 136.660403 35.315039, 136.658897 35.315041, 136.657392 35.315043, 136.655886 35.315045, 136.654380 35.315047, 136.652875 35.315049, 136.651369 35.315052, 136.649863 35.315054, 136.648357 35.315056, 136.646852 35.315058, 136.645346 35.315059, 136.643840 35.315061, 136.642335 35.315063, 136.640829 35.315065, 136.639323 35.315067, 136.637818 35.315069, 136.636312 35.315071, 136.634806 35.315073, 136.633300 35.315074, 136.631795 35.315076, 136.630289 35.315078, 136.628783 35.315080, 136.627278 35.315082, 136.625772 35.315083, 136.624266 35.315085, 136.622761 35.315087, 136.621255 35.315088, 136.619749 35.315090, 136.618243 35.315092, 136.616738 35.315093, 136.615232 35.315095, 136.613726 35.315096, 136.612221 35.315098, 136.610715 35.315099, 136.609209 35.315101, 136.607704 35.315102, 136.606198 35.315104, 136.604692 35.315105, 136.603186 35.315107, 136.601681 35.315108, 136.600175 35.315110, 136.598669 35.315111, 136.597164 35.315112, 136.595658 35.315114, 136.594152 35.315115, 136.592646 35.315116, 136.591141 35.315118, 136.589635 35.315119, 136.588129 35.315120, 136.586624 35.315121, 136.585118 35.315123, 136.583612 35.315124, 136.582107 35.315125, 136.580601 35.315126, 136.579095 35.315127, 136.577589 35.315128, 136.576084 35.315129, 136.574578 35.315131, 136.573072 35.315132, 136.571567 35.315133, 136.570061 35.315134, 136.568555 35.315135, 136.567050 35.315136, 136.565544 35.315137, 136.564038 35.315138, 136.562532 35.315139, 136.561027 35.315139, 136.559521 35.315140, 136.558015 35.315141, 136.556510 35.315142, 136.555004 35.315143, 136.553498 35.315144, 136.551992 35.315145, 136.550487 35.315145, 136.548981 35.315146, 136.547475 35.315147, 136.545970 35.315148, 136.544464 35.315148, 136.542958 35.315149, 136.541453 35.315150, 136.539947 35.315150, 136.538441 35.315151, 136.536935 35.315152, 136.535430 35.315152, 136.533924 35.315153, 136.532418 35.315153, 136.530913 35.315154, 136.529407 35.315154, 136.527901 35.315155, 136.526395 35.315155, 136.524890 35.315156, 136.523384 35.315156, 136.521878 35.315157, 136.520373 35.315157, 136.518867 35.315157, 136.517361 35.315158, 136.515856 35.315158, 136.514350 35.315159, 136.512844 35.315159, 136.511338 35.315159, 136.509833 35.315159, 136.508327 35.315160, 136.506821 35.315160, 136.505316 35.315160, 136.503810 35.315160, 136.502304 35.315161, 136.500798 35.315161, 136.499293 35.315161, 136.497787 35.315161, 136.496281 35.315161, 136.494776 35.315161, 136.493270 35.315161, 136.491764 35.315161, 136.490259 35.315161, 136.488753 35.315161, 136.487247 35.315161, 136.485741 35.315161, 136.484236 35.315161, 136.482730 35.315161, 136.481224 35.315161, 136.479719 35.315161, 136.478213 35.315161, 136.476707 35.315161, 136.475202 35.315161, 136.473696 35.315161, 136.472190 35.315160, 136.470684 35.315160, 136.469179 35.315160, 136.467673 35.315160, 136.466167 35.315159, 136.464662 35.315159, 136.463156 35.315159, 136.461650 35.315159, 136.460144 35.315158, 136.458639 35.315158, 136.457133 35.315157, 136.455627 35.315157, 136.454122 35.315157, 136.452616 35.315156, 136.451110 35.315156, 136.449605 35.315155, 136.448099 35.315155, 136.446593 35.315154, 136.445087 35.315154, 136.443582 35.315153, 136.442076 35.315153, 136.440570 35.315152, 136.439065 35.315152, 136.437559 35.315151, 136.436053 35.315150, 136.434547 35.315150, 136.433042 35.315149, 136.431536 35.315148, 136.430030 35.315148, 136.428525 35.315147, 136.427019 35.315146, 136.425513 35.315145, 136.424008 35.315145, 136.422502 35.315144, 136.420996 35.315143, 136.419490 35.315142, 136.417985 35.315141, 136.416479 35.315140, 136.414973 35.315139, 136.413468 35.315139, 136.411962 35.315138, 136.410456 35.315137, 136.408950 35.315136, 136.407445 35.315135, 136.405939 35.315134, 136.404433 35.315133, 136.402928 35.315132, 136.401422 35.315131, 136.399916 35.315129, 136.398411 35.315128, 136.396905 35.315127, 136.395399 35.315126, 136.393893 35.315125, 136.392388 35.315124, 136.390882 35.315123, 136.389376 35.315121, 136.387871 35.315120, 136.386365 35.315119, 136.384859 35.315118, 136.383354 35.315116, 136.381848 35.315115, 136.380342 35.315114, 136.378836 35.315112, 136.377331 35.315111, 136.375825 35.315110, 136.374319 35.315108, 136.372814 35.315107, 136.371308 35.315105, 136.369802 35.315104, 136.368296 35.315102, 136.366791 35.315101, 136.365285 35.315099, 136.363779 35.315098, 136.362274 35.315096, 136.360768 35.315095, 136.359262 35.315093, 136.357757 35.315092, 136.356251 35.315090, 136.354745 35.315088, 136.353239 35.315087, 136.351734 35.315085, 136.350228 35.315083, 136.348722 35.315082, 136.347217 35.315080, 136.345711 35.315078, 136.344205 35.315076, 136.342700 35.315074, 136.341194 35.315073, 136.339688 35.315071, 136.338182 35.315069, 136.336677 35.315067, 136.335171 35.315065, 136.333665 35.315063, 136.332160 35.315061, 136.330654 35.315059, 136.329148 35.315058, 136.327643 35.315056, 136.326137 35.315054, 136.324631 35.315052, 136.323125 35.315049, 136.321620 35.315047, 136.320114 35.315045, 136.318608 35.315043, 136.317103 35.315041, 136.315597 35.315039, 136.314091 35.315037, 136.312586 35.315035, 136.311080 35.315033, 136.309574 35.315030, 136.308068 35.315028, 136.306563 35.315026, 136.305057 35.315024, 136.303551 35.315021, 136.302046 35.315019, 136.300540 35.315017, 136.299034 35.315014, 136.297528 35.315012, 136.296023 35.315010, 136.294517 35.315007, 136.293011 35.315005, 136.291506 35.315002, 136.290000 35.315000, 136.288794 35.314260, 136.287589 35.313520, 136.286383 35.312780, 136.285177 35.312040, 136.283971 35.311300, 136.282766 35.310560, 136.281560 35.309819, 136.280355 35.309079, 136.279149 35.308339, 136.277943 35.307599, 136.276738 35.306859, 136.275532 35.306119, 136.274327 35.305379, 136.273121 35.304638, 136.271916 35.303898, 136.270711 35.303158, 136.269505 35.302418, 136.268300 35.301678, 136.267094 35.300937, 136.265889 35.300197, 136.264684 35.299457, 136.263478 35.298716, 136.262273 35.297976, 136.261068 35.297236, 136.259863 35.296496, 136.258657 35.295755, 136.257452 35.295015, 136.256247 35.294274, 136.255042 35.293534, 136.253837 35.292794, 136.252632 35.292053, 136.251427 35.291313, 136.250222 35.290572, 136.249017 35.289832, 136.247812 35.289092, 136.246607 35.288351, 136.245402 35.287611, 136.244197 35.286870, 136.242992 35.286130, 136.241787 35.285389, 136.240582 35.284649, 136.239377 35.283908, 136.238172 35.283168, 136.236968 35.282427, 136.235763 35.281687, 136.234558 35.280946, 136.233353 35.280205, 136.232148 35.279465, 136.230944 35.278724, 136.229739 35.277984, 136.228534 35.277243, 136.227330 35.276502, 136.226125 35.275762, 136.224921 35.275021, 136.223716 35.274280, 136.222512 35.273540, 136.221307 35.272799, 136.220102 35.272058, 136.218898 35.271317, 136.217694 35.270577, 136.216489 35.269836, 136.215285 35.269095, 136.214080 35.268354, 136.212876 35.267614, 136.211672 35.266873, 136.210467 35.266132, 136.209263 35.265391, 136.208059 35.264650, 136.206854 35.263909, 136.205650 35.263169, 136.204446 35.262428, 136.203242 35.261687, 136.202038 35.260946, 136.200833 35.260205, 136.199629 35.259464, 136.198425 35.258723, 136.197221 35.257982, 136.196017 35.257241, 136.194813 35.256500, 136.193609 35.255759, 136.192405 35.255018, 136.191201 35.254277, 136.189997 35.253536, 136.188793 35.252795, 136.187589 35.252054, 136.186385 35.251313, 136.185182 35.250572, 136.183978 35.249831, 136.182774 35.249090, 136.181570 35.248349, 136.180366 35.247608, 136.179163 35.246867, 136.177959 35.246125, 136.176755 35.245384, 136.175551 35.244643, 136.174348 35.243902, 136.173144 35.243161, 136.171940 35.242420, 136.170737 35.241678, 136.169533 35.240937, 136.168330 35.240196, 136.167126 35.239455, 136.165923 35.238713, 136.164719 35.237972, 136.163516 35.237231, 136.162312 35.236490, 136.161109 35.235748, 136.159905 35.235007, 136.158702 35.234266, 136.157499 35.233524, 136.156295 35.232783, 136.155092 35.232042, 136.153889 35.231300, 136.152686 35.230559, 136.151482 35.229818, 136.150279 35.229076, 136.149076 35.228335, 136.147873 35.227593, 136.146670 35.226852, 136.145466 35.226110, 136.144263 35.225369, 136.143060 35.224627, 136.141857 35.223886, 136.140654 35.223144, 136.139451 35.222403, 136.138248 35.221661, 136.137045 35.220920, 136.135842 35.220178, 136.134639 35.219437, 136.133436 35.218695, 136.132233 35.217954, 136.131030 35.217212, 136.129828 35.216470, 136.128625 35.215729, 136.127422 35.214987, 136.126219 35.214245, 136.125016 35.213504, 136.123814 35.212762, 136.122611 35.212020, 136.121408 35.211279, 136.120206 35.210537, 136.119003 35.209795, 136.117800 35.209054, 136.116598 35.208312, 136.115395 35.207570, 136.114193 35.206828, 136.112990 35.206087, 136.111787 35.205345, 136.110585 35.204603, 136.109382 35.203861, 136.108180 35.203119, 136.106978 35.202377, 136.105775 35.201636, 136.104573 35.200894, 136.103370 35.200152, 136.102168 35.199410, 136.100966 35.198668, 136.099763 35.197926, 136.098561 35.197184, 136.097359 35.196442, 136.096157 35.195700, 136.094954 35.194958, 136.093752 35.194216, 136.092550 35.193474, 136.091348 35.192732, 136.090146 35.191990, 136.088944 35.191248, 136.087742 35.190506, 136.086540 35.189764, 136.085338 35.189022, 136.084136 35.188280, 136.082934 35.187538, 136.081732 35.186796, 136.080530 35.186054, 136.079328 35.185312, 136.078126 35.184570, 136.076924 35.183828, 136.075722 35.183086, 136.074520 35.182343, 136.073318 35.181601, 136.072117 35.180859, 136.070915 35.180117, 136.069713 35.179375, 136.068511 35.178632, 136.067310 35.177890, 136.066108 35.177148, 136.064906 35.176406, 136.063705 35.175663, 136.062503 35.174921, 136.061301 35.174179, 136.060100 35.173437, 136.058898 35.172694, 136.057697 35.171952, 136.056495 35.171210, 136.055294 35.170467, 136.054092 35.169725, 136.052891 35.168982, 136.051689 35.168240, 136.050488 35.167498, 136.049287 35.166755, 136.048085 35.166013, 136.046884 35.165270, 136.045683 35.164528, 136.044481 35.163786, 136.043280 35.163043, 136.042079 35.162301, 136.040878 35.161558, 136.039676 35.160816, 136.038475 35.160073, 136.037274 35.159331, 136.036073 35.158588, 136.034872 35.157845, 136.033671 35.157103, 136.032470 35.156360, 136.031269 35.155618, 136.030068 35.154875, 136.028867 35.154133, 136.027666 35.153390, 136.026465 35.152647, 136.025264 35.151905, 136.024063 35.151162, 136.022862 35.150419, 136.021661 35.149677, 136.020460 35.148934, 136.019259 35.148191, 136.018058 35.147449, 136.016858 35.146706, 136.015657 35.145963, 136.014456 35.145220, 136.013255 35.144478, 136.012055 35.143735, 136.010854 35.142992, 136.009653 35.142249, 136.008453 35.141506, 136.007252 35.140764, 136.006052 35.140021, 136.004851 35.139278, 136.003650 35.138535, 136.002450 35.137792, 136.001249 35.137049, 136.000049 35.136306, 135.998848 35.135563, 135.997648 35.134821, 135.996448 35.134078, 135.995247 35.133335, 135.994047 35.132592, 135.992846 35.131849, 135.991646 35.131106, 135.990446 35.130363, 135.989246 35.129620, 135.988045 35.128877, 135.986845 35.128134, 135.985645 35.127391, 135.984445 35.126648, 135.983244 35.125905, 135.982044 35.125162, 135.980844 35.124418, 135.979644 35.123675, 135.978444 35.122932, 135.977244 35.122189, 135.976044 35.121446, 135.974844 35.120703, 135.973644 35.119960, 135.972444 35.119217, 135.971244 35.118473, 135.970044 35.117730, 135.968844 35.116987, 135.967644 35.116244, 135.966444 35.115501, 135.965244 35.114757, 135.964045 35.114014, 135.962845 35.113271, 135.961645 35.112528, 135.960445 35.111784, 135.959246 35.111041, 135.958046 35.110298, 135.956846 35.109554, 135.955647 35.108811, 135.954447 35.108068, 135.953247 35.107324, 135.952048 35.106581, 135.950848 35.105838, 135.949648 35.105094, 135.948449 35.104351, 135.947249 35.103607, 135.946050 35.102864, 135.944850 35.102121, 135.943651 35.101377, 135.942452 35.100634, 135.941252 35.099890, 135.940053 35.099147, 135.938853 35.098403, 135.937654 35.097660, 135.936455 35.096916, 135.935255 35.096173, 135.934056 35.095429, 135.932857 35.094685, 135.931658 35.093942, 135.930458 35.093198, 135.929259 35.092455, 135.928060 35.091711, 135.926861 35.090968, 135.925662 35.090224, 135.924463 35.089480, 135.923264 35.088737, 135.922065 35.087993, 135.920866 35.087249, 135.919667 35.086506, 135.918468 35.085762, 135.917269 35.085018, 135.916070 35.084274, 135.914871 35.083531, 135.913672 35.082787, 135.912473 35.082043, 135.911274 35.081299, 135.910075 35.080556, 135.908876 35.079812, 135.907678 35.079068, 135.906479 35.078324, 135.905280 35.077580, 135.904081 35.076837, 135.902883 35.076093, 135.901684 35.075349, 135.900485 35.074605, 135.899287 35.073861, 135.898088 35.073117, 135.896889 35.072373, 135.895691 35.071629, 135.894492 35.070885, 135.893294 35.070142, 135.892095 35.069398, 135.890897 35.068654, 135.889698 35.067910, 135.888500 35.067166, 135.887301 35.066422, 135.886103 35.065678, 135.884905 35.064934, 135.883706 35.064190, 135.882508 35.063446, 135.881310 35.062701, 135.880111 35.061957, 135.878913 35.061213, 135.877715 35.060469, 135.876517 35.059725, 135.875318 35.058981, 135.874120 35.058237, 135.872922 35.057493, 135.871724 35.056749, 135.870526 35.056004, 135.869328 35.055260, 135.868130 35.054516, 135.866932 35.053772, 135.865734 35.053028, 135.864535 35.052283, 135.863338 35.051539, 135.862140 35.050795, 135.860942 35.050051, 135.859744 35.049306, 135.858546 35.048562, 135.857348 35.047818, 135.856150 35.047073, 135.854952 35.046329, 135.853754 35.045585, 135.852557 35.044840, 135.851359 35.044096, 135.850161 35.043352, 135.848963 35.042607, 135.847766 35.041863, 135.846568 35.041119, 135.845370 35.040374, 135.844173 35.039630, 135.842975 35.038885, 135.841777 35.038141, 135.840580 35.037396, 135.839382 35.036652, 135.838185 35.035907, 135.836987 35.035163, 135.835790 35.034418, 135.834592 35.033674, 135.833395 35.032929, 135.832197 35.032185, 135.831000 35.031440, 135.829803 35.030696, 135.828605 35.029951, 135.827408 35.029206, 135.826211 35.028462, 135.825013 35.027717, 135.823816 35.026973, 135.822619 35.026228, 135.821422 35.025483, 135.820224 35.024739, 135.819027 35.023994, 135.817830 35.023249, 135.816633 35.022505, 135.815436 35.021760, 135.814239 35.021015, 135.813042 35.020270, 135.811845 35.019526, 135.810648 35.018781, 135.809451 35.018036, 135.808254 35.017291, 135.807057 35.016547, 135.805860 35.015802, 135.804663 35.015057, 135.803466 35.014312, 135.802269 35.013567, 135.801072 35.012822, 135.799875 35.012078, 135.798679 35.011333, 135.797482 35.010588, 135.796285 35.009843, 135.795088 35.009098, 135.793892 35.008353, 135.792695 35.007608, 135.791498 35.006863, 135.790302 35.006118, 135.789105 35.005373, 135.787908 35.004628, 135.786712 35.003883, 135.785515 35.003138, 135.784319 35.002393, 135.783122 35.001648, 135.781926 35.000903, 135.780729 35.000158, 135.779533 34.999413, 135.778336 34.998668, 135.777140 34.997923, 135.775943 34.997178, 135.774747 34.996433, 135.773551 34.995688, 135.772354 34.994943, 135.771158 34.994197, 135.769962 34.993452, 135.768765 34.992707, 135.767569 34.991962, 135.766373 34.991217, 135.765177 34.990471, 135.763981 34.989726, 135.762784 34.988981, 135.761588 34.988236, 135.760392 34.987491, 135.759196 34.986745, 135.758000 34.986000, 135.757034 34.985061, 135.756069 34.984121, 135.755103 34.983182, 135.754138 34.982243, 135.753172 34.981304, 135.752207 34.980364, 135.751241 34.979425, 135.750276 34.978486, 135.749310 34.977546, 135.748345 34.976607, 135.747379 34.975667, 135.746414 34.974728, 135.745449 34.973789, 135.744483 34.972849, 135.743518 34.971910, 135.742553 34.970971, 135.741587 34.970031, 135.740622 34.969092, 135.739657 34.968152, 135.738692 34.967213, 135.737726 34.966273, 135.736761 34.965334, 135.735796 34.964395, 135.734831 34.963455, 135.733866 34.962516, 135.732901 34.961576, 135.731936 34.960637, 135.730971 34.959697, 135.730006 34.958758, 135.729041 34.957818, 135.728076 34.956879, 135.727111 34.955939, 135.726146 34.955000, 135.725181 34.954060, 135.724216 34.953121, 135.723251 34.952181, 135.722286 34.951241, 135.721322 34.950302, 135.720357 34.949362, 135.719392 34.948423, 135.718427 34.947483, 135.717463 34.946544, 135.716498 34.945604, 135.715533 34.944664, 135.714569 34.943725, 135.713604 34.942785, 135.712639 34.941845, 135.711675 34.940906, 135.710710 34.939966, 135.709746 34.939026, 135.708781 34.938087, 135.707817 34.937147, 135.706852 34.936207, 135.705888 34.935268, 135.704923 34.934328, 135.703959 34.933388, 135.702994 34.932449, 135.702030 34.931509, 135.701066 34.930569, 135.700101 34.929629, 135.699137 34.928690, 135.698173 34.927750, 135.697208 34.926810, 135.696244 34.925870, 135.695280 34.924931, 135.694316 34.923991, 135.693352 34.923051, 135.692387 34.922111, 135.691423 34.921172, 135.690459 34.920232, 135.689495 34.919292, 135.688531 34.918352, 135.687567 34.917412, 135.686603 34.916472, 135.685639 34.915533, 135.684675 34.914593, 135.683711 34.913653, 135.682747 34.912713, 135.681783 34.911773, 135.680819 34.910833, 135.679856 34.909893, 135.678892 34.908953, 135.677928 34.908014, 135.676964 34.907074, 135.676000 34.906134, 135.675037 34.905194, 135.674073 34.904254, 135.673109 34.903314, 135.672145 34.902374, 135.671182 34.901434, 135.670218 34.900494, 135.669255 34.899554, 135.668291 34.898614, 135.667327 34.897674, 135.666364 34.896734, 135.665400 34.895794, 135.664437 34.894854, 135.663473 34.893914, 135.662510 34.892974, 135.661546 34.892034, 135.660583 34.891094, 135.659620 34.890154, 135.658656 34.889214, 135.657693 34.888274, 135.656729 34.887334, 135.655766 34.886394, 135.654803 34.885453, 135.653840 34.884513, 135.652876 34.883573, 135.651913 34.882633, 135.650950 34.881693, 135.649987 34.880753, 135.649024 34.879813, 135.648060 34.878873, 135.647097 34.877932, 135.646134 34.876992, 135.645171 34.876052, 135.644208 34.875112, 135.643245 34.874172, 135.642282 34.873232, 135.641319 34.872291, 135.640356 34.871351, 135.639393 34.870411, 135.638430 34.869471, 135.637467 34.868530, 135.636505 34.867590, 135.635542 34.866650, 135.634579 34.865710, 135.633616 34.864770, 135.632653 34.863829, 135.631691 34.862889, 135.630728 34.861949, 135.629765 34.861008, 135.628802 34.860068, 135.627840 34.859128, 135.626877 34.858187, 135.625914 34.857247, 135.624952 34.856307, 135.623989 34.855367, 135.623027 34.854426, 135.622064 34.853486, 135.621102 34.852545, 135.620139 34.851605, 135.619177 34.850665, 135.618214 34.849724, 135.617252 34.848784, 135.616289 34.847844, 135.615327 34.846903, 135.614365 34.845963, 135.613402 34.845022, 135.612440 34.844082, 135.611478 34.843141, 135.610515 34.842201, 135.609553 34.841261, 135.608591 34.840320, 135.607629 34.839380, 135.606666 34.838439, 135.605704 34.837499, 135.604742 34.836558, 135.603780 34.835618, 135.602818 34.834677, 135.601856 34.833737, 135.600894 34.832796, 135.599932 34.831856, 135.598970 34.830915, 135.598008 34.829975, 135.597046 34.829034, 135.596084 34.828094, 135.595122 34.827153, 135.594160 34.826212, 135.593198 34.825272, 135.592236 34.824331, 135.591274 34.823391, 135.590313 34.822450, 135.589351 34.821509, 135.588389 34.820569, 135.587427 34.819628, 135.586466 34.818688, 135.585504 34.817747, 135.584542 34.816806, 135.583581 34.815866, 135.582619 34.814925, 135.581657 34.813984, 135.580696 34.813044, 135.579734 34.812103, 135.578773 34.811162, 135.577811 34.810222, 135.576850 34.809281, 135.575888 34.808340, 135.574927 34.807399, 135.573965 34.806459, 135.573004 34.805518, 135.572042 34.804577, 135.571081 34.803636, 135.570120 34.802696, 135.569158 34.801755, 135.568197 34.800814, 135.567236 34.799873, 135.566274 34.798933, 135.565313 34.797992, 135.564352 34.797051, 135.563391 34.796110, 135.562430 34.795169, 135.561468 34.794229, 135.560507 34.793288, 135.559546 34.792347, 135.558585 34.791406, 135.557624 34.790465, 135.556663 34.789524, 135.555702 34.788583, 135.554741 34.787643, 135.553780 34.786702, 135.552819 34.785761, 135.551858 34.784820, 135.550897 34.783879, 135.549936 34.782938, 135.548975 34.781997, 135.548015 34.781056, 135.547054 34.780115, 135.546093 34.779174, 135.545132 34.778233, 135.544171 34.777292, 135.543211 34.776351, 135.542250 34.775410, 135.541289 34.774469, 135.540329 34.773528, 135.539368 34.772587, 135.538407 34.771646, 135.537447 34.770705, 135.536486 34.769764, 135.535525 34.768823, 135.534565 34.767882, 135.533604 34.766941, 135.532644 34.766000, 135.531683 34.765059, 135.530723 34.764118, 135.529763 34.763177, 135.528802 34.762236, 135.527842 34.761295, 135.526881 34.760354, 135.525921 34.759413, 135.524961 34.758472, 135.524000 34.757530, 135.523040 34.756589, 135.522080 34.755648, 135.521120 34.754707, 135.520159 34.753766, 135.519199 34.752825, 135.518239 34.751884, 135.517279 34.750942, 135.516319 34.750001, 135.515359 34.749060, 135.514399 34.748119, 135.513439 34.747178, 135.512479 34.746236, 135.511518 34.745295, 135.510559 34.744354, 135.509599 34.743413, 135.508639 34.742472, 135.507679 34.741530, 135.506719 34.740589, 135.505759 34.739648, 135.504799 34.738706, 135.503839 34.737765, 135.502879 34.736824, 135.501920 34.735883, 135.500960 34.734941, 135.500000 34.734000)
