LINESTRING (72.835000 18.940000, 72.835000 18.940884, 72.835000 18.941767, 72.835000 18.942651, 72.835000 18.943535, 72.835000 18.944419, 72.835000 18.945302, 72.835000 18.946186, 72.835000 18.947070, 72.835000 18.947953, 72.835000 18.948837, 72.835000 18.949721, 72.835000 18.950605, 72.835000 18.951488, 72.835000 18.952372, 72.835000 18.953256, 72.835000 18.954140, 72.835000 18.955023, 72.835000 18.955907, 72.835000 18.956791, 72.835000 18.957674, 72.835000 18.958558, 72.835000 18.959442, 72.835000 18.960326, 72.835000 18.961209, 72.835000 18.962093, 72.835000 18.962977, 72.835000 18.963860, 72.835000 18.964744, 72.835000 18.965628, 72.835000 18.966512, 72.835000 18.967395, 72.835000 18.968279, 72.835000 18.969163, 72.835000 18.970047, 72.835000 18.970930, 72.835000 18.971814, 72.835000 18.972698, 72.835000 18.973581, 72.835000 18.974465, 72.835000 18.975349, 72.835000 18.976233, 72.835000 18.977116, 72.835000 18.978000, 72.835354 18.978829, 72.835707 18.979659, 72.836061 18.980488, 72.836414 18.981317, 72.836768 18.982146, 72.837121 18.982976, 72.837475 18.983805, 72.837828 18.984634, 72.838182 18.985464, 72.838535 18.986293, 72.838889 18.987122, 72.839242 18.987952, 72.839596 18.988781, 72.839950 18.989610, 72.840303 18.990439, 72.840657 18.991269, 72.841010 18.992098, 72.841364 18.992927, 72.841717 18.993756, 72.842071 18.994586, 72.842425 18.995415, 72.842778 18.996244, 72.843132 18.997074, 72.843485 18.997903, 72.843839 18.998732, 72.844193 18.999561, 72.844546 19.000391, 72.844900 19.001220, 72.845253 19.002049, 72.845607 19.002879, 72.845961 19.003708, 72.846314 19.004537, 72.846668 19.005366, 72.847022 19.006196, 72.847375 19.007025, 72.847729 19.007854, 72.848082 19.008683, 72.848436 19.009513, 72.848790 19.010342, 72.849143 19.011171, 72.849497 19.012001, 72.849851 19.012830, 72.850204 19.013659, 72.850558 19.014488, 72.850912 19.015318, 72.851265 19.016147, 72.851619 19.016976, 72.851973 19.017805, 72.852326 19.018635, 72.852680 19.019464, 72.853034 19.020293, 72.853387 19.021122, 72.853741 19.021952, 72.854095 19.022781, 72.854449 19.023610, 72.854802 19.024440, 72.855156 19.025269, 72.855510 19.026098, 72.855863 19.026927, 72.856217 19.027757, 72.856571 19.028586, 72.856925 19.029415, 72.857278 19.030244, 72.857632 19.031074, 72.857986 19.031903, 72.858340 19.032732, 72.858693 19.033561, 72.859047 19.034391, 72.859401 19.035220, 72.859755 19.036049, 72.860108 19.036878, 72.860462 19.037708, 72.860816 19.038537, 72.861170 19.039366, 72.861523 19.040195, 72.861877 19.041025, 72.862231 19.041854, 72.862585 19.042683, 72.862939 19.043512, 72.863292 19.044342, 72.863646 19.045171, 72.864000 19.046000, 72.864571 19.046679, 72.865143 19.047357, 72.865714 19.048036, 72.866285 19.048714, 72.866857 19.049393, 72.867428 19.050072, 72.868000 19.050750, 72.868571 19.051429, 72.869142 19.052107, 72.869714 19.052786, 72.870285 19.053464, 72.870857 19.054143, 72.871428 19.054822, 72.872000 19.055500, 72.872571 19.056179, 72.873142 19.056857, 72.873714 19.057536, 72.874285 19.058214, 72.874857 19.058893, 72.875428 19.059572, 72.876000 19.060250, 72.876571 19.060929, 72.877143 19.061607, 72.877714 19.062286, 72.878286 19.062964, 72.878857 19.063643, 72.879429 19.064321, 72.880000 19.065000, 72.880743 19.065539, 72.881487 19.066077, 72.882231 19.066616, 72.882974 19.067154, 72.883718 19.067693, 72.884461 19.068231, 72.885205 19.068770, 72.885948 19.069308, 72.886692 19.069847, 72.887435 19.070385, 72.888179 19.070924, 72.888922 19.071462, 72.889666 19.072001, 72.890409 19.072539, 72.891153 19.073077, 72.891897 19.073616, 72.892640 19.074154, 72.893384 19.074693, 72.894127 19.075231, 72.894871 19.075770, 72.895614 19.076308, 72.896358 19.076847, 72.897102 19.077385, 72.897845 19.077924, 72.898589 19.078462, 72.899333 19.079001, 72.900076 19.079539, 72.900820 19.080077, 72.901563 19.080616, 72.902307 19.081154, 72.903051 19.081693, 72.903794 19.082231, 72.904538 19.082770, 72.905282 19.083308, 72.906025 19.083846, 72.906769 19.084385, 72.907513 19.084923, 72.908256 19.085462, 72.909000 19.086000, 72.909500 19.086758, 72.909999 19.087515, 72.910499 19.088273, 72.910999 19.089031, 72.911499 19.089788, 72.911998 19.090546, 72.912498 19.091304, 72.912998 19.092061, 72.913497 19.092819, 72.913997 19.093577, 72.914497 19.094334, 72.914997 19.095092, 72.915496 19.095850, 72.915996 19.096607, 72.916496 19.097365, 72.916996 19.098122, 72.917496 19.098880, 72.917995 19.099638, 72.918495 19.100395, 72.918995 19.101153, 72.919495 19.101911, 72.919994 19.102668, 72.920494 19.103426, 72.920994 19.104184, 72.921494 19.104941, 72.921994 19.105699, 72.922494 19.106456, 72.922993 19.107214, 72.923493 19.107972, 72.923993 19.108729, 72.924493 19.109487, 72.924993 19.110245, 72.925493 19.111002, 72.925992 19.111760, 72.926492 19.112517, 72.926992 19.113275, 72.927492 19.114033, 72.927992 19.114790, 72.928492 19.115548, 72.928992 19.116306, 72.929491 19.117063, 72.929991 19.117821, 72.930491 19.118578, 72.930991 19.119336, 72.931491 19.120094, 72.931991 19.120851, 72.932491 19.121609, 72.932991 19.122366, 72.933491 19.123124, 72.933991 19.123882, 72.934491 19.124639, 72.934990 19.125397, 72.935490 19.126154, 72.935990 19.126912, 72.936490 19.127670, 72.936990 19.128427, 72.937490 19.129185, 72.937990 19.129942, 72.938490 19.130700, 72.938990 19.131457, 72.939490 19.132215, 72.939990 19.132973, 72.940490 19.133730, 72.940990 19.134488, 72.941490 19.135245, 72.941990 19.136003, 72.942490 19.136761, 72.942990 19.137518, 72.943490 19.138276, 72.943990 19.139033, 72.944490 19.139791, 72.944990 19.140548, 72.945490 19.141306, 72.945990 19.142064, 72.946490 19.142821, 72.946990 19.143579, 72.947490 19.144336, 72.947990 19.145094, 72.948490 19.145851, 72.948990 19.146609, 72.949491 19.147366, 72.949991 19.148124, 72.950491 19.148882, 72.950991 19.149639, 72.951491 19.150397, 72.951991 19.151154, 72.952491 19.151912, 72.952991 19.152669, 72.953491 19.153427, 72.953991 19.154184, 72.954491 19.154942, 72.954992 19.155699, 72.955492 19.156457, 72.955992 19.157215, 72.956492 19.157972, 72.956992 19.158730, 72.957492 19.159487, 72.957992 19.160245, 72.958493 19.161002, 72.958993 19.161760, 72.959493 19.162517, 72.959993 19.163275, 72.960493 19.164032, 72.960993 19.164790, 72.961493 19.165547, 72.961994 19.166305, 72.962494 19.167062, 72.962994 19.167820, 72.963494 19.168577, 72.963994 19.169335, 72.964495 19.170092, 72.964995 19.170850, 72.965495 19.171608, 72.965995 19.172365, 72.966496 19.173123, 72.966996 19.173880, 72.967496 19.174638, 72.967996 19.175395, 72.968496 19.176153, 72.968997 19.176910, 72.969497 19.177668, 72.969997 19.178425, 72.970497 19.179183, 72.970998 19.179940, 72.971498 19.180698, 72.971998 19.181455, 72.972499 19.182213, 72.972999 19.182970, 72.973499 19.183728, 72.973999 19.184485, 72.974500 19.185243, 72.975000 19.186000)
