LINESTRING (-3.000000 53.400000, -3.019706 53.404030, -3.040225 53.408294, -3.061480 53.412765, -3.083392 53.417413, -3.105882 53.422211, -3.128871 53.427132, -3.152281 53.432147, -3.176032 53.437229, -3.200046 53.442351, -3.224244 53.447483, -3.248546 53.452600, -3.272873 53.457672, -3.297145 53.462674, -3.321284 53.467578, -3.345209 53.472355, -3.368840 53.476980, -3.392099 53.481425, -3.414905 53.485663, -3.437178 53.489666, -3.458838 53.493408, -3.479806 53.496861, -3.500000 53.500000, -3.520459 53.503232, -3.541467 53.506849, -3.562999 53.510827, -3.585031 53.515139, -3.607539 53.519763, -3.630497 53.524672, -3.653880 53.529841, -3.677665 53.535247, -3.701825 53.540864, -3.726337 53.546668, -3.751175 53.552633, -3.776314 53.558736, -3.801728 53.564951, -3.827394 53.571253, -3.853285 53.577618, -3.879377 53.584022, -3.905643 53.590439, -3.932058 53.596846, -3.958597 53.603217, -3.985235 53.609528, -4.011944 53.615754, -4.038701 53.621871, -4.065478 53.627854, -4.092250 53.633680, -4.118991 53.639323, -4.145674 53.644759, -4.172274 53.649963, -4.198765 53.654912, -4.225119 53.659580, -4.251311 53.663945, -4.277315 53.667980, -4.303102 53.671663, -4.328649 53.674968, -4.353926 53.677871, -4.378909 53.680349, -4.403569 53.682377, -4.427881 53.683930, -4.451818 53.684985, -4.475352 53.685518, -4.498457 53.685504, -4.521107 53.684919, -4.543273 53.683740, -4.564930 53.681941, -4.586051 53.679500, -4.606607 53.676391, -4.626574 53.672592, -4.645923 53.668077, -4.664629 53.662822, -4.682663 53.656805, -4.700000 53.650000, -4.716873 53.642621, -4.733502 53.634914, -4.749890 53.626888, -4.766042 53.618549, -4.781962 53.609905, -4.797652 53.600962, -4.813116 53.591728, -4.828358 53.582210, -4.843382 53.572415, -4.858191 53.562350, -4.872789 53.552023, -4.887180 53.541440, -4.901367 53.530609, -4.915355 53.519537, -4.929147 53.508230, -4.942746 53.496697, -4.956157 53.484943, -4.969383 53.472977, -4.982428 53.460806, -4.995297 53.448436, -5.007992 53.435874, -5.020518 53.423129, -5.032878 53.410206, -5.045076 53.397113, -5.057117 53.383857, -5.069003 53.370446, -5.080740 53.356885, -5.092330 53.343183, -5.103777 53.329347, -5.115087 53.315383, -5.126261 53.301299, -5.137305 53.287102, -5.148222 53.272798, -5.159016 53.258395, -5.169691 53.243901, -5.180251 53.229321, -5.190700 53.214664, -5.201042 53.199936, -5.211280 53.185145, -5.221419 53.170297, -5.231462 53.155399, -5.241413 53.140459, -5.251277 53.125484, -5.261057 53.110480, -5.270758 53.095455, -5.280382 53.080416, -5.289935 53.065371, -5.299419 53.050325, -5.308839 53.035286, -5.318200 53.020261, -5.327504 53.005258, -5.336755 52.990283, -5.345958 52.975343, -5.355117 52.960446, -5.364236 52.945598, -5.373317 52.930806, -5.382367 52.916079, -5.391387 52.901421, -5.400383 52.886842, -5.409358 52.872347, -5.418316 52.857944, -5.427261 52.843640, -5.436197 52.829441, -5.445128 52.815356, -5.454058 52.801390, -5.462990 52.787552, -5.471930 52.773848, -5.480880 52.760284, -5.489845 52.746869, -5.498828 52.733609, -5.507834 52.720511, -5.516866 52.707582, -5.525929 52.694830, -5.535026 52.682261, -5.544161 52.669882, -5.553339 52.657701, -5.562563 52.645724, -5.571837 52.633958, -5.581165 52.622411, -5.590552 52.611089, -5.600000 52.600000, -5.609520 52.588850, -5.619032 52.577448, -5.628541 52.565803, -5.638049 52.553925, -5.647558 52.541822, -5.657073 52.529504, -5.666595 52.516981, -5.676128 52.504262, -5.685674 52.491356, -5.695237 52.478272, -5.704820 52.465020, -5.714424 52.451609, -5.724055 52.438049, -5.733713 52.424349, -5.743403 52.410518, -5.753128 52.396565, -5.762889 52.382500, -5.772691 52.368333, -5.782536 52.354072, -5.792427 52.339726, -5.802367 52.325306, -5.812360 52.310821, -5.822407 52.296279, -5.832513 52.281691, -5.842680 52.267064, -5.852911 52.252410, -5.863209 52.237737, -5.873578 52.223054, -5.884019 52.208371, -5.894537 52.193697, -5.905134 52.179042, -5.915814 52.164414, -5.926579 52.149824, -5.937432 52.135279, -5.948376 52.120791, -5.959415 52.106367, -5.970552 52.092018, -5.981789 52.077752, -5.993130 52.063579, -6.004578 52.049509, -6.016135 52.035550, -6.027806 52.021711, -6.039592 52.008003, -6.051498 51.994434, -6.063526 51.981014, -6.075679 51.967753, -6.087961 51.954658, -6.100375 51.941740, -6.112924 51.929008, -6.125610 51.916471, -6.138438 51.904139, -6.151410 51.892020, -6.164530 51.880124, -6.177801 51.868461, -6.191226 51.857039, -6.204808 51.845869, -6.218550 51.834958, -6.232456 51.824317, -6.246530 51.813955, -6.260774 51.803880, -6.275191 51.794103, -6.289785 51.784632, -6.304560 51.775477, -6.319519 51.766648, -6.334664 51.758152, -6.350000 51.750000, -6.365682 51.742043, -6.381775 51.734168, -6.398268 51.726376, -6.415151 51.718665, -6.432415 51.711035, -6.450049 51.703486, -6.468043 51.696016, -6.486388 51.688626, -6.505074 51.681315, -6.524090 51.674081, -6.543427 51.666926, -6.563074 51.659847, -6.583023 51.652845, -6.603263 51.645920, -6.623784 51.639069, -6.644576 51.632294, -6.665630 51.625593, -6.686936 51.618966, -6.708483 51.612412, -6.730262 51.605932, -6.752264 51.599523, -6.774478 51.593187, -6.796894 51.586922, -6.819503 51.580728, -6.842295 51.574605, -6.865260 51.568551, -6.888389 51.562568, -6.911671 51.556653, -6.935097 51.550807, -6.958657 51.545029, -6.982341 51.539319, -7.006139 51.533676, -7.030043 51.528100, -7.054041 51.522591, -7.078125 51.517148, -7.102284 51.511770, -7.126509 51.506458, -7.150790 51.501211, -7.175117 51.496029, -7.199481 51.490911, -7.223872 51.485856, -7.248279 51.480865, -7.272695 51.475938, -7.297108 51.471073, -7.321509 51.466271, -7.345889 51.461531, -7.370237 51.456852, -7.394545 51.452236, -7.418801 51.447681, -7.442997 51.443187, -7.467124 51.438753, -7.491170 51.434380, -7.515127 51.430068, -7.538985 51.425815, -7.562734 51.421622, -7.586365 51.417489, -7.609867 51.413415, -7.633232 51.409400, -7.656449 51.405444, -7.679510 51.401546, -7.702403 51.397707, -7.725120 51.393926, -7.747651 51.390204, -7.769987 51.386539, -7.792117 51.382932, -7.814032 51.379382, -7.835722 51.375890, -7.857178 51.372455, -7.878390 51.369077, -7.899349 51.365756, -7.920044 51.362492, -7.940467 51.359284, -7.960606 51.356133, -7.980454 51.353038, -8.000000 51.350000, -8.019518 51.346977, -8.039204 51.343942, -8.059053 51.340894, -8.079064 51.337836, -8.099234 51.334766, -8.119560 51.331685, -8.140039 51.328593, -8.160670 51.325492, -8.181448 51.322381, -8.202372 51.319260, -8.223438 51.316131, -8.244644 51.312992, -8.265988 51.309846, -8.287467 51.306692, -8.309077 51.303530, -8.330817 51.300361, -8.352684 51.297185, -8.374674 51.294003, -8.396786 51.290814, -8.419017 51.287621, -8.441364 51.284421, -8.463824 51.281217, -8.486395 51.278009, -8.509074 51.274796, -8.531858 51.271580, -8.554745 51.268360, -8.577733 51.265138, -8.600817 51.261913, -8.623997 51.258685, -8.647269 51.255456, -8.670630 51.252226, -8.694079 51.248995, -8.717612 51.245763, -8.741226 51.242531, -8.764920 51.239299, -8.788690 51.236068, -8.812533 51.232838, -8.836448 51.229609, -8.860432 51.226382, -8.884482 51.223158, -8.908595 51.219936, -8.932769 51.216718, -8.957001 51.213503, -8.981288 51.210292, -9.005629 51.207085, -9.030020 51.203883, -9.054459 51.200687, -9.078943 51.197496, -9.103470 51.194311, -9.128037 51.191133, -9.152641 51.187961, -9.177281 51.184798, -9.201952 51.181642, -9.226654 51.178494, -9.251383 51.175355, -9.276136 51.172225, -9.300911 51.169105, -9.325706 51.165995, -9.350518 51.162895, -9.375345 51.159806, -9.400183 51.156729, -9.425030 51.153664, -9.449885 51.150611, -9.474744 51.147571, -9.499604 51.144544, -9.524464 51.141530, -9.549320 51.138531, -9.574170 51.135547, -9.599013 51.132578, -9.623844 51.129624, -9.648662 51.126687, -9.673463 51.123766, -9.698247 51.120862, -9.723009 51.117975, -9.747748 51.115107, -9.772461 51.112257, -9.797146 51.109426, -9.821799 51.106614, -9.846420 51.103823, -9.871004 51.101052, -9.895549 51.098302, -9.920054 51.095573, -9.944516 51.092866, -9.968931 51.090181, -9.993299 51.087520, -10.017615 51.084882, -10.041878 51.082268, -10.066085 51.079678, -10.090234 51.077113, -10.114322 51.074574, -10.138347 51.072061, -10.162307 51.069574, -10.186198 51.067115, -10.210019 51.064682, -10.233767 51.062278, -10.257439 51.059903, -10.281033 51.057556, -10.304547 51.055240, -10.327978 51.052953, -10.351324 51.050697, -10.374583 51.048472, -10.397751 51.046280, -10.420826 51.044119, -10.443807 51.041991, -10.466690 51.039897, -10.489473 51.037836, -10.512153 51.035810, -10.534730 51.033819, -10.557198 51.031864, -10.579558 51.029945, -10.601805 51.028062, -10.623938 51.026217, -10.645954 51.024409, -10.667850 51.022639, -10.689625 51.020909, -10.711276 51.019218, -10.732800 51.017567, -10.754196 51.015956, -10.775459 51.014387, -10.796589 51.012859, -10.817583 51.011374, -10.838439 51.009931, -10.859153 51.008532, -10.879723 51.007177, -10.900148 51.005866, -10.920425 51.004600, -10.940551 51.003380, -10.960523 51.002206, -10.980341 51.001079, -11.000000 51.000000, -11.019515 50.998944, -11.039049 50.997881, -11.058601 50.996809, -11.078170 50.995729, -11.097758 50.994641, -11.117364 50.993545, -11.136988 50.992442, -11.156629 50.991330, -11.176288 50.990210, -11.195966 50.989082, -11.215661 50.987946, -11.235373 50.986802, -11.255104 50.985650, -11.274852 50.984490, -11.294617 50.983322, -11.314400 50.982145, -11.334201 50.980961, -11.354019 50.979769, -11.373855 50.978569, -11.393708 50.977361, -11.413578 50.976145, -11.433466 50.974920, -11.453371 50.973688, -11.473293 50.972448, -11.493232 50.971200, -11.513189 50.969944, -11.533163 50.968680, -11.553153 50.967407, -11.573161 50.966127, -11.593186 50.964839, -11.613228 50.963543, -11.633286 50.962239, -11.653362 50.960927, -11.673454 50.959606, -11.693563 50.958278, -11.713689 50.956942, -11.733832 50.955598, -11.753991 50.954246, -11.774167 50.952886, -11.794359 50.951518, -11.814568 50.950142, -11.834794 50.948758, -11.855036 50.947366, -11.875294 50.945966, -11.895569 50.944559, -11.915860 50.943143, -11.936167 50.941719, -11.956491 50.940287, -11.976831 50.938848, -11.997187 50.937400, -12.017559 50.935944, -12.037947 50.934481, -12.058352 50.933009, -12.078772 50.931530, -12.099208 50.930043, -12.119660 50.928548, -12.140129 50.927044, -12.160613 50.925533, -12.181112 50.924014, -12.201628 50.922487, -12.222159 50.920952, -12.242706 50.919409, -12.263269 50.917859, -12.283847 50.916300, -12.304440 50.914733, -12.325050 50.913159, -12.345674 50.911577, -12.366315 50.909986, -12.386970 50.908388, -12.407641 50.906782, -12.428327 50.905168, -12.449029 50.903546, -12.469746 50.901916, -12.490477 50.900279, -12.511224 50.898633, -12.531987 50.896980, -12.552764 50.895318, -12.573556 50.893649, -12.594363 50.891972, -12.615186 50.890287, -12.636023 50.888594, -12.656875 50.886894, -12.677741 50.885185, -12.698623 50.883469, -12.719519 50.881744, -12.740430 50.880012, -12.761356 50.878272, -12.782296 50.876524, -12.803251 50.874769, -12.824220 50.873005, -12.845204 50.871234, -12.866202 50.869455, -12.887215 50.867668, -12.908242 50.865873, -12.929283 50.864070, -12.950339 50.862260, -12.971409 50.860442, -12.992493 50.858616, -13.013591 50.856782, -13.034704 50.854940, -13.055830 50.853090, -13.076971 50.851233, -13.098125 50.849368, -13.119293 50.847495, -13.140476 50.845614, -13.161672 50.843726, -13.182882 50.841830, -13.204106 50.839926, -13.225343 50.838014, -13.246595 50.836094, -13.267860 50.834167, -13.289138 50.832232, -13.310430 50.830289, -13.331736 50.828338, -13.353055 50.826380, -13.374388 50.824414, -13.395734 50.822440, -13.417093 50.820458, -13.438466 50.818469, -13.459852 50.816472, -13.481252 50.814467, -13.502664 50.812454, -13.524090 50.810434, -13.545529 50.808406, -13.566981 50.806370, -13.588446 50.804327, -13.609924 50.802276, -13.631415 50.800217, -13.652918 50.798151, -13.674435 50.796076, -13.695965 50.793994, -13.717507 50.791905, -13.739062 50.789808, -13.760630 50.787703, -13.782211 50.785590, -13.803804 50.783470, -13.825410 50.781342, -13.847028 50.779206, -13.868659 50.777063, -13.890302 50.774912, -13.911958 50.772753, -13.933626 50.770587, -13.955307 50.768413, -13.976999 50.766232, -13.998704 50.764043, -14.020422 50.761846, -14.042151 50.759642, -14.063893 50.757430, -14.085646 50.755210, -14.107412 50.752983, -14.129190 50.750748, -14.150980 50.748506, -14.172781 50.746256, -14.194595 50.743999, -14.216421 50.741733, -14.238258 50.739461, -14.260107 50.737180, -14.281968 50.734893, -14.303840 50.732597, -14.325724 50.730294, -14.347620 50.727984, -14.369527 50.725666, -14.391446 50.723340, -14.413376 50.721007, -14.435318 50.718666, -14.457271 50.716318, -14.479236 50.713962, -14.501212 50.711599, -14.523199 50.709228, -14.545197 50.706850, -14.567207 50.704464, -14.589227 50.702071, -14.611259 50.699670, -14.633302 50.697262, -14.655356 50.694846, -14.677421 50.692423, -14.699497 50.689992, -14.721584 50.687554, -14.743681 50.685109, -14.765790 50.682656, -14.787909 50.680195, -14.810039 50.677727, -14.832180 50.675252, -14.854332 50.672769, -14.876494 50.670279, -14.898666 50.667781, -14.920849 50.665276, -14.943043 50.662764, -14.965247 50.660244, -14.987462 50.657716, -15.009687 50.655182, -15.031922 50.652640, -15.054168 50.650090, -15.076424 50.647533, -15.098690 50.644969, -15.120966 50.642398, -15.143253 50.639819, -15.165549 50.637232, -15.187856 50.634639, -15.210173 50.632038, -15.232499 50.629429, -15.254836 50.626814, -15.277182 50.624191, -15.299539 50.621561, -15.321905 50.618923, -15.344281 50.616278, -15.366666 50.613626, -15.389062 50.610966, -15.411467 50.608300, -15.433881 50.605626, -15.456305 50.602944, -15.478739 50.600256, -15.501182 50.597560, -15.523635 50.594857, -15.546097 50.592146, -15.568569 50.589429, -15.591049 50.586704, -15.613540 50.583972, -15.636039 50.581232, -15.658547 50.578486, -15.681065 50.575732, -15.703592 50.572971, -15.726128 50.570203, -15.748673 50.567428, -15.771227 50.564645, -15.793790 50.561855, -15.816362 50.559059, -15.838943 50.556255, -15.861532 50.553443, -15.884131 50.550625, -15.906738 50.547800, -15.929354 50.544967, -15.951979 50.542127, -15.974612 50.539280, -15.997254 50.536426, -16.019905 50.533565, -16.042564 50.530697, -16.065231 50.527822, -16.087907 50.524939, -16.110592 50.522050, -16.133285 50.519153, -16.155986 50.516249, -16.178695 50.513339, -16.201413 50.510421, -16.224139 50.507496, -16.246873 50.504564, -16.269615 50.501625, -16.292365 50.498680, -16.315124 50.495727, -16.337890 50.492767, -16.360664 50.489800, -16.383447 50.486826, -16.406237 50.483845, -16.429035 50.480857, -16.451841 50.477862, -16.474654 50.474860, -16.497476 50.471851, -16.520305 50.468836, -16.543141 50.465813, -16.565986 50.462783, -16.588838 50.459746, -16.611697 50.456703, -16.634564 50.453653, -16.657439 50.450595, -16.680321 50.447531, -16.703210 50.444460, -16.726106 50.441382, -16.749010 50.438297, -16.771922 50.435205, -16.794840 50.432106, -16.817766 50.429001, -16.840698 50.425888, -16.863638 50.422769, -16.886585 50.419643, -16.909539 50.416510, -16.932500 50.413371, -16.955468 50.410224, -16.978443 50.407071, -17.001425 50.403911, -17.024413 50.400744, -17.047409 50.397570, -17.070411 50.394390, -17.093420 50.391203, -17.116435 50.388009, -17.139457 50.384808, -17.162486 50.381601, -17.185522 50.378387, -17.208564 50.375166, -17.231612 50.371938, -17.254667 50.368704, -17.277728 50.365463, -17.300796 50.362216, -17.323870 50.358961, -17.346950 50.355700, -17.370036 50.352433, -17.393129 50.349158, -17.416228 50.345877, -17.439333 50.342590, -17.462444 50.339296, -17.485562 50.335995, -17.508685 50.332687, -17.531814 50.329373, -17.554949 50.326053, -17.578091 50.322726, -17.601238 50.319392, -17.624391 50.316051, -17.647549 50.312705, -17.670714 50.309351, -17.693884 50.305991, -17.717060 50.302625, -17.740241 50.299251, -17.763428 50.295872, -17.786621 50.292486, -17.809819 50.289093, -17.833023 50.285694, -17.856232 50.282289, -17.879447 50.278877, -17.902667 50.275458, -17.925892 50.272033, -17.949122 50.268602, -17.972358 50.265164, -17.995599 50.261720, -18.018846 50.258269, -18.042097 50.254812, -18.065354 50.251349, -18.088616 50.247879, -18.111882 50.244403, -18.135154 50.240920, -18.158431 50.237431, -18.181712 50.233936, -18.204999 50.230434, -18.228290 50.226926, -18.251587 50.223412, -18.274888 50.219892, -18.298193 50.216365, -18.321504 50.212831, -18.344819 50.209292, -18.368139 50.205746, -18.391463 50.202194, -18.414792 50.198636, -18.438125 50.195071, -18.461463 50.191501, -18.484806 50.187924, -18.508152 50.184341, -18.531504 50.180751, -18.554859 50.177156, -18.578219 50.173554, -18.601583 50.169946, -18.624951 50.166332, -18.648324 50.162711, -18.671701 50.159085, -18.695081 50.155452, -18.718466 50.151814, -18.741855 50.148169, -18.765248 50.144518, -18.788645 50.140861, -18.812046 50.137198, -18.835450 50.133528, -18.858859 50.129853, -18.882271 50.126172, -18.905688 50.122485, -18.929108 50.118791, -18.952531 50.115092, -18.975959 50.111386, -18.999390 50.107675, -19.022824 50.103957, -19.046262 50.100234, -19.069704 50.096504, -19.093149 50.092769, -19.116598 50.089028, -19.140050 50.085280, -19.163506 50.081527, -19.186965 50.077768, -19.210427 50.074003, -19.233892 50.070232, -19.257361 50.066455, -19.280833 50.062672, -19.304308 50.058883, -19.327786 50.055089, -19.351268 50.051289, -19.374752 50.047482, -19.398240 50.043670, -19.421730 50.039853, -19.445224 50.036029, -19.468720 50.032199, -19.492219 50.028364, -19.515721 50.024523, -19.539226 50.020676, -19.562734 50.016824, -19.586245 50.012966, -19.609758 50.009102, -19.633274 50.005232, -19.656792 50.001356, -19.680313 49.997475, -19.703837 49.993588, -19.727364 49.989696, -19.750892 49.985798, -19.774424 49.981894, -19.797957 49.977984, -19.821493 49.974069, -19.845032 49.970148, -19.868573 49.966222, -19.892116 49.962290, -19.915661 49.958352, -19.939209 49.954409, -19.962759 49.950461, -19.986311 49.946506, -20.009865 49.942547, -20.033421 49.938581, -20.056979 49.934610, -20.080539 49.930634, -20.104102 49.926652, -20.127666 49.922665, -20.151232 49.918672, -20.174800 49.914674, -20.198370 49.910670, -20.221942 49.906661, -20.245515 49.902646, -20.269090 49.898626, -20.292667 49.894600, -20.316246 49.890570, -20.339826 49.886533, -20.363408 49.882492, -20.386992 49.878445, -20.410577 49.874392, -20.434163 49.870335, -20.457751 49.866272, -20.481341 49.862203, -20.504932 49.858130, -20.528524 49.854051, -20.552118 49.849967, -20.575712 49.845877, -20.599309 49.841783, -20.622906 49.837683, -20.646505 49.833578, -20.670105 49.829467, -20.693706 49.825352, -20.717308 49.821231, -20.740911 49.817105, -20.764515 49.812974, -20.788120 49.808837, -20.811726 49.804696, -20.835334 49.800549, -20.858942 49.796397, -20.882551 49.792241, -20.906160 49.788079, -20.929771 49.783912, -20.953382 49.779740, -20.976995 49.775562, -21.000607 49.771380, -21.024221 49.767193, -21.047835 49.763001, -21.071450 49.758803, -21.095065 49.754601, -21.118681 49.750394, -21.142298 49.746182, -21.165915 49.741964, -21.189532 49.737742, -21.213150 49.733515, -21.236768 49.729283, -21.260387 49.725046, -21.284006 49.720804, -21.307625 49.716558, -21.331245 49.712306, -21.354864 49.708050, -21.378484 49.703788, -21.402104 49.699522, -21.425725 49.695251, -21.449345 49.690975, -21.472965 49.686695, -21.496586 49.682409, -21.520206 49.678119, -21.543827 49.673824, -21.567447 49.669525, -21.591067 49.665220, -21.614688 49.660911, -21.638308 49.656597, -21.661928 49.652279, -21.685547 49.647955, -21.709167 49.643628, -21.732786 49.639295, -21.756405 49.634958, -21.780023 49.630616, -21.803641 49.626269, -21.827259 49.621918, -21.850876 49.617563, -21.874493 49.613203, -21.898110 49.608838, -21.921725 49.604468, -21.945341 49.600094, -21.968955 49.595716, -21.992570 49.591333, -22.016183 49.586946, -22.039796 49.582554, -22.063408 49.578157, -22.087019 49.573757, -22.110630 49.569351, -22.134240 49.564941, -22.157849 49.560527, -22.181457 49.556109, -22.205064 49.551686, -22.228670 49.547258, -22.252276 49.542827, -22.275880 49.538391, -22.299483 49.533950, -22.323086 49.529505, -22.346687 49.525056, -22.370287 49.520603, -22.393886 49.516145, -22.417484 49.511683, -22.441081 49.507217, -22.464676 49.502747, -22.488270 49.498272, -22.511863 49.493793, -22.535455 49.489310, -22.559045 49.484823, -22.582634 49.480331, -22.606222 49.475836, -22.629808 49.471336, -22.653393 49.466832, -22.676976 49.462324, -22.700558 49.457812, -22.724138 49.453296, -22.747716 49.448775, -22.771293 49.444251, -22.794869 49.439723, -22.818442 49.435190, -22.842014 49.430654, -22.865585 49.426113, -22.889153 49.421569, -22.912720 49.417020, -22.936285 49.412468, -22.959848 49.407911, -22.983410 49.403351, -23.006969 49.398787, -23.030526 49.394218, -23.054082 49.389646, -23.077636 49.385070, -23.101187 49.380490, -23.124737 49.375907, -23.148284 49.371319, -23.171830 49.366728, -23.195373 49.362132, -23.218914 49.357533, -23.242453 49.352931, -23.265990 49.348324, -23.289524 49.343714, -23.313057 49.339100, -23.336587 49.334482, -23.360115 49.329860, -23.383640 49.325235, -23.407163 49.320606, -23.430684 49.315974, -23.454202 49.311337, -23.477718 49.306698, -23.501231 49.302054, -23.524742 49.297407, -23.548250 49.292756, -23.571756 49.288102, -23.595259 49.283444, -23.618759 49.278783, -23.642257 49.274118, -23.665752 49.269449, -23.689245 49.264777, -23.712735 49.260102, -23.736222 49.255423, -23.759706 49.250740, -23.783188 49.246054, -23.806666 49.241365, -23.830142 49.236672, -23.853615 49.231976, -23.877085 49.227277, -23.900552 49.222574, -23.924016 49.217867, -23.947477 49.213158, -23.970935 49.208445, -23.994390 49.203728, -24.017842 49.199009, -24.041291 49.194286, -24.064737 49.189560, -24.088180 49.184830, -24.111619 49.180097, -24.135056 49.175361, -24.158489 49.170622, -24.181918 49.165880, -24.205345 49.161134, -24.228768 49.156386, -24.252188 49.151634, -24.275605 49.146879, -24.299018 49.142121, -24.322428 49.137359, -24.345834 49.132595, -24.369237 49.127828, -24.392636 49.123057, -24.416032 49.118284, -24.439425 49.113507, -24.462813 49.108727, -24.486199 49.103945, -24.509580 49.099159, -24.532958 49.094371, -24.556333 49.089579, -24.579703 49.084785, -24.603070 49.079987, -24.626433 49.075187, -24.649793 49.070384, -24.673148 49.065578, -24.696500 49.060769, -24.719848 49.055957, -24.743193 49.051142, -24.766533 49.046325, -24.789869 49.041505, -24.813202 49.036682, -24.836530 49.031856, -24.859855 49.027027, -24.883175 49.022196, -24.906492 49.017362, -24.929804 49.012525, -24.953112 49.007685, -24.976417 49.002843, -24.999717 48.997998, -25.023013 48.993151, -25.046305 48.988301, -25.069592 48.983448, -25.092876 48.978593, -25.116155 48.973735, -25.139430 48.968874, -25.162700 48.964011, -25.185966 48.959146, -25.209228 48.954278, -25.232486 48.949407, -25.255739 48.944534, -25.278988 48.939658, -25.302232 48.934780, -25.325472 48.929900, -25.348707 48.925017, -25.371938 48.920131, -25.395165 48.915243, -25.418386 48.910353, -25.441604 48.905461, -25.464816 48.900566, -25.488024 48.895669, -25.511228 48.890769, -25.534426 48.885867, -25.557620 48.880963, -25.580810 48.876057, -25.603994 48.871148, -25.627174 48.866237, -25.650349 48.861324, -25.673519 48.856409, -25.696685 48.851491, -25.719845 48.846571, -25.743001 48.841649, -25.766152 48.836725, -25.789298 48.831799, -25.812439 48.826871, -25.835575 48.821941, -25.858706 48.817008, -25.881832 48.812074, -25.904953 48.807137, -25.928069 48.802199, -25.951179 48.797258, -25.974285 48.792315, -25.997386 48.787371, -26.020481 48.782424, -26.043572 48.777476, -26.066657 48.772525, -26.089737 48.767573, -26.112812 48.762619, -26.135881 48.757662, -26.158945 48.752704, -26.182004 48.747744, -26.205058 48.742783, -26.228106 48.737819, -26.251149 48.732854, -26.274187 48.727887, -26.297219 48.722918, -26.320246 48.717947, -26.343267 48.712975, -26.366283 48.708000, -26.389294 48.703025, -26.412299 48.698047, -26.435298 48.693068, -26.458292 48.688087, -26.481280 48.683104, -26.504263 48.678120, -26.527240 48.673134, -26.550212 48.668147, -26.573178 48.663158, -26.596138 48.658168, -26.619092 48.653176, -26.642041 48.648182, -26.664984 48.643187, -26.687922 48.638190, -26.710853 48.633192, -26.733779 48.628193, -26.756699 48.623192, -26.779613 48.618189, -26.802522 48.613186, -26.825424 48.608180, -26.848321 48.603174, -26.871211 48.598166, -26.894096 48.593157, -26.916975 48.588146, -26.939848 48.583134, -26.962715 48.578121, -26.985576 48.573106, -27.008430 48.568091, -27.031279 48.563074, -27.054122 48.558055, -27.076959 48.553036, -27.099789 48.548015, -27.122614 48.542994, -27.145432 48.537971, -27.168244 48.532946, -27.191050 48.527921, -27.213850 48.522895, -27.236643 48.517867, -27.259431 48.512839, -27.282212 48.507809, -27.304987 48.502779, -27.327755 48.497747, -27.350517 48.492714, -27.373273 48.487681, -27.396023 48.482646, -27.418766 48.477610, -27.441503 48.472574, -27.464233 48.467536, -27.486957 48.462498, -27.509675 48.457459, -27.532386 48.452419, -27.555091 48.447378, -27.577789 48.442336, -27.600480 48.437293, -27.623165 48.432250, -27.645844 48.427205, -27.668516 48.422160, -27.691181 48.417114, -27.713840 48.412068, -27.736492 48.407021, -27.759138 48.401973, -27.781777 48.396924, -27.804409 48.391875, -27.827034 48.386825, -27.849653 48.381774, -27.872265 48.376723, -27.894871 48.371671, -27.917469 48.366619, -27.940061 48.361566, -27.962646 48.356512, -27.985224 48.351458, -28.007796 48.346403, -28.030360 48.341348, -28.052918 48.336293, -28.075469 48.331237, -28.098013 48.326180, -28.120550 48.321123, -28.143080 48.316066, -28.165603 48.311008, -28.188119 48.305950, -28.210628 48.300891, -28.233130 48.295833, -28.255625 48.290773, -28.278114 48.285714, -28.300595 48.280654, -28.323069 48.275594, -28.345536 48.270534, -28.367995 48.265473, -28.390448 48.260413, -28.412894 48.255352, -28.435332 48.250290, -28.457763 48.245229, -28.480188 48.240168, -28.502605 48.235106, -28.525014 48.230044, -28.547417 48.224982, -28.569812 48.219920, -28.592200 48.214858, -28.614581 48.209796, -28.636954 48.204734, -28.659320 48.199672, -28.681679 48.194610, -28.704030 48.189548, -28.726375 48.184486, -28.748711 48.179424, -28.771041 48.174362, -28.793363 48.169300, -28.815677 48.164238, -28.837984 48.159177, -28.860284 48.154115, -28.882576 48.149054, -28.904861 48.143993, -28.927138 48.138932, -28.949408 48.133871, -28.971670 48.128811, -28.993925 48.123750, -29.016172 48.118690, -29.038412 48.113631, -29.060644 48.108571, -29.082868 48.103512, -29.105085 48.098453, -29.127294 48.093395, -29.149496 48.088337, -29.171689 48.083279, -29.193876 48.078222, -29.216054 48.073165, -29.238225 48.068108, -29.260388 48.063052, -29.282544 48.057997, -29.304691 48.052942, -29.326831 48.047887, -29.348963 48.042834, -29.371088 48.037780, -29.393204 48.032727, -29.415313 48.027675, -29.437414 48.022623, -29.459507 48.017572, -29.481592 48.012522, -29.503670 48.007472, -29.525739 48.002423, -29.547801 47.997374, -29.569855 47.992327, -29.591901 47.987280, -29.613938 47.982233, -29.635968 47.977188, -29.657990 47.972143, -29.680004 47.967099, -29.702010 47.962056, -29.724008 47.957014, -29.745998 47.951972, -29.767980 47.946931, -29.789954 47.941892, -29.811920 47.936853, -29.833878 47.931815, -29.855828 47.926778, -29.877769 47.921742, -29.899703 47.916707, -29.921628 47.911673, -29.943545 47.906640, -29.965455 47.901607, -29.987356 47.896576, -30.009248 47.891546, -30.031133 47.886518, -30.053009 47.881490, -30.074878 47.876463, -30.096738 47.871437, -30.118590 47.866413, -30.140433 47.861390, -30.162268 47.856368, -30.184095 47.851347, -30.205914 47.846327, -30.227725 47.841309, -30.249527 47.836292, -30.271320 47.831276, -30.293106 47.826261, -30.314883 47.821248, -30.336652 47.816236, -30.358412 47.811225, -30.380164 47.806216, -30.401908 47.801208, -30.423643 47.796201, -30.445370 47.791196, -30.467089 47.786193, -30.488799 47.781190, -30.510500 47.776190, -30.532193 47.771190, -30.553878 47.766193, -30.575554 47.761196, -30.597222 47.756202, -30.618881 47.751209, -30.640531 47.746217, -30.662173 47.741227, -30.683807 47.736239, -30.705432 47.731252, -30.727048 47.726267, -30.748656 47.721283, -30.770256 47.716302, -30.791846 47.711322, -30.813428 47.706343, -30.835002 47.701367, -30.856567 47.696392, -30.878123 47.691419, -30.899671 47.686448, -30.921209 47.681478, -30.942740 47.676511, -30.964261 47.671545, -30.985774 47.666581, -31.007278 47.661619, -31.028774 47.656659, -31.050260 47.651701, -31.071738 47.646744, -31.093208 47.641790, -31.114668 47.636838, -31.136120 47.631887, -31.157563 47.626939, -31.178997 47.621992, -31.200422 47.617048, -31.221839 47.612106, -31.243247 47.607166, -31.264646 47.602228, -31.286036 47.597292, -31.307417 47.592358, -31.328790 47.587426, -31.350153 47.582497, -31.371508 47.577570, -31.392854 47.572644, -31.414190 47.567722, -31.435518 47.562801, -31.456838 47.557883, -31.478148 47.552966, -31.499449 47.548053, -31.520741 47.543141, -31.542025 47.538232, -31.563299 47.533325, -31.584564 47.528421, -31.605821 47.523519, -31.627068 47.518619, -31.648307 47.513722, -31.669536 47.508827, -31.690757 47.503935, -31.711968 47.499045, -31.733170 47.494158, -31.754364 47.489273, -31.775548 47.484391, -31.796723 47.479511, -31.817889 47.474634, -31.839046 47.469759, -31.860194 47.464887, -31.881333 47.460018, -31.902463 47.455151, -31.923584 47.450287, -31.944695 47.445426, -31.965798 47.440567, -31.986891 47.435711, -32.007975 47.430858, -32.029050 47.426007, -32.050116 47.421160, -32.071173 47.416315, -32.092220 47.411472, -32.113259 47.406633, -32.134288 47.401797, -32.155308 47.396963, -32.176318 47.392132, -32.197320 47.387305, -32.218312 47.382480, -32.239295 47.377658, -32.260269 47.372839, -32.281233 47.368023, -32.302188 47.363209, -32.323134 47.358399, -32.344071 47.353592, -32.364999 47.348788, -32.385917 47.343987, -32.406826 47.339190, -32.427725 47.334395, -32.448615 47.329603, -32.469496 47.324815, -32.490368 47.320029, -32.511230 47.315247, -32.532083 47.310468, -32.552926 47.305692, -32.573761 47.300920, -32.594585 47.296150, -32.615401 47.291384, -32.636207 47.286621, -32.657004 47.281862, -32.677791 47.277106, -32.698569 47.272353, -32.719337 47.267603, -32.740096 47.262857, -32.760846 47.258114, -32.781586 47.253375, -32.802317 47.248639, -32.823038 47.243907, -32.843750 47.239178, -32.864453 47.234452, -32.885146 47.229730, -32.905829 47.225011, -32.926503 47.220296, -32.947168 47.215585, -32.967823 47.210877, -32.988468 47.206173, -33.009104 47.201472, -33.029731 47.196775, -33.050348 47.192082, -33.070955 47.187392, -33.091553 47.182706, -33.112142 47.178024, -33.132721 47.173345, -33.153290 47.168670, -33.173850 47.163999, -33.194400 47.159332, -33.214941 47.154668, -33.235472 47.150008, -33.255993 47.145352, -33.276505 47.140700, -33.297008 47.136052, -33.317500 47.131408, -33.337984 47.126767, -33.358457 47.122131, -33.378921 47.117498, -33.399376 47.112870, -33.419820 47.108245, -33.440255 47.103624, -33.460681 47.099008, -33.481097 47.094395, -33.501503 47.089786, -33.521899 47.085182, -33.542286 47.080581, -33.562663 47.075985, -33.583031 47.071393, -33.603389 47.066805, -33.623737 47.062221, -33.644075 47.057641, -33.664404 47.053066, -33.684723 47.048494, -33.705033 47.043927, -33.725332 47.039364, -33.745622 47.034806, -33.765903 47.030252, -33.786173 47.025702, -33.806434 47.021156, -33.826685 47.016615, -33.846927 47.012078, -33.867158 47.007545, -33.887380 47.003017, -33.907592 46.998493, -33.927795 46.993974, -33.947987 46.989459, -33.968170 46.984949, -33.988343 46.980443, -34.008507 46.975941, -34.028660 46.971444, -34.048804 46.966952, -34.068938 46.962464, -34.089062 46.957981, -34.109177 46.953503, -34.129281 46.949029, -34.149376 46.944559, -34.169461 46.940095, -34.189537 46.935635, -34.209602 46.931179, -34.229657 46.926729, -34.249703 46.922283, -34.269739 46.917842, -34.289765 46.913405, -34.309781 46.908974, -34.329788 46.904547, -34.349784 46.900125, -34.369771 46.895708, -34.389748 46.891296, -34.409715 46.886888, -34.429672 46.882486, -34.449620 46.878088, -34.469557 46.873695, -34.489485 46.869308, -34.509402 46.864925, -34.529310 46.860547, -34.549208 46.856175, -34.569096 46.851807, -34.588974 46.847444, -34.608842 46.843087, -34.628701 46.838734, -34.648549 46.834387, -34.668388 46.830044, -34.688217 46.825707, -34.708035 46.821375, -34.727844 46.817048, -34.747643 46.812726, -34.767432 46.808410, -34.787211 46.804099, -34.806980 46.799793, -34.826740 46.795492, -34.846489 46.791197, -34.866228 46.786906, -34.885958 46.782622, -34.905677 46.778342, -34.925387 46.774068, -34.945086 46.769799, -34.964776 46.765536, -34.984456 46.761278, -35.004125 46.757025, -35.023785 46.752778, -35.043435 46.748537, -35.063075 46.744300, -35.082705 46.740070, -35.102325 46.735845, -35.121935 46.731625, -35.141534 46.727411, -35.161124 46.723203, -35.180705 46.719000, -35.200275 46.714803, -35.219835 46.710611, -35.239385 46.706425, -35.258925 46.702245, -35.278455 46.698070, -35.297975 46.693901, -35.317485 46.689738, -35.336985 46.685581, -35.356475 46.681429, -35.375955 46.677283, -35.395425 46.673143, -35.414886 46.669009, -35.434336 46.664880, -35.453776 46.660758, -35.473206 46.656641, -35.492626 46.652530, -35.512036 46.648426, -35.531436 46.644327, -35.550826 46.640234, -35.570206 46.636147, -35.589576 46.632065, -35.608936 46.627990, -35.628285 46.623921, -35.647625 46.619858, -35.666955 46.615801, -35.686275 46.611751, -35.705585 46.607706, -35.724884 46.603667, -35.744174 46.599635, -35.763454 46.595608, -35.782723 46.591588, -35.801983 46.587574, -35.821232 46.583566, -35.840472 46.579565, -35.859701 46.575569, -35.878920 46.571580, -35.898130 46.567598, -35.917329 46.563621, -35.936518 46.559651, -35.955697 46.555687, -35.974866 46.551730, -35.994025 46.547778, -36.013174 46.543834, -36.032313 46.539895, -36.051442 46.535964, -36.070561 46.532038, -36.089670 46.528119, -36.108768 46.524207, -36.127857 46.520301, -36.146935 46.516401, -36.166004 46.512508, -36.185062 46.508622, -36.204111 46.504742, -36.223149 46.500869, -36.242177 46.497003, -36.261195 46.493143, -36.280203 46.489289, -36.299201 46.485443, -36.318189 46.481603, -36.337167 46.477770, -36.356135 46.473943, -36.375092 46.470123, -36.394040 46.466310, -36.412978 46.462504, -36.431905 46.458705, -36.450822 46.454912, -36.469730 46.451127, -36.488627 46.447348, -36.507514 46.443576, -36.526391 46.439811, -36.545258 46.436052, -36.564115 46.432301, -36.582962 46.428557, -36.601798 46.424820, -36.620625 46.421089, -36.639442 46.417366, -36.658248 46.413650, -36.677045 46.409940, -36.695831 46.406238, -36.714607 46.402543, -36.733373 46.398855, -36.752129 46.395174, -36.770875 46.391500, -36.789611 46.387834, -36.808337 46.384174, -36.827053 46.380522, -36.845759 46.376877, -36.864454 46.373239, -36.883140 46.369608, -36.901815 46.365985, -36.920481 46.362369, -36.939136 46.358760, -36.957781 46.355159, -36.976416 46.351565, -36.995041 46.347978, -37.013656 46.344399, -37.032261 46.340827, -37.050856 46.337262, -37.069441 46.333705, -37.088015 46.330156, -37.106580 46.326614, -37.125134 46.323079, -37.143679 46.319552, -37.162213 46.316032, -37.180737 46.312520, -37.199251 46.309016, -37.217755 46.305519, -37.236249 46.302030, -37.254733 46.298548, -37.273207 46.295074, -37.291671 46.291607, -37.310125 46.288149, -37.328569 46.284698, -37.347002 46.281254, -37.365426 46.277819, -37.383839 46.274391, -37.402243 46.270971, -37.420636 46.267559, -37.439019 46.264154, -37.457392 46.260758, -37.475755 46.257369, -37.494109 46.253988, -37.512452 46.250615, -37.530785 46.247250, -37.549107 46.243893, -37.567420 46.240544, -37.585723 46.237202, -37.604016 46.233869, -37.622298 46.230544, -37.640571 46.227226, -37.658834 46.223917, -37.677086 46.220616, -37.695329 46.217323, -37.713561 46.214038, -37.731783 46.210761, -37.749996 46.207492, -37.768198 46.204231, -37.786390 46.200979, -37.804572 46.197734, -37.822745 46.194498, -37.840907 46.191270, -37.859059 46.188051, -37.877201 46.184839, -37.895333 46.181636, -37.913455 46.178442, -37.931567 46.175255, -37.949669 46.172077, -37.967760 46.168907, -37.985842 46.165746, -38.003914 46.162593, -38.021976 46.159448, -38.040028 46.156312, -38.058070 46.153184, -38.076101 46.150065, -38.094123 46.146954, -38.112135 46.143852, -38.130136 46.140758, -38.148128 46.137673, -38.166110 46.134596, -38.184082 46.131528, -38.202043 46.128469, -38.219995 46.125418, -38.237937 46.122375, -38.255868 46.119342, -38.273790 46.116317, -38.291702 46.113301, -38.309603 46.110293, -38.327495 46.107295, -38.345377 46.104305, -38.363248 46.101323, -38.381110 46.098351, -38.398962 46.095387, -38.416804 46.092433, -38.434636 46.089487, -38.452457 46.086549, -38.470269 46.083621, -38.488071 46.080702, -38.505863 46.077792, -38.523645 46.074890, -38.541417 46.071998, -38.559179 46.069114, -38.576931 46.066240, -38.594673 46.063374, -38.612405 46.060518, -38.630128 46.057670, -38.647840 46.054832, -38.665542 46.052003, -38.683235 46.049183, -38.700917 46.046372, -38.718590 46.043570, -38.736252 46.040777, -38.753905 46.037994, -38.771547 46.035219, -38.789180 46.032454, -38.806803 46.029698, -38.824416 46.026952, -38.842019 46.024215, -38.859612 46.021487, -38.877195 46.018768, -38.894768 46.016059, -38.912332 46.013359, -38.929885 46.010668, -38.947429 46.007987, -38.964962 46.005315, -38.982486 46.002653, -39.000000 46.000000, -39.017459 45.997361, -39.034929 45.994724, -39.052408 45.992089, -39.069898 45.989456, -39.087397 45.986825, -39.104907 45.984196, -39.122426 45.981568, -39.139956 45.978943, -39.157495 45.976319, -39.175045 45.973698, -39.192604 45.971078, -39.210173 45.968460, -39.227753 45.965844, -39.245342 45.963229, -39.262941 45.960617, -39.280550 45.958006, -39.298169 45.955397, -39.315798 45.952790, -39.333436 45.950185, -39.351085 45.947582, -39.368744 45.944980, -39.386412 45.942380, -39.404090 45.939782, -39.421778 45.937186, -39.439476 45.934591, -39.457184 45.931998, -39.474902 45.929407, -39.492629 45.926818, -39.510366 45.924230, -39.528113 45.921644, -39.545870 45.919060, -39.563637 45.916477, -39.581413 45.913896, -39.599199 45.911317, -39.616995 45.908739, -39.634801 45.906163, -39.652616 45.903589, -39.670441 45.901016, -39.688276 45.898445, -39.706121 45.895875, -39.723975 45.893307, -39.741839 45.890741, -39.759713 45.888176, -39.777596 45.885613, -39.795489 45.883051, -39.813392 45.880491, -39.831304 45.877933, -39.849226 45.875376, -39.867158 45.872820, -39.885100 45.870266, -39.903050 45.867714, -39.921011 45.865163, -39.938981 45.862614, -39.956961 45.860066, -39.974950 45.857519, -39.992949 45.854974, -40.010958 45.852431, -40.028976 45.849889, -40.047004 45.847348, -40.065041 45.844809, -40.083088 45.842271, -40.101144 45.839735, -40.119210 45.837200, -40.137285 45.834666, -40.155370 45.832134, -40.173464 45.829603, -40.191568 45.827074, -40.209682 45.824546, -40.227804 45.822019, -40.245937 45.819494, -40.264078 45.816970, -40.282230 45.814447, -40.300390 45.811926, -40.318560 45.809406, -40.336740 45.806887, -40.354928 45.804370, -40.373127 45.801854, -40.391334 45.799339, -40.409551 45.796825, -40.427778 45.794313, -40.446014 45.791802, -40.464259 45.789292, -40.482513 45.786783, -40.500777 45.784276, -40.519050 45.781770, -40.537333 45.779265, -40.555625 45.776761, -40.573926 45.774259, -40.592236 45.771757, -40.610556 45.769257, -40.628885 45.766758, -40.647223 45.764260, -40.665570 45.761764, -40.683927 45.759268, -40.702293 45.756774, -40.720668 45.754281, -40.739053 45.751788, -40.757446 45.749297, -40.775849 45.746807, -40.794261 45.744319, -40.812683 45.741831, -40.831113 45.739344, -40.849553 45.736858, -40.868001 45.734374, -40.886459 45.731890, -40.904926 45.729408, -40.923402 45.726926, -40.941888 45.724446, -40.960382 45.721966, -40.978886 45.719488, -40.997398 45.717011, -41.015920 45.714534, -41.034451 45.712059, -41.052991 45.709584, -41.071540 45.707111, -41.090097 45.704638, -41.108664 45.702167, -41.127240 45.699696, -41.145825 45.697226, -41.164420 45.694757, -41.183023 45.692290, -41.201635 45.689823, -41.220256 45.687357, -41.238886 45.684891, -41.257525 45.682427, -41.276172 45.679964, -41.294829 45.677501, -41.313495 45.675039, -41.332170 45.672579, -41.350853 45.670119, -41.369546 45.667659, -41.388247 45.665201, -41.406958 45.662743, -41.425677 45.660287, -41.444405 45.657831, -41.463142 45.655376, -41.481888 45.652921, -41.500642 45.650468, -41.519406 45.648015, -41.538178 45.645563, -41.556959 45.643112, -41.575749 45.640661, -41.594548 45.638211, -41.613355 45.635762, -41.632171 45.633314, -41.650996 45.630866, -41.669830 45.628419, -41.688673 45.625973, -41.707524 45.623527, -41.726384 45.621082, -41.745252 45.618638, -41.764130 45.616194, -41.783016 45.613751, -41.801910 45.611309, -41.820814 45.608867, -41.839726 45.606426, -41.858647 45.603986, -41.877576 45.601546, -41.896514 45.599107, -41.915461 45.596668, -41.934416 45.594230, -41.953380 45.591793, -41.972352 45.589356, -41.991333 45.586920, -42.010323 45.584484, -42.029321 45.582049, -42.048328 45.579614, -42.067343 45.577180, -42.086367 45.574747, -42.105399 45.572314, -42.124440 45.569881, -42.143489 45.567449, -42.162547 45.565017, -42.181613 45.562586, -42.200688 45.560156, -42.219771 45.557726, -42.238863 45.555296, -42.257963 45.552867, -42.277071 45.550438, -42.296188 45.548009, -42.315314 45.545582, -42.334448 45.543154, -42.353590 45.540727, -42.372740 45.538300, -42.391899 45.535874, -42.411066 45.533448, -42.430242 45.531023, -42.449426 45.528597, -42.468618 45.526173, -42.487819 45.523748, -42.507028 45.521324, -42.526245 45.518900, -42.545471 45.516477, -42.564704 45.514054, -42.583946 45.511631, -42.603197 45.509209, -42.622455 45.506787, -42.641722 45.504365, -42.660997 45.501943, -42.680280 45.499522, -42.699572 45.497101, -42.718871 45.494680, -42.738179 45.492260, -42.757495 45.489840, -42.776819 45.487420, -42.796151 45.485000, -42.815492 45.482580, -42.834840 45.480161, -42.854197 45.477742, -42.873562 45.475323, -42.892935 45.472904, -42.912316 45.470486, -42.931705 45.468067, -42.951102 45.465649, -42.970507 45.463231, -42.989920 45.460813, -43.009341 45.458396, -43.028770 45.455978, -43.048208 45.453561, -43.067653 45.451143, -43.087106 45.448726, -43.106567 45.446309, -43.126036 45.443892, -43.145514 45.441475, -43.164999 45.439059, -43.184492 45.436642, -43.203993 45.434225, -43.223501 45.431809, -43.243018 45.429392, -43.262543 45.426976, -43.282075 45.424559, -43.301616 45.422143, -43.321164 45.419726, -43.340720 45.417310, -43.360284 45.414894, -43.379855 45.412477, -43.399435 45.410061, -43.419022 45.407645, -43.438617 45.405228, -43.458220 45.402812, -43.477831 45.400396, -43.497449 45.397979, -43.517075 45.395563, -43.536709 45.393146, -43.556351 45.390729, -43.576000 45.388313, -43.595657 45.385896, -43.615322 45.383479, -43.634994 45.381062, -43.654674 45.378645, -43.674362 45.376228, -43.694057 45.373811, -43.713760 45.371393, -43.733471 45.368976, -43.753189 45.366558, -43.772915 45.364140, -43.792648 45.361722, -43.812389 45.359304, -43.832138 45.356886, -43.851894 45.354467, -43.871658 45.352049, -43.891429 45.349630, -43.911207 45.347211, -43.930993 45.344792, -43.950787 45.342372, -43.970588 45.339953, -43.990397 45.337533, -44.010213 45.335113, -44.030036 45.332692, -44.049867 45.330272, -44.069706 45.327851, -44.089551 45.325430, -44.109405 45.323008, -44.129265 45.320587, -44.149133 45.318165, -44.169008 45.315742, -44.188891 45.313320, -44.208781 45.310897, -44.228678 45.308474, -44.248583 45.306051, -44.268495 45.303627, -44.288414 45.301203, -44.308341 45.298778, -44.328274 45.296353, -44.348215 45.293928, -44.368164 45.291503, -44.388119 45.289077, -44.408082 45.286651, -44.428052 45.284224, -44.448029 45.281797, -44.468013 45.279369, -44.488005 45.276942, -44.508003 45.274513, -44.528009 45.272085, -44.548022 45.269656, -44.568042 45.267226, -44.588069 45.264796, -44.608104 45.262366, -44.628145 45.259935, -44.648194 45.257503, -44.668249 45.255072, -44.688312 45.252639, -44.708381 45.250207, -44.728458 45.247773, -44.748542 45.245340, -44.768632 45.242905, -44.788730 45.240471, -44.808835 45.238035, -44.828946 45.235600, -44.849065 45.233163, -44.869190 45.230726, -44.889323 45.228289, -44.909462 45.225851, -44.929608 45.223413, -44.949761 45.220974, -44.969921 45.218534, -44.990088 45.216094, -45.010262 45.213653, -45.030443 45.211212, -45.050630 45.208770, -45.070824 45.206327, -45.091025 45.203884, -45.111233 45.201440, -45.131448 45.198995, -45.151669 45.196550, -45.171897 45.194105, -45.192132 45.191658, -45.212374 45.189211, -45.232622 45.186764, -45.252877 45.184315, -45.273139 45.181866, -45.293407 45.179417, -45.313682 45.176966, -45.333964 45.174515, -45.354252 45.172063, -45.374547 45.169611, -45.394849 45.167158, -45.415157 45.164704, -45.435472 45.162249, -45.455793 45.159794, -45.476121 45.157338, -45.496456 45.154881, -45.516797 45.152423, -45.537145 45.149965, -45.557499 45.147506, -45.577859 45.145046, -45.598226 45.142585, -45.618600 45.140123, -45.638980 45.137661, -45.659366 45.135198, -45.679759 45.132734, -45.700158 45.130270, -45.720564 45.127804, -45.740976 45.125338, -45.761395 45.122871, -45.781820 45.120403, -45.802251 45.117934, -45.822688 45.115464, -45.843132 45.112993, -45.863583 45.110522, -45.884039 45.108050, -45.904502 45.105577, -45.924971 45.103102, -45.945446 45.100628, -45.965928 45.098152, -45.986416 45.095675, -46.006910 45.093197, -46.027410 45.090719, -46.047917 45.088239, -46.068429 45.085759, -46.088948 45.083277, -46.109473 45.080795, -46.130004 45.078312, -46.150542 45.075828, -46.171085 45.073343, -46.191635 45.070856, -46.212190 45.068369, -46.232752 45.065881, -46.253320 45.063392, -46.273893 45.060902, -46.294473 45.058411, -46.315059 45.055919, -46.335651 45.053426, -46.356249 45.050932, -46.376853 45.048437, -46.397463 45.045941, -46.418078 45.043443, -46.438700 45.040945, -46.459328 45.038446, -46.479961 45.035946, -46.500601 45.033444, -46.521246 45.030942, -46.541898 45.028438, -46.562555 45.025934, -46.583218 45.023428, -46.603886 45.020921, -46.624561 45.018413, -46.645241 45.015904, -46.665928 45.013394, -46.686620 45.010883, -46.707317 45.008371, -46.728021 45.005857, -46.748730 45.003343, -46.769445 45.000827, -46.790166 44.998310, -46.810892 44.995792, -46.831624 44.993273, -46.852362 44.990753, -46.873106 44.988231, -46.893855 44.985709, -46.914609 44.983185, -46.935369 44.980660, -46.956135 44.978133, -46.976907 44.975606, -46.997684 44.973077, -47.018466 44.970547, -47.039255 44.968016, -47.060048 44.965484, -47.080847 44.962951, -47.101652 44.960416, -47.122462 44.957880, -47.143278 44.955343, -47.164099 44.952804, -47.184926 44.950264, -47.205758 44.947723, -47.226595 44.945181, -47.247438 44.942637, -47.268286 44.940093, -47.289139 44.937546, -47.309998 44.934999, -47.330863 44.932450, -47.351732 44.929900, -47.372607 44.927349, -47.393487 44.924796, -47.414373 44.922242, -47.435264 44.919687, -47.456160 44.917130, -47.477061 44.914572, -47.497967 44.912013, -47.518879 44.909452, -47.539796 44.906890, -47.560718 44.904327, -47.581645 44.901762, -47.602578 44.899196, -47.623515 44.896628, -47.644458 44.894060, -47.665406 44.891489, -47.686359 44.888918, -47.707317 44.886344, -47.728280 44.883770, -47.749248 44.881194, -47.770221 44.878617, -47.791200 44.876038, -47.812183 44.873458, -47.833171 44.870876, -47.854164 44.868293, -47.875162 44.865709, -47.896165 44.863123, -47.917174 44.860535, -47.938187 44.857946, -47.959204 44.855356, -47.980227 44.852764, -48.001255 44.850171, -48.022287 44.847576, -48.043325 44.844980, -48.064367 44.842382, -48.085414 44.839783, -48.106466 44.837182, -48.127523 44.834580, -48.148584 44.831976, -48.169650 44.829371, -48.190721 44.826764, -48.211797 44.824156, -48.232877 44.821546, -48.253962 44.818934, -48.275052 44.816321, -48.296146 44.813707, -48.317246 44.811091, -48.338349 44.808473, -48.359458 44.805854, -48.380571 44.803233, -48.401688 44.800611, -48.422810 44.797987, -48.443937 44.795361, -48.465068 44.792734, -48.486204 44.790105, -48.507345 44.787475, -48.528489 44.784843, -48.549639 44.782209, -48.570793 44.779574, -48.591951 44.776937, -48.613114 44.774299, -48.634281 44.771659, -48.655452 44.769017, -48.676628 44.766374, -48.697809 44.763729, -48.718993 44.761082, -48.740182 44.758434, -48.761376 44.755783, -48.782573 44.753132, -48.803776 44.750478, -48.824982 44.747823, -48.846192 44.745167, -48.867407 44.742508, -48.888626 44.739848, -48.909850 44.737186, -48.931077 44.734523, -48.952309 44.731857, -48.973545 44.729191, -48.994785 44.726522, -49.016029 44.723851, -49.037278 44.721179, -49.058530 44.718505, -49.079787 44.715830, -49.101048 44.713152, -49.122313 44.710473, -49.143581 44.707792, -49.164854 44.705110, -49.186131 44.702425, -49.207412 44.699739, -49.228697 44.697051, -49.249986 44.694362, -49.271279 44.691670, -49.292576 44.688977, -49.313877 44.686282, -49.335182 44.683585, -49.356490 44.680886, -49.377803 44.678186, -49.399119 44.675483, -49.420439 44.672779, -49.441763 44.670073, -49.463091 44.667366, -49.484423 44.664656, -49.505758 44.661945, -49.527098 44.659231, -49.548441 44.656516, -49.569788 44.653799, -49.591138 44.651080, -49.612492 44.648360, -49.633850 44.645637, -49.655212 44.642913, -49.676577 44.640187, -49.697946 44.637458, -49.719319 44.634728, -49.740695 44.631996, -49.762075 44.629263, -49.783458 44.626527, -49.804845 44.623789, -49.826236 44.621050, -49.847630 44.618308, -49.869027 44.615565, -49.890428 44.612820, -49.911833 44.610073, -49.933241 44.607324, -49.954652 44.604573, -49.976067 44.601820, -49.997486 44.599065, -50.018908 44.596308, -50.040333 44.593549, -50.061761 44.590788, -50.083193 44.588026, -50.104629 44.585261, -50.126067 44.582494, -50.147509 44.579726, -50.168954 44.576955, -50.190403 44.574183, -50.211855 44.571408, -50.233310 44.568632, -50.254768 44.565853, -50.276229 44.563073, -50.297694 44.560290, -50.319162 44.557506, -50.340633 44.554719, -50.362107 44.551931, -50.383584 44.549140, -50.405065 44.546348, -50.426548 44.543553, -50.448035 44.540757, -50.469524 44.537958, -50.491017 44.535157, -50.512513 44.532355, -50.534011 44.529550, -50.555513 44.526743, -50.577018 44.523934, -50.598526 44.521123, -50.620036 44.518310, -50.641550 44.515495, -50.663067 44.512678, -50.684586 44.509859, -50.706108 44.507038, -50.727633 44.504215, -50.749162 44.501389, -50.770692 44.498562, -50.792226 44.495732, -50.813763 44.492900, -50.835302 44.490067, -50.856844 44.487231, -50.878389 44.484393, -50.899936 44.481553, -50.921487 44.478711, -50.943040 44.475866, -50.964595 44.473020, -50.986154 44.470171, -51.007715 44.467321, -51.029278 44.464468, -51.050845 44.461613, -51.072413 44.458756, -51.093985 44.455896, -51.115559 44.453035, -51.137135 44.450172, -51.158714 44.447306, -51.180296 44.444438, -51.201880 44.441568, -51.223467 44.438696, -51.245056 44.435821, -51.266647 44.432945, -51.288241 44.430066, -51.309838 44.427185, -51.331437 44.424302, -51.353038 44.421417, -51.374641 44.418530, -51.396247 44.415640, -51.417855 44.412748, -51.439466 44.409854, -51.461079 44.406958, -51.482694 44.404059, -51.504311 44.401159, -51.525931 44.398256, -51.547553 44.395351, -51.569177 44.392443, -51.590803 44.389534, -51.612432 44.386622, -51.634062 44.383708, -51.655695 44.380792, -51.677330 44.377873, -51.698967 44.374952, -51.720606 44.372029, -51.742247 44.369104, -51.763890 44.366177, -51.785536 44.363247, -51.807183 44.360315, -51.828832 44.357381, -51.850484 44.354444, -51.872137 44.351505, -51.893792 44.348564, -51.915449 44.345621, -51.937109 44.342675, -51.958770 44.339727, -51.980432 44.336777, -52.002097 44.333825, -52.023764 44.330870, -52.045432 44.327913, -52.067103 44.324953, -52.088775 44.321992, -52.110449 44.319028, -52.132124 44.316061, -52.153802 44.313093, -52.175481 44.310122, -52.197162 44.307149, -52.218844 44.304173, -52.240528 44.301195, -52.262214 44.298215, -52.283902 44.295233, -52.305591 44.292248, -52.327282 44.289261, -52.348974 44.286271, -52.370668 44.283279, -52.392363 44.280285, -52.414060 44.277288, -52.435759 44.274289, -52.457459 44.271288, -52.479161 44.268285, -52.500864 44.265279, -52.522568 44.262270, -52.544274 44.259260, -52.565981 44.256247, -52.587690 44.253231, -52.609400 44.250213, -52.631112 44.247193, -52.652825 44.244171, -52.674539 44.241146, -52.696254 44.238118, -52.717971 44.235089, -52.739689 44.232057, -52.761408 44.229022, -52.783129 44.225985, -52.804851 44.222946, -52.826574 44.219904, -52.848298 44.216860, -52.870023 44.213814, -52.891750 44.210765, -52.913477 44.207713, -52.935206 44.204660, -52.956936 44.201604, -52.978667 44.198545, -53.000399 44.195484, -53.022132 44.192421, -53.043866 44.189355, -53.065601 44.186287, -53.087337 44.183216, -53.109074 44.180143, -53.130812 44.177067, -53.152551 44.173989, -53.174291 44.170909, -53.196032 44.167826, -53.217774 44.164741, -53.239516 44.161653, -53.261260 44.158563, -53.283004 44.155470, -53.304749 44.152375, -53.326495 44.149278, -53.348242 44.146178, -53.369989 44.143075, -53.391737 44.139970, -53.413486 44.136863, -53.435236 44.133753, -53.456986 44.130640, -53.478737 44.127526, -53.500489 44.124408, -53.522241 44.121289, -53.543994 44.118166, -53.565747 44.115042, -53.587501 44.111914, -53.609256 44.108785, -53.631011 44.105652, -53.652767 44.102518, -53.674523 44.099381, -53.696280 44.096241, -53.718037 44.093099, -53.739795 44.089954, -53.761553 44.086807, -53.783311 44.083657, -53.805070 44.080505, -53.826829 44.077350, -53.848589 44.074193, -53.870349 44.071033, -53.892109 44.067871, -53.913870 44.064707, -53.935631 44.061539, -53.957392 44.058369, -53.979154 44.055197, -54.000916 44.052022, -54.022677 44.048845, -54.044440 44.045665, -54.066202 44.042483, -54.087964 44.039298, -54.109727 44.036110, -54.131490 44.032920, -54.153253 44.029728, -54.175016 44.026533, -54.196779 44.023335, -54.218542 44.020135, -54.240305 44.016932, -54.262069 44.013727, -54.283832 44.010519, -54.305595 44.007309, -54.327358 44.004096, -54.349121 44.000881, -54.370884 43.997663, -54.392647 43.994442, -54.414410 43.991219, -54.436173 43.987994, -54.457935 43.984765, -54.479698 43.981535, -54.501460 43.978301, -54.523222 43.975065, -54.544984 43.971827, -54.566746 43.968586, -54.588507 43.965342, -54.610268 43.962096, -54.632029 43.958848, -54.653789 43.955596, -54.675550 43.952342, -54.697310 43.949086, -54.719069 43.945827, -54.740828 43.942565, -54.762587 43.939301, -54.784345 43.936034, -54.806103 43.932765, -54.827860 43.929493, -54.849617 43.926218, -54.871374 43.922941, -54.893130 43.919662, -54.914885 43.916379, -54.936640 43.913094, -54.958394 43.909807, -54.980148 43.906517, -55.001901 43.903224, -55.023654 43.899929, -55.045405 43.896631, -55.067157 43.893331, -55.088907 43.890027, -55.110657 43.886722, -55.132406 43.883414, -55.154155 43.880103, -55.175902 43.876789, -55.197649 43.873473, -55.219395 43.870154, -55.241141 43.866833, -55.262885 43.863509, -55.284629 43.860183, -55.306371 43.856854, -55.328113 43.853522, -55.349854 43.850187, -55.371594 43.846850, -55.393334 43.843511, -55.415072 43.840169, -55.436809 43.836824, -55.458545 43.833476, -55.480281 43.830126, -55.502015 43.826774, -55.523748 43.823418, -55.545480 43.820060, -55.567211 43.816700, -55.588941 43.813337, -55.610670 43.809971, -55.632398 43.806602, -55.654124 43.803231, -55.675850 43.799858, -55.697574 43.796481, -55.719297 43.793102, -55.741019 43.789721, -55.762739 43.786337, -55.784458 43.782950, -55.806176 43.779560, -55.827893 43.776168, -55.849608 43.772774, -55.871322 43.769376, -55.893035 43.765976, -55.914746 43.762574, -55.936456 43.759168, -55.958164 43.755760, -55.979871 43.752350, -56.001577 43.748937, -56.023281 43.745521, -56.044983 43.742102, -56.066684 43.738681, -56.088384 43.735257, -56.110082 43.731831, -56.131778 43.728402, -56.153473 43.724970, -56.175167 43.721536, -56.196858 43.718099, -56.218548 43.714660, -56.240237 43.711217, -56.261923 43.707772, -56.283608 43.704325, -56.305291 43.700875, -56.326973 43.697422, -56.348653 43.693966, -56.370331 43.690508, -56.392007 43.687048, -56.413681 43.683584, -56.435354 43.680118, -56.457025 43.676649, -56.478693 43.673178, -56.500360 43.669704, -56.522026 43.666227, -56.543689 43.662748, -56.565350 43.659266, -56.587009 43.655782, -56.608667 43.652294, -56.630322 43.648804, -56.651975 43.645312, -56.673626 43.641817, -56.695276 43.638319, -56.716923 43.634818, -56.738568 43.631315, -56.760211 43.627809, -56.781852 43.624301, -56.803490 43.620790, -56.825127 43.617276, -56.846761 43.613760, -56.868393 43.610241, -56.890023 43.606719, -56.911651 43.603195, -56.933276 43.599668, -56.954899 43.596138, -56.976520 43.592606, -56.998139 43.589071, -57.019755 43.585533, -57.041369 43.581993, -57.062980 43.578450, -57.084589 43.574904, -57.106196 43.571356, -57.127800 43.567805, -57.149402 43.564252, -57.171002 43.560696, -57.192598 43.557137, -57.214193 43.553575, -57.235785 43.550011, -57.257374 43.546444, -57.278961 43.542875, -57.300545 43.539303, -57.322127 43.535728, -57.343706 43.532151, -57.365282 43.528571, -57.386856 43.524988, -57.408427 43.521403, -57.429995 43.517815, -57.451561 43.514224, -57.473124 43.510631, -57.494684 43.507035, -57.516241 43.503437, -57.537796 43.499836, -57.559348 43.496232, -57.580897 43.492625, -57.602443 43.489016, -57.623986 43.485405, -57.645527 43.481790, -57.667064 43.478173, -57.688599 43.474553, -57.710130 43.470931, -57.731659 43.467306, -57.753185 43.463679, -57.774708 43.460048, -57.796227 43.456415, -57.817744 43.452780, -57.839258 43.449142, -57.860769 43.445501, -57.882276 43.441858, -57.903781 43.438212, -57.925282 43.434563, -57.946780 43.430912, -57.968275 43.427258, -57.989767 43.423601, -58.011256 43.419942, -58.032741 43.416280, -58.054223 43.412615, -58.075702 43.408948, -58.097178 43.405278, -58.118650 43.401606, -58.140119 43.397931, -58.161585 43.394253, -58.183048 43.390573, -58.204507 43.386890, -58.225962 43.383205, -58.247415 43.379517, -58.268864 43.375826, -58.290309 43.372133, -58.311751 43.368437, -58.333189 43.364738, -58.354624 43.361037, -58.376056 43.357333, -58.397484 43.353626, -58.418908 43.349917, -58.440329 43.346206, -58.461746 43.342491, -58.483160 43.338774, -58.504570 43.335055, -58.525976 43.331333, -58.547379 43.327608, -58.568778 43.323880, -58.590173 43.320150, -58.611565 43.316418, -58.632952 43.312683, -58.654336 43.308945, -58.675717 43.305204, -58.697093 43.301461, -58.718466 43.297716, -58.739835 43.293968, -58.761200 43.290217, -58.782561 43.286463, -58.803918 43.282707, -58.825271 43.278949, -58.846621 43.275188, -58.867966 43.271424, -58.889308 43.267657, -58.910645 43.263889, -58.931979 43.260117, -58.953308 43.256343, -58.974634 43.252566, -58.995955 43.248787, -59.017272 43.245005, -59.038586 43.241220, -59.059895 43.237433, -59.081200 43.233644, -59.102500 43.229852, -59.123797 43.226057, -59.145089 43.222259, -59.166378 43.218459, -59.187662 43.214657, -59.208941 43.210852, -59.230217 43.207044, -59.251488 43.203234, -59.272755 43.199421, -59.294018 43.195606, -59.315276 43.191788, -59.336530 43.187968, -59.357779 43.184145, -59.379024 43.180319, -59.400265 43.176491, -59.421501 43.172660, -59.442733 43.168827, -59.463961 43.164991, -59.485183 43.161153, -59.506402 43.157312, -59.527616 43.153468, -59.548825 43.149622, -59.570030 43.145774, -59.591230 43.141923, -59.612425 43.138069, -59.633616 43.134213, -59.654802 43.130354, -59.675984 43.126493, -59.697161 43.122629, -59.718333 43.118763, -59.739501 43.114894, -59.760664 43.111023, -59.781822 43.107149, -59.802975 43.103273, -59.824123 43.099394, -59.845267 43.095513, -59.866406 43.091629, -59.887540 43.087742, -59.908669 43.083853, -59.929793 43.079962, -59.950913 43.076068, -59.972027 43.072171, -59.993137 43.068272, -60.014241 43.064371, -60.035341 43.060467, -60.056436 43.056560, -60.077525 43.052651, -60.098610 43.048740, -60.119689 43.044826, -60.140764 43.040909, -60.161833 43.036990, -60.182897 43.033069, -60.203957 43.029145, -60.225011 43.025219, -60.246059 43.021290, -60.267103 43.017358, -60.288142 43.013424, -60.309175 43.009488, -60.330203 43.005549, -60.351226 43.001608, -60.372243 42.997664, -60.393255 42.993718, -60.414262 42.989769, -60.435264 42.985818, -60.456260 42.981865, -60.477251 42.977909, -60.498237 42.973950, -60.519217 42.969989, -60.540191 42.966026, -60.561161 42.962060, -60.582124 42.958092, -60.603083 42.954121, -60.624036 42.950148, -60.644983 42.946172, -60.665925 42.942194, -60.686861 42.938214, -60.707792 42.934231, -60.728717 42.930246, -60.749636 42.926258, -60.770550 42.922268, -60.791458 42.918275, -60.812361 42.914280, -60.833258 42.910283, -60.854149 42.906283, -60.875035 42.902281, -60.895915 42.898276, -60.916789 42.894269, -60.937657 42.890260, -60.958519 42.886248, -60.979376 42.882233, -61.000227 42.878217, -61.021072 42.874198, -61.041911 42.870176, -61.062744 42.866153, -61.083572 42.862126, -61.104393 42.858098, -61.125209 42.854067, -61.146018 42.850033, -61.166822 42.845998, -61.187619 42.841960, -61.208411 42.837919, -61.229197 42.833876, -61.249976 42.829831, -61.270750 42.825784, -61.291517 42.821734, -61.312279 42.817682, -61.333034 42.813627, -61.353783 42.809570, -61.374526 42.805511, -61.395263 42.801449, -61.415993 42.797385, -61.436717 42.793319, -61.457436 42.789250, -61.478147 42.785180, -61.498853 42.781106, -61.519553 42.777031, -61.540246 42.772953, -61.560932 42.768872, -61.581613 42.764790, -61.602287 42.760705, -61.622955 42.756618, -61.643616 42.752528, -61.664271 42.748437, -61.684919 42.744342, -61.705561 42.740246, -61.726197 42.736147, -61.746826 42.732046, -61.767449 42.727943, -61.788065 42.723838, -61.808674 42.719730, -61.829277 42.715620, -61.849874 42.711507, -61.870464 42.707393, -61.891047 42.703276, -61.911623 42.699157, -61.932193 42.695035, -61.952757 42.690911, -61.973313 42.686785, -61.993863 42.682657, -62.014407 42.678527, -62.034943 42.674394, -62.055473 42.670259, -62.075996 42.666122, -62.096512 42.661982, -62.117022 42.657841, -62.137524 42.653697, -62.158020 42.649551, -62.178509 42.645402, -62.198991 42.641252, -62.219466 42.637099, -62.239934 42.632944, -62.260396 42.628787, -62.280850 42.624627, -62.301297 42.620466, -62.321738 42.616302, -62.342171 42.612136, -62.362598 42.607968, -62.383017 42.603797, -62.403429 42.599625, -62.423835 42.595450, -62.444233 42.591273, -62.464624 42.587094, -62.485008 42.582912, -62.505385 42.578729, -62.525754 42.574543, -62.546117 42.570355, -62.566472 42.566165, -62.586820 42.561973, -62.607161 42.557779, -62.627494 42.553583, -62.647821 42.549384, -62.668140 42.545183, -62.688451 42.540981, -62.708756 42.536776, -62.729053 42.532568, -62.749343 42.528359, -62.769625 42.524148, -62.789900 42.519934, -62.810167 42.515719, -62.830428 42.511501, -62.850680 42.507281, -62.870926 42.503059, -62.891163 42.498835, -62.911393 42.494609, -62.931616 42.490381, -62.951831 42.486151, -62.972039 42.481918, -62.992239 42.477684, -63.012432 42.473447, -63.032617 42.469209, -63.052794 42.464968, -63.072963 42.460725, -63.093125 42.456481, -63.113280 42.452234, -63.133426 42.447985, -63.153565 42.443734, -63.173697 42.439481, -63.193820 42.435226, -63.213936 42.430969, -63.234044 42.426710, -63.254144 42.422448, -63.274236 42.418185, -63.294321 42.413920, -63.314397 42.409653, -63.334466 42.405383, -63.354527 42.401112, -63.374580 42.396839, -63.394625 42.392564, -63.414662 42.388286, -63.434691 42.384007, -63.454713 42.379726, -63.474726 42.375443, -63.494731 42.371157, -63.514728 42.366870, -63.534718 42.362581, -63.554699 42.358290, -63.574672 42.353997, -63.594637 42.349702, -63.614594 42.345405, -63.634543 42.341106, -63.654483 42.336805, -63.674416 42.332502, -63.694340 42.328197, -63.714256 42.323890, -63.734164 42.319581, -63.754064 42.315271, -63.773955 42.310958, -63.793838 42.306644, -63.813713 42.302327, -63.833580 42.298009, -63.853438 42.293689, -63.873288 42.289367, -63.893129 42.285043, -63.912963 42.280717, -63.932788 42.276389, -63.952604 42.272059, -63.972412 42.267728, -63.992212 42.263394, -64.012003 42.259059, -64.031786 42.254722, -64.051560 42.250383, -64.071325 42.246042, -64.091083 42.241699, -64.110831 42.237354, -64.130571 42.233008, -64.150303 42.228659, -64.170026 42.224309, -64.189740 42.219957, -64.209446 42.215603, -64.229143 42.211248, -64.248832 42.206890, -64.268511 42.202531, -64.288182 42.198170, -64.307845 42.193807, -64.327498 42.189442, -64.347143 42.185076, -64.366780 42.180707, -64.386407 42.176337, -64.406026 42.171965, -64.425635 42.167592, -64.445236 42.163216, -64.464829 42.158839, -64.484412 42.154460, -64.503986 42.150079, -64.523552 42.145697, -64.543108 42.141312, -64.562656 42.136926, -64.582195 42.132539, -64.601725 42.128149, -64.621246 42.123758, -64.640757 42.119365, -64.660260 42.114970, -64.679754 42.110574, -64.699239 42.106176, -64.718715 42.101776, -64.738181 42.097374, -64.757639 42.092971, -64.777087 42.088566, -64.796527 42.084159, -64.815957 42.079751, -64.835378 42.075341, -64.854790 42.070929, -64.874192 42.066516, -64.893586 42.062101, -64.912970 42.057684, -64.932345 42.053266, -64.951711 42.048846, -64.971068 42.044424, -64.990415 42.040001, -65.009753 42.035576, -65.029081 42.031149, -65.048400 42.026721, -65.067710 42.022291, -65.087011 42.017860, -65.106302 42.013427, -65.125584 42.008992, -65.144856 42.004556, -65.164119 42.000118, -65.183372 41.995678, -65.202616 41.991237, -65.221851 41.986795, -65.241076 41.982350, -65.260291 41.977905, -65.279497 41.973457, -65.298694 41.969008, -65.317880 41.964558, -65.337058 41.960106, -65.356225 41.955652, -65.375383 41.951197, -65.394532 41.946740, -65.413670 41.942282, -65.432799 41.937822, -65.451919 41.933361, -65.471029 41.928898, -65.490129 41.924433, -65.509219 41.919968, -65.528299 41.915500, -65.547370 41.911031, -65.566431 41.906561, -65.585482 41.902089, -65.604524 41.897616, -65.623555 41.893141, -65.642577 41.888664, -65.661589 41.884187, -65.680591 41.879707, -65.699583 41.875227, -65.718565 41.870745, -65.737537 41.866261, -65.756500 41.861776, -65.775452 41.857289, -65.794394 41.852801, -65.813327 41.848312, -65.832249 41.843821, -65.851162 41.839329, -65.870064 41.834835, -65.888956 41.830340, -65.907838 41.825844, -65.926711 41.821346, -65.945573 41.816847, -65.964425 41.812346, -65.983267 41.807844, -66.002098 41.803341, -66.020920 41.798836, -66.039731 41.794330, -66.058532 41.789822, -66.077323 41.785313, -66.096104 41.780803, -66.114874 41.776292, -66.133635 41.771779, -66.152385 41.767264, -66.171124 41.762749, -66.189854 41.758232, -66.208573 41.753714, -66.227282 41.749194, -66.245980 41.744673, -66.264668 41.740151, -66.283346 41.735628, -66.302013 41.731103, -66.320670 41.726577, -66.339316 41.722050, -66.357952 41.717521, -66.376578 41.712991, -66.395193 41.708460, -66.413797 41.703928, -66.432391 41.699394, -66.450975 41.694859, -66.469548 41.690323, -66.488110 41.685786, -66.506662 41.681247, -66.525203 41.676707, -66.543734 41.672166, -66.562254 41.667624, -66.580763 41.663081, -66.599262 41.658536, -66.617750 41.653990, -66.636228 41.649443, -66.654695 41.644895, -66.673151 41.640345, -66.691596 41.635795, -66.710031 41.631243, -66.728455 41.626690, -66.746868 41.622136, -66.765270 41.617580, -66.783662 41.613024, -66.802042 41.608466, -66.820412 41.603908, -66.838771 41.599348, -66.857119 41.594787, -66.875457 41.590225, -66.893783 41.585661, -66.912099 41.581097, -66.930403 41.576532, -66.948697 41.571965, -66.966980 41.567397, -66.985251 41.562829, -67.003512 41.558259, -67.021762 41.553688, -67.040001 41.549116, -67.058228 41.544543, -67.076445 41.539969, -67.094651 41.535394, -67.112845 41.530818, -67.131029 41.526240, -67.149201 41.521662, -67.167362 41.517083, -67.185513 41.512502, -67.203652 41.507921, -67.221779 41.503339, -67.239896 41.498755, -67.258002 41.494171, -67.276096 41.489586, -67.294179 41.484999, -67.312251 41.480412, -67.330311 41.475823, -67.348361 41.471234, -67.366399 41.466644, -67.384425 41.462053, -67.402441 41.457460, -67.420445 41.452867, -67.438438 41.448273, -67.456419 41.443678, -67.474389 41.439082, -67.492348 41.434485, -67.510295 41.429887, -67.528231 41.425289, -67.546155 41.420689, -67.564068 41.416088, -67.581970 41.411487, -67.599860 41.406884, -67.617739 41.402281, -67.635606 41.397677, -67.653461 41.393072, -67.671305 41.388466, -67.689138 41.383859, -67.706959 41.379252, -67.724768 41.374643, -67.742566 41.370034, -67.760352 41.365424, -67.778127 41.360813, -67.795890 41.356201, -67.813641 41.351589, -67.831380 41.346975, -67.849108 41.342361, -67.866825 41.337746, -67.884529 41.333130, -67.902222 41.328513, -67.919903 41.323896, -67.937572 41.319277, -67.955230 41.314658, -67.972876 41.310039, -67.990510 41.305418, -68.008132 41.300797, -68.025743 41.296175, -68.043341 41.291552, -68.060928 41.286928, -68.078503 41.282304, -68.096066 41.277679, -68.113617 41.273053, -68.131156 41.268427, -68.148683 41.263800, -68.166199 41.259172, -68.183702 41.254543, -68.201194 41.249914, -68.218673 41.245284, -68.236140 41.240654, -68.253596 41.236022, -68.271039 41.231390, -68.288471 41.226758, -68.305890 41.222125, -68.323298 41.217491, -68.340693 41.212856, -68.358076 41.208221, -68.375447 41.203585, -68.392806 41.198949, -68.410153 41.194311, -68.427487 41.189674, -68.444810 41.185035, -68.462120 41.180397, -68.479418 41.175757, -68.496704 41.171117, -68.513978 41.166476, -68.531240 41.161835, -68.548489 41.157193, -68.565726 41.152551, -68.582951 41.147908, -68.600163 41.143264, -68.617363 41.138620, -68.634551 41.133976, -68.651727 41.129331, -68.668890 41.124685, -68.686041 41.120039, -68.703179 41.115392, -68.720305 41.110745, -68.737419 41.106097, -68.754520 41.101449, -68.771609 41.096800, -68.788685 41.092151, -68.805749 41.087502, -68.822801 41.082852, -68.839840 41.078201, -68.856867 41.073550, -68.873881 41.068898, -68.890882 41.064247, -68.907871 41.059594, -68.924848 41.054941, -68.941811 41.050288, -68.958763 41.045634, -68.975702 41.040980, -68.992628 41.036326, -69.009541 41.031671, -69.026442 41.027016, -69.043330 41.022360, -69.060206 41.017704, -69.077069 41.013047, -69.093919 41.008391, -69.110757 41.003733, -69.127582 40.999076, -69.144394 40.994418, -69.161193 40.989760, -69.177980 40.985101, -69.194754 40.980442, -69.211515 40.975783, -69.228263 40.971123, -69.244999 40.966463, -69.261722 40.961803, -69.278431 40.957143, -69.295129 40.952482, -69.311813 40.947821, -69.328484 40.943159, -69.345143 40.938498, -69.361788 40.933836, -69.378421 40.929173, -69.395041 40.924511, -69.411647 40.919848, -69.428241 40.915185, -69.444822 40.910522, -69.461390 40.905859, -69.477945 40.901195, -69.494487 40.896531, -69.511016 40.891867, -69.527532 40.887202, -69.544035 40.882538, -69.560525 40.877873, -69.577001 40.873208, -69.593465 40.868543, -69.609916 40.863878, -69.626353 40.859212, -69.642777 40.854547, -69.659189 40.849881, -69.675587 40.845215, -69.691972 40.840549, -69.708344 40.835883, -69.724702 40.831216, -69.741048 40.826550, -69.757380 40.821883, -69.773699 40.817217, -69.790004 40.812550, -69.806297 40.807883, -69.822576 40.803216, -69.838842 40.798549, -69.855095 40.793882, -69.871334 40.789214, -69.887560 40.784547, -69.903773 40.779879, -69.919973 40.775212, -69.936159 40.770544, -69.952331 40.765877, -69.968491 40.761209, -69.984637 40.756542, -70.000769 40.751874, -70.016888 40.747206, -70.032994 40.742539, -70.049086 40.737871, -70.065165 40.733203, -70.081230 40.728536, -70.097282 40.723868, -70.113321 40.719200, -70.129346 40.714533, -70.145357 40.709865, -70.161355 40.705198, -70.177339 40.700530, -70.193310 40.695863, -70.209267 40.691195, -70.225211 40.686528, -70.241141 40.681861, -70.257057 40.677193, -70.272960 40.672526, -70.288849 40.667859, -70.304725 40.663192, -70.320587 40.658525, -70.336435 40.653859, -70.352270 40.649192, -70.368091 40.644526, -70.383898 40.639859, -70.399691 40.635193, -70.415471 40.630527, -70.431237 40.625861, -70.446989 40.621195, -70.462728 40.616530, -70.478453 40.611864, -70.494164 40.607199, -70.509861 40.602534, -70.525544 40.597869, -70.541214 40.593204, -70.556869 40.588540, -70.572511 40.583876, -70.588139 40.579212, -70.603753 40.574548, -70.619353 40.569884, -70.634940 40.565221, -70.650512 40.560557, -70.666071 40.555895, -70.681615 40.551232, -70.697146 40.546569, -70.712662 40.541907, -70.728165 40.537245, -70.743654 40.532584, -70.759129 40.527922, -70.774589 40.523261, -70.790036 40.518601, -70.805469 40.513940, -70.820887 40.509280, -70.836292 40.504620, -70.851682 40.499961, -70.867059 40.495302, -70.882421 40.490643, -70.897769 40.485984, -70.913103 40.481326, -70.928423 40.476669, -70.943729 40.472011, -70.959021 40.467354, -70.974299 40.462697, -70.989562 40.458041, -71.004811 40.453385, -71.020046 40.448730, -71.035267 40.444075, -71.050473 40.439420, -71.065666 40.434766, -71.080844 40.430112, -71.096008 40.425458, -71.111157 40.420805, -71.126293 40.416153, -71.141414 40.411501, -71.156520 40.406849, -71.171613 40.402198, -71.186691 40.397547, -71.201754 40.392897, -71.216804 40.388247, -71.231839 40.383597, -71.246859 40.378949, -71.261866 40.374300, -71.276858 40.369653, -71.291835 40.365005, -71.306798 40.360358, -71.321747 40.355712, -71.336681 40.351066, -71.351600 40.346421, -71.366506 40.341776, -71.381396 40.337132, -71.396273 40.332489, -71.411135 40.327846, -71.425982 40.323203, -71.440815 40.318562, -71.455633 40.313920, -71.470436 40.309280, -71.485225 40.304639, -71.500000 40.300000, -71.514977 40.295416, -71.530144 40.291013, -71.545497 40.286788, -71.561034 40.282739, -71.576751 40.278865, -71.592646 40.275163, -71.608716 40.271631, -71.624957 40.268267, -71.641367 40.265069, -71.657943 40.262034, -71.674682 40.259161, -71.691581 40.256447, -71.708637 40.253890, -71.725847 40.251488, -71.743208 40.249240, -71.760718 40.247142, -71.778373 40.245193, -71.796170 40.243391, -71.814107 40.241733, -71.832180 40.240218, -71.850387 40.238843, -71.868724 40.237606, -71.887190 40.236505, -71.905780 40.235539, -71.924492 40.234704, -71.943322 40.234000, -71.962269 40.233423, -71.981329 40.232972, -72.000499 40.232645, -72.019777 40.232439, -72.039158 40.232353, -72.058641 40.232384, -72.078222 40.232531, -72.097898 40.232790, -72.117667 40.233161, -72.137525 40.233642, -72.157470 40.234229, -72.177498 40.234922, -72.197607 40.235717, -72.217794 40.236613, -72.238055 40.237609, -72.258388 40.238701, -72.278789 40.239888, -72.299256 40.241167, -72.319786 40.242538, -72.340376 40.243997, -72.361022 40.245543, -72.381722 40.247173, -72.402473 40.248886, -72.423272 40.250680, -72.444115 40.252552, -72.465000 40.254500, -72.485924 40.256523, -72.506883 40.258619, -72.527875 40.260784, -72.548897 40.263019, -72.569945 40.265319, -72.591017 40.267684, -72.612109 40.270112, -72.633219 40.272600, -72.654343 40.275146, -72.675479 40.277749, -72.696623 40.280406, -72.717772 40.283115, -72.738923 40.285874, -72.760073 40.288682, -72.781220 40.291537, -72.802359 40.294436, -72.823488 40.297377, -72.844604 40.300358, -72.865704 40.303378, -72.886784 40.306435, -72.907841 40.309526, -72.928873 40.312649, -72.949876 40.315803, -72.970847 40.318985, -72.991784 40.322194, -73.012682 40.325427, -73.033538 40.328683, -73.054351 40.331960, -73.075115 40.335255, -73.095829 40.338567, -73.116489 40.341894, -73.137092 40.345233, -73.157635 40.348584, -73.178114 40.351943, -73.198527 40.355309, -73.218870 40.358680, -73.239140 40.362054, -73.259334 40.365429, -73.279449 40.368803, -73.299481 40.372174, -73.319427 40.375541, -73.339285 40.378900, -73.359050 40.382251, -73.378720 40.385592, -73.398291 40.388919, -73.417761 40.392233, -73.437126 40.395529, -73.456382 40.398808, -73.475527 40.402066, -73.494557 40.405302, -73.513469 40.408514, -73.532260 40.411699, -73.550927 40.414857, -73.569466 40.417985, -73.587874 40.421080, -73.606147 40.424142, -73.624283 40.427169, -73.642279 40.430157, -73.660130 40.433106, -73.677834 40.436014, -73.695387 40.438878, -73.712787 40.441697, -73.730029 40.444468, -73.747111 40.447191, -73.764030 40.449863, -73.780781 40.452481, -73.797362 40.455045, -73.813769 40.457552, -73.830000 40.460000, -73.845339 40.463531, -73.859546 40.469217, -73.872708 40.476855, -73.884909 40.486244, -73.896234 40.497183, -73.906768 40.509469, -73.916595 40.522902, -73.925800 40.537279, -73.934466 40.552398, -73.942677 40.568057, -73.950519 40.584056, -73.958074 40.600191, -73.965427 40.616261, -73.972661 40.632064, -73.979862 40.647398, -73.987112 40.662060, -73.994496 40.675849, -74.002097 40.688563, -74.010000 40.700000)
