LINESTRING (8.580000 53.550000, 8.564580 53.562058, 8.549180 53.575121, 8.533783 53.589107, 8.518374 53.603940, 8.502935 53.619539, 8.487451 53.635826, 8.471905 53.652722, 8.456281 53.670146, 8.440563 53.688022, 8.424734 53.706268, 8.408779 53.724806, 8.392683 53.743558, 8.376428 53.762443, 8.360000 53.781383, 8.343383 53.800299, 8.326562 53.819111, 8.309521 53.837741, 8.292245 53.856108, 8.274718 53.874135, 8.256926 53.891742, 8.238854 53.908849, 8.220486 53.925378, 8.201809 53.941248, 8.182808 53.956382, 8.163468 53.970700, 8.143775 53.984123, 8.123716 53.996570, 8.103275 54.007964, 8.082441 54.018225, 8.061198 54.027273, 8.039534 54.035030, 8.017437 54.041415, 7.994892 54.046351, 7.971889 54.049756, 7.948413 54.051552, 7.924454 54.051660, 7.900000 54.050000, 7.875252 54.047385, 7.850353 54.044673, 7.825307 54.041867, 7.800116 54.038965, 7.774782 54.035969, 7.749309 54.032880, 7.723699 54.029698, 7.697955 54.026424, 7.672080 54.023058, 7.646075 54.019601, 7.619944 54.016054, 7.593690 54.012417, 7.567315 54.008691, 7.540822 54.004877, 7.514213 54.000975, 7.487491 53.996986, 7.460660 53.992910, 7.433721 53.988749, 7.406677 53.984502, 7.379531 53.980171, 7.352285 53.975757, 7.324943 53.971259, 7.297507 53.966678, 7.269979 53.962016, 7.242362 53.957273, 7.214660 53.952449, 7.186873 53.947546, 7.159006 53.942563, 7.131061 53.937502, 7.103040 53.932363, 7.074947 53.927147, 7.046783 53.921855, 7.018551 53.916487, 6.990255 53.911044, 6.961896 53.905527, 6.933478 53.899936, 6.905002 53.894272, 6.876473 53.888536, 6.847891 53.882729, 6.819260 53.876851, 6.790583 53.870902, 6.761861 53.864884, 6.733099 53.858798, 6.704297 53.852643, 6.675460 53.846422, 6.646589 53.840133, 6.617687 53.833779, 6.588757 53.827360, 6.559801 53.820877, 6.530822 53.814330, 6.501822 53.807719, 6.472805 53.801047, 6.443772 53.794314, 6.414726 53.787519, 6.385670 53.780665, 6.356606 53.773751, 6.327538 53.766779, 6.298467 53.759750, 6.269395 53.752663, 6.240327 53.745520, 6.211263 53.738322, 6.182207 53.731069, 6.153162 53.723762, 6.124129 53.716402, 6.095111 53.708989, 6.066112 53.701525, 6.037132 53.694010, 6.008176 53.686444, 5.979244 53.678830, 5.950341 53.671167, 5.921468 53.663456, 5.892628 53.655698, 5.863823 53.647894, 5.835057 53.640044, 5.806330 53.632150, 5.777647 53.624212, 5.749008 53.616231, 5.720418 53.608208, 5.691878 53.600143, 5.663390 53.592037, 5.634958 53.583892, 5.606584 53.575707, 5.578269 53.567485, 5.550018 53.559225, 5.521831 53.550928, 5.493711 53.542595, 5.465662 53.534228, 5.437685 53.525826, 5.409783 53.517391, 5.381957 53.508923, 5.354212 53.500423, 5.326548 53.491893, 5.298969 53.483333, 5.271477 53.474743, 5.244073 53.466125, 5.216762 53.457479, 5.189544 53.448807, 5.162423 53.440108, 5.135401 53.431385, 5.108479 53.422637, 5.081662 53.413866, 5.054950 53.405072, 5.028346 53.396257, 5.001853 53.387421, 4.975473 53.378565, 4.949208 53.369689, 4.923060 53.360795, 4.897033 53.351884, 4.871128 53.342957, 4.845348 53.334013, 4.819694 53.325055, 4.794170 53.316082, 4.768778 53.307097, 4.743519 53.298099, 4.718397 53.289090, 4.693413 53.280070, 4.668570 53.271040, 4.643870 53.262002, 4.619316 53.252956, 4.594909 53.243902, 4.570652 53.234843, 4.546547 53.225778, 4.522597 53.216708, 4.498804 53.207635, 4.475170 53.198560, 4.451697 53.189482, 4.428388 53.180404, 4.405244 53.171325, 4.382269 53.162248, 4.359464 53.153172, 4.336832 53.144098, 4.314374 53.135028, 4.292093 53.125963, 4.269992 53.116902, 4.248072 53.107848, 4.226336 53.098801, 4.204786 53.089762, 4.183425 53.080731, 4.162253 53.071710, 4.141274 53.062700, 4.120490 53.053701, 4.099903 53.044715, 4.079515 53.035742, 4.059329 53.026783, 4.039346 53.017839, 4.019569 53.008911, 4.000000 53.000000, 3.980462 52.991000, 3.960906 52.981866, 3.941333 52.972598, 3.921744 52.963199, 3.902139 52.953670, 3.882520 52.944012, 3.862886 52.934228, 3.843240 52.924319, 3.823581 52.914286, 3.803911 52.904131, 3.784229 52.893855, 3.764538 52.883461, 3.744837 52.872949, 3.725127 52.862321, 3.705409 52.851580, 3.685685 52.840725, 3.665953 52.829760, 3.646216 52.818686, 3.626475 52.807503, 3.606728 52.796214, 3.586979 52.784821, 3.567226 52.773324, 3.547472 52.761726, 3.527715 52.750028, 3.507959 52.738232, 3.488202 52.726339, 3.468446 52.714351, 3.448691 52.702269, 3.428939 52.690095, 3.409189 52.677831, 3.389443 52.665478, 3.369700 52.653038, 3.349963 52.640512, 3.330231 52.627902, 3.310505 52.615209, 3.290787 52.602436, 3.271075 52.589584, 3.251372 52.576653, 3.231678 52.563647, 3.211993 52.550566, 3.192318 52.537413, 3.172654 52.524188, 3.153001 52.510893, 3.133361 52.497530, 3.113733 52.484100, 3.094118 52.470606, 3.074517 52.457048, 3.054931 52.443429, 3.035360 52.429749, 3.015805 52.416011, 2.996266 52.402216, 2.976744 52.388366, 2.957240 52.374461, 2.937754 52.360505, 2.918287 52.346498, 2.898840 52.332442, 2.879412 52.318339, 2.860005 52.304190, 2.840619 52.289997, 2.821255 52.275761, 2.801913 52.261484, 2.782594 52.247168, 2.763298 52.232815, 2.744027 52.218425, 2.724780 52.204000, 2.705559 52.189543, 2.686363 52.175054, 2.667193 52.160536, 2.648050 52.145989, 2.628935 52.131416, 2.609847 52.116818, 2.590788 52.102197, 2.571758 52.087554, 2.552757 52.072891, 2.533787 52.058210, 2.514847 52.043512, 2.495938 52.028798, 2.477060 52.014071, 2.458215 51.999332, 2.439402 51.984582, 2.420623 51.969824, 2.401877 51.955058, 2.383165 51.940287, 2.364488 51.925512, 2.345846 51.910734, 2.327240 51.895956, 2.308670 51.881178, 2.290136 51.866403, 2.271639 51.851633, 2.253180 51.836867, 2.234759 51.822110, 2.216377 51.807361, 2.198033 51.792622, 2.179729 51.777896, 2.161465 51.763184, 2.143241 51.748487, 2.125058 51.733807, 2.106916 51.719146, 2.088816 51.704504, 2.070758 51.689885, 2.052743 51.675290, 2.034771 51.660719, 2.016842 51.646175, 1.998957 51.631659, 1.981116 51.617174, 1.963321 51.602720, 1.945570 51.588299, 1.927865 51.573913, 1.910206 51.559563, 1.892594 51.545251, 1.875028 51.530980, 1.857510 51.516749, 1.840040 51.502561, 1.822617 51.488418, 1.805244 51.474321, 1.787919 51.460272, 1.770643 51.446272, 1.753417 51.432323, 1.736241 51.418427, 1.719116 51.404585, 1.702042 51.390799, 1.685019 51.377070, 1.668047 51.363401, 1.651128 51.349792, 1.634261 51.336246, 1.617447 51.322763, 1.600686 51.309346, 1.583979 51.295997, 1.567325 51.282716, 1.550726 51.269506, 1.534182 51.256368, 1.517692 51.243304, 1.501258 51.230315, 1.484880 51.217403, 1.468558 51.204569, 1.452292 51.191816, 1.436083 51.179145, 1.419931 51.166557, 1.403837 51.154054, 1.387800 51.141638, 1.371822 51.129310, 1.355902 51.117072, 1.340042 51.104926, 1.324240 51.092873, 1.308498 51.080915, 1.292816 51.069053, 1.277194 51.057290, 1.261633 51.045626, 1.246133 51.034063, 1.230693 51.022604, 1.215316 51.011249, 1.200000 51.000000, 1.184753 50.988628, 1.169359 50.976761, 1.153821 50.964427, 1.138137 50.951656, 1.122308 50.938478, 1.106333 50.924920, 1.090214 50.911013, 1.073950 50.896786, 1.057541 50.882267, 1.040987 50.867487, 1.024287 50.852474, 1.007443 50.837257, 0.990454 50.821865, 0.973319 50.806329, 0.956038 50.790676, 0.938611 50.774936, 0.921039 50.759139, 0.903319 50.743313, 0.885453 50.727488, 0.867439 50.711692, 0.849278 50.695956, 0.830968 50.680308, 0.812510 50.664777, 0.793902 50.649393, 0.775144 50.634184, 0.756235 50.619180, 0.737174 50.604411, 0.717961 50.589905, 0.698595 50.575691, 0.679075 50.561799, 0.659400 50.548257, 0.639569 50.535096, 0.619580 50.522344, 0.599434 50.510030, 0.579128 50.498184, 0.558661 50.486834, 0.538032 50.476011, 0.517241 50.465742, 0.496284 50.456057, 0.475161 50.446986, 0.453871 50.438558, 0.432411 50.430801, 0.410781 50.423745, 0.388977 50.417419, 0.366999 50.411853, 0.344845 50.407075, 0.322513 50.403114, 0.300000 50.400000, 0.277376 50.397660, 0.254412 50.395954, 0.231123 50.394863, 0.207522 50.394370, 0.183622 50.394455, 0.159438 50.395101, 0.134983 50.396288, 0.110270 50.398000, 0.085314 50.400218, 0.060128 50.402923, 0.034725 50.406098, 0.009121 50.409724, -0.016673 50.413782, -0.042641 50.418255, -0.068769 50.423125, -0.095045 50.428373, -0.121453 50.433982, -0.147981 50.439932, -0.174613 50.446207, -0.201336 50.452787, -0.228135 50.459655, -0.254997 50.466792, -0.281908 50.474181, -0.308852 50.481804, -0.335815 50.489642, -0.362784 50.497678, -0.389744 50.505893, -0.416680 50.514269, -0.443577 50.522789, -0.470422 50.531434, -0.497199 50.540186, -0.523894 50.549028, -0.550492 50.557942, -0.576978 50.566909, -0.603338 50.575911, -0.629556 50.584932, -0.655618 50.593952, -0.681508 50.602955, -0.707212 50.611921, -0.732714 50.620834, -0.757999 50.629675, -0.783053 50.638427, -0.807859 50.647071, -0.832402 50.655591, -0.856667 50.663968, -0.880640 50.672184, -0.904303 50.680221, -0.927643 50.688063, -0.950642 50.695691, -0.973287 50.703087, -0.995560 50.710234, -1.017447 50.717113, -1.038933 50.723708, -1.060000 50.730000, -1.080776 50.737766, -1.102783 50.748855, -1.125759 50.762672, -1.149442 50.778623, -1.173571 50.796114, -1.197879 50.814549, -1.222102 50.833336, -1.245970 50.851881, -1.269215 50.869590, -1.291566 50.885869, -1.312751 50.900126, -1.332495 50.911768, -1.350524 50.920201, -1.366564 50.924834, -1.380339 50.925073, -1.391576 50.920326, -1.400000 50.910000, -1.406912 50.895837, -1.413151 50.881246, -1.418743 50.866243, -1.423710 50.850840, -1.428077 50.835053, -1.431867 50.818896, -1.435105 50.802384, -1.437814 50.785531, -1.440018 50.768352, -1.441741 50.750860, -1.443007 50.733070, -1.443840 50.714997, -1.444263 50.696655, -1.444301 50.678059, -1.443977 50.659222, -1.443315 50.640160, -1.442338 50.620886, -1.441071 50.601415, -1.439536 50.581761, -1.437758 50.561939, -1.435761 50.541963, -1.433567 50.521848, -1.431200 50.501607, -1.428684 50.481255, -1.426043 50.460807, -1.423298 50.440277, -1.420475 50.419679, -1.417596 50.399028, -1.414684 50.378338, -1.411763 50.357623, -1.408856 50.336898, -1.405985 50.316177, -1.403175 50.295475, -1.400448 50.274806, -1.397826 50.254184, -1.395334 50.233624, -1.392994 50.213140, -1.390828 50.192746, -1.388860 50.172458, -1.387113 50.152289, -1.385608 50.132253, -1.384370 50.112366, -1.383420 50.092641, -1.382781 50.073093, -1.382476 50.053737, -1.382528 50.034586, -1.382959 50.015655, -1.383791 49.996959, -1.385047 49.978511, -1.386749 49.960327, -1.388921 49.942420, -1.391584 49.924805, -1.394761 49.907496, -1.398474 49.890508, -1.402746 49.873855, -1.407599 49.857551, -1.413056 49.841610, -1.419139 49.826047, -1.425871 49.810876, -1.433273 49.796112, -1.441369 49.781768, -1.450181 49.767859, -1.459732 49.754398, -1.470043 49.741401, -1.481138 49.728881, -1.493039 49.716853, -1.505769 49.705330, -1.519351 49.694326, -1.533807 49.683856, -1.549159 49.673934, -1.565432 49.664573, -1.582648 49.655788, -1.600829 49.647592, -1.620000 49.640000, -1.639911 49.632805, -1.660128 49.625851, -1.680645 49.619136, -1.701457 49.612656, -1.722561 49.606408, -1.743950 49.600390, -1.765620 49.594597, -1.787566 49.589028, -1.809784 49.583678, -1.832268 49.578545, -1.855013 49.573626, -1.878015 49.568918, -1.901269 49.564417, -1.924770 49.560120, -1.948514 49.556024, -1.972494 49.552127, -1.996707 49.548425, -2.021147 49.544915, -2.045811 49.541594, -2.070692 49.538459, -2.095786 49.535507, -2.121089 49.532734, -2.146595 49.530138, -2.172300 49.527716, -2.198198 49.525464, -2.224285 49.523380, -2.250557 49.521461, -2.277007 49.519702, -2.303632 49.518102, -2.330426 49.516658, -2.357385 49.515366, -2.384504 49.514223, -2.411778 49.513226, -2.439201 49.512373, -2.466770 49.511659, -2.494479 49.511083, -2.522324 49.510641, -2.550299 49.510331, -2.578400 49.510148, -2.606622 49.510090, -2.634959 49.510155, -2.663408 49.510339, -2.691962 49.510639, -2.720618 49.511052, -2.749369 49.511576, -2.778212 49.512207, -2.807142 49.512942, -2.836153 49.513778, -2.865240 49.514713, -2.894399 49.515743, -2.923625 49.516865, -2.952912 49.518077, -2.982255 49.519376, -3.011651 49.520758, -3.041093 49.522221, -3.070577 49.523762, -3.100097 49.525378, -3.129649 49.527066, -3.159228 49.528822, -3.188828 49.530645, -3.218445 49.532531, -3.248074 49.534478, -3.277709 49.536482, -3.307346 49.538540, -3.336979 49.540650, -3.366603 49.542810, -3.396214 49.545015, -3.425806 49.547263, -3.455374 49.549551, -3.484913 49.551877, -3.514418 49.554238, -3.543883 49.556630, -3.573304 49.559051, -3.602676 49.561498, -3.631994 49.563968, -3.661251 49.566459, -3.690444 49.568967, -3.719566 49.571490, -3.748613 49.574025, -3.777580 49.576570, -3.806461 49.579120, -3.835252 49.581675, -3.863946 49.584230, -3.892540 49.586783, -3.921026 49.589331, -3.949402 49.591872, -3.977660 49.594403, -4.005796 49.596920, -4.033805 49.599422, -4.061681 49.601905, -4.089420 49.604367, -4.117015 49.606805, -4.144462 49.609216, -4.171755 49.611598, -4.198889 49.613947, -4.225859 49.616261, -4.252659 49.618538, -4.279285 49.620774, -4.305730 49.622968, -4.331990 49.625115, -4.358059 49.627214, -4.383932 49.629262, -4.409604 49.631256, -4.435068 49.633193, -4.460321 49.635071, -4.485356 49.636887, -4.510168 49.638638, -4.534752 49.640322, -4.559102 49.641936, -4.583214 49.643477, -4.607081 49.644943, -4.630699 49.646331, -4.654061 49.647638, -4.677164 49.648862, -4.700000 49.650000, -4.722772 49.651223, -4.745849 49.652705, -4.769222 49.654439, -4.792883 49.656416, -4.816822 49.658627, -4.841029 49.661064, -4.865496 49.663717, -4.890213 49.666579, -4.915170 49.669640, -4.940359 49.672893, -4.965771 49.676329, -4.991395 49.679938, -5.017222 49.683713, -5.043244 49.687645, -5.069450 49.691725, -5.095832 49.695945, -5.122380 49.700297, -5.149085 49.704771, -5.175937 49.709360, -5.202927 49.714054, -5.230045 49.718846, -5.257283 49.723727, -5.284630 49.728688, -5.312077 49.733722, -5.339614 49.738818, -5.367233 49.743970, -5.394923 49.749169, -5.422675 49.754406, -5.450480 49.759672, -5.478327 49.764961, -5.506208 49.770262, -5.534113 49.775568, -5.562031 49.780870, -5.589955 49.786161, -5.617873 49.791431, -5.645776 49.796672, -5.673655 49.801877, -5.701499 49.807036, -5.729300 49.812142, -5.757047 49.817186, -5.784731 49.822160, -5.812342 49.827055, -5.839869 49.831864, -5.867304 49.836579, -5.894637 49.841190, -5.921857 49.845690, -5.948955 49.850070, -5.975921 49.854323, -6.002746 49.858439, -6.029418 49.862412, -6.055929 49.866232, -6.082268 49.869892, -6.108426 49.873384, -6.134393 49.876698, -6.160158 49.879828, -6.185712 49.882765, -6.211044 49.885500, -6.236146 49.888026, -6.261006 49.890335, -6.285615 49.892418, -6.309962 49.894267, -6.334039 49.895874, -6.357834 49.897232, -6.381338 49.898331, -6.404540 49.899165, -6.427431 49.899724, -6.450000 49.900000, -6.472422 49.900128, -6.494867 49.900245, -6.517335 49.900353, -6.539827 49.900451, -6.562342 49.900540, -6.584881 49.900618, -6.607443 49.900686, -6.630028 49.900745, -6.652636 49.900794, -6.675268 49.900833, -6.697922 49.900861, -6.720600 49.900881, -6.743300 49.900890, -6.766023 49.900889, -6.788769 49.900878, -6.811538 49.900858, -6.834330 49.900828, -6.857145 49.900787, -6.879982 49.900737, -6.902842 49.900677, -6.925724 49.900607, -6.948629 49.900528, -6.971556 49.900438, -6.994506 49.900338, -7.017479 49.900229, -7.040473 49.900109, -7.063490 49.899980, -7.086529 49.899841, -7.109590 49.899692, -7.132673 49.899533, -7.155779 49.899364, -7.178906 49.899185, -7.202056 49.898996, -7.225227 49.898798, -7.248420 49.898589, -7.271635 49.898371, -7.294872 49.898142, -7.318131 49.897904, -7.341411 49.897656, -7.364713 49.897398, -7.388037 49.897130, -7.411382 49.896852, -7.434748 49.896564, -7.458136 49.896266, -7.481546 49.895958, -7.504976 49.895641, -7.528428 49.895313, -7.551901 49.894975, -7.575396 49.894628, -7.598911 49.894271, -7.622448 49.893903, -7.646005 49.893526, -7.669584 49.893139, -7.693184 49.892742, -7.716804 49.892335, -7.740445 49.891918, -7.764107 49.891491, -7.787790 49.891054, -7.811493 49.890608, -7.835218 49.890151, -7.858962 49.889684, -7.882727 49.889208, -7.906513 49.888721, -7.930319 49.888225, -7.954146 49.887719, -7.977992 49.887203, -8.001859 49.886676, -8.025747 49.886140, -8.049654 49.885594, -8.073582 49.885038, -8.097529 49.884472, -8.121497 49.883896, -8.145485 49.883311, -8.169492 49.882715, -8.193520 49.882109, -8.217567 49.881494, -8.241634 49.880868, -8.265721 49.880233, -8.289827 49.879587, -8.313953 49.878932, -8.338099 49.878267, -8.362264 49.877592, -8.386448 49.876906, -8.410652 49.876211, -8.434876 49.875506, -8.459118 49.874792, -8.483380 49.874067, -8.507661 49.873332, -8.531962 49.872587, -8.556281 49.871833, -8.580619 49.871068, -8.604977 49.870293, -8.629353 49.869509, -8.653748 49.868715, -8.678162 49.867910, -8.702595 49.867096, -8.727047 49.866272, -8.751517 49.865438, -8.776006 49.864594, -8.800514 49.863740, -8.825040 49.862876, -8.849584 49.862002, -8.874148 49.861119, -8.898729 49.860225, -8.923329 49.859322, -8.947947 49.858408, -8.972583 49.857485, -8.997237 49.856552, -9.021910 49.855608, -9.046601 49.854655, -9.071309 49.853692, -9.096036 49.852719, -9.120780 49.851736, -9.145543 49.850744, -9.170323 49.849741, -9.195121 49.848729, -9.219937 49.847706, -9.244770 49.846674, -9.269621 49.845631, -9.294490 49.844579, -9.319376 49.843517, -9.344279 49.842445, -9.369200 49.841363, -9.394138 49.840272, -9.419094 49.839170, -9.444067 49.838058, -9.469057 49.836937, -9.494064 49.835806, -9.519088 49.834665, -9.544129 49.833513, -9.569187 49.832353, -9.594263 49.831182, -9.619355 49.830001, -9.644464 49.828810, -9.669589 49.827610, -9.694732 49.826400, -9.719891 49.825179, -9.745066 49.823949, -9.770259 49.822709, -9.795468 49.821460, -9.820693 49.820200, -9.845934 49.818930, -9.871192 49.817651, -9.896467 49.816362, -9.921757 49.815063, -9.947064 49.813754, -9.972387 49.812435, -9.997726 49.811106, -10.023081 49.809768, -10.048453 49.808420, -10.073840 49.807061, -10.099243 49.805694, -10.124661 49.804316, -10.150096 49.802928, -10.175546 49.801531, -10.201012 49.800123, -10.226494 49.798706, -10.251991 49.797279, -10.277504 49.795843, -10.303032 49.794396, -10.328576 49.792940, -10.354135 49.791474, -10.379709 49.789998, -10.405299 49.788512, -10.430904 49.787016, -10.456524 49.785511, -10.482159 49.783996, -10.507809 49.782471, -10.533474 49.780936, -10.559154 49.779392, -10.584849 49.777838, -10.610559 49.776273, -10.636284 49.774700, -10.662023 49.773116, -10.687777 49.771523, -10.713546 49.769920, -10.739329 49.768307, -10.765127 49.766684, -10.790940 49.765052, -10.816767 49.763410, -10.842608 49.761758, -10.868463 49.760096, -10.894333 49.758425, -10.920217 49.756744, -10.946115 49.755053, -10.972027 49.753353, -10.997954 49.751643, -11.023894 49.749923, -11.049849 49.748193, -11.075817 49.746454, -11.101799 49.744705, -11.127795 49.742946, -11.153804 49.741178, -11.179828 49.739400, -11.205865 49.737612, -11.231915 49.735814, -11.257980 49.734007, -11.284057 49.732191, -11.310148 49.730364, -11.336253 49.728528, -11.362371 49.726682, -11.388502 49.724827, -11.414646 49.722962, -11.440803 49.721087, -11.466974 49.719202, -11.493158 49.717308, -11.519355 49.715405, -11.545564 49.713492, -11.571787 49.711569, -11.598022 49.709636, -11.624271 49.707694, -11.650532 49.705742, -11.676805 49.703781, -11.703092 49.701810, -11.729391 49.699830, -11.755702 49.697839, -11.782026 49.695840, -11.808363 49.693831, -11.834712 49.691812, -11.861073 49.689783, -11.887447 49.687745, -11.913832 49.685698, -11.940230 49.683641, -11.966641 49.681574, -11.993063 49.679498, -12.019497 49.677412, -12.045943 49.675317, -12.072401 49.673213, -12.098871 49.671098, -12.125353 49.668975, -12.151847 49.666841, -12.178352 49.664699, -12.204869 49.662546, -12.231398 49.660385, -12.257938 49.658213, -12.284490 49.656033, -12.311053 49.653843, -12.337627 49.651643, -12.364213 49.649434, -12.390810 49.647216, -12.417419 49.644988, -12.444038 49.642750, -12.470669 49.640503, -12.497311 49.638247, -12.523964 49.635981, -12.550628 49.633706, -12.577303 49.631422, -12.603989 49.629128, -12.630685 49.626825, -12.657393 49.624512, -12.684111 49.622190, -12.710840 49.619858, -12.737579 49.617518, -12.764329 49.615167, -12.791090 49.612808, -12.817861 49.610439, -12.844642 49.608061, -12.871434 49.605673, -12.898236 49.603276, -12.925049 49.600870, -12.951871 49.598455, -12.978704 49.596030, -13.005547 49.593596, -13.032400 49.591152, -13.059263 49.588700, -13.086136 49.586238, -13.113019 49.583767, -13.139912 49.581286, -13.166814 49.578796, -13.193727 49.576297, -13.220649 49.573789, -13.247580 49.571271, -13.274522 49.568745, -13.301473 49.566209, -13.328433 49.563664, -13.355403 49.561109, -13.382382 49.558546, -13.409370 49.555973, -13.436368 49.553391, -13.463375 49.550800, -13.490392 49.548200, -13.517417 49.545590, -13.544451 49.542972, -13.571495 49.540344, -13.598547 49.537707, -13.625609 49.535061, -13.652679 49.532406, -13.679758 49.529742, -13.706846 49.527068, -13.733943 49.524386, -13.761049 49.521694, -13.788163 49.518994, -13.815285 49.516284, -13.842416 49.513565, -13.869556 49.510838, -13.896704 49.508101, -13.923860 49.505355, -13.951025 49.502600, -13.978198 49.499836, -14.005380 49.497063, -14.032569 49.494281, -14.059767 49.491490, -14.086972 49.488690, -14.114186 49.485882, -14.141408 49.483064, -14.168637 49.480237, -14.195875 49.477401, -14.223120 49.474556, -14.250373 49.471703, -14.277634 49.468840, -14.304902 49.465969, -14.332178 49.463088, -14.359462 49.460199, -14.386753 49.457301, -14.414052 49.454394, -14.441358 49.451478, -14.468671 49.448553, -14.495992 49.445619, -14.523320 49.442677, -14.550655 49.439726, -14.577998 49.436766, -14.605347 49.433797, -14.632704 49.430819, -14.660068 49.427832, -14.687438 49.424837, -14.714816 49.421833, -14.742200 49.418820, -14.769591 49.415798, -14.796989 49.412768, -14.824394 49.409729, -14.851806 49.406681, -14.879224 49.403624, -14.906648 49.400559, -14.934080 49.397485, -14.961517 49.394402, -14.988961 49.391311, -15.016412 49.388211, -15.043868 49.385102, -15.071332 49.381985, -15.098801 49.378859, -15.126276 49.375725, -15.153758 49.372581, -15.181246 49.369430, -15.208739 49.366269, -15.236239 49.363100, -15.263745 49.359923, -15.291256 49.356736, -15.318774 49.353542, -15.346297 49.350339, -15.373826 49.347127, -15.401360 49.343907, -15.428901 49.340678, -15.456446 49.337440, -15.483998 49.334195, -15.511555 49.330940, -15.539117 49.327678, -15.566685 49.324406, -15.594258 49.321127, -15.621836 49.317839, -15.649420 49.314542, -15.677009 49.311237, -15.704603 49.307924, -15.732202 49.304602, -15.759806 49.301272, -15.787415 49.297934, -15.815030 49.294587, -15.842649 49.291232, -15.870273 49.287868, -15.897901 49.284496, -15.925535 49.281116, -15.953173 49.277728, -15.980816 49.274331, -16.008464 49.270926, -16.036116 49.267513, -16.063773 49.264091, -16.091434 49.260661, -16.119100 49.257223, -16.146770 49.253777, -16.174444 49.250323, -16.202123 49.246860, -16.229806 49.243389, -16.257493 49.239910, -16.285184 49.236423, -16.312879 49.232928, -16.340579 49.229424, -16.368282 49.225912, -16.395990 49.222393, -16.423701 49.218865, -16.451416 49.215329, -16.479135 49.211785, -16.506858 49.208233, -16.534585 49.204673, -16.562315 49.201105, -16.590049 49.197529, -16.617786 49.193944, -16.645527 49.190352, -16.673272 49.186752, -16.701020 49.183144, -16.728771 49.179528, -16.756526 49.175904, -16.784284 49.172272, -16.812045 49.168632, -16.839809 49.164984, -16.867577 49.161328, -16.895348 49.157665, -16.923122 49.153993, -16.950899 49.150314, -16.978678 49.146626, -17.006461 49.142931, -17.034247 49.139228, -17.062036 49.135518, -17.089827 49.131799, -17.117621 49.128073, -17.145418 49.124339, -17.173217 49.120597, -17.201019 49.116847, -17.228824 49.113090, -17.256631 49.109325, -17.284441 49.105552, -17.312253 49.101772, -17.340068 49.097983, -17.367884 49.094188, -17.395704 49.090384, -17.423525 49.086573, -17.451349 49.082754, -17.479174 49.078928, -17.507002 49.075094, -17.534832 49.071253, -17.562664 49.067403, -17.590498 49.063547, -17.618334 49.059683, -17.646172 49.055811, -17.674012 49.051932, -17.701853 49.048045, -17.729696 49.044151, -17.757541 49.040249, -17.785388 49.036340, -17.813236 49.032423, -17.841086 49.028499, -17.868937 49.024567, -17.896790 49.020629, -17.924645 49.016682, -17.952500 49.012729, -17.980357 49.008768, -18.008216 49.004799, -18.036075 49.000823, -18.063936 48.996840, -18.091798 48.992850, -18.119661 48.988852, -18.147526 48.984847, -18.175391 48.980835, -18.203258 48.976816, -18.231125 48.972789, -18.258993 48.968755, -18.286862 48.964714, -18.314732 48.960666, -18.342603 48.956611, -18.370474 48.952548, -18.398347 48.948478, -18.426220 48.944401, -18.454093 48.940317, -18.481967 48.936226, -18.509842 48.932128, -18.537717 48.928023, -18.565592 48.923911, -18.593468 48.919791, -18.621345 48.915665, -18.649221 48.911531, -18.677098 48.907391, -18.704975 48.903244, -18.732853 48.899089, -18.760730 48.894928, -18.788608 48.890760, -18.816485 48.886585, -18.844363 48.882403, -18.872241 48.878214, -18.900118 48.874018, -18.927996 48.869815, -18.955873 48.865606, -18.983750 48.861389, -19.011627 48.857166, -19.039504 48.852936, -19.067380 48.848700, -19.095256 48.844456, -19.123132 48.840206, -19.151007 48.835949, -19.178881 48.831685, -19.206755 48.827415, -19.234629 48.823138, -19.262502 48.818854, -19.290374 48.814564, -19.318246 48.810267, -19.346117 48.805963, -19.373987 48.801653, -19.401856 48.797336, -19.429725 48.793013, -19.457592 48.788683, -19.485459 48.784346, -19.513325 48.780003, -19.541189 48.775654, -19.569053 48.771298, -19.596915 48.766935, -19.624777 48.762566, -19.652637 48.758191, -19.680496 48.753809, -19.708354 48.749420, -19.736210 48.745026, -19.764065 48.740625, -19.791919 48.736217, -19.819771 48.731804, -19.847622 48.727384, -19.875471 48.722957, -19.903319 48.718525, -19.931165 48.714086, -19.959010 48.709640, -19.986853 48.705189, -20.014694 48.700731, -20.042534 48.696267, -20.070371 48.691797, -20.098207 48.687321, -20.126041 48.682838, -20.153874 48.678350, -20.181704 48.673855, -20.209532 48.669354, -20.237359 48.664847, -20.265183 48.660334, -20.293005 48.655815, -20.320825 48.651290, -20.348643 48.646759, -20.376459 48.642222, -20.404272 48.637679, -20.432083 48.633130, -20.459892 48.628575, -20.487698 48.624014, -20.515503 48.619447, -20.543304 48.614874, -20.571103 48.610295, -20.598900 48.605711, -20.626694 48.601120, -20.654486 48.596524, -20.682275 48.591922, -20.710061 48.587314, -20.737845 48.582700, -20.765625 48.578081, -20.793403 48.573456, -20.821179 48.568825, -20.848951 48.564188, -20.876721 48.559546, -20.904487 48.554898, -20.932251 48.550244, -20.960012 48.545585, -20.987769 48.540920, -21.015524 48.536250, -21.043275 48.531574, -21.071024 48.526892, -21.098769 48.522205, -21.126511 48.517512, -21.154249 48.512814, -21.181985 48.508110, -21.209717 48.503401, -21.237445 48.498686, -21.265171 48.493966, -21.292893 48.489240, -21.320611 48.484509, -21.348326 48.479773, -21.376037 48.475031, -21.403745 48.470284, -21.431449 48.465532, -21.459150 48.460774, -21.486846 48.456011, -21.514539 48.451243, -21.542229 48.446469, -21.569914 48.441690, -21.597596 48.436906, -21.625274 48.432117, -21.652948 48.427323, -21.680618 48.422523, -21.708284 48.417718, -21.735946 48.412909, -21.763604 48.408094, -21.791258 48.403273, -21.818908 48.398448, -21.846553 48.393618, -21.874195 48.388783, -21.901832 48.383943, -21.929465 48.379097, -21.957094 48.374247, -21.984719 48.369392, -22.012339 48.364532, -22.039954 48.359667, -22.067566 48.354797, -22.095172 48.349922, -22.122775 48.345042, -22.150373 48.340158, -22.177966 48.335268, -22.205555 48.330374, -22.233139 48.325475, -22.260718 48.320571, -22.288293 48.315663, -22.315863 48.310750, -22.343428 48.305832, -22.370989 48.300909, -22.398544 48.295982, -22.426095 48.291050, -22.453641 48.286113, -22.481182 48.281172, -22.508718 48.276226, -22.536249 48.271275, -22.563775 48.266320, -22.591296 48.261361, -22.618812 48.256397, -22.646323 48.251428, -22.673829 48.246455, -22.701329 48.241478, -22.728824 48.236496, -22.756314 48.231510, -22.783799 48.226519, -22.811278 48.221524, -22.838752 48.216524, -22.866221 48.211520, -22.893684 48.206512, -22.921142 48.201500, -22.948595 48.196483, -22.976041 48.191462, -23.003483 48.186437, -23.030919 48.181407, -23.058349 48.176373, -23.085773 48.171335, -23.113192 48.166293, -23.140605 48.161247, -23.168013 48.156197, -23.195415 48.151142, -23.222811 48.146084, -23.250201 48.141021, -23.277585 48.135954, -23.304964 48.130884, -23.332336 48.125809, -23.359703 48.120730, -23.387063 48.115648, -23.414418 48.110561, -23.441766 48.105471, -23.469109 48.100376, -23.496445 48.095278, -23.523776 48.090176, -23.551100 48.085070, -23.578418 48.079960, -23.605730 48.074846, -23.633035 48.069729, -23.660335 48.064608, -23.687628 48.059483, -23.714914 48.054354, -23.742195 48.049222, -23.769469 48.044086, -23.796736 48.038946, -23.823997 48.033802, -23.851252 48.028655, -23.878500 48.023505, -23.905742 48.018351, -23.932977 48.013193, -23.960205 48.008032, -23.987427 48.002867, -24.014642 47.997699, -24.041851 47.992527, -24.069053 47.987352, -24.096248 47.982173, -24.123436 47.976991, -24.150617 47.971805, -24.177792 47.966617, -24.204960 47.961424, -24.232121 47.956229, -24.259275 47.951030, -24.286422 47.945828, -24.313563 47.940622, -24.340696 47.935414, -24.367822 47.930202, -24.394941 47.924987, -24.422053 47.919768, -24.449158 47.914547, -24.476256 47.909322, -24.503347 47.904095, -24.530431 47.898864, -24.557507 47.893630, -24.584576 47.888393, -24.611638 47.883153, -24.638693 47.877910, -24.665740 47.872664, -24.692780 47.867415, -24.719813 47.862163, -24.746838 47.856908, -24.773856 47.851650, -24.800866 47.846389, -24.827869 47.841126, -24.854865 47.835859, -24.881853 47.830590, -24.908833 47.825318, -24.935806 47.820043, -24.962771 47.814766, -24.989729 47.809485, -25.016678 47.804202, -25.043621 47.798916, -25.070555 47.793628, -25.097482 47.788337, -25.124401 47.783043, -25.151312 47.777746, -25.178216 47.772447, -25.205111 47.767146, -25.231999 47.761842, -25.258879 47.756535, -25.285751 47.751226, -25.312615 47.745914, -25.339471 47.740600, -25.366320 47.735283, -25.393160 47.729964, -25.419992 47.724643, -25.446816 47.719319, -25.473632 47.713993, -25.500440 47.708665, -25.527240 47.703334, -25.554031 47.698001, -25.580815 47.692665, -25.607590 47.687328, -25.634357 47.681988, -25.661116 47.676646, -25.687866 47.671302, -25.714609 47.665955, -25.741342 47.660607, -25.768068 47.655256, -25.794785 47.649903, -25.821494 47.644548, -25.848194 47.639191, -25.874886 47.633833, -25.901570 47.628472, -25.928245 47.623109, -25.954912 47.617744, -25.981570 47.612377, -26.008219 47.607008, -26.034860 47.601637, -26.061492 47.596265, -26.088116 47.590890, -26.114731 47.585514, -26.141337 47.580136, -26.167935 47.574756, -26.194524 47.569374, -26.221104 47.563991, -26.247676 47.558606, -26.274239 47.553219, -26.300792 47.547831, -26.327338 47.542440, -26.353874 47.537049, -26.380401 47.531655, -26.406920 47.526260, -26.433429 47.520864, -26.459930 47.515465, -26.486422 47.510066, -26.512905 47.504664, -26.539379 47.499262, -26.565843 47.493858, -26.592299 47.488452, -26.618746 47.483045, -26.645183 47.477637, -26.671612 47.472227, -26.698031 47.466816, -26.724442 47.461403, -26.750843 47.455989, -26.777235 47.450574, -26.803617 47.445158, -26.829991 47.439741, -26.856355 47.434322, -26.882710 47.428902, -26.909056 47.423481, -26.935392 47.418058, -26.961719 47.412635, -26.988037 47.407210, -27.014346 47.401785, -27.040645 47.396358, -27.066934 47.390930, -27.093214 47.385502, -27.119485 47.380072, -27.145746 47.374641, -27.171998 47.369209, -27.198241 47.363777, -27.224473 47.358343, -27.250697 47.352909, -27.276910 47.347474, -27.303114 47.342038, -27.329309 47.336601, -27.355494 47.331163, -27.381669 47.325725, -27.407835 47.320285, -27.433991 47.314845, -27.460137 47.309405, -27.486273 47.303963, -27.512400 47.298521, -27.538517 47.293079, -27.564625 47.287636, -27.590722 47.282192, -27.616810 47.276747, -27.642888 47.271302, -27.668956 47.265857, -27.695014 47.260411, -27.721062 47.254965, -27.747101 47.249518, -27.773129 47.244070, -27.799148 47.238623, -27.825156 47.233174, -27.851155 47.227726, -27.877144 47.222277, -27.903123 47.216828, -27.929091 47.211378, -27.955050 47.205929, -27.980998 47.200479, -28.006937 47.195029, -28.032865 47.189578, -28.058784 47.184128, -28.084692 47.178677, -28.110590 47.173226, -28.136478 47.167775, -28.162356 47.162324, -28.188223 47.156873, -28.214081 47.151421, -28.239928 47.145970, -28.265765 47.140519, -28.291592 47.135068, -28.317408 47.129617, -28.343214 47.124165, -28.369010 47.118714, -28.394796 47.113264, -28.420571 47.107813, -28.446336 47.102362, -28.472090 47.096912, -28.497834 47.091461, -28.523568 47.086011, -28.549291 47.080562, -28.575004 47.075112, -28.600706 47.069663, -28.626398 47.064214, -28.652080 47.058766, -28.677751 47.053318, -28.703411 47.047870, -28.729061 47.042422, -28.754701 47.036976, -28.780330 47.031529, -28.805948 47.026083, -28.831556 47.020638, -28.857153 47.015193, -28.882739 47.009748, -28.908315 47.004304, -28.933881 46.998861, -28.959435 46.993419, -28.984979 46.987977, -29.010513 46.982535, -29.036035 46.977095, -29.061547 46.971655, -29.087048 46.966215, -29.112539 46.960777, -29.138018 46.955339, -29.163487 46.949903, -29.188945 46.944466, -29.214393 46.939031, -29.239829 46.933597, -29.265255 46.928164, -29.290670 46.922731, -29.316074 46.917299, -29.341467 46.911869, -29.366849 46.906439, -29.392221 46.901011, -29.417581 46.895583, -29.442931 46.890157, -29.468269 46.884731, -29.493597 46.879307, -29.518914 46.873884, -29.544220 46.868461, -29.569514 46.863041, -29.594798 46.857621, -29.620071 46.852202, -29.645333 46.846785, -29.670583 46.841369, -29.695823 46.835954, -29.721052 46.830541, -29.746269 46.825129, -29.771476 46.819718, -29.796671 46.814309, -29.821856 46.808901, -29.847029 46.803495, -29.872191 46.798090, -29.897342 46.792686, -29.922482 46.787284, -29.947610 46.781883, -29.972728 46.776484, -29.997834 46.771087, -30.022929 46.765691, -30.048013 46.760297, -30.073085 46.754904, -30.098147 46.749513, -30.123197 46.744124, -30.148236 46.738736, -30.173263 46.733350, -30.198280 46.727966, -30.223285 46.722584, -30.248279 46.717203, -30.273261 46.711825, -30.298232 46.706448, -30.323192 46.701073, -30.348140 46.695700, -30.373077 46.690329, -30.398003 46.684959, -30.422917 46.679592, -30.447820 46.674227, -30.472712 46.668863, -30.497592 46.663502, -30.522461 46.658143, -30.547318 46.652786, -30.572164 46.647431, -30.596998 46.642078, -30.621821 46.636727, -30.646633 46.631378, -30.671433 46.626032, -30.696221 46.620688, -30.720998 46.615346, -30.745764 46.610006, -30.770518 46.604668, -30.795260 46.599333, -30.819991 46.594001, -30.844710 46.588670, -30.869418 46.583342, -30.894114 46.578016, -30.918799 46.572693, -30.943472 46.567372, -30.968134 46.562054, -30.992783 46.556738, -31.017422 46.551425, -31.042048 46.546114, -31.066663 46.540806, -31.091267 46.535500, -31.115859 46.530197, -31.140439 46.524897, -31.165007 46.519599, -31.189564 46.514304, -31.214109 46.509012, -31.238642 46.503722, -31.263164 46.498436, -31.287674 46.493152, -31.312172 46.487870, -31.336659 46.482592, -31.361133 46.477316, -31.385596 46.472044, -31.410048 46.466774, -31.434487 46.461507, -31.458915 46.456243, -31.483331 46.450982, -31.507735 46.445724, -31.532128 46.440469, -31.556509 46.435217, -31.580877 46.429968, -31.605234 46.424722, -31.629580 46.419479, -31.653913 46.414240, -31.678235 46.409003, -31.702544 46.403770, -31.726842 46.398540, -31.751128 46.393313, -31.775402 46.388089, -31.799665 46.382869, -31.823915 46.377652, -31.848154 46.372438, -31.872380 46.367228, -31.896595 46.362020, -31.920798 46.356817, -31.944989 46.351616, -31.969168 46.346420, -31.993335 46.341226, -32.017490 46.336036, -32.041634 46.330850, -32.065765 46.325667, -32.089884 46.320487, -32.113992 46.315312, -32.138087 46.310139, -32.162171 46.304971, -32.186242 46.299806, -32.210302 46.294645, -32.234349 46.289487, -32.258385 46.284333, -32.282408 46.279183, -32.306420 46.274037, -32.330419 46.268894, -32.354407 46.263755, -32.378382 46.258620, -32.402346 46.253489, -32.426297 46.248362, -32.450237 46.243238, -32.474164 46.238119, -32.498079 46.233003, -32.521983 46.227892, -32.545874 46.222784, -32.569753 46.217681, -32.593620 46.212581, -32.617475 46.207486, -32.641318 46.202394, -32.665149 46.197307, -32.688968 46.192224, -32.712774 46.187145, -32.736569 46.182070, -32.760351 46.177000, -32.784122 46.171933, -32.807880 46.166871, -32.831626 46.161813, -32.855360 46.156760, -32.879082 46.151711, -32.902792 46.146666, -32.926490 46.141625, -32.950175 46.136589, -32.973848 46.131557, -32.997510 46.126530, -33.021159 46.121507, -33.044795 46.116489, -33.068420 46.111475, -33.092033 46.106466, -33.115633 46.101461, -33.139221 46.096461, -33.162797 46.091465, -33.186361 46.086474, -33.209913 46.081488, -33.233453 46.076506, -33.256980 46.071529, -33.280495 46.066557, -33.303998 46.061589, -33.327489 46.056627, -33.350967 46.051669, -33.374433 46.046715, -33.397888 46.041767, -33.421329 46.036824, -33.444759 46.031885, -33.468177 46.026951, -33.491582 46.022023, -33.514975 46.017099, -33.538356 46.012180, -33.561724 46.007266, -33.585080 46.002357, -33.608424 45.997453, -33.631756 45.992555, -33.655076 45.987661, -33.678383 45.982773, -33.701678 45.977889, -33.724961 45.973011, -33.748232 45.968138, -33.771490 45.963270, -33.794736 45.958407, -33.817970 45.953550, -33.841192 45.948698, -33.864401 45.943851, -33.887598 45.939010, -33.910783 45.934174, -33.933955 45.929343, -33.957115 45.924518, -33.980263 45.919698, -34.003399 45.914883, -34.026522 45.910074, -34.049633 45.905271, -34.072732 45.900473, -34.095819 45.895680, -34.118893 45.890893, -34.141955 45.886112, -34.165005 45.881336, -34.188042 45.876566, -34.211067 45.871801, -34.234080 45.867043, -34.257080 45.862290, -34.280069 45.857542, -34.303045 45.852801, -34.326008 45.848065, -34.348959 45.843335, -34.371898 45.838610, -34.394825 45.833892, -34.417740 45.829179, -34.440642 45.824473, -34.463531 45.819772, -34.486409 45.815077, -34.509274 45.810388, -34.532127 45.805705, -34.554968 45.801028, -34.577796 45.796357, -34.600612 45.791692, -34.623415 45.787034, -34.646207 45.782381, -34.668986 45.777734, -34.691752 45.773094, -34.714507 45.768460, -34.737249 45.763832, -34.759979 45.759210, -34.782696 45.754594, -34.805401 45.749985, -34.828094 45.745382, -34.850775 45.740785, -34.873443 45.736194, -34.896099 45.731610, -34.918742 45.727033, -34.941373 45.722461, -34.963992 45.717896, -34.986599 45.713338, -35.009193 45.708786, -35.031775 45.704240, -35.054345 45.699701, -35.076902 45.695169, -35.099447 45.690643, -35.121980 45.686124, -35.144501 45.681611, -35.167009 45.677105, -35.189504 45.672605, -35.211988 45.668113, -35.234459 45.663626, -35.256918 45.659147, -35.279365 45.654675, -35.301799 45.650209, -35.324221 45.645750, -35.346630 45.641298, -35.369028 45.636852, -35.391413 45.632414, -35.413786 45.627982, -35.436146 45.623557, -35.458494 45.619140, -35.480830 45.614729, -35.503154 45.610325, -35.525465 45.605928, -35.547764 45.601538, -35.570051 45.597156, -35.592325 45.592780, -35.614587 45.588411, -35.636837 45.584050, -35.659074 45.579695, -35.681299 45.575348, -35.703512 45.571008, -35.725713 45.566676, -35.747901 45.562350, -35.770078 45.558032, -35.792241 45.553721, -35.814393 45.549417, -35.836532 45.545121, -35.858659 45.540832, -35.880774 45.536550, -35.902876 45.532276, -35.924966 45.528009, -35.947044 45.523750, -35.969110 45.519498, -35.991163 45.515254, -36.013205 45.511017, -36.035233 45.506788, -36.057250 45.502566, -36.079254 45.498352, -36.101246 45.494145, -36.123226 45.489946, -36.145194 45.485755, -36.167149 45.481571, -36.189093 45.477395, -36.211023 45.473227, -36.232942 45.469067, -36.254849 45.464914, -36.276743 45.460769, -36.298625 45.456632, -36.320494 45.452503, -36.342352 45.448382, -36.364197 45.444268, -36.386030 45.440163, -36.407851 45.436065, -36.429660 45.431976, -36.451457 45.427894, -36.473241 45.423820, -36.495013 45.419755, -36.516773 45.415697, -36.538520 45.411648, -36.560256 45.407606, -36.581979 45.403573, -36.603690 45.399548, -36.625389 45.395531, -36.647076 45.391522, -36.668751 45.387522, -36.690413 45.383530, -36.712063 45.379546, -36.733701 45.375570, -36.755327 45.371602, -36.776941 45.367643, -36.798543 45.363693, -36.820132 45.359750, -36.841710 45.355816, -36.863275 45.351891, -36.884828 45.347974, -36.906369 45.344065, -36.927897 45.340165, -36.949414 45.336273, -36.970919 45.332390, -36.992411 45.328516, -37.013891 45.324650, -37.035360 45.320793, -37.056816 45.316944, -37.078260 45.313104, -37.099692 45.309273, -37.121111 45.305450, -37.142519 45.301636, -37.163915 45.297831, -37.185298 45.294035, -37.206670 45.290247, -37.228029 45.286468, -37.249376 45.282699, -37.270712 45.278938, -37.292035 45.275185, -37.313346 45.271442, -37.334645 45.267708, -37.355932 45.263983, -37.377207 45.260266, -37.398470 45.256559, -37.419721 45.252861, -37.440960 45.249171, -37.462187 45.245491, -37.483402 45.241820, -37.504604 45.238158, -37.525795 45.234506, -37.546974 45.230862, -37.568141 45.227228, -37.589296 45.223602, -37.610439 45.219987, -37.631570 45.216380, -37.652689 45.212782, -37.673795 45.209194, -37.694890 45.205616, -37.715973 45.202046, -37.737044 45.198486, -37.758104 45.194936, -37.779151 45.191395, -37.800186 45.187863, -37.821209 45.184341, -37.842221 45.180828, -37.863220 45.177325, -37.884208 45.173831, -37.905183 45.170347, -37.926147 45.166872, -37.947099 45.163408, -37.968039 45.159952, -37.988967 45.156507, -38.009883 45.153071, -38.030787 45.149645, -38.051679 45.146228, -38.072560 45.142822, -38.093428 45.139425, -38.114285 45.136038, -38.135130 45.132660, -38.155963 45.129293, -38.176784 45.125935, -38.197594 45.122588, -38.218391 45.119250, -38.239177 45.115922, -38.259951 45.112604, -38.280713 45.109297, -38.301464 45.105999, -38.322202 45.102711, -38.342929 45.099433, -38.363644 45.096166, -38.384347 45.092908, -38.405039 45.089661, -38.425718 45.086424, -38.446386 45.083196, -38.467042 45.079980, -38.487687 45.076773, -38.508319 45.073577, -38.528940 45.070391, -38.549550 45.067215, -38.570147 45.064049, -38.590733 45.060894, -38.611307 45.057749, -38.631869 45.054615, -38.652420 45.051491, -38.672959 45.048378, -38.693487 45.045274, -38.714002 45.042182, -38.734506 45.039100, -38.754999 45.036028, -38.775479 45.032967, -38.795948 45.029917, -38.816406 45.026877, -38.836851 45.023848, -38.857286 45.020829, -38.877708 45.017822, -38.898119 45.014824, -38.918518 45.011838, -38.938906 45.008862, -38.959282 45.005897, -38.979647 45.002943, -39.000000 45.000000, -39.020336 44.997067, -39.040685 44.994138, -39.061047 44.991214, -39.081423 44.988294, -39.101813 44.985379, -39.122216 44.982468, -39.142633 44.979561, -39.163063 44.976659, -39.183506 44.973761, -39.203963 44.970867, -39.224433 44.967978, -39.244917 44.965092, -39.265414 44.962211, -39.285925 44.959334, -39.306449 44.956462, -39.326986 44.953594, -39.347537 44.950729, -39.368101 44.947869, -39.388678 44.945013, -39.409269 44.942162, -39.429873 44.939314, -39.450491 44.936471, -39.471122 44.933631, -39.491766 44.930796, -39.512423 44.927964, -39.533093 44.925137, -39.553777 44.922314, -39.574474 44.919494, -39.595185 44.916679, -39.615908 44.913868, -39.636645 44.911060, -39.657395 44.908257, -39.678159 44.905457, -39.698935 44.902661, -39.719725 44.899870, -39.740527 44.897082, -39.761343 44.894298, -39.782173 44.891517, -39.803015 44.888741, -39.823870 44.885968, -39.844739 44.883200, -39.865620 44.880434, -39.886515 44.877673, -39.907423 44.874916, -39.928344 44.872162, -39.949277 44.869412, -39.970224 44.866665, -39.991184 44.863922, -40.012158 44.861183, -40.033144 44.858448, -40.054143 44.855716, -40.075155 44.852988, -40.096180 44.850263, -40.117218 44.847542, -40.138269 44.844824, -40.159333 44.842110, -40.180410 44.839400, -40.201500 44.836693, -40.222602 44.833990, -40.243718 44.831290, -40.264847 44.828593, -40.285988 44.825900, -40.307142 44.823211, -40.328309 44.820524, -40.349490 44.817842, -40.370682 44.815162, -40.391888 44.812486, -40.413107 44.809814, -40.434338 44.807144, -40.455582 44.804478, -40.476839 44.801816, -40.498109 44.799156, -40.519391 44.796500, -40.540686 44.793847, -40.561994 44.791198, -40.583315 44.788551, -40.604648 44.785908, -40.625994 44.783268, -40.647353 44.780631, -40.668724 44.777997, -40.690108 44.775367, -40.711505 44.772740, -40.732915 44.770115, -40.754337 44.767494, -40.775771 44.764876, -40.797218 44.762261, -40.818678 44.759649, -40.840151 44.757040, -40.861636 44.754434, -40.883133 44.751832, -40.904643 44.749232, -40.926166 44.746635, -40.947701 44.744041, -40.969249 44.741450, -40.990809 44.738862, -41.012382 44.736277, -41.033967 44.733695, -41.055564 44.731115, -41.077174 44.728539, -41.098797 44.725965, -41.120432 44.723394, -41.142079 44.720826, -41.163739 44.718261, -41.185411 44.715699, -41.207095 44.713139, -41.228792 44.710582, -41.250501 44.708028, -41.272223 44.705477, -41.293956 44.702928, -41.315702 44.700382, -41.337461 44.697839, -41.359232 44.695299, -41.381015 44.692761, -41.402810 44.690225, -41.424617 44.687693, -41.446437 44.685163, -41.468269 44.682635, -41.490113 44.680110, -41.511970 44.677588, -41.533838 44.675068, -41.555719 44.672551, -41.577612 44.670036, -41.599517 44.667524, -41.621434 44.665014, -41.643363 44.662507, -41.665304 44.660002, -41.687258 44.657500, -41.709223 44.655000, -41.731201 44.652502, -41.753191 44.650007, -41.775192 44.647514, -41.797206 44.645024, -41.819232 44.642536, -41.841270 44.640050, -41.863319 44.637567, -41.885381 44.635086, -41.907455 44.632607, -41.929540 44.630130, -41.951638 44.627656, -41.973747 44.625184, -41.995869 44.622714, -42.018002 44.620247, -42.040147 44.617781, -42.062304 44.615318, -42.084473 44.612857, -42.106653 44.610398, -42.128846 44.607941, -42.151050 44.605487, -42.173266 44.603034, -42.195494 44.600584, -42.217734 44.598136, -42.239985 44.595689, -42.262248 44.593245, -42.284523 44.590803, -42.306810 44.588363, -42.329108 44.585925, -42.351418 44.583489, -42.373740 44.581055, -42.396073 44.578622, -42.418418 44.576192, -42.440775 44.573764, -42.463143 44.571337, -42.485523 44.568913, -42.507914 44.566490, -42.530317 44.564070, -42.552731 44.561651, -42.575157 44.559234, -42.597595 44.556819, -42.620044 44.554405, -42.642505 44.551994, -42.664977 44.549584, -42.687460 44.547176, -42.709955 44.544770, -42.732462 44.542365, -42.754980 44.539962, -42.777509 44.537561, -42.800049 44.535162, -42.822601 44.532764, -42.845165 44.530368, -42.867740 44.527974, -42.890326 44.525581, -42.912923 44.523190, -42.935532 44.520801, -42.958152 44.518413, -42.980783 44.516026, -43.003426 44.513642, -43.026080 44.511259, -43.048745 44.508877, -43.071421 44.506497, -43.094109 44.504118, -43.116807 44.501741, -43.139517 44.499366, -43.162238 44.496991, -43.184970 44.494619, -43.207714 44.492248, -43.230468 44.489878, -43.253233 44.487509, -43.276010 44.485142, -43.298798 44.482777, -43.321596 44.480413, -43.344406 44.478050, -43.367227 44.475688, -43.390059 44.473328, -43.412901 44.470969, -43.435755 44.468611, -43.458620 44.466255, -43.481495 44.463900, -43.504382 44.461546, -43.527279 44.459194, -43.550188 44.456842, -43.573107 44.454492, -43.596037 44.452143, -43.618978 44.449796, -43.641930 44.447449, -43.664892 44.445104, -43.687866 44.442760, -43.710850 44.440416, -43.733845 44.438075, -43.756850 44.435734, -43.779867 44.433394, -43.802894 44.431055, -43.825932 44.428717, -43.848980 44.426381, -43.872040 44.424045, -43.895109 44.421711, -43.918190 44.419377, -43.941281 44.417045, -43.964383 44.414713, -43.987495 44.412382, -44.010618 44.410053, -44.033752 44.407724, -44.056896 44.405396, -44.080050 44.403069, -44.103215 44.400743, -44.126391 44.398418, -44.149577 44.396094, -44.172773 44.393771, -44.195980 44.391448, -44.219197 44.389126, -44.242425 44.386805, -44.265663 44.384485, -44.288912 44.382166, -44.312171 44.379847, -44.335440 44.377530, -44.358719 44.375213, -44.382009 44.372896, -44.405309 44.370581, -44.428620 44.368266, -44.451940 44.365952, -44.475271 44.363638, -44.498612 44.361325, -44.521963 44.359013, -44.545325 44.356702, -44.568697 44.354391, -44.592078 44.352080, -44.615470 44.349771, -44.638872 44.347461, -44.662285 44.345153, -44.685707 44.342845, -44.709139 44.340537, -44.732582 44.338230, -44.756034 44.335924, -44.779496 44.333618, -44.802969 44.331313, -44.826451 44.329008, -44.849944 44.326703, -44.873446 44.324399, -44.896958 44.322096, -44.920480 44.319792, -44.944012 44.317490, -44.967554 44.315187, -44.991106 44.312885, -45.014667 44.310584, -45.038239 44.308282, -45.061820 44.305982, -45.085411 44.303681, -45.109012 44.301381, -45.132622 44.299081, -45.156242 44.296781, -45.179872 44.294482, -45.203512 44.292183, -45.227161 44.289884, -45.250820 44.287585, -45.274489 44.285287, -45.298167 44.282989, -45.321855 44.280691, -45.345552 44.278393, -45.369259 44.276095, -45.392975 44.273798, -45.416701 44.271501, -45.440437 44.269203, -45.464182 44.266906, -45.487936 44.264610, -45.511700 44.262313, -45.535474 44.260016, -45.559257 44.257719, -45.583049 44.255423, -45.606850 44.253126, -45.630661 44.250830, -45.654481 44.248533, -45.678311 44.246237, -45.702150 44.243940, -45.725998 44.241644, -45.749855 44.239347, -45.773722 44.237051, -45.797598 44.234754, -45.821483 44.232458, -45.845377 44.230161, -45.869281 44.227864, -45.893193 44.225567, -45.917115 44.223270, -45.941046 44.220973, -45.964986 44.218675, -45.988935 44.216378, -46.012893 44.214080, -46.036860 44.211782, -46.060836 44.209484, -46.084821 44.207186, -46.108815 44.204888, -46.132818 44.202589, -46.156830 44.200290, -46.180851 44.197991, -46.204881 44.195692, -46.228920 44.193392, -46.252967 44.191092, -46.277024 44.188792, -46.301089 44.186491, -46.325163 44.184190, -46.349245 44.181889, -46.373337 44.179587, -46.397437 44.177285, -46.421546 44.174983, -46.445664 44.172680, -46.469790 44.170377, -46.493925 44.168073, -46.518069 44.165769, -46.542221 44.163465, -46.566382 44.161160, -46.590551 44.158855, -46.614729 44.156549, -46.638916 44.154243, -46.663111 44.151936, -46.687314 44.149628, -46.711526 44.147321, -46.735747 44.145012, -46.759976 44.142703, -46.784213 44.140394, -46.808459 44.138084, -46.832713 44.135773, -46.856975 44.133462, -46.881246 44.131150, -46.905525 44.128838, -46.929812 44.126525, -46.954108 44.124211, -46.978412 44.121897, -47.002724 44.119582, -47.027044 44.117266, -47.051373 44.114950, -47.075709 44.112633, -47.100054 44.110315, -47.124407 44.107997, -47.148768 44.105677, -47.173137 44.103357, -47.197514 44.101037, -47.221899 44.098715, -47.246293 44.096393, -47.270694 44.094070, -47.295103 44.091746, -47.319520 44.089421, -47.343945 44.087096, -47.368378 44.084769, -47.392819 44.082442, -47.417268 44.080114, -47.441724 44.077785, -47.466189 44.075455, -47.490661 44.073125, -47.515141 44.070793, -47.539629 44.068460, -47.564124 44.066127, -47.588628 44.063793, -47.613139 44.061457, -47.637657 44.059121, -47.662183 44.056784, -47.686717 44.054445, -47.711259 44.052106, -47.735808 44.049766, -47.760364 44.047424, -47.784929 44.045082, -47.809500 44.042739, -47.834079 44.040394, -47.858666 44.038049, -47.883260 44.035702, -47.907862 44.033355, -47.932471 44.031006, -47.957087 44.028656, -47.981711 44.026305, -48.006342 44.023953, -48.030980 44.021600, -48.055626 44.019245, -48.080279 44.016890, -48.104939 44.014533, -48.129606 44.012175, -48.154281 44.009816, -48.178963 44.007455, -48.203652 44.005094, -48.228348 44.002731, -48.253051 44.000367, -48.277762 43.998002, -48.302479 43.995635, -48.327203 43.993268, -48.351935 43.990898, -48.376673 43.988528, -48.401419 43.986156, -48.426171 43.983783, -48.450931 43.981409, -48.475697 43.979033, -48.500470 43.976656, -48.525250 43.974278, -48.550037 43.971898, -48.574831 43.969517, -48.599631 43.967135, -48.624438 43.964751, -48.649252 43.962365, -48.674073 43.959979, -48.698901 43.957591, -48.723735 43.955201, -48.748576 43.952810, -48.773423 43.950417, -48.798277 43.948023, -48.823138 43.945628, -48.848005 43.943231, -48.872879 43.940832, -48.897759 43.938432, -48.922646 43.936031, -48.947539 43.933628, -48.972438 43.931223, -48.997345 43.928817, -49.022257 43.926409, -49.047176 43.924000, -49.072101 43.921589, -49.097033 43.919177, -49.121970 43.916763, -49.146915 43.914347, -49.171865 43.911930, -49.196821 43.909511, -49.221784 43.907090, -49.246753 43.904668, -49.271728 43.902244, -49.296710 43.899818, -49.321697 43.897391, -49.346691 43.894962, -49.371690 43.892531, -49.396696 43.890099, -49.421707 43.887665, -49.446725 43.885229, -49.471748 43.882791, -49.496778 43.880352, -49.521813 43.877911, -49.546855 43.875468, -49.571902 43.873023, -49.596955 43.870577, -49.622014 43.868128, -49.647078 43.865678, -49.672149 43.863226, -49.697225 43.860772, -49.722307 43.858317, -49.747394 43.855859, -49.772487 43.853400, -49.797586 43.850939, -49.822691 43.848476, -49.847801 43.846011, -49.872917 43.843544, -49.898038 43.841075, -49.923165 43.838604, -49.948297 43.836132, -49.973435 43.833657, -49.998578 43.831181, -50.023726 43.828702, -50.048880 43.826222, -50.074040 43.823739, -50.099204 43.821255, -50.124374 43.818769, -50.149550 43.816280, -50.174730 43.813790, -50.199916 43.811297, -50.225107 43.808803, -50.250303 43.806306, -50.275505 43.803808, -50.300711 43.801307, -50.325923 43.798804, -50.351140 43.796300, -50.376362 43.793793, -50.401588 43.791284, -50.426820 43.788773, -50.452057 43.786260, -50.477299 43.783744, -50.502546 43.781227, -50.527798 43.778708, -50.553054 43.776186, -50.578316 43.773662, -50.603582 43.771136, -50.628853 43.768608, -50.654129 43.766077, -50.679409 43.763545, -50.704695 43.761010, -50.729985 43.758473, -50.755280 43.755934, -50.780579 43.753393, -50.805883 43.750849, -50.831192 43.748303, -50.856505 43.745755, -50.881823 43.743204, -50.907145 43.740652, -50.932472 43.738097, -50.957803 43.735540, -50.983139 43.732980, -51.008479 43.730418, -51.033824 43.727854, -51.059172 43.725287, -51.084526 43.722719, -51.109883 43.720147, -51.135245 43.717574, -51.160611 43.714998, -51.185982 43.712420, -51.211356 43.709839, -51.236735 43.707256, -51.262118 43.704671, -51.287505 43.702083, -51.312896 43.699493, -51.338291 43.696901, -51.363690 43.694306, -51.389093 43.691708, -51.414501 43.689108, -51.439912 43.686506, -51.465327 43.683901, -51.490746 43.681294, -51.516169 43.678684, -51.541596 43.676072, -51.567027 43.673458, -51.592461 43.670840, -51.617899 43.668221, -51.643341 43.665599, -51.668787 43.662974, -51.694236 43.660347, -51.719689 43.657717, -51.745146 43.655085, -51.770606 43.652450, -51.796070 43.649813, -51.821538 43.647173, -51.847009 43.644530, -51.872483 43.641885, -51.897961 43.639238, -51.923443 43.636587, -51.948928 43.633934, -51.974416 43.631279, -51.999908 43.628621, -52.025402 43.625960, -52.050901 43.623297, -52.076402 43.620631, -52.101907 43.617962, -52.127415 43.615291, -52.152927 43.612617, -52.178441 43.609940, -52.203959 43.607261, -52.229479 43.604579, -52.255003 43.601895, -52.280530 43.599207, -52.306060 43.596517, -52.331593 43.593824, -52.357129 43.591129, -52.382668 43.588431, -52.408209 43.585730, -52.433754 43.583026, -52.459302 43.580320, -52.484852 43.577610, -52.510405 43.574898, -52.535961 43.572184, -52.561520 43.569466, -52.587082 43.566746, -52.612646 43.564023, -52.638213 43.561297, -52.663782 43.558568, -52.689354 43.555837, -52.714929 43.553103, -52.740506 43.550365, -52.766086 43.547626, -52.791668 43.544883, -52.817253 43.542137, -52.842840 43.539389, -52.868430 43.536637, -52.894022 43.533883, -52.919616 43.531126, -52.945213 43.528366, -52.970812 43.525603, -52.996413 43.522837, -53.022017 43.520069, -53.047623 43.517297, -53.073231 43.514523, -53.098841 43.511745, -53.124453 43.508965, -53.150068 43.506182, -53.175684 43.503396, -53.201302 43.500607, -53.226923 43.497815, -53.252545 43.495020, -53.278170 43.492222, -53.303796 43.489421, -53.329425 43.486617, -53.355055 43.483810, -53.380687 43.481000, -53.406321 43.478187, -53.431956 43.475371, -53.457594 43.472552, -53.483233 43.469731, -53.508873 43.466906, -53.534516 43.464078, -53.560160 43.461247, -53.585806 43.458413, -53.611453 43.455576, -53.637102 43.452736, -53.662752 43.449892, -53.688404 43.447046, -53.714058 43.444197, -53.739712 43.441345, -53.765368 43.438489, -53.791026 43.435631, -53.816685 43.432769, -53.842345 43.429905, -53.868007 43.427037, -53.893670 43.424166, -53.919334 43.421292, -53.944999 43.418415, -53.970665 43.415535, -53.996333 43.412651, -54.022001 43.409765, -54.047671 43.406875, -54.073342 43.403982, -54.099014 43.401087, -54.124686 43.398187, -54.150360 43.395285, -54.176035 43.392380, -54.201711 43.389471, -54.227387 43.386560, -54.253064 43.383645, -54.278743 43.380726, -54.304422 43.377805, -54.330101 43.374881, -54.355782 43.371953, -54.381463 43.369022, -54.407145 43.366088, -54.432827 43.363151, -54.458510 43.360210, -54.484194 43.357266, -54.509878 43.354319, -54.535563 43.351369, -54.561248 43.348416, -54.586933 43.345459, -54.612619 43.342499, -54.638306 43.339536, -54.663993 43.336569, -54.689680 43.333599, -54.715367 43.330626, -54.741055 43.327650, -54.766743 43.324670, -54.792431 43.321687, -54.818120 43.318701, -54.843808 43.315712, -54.869497 43.312719, -54.895186 43.309723, -54.920875 43.306723, -54.946564 43.303721, -54.972252 43.300715, -54.997941 43.297705, -55.023630 43.294693, -55.049319 43.291677, -55.075008 43.288657, -55.100696 43.285634, -55.126384 43.282608, -55.152072 43.279579, -55.177760 43.276546, -55.203448 43.273510, -55.229135 43.270471, -55.254822 43.267428, -55.280509 43.264382, -55.306195 43.261332, -55.331881 43.258279, -55.357566 43.255223, -55.383251 43.252163, -55.408935 43.249100, -55.434619 43.246033, -55.460302 43.242964, -55.485985 43.239890, -55.511667 43.236813, -55.537348 43.233733, -55.563029 43.230650, -55.588709 43.227563, -55.614388 43.224472, -55.640066 43.221379, -55.665744 43.218281, -55.691420 43.215181, -55.717096 43.212077, -55.742771 43.208969, -55.768445 43.205858, -55.794118 43.202744, -55.819790 43.199626, -55.845461 43.196504, -55.871131 43.193379, -55.896800 43.190251, -55.922467 43.187119, -55.948134 43.183984, -55.973799 43.180845, -55.999463 43.177703, -56.025126 43.174558, -56.050787 43.171408, -56.076448 43.168256, -56.102106 43.165100, -56.127764 43.161940, -56.153420 43.158777, -56.179075 43.155610, -56.204728 43.152440, -56.230380 43.149267, -56.256030 43.146090, -56.281678 43.142909, -56.307325 43.139725, -56.332971 43.136537, -56.358614 43.133346, -56.384256 43.130151, -56.409897 43.126953, -56.435535 43.123751, -56.461172 43.120546, -56.486807 43.117337, -56.512440 43.114124, -56.538071 43.110909, -56.563701 43.107689, -56.589328 43.104466, -56.614953 43.101239, -56.640577 43.098009, -56.666198 43.094776, -56.691817 43.091538, -56.717435 43.088297, -56.743050 43.085053, -56.768663 43.081805, -56.794273 43.078554, -56.819882 43.075299, -56.845488 43.072040, -56.871092 43.068778, -56.896694 43.065512, -56.922293 43.062242, -56.947890 43.058969, -56.973485 43.055693, -56.999077 43.052413, -57.024666 43.049129, -57.050253 43.045842, -57.075838 43.042551, -57.101420 43.039256, -57.126999 43.035958, -57.152576 43.032656, -57.178150 43.029351, -57.203722 43.026042, -57.229290 43.022729, -57.254856 43.019413, -57.280419 43.016093, -57.305980 43.012770, -57.331537 43.009443, -57.357092 43.006112, -57.382643 43.002778, -57.408192 42.999440, -57.433738 42.996099, -57.459281 42.992753, -57.484820 42.989405, -57.510357 42.986052, -57.535890 42.982696, -57.561421 42.979337, -57.586948 42.975973, -57.612472 42.972606, -57.637993 42.969236, -57.663510 42.965861, -57.689024 42.962484, -57.714535 42.959102, -57.740043 42.955717, -57.765547 42.952328, -57.791047 42.948936, -57.816545 42.945540, -57.842038 42.942140, -57.867529 42.938737, -57.893015 42.935329, -57.918498 42.931919, -57.943978 42.928504, -57.969454 42.925086, -57.994926 42.921665, -58.020394 42.918239, -58.045859 42.914810, -58.071320 42.911378, -58.096777 42.907941, -58.122230 42.904501, -58.147679 42.901058, -58.173125 42.897611, -58.198566 42.894160, -58.224004 42.890705, -58.249437 42.887247, -58.274867 42.883785, -58.300292 42.880319, -58.325714 42.876850, -58.351131 42.873377, -58.376544 42.869900, -58.401953 42.866420, -58.427358 42.862936, -58.452758 42.859448, -58.478154 42.855957, -58.503546 42.852461, -58.528933 42.848963, -58.554316 42.845460, -58.579695 42.841954, -58.605069 42.838444, -58.630439 42.834931, -58.655804 42.831414, -58.681165 42.827893, -58.706521 42.824369, -58.731872 42.820840, -58.757219 42.817309, -58.782561 42.813773, -58.807899 42.810234, -58.833231 42.806691, -58.858559 42.803144, -58.883882 42.799594, -58.909201 42.796040, -58.934514 42.792482, -58.959823 42.788921, -58.985126 42.785356, -59.010425 42.781787, -59.035718 42.778215, -59.061007 42.774639, -59.086291 42.771059, -59.111569 42.767476, -59.136842 42.763889, -59.162111 42.760298, -59.187373 42.756703, -59.212631 42.753105, -59.237884 42.749503, -59.263131 42.745898, -59.288373 42.742288, -59.313609 42.738676, -59.338841 42.735059, -59.364066 42.731439, -59.389287 42.727815, -59.414502 42.724187, -59.439711 42.720556, -59.464915 42.716921, -59.490113 42.713282, -59.515306 42.709640, -59.540493 42.705994, -59.565674 42.702344, -59.590849 42.698690, -59.616019 42.695033, -59.641183 42.691373, -59.666342 42.687708, -59.691494 42.684040, -59.716641 42.680368, -59.741781 42.676693, -59.766916 42.673013, -59.792045 42.669331, -59.817168 42.665644, -59.842285 42.661954, -59.867395 42.658260, -59.892500 42.654563, -59.917598 42.650861, -59.942691 42.647157, -59.967777 42.643448, -59.992857 42.639736, -60.017931 42.636020, -60.042998 42.632300, -60.068059 42.628577, -60.093114 42.624850, -60.118162 42.621120, -60.143204 42.617386, -60.168240 42.613648, -60.193269 42.609906, -60.218291 42.606161, -60.243307 42.602412, -60.268317 42.598660, -60.293320 42.594904, -60.318316 42.591144, -60.343305 42.587380, -60.368288 42.583613, -60.393264 42.579843, -60.418234 42.576068, -60.443196 42.572290, -60.468152 42.568509, -60.493101 42.564723, -60.518043 42.560934, -60.542978 42.557142, -60.567906 42.553345, -60.592827 42.549546, -60.617741 42.545742, -60.642648 42.541935, -60.667548 42.538124, -60.692440 42.534310, -60.717326 42.530492, -60.742204 42.526670, -60.767076 42.522845, -60.791940 42.519016, -60.816796 42.515183, -60.841646 42.511347, -60.866488 42.507508, -60.891322 42.503664, -60.916150 42.499817, -60.940969 42.495967, -60.965782 42.492112, -60.990586 42.488255, -61.015384 42.484393, -61.040173 42.480528, -61.064956 42.476660, -61.089730 42.472787, -61.114497 42.468912, -61.139256 42.465032, -61.164007 42.461149, -61.188751 42.457263, -61.213487 42.453372, -61.238215 42.449479, -61.262935 42.445581, -61.287647 42.441680, -61.312352 42.437776, -61.337048 42.433868, -61.361736 42.429956, -61.386417 42.426041, -61.411089 42.422122, -61.435753 42.418200, -61.460409 42.414274, -61.485057 42.410344, -61.509697 42.406411, -61.534329 42.402475, -61.558952 42.398535, -61.583567 42.394591, -61.608174 42.390644, -61.632772 42.386693, -61.657362 42.382739, -61.681944 42.378781, -61.706517 42.374819, -61.731082 42.370854, -61.755638 42.366886, -61.780186 42.362914, -61.804725 42.358939, -61.829256 42.354960, -61.853778 42.350977, -61.878291 42.346991, -61.902796 42.343001, -61.927292 42.339008, -61.951779 42.335012, -61.976257 42.331012, -62.000727 42.327008, -62.025187 42.323001, -62.049639 42.318990, -62.074082 42.314976, -62.098516 42.310959, -62.122941 42.306938, -62.147357 42.302913, -62.171764 42.298885, -62.196162 42.294854, -62.220550 42.290819, -62.244930 42.286780, -62.269301 42.282738, -62.293662 42.278693, -62.318014 42.274644, -62.342357 42.270592, -62.366690 42.266536, -62.391014 42.262477, -62.415329 42.258414, -62.439634 42.254348, -62.463930 42.250279, -62.488217 42.246206, -62.512494 42.242130, -62.536762 42.238050, -62.561020 42.233967, -62.585268 42.229880, -62.609507 42.225790, -62.633736 42.221697, -62.657956 42.217600, -62.682165 42.213500, -62.706365 42.209396, -62.730556 42.205289, -62.754736 42.201178, -62.778907 42.197065, -62.803068 42.192947, -62.827219 42.188827, -62.851360 42.184703, -62.875491 42.180576, -62.899612 42.176445, -62.923723 42.172311, -62.947824 42.168173, -62.971915 42.164033, -62.995995 42.159889, -63.020066 42.155741, -63.044127 42.151590, -63.068177 42.147436, -63.092217 42.143279, -63.116247 42.139118, -63.140266 42.134954, -63.164275 42.130786, -63.188274 42.126616, -63.212262 42.122441, -63.236240 42.118264, -63.260208 42.114083, -63.284165 42.109899, -63.308111 42.105712, -63.332047 42.101521, -63.355973 42.097328, -63.379887 42.093130, -63.403792 42.088930, -63.427685 42.084726, -63.451568 42.080519, -63.475440 42.076309, -63.499301 42.072096, -63.523151 42.067879, -63.546991 42.063659, -63.570820 42.059436, -63.594637 42.055209, -63.618444 42.050980, -63.642240 42.046747, -63.666025 42.042510, -63.689799 42.038271, -63.713562 42.034028, -63.737314 42.029783, -63.761055 42.025534, -63.784784 42.021281, -63.808503 42.017026, -63.832210 42.012767, -63.855906 42.008506, -63.879591 42.004241, -63.903264 41.999972, -63.926926 41.995701, -63.950577 41.991427, -63.974216 41.987149, -63.997844 41.982868, -64.021461 41.978584, -64.045066 41.974297, -64.068659 41.970007, -64.092241 41.965713, -64.115812 41.961417, -64.139370 41.957117, -64.162918 41.952815, -64.186453 41.948509, -64.209977 41.944200, -64.233489 41.939888, -64.256989 41.935572, -64.280478 41.931254, -64.303954 41.926933, -64.327419 41.922608, -64.350872 41.918281, -64.374313 41.913950, -64.397743 41.909617, -64.421160 41.905280, -64.444565 41.900940, -64.467958 41.896597, -64.491339 41.892251, -64.514708 41.887903, -64.538065 41.883551, -64.561410 41.879196, -64.584742 41.874838, -64.608063 41.870477, -64.631371 41.866113, -64.654667 41.861746, -64.677950 41.857376, -64.701221 41.853003, -64.724480 41.848627, -64.747727 41.844248, -64.770961 41.839866, -64.794182 41.835481, -64.817391 41.831093, -64.840588 41.826702, -64.863772 41.822308, -64.886943 41.817912, -64.910102 41.813512, -64.933248 41.809109, -64.956382 41.804704, -64.979503 41.800295, -65.002611 41.795884, -65.025706 41.791470, -65.048789 41.787053, -65.071858 41.782632, -65.094915 41.778209, -65.117959 41.773784, -65.140991 41.769355, -65.164009 41.764923, -65.187014 41.760489, -65.210006 41.756051, -65.232985 41.751611, -65.255952 41.747168, -65.278905 41.742722, -65.301845 41.738274, -65.324772 41.733822, -65.347685 41.729368, -65.370586 41.724911, -65.393473 41.720451, -65.416347 41.715988, -65.439208 41.711522, -65.462055 41.707054, -65.484889 41.702583, -65.507710 41.698109, -65.530517 41.693632, -65.553311 41.689152, -65.576091 41.684670, -65.598858 41.680185, -65.621611 41.675697, -65.644351 41.671207, -65.667077 41.666714, -65.689789 41.662218, -65.712488 41.657719, -65.735173 41.653218, -65.757845 41.648714, -65.780503 41.644207, -65.803147 41.639698, -65.825777 41.635185, -65.848393 41.630671, -65.870996 41.626153, -65.893585 41.621633, -65.916159 41.617110, -65.938720 41.612585, -65.961267 41.608056, -65.983800 41.603526, -66.006319 41.598992, -66.028823 41.594456, -66.051314 41.589918, -66.073791 41.585376, -66.096253 41.580833, -66.118701 41.576286, -66.141136 41.571737, -66.163555 41.567186, -66.185961 41.562631, -66.208352 41.558075, -66.230729 41.553515, -66.253092 41.548953, -66.275440 41.544389, -66.297774 41.539822, -66.320093 41.535253, -66.342398 41.530681, -66.364689 41.526106, -66.386965 41.521529, -66.409226 41.516949, -66.431473 41.512367, -66.453706 41.507783, -66.475923 41.503196, -66.498126 41.498606, -66.520314 41.494014, -66.542488 41.489420, -66.564647 41.484823, -66.586791 41.480224, -66.608920 41.475622, -66.631034 41.471018, -66.653134 41.466411, -66.675219 41.461802, -66.697288 41.457191, -66.719343 41.452577, -66.741383 41.447961, -66.763408 41.443342, -66.785418 41.438721, -66.807412 41.434098, -66.829392 41.429472, -66.851357 41.424844, -66.873306 41.420214, -66.895240 41.415581, -66.917159 41.410946, -66.939063 41.406308, -66.960952 41.401668, -66.982825 41.397026, -67.004683 41.392382, -67.026526 41.387735, -67.048353 41.383086, -67.070165 41.378435, -67.091961 41.373782, -67.113742 41.369126, -67.135508 41.364468, -67.157258 41.359808, -67.178992 41.355145, -67.200711 41.350480, -67.222414 41.345813, -67.244102 41.341144, -67.265774 41.336473, -67.287430 41.331799, -67.309071 41.327123, -67.330696 41.322445, -67.352305 41.317765, -67.373899 41.313083, -67.395476 41.308398, -67.417038 41.303712, -67.438584 41.299023, -67.460114 41.294332, -67.481628 41.289639, -67.503126 41.284943, -67.524608 41.280246, -67.546074 41.275547, -67.567524 41.270845, -67.588958 41.266142, -67.610376 41.261436, -67.631778 41.256728, -67.653164 41.252018, -67.674534 41.247306, -67.695887 41.242592, -67.717224 41.237876, -67.738545 41.233158, -67.759849 41.228438, -67.781138 41.223716, -67.802410 41.218992, -67.823665 41.214266, -67.844904 41.209538, -67.866127 41.204808, -67.887334 41.200076, -67.908524 41.195342, -67.929697 41.190606, -67.950854 41.185868, -67.971994 41.181128, -67.993118 41.176386, -68.014225 41.171642, -68.035316 41.166897, -68.056389 41.162149, -68.077447 41.157400, -68.098487 41.152648, -68.119511 41.147895, -68.140518 41.143140, -68.161508 41.138383, -68.182481 41.133624, -68.203438 41.128863, -68.224378 41.124101, -68.245300 41.119336, -68.266206 41.114570, -68.287095 41.109802, -68.307967 41.105032, -68.328822 41.100261, -68.349660 41.095487, -68.370481 41.090712, -68.391284 41.085935, -68.412071 41.081156, -68.432841 41.076376, -68.453593 41.071593, -68.474328 41.066809, -68.495046 41.062024, -68.515747 41.057236, -68.536430 41.052447, -68.557096 41.047656, -68.577745 41.042863, -68.598377 41.038069, -68.618991 41.033273, -68.639588 41.028475, -68.660167 41.023676, -68.680729 41.018875, -68.701273 41.014073, -68.721800 41.009268, -68.742309 41.004462, -68.762801 40.999655, -68.783275 40.994846, -68.803732 40.990035, -68.824171 40.985223, -68.844592 40.980409, -68.864996 40.975593, -68.885382 40.970776, -68.905750 40.965958, -68.926101 40.961138, -68.946433 40.956316, -68.966748 40.951493, -68.987045 40.946668, -69.007324 40.941842, -69.027586 40.937014, -69.047829 40.932185, -69.068054 40.927354, -69.088262 40.922522, -69.108451 40.917688, -69.128623 40.912853, -69.148776 40.908016, -69.168912 40.903178, -69.189029 40.898338, -69.209128 40.893498, -69.229209 40.888655, -69.249272 40.883811, -69.269317 40.878966, -69.289343 40.874120, -69.309351 40.869272, -69.329341 40.864422, -69.349313 40.859572, -69.369266 40.854720, -69.389201 40.849866, -69.409118 40.845012, -69.429016 40.840156, -69.448896 40.835298, -69.468757 40.830440, -69.488600 40.825580, -69.508424 40.820718, -69.528230 40.815856, -69.548018 40.810992, -69.567786 40.806127, -69.587537 40.801261, -69.607268 40.796393, -69.626981 40.791524, -69.646675 40.786654, -69.666351 40.781783, -69.686008 40.776911, -69.705646 40.772037, -69.725265 40.767162, -69.744866 40.762286, -69.764448 40.757409, -69.784010 40.752531, -69.803554 40.747651, -69.823080 40.742770, -69.842586 40.737889, -69.862073 40.733006, -69.881542 40.728122, -69.900991 40.723237, -69.920421 40.718350, -69.939833 40.713463, -69.959225 40.708575, -69.978598 40.703685, -69.997952 40.698795, -70.017287 40.693903, -70.036603 40.689010, -70.055899 40.684117, -70.075177 40.679222, -70.094435 40.674326, -70.113674 40.669430, -70.132893 40.664532, -70.152094 40.659633, -70.171275 40.654733, -70.190436 40.649833, -70.209579 40.644931, -70.228702 40.640029, -70.247805 40.635125, -70.266889 40.630221, -70.285954 40.625315, -70.304999 40.620409, -70.324024 40.615502, -70.343030 40.610594, -70.362017 40.605685, -70.380984 40.600775, -70.399931 40.595865, -70.418858 40.590953, -70.437766 40.586041, -70.456655 40.581127, -70.475523 40.576213, -70.494372 40.571299, -70.513201 40.566383, -70.532011 40.561466, -70.550800 40.556549, -70.569570 40.551631, -70.588320 40.546712, -70.607050 40.541793, -70.625760 40.536873, -70.644450 40.531951, -70.663120 40.527030, -70.681770 40.522107, -70.700401 40.517184, -70.719011 40.512260, -70.737601 40.507335, -70.756172 40.502410, -70.774722 40.497484, -70.793252 40.492557, -70.811762 40.487630, -70.830251 40.482702, -70.848721 40.477774, -70.867170 40.472844, -70.885599 40.467914, -70.904008 40.462984, -70.922397 40.458053, -70.940765 40.453121, -70.959113 40.448189, -70.977441 40.443256, -70.995749 40.438323, -71.014036 40.433389, -71.032302 40.428455, -71.050548 40.423520, -71.068774 40.418584, -71.086979 40.413648, -71.105164 40.408712, -71.123328 40.403775, -71.141472 40.398837, -71.159595 40.393899, -71.177698 40.388961, -71.195780 40.384022, -71.213841 40.379082, -71.231882 40.374143, -71.249902 40.369202, -71.267902 40.364262, -71.285880 40.359321, -71.303838 40.354379, -71.321775 40.349438, -71.339692 40.344495, -71.357587 40.339553, -71.375462 40.334610, -71.393316 40.329667, -71.411149 40.324723, -71.428961 40.319779, -71.446752 40.314835, -71.464522 40.309890, -71.482272 40.304945, -71.500000 40.300000, -71.517884 40.295159, -71.536018 40.290546, -71.554398 40.286158, -71.573019 40.281992, -71.591876 40.278045, -71.610966 40.274314, -71.630282 40.270794, -71.649822 40.267485, -71.669579 40.264381, -71.689550 40.261480, -71.709729 40.258779, -71.730113 40.256275, -71.750697 40.253965, -71.771475 40.251845, -71.792444 40.249913, -71.813598 40.248164, -71.834934 40.246597, -71.856446 40.245209, -71.878131 40.243995, -71.899982 40.242953, -71.921997 40.242080, -71.944169 40.241373, -71.966495 40.240828, -71.988970 40.240443, -72.011589 40.240215, -72.034348 40.240140, -72.057242 40.240216, -72.080266 40.240439, -72.103416 40.240806, -72.126687 40.241315, -72.150074 40.241962, -72.173573 40.242744, -72.197179 40.243659, -72.220888 40.244703, -72.244695 40.245873, -72.268594 40.247166, -72.292582 40.248579, -72.316654 40.250109, -72.340804 40.251754, -72.365029 40.253510, -72.389324 40.255374, -72.413684 40.257343, -72.438103 40.259414, -72.462579 40.261585, -72.487104 40.263851, -72.511676 40.266211, -72.536289 40.268662, -72.560939 40.271199, -72.585620 40.273821, -72.610328 40.276524, -72.635059 40.279306, -72.659806 40.282164, -72.684566 40.285093, -72.709334 40.288093, -72.734105 40.291159, -72.758874 40.294289, -72.783636 40.297479, -72.808386 40.300728, -72.833121 40.304031, -72.857833 40.307387, -72.882520 40.310791, -72.907175 40.314242, -72.931795 40.317736, -72.956374 40.321270, -72.980907 40.324842, -73.005389 40.328449, -73.029816 40.332087, -73.054183 40.335754, -73.078484 40.339447, -73.102714 40.343163, -73.126869 40.346899, -73.150944 40.350652, -73.174934 40.354419, -73.198834 40.358199, -73.222638 40.361986, -73.246342 40.365780, -73.269940 40.369576, -73.293429 40.373373, -73.316802 40.377167, -73.340055 40.380955, -73.363183 40.384734, -73.386180 40.388502, -73.409042 40.392256, -73.431763 40.395993, -73.454339 40.399710, -73.476764 40.403405, -73.499034 40.407073, -73.521142 40.410714, -73.543085 40.414323, -73.564857 40.417898, -73.586453 40.421437, -73.607867 40.424935, -73.629095 40.428392, -73.650132 40.431803, -73.670972 40.435166, -73.691611 40.438477, -73.712042 40.441736, -73.732262 40.444937, -73.752265 40.448080, -73.772045 40.451160, -73.791597 40.454175, -73.810918 40.457123, -73.830000 40.460000, -73.848086 40.464439, -73.864600 40.471863, -73.879684 40.481934, -73.893480 40.494314, -73.906131 40.508666, -73.917778 40.524651, -73.928562 40.541933, -73.938623 40.560173, -73.948103 40.579032, -73.957142 40.598174, -73.965882 40.617259, -73.974461 40.635949, -73.983023 40.653907, -73.991706 40.670794, -74.000651 40.686271, -74.010000 40.700000)
