LINESTRING (-3.000000 53.400000, -3.022676 53.404591, -3.045357 53.409177, -3.068043 53.413759, -3.090734 53.418337, -3.113429 53.422910, -3.136130 53.427480, -3.158835 53.432044, -3.181546 53.436605, -3.204261 53.441161, -3.226981 53.445713, -3.249706 53.450261, -3.272435 53.454804, -3.295170 53.459343, -3.317910 53.463878, -3.340654 53.468408, -3.363403 53.472934, -3.386157 53.477456, -3.408916 53.481974, -3.431680 53.486487, -3.454448 53.490995, -3.477222 53.495500, -3.500000 53.500000, -3.519667 53.491913, -3.539326 53.483823, -3.558978 53.475730, -3.578623 53.467634, -3.598259 53.459534, -3.617889 53.451431, -3.637511 53.443325, -3.657125 53.435216, -3.676732 53.427103, -3.696332 53.418987, -3.715924 53.410868, -3.735508 53.402746, -3.755085 53.394621, -3.774655 53.386492, -3.794217 53.378361, -3.813771 53.370226, -3.833318 53.362087, -3.852858 53.353946, -3.872390 53.345802, -3.891915 53.337654, -3.911432 53.329503, -3.930942 53.321349, -3.950445 53.313192, -3.969939 53.305031, -3.989427 53.296867, -4.008907 53.288701, -4.028379 53.280531, -4.047845 53.272358, -4.067302 53.264181, -4.086753 53.256002, -4.106195 53.247819, -4.125631 53.239633, -4.145059 53.231444, -4.164479 53.223252, -4.183892 53.215057, -4.203298 53.206859, -4.222696 53.198657, -4.242087 53.190452, -4.261470 53.182244, -4.280846 53.174033, -4.300215 53.165819, -4.319576 53.157602, -4.338929 53.149381, -4.358276 53.141158, -4.377615 53.132931, -4.396946 53.124701, -4.416270 53.116468, -4.435587 53.108232, -4.454896 53.099993, -4.474198 53.091751, -4.493493 53.083505, -4.512780 53.075257, -4.532059 53.067005, -4.551332 53.058750, -4.570597 53.050492, -4.589854 53.042231, -4.609104 53.033967, -4.628347 53.025700, -4.647583 53.017429, -4.666811 53.009156, -4.686031 53.000879, -4.705245 52.992600, -4.724450 52.984317, -4.743649 52.976031, -4.762840 52.967742, -4.782024 52.959450, -4.801201 52.951155, -4.820370 52.942857, -4.839532 52.934555, -4.858686 52.926251, -4.877833 52.917944, -4.896973 52.909633, -4.916105 52.901320, -4.935230 52.893003, -4.954348 52.884683, -4.973458 52.876360, -4.992561 52.868034, -5.011657 52.859705, -5.030745 52.851373, -5.049826 52.843038, -5.068900 52.834700, -5.087967 52.826359, -5.107026 52.818015, -5.126077 52.809668, -5.145122 52.801317, -5.164159 52.792964, -5.183189 52.784607, -5.202211 52.776248, -5.221227 52.767886, -5.240234 52.759520, -5.259235 52.751151, -5.278228 52.742780, -5.297214 52.734405, -5.316193 52.726027, -5.335165 52.717647, -5.354129 52.709263, -5.373085 52.700876, -5.392035 52.692486, -5.410977 52.684094, -5.429912 52.675698, -5.448840 52.667299, -5.467760 52.658897, -5.486674 52.650492, -5.505580 52.642084, -5.524478 52.633674, -5.543369 52.625260, -5.562254 52.616843, -5.581130 52.608423, -5.600000 52.600000, -5.611239 52.587535, -5.622472 52.575069, -5.633698 52.562601, -5.644919 52.550133, -5.656132 52.537664, -5.667340 52.525193, -5.678540 52.512722, -5.689735 52.500249, -5.700923 52.487775, -5.712105 52.475301, -5.723281 52.462825, -5.734450 52.450348, -5.745613 52.437870, -5.756770 52.425391, -5.767920 52.412911, -5.779064 52.400430, -5.790201 52.387948, -5.801333 52.375465, -5.812458 52.362981, -5.823577 52.350496, -5.834689 52.338010, -5.845795 52.325522, -5.856895 52.313034, -5.867989 52.300545, -5.879076 52.288054, -5.890158 52.275563, -5.901233 52.263071, -5.912301 52.250577, -5.923364 52.238083, -5.934420 52.225587, -5.945470 52.213090, -5.956514 52.200593, -5.967552 52.188094, -5.978583 52.175594, -5.989608 52.163094, -6.000627 52.150592, -6.011640 52.138089, -6.022647 52.125585, -6.033647 52.113081, -6.044641 52.100575, -6.055630 52.088068, -6.066611 52.075560, -6.077587 52.063051, -6.088557 52.050541, -6.099521 52.038030, -6.110478 52.025518, -6.121429 52.013005, -6.132374 52.000491, -6.143313 51.987976, -6.154246 51.975460, -6.165173 51.962943, -6.176094 51.950425, -6.187008 51.937906, -6.197917 51.925386, -6.208819 51.912865, -6.219716 51.900343, -6.230606 51.887820, -6.241490 51.875296, -6.252368 51.862771, -6.263241 51.850245, -6.274107 51.837718, -6.284967 51.825189, -6.295821 51.812660, -6.306668 51.800130, -6.317510 51.787599, -6.328346 51.775067, -6.339176 51.762534, -6.350000 51.750000, -6.371614 51.744954, -6.393223 51.739905, -6.414827 51.734851, -6.436426 51.729793, -6.458020 51.724732, -6.479610 51.719666, -6.501195 51.714597, -6.522775 51.709523, -6.544350 51.704446, -6.565920 51.699365, -6.587485 51.694279, -6.609046 51.689190, -6.630601 51.684097, -6.652152 51.679000, -6.673698 51.673899, -6.695239 51.668794, -6.716776 51.663685, -6.738307 51.658572, -6.759834 51.653455, -6.781355 51.648334, -6.802872 51.643210, -6.824384 51.638081, -6.845891 51.632948, -6.867393 51.627812, -6.888891 51.622671, -6.910383 51.617527, -6.931871 51.612379, -6.953353 51.607227, -6.974831 51.602071, -6.996304 51.596911, -7.017772 51.591747, -7.039235 51.586579, -7.060694 51.581407, -7.082147 51.576231, -7.103596 51.571052, -7.125039 51.565868, -7.146478 51.560681, -7.167912 51.555490, -7.189341 51.550294, -7.210765 51.545095, -7.232184 51.539892, -7.253599 51.534685, -7.275008 51.529475, -7.296412 51.524260, -7.317812 51.519041, -7.339207 51.513819, -7.360596 51.508592, -7.381981 51.503362, -7.403361 51.498128, -7.424736 51.492890, -7.446106 51.487648, -7.467472 51.482402, -7.488832 51.477153, -7.510187 51.471899, -7.531538 51.466642, -7.552883 51.461380, -7.574224 51.456115, -7.595560 51.450846, -7.616890 51.445573, -7.638216 51.440296, -7.659537 51.435016, -7.680853 51.429731, -7.702164 51.424443, -7.723470 51.419150, -7.744771 51.413854, -7.766068 51.408554, -7.787359 51.403250, -7.808645 51.397943, -7.829927 51.392631, -7.851203 51.387316, -7.872475 51.381996, -7.893741 51.376673, -7.915003 51.371346, -7.936260 51.366016, -7.957511 51.360681, -7.978758 51.355342, -8.000000 51.350000, -8.022551 51.347673, -8.045100 51.345343, -8.067647 51.343007, -8.090192 51.340668, -8.112734 51.338324, -8.135274 51.335976, -8.157811 51.333623, -8.180347 51.331267, -8.202880 51.328906, -8.225410 51.326540, -8.247939 51.324170, -8.270465 51.321796, -8.292988 51.319418, -8.315510 51.317035, -8.338028 51.314648, -8.360545 51.312257, -8.383059 51.309861, -8.405571 51.307461, -8.428081 51.305057, -8.450588 51.302648, -8.473093 51.300235, -8.495595 51.297818, -8.518095 51.295396, -8.540593 51.292970, -8.563088 51.290540, -8.585581 51.288106, -8.608072 51.285667, -8.630560 51.283224, -8.653046 51.280776, -8.675529 51.278325, -8.698010 51.275869, -8.720489 51.273408, -8.742965 51.270944, -8.765439 51.268475, -8.787910 51.266001, -8.810379 51.263524, -8.832845 51.261042, -8.855310 51.258556, -8.877771 51.256065, -8.900230 51.253571, -8.922687 51.251072, -8.945141 51.248568, -8.967593 51.246061, -8.990043 51.243549, -9.012490 51.241032, -9.034934 51.238512, -9.057376 51.235987, -9.079816 51.233458, -9.102253 51.230925, -9.124688 51.228387, -9.147120 51.225845, -9.169549 51.223299, -9.191977 51.220748, -9.214401 51.218193, -9.236823 51.215634, -9.259243 51.213071, -9.281660 51.210503, -9.304075 51.207931, -9.326487 51.205355, -9.348897 51.202774, -9.371304 51.200190, -9.393709 51.197600, -9.416111 51.195007, -9.438511 51.192409, -9.460908 51.189808, -9.483302 51.187201, -9.505694 51.184591, -9.528084 51.181976, -9.550471 51.179357, -9.572855 51.176734, -9.595237 51.174106, -9.617617 51.171474, -9.639993 51.168838, -9.662367 51.166198, -9.684739 51.163553, -9.707108 51.160905, -9.729475 51.158251, -9.751839 51.155594, -9.774200 51.152932, -9.796559 51.150266, -9.818915 51.147596, -9.841268 51.144922, -9.863619 51.142243, -9.885968 51.139560, -9.908314 51.136873, -9.930657 51.134181, -9.952997 51.131485, -9.975335 51.128785, -9.997671 51.126081, -10.020004 51.123373, -10.042334 51.120660, -10.064661 51.117943, -10.086986 51.115221, -10.109308 51.112496, -10.131628 51.109766, -10.153945 51.107032, -10.176259 51.104294, -10.198571 51.101551, -10.220880 51.098805, -10.243186 51.096053, -10.265490 51.093298, -10.287791 51.090539, -10.310089 51.087775, -10.332385 51.085007, -10.354678 51.082235, -10.376969 51.079458, -10.399256 51.076678, -10.421541 51.073893, -10.443824 51.071103, -10.466103 51.068310, -10.488380 51.065512, -10.510655 51.062711, -10.532926 51.059904, -10.555195 51.057094, -10.577461 51.054280, -10.599725 51.051461, -10.621986 51.048638, -10.644244 51.045810, -10.666499 51.042979, -10.688751 51.040143, -10.711001 51.037303, -10.733248 51.034459, -10.755493 51.031611, -10.777735 51.028758, -10.799973 51.025901, -10.822210 51.023040, -10.844443 51.020175, -10.866674 51.017305, -10.888902 51.014432, -10.911127 51.011554, -10.933349 51.008672, -10.955569 51.005785, -10.977786 51.002895, -11.000000 51.000000, -11.022708 50.998948, -11.045415 50.997891, -11.068121 50.996830, -11.090826 50.995764, -11.113530 50.994694, -11.136233 50.993620, -11.158935 50.992541, -11.181635 50.991458, -11.204335 50.990370, -11.227034 50.989278, -11.249731 50.988182, -11.272428 50.987081, -11.295123 50.985976, -11.317817 50.984867, -11.340510 50.983753, -11.363203 50.982634, -11.385894 50.981511, -11.408584 50.980384, -11.431272 50.979253, -11.453960 50.978117, -11.476647 50.976977, -11.499332 50.975832, -11.522017 50.974683, -11.544700 50.973529, -11.567382 50.972371, -11.590063 50.971209, -11.612743 50.970042, -11.635421 50.968871, -11.658099 50.967696, -11.680775 50.966516, -11.703451 50.965332, -11.726125 50.964143, -11.748798 50.962950, -11.771470 50.961753, -11.794140 50.960551, -11.816810 50.959345, -11.839478 50.958134, -11.862145 50.956919, -11.884811 50.955700, -11.907475 50.954476, -11.930139 50.953248, -11.952801 50.952015, -11.975462 50.950779, -11.998122 50.949537, -12.020781 50.948292, -12.043438 50.947042, -12.066094 50.945787, -12.088749 50.944528, -12.111403 50.943265, -12.134056 50.941998, -12.156707 50.940726, -12.179357 50.939449, -12.202006 50.938169, -12.224654 50.936883, -12.247300 50.935594, -12.269945 50.934300, -12.292589 50.933002, -12.315231 50.931699, -12.337872 50.930392, -12.360512 50.929081, -12.383151 50.927765, -12.405789 50.926445, -12.428425 50.925121, -12.451059 50.923792, -12.473693 50.922458, -12.496325 50.921121, -12.518956 50.919779, -12.541586 50.918432, -12.564214 50.917082, -12.586841 50.915727, -12.609467 50.914367, -12.632091 50.913003, -12.654714 50.911635, -12.677336 50.910262, -12.699956 50.908885, -12.722575 50.907504, -12.745193 50.906118, -12.767809 50.904728, -12.790424 50.903334, -12.813038 50.901935, -12.835650 50.900532, -12.858261 50.899124, -12.880871 50.897712, -12.903479 50.896296, -12.926086 50.894875, -12.948691 50.893450, -12.971295 50.892021, -12.993898 50.890587, -13.016499 50.889149, -13.039099 50.887706, -13.061697 50.886260, -13.084294 50.884808, -13.106890 50.883353, -13.129484 50.881893, -13.152077 50.880428, -13.174668 50.878960, -13.197258 50.877487, -13.219847 50.876009, -13.242434 50.874528, -13.265019 50.873042, -13.287603 50.871551, -13.310186 50.870056, -13.332767 50.868557, -13.355347 50.867054, -13.377926 50.865546, -13.400503 50.864033, -13.423078 50.862517, -13.445652 50.860996, -13.468224 50.859471, -13.490796 50.857941, -13.513365 50.856407, -13.535933 50.854869, -13.558500 50.853326, -13.581065 50.851779, -13.603628 50.850227, -13.626190 50.848672, -13.648751 50.847112, -13.671310 50.845547, -13.693868 50.843978, -13.716424 50.842405, -13.738978 50.840828, -13.761531 50.839246, -13.784082 50.837660, -13.806632 50.836069, -13.829181 50.834474, -13.851727 50.832875, -13.874273 50.831271, -13.896816 50.829663, -13.919359 50.828051, -13.941899 50.826434, -13.964438 50.824814, -13.986976 50.823188, -14.009512 50.821559, -14.032046 50.819925, -14.054579 50.818286, -14.077110 50.816644, -14.099639 50.814997, -14.122167 50.813345, -14.144694 50.811690, -14.167219 50.810030, -14.189742 50.808365, -14.212263 50.806697, -14.234783 50.805024, -14.257302 50.803346, -14.279819 50.801665, -14.302334 50.799979, -14.324847 50.798288, -14.347359 50.796594, -14.369869 50.794894, -14.392378 50.793191, -14.414885 50.791483, -14.437390 50.789771, -14.459894 50.788055, -14.482396 50.786334, -14.504896 50.784609, -14.527395 50.782880, -14.549892 50.781146, -14.572387 50.779408, -14.594881 50.777666, -14.617373 50.775920, -14.639863 50.774169, -14.662352 50.772413, -14.684838 50.770654, -14.707324 50.768890, -14.729807 50.767122, -14.752289 50.765349, -14.774769 50.763572, -14.797248 50.761791, -14.819724 50.760005, -14.842199 50.758215, -14.864673 50.756421, -14.887144 50.754623, -14.909614 50.752820, -14.932082 50.751013, -14.954548 50.749201, -14.977013 50.747386, -14.999476 50.745566, -15.021937 50.743741, -15.044396 50.741913, -15.066854 50.740080, -15.089310 50.738242, -15.111764 50.736401, -15.134216 50.734555, -15.156667 50.732704, -15.179115 50.730850, -15.201562 50.728991, -15.224008 50.727128, -15.246451 50.725260, -15.268893 50.723388, -15.291332 50.721512, -15.313770 50.719632, -15.336207 50.717747, -15.358641 50.715858, -15.381074 50.713965, -15.403504 50.712067, -15.425933 50.710165, -15.448361 50.708259, -15.470786 50.706348, -15.493209 50.704434, -15.515631 50.702514, -15.538051 50.700591, -15.560469 50.698663, -15.582885 50.696731, -15.605299 50.694795, -15.627712 50.692854, -15.650122 50.690909, -15.672531 50.688960, -15.694938 50.687006, -15.717343 50.685049, -15.739746 50.683086, -15.762147 50.681120, -15.784547 50.679149, -15.806944 50.677174, -15.829340 50.675195, -15.851733 50.673211, -15.874125 50.671224, -15.896515 50.669231, -15.918903 50.667235, -15.941289 50.665234, -15.963673 50.663229, -15.986056 50.661220, -16.008436 50.659206, -16.030814 50.657188, -16.053191 50.655166, -16.075566 50.653140, -16.097938 50.651109, -16.120309 50.649074, -16.142678 50.647035, -16.165045 50.644991, -16.187409 50.642943, -16.209772 50.640891, -16.232133 50.638835, -16.254492 50.636774, -16.276849 50.634709, -16.299205 50.632640, -16.321558 50.630566, -16.343909 50.628488, -16.366258 50.626406, -16.388605 50.624320, -16.410950 50.622229, -16.433294 50.620134, -16.455635 50.618035, -16.477974 50.615932, -16.500311 50.613824, -16.522646 50.611712, -16.544980 50.609596, -16.567311 50.607475, -16.589640 50.605350, -16.611967 50.603221, -16.634292 50.601088, -16.656616 50.598950, -16.678937 50.596808, -16.701256 50.594662, -16.723573 50.592512, -16.745888 50.590357, -16.768201 50.588198, -16.790511 50.586035, -16.812820 50.583868, -16.835127 50.581696, -16.857432 50.579520, -16.879734 50.577340, -16.902035 50.575155, -16.924334 50.572966, -16.946630 50.570773, -16.968924 50.568576, -16.991217 50.566375, -17.013507 50.564169, -17.035795 50.561959, -17.058081 50.559745, -17.080365 50.557526, -17.102647 50.555303, -17.124927 50.553076, -17.147204 50.550845, -17.169480 50.548609, -17.191753 50.546370, -17.214024 50.544126, -17.236293 50.541877, -17.258561 50.539625, -17.280825 50.537368, -17.303088 50.535107, -17.325349 50.532842, -17.347607 50.530572, -17.369864 50.528298, -17.392118 50.526020, -17.414370 50.523738, -17.436620 50.521452, -17.458868 50.519161, -17.481113 50.516866, -17.503357 50.514567, -17.525598 50.512264, -17.547837 50.509956, -17.570074 50.507644, -17.592308 50.505328, -17.614541 50.503007, -17.636771 50.500683, -17.658999 50.498354, -17.681225 50.496021, -17.703449 50.493684, -17.725671 50.491342, -17.747890 50.488996, -17.770107 50.486646, -17.792322 50.484292, -17.814535 50.481934, -17.836745 50.479571, -17.858954 50.477204, -17.881160 50.474833, -17.903364 50.472458, -17.925565 50.470078, -17.947765 50.467694, -17.969962 50.465306, -17.992157 50.462914, -18.014349 50.460518, -18.036540 50.458117, -18.058728 50.455712, -18.080914 50.453303, -18.103097 50.450890, -18.125278 50.448472, -18.147458 50.446050, -18.169634 50.443624, -18.191809 50.441194, -18.213981 50.438760, -18.236151 50.436321, -18.258319 50.433878, -18.280484 50.431431, -18.302647 50.428980, -18.324808 50.426525, -18.346967 50.424065, -18.369123 50.421601, -18.391277 50.419133, -18.413428 50.416661, -18.435577 50.414184, -18.457724 50.411704, -18.479869 50.409219, -18.502011 50.406730, -18.524151 50.404236, -18.546289 50.401739, -18.568424 50.399237, -18.590557 50.396731, -18.612688 50.394221, -18.634816 50.391707, -18.656942 50.389188, -18.679066 50.386665, -18.701187 50.384139, -18.723306 50.381607, -18.745422 50.379072, -18.767536 50.376533, -18.789648 50.373989, -18.811757 50.371441, -18.833864 50.368889, -18.855969 50.366333, -18.878071 50.363772, -18.900171 50.361208, -18.922269 50.358639, -18.944364 50.356066, -18.966456 50.353489, -18.988547 50.350908, -19.010635 50.348322, -19.032720 50.345732, -19.054803 50.343138, -19.076884 50.340540, -19.098962 50.337938, -19.121038 50.335332, -19.143111 50.332721, -19.165182 50.330106, -19.187251 50.327487, -19.209317 50.324864, -19.231380 50.322237, -19.253442 50.319605, -19.275500 50.316969, -19.297557 50.314330, -19.319611 50.311686, -19.341662 50.309037, -19.363711 50.306385, -19.385758 50.303728, -19.407802 50.301068, -19.429843 50.298403, -19.451882 50.295734, -19.473919 50.293061, -19.495953 50.290383, -19.517985 50.287702, -19.540014 50.285016, -19.562041 50.282326, -19.584065 50.279632, -19.606086 50.276934, -19.628106 50.274232, -19.650122 50.271525, -19.672137 50.268814, -19.694148 50.266100, -19.716157 50.263381, -19.738164 50.260657, -19.760168 50.257930, -19.782170 50.255199, -19.804169 50.252463, -19.826166 50.249723, -19.848160 50.246979, -19.870151 50.244231, -19.892140 50.241479, -19.914126 50.238723, -19.936110 50.235962, -19.958092 50.233198, -19.980070 50.230429, -20.002047 50.227656, -20.024020 50.224879, -20.045992 50.222098, -20.067960 50.219312, -20.089926 50.216523, -20.111889 50.213729, -20.133850 50.210931, -20.155809 50.208129, -20.177764 50.205323, -20.199717 50.202513, -20.221668 50.199699, -20.243616 50.196880, -20.265561 50.194058, -20.287504 50.191231, -20.309444 50.188400, -20.331381 50.185565, -20.353316 50.182726, -20.375249 50.179883, -20.397178 50.177035, -20.419106 50.174184, -20.441030 50.171328, -20.462952 50.168468, -20.484871 50.165605, -20.506788 50.162737, -20.528702 50.159864, -20.550613 50.156988, -20.572522 50.154108, -20.594428 50.151223, -20.616331 50.148335, -20.638232 50.145442, -20.660130 50.142545, -20.682025 50.139644, -20.703918 50.136739, -20.725808 50.133830, -20.747696 50.130916, -20.769581 50.127999, -20.791463 50.125077, -20.813342 50.122152, -20.835219 50.119222, -20.857093 50.116288, -20.878964 50.113350, -20.900833 50.110408, -20.922699 50.107462, -20.944563 50.104511, -20.966423 50.101557, -20.988281 50.098598, -21.010136 50.095636, -21.031989 50.092669, -21.053839 50.089698, -21.075686 50.086723, -21.097530 50.083744, -21.119372 50.080761, -21.141211 50.077774, -21.163047 50.074783, -21.184881 50.071787, -21.206712 50.068788, -21.228540 50.065784, -21.250365 50.062776, -21.272188 50.059765, -21.294008 50.056749, -21.315825 50.053729, -21.337639 50.050705, -21.359451 50.047677, -21.381260 50.044644, -21.403066 50.041608, -21.424869 50.038568, -21.446670 50.035523, -21.468467 50.032475, -21.490262 50.029422, -21.512055 50.026365, -21.533844 50.023304, -21.555631 50.020240, -21.577415 50.017171, -21.599196 50.014098, -21.620974 50.011020, -21.642750 50.007939, -21.664523 50.004854, -21.686293 50.001765, -21.708060 49.998671, -21.729824 49.995574, -21.751586 49.992472, -21.773345 49.989366, -21.795101 49.986257, -21.816854 49.983143, -21.838604 49.980025, -21.860352 49.976903, -21.882096 49.973777, -21.903838 49.970647, -21.925577 49.967513, -21.947313 49.964375, -21.969047 49.961233, -21.990777 49.958087, -22.012505 49.954936, -22.034230 49.951782, -22.055952 49.948623, -22.077671 49.945461, -22.099387 49.942294, -22.121101 49.939124, -22.142811 49.935949, -22.164519 49.932770, -22.186224 49.929588, -22.207926 49.926401, -22.229625 49.923210, -22.251321 49.920015, -22.273014 49.916816, -22.294705 49.913613, -22.316392 49.910406, -22.338077 49.907195, -22.359759 49.903980, -22.381438 49.900761, -22.403114 49.897537, -22.424787 49.894310, -22.446457 49.891079, -22.468124 49.887843, -22.489789 49.884604, -22.511450 49.881361, -22.533109 49.878113, -22.554765 49.874862, -22.576417 49.871606, -22.598067 49.868347, -22.619714 49.865083, -22.641358 49.861816, -22.662999 49.858544, -22.684637 49.855268, -22.706272 49.851989, -22.727905 49.848705, -22.749534 49.845417, -22.771160 49.842125, -22.792784 49.838830, -22.814404 49.835530, -22.836022 49.832226, -22.857636 49.828918, -22.879248 49.825606, -22.900857 49.822290, -22.922462 49.818970, -22.944065 49.815647, -22.965665 49.812319, -22.987262 49.808987, -23.008855 49.805651, -23.030446 49.802311, -23.052034 49.798967, -23.073619 49.795619, -23.095201 49.792267, -23.116780 49.788911, -23.138356 49.785551, -23.159928 49.782187, -23.181498 49.778819, -23.203065 49.775447, -23.224629 49.772071, -23.246190 49.768691, -23.267748 49.765307, -23.289303 49.761919, -23.310855 49.758527, -23.332404 49.755131, -23.353949 49.751731, -23.375492 49.748327, -23.397032 49.744919, -23.418569 49.741507, -23.440102 49.738091, -23.461633 49.734671, -23.483161 49.731247, -23.504685 49.727819, -23.526207 49.724387, -23.547725 49.720951, -23.569241 49.717511, -23.590753 49.714067, -23.612263 49.710619, -23.633769 49.707167, -23.655272 49.703711, -23.676772 49.700252, -23.698270 49.696788, -23.719764 49.693320, -23.741255 49.689848, -23.762743 49.686372, -23.784227 49.682893, -23.805709 49.679409, -23.827188 49.675921, -23.848664 49.672430, -23.870136 49.668934, -23.891605 49.665435, -23.913072 49.661931, -23.934535 49.658424, -23.955995 49.654912, -23.977452 49.651397, -23.998906 49.647877, -24.020357 49.644354, -24.041805 49.640827, -24.063250 49.637295, -24.084691 49.633760, -24.106130 49.630221, -24.127565 49.626678, -24.148997 49.623130, -24.170426 49.619579, -24.191852 49.616024, -24.213275 49.612465, -24.234694 49.608902, -24.256111 49.605336, -24.277524 49.601765, -24.298935 49.598190, -24.320342 49.594611, -24.341746 49.591028, -24.363147 49.587442, -24.384544 49.583851, -24.405939 49.580257, -24.427330 49.576658, -24.448719 49.573056, -24.470104 49.569449, -24.491486 49.565839, -24.512864 49.562225, -24.534240 49.558607, -24.555612 49.554985, -24.576982 49.551359, -24.598348 49.547729, -24.619711 49.544095, -24.641070 49.540457, -24.662427 49.536815, -24.683780 49.533169, -24.705130 49.529520, -24.726477 49.525866, -24.747821 49.522209, -24.769162 49.518547, -24.790499 49.514882, -24.811833 49.511213, -24.833164 49.507540, -24.854492 49.503862, -24.875817 49.500181, -24.897138 49.496497, -24.918456 49.492808, -24.939771 49.489115, -24.961083 49.485418, -24.982391 49.481718, -25.003697 49.478013, -25.024999 49.474305, -25.046297 49.470592, -25.067593 49.466876, -25.088885 49.463156, -25.110175 49.459432, -25.131460 49.455704, -25.152743 49.451972, -25.174022 49.448236, -25.195299 49.444497, -25.216572 49.440753, -25.237841 49.437005, -25.259108 49.433254, -25.280371 49.429499, -25.301631 49.425740, -25.322887 49.421977, -25.344141 49.418210, -25.365391 49.414439, -25.386638 49.410664, -25.407881 49.406885, -25.429122 49.403103, -25.450359 49.399316, -25.471592 49.395526, -25.492823 49.391732, -25.514050 49.387934, -25.535274 49.384132, -25.556495 49.380326, -25.577712 49.376516, -25.598926 49.372702, -25.620137 49.368885, -25.641344 49.365063, -25.662549 49.361238, -25.683749 49.357409, -25.704947 49.353576, -25.726141 49.349739, -25.747332 49.345898, -25.768520 49.342054, -25.789704 49.338205, -25.810885 49.334353, -25.832063 49.330496, -25.853237 49.326636, -25.874408 49.322772, -25.895576 49.318904, -25.916741 49.315033, -25.937902 49.311157, -25.959059 49.307278, -25.980214 49.303394, -26.001365 49.299507, -26.022513 49.295616, -26.043657 49.291721, -26.064798 49.287822, -26.085936 49.283920, -26.107070 49.280013, -26.128201 49.276103, -26.149329 49.272189, -26.170453 49.268271, -26.191574 49.264349, -26.212692 49.260423, -26.233806 49.256494, -26.254917 49.252560, -26.276024 49.248623, -26.297128 49.244682, -26.318229 49.240737, -26.339327 49.236788, -26.360421 49.232835, -26.381511 49.228879, -26.402599 49.224919, -26.423683 49.220954, -26.444763 49.216986, -26.465840 49.213015, -26.486914 49.209039, -26.507984 49.205059, -26.529051 49.201076, -26.550115 49.197089, -26.571175 49.193098, -26.592232 49.189103, -26.613285 49.185105, -26.634335 49.181102, -26.655381 49.177096, -26.676425 49.173086, -26.697464 49.169072, -26.718501 49.165054, -26.739533 49.161032, -26.760563 49.157007, -26.781589 49.152978, -26.802612 49.148945, -26.823631 49.144908, -26.844647 49.140867, -26.865659 49.136823, -26.886668 49.132774, -26.907673 49.128722, -26.928676 49.124666, -26.949674 49.120607, -26.970669 49.116543, -26.991661 49.112476, -27.012649 49.108405, -27.033634 49.104330, -27.054616 49.100251, -27.075594 49.096168, -27.096568 49.092082, -27.117539 49.087992, -27.138507 49.083898, -27.159471 49.079800, -27.180432 49.075699, -27.201389 49.071593, -27.222343 49.067484, -27.243293 49.063371, -27.264240 49.059254, -27.285183 49.055134, -27.306123 49.051010, -27.327059 49.046882, -27.347992 49.042750, -27.368922 49.038614, -27.389847 49.034475, -27.410770 49.030331, -27.431689 49.026184, -27.452604 49.022034, -27.473516 49.017879, -27.494425 49.013721, -27.515330 49.009559, -27.536231 49.005393, -27.557130 49.001223, -27.578024 48.997050, -27.598915 48.992872, -27.619803 48.988691, -27.640687 48.984507, -27.661567 48.980318, -27.682444 48.976126, -27.703318 48.971930, -27.724188 48.967730, -27.745054 48.963526, -27.765917 48.959319, -27.786776 48.955108, -27.807632 48.950893, -27.828485 48.946674, -27.849333 48.942452, -27.870179 48.938226, -27.891020 48.933996, -27.911859 48.929762, -27.932693 48.925525, -27.953525 48.921284, -27.974352 48.917039, -27.995176 48.912790, -28.015997 48.908538, -28.036814 48.904282, -28.057627 48.900022, -28.078437 48.895758, -28.099243 48.891491, -28.120046 48.887219, -28.140845 48.882945, -28.161641 48.878666, -28.182433 48.874384, -28.203222 48.870098, -28.224007 48.865808, -28.244788 48.861514, -28.265566 48.857217, -28.286340 48.852916, -28.307111 48.848611, -28.327878 48.844303, -28.348642 48.839990, -28.369402 48.835674, -28.390158 48.831355, -28.410911 48.827031, -28.431660 48.822704, -28.452406 48.818373, -28.473148 48.814039, -28.493887 48.809701, -28.514622 48.805359, -28.535353 48.801013, -28.556081 48.796663, -28.576805 48.792310, -28.597525 48.787953, -28.618242 48.783593, -28.638956 48.779228, -28.659665 48.774860, -28.680372 48.770489, -28.701074 48.766113, -28.721773 48.761734, -28.742468 48.757351, -28.763160 48.752965, -28.783848 48.748574, -28.804533 48.744181, -28.825213 48.739783, -28.845891 48.735382, -28.866564 48.730976, -28.887234 48.726568, -28.907901 48.722155, -28.928563 48.717739, -28.949222 48.713319, -28.969878 48.708896, -28.990530 48.704469, -29.011178 48.700038, -29.031822 48.695603, -29.052463 48.691165, -29.073101 48.686723, -29.093734 48.682277, -29.114364 48.677828, -29.134991 48.673375, -29.155613 48.668918, -29.176232 48.664458, -29.196848 48.659994, -29.217460 48.655526, -29.238068 48.651054, -29.258672 48.646579, -29.279273 48.642101, -29.299870 48.637618, -29.320463 48.633132, -29.341053 48.628642, -29.361639 48.624149, -29.382222 48.619652, -29.402801 48.615151, -29.423376 48.610646, -29.443947 48.606138, -29.464515 48.601626, -29.485079 48.597111, -29.505640 48.592592, -29.526196 48.588069, -29.546749 48.583543, -29.567299 48.579013, -29.587844 48.574479, -29.608387 48.569942, -29.628925 48.565400, -29.649459 48.560856, -29.669990 48.556307, -29.690518 48.551755, -29.711041 48.547200, -29.731561 48.542641, -29.752077 48.538078, -29.772590 48.533511, -29.793099 48.528941, -29.813604 48.524367, -29.834105 48.519789, -29.854603 48.515208, -29.875097 48.510623, -29.895587 48.506035, -29.916073 48.501443, -29.936556 48.496847, -29.957035 48.492248, -29.977511 48.487645, -29.997982 48.483038, -30.018450 48.478428, -30.038914 48.473814, -30.059375 48.469197, -30.079832 48.464576, -30.100285 48.459951, -30.120734 48.455323, -30.141180 48.450691, -30.161621 48.446055, -30.182060 48.441416, -30.202494 48.436773, -30.222925 48.432127, -30.243352 48.427477, -30.263775 48.422823, -30.284194 48.418166, -30.304610 48.413505, -30.325022 48.408840, -30.345430 48.404172, -30.365835 48.399500, -30.386235 48.394825, -30.406632 48.390146, -30.427025 48.385464, -30.447415 48.380777, -30.467801 48.376088, -30.488182 48.371394, -30.508561 48.366697, -30.528935 48.361997, -30.549306 48.357293, -30.569673 48.352585, -30.590036 48.347874, -30.610395 48.343159, -30.630751 48.338440, -30.651103 48.333718, -30.671451 48.328992, -30.691795 48.324263, -30.712135 48.319530, -30.732472 48.314794, -30.752805 48.310054, -30.773134 48.305310, -30.793460 48.300563, -30.813781 48.295812, -30.834099 48.291058, -30.854413 48.286300, -30.874724 48.281538, -30.895030 48.276773, -30.915333 48.272004, -30.935632 48.267232, -30.955927 48.262456, -30.976218 48.257677, -30.996506 48.252894, -31.016789 48.248107, -31.037069 48.243317, -31.057345 48.238524, -31.077618 48.233726, -31.097886 48.228926, -31.118151 48.224121, -31.138412 48.219313, -31.158669 48.214502, -31.178922 48.209687, -31.199172 48.204868, -31.219417 48.200046, -31.239659 48.195220, -31.259897 48.190391, -31.280132 48.185558, -31.300362 48.180722, -31.320589 48.175882, -31.340811 48.171039, -31.361030 48.166192, -31.381245 48.161341, -31.401457 48.156487, -31.421664 48.151629, -31.441868 48.146768, -31.462068 48.141904, -31.482264 48.137035, -31.502456 48.132164, -31.522644 48.127288, -31.542829 48.122409, -31.563009 48.117527, -31.583186 48.112641, -31.603359 48.107752, -31.623528 48.102859, -31.643694 48.097962, -31.663855 48.093062, -31.684013 48.088159, -31.704167 48.083251, -31.724317 48.078341, -31.744463 48.073427, -31.764605 48.068509, -31.784743 48.063588, -31.804878 48.058663, -31.825009 48.053735, -31.845135 48.048803, -31.865258 48.043868, -31.885378 48.038929, -31.905493 48.033987, -31.925604 48.029041, -31.945712 48.024092, -31.965815 48.019139, -31.985915 48.014183, -32.006011 48.009223, -32.026103 48.004260, -32.046192 47.999293, -32.066276 47.994323, -32.086356 47.989349, -32.106433 47.984372, -32.126506 47.979391, -32.146575 47.974406, -32.166640 47.969419, -32.186701 47.964427, -32.206758 47.959433, -32.226811 47.954434, -32.246861 47.949433, -32.266906 47.944427, -32.286948 47.939419, -32.306986 47.934406, -32.327020 47.929391, -32.347050 47.924371, -32.367076 47.919349, -32.387098 47.914323, -32.407117 47.909293, -32.427131 47.904260, -32.447142 47.899223, -32.467148 47.894183, -32.487151 47.889140, -32.507150 47.884093, -32.527145 47.879042, -32.547136 47.873988, -32.567124 47.868931, -32.587107 47.863870, -32.607086 47.858805, -32.627062 47.853738, -32.647033 47.848666, -32.667001 47.843592, -32.686965 47.838513, -32.706925 47.833432, -32.726881 47.828347, -32.746833 47.823258, -32.766781 47.818166, -32.786725 47.813070, -32.806665 47.807971, -32.826602 47.802869, -32.846534 47.797763, -32.866463 47.792654, -32.886387 47.787541, -32.906308 47.782425, -32.926225 47.777305, -32.946138 47.772182, -32.966047 47.767056, -32.985952 47.761926, -33.005853 47.756792, -33.025750 47.751655, -33.045643 47.746515, -33.065533 47.741371, -33.085418 47.736224, -33.105299 47.731073, -33.125177 47.725919, -33.145051 47.720762, -33.164920 47.715601, -33.184786 47.710437, -33.204648 47.705269, -33.224506 47.700098, -33.244359 47.694923, -33.264209 47.689745, -33.284055 47.684564, -33.303897 47.679379, -33.323736 47.674190, -33.343570 47.668999, -33.363400 47.663803, -33.383226 47.658605, -33.403049 47.653403, -33.422867 47.648198, -33.442681 47.642989, -33.462492 47.637777, -33.482298 47.632561, -33.502101 47.627342, -33.521900 47.622119, -33.541694 47.616894, -33.561485 47.611664, -33.581272 47.606432, -33.601054 47.601196, -33.620833 47.595956, -33.640608 47.590713, -33.660379 47.585467, -33.680146 47.580218, -33.699909 47.574964, -33.719668 47.569708, -33.739423 47.564448, -33.759174 47.559185, -33.778921 47.553918, -33.798664 47.548648, -33.818403 47.543375, -33.838138 47.538098, -33.857870 47.532818, -33.877597 47.527535, -33.897320 47.522248, -33.917039 47.516957, -33.936755 47.511664, -33.956466 47.506367, -33.976173 47.501066, -33.995877 47.495762, -34.015576 47.490455, -34.035272 47.485145, -34.054963 47.479831, -34.074650 47.474513, -34.094334 47.469193, -34.114013 47.463869, -34.133689 47.458541, -34.153360 47.453211, -34.173028 47.447876, -34.192691 47.442539, -34.212351 47.437198, -34.232006 47.431854, -34.251658 47.426506, -34.271305 47.421155, -34.290949 47.415801, -34.310589 47.410443, -34.330224 47.405082, -34.349856 47.399718, -34.369483 47.394350, -34.389107 47.388979, -34.408726 47.383605, -34.428342 47.378227, -34.447953 47.372846, -34.467561 47.367462, -34.487165 47.362074, -34.506764 47.356683, -34.526360 47.351288, -34.545951 47.345890, -34.565539 47.340489, -34.585122 47.335085, -34.604702 47.329677, -34.624277 47.324266, -34.643849 47.318851, -34.663416 47.313434, -34.682980 47.308013, -34.702539 47.302588, -34.722094 47.297160, -34.741646 47.291729, -34.761193 47.286295, -34.780737 47.280857, -34.800276 47.275416, -34.819811 47.269971, -34.839343 47.264524, -34.858870 47.259073, -34.878393 47.253618, -34.897913 47.248161, -34.917428 47.242700, -34.936939 47.237235, -34.956446 47.231768, -34.975949 47.226297, -34.995448 47.220823, -35.014944 47.215345, -35.034435 47.209864, -35.053922 47.204380, -35.073405 47.198893, -35.092884 47.193402, -35.112359 47.187908, -35.131830 47.182411, -35.151296 47.176910, -35.170759 47.171406, -35.190218 47.165899, -35.209673 47.160388, -35.229124 47.154874, -35.248570 47.149357, -35.268013 47.143837, -35.287452 47.138313, -35.306886 47.132786, -35.326317 47.127256, -35.345743 47.121722, -35.365166 47.116185, -35.384584 47.110645, -35.403999 47.105102, -35.423409 47.099555, -35.442815 47.094005, -35.462218 47.088452, -35.481616 47.082895, -35.501010 47.077336, -35.520400 47.071773, -35.539786 47.066206, -35.559168 47.060637, -35.578546 47.055064, -35.597920 47.049488, -35.617290 47.043908, -35.636656 47.038326, -35.656017 47.032740, -35.675375 47.027150, -35.694729 47.021558, -35.714078 47.015962, -35.733424 47.010363, -35.752765 47.004761, -35.772103 46.999155, -35.791436 46.993547, -35.810765 46.987935, -35.830091 46.982319, -35.849412 46.976701, -35.868729 46.971079, -35.888042 46.965454, -35.907351 46.959826, -35.926656 46.954194, -35.945957 46.948560, -35.965254 46.942922, -35.984546 46.937281, -36.003835 46.931636, -36.023120 46.925988, -36.042400 46.920337, -36.061677 46.914683, -36.080949 46.909026, -36.100217 46.903365, -36.119482 46.897701, -36.138742 46.892034, -36.157998 46.886364, -36.177250 46.880690, -36.196498 46.875014, -36.215742 46.869334, -36.234982 46.863650, -36.254218 46.857964, -36.273449 46.852274, -36.292677 46.846581, -36.311900 46.840885, -36.331120 46.835186, -36.350335 46.829483, -36.369547 46.823777, -36.388754 46.818068, -36.407957 46.812356, -36.427156 46.806641, -36.446351 46.800922, -36.465542 46.795200, -36.484729 46.789475, -36.503911 46.783747, -36.523090 46.778016, -36.542265 46.772281, -36.561435 46.766543, -36.580601 46.760802, -36.599764 46.755058, -36.618922 46.749310, -36.638076 46.743560, -36.657226 46.737806, -36.676372 46.732049, -36.695514 46.726289, -36.714652 46.720525, -36.733786 46.714759, -36.752915 46.708989, -36.772041 46.703216, -36.791162 46.697440, -36.810279 46.691660, -36.829393 46.685878, -36.848502 46.680092, -36.867607 46.674303, -36.886708 46.668511, -36.905805 46.662716, -36.924898 46.656918, -36.943986 46.651116, -36.963071 46.645311, -36.982151 46.639503, -37.001228 46.633692, -37.020300 46.627878, -37.039368 46.622060, -37.058432 46.616240, -37.077492 46.610416, -37.096548 46.604589, -37.115600 46.598759, -37.134648 46.592926, -37.153691 46.587089, -37.172731 46.581249, -37.191766 46.575407, -37.210798 46.569561, -37.229825 46.563712, -37.248848 46.557860, -37.267867 46.552004, -37.286882 46.546146, -37.305892 46.540284, -37.324899 46.534419, -37.343902 46.528551, -37.362900 46.522680, -37.381894 46.516806, -37.400885 46.510928, -37.419871 46.505048, -37.438853 46.499164, -37.457831 46.493277, -37.476805 46.487387, -37.495774 46.481494, -37.514740 46.475598, -37.533701 46.469699, -37.552659 46.463796, -37.571612 46.457890, -37.590561 46.451982, -37.609506 46.446070, -37.628447 46.440155, -37.647384 46.434237, -37.666317 46.428315, -37.685245 46.422391, -37.704170 46.416463, -37.723090 46.410533, -37.742006 46.404599, -37.760918 46.398662, -37.779826 46.392722, -37.798730 46.386779, -37.817630 46.380833, -37.836526 46.374883, -37.855417 46.368931, -37.874305 46.362975, -37.893188 46.357017, -37.912067 46.351055, -37.930942 46.345090, -37.949813 46.339122, -37.968680 46.333151, -37.987543 46.327177, -38.006401 46.321199, -38.025256 46.315219, -38.044106 46.309236, -38.062952 46.303249, -38.081794 46.297259, -38.100632 46.291266, -38.119466 46.285271, -38.138296 46.279272, -38.157121 46.273270, -38.175943 46.267264, -38.194760 46.261256, -38.213573 46.255245, -38.232383 46.249230, -38.251188 46.243213, -38.269988 46.237192, -38.288785 46.231169, -38.307578 46.225142, -38.326366 46.219112, -38.345151 46.213079, -38.363931 46.207043, -38.382707 46.201004, -38.401479 46.194962, -38.420247 46.188917, -38.439010 46.182869, -38.457770 46.176817, -38.476525 46.170763, -38.495277 46.164706, -38.514024 46.158645, -38.532767 46.152582, -38.551506 46.146515, -38.570241 46.140445, -38.588971 46.134372, -38.607698 46.128297, -38.626420 46.122218, -38.645138 46.116136, -38.663853 46.110051, -38.682563 46.103963, -38.701268 46.097872, -38.719970 46.091777, -38.738668 46.085680, -38.757361 46.079580, -38.776051 46.073477, -38.794736 46.067370, -38.813417 46.061261, -38.832094 46.055149, -38.850767 46.049033, -38.869435 46.042915, -38.888100 46.036793, -38.906760 46.030668, -38.925416 46.024541, -38.944068 46.018410, -38.962716 46.012276, -38.981360 46.006140, -39.000000 46.000000, -39.020566 46.001100, -39.041132 46.002195, -39.061699 46.003288, -39.082268 46.004376, -39.102836 46.005461, -39.123406 46.006542, -39.143977 46.007619, -39.164548 46.008693, -39.185120 46.009763, -39.205693 46.010829, -39.226267 46.011892, -39.246841 46.012951, -39.267416 46.014006, -39.287992 46.015058, -39.308569 46.016105, -39.329147 46.017150, -39.349725 46.018190, -39.370305 46.019227, -39.390884 46.020260, -39.411465 46.021289, -39.432047 46.022315, -39.452629 46.023337, -39.473212 46.024355, -39.493796 46.025370, -39.514380 46.026381, -39.534965 46.027388, -39.555551 46.028392, -39.576138 46.029391, -39.596726 46.030387, -39.617314 46.031380, -39.637903 46.032369, -39.658492 46.033354, -39.679083 46.034335, -39.699674 46.035313, -39.720266 46.036287, -39.740859 46.037257, -39.761452 46.038223, -39.782046 46.039186, -39.802641 46.040145, -39.823236 46.041101, -39.843832 46.042053, -39.864429 46.043001, -39.885027 46.043945, -39.905625 46.044886, -39.926224 46.045823, -39.946824 46.046756, -39.967424 46.047685, -39.988026 46.048611, -40.008627 46.049533, -40.029230 46.050452, -40.049833 46.051367, -40.070437 46.052278, -40.091041 46.053185, -40.111647 46.054089, -40.132252 46.054989, -40.152859 46.055885, -40.173466 46.056777, -40.194074 46.057666, -40.214683 46.058551, -40.235292 46.059433, -40.255902 46.060311, -40.276512 46.061185, -40.297123 46.062055, -40.317735 46.062921, -40.338348 46.063784, -40.358961 46.064644, -40.379574 46.065499, -40.400189 46.066351, -40.420804 46.067199, -40.441419 46.068043, -40.462036 46.068884, -40.482653 46.069721, -40.503270 46.070554, -40.523888 46.071384, -40.544507 46.072210, -40.565126 46.073032, -40.585746 46.073850, -40.606367 46.074665, -40.626988 46.075476, -40.647610 46.076283, -40.668232 46.077087, -40.688855 46.077887, -40.709479 46.078683, -40.730103 46.079475, -40.750728 46.080264, -40.771353 46.081049, -40.791979 46.081830, -40.812606 46.082608, -40.833233 46.083382, -40.853861 46.084152, -40.874489 46.084919, -40.895118 46.085681, -40.915747 46.086440, -40.936377 46.087196, -40.957008 46.087947, -40.977639 46.088695, -40.998271 46.089440, -41.018903 46.090180, -41.039536 46.090917, -41.060169 46.091650, -41.080803 46.092379, -41.101437 46.093105, -41.122072 46.093827, -41.142708 46.094545, -41.163344 46.095260, -41.183980 46.095970, -41.204617 46.096678, -41.225255 46.097381, -41.245893 46.098081, -41.266532 46.098777, -41.287171 46.099469, -41.307811 46.100157, -41.328451 46.100842, -41.349092 46.101523, -41.369733 46.102201, -41.390375 46.102874, -41.411017 46.103544, -41.431660 46.104210, -41.452303 46.104873, -41.472947 46.105532, -41.493591 46.106187, -41.514236 46.106838, -41.534881 46.107486, -41.555527 46.108130, -41.576173 46.108770, -41.596819 46.109407, -41.617467 46.110039, -41.638114 46.110668, -41.658762 46.111294, -41.679411 46.111915, -41.700060 46.112533, -41.720709 46.113147, -41.741359 46.113758, -41.762010 46.114365, -41.782660 46.114968, -41.803312 46.115567, -41.823963 46.116163, -41.844616 46.116754, -41.865268 46.117343, -41.885921 46.117927, -41.906575 46.118508, -41.927229 46.119085, -41.947883 46.119658, -41.968538 46.120228, -41.989193 46.120793, -42.009849 46.121356, -42.030505 46.121914, -42.051161 46.122469, -42.071818 46.123020, -42.092475 46.123567, -42.113133 46.124110, -42.133791 46.124650, -42.154450 46.125186, -42.175109 46.125719, -42.195768 46.126247, -42.216428 46.126772, -42.237088 46.127293, -42.257748 46.127811, -42.278409 46.128325, -42.299071 46.128835, -42.319732 46.129341, -42.340394 46.129843, -42.361057 46.130342, -42.381719 46.130837, -42.402383 46.131329, -42.423046 46.131817, -42.443710 46.132300, -42.464374 46.132781, -42.485039 46.133257, -42.505704 46.133730, -42.526369 46.134199, -42.547035 46.134664, -42.567701 46.135126, -42.588367 46.135584, -42.609034 46.136038, -42.629701 46.136489, -42.650368 46.136935, -42.671036 46.137378, -42.691704 46.137818, -42.712372 46.138253, -42.733041 46.138685, -42.753710 46.139113, -42.774379 46.139537, -42.795049 46.139958, -42.815719 46.140375, -42.836389 46.140788, -42.857060 46.141198, -42.877731 46.141603, -42.898402 46.142005, -42.919073 46.142404, -42.939745 46.142798, -42.960417 46.143189, -42.981090 46.143576, -43.001762 46.143960, -43.022435 46.144339, -43.043109 46.144715, -43.063782 46.145087, -43.084456 46.145456, -43.105130 46.145821, -43.125804 46.146182, -43.146479 46.146539, -43.167154 46.146893, -43.187829 46.147242, -43.208504 46.147588, -43.229180 46.147931, -43.249856 46.148270, -43.270532 46.148604, -43.291209 46.148936, -43.311885 46.149263, -43.332562 46.149587, -43.353239 46.149907, -43.373917 46.150223, -43.394594 46.150536, -43.415272 46.150845, -43.435950 46.151150, -43.456629 46.151451, -43.477307 46.151749, -43.497986 46.152043, -43.518665 46.152333, -43.539344 46.152619, -43.560024 46.152902, -43.580703 46.153181, -43.601383 46.153456, -43.622063 46.153728, -43.642743 46.153996, -43.663424 46.154260, -43.684104 46.154520, -43.704785 46.154777, -43.725466 46.155030, -43.746148 46.155279, -43.766829 46.155524, -43.787511 46.155766, -43.808192 46.156004, -43.828874 46.156238, -43.849556 46.156469, -43.870239 46.156696, -43.890921 46.156919, -43.911604 46.157138, -43.932287 46.157354, -43.952970 46.157566, -43.973653 46.157774, -43.994336 46.157978, -44.015019 46.158179, -44.035703 46.158376, -44.056387 46.158569, -44.077071 46.158759, -44.097755 46.158944, -44.118439 46.159126, -44.139123 46.159305, -44.159807 46.159479, -44.180492 46.159650, -44.201177 46.159817, -44.221861 46.159981, -44.242546 46.160140, -44.263231 46.160296, -44.283916 46.160448, -44.304602 46.160597, -44.325287 46.160741, -44.345973 46.160882, -44.366658 46.161020, -44.387344 46.161153, -44.408030 46.161283, -44.428716 46.161409, -44.449401 46.161532, -44.470088 46.161650, -44.490774 46.161765, -44.511460 46.161876, -44.532146 46.161984, -44.552833 46.162087, -44.573519 46.162187, -44.594206 46.162283, -44.614892 46.162376, -44.635579 46.162465, -44.656266 46.162550, -44.676953 46.162631, -44.697639 46.162709, -44.718326 46.162782, -44.739013 46.162853, -44.759700 46.162919, -44.780387 46.162982, -44.801075 46.163040, -44.821762 46.163096, -44.842449 46.163147, -44.863136 46.163195, -44.883824 46.163239, -44.904511 46.163279, -44.925198 46.163316, -44.945886 46.163348, -44.966573 46.163377, -44.987260 46.163403, -45.007948 46.163424, -45.028635 46.163442, -45.049323 46.163456, -45.070010 46.163467, -45.090698 46.163473, -45.111385 46.163476, -45.132073 46.163476, -45.152760 46.163471, -45.173448 46.163463, -45.194135 46.163451, -45.214823 46.163435, -45.235510 46.163416, -45.256197 46.163392, -45.276885 46.163365, -45.297572 46.163335, -45.318260 46.163300, -45.338947 46.163262, -45.359634 46.163220, -45.380321 46.163175, -45.401009 46.163126, -45.421696 46.163073, -45.442383 46.163016, -45.463070 46.162955, -45.483757 46.162891, -45.504444 46.162823, -45.525131 46.162751, -45.545818 46.162676, -45.566505 46.162597, -45.587192 46.162514, -45.607878 46.162427, -45.628565 46.162337, -45.649252 46.162243, -45.669938 46.162145, -45.690625 46.162043, -45.711311 46.161938, -45.731997 46.161829, -45.752684 46.161716, -45.773370 46.161600, -45.794056 46.161480, -45.814742 46.161356, -45.835427 46.161228, -45.856113 46.161097, -45.876799 46.160962, -45.897484 46.160823, -45.918170 46.160680, -45.938855 46.160534, -45.959540 46.160384, -45.980225 46.160230, -46.000910 46.160072, -46.021595 46.159911, -46.042280 46.159746, -46.062965 46.159578, -46.083649 46.159405, -46.104333 46.159229, -46.125018 46.159049, -46.145702 46.158865, -46.166386 46.158678, -46.187070 46.158487, -46.207753 46.158292, -46.228437 46.158094, -46.249120 46.157891, -46.269803 46.157685, -46.290486 46.157476, -46.311169 46.157262, -46.331852 46.157045, -46.352535 46.156824, -46.373217 46.156599, -46.393899 46.156371, -46.414581 46.156139, -46.435263 46.155903, -46.455945 46.155663, -46.476626 46.155420, -46.497308 46.155173, -46.517989 46.154922, -46.538670 46.154668, -46.559350 46.154409, -46.580031 46.154148, -46.600711 46.153882, -46.621392 46.153612, -46.642072 46.153339, -46.662751 46.153062, -46.683431 46.152782, -46.704110 46.152497, -46.724789 46.152209, -46.745468 46.151918, -46.766147 46.151622, -46.786825 46.151323, -46.807504 46.151020, -46.828182 46.150713, -46.848859 46.150403, -46.869537 46.150089, -46.890214 46.149771, -46.910891 46.149449, -46.931568 46.149124, -46.952245 46.148795, -46.972921 46.148462, -46.993597 46.148125, -47.014273 46.147785, -47.034948 46.147441, -47.055624 46.147093, -47.076299 46.146742, -47.096973 46.146387, -47.117648 46.146028, -47.138322 46.145665, -47.158996 46.145299, -47.179670 46.144929, -47.200343 46.144555, -47.221016 46.144178, -47.241689 46.143796, -47.262362 46.143411, -47.283034 46.143023, -47.303706 46.142630, -47.324378 46.142234, -47.345049 46.141834, -47.365720 46.141431, -47.386391 46.141023, -47.407061 46.140612, -47.427731 46.140197, -47.448401 46.139779, -47.469071 46.139357, -47.489740 46.138931, -47.510409 46.138501, -47.531077 46.138068, -47.551746 46.137630, -47.572414 46.137190, -47.593081 46.136745, -47.613748 46.136297, -47.634415 46.135845, -47.655082 46.135389, -47.675748 46.134929, -47.696414 46.134466, -47.717079 46.133999, -47.737745 46.133529, -47.758409 46.133054, -47.779074 46.132576, -47.799738 46.132094, -47.820402 46.131609, -47.841065 46.131119, -47.861728 46.130626, -47.882391 46.130130, -47.903053 46.129629, -47.923715 46.129125, -47.944376 46.128617, -47.965037 46.128106, -47.985698 46.127590, -48.006358 46.127071, -48.027018 46.126548, -48.047678 46.126022, -48.068337 46.125492, -48.088996 46.124958, -48.109654 46.124420, -48.130312 46.123879, -48.150970 46.123334, -48.171627 46.122785, -48.192283 46.122232, -48.212940 46.121676, -48.233596 46.121116, -48.254251 46.120552, -48.274906 46.119985, -48.295561 46.119414, -48.316215 46.118839, -48.336869 46.118260, -48.357522 46.117678, -48.378175 46.117092, -48.398827 46.116502, -48.419479 46.115909, -48.440131 46.115312, -48.460782 46.114711, -48.481433 46.114106, -48.502083 46.113498, -48.522732 46.112886, -48.543382 46.112270, -48.564031 46.111650, -48.584679 46.111027, -48.605327 46.110400, -48.625974 46.109770, -48.646621 46.109135, -48.667268 46.108497, -48.687913 46.107855, -48.708559 46.107210, -48.729204 46.106561, -48.749849 46.105908, -48.770493 46.105251, -48.791136 46.104591, -48.811779 46.103926, -48.832422 46.103259, -48.853064 46.102587, -48.873705 46.101912, -48.894346 46.101233, -48.914987 46.100550, -48.935627 46.099864, -48.956266 46.099174, -48.976905 46.098480, -48.997544 46.097782, -49.018182 46.097081, -49.038819 46.096376, -49.059456 46.095667, -49.080092 46.094955, -49.100728 46.094239, -49.121363 46.093519, -49.141998 46.092796, -49.162632 46.092068, -49.183266 46.091337, -49.203899 46.090603, -49.224532 46.089864, -49.245163 46.089122, -49.265795 46.088376, -49.286426 46.087627, -49.307056 46.086874, -49.327686 46.086117, -49.348315 46.085356, -49.368944 46.084592, -49.389572 46.083824, -49.410199 46.083052, -49.430826 46.082276, -49.451452 46.081497, -49.472078 46.080714, -49.492703 46.079928, -49.513328 46.079137, -49.533952 46.078343, -49.554575 46.077545, -49.575198 46.076744, -49.595820 46.075939, -49.616441 46.075130, -49.637062 46.074317, -49.657683 46.073501, -49.678302 46.072681, -49.698922 46.071857, -49.719540 46.071030, -49.740158 46.070199, -49.760775 46.069364, -49.781392 46.068525, -49.802008 46.067683, -49.822623 46.066837, -49.843238 46.065988, -49.863852 46.065134, -49.884465 46.064277, -49.905078 46.063416, -49.925690 46.062552, -49.946302 46.061684, -49.966913 46.060812, -49.987523 46.059936, -50.008133 46.059057, -50.028742 46.058174, -50.049350 46.057287, -50.069957 46.056397, -50.090564 46.055503, -50.111171 46.054605, -50.131776 46.053703, -50.152381 46.052798, -50.172985 46.051889, -50.193589 46.050977, -50.214192 46.050060, -50.234794 46.049140, -50.255395 46.048216, -50.275996 46.047289, -50.296596 46.046358, -50.317196 46.045423, -50.337794 46.044484, -50.358393 46.043542, -50.378990 46.042596, -50.399586 46.041647, -50.420182 46.040693, -50.440778 46.039736, -50.461372 46.038776, -50.481966 46.037811, -50.502559 46.036843, -50.523151 46.035871, -50.543743 46.034896, -50.564334 46.033916, -50.584924 46.032934, -50.605513 46.031947, -50.626102 46.030957, -50.646690 46.029963, -50.667277 46.028965, -50.687863 46.027963, -50.708449 46.026958, -50.729034 46.025950, -50.749618 46.024937, -50.770201 46.023921, -50.790784 46.022901, -50.811366 46.021877, -50.831947 46.020850, -50.852528 46.019819, -50.873107 46.018785, -50.893686 46.017746, -50.914264 46.016704, -50.934841 46.015658, -50.955418 46.014609, -50.975994 46.013556, -50.996568 46.012499, -51.017143 46.011439, -51.037716 46.010374, -51.058289 46.009306, -51.078860 46.008235, -51.099431 46.007160, -51.120001 46.006081, -51.140571 46.004998, -51.161139 46.003912, -51.181707 46.002822, -51.202274 46.001728, -51.222840 46.000630, -51.243406 45.999529, -51.263970 45.998425, -51.284534 45.997316, -51.305097 45.996204, -51.325659 45.995088, -51.346220 45.993969, -51.366780 45.992845, -51.387340 45.991718, -51.407898 45.990588, -51.428456 45.989454, -51.449013 45.988316, -51.469569 45.987174, -51.490125 45.986029, -51.510679 45.984880, -51.531233 45.983727, -51.551785 45.982570, -51.572337 45.981410, -51.592888 45.980247, -51.613438 45.979079, -51.633988 45.977908, -51.654536 45.976733, -51.675084 45.975555, -51.695630 45.974373, -51.716176 45.973187, -51.736721 45.971997, -51.757265 45.970804, -51.777808 45.969607, -51.798350 45.968406, -51.818892 45.967202, -51.839432 45.965994, -51.859972 45.964783, -51.880510 45.963567, -51.901048 45.962348, -51.921585 45.961126, -51.942121 45.959899, -51.962656 45.958669, -51.983190 45.957436, -52.003723 45.956198, -52.024255 45.954957, -52.044787 45.953713, -52.065317 45.952464, -52.085847 45.951212, -52.106375 45.949956, -52.126903 45.948697, -52.147430 45.947434, -52.167955 45.946167, -52.188480 45.944897, -52.209004 45.943622, -52.229527 45.942345, -52.250049 45.941063, -52.270570 45.939778, -52.291090 45.938489, -52.311609 45.937197, -52.332128 45.935901, -52.352645 45.934601, -52.373161 45.933297, -52.393676 45.931990, -52.414191 45.930679, -52.434704 45.929365, -52.455216 45.928047, -52.475728 45.926725, -52.496238 45.925399, -52.516748 45.924070, -52.537256 45.922737, -52.557764 45.921401, -52.578270 45.920060, -52.598776 45.918717, -52.619280 45.917369, -52.639784 45.916018, -52.660286 45.914663, -52.680788 45.913304, -52.701288 45.911942, -52.721788 45.910576, -52.742286 45.909207, -52.762784 45.907834, -52.783280 45.906457, -52.803775 45.905076, -52.824270 45.903692, -52.844763 45.902304, -52.865256 45.900913, -52.885747 45.899517, -52.906237 45.898119, -52.926727 45.896716, -52.947215 45.895310, -52.967702 45.893900, -52.988188 45.892487, -53.008673 45.891070, -53.029157 45.889649, -53.049640 45.888224, -53.070122 45.886796, -53.090603 45.885364, -53.111083 45.883929, -53.131562 45.882490, -53.152040 45.881047, -53.172516 45.879601, -53.192992 45.878151, -53.213466 45.876697, -53.233940 45.875239, -53.254412 45.873778, -53.274883 45.872314, -53.295354 45.870845, -53.315823 45.869373, -53.336291 45.867898, -53.356758 45.866418, -53.377224 45.864935, -53.397688 45.863449, -53.418152 45.861958, -53.438615 45.860465, -53.459076 45.858967, -53.479537 45.857466, -53.499996 45.855961, -53.520454 45.854452, -53.540911 45.852940, -53.561367 45.851424, -53.581822 45.849905, -53.602276 45.848382, -53.622728 45.846855, -53.643180 45.845324, -53.663630 45.843790, -53.684079 45.842253, -53.704527 45.840711, -53.724974 45.839166, -53.745420 45.837618, -53.765865 45.836065, -53.786308 45.834509, -53.806751 45.832950, -53.827192 45.831386, -53.847632 45.829820, -53.868071 45.828249, -53.888509 45.826675, -53.908945 45.825097, -53.929381 45.823516, -53.949815 45.821930, -53.970248 45.820342, -53.990680 45.818749, -54.011111 45.817153, -54.031540 45.815554, -54.051969 45.813950, -54.072396 45.812343, -54.092822 45.810733, -54.113247 45.809118, -54.133671 45.807501, -54.154093 45.805879, -54.174515 45.804254, -54.194935 45.802625, -54.215354 45.800993, -54.235772 45.799357, -54.256188 45.797717, -54.276603 45.796074, -54.297018 45.794427, -54.317431 45.792776, -54.337842 45.791122, -54.358253 45.789464, -54.378662 45.787802, -54.399070 45.786137, -54.419477 45.784468, -54.439883 45.782796, -54.460287 45.781120, -54.480690 45.779440, -54.501092 45.777757, -54.521493 45.776070, -54.541892 45.774379, -54.562291 45.772685, -54.582688 45.770987, -54.603083 45.769286, -54.623478 45.767581, -54.643871 45.765872, -54.664263 45.764160, -54.684654 45.762444, -54.705043 45.760724, -54.725432 45.759001, -54.745819 45.757274, -54.766204 45.755544, -54.786589 45.753810, -54.806972 45.752072, -54.827354 45.750331, -54.847735 45.748586, -54.868114 45.746837, -54.888492 45.745085, -54.908869 45.743329, -54.929245 45.741570, -54.949619 45.739806, -54.969992 45.738040, -54.990363 45.736269, -55.010734 45.734495, -55.031103 45.732718, -55.051471 45.730937, -55.071837 45.729152, -55.092202 45.727363, -55.112566 45.725571, -55.132929 45.723776, -55.153290 45.721977, -55.173650 45.720174, -55.194009 45.718367, -55.214366 45.716557, -55.234722 45.714743, -55.255077 45.712926, -55.275430 45.711105, -55.295782 45.709280, -55.316133 45.707452, -55.336482 45.705620, -55.356830 45.703785, -55.377177 45.701946, -55.397522 45.700103, -55.417866 45.698257, -55.438209 45.696407, -55.458550 45.694554, -55.478890 45.692697, -55.499228 45.690836, -55.519566 45.688972, -55.539902 45.687104, -55.560236 45.685232, -55.580569 45.683357, -55.600901 45.681478, -55.621232 45.679596, -55.641561 45.677710, -55.661888 45.675821, -55.682215 45.673927, -55.702540 45.672031, -55.722863 45.670130, -55.743185 45.668226, -55.763506 45.666319, -55.783826 45.664408, -55.804144 45.662493, -55.824460 45.660574, -55.844776 45.658652, -55.865089 45.656727, -55.885402 45.654798, -55.905713 45.652865, -55.926023 45.650929, -55.946331 45.648989, -55.966638 45.647045, -55.986943 45.645098, -56.007247 45.643147, -56.027550 45.641193, -56.047851 45.639235, -56.068151 45.637273, -56.088449 45.635308, -56.108746 45.633339, -56.129041 45.631367, -56.149335 45.629391, -56.169628 45.627412, -56.189919 45.625428, -56.210209 45.623442, -56.230497 45.621451, -56.250784 45.619458, -56.271070 45.617460, -56.291354 45.615459, -56.311636 45.613454, -56.331917 45.611446, -56.352197 45.609434, -56.372475 45.607419, -56.392752 45.605400, -56.413027 45.603377, -56.433301 45.601351, -56.453573 45.599321, -56.473844 45.597288, -56.494113 45.595251, -56.514381 45.593211, -56.534648 45.591166, -56.554913 45.589119, -56.575176 45.587068, -56.595438 45.585013, -56.615699 45.582954, -56.635958 45.580892, -56.656215 45.578827, -56.676471 45.576757, -56.696726 45.574685, -56.716979 45.572608, -56.737230 45.570528, -56.757480 45.568445, -56.777729 45.566358, -56.797976 45.564267, -56.818221 45.562173, -56.838466 45.560075, -56.858708 45.557974, -56.878949 45.555869, -56.899188 45.553760, -56.919426 45.551648, -56.939663 45.549533, -56.959898 45.547413, -56.980131 45.545291, -57.000363 45.543164, -57.020593 45.541034, -57.040822 45.538901, -57.061049 45.536764, -57.081275 45.534623, -57.101499 45.532479, -57.121722 45.530331, -57.141943 45.528179, -57.162163 45.526025, -57.182381 45.523866, -57.202597 45.521704, -57.222812 45.519538, -57.243025 45.517369, -57.263237 45.515196, -57.283447 45.513020, -57.303656 45.510840, -57.323863 45.508657, -57.344068 45.506470, -57.364272 45.504279, -57.384475 45.502085, -57.404675 45.499887, -57.424875 45.497686, -57.445072 45.495481, -57.465268 45.493273, -57.485463 45.491061, -57.505656 45.488845, -57.525847 45.486626, -57.546037 45.484404, -57.566225 45.482177, -57.586411 45.479948, -57.606596 45.477714, -57.626779 45.475478, -57.646961 45.473237, -57.667141 45.470993, -57.687320 45.468746, -57.707496 45.466495, -57.727672 45.464240, -57.747845 45.461982, -57.768017 45.459720, -57.788188 45.457455, -57.808357 45.455186, -57.828524 45.452914, -57.848689 45.450638, -57.868853 45.448358, -57.889015 45.446075, -57.909176 45.443789, -57.929335 45.441499, -57.949492 45.439205, -57.969648 45.436908, -57.989802 45.434607, -58.009955 45.432303, -58.030105 45.429995, -58.050255 45.427684, -58.070402 45.425369, -58.090548 45.423050, -58.110692 45.420728, -58.130835 45.418403, -58.150975 45.416074, -58.171115 45.413741, -58.191252 45.411405, -58.211388 45.409065, -58.231522 45.406722, -58.251655 45.404375, -58.271786 45.402025, -58.291915 45.399671, -58.312042 45.397314, -58.332168 45.394953, -58.352292 45.392589, -58.372415 45.390221, -58.392535 45.387849, -58.412655 45.385474, -58.432772 45.383096, -58.452888 45.380714, -58.473002 45.378328, -58.493114 45.375939, -58.513224 45.373546, -58.533333 45.371150, -58.553441 45.368750, -58.573546 45.366347, -58.593650 45.363940, -58.613752 45.361530, -58.633852 45.359116, -58.653951 45.356699, -58.674048 45.354278, -58.694143 45.351853, -58.714236 45.349425, -58.734328 45.346994, -58.754418 45.344559, -58.774506 45.342120, -58.794593 45.339678, -58.814678 45.337233, -58.834761 45.334784, -58.854842 45.332331, -58.874922 45.329875, -58.895000 45.327415, -58.915076 45.324952, -58.935150 45.322486, -58.955223 45.320015, -58.975294 45.317542, -58.995363 45.315064, -59.015430 45.312584, -59.035496 45.310100, -59.055559 45.307612, -59.075622 45.305121, -59.095682 45.302626, -59.115740 45.300127, -59.135797 45.297626, -59.155852 45.295120, -59.175905 45.292612, -59.195957 45.290099, -59.216007 45.287583, -59.236054 45.285064, -59.256101 45.282541, -59.276145 45.280015, -59.296187 45.277485, -59.316228 45.274952, -59.336267 45.272415, -59.356304 45.269874, -59.376340 45.267331, -59.396373 45.264783, -59.416405 45.262232, -59.436435 45.259678, -59.456463 45.257120, -59.476490 45.254559, -59.496514 45.251994, -59.516537 45.249425, -59.536558 45.246854, -59.556577 45.244278, -59.576594 45.241699, -59.596610 45.239117, -59.616624 45.236531, -59.636635 45.233942, -59.656645 45.231349, -59.676654 45.228752, -59.696660 45.226153, -59.716665 45.223549, -59.736667 45.220942, -59.756668 45.218332, -59.776667 45.215718, -59.796664 45.213101, -59.816660 45.210480, -59.836653 45.207856, -59.856645 45.205228, -59.876635 45.202597, -59.896623 45.199962, -59.916609 45.197324, -59.936593 45.194682, -59.956575 45.192037, -59.976556 45.189388, -59.996535 45.186736, -60.016512 45.184081, -60.036486 45.181422, -60.056460 45.178759, -60.076431 45.176093, -60.096400 45.173423, -60.116368 45.170750, -60.136333 45.168074, -60.156297 45.165394, -60.176259 45.162710, -60.196219 45.160023, -60.216177 45.157333, -60.236133 45.154639, -60.256087 45.151942, -60.276040 45.149241, -60.295990 45.146536, -60.315939 45.143829, -60.335886 45.141117, -60.355830 45.138403, -60.375773 45.135684, -60.395714 45.132963, -60.415654 45.130237, -60.435591 45.127509, -60.455526 45.124777, -60.475459 45.122041, -60.495391 45.119302, -60.515321 45.116560, -60.535248 45.113814, -60.555174 45.111064, -60.575098 45.108311, -60.595020 45.105555, -60.614940 45.102795, -60.634858 45.100032, -60.654774 45.097265, -60.674688 45.094495, -60.694600 45.091721, -60.714511 45.088944, -60.734419 45.086164, -60.754325 45.083380, -60.774230 45.080592, -60.794132 45.077801, -60.814033 45.075007, -60.833932 45.072209, -60.853828 45.069407, -60.873723 45.066603, -60.893616 45.063794, -60.913507 45.060983, -60.933396 45.058168, -60.953283 45.055349, -60.973168 45.052527, -60.993051 45.049701, -61.012932 45.046873, -61.032811 45.044040, -61.052688 45.041204, -61.072563 45.038365, -61.092436 45.035522, -61.112307 45.032676, -61.132176 45.029826, -61.152044 45.026973, -61.171909 45.024117, -61.191772 45.021257, -61.211633 45.018394, -61.231493 45.015527, -61.251350 45.012656, -61.271205 45.009783, -61.291059 45.006906, -61.310910 45.004025, -61.330759 45.001141, -61.350607 44.998253, -61.370452 44.995362, -61.390295 44.992468, -61.410137 44.989570, -61.429976 44.986669, -61.449813 44.983764, -61.469648 44.980856, -61.489482 44.977945, -61.509313 44.975030, -61.529142 44.972111, -61.548969 44.969190, -61.568795 44.966264, -61.588618 44.963336, -61.608439 44.960404, -61.628258 44.957468, -61.648075 44.954529, -61.667890 44.951587, -61.687703 44.948641, -61.707514 44.945692, -61.727323 44.942739, -61.747130 44.939783, -61.766935 44.936823, -61.786738 44.933860, -61.806539 44.930894, -61.826337 44.927924, -61.846134 44.924951, -61.865929 44.921974, -61.885721 44.918994, -61.905512 44.916011, -61.925300 44.913024, -61.945087 44.910034, -61.964871 44.907040, -61.984654 44.904043, -62.004434 44.901042, -62.024212 44.898038, -62.043988 44.895031, -62.063762 44.892020, -62.083534 44.889006, -62.103304 44.885989, -62.123072 44.882968, -62.142838 44.879943, -62.162601 44.876915, -62.182363 44.873884, -62.202122 44.870849, -62.221880 44.867811, -62.241635 44.864770, -62.261388 44.861725, -62.281139 44.858677, -62.300888 44.855625, -62.320635 44.852570, -62.340380 44.849512, -62.360123 44.846450, -62.379864 44.843384, -62.399602 44.840316, -62.419339 44.837244, -62.439073 44.834168, -62.458805 44.831089, -62.478535 44.828007, -62.498264 44.824921, -62.517989 44.821832, -62.537713 44.818740, -62.557435 44.815644, -62.577154 44.812545, -62.596872 44.809442, -62.616587 44.806336, -62.636300 44.803227, -62.656012 44.800114, -62.675720 44.796998, -62.695427 44.793878, -62.715132 44.790755, -62.734835 44.787629, -62.754535 44.784499, -62.774233 44.781366, -62.793929 44.778229, -62.813623 44.775089, -62.833315 44.771946, -62.853005 44.768799, -62.872692 44.765649, -62.892378 44.762496, -62.912061 44.759339, -62.931742 44.756179, -62.951421 44.753015, -62.971098 44.749848, -62.990773 44.746678, -63.010445 44.743504, -63.030116 44.740327, -63.049784 44.737146, -63.069450 44.733963, -63.089114 44.730775, -63.108775 44.727585, -63.128435 44.724391, -63.148092 44.721193, -63.167747 44.717993, -63.187400 44.714789, -63.207051 44.711581, -63.226700 44.708370, -63.246346 44.705156, -63.265990 44.701938, -63.285632 44.698718, -63.305272 44.695493, -63.324910 44.692266, -63.344545 44.689035, -63.364179 44.685800, -63.383810 44.682562, -63.403439 44.679321, -63.423065 44.676077, -63.442690 44.672829, -63.462312 44.669578, -63.481932 44.666323, -63.501550 44.663065, -63.521166 44.659804, -63.540780 44.656539, -63.560391 44.653271, -63.580000 44.650000, -63.568649 44.638197, -63.557303 44.626393, -63.545962 44.614587, -63.534625 44.602781, -63.523293 44.590973, -63.511965 44.579165, -63.500642 44.567355, -63.489324 44.555544, -63.478010 44.543732, -63.466701 44.531919, -63.455396 44.520104, -63.444096 44.508289, -63.432801 44.496472, -63.421510 44.484655, -63.410224 44.472836, -63.398942 44.461016, -63.387665 44.449195, -63.376392 44.437373, -63.365124 44.425550, -63.353860 44.413726, -63.342602 44.401900, -63.331347 44.390074, -63.320097 44.378246, -63.308852 44.366417, -63.297611 44.354588, -63.286375 44.342757, -63.275143 44.330925, -63.263916 44.319091, -63.252694 44.307257, -63.241475 44.295422, -63.230262 44.283586, -63.219053 44.271748, -63.207848 44.259909, -63.196648 44.248070, -63.185453 44.236229, -63.174262 44.224387, -63.163075 44.212544, -63.151893 44.200700, -63.140716 44.188855, -63.129543 44.177009, -63.118374 44.165161, -63.107210 44.153313, -63.096050 44.141463, -63.084895 44.129613, -63.073745 44.117761, -63.062598 44.105908, -63.051457 44.094054, -63.040320 44.082199, -63.029187 44.070343, -63.018059 44.058486, -63.006935 44.046628, -62.995815 44.034769, -62.984700 44.022909, -62.973590 44.011047, -62.962484 43.999185, -62.951382 43.987321, -62.940285 43.975456, -62.929192 43.963591, -62.918104 43.951724, -62.907020 43.939856, -62.895941 43.927987, -62.884866 43.916117, -62.873795 43.904246, -62.862729 43.892374, -62.851667 43.880501, -62.840610 43.868627, -62.829557 43.856751, -62.818508 43.844875, -62.807464 43.832997, -62.796424 43.821119, -62.785389 43.809239, -62.774358 43.797359, -62.763331 43.785477, -62.752309 43.773594, -62.741291 43.761710, -62.730278 43.749825, -62.719268 43.737939, -62.708264 43.726052, -62.697263 43.714164, -62.686267 43.702275, -62.675276 43.690385, -62.664288 43.678494, -62.653306 43.666602, -62.642327 43.654708, -62.631353 43.642814, -62.620383 43.630919, -62.609417 43.619022, -62.598456 43.607125, -62.587499 43.595226, -62.576547 43.583326, -62.565599 43.571426, -62.554655 43.559524, -62.543715 43.547621, -62.532780 43.535718, -62.521849 43.523813, -62.510922 43.511907, -62.500000 43.500000, -62.518708 43.495460, -62.537412 43.490916, -62.556114 43.486370, -62.574813 43.481820, -62.593510 43.477268, -62.612203 43.472712, -62.630894 43.468154, -62.649581 43.463592, -62.668267 43.459027, -62.686949 43.454460, -62.705628 43.449889, -62.724305 43.445315, -62.742978 43.440738, -62.761649 43.436158, -62.780317 43.431575, -62.798982 43.426989, -62.817645 43.422400, -62.836304 43.417808, -62.854961 43.413213, -62.873615 43.408615, -62.892266 43.404014, -62.910914 43.399410, -62.929560 43.394803, -62.948202 43.390192, -62.966842 43.385579, -62.985479 43.380963, -63.004113 43.376344, -63.022744 43.371721, -63.041373 43.367096, -63.059998 43.362467, -63.078621 43.357836, -63.097241 43.353202, -63.115858 43.348564, -63.134472 43.343924, -63.153083 43.339280, -63.171692 43.334634, -63.190297 43.329984, -63.208900 43.325332, -63.227500 43.320676, -63.246097 43.316018, -63.264691 43.311356, -63.283283 43.306691, -63.301871 43.302024, -63.320457 43.297353, -63.339040 43.292680, -63.357619 43.288003, -63.376197 43.283323, -63.394771 43.278641, -63.413342 43.273955, -63.431911 43.269267, -63.450476 43.264575, -63.469039 43.259880, -63.487599 43.255183, -63.506156 43.250482, -63.524710 43.245778, -63.543262 43.241072, -63.561810 43.236362, -63.580356 43.231649, -63.598898 43.226934, -63.617438 43.222215, -63.635975 43.217494, -63.654509 43.212769, -63.673040 43.208041, -63.691569 43.203311, -63.710094 43.198577, -63.728617 43.193841, -63.747137 43.189101, -63.765653 43.184359, -63.784167 43.179613, -63.802679 43.174864, -63.821187 43.170113, -63.839692 43.165359, -63.858195 43.160601, -63.876694 43.155841, -63.895191 43.151077, -63.913685 43.146311, -63.932176 43.141541, -63.950664 43.136769, -63.969149 43.131994, -63.987631 43.127215, -64.006110 43.122434, -64.024587 43.117650, -64.043061 43.112863, -64.061531 43.108072, -64.079999 43.103279, -64.098464 43.098483, -64.116926 43.093684, -64.135385 43.088882, -64.153841 43.084077, -64.172295 43.079269, -64.190745 43.074458, -64.209193 43.069644, -64.227637 43.064827, -64.246079 43.060007, -64.264518 43.055184, -64.282954 43.050359, -64.301387 43.045530, -64.319817 43.040698, -64.338244 43.035864, -64.356669 43.031026, -64.375090 43.026185, -64.393509 43.021342, -64.411924 43.016495, -64.430337 43.011646, -64.448747 43.006794, -64.467154 43.001938, -64.485558 42.997080, -64.503959 42.992219, -64.522357 42.987355, -64.540752 42.982488, -64.559145 42.977618, -64.577534 42.972744, -64.595921 42.967869, -64.614304 42.962990, -64.632685 42.958108, -64.651063 42.953223, -64.669437 42.948335, -64.687809 42.943445, -64.706178 42.938551, -64.724544 42.933655, -64.742908 42.928755, -64.761268 42.923853, -64.779625 42.918947, -64.797980 42.914039, -64.816331 42.909128, -64.834680 42.904214, -64.853025 42.899297, -64.871368 42.894377, -64.889708 42.889454, -64.908044 42.884528, -64.926378 42.879599, -64.944709 42.874668, -64.963037 42.869733, -64.981363 42.864796, -64.999685 42.859855, -65.018004 42.854912, -65.036320 42.849965, -65.054634 42.845016, -65.072944 42.840064, -65.091252 42.835109, -65.109556 42.830151, -65.127858 42.825190, -65.146157 42.820226, -65.164452 42.815260, -65.182745 42.810290, -65.201035 42.805318, -65.219322 42.800342, -65.237606 42.795364, -65.255887 42.790383, -65.274165 42.785398, -65.292440 42.780411, -65.310713 42.775421, -65.328982 42.770428, -65.347248 42.765433, -65.365512 42.760434, -65.383772 42.755432, -65.402030 42.750428, -65.420284 42.745421, -65.438536 42.740410, -65.456784 42.735397, -65.475030 42.730381, -65.493273 42.725362, -65.511513 42.720340, -65.529749 42.715315, -65.547983 42.710288, -65.566214 42.705257, -65.584442 42.700224, -65.602667 42.695187, -65.620889 42.690148, -65.639108 42.685106, -65.657325 42.680061, -65.675538 42.675013, -65.693748 42.669962, -65.711955 42.664909, -65.730160 42.659852, -65.748361 42.654793, -65.766559 42.649731, -65.784755 42.644665, -65.802947 42.639597, -65.821137 42.634526, -65.839323 42.629453, -65.857507 42.624376, -65.875687 42.619296, -65.893865 42.614214, -65.912040 42.609129, -65.930211 42.604041, -65.948380 42.598949, -65.966546 42.593856, -65.984709 42.588759, -66.002868 42.583659, -66.021025 42.578557, -66.039179 42.573451, -66.057330 42.568343, -66.075478 42.563232, -66.093623 42.558118, -66.111765 42.553001, -66.129904 42.547881, -66.148040 42.542759, -66.166173 42.537633, -66.184303 42.532505, -66.202430 42.527374, -66.220554 42.522240, -66.238675 42.517103, -66.256793 42.511963, -66.274909 42.506821, -66.293021 42.501675, -66.311130 42.496527, -66.329236 42.491376, -66.347340 42.486222, -66.365440 42.481065, -66.383537 42.475906, -66.401631 42.470743, -66.419723 42.465578, -66.437811 42.460410, -66.455896 42.455239, -66.473979 42.450065, -66.492058 42.444888, -66.510134 42.439708, -66.528208 42.434526, -66.546278 42.429341, -66.564346 42.424153, -66.582410 42.418962, -66.600471 42.413768, -66.618530 42.408571, -66.636585 42.403372, -66.654638 42.398170, -66.672687 42.392965, -66.690734 42.387757, -66.708777 42.382546, -66.726818 42.377332, -66.744855 42.372116, -66.762890 42.366897, -66.780921 42.361675, -66.798950 42.356450, -66.816975 42.351222, -66.834997 42.345992, -66.853017 42.340758, -66.871033 42.335522, -66.889047 42.330283, -66.907057 42.325041, -66.925065 42.319797, -66.943069 42.314549, -66.961071 42.309299, -66.979069 42.304046, -66.997065 42.298790, -67.015057 42.293531, -67.033047 42.288270, -67.051033 42.283006, -67.069017 42.277738, -67.086997 42.272469, -67.104974 42.267196, -67.122949 42.261920, -67.140920 42.256642, -67.158889 42.251361, -67.176854 42.246077, -67.194816 42.240790, -67.212776 42.235500, -67.230732 42.230208, -67.248686 42.224913, -67.266636 42.219615, -67.284583 42.214314, -67.302527 42.209010, -67.320469 42.203704, -67.338407 42.198395, -67.356342 42.193083, -67.374275 42.187768, -67.392204 42.182451, -67.410130 42.177130, -67.428053 42.171807, -67.445973 42.166481, -67.463891 42.161153, -67.481805 42.155821, -67.499716 42.150487, -67.517624 42.145150, -67.535529 42.139810, -67.553431 42.134467, -67.571330 42.129122, -67.589226 42.123774, -67.607119 42.118423, -67.625009 42.113069, -67.642896 42.107713, -67.660780 42.102353, -67.678661 42.096991, -67.696539 42.091626, -67.714414 42.086259, -67.732286 42.080888, -67.750155 42.075515, -67.768020 42.070139, -67.785883 42.064760, -67.803743 42.059379, -67.821600 42.053995, -67.839453 42.048608, -67.857304 42.043218, -67.875151 42.037825, -67.892996 42.032430, -67.910838 42.027032, -67.928676 42.021631, -67.946512 42.016227, -67.964344 42.010821, -67.982174 42.005412, -68.000000 42.000000, -68.018954 42.002437, -68.037910 42.004872, -68.056867 42.007303, -68.075825 42.009731, -68.094785 42.012156, -68.113746 42.014578, -68.132709 42.016996, -68.151673 42.019412, -68.170639 42.021824, -68.189606 42.024234, -68.208575 42.026640, -68.227545 42.029043, -68.246516 42.031443, -68.265489 42.033840, -68.284463 42.036234, -68.303439 42.038624, -68.322416 42.041012, -68.341395 42.043396, -68.360375 42.045777, -68.379356 42.048155, -68.398339 42.050530, -68.417323 42.052902, -68.436309 42.055271, -68.455296 42.057636, -68.474284 42.059999, -68.493274 42.062358, -68.512265 42.064714, -68.531258 42.067067, -68.550252 42.069417, -68.569248 42.071764, -68.588245 42.074108, -68.607243 42.076448, -68.626243 42.078786, -68.645244 42.081120, -68.664246 42.083451, -68.683250 42.085779, -68.702256 42.088104, -68.721262 42.090426, -68.740271 42.092744, -68.759280 42.095060, -68.778291 42.097372, -68.797303 42.099681, -68.816317 42.101987, -68.835332 42.104290, -68.854348 42.106590, -68.873366 42.108886, -68.892385 42.111180, -68.911406 42.113470, -68.930428 42.115757, -68.949451 42.118041, -68.968476 42.120322, -68.987502 42.122600, -69.006529 42.124875, -69.025558 42.127146, -69.044588 42.129415, -69.063619 42.131680, -69.082652 42.133942, -69.101686 42.136201, -69.120722 42.138456, -69.139759 42.140709, -69.158797 42.142958, -69.177837 42.145205, -69.196878 42.147448, -69.215920 42.149688, -69.234964 42.151925, -69.254009 42.154158, -69.273055 42.156389, -69.292103 42.158616, -69.311152 42.160841, -69.330202 42.163062, -69.349254 42.165280, -69.368307 42.167495, -69.387361 42.169706, -69.406417 42.171915, -69.425474 42.174120, -69.444532 42.176322, -69.463592 42.178521, -69.482653 42.180717, -69.501716 42.182910, -69.520779 42.185099, -69.539844 42.187286, -69.558911 42.189469, -69.577978 42.191649, -69.597047 42.193826, -69.616117 42.196000, -69.635189 42.198171, -69.654262 42.200338, -69.673336 42.202502, -69.692411 42.204663, -69.711488 42.206821, -69.730566 42.208976, -69.749646 42.211128, -69.768726 42.213276, -69.787808 42.215422, -69.806892 42.217564, -69.825976 42.219703, -69.845062 42.221839, -69.864149 42.223972, -69.883238 42.226101, -69.902327 42.228227, -69.921418 42.230351, -69.940511 42.232471, -69.959604 42.234587, -69.978699 42.236701, -69.997795 42.238812, -70.016893 42.240919, -70.035991 42.243023, -70.055091 42.245124, -70.074193 42.247222, -70.093295 42.249317, -70.112399 42.251408, -70.131504 42.253497, -70.150610 42.255582, -70.169718 42.257664, -70.188827 42.259743, -70.207937 42.261818, -70.227048 42.263891, -70.246161 42.265960, -70.265274 42.268026, -70.284389 42.270089, -70.303506 42.272149, -70.322623 42.274206, -70.341742 42.276259, -70.360862 42.278309, -70.379984 42.280356, -70.399106 42.282400, -70.418230 42.284441, -70.437355 42.286479, -70.456481 42.288513, -70.475609 42.290544, -70.494738 42.292572, -70.513868 42.294597, -70.532999 42.296619, -70.552131 42.298637, -70.571265 42.300652, -70.590400 42.302664, -70.609536 42.304673, -70.628673 42.306679, -70.647812 42.308682, -70.666952 42.310681, -70.686093 42.312677, -70.705235 42.314670, -70.724378 42.316660, -70.743523 42.318647, -70.762669 42.320630, -70.781816 42.322611, -70.800964 42.324588, -70.820114 42.326562, -70.839264 42.328532, -70.858416 42.330500, -70.877569 42.332464, -70.896723 42.334425, -70.915879 42.336383, -70.935035 42.338338, -70.954193 42.340290, -70.973352 42.342238, -70.992512 42.344183, -71.011674 42.346126, -71.030836 42.348064, -71.050000 42.350000)
