LINESTRING (-2.610000 51.450000, -2.633310 51.449896, -2.656619 51.449787, -2.679929 51.449673, -2.703238 51.449555, -2.726547 51.449432, -2.749856 51.449305, -2.773165 51.449173, -2.796474 51.449036, -2.819783 51.448895, -2.843091 51.448749, -2.866399 51.448598, -2.889708 51.448443, -2.913016 51.448283, -2.936324 51.448119, -2.959631 51.447950, -2.982939 51.447776, -3.006246 51.447598, -3.029553 51.447415, -3.052860 51.447227, -3.076167 51.447035, -3.099474 51.446838, -3.122780 51.446637, -3.146086 51.446431, -3.169392 51.446220, -3.192698 51.446005, -3.216003 51.445785, -3.239309 51.445561, -3.262614 51.445331, -3.285919 51.445098, -3.309223 51.444859, -3.332527 51.444616, -3.355832 51.444369, -3.379135 51.444117, -3.402439 51.443860, -3.425742 51.443598, -3.449045 51.443332, -3.472348 51.443061, -3.495651 51.442786, -3.518953 51.442506, -3.542255 51.442222, -3.565556 51.441933, -3.588858 51.441639, -3.612159 51.441340, -3.635459 51.441037, -3.658760 51.440730, -3.682060 51.440417, -3.705360 51.440101, -3.728659 51.439779, -3.751958 51.439453, -3.775257 51.439122, -3.798555 51.438787, -3.821853 51.438447, -3.845151 51.438102, -3.868449 51.437753, -3.891746 51.437399, -3.915042 51.437041, -3.938339 51.436678, -3.961634 51.436310, -3.984930 51.435938, -4.008225 51.435561, -4.031520 51.435179, -4.054814 51.434793, -4.078108 51.434402, -4.101402 51.434007, -4.124695 51.433607, -4.147988 51.433202, -4.171280 51.432793, -4.194572 51.432379, -4.217864 51.431961, -4.241155 51.431538, -4.264445 51.431110, -4.287736 51.430678, -4.311025 51.430241, -4.334315 51.429799, -4.357604 51.429353, -4.380892 51.428902, -4.404180 51.428447, -4.427468 51.427987, -4.450755 51.427523, -4.474041 51.427053, -4.497327 51.426579, -4.520613 51.426101, -4.543898 51.425618, -4.567182 51.425130, -4.590466 51.424638, -4.613750 51.424141, -4.637033 51.423640, -4.660316 51.423134, -4.683598 51.422623, -4.706879 51.422107, -4.730160 51.421588, -4.753441 51.421063, -4.776721 51.420534, -4.800000 51.420000, -4.822994 51.417798, -4.845986 51.415591, -4.868976 51.413380, -4.891964 51.411165, -4.914949 51.408945, -4.937933 51.406720, -4.960913 51.404491, -4.983892 51.402257, -5.006869 51.400019, -5.029843 51.397777, -5.052815 51.395530, -5.075784 51.393278, -5.098752 51.391022, -5.121717 51.388762, -5.144680 51.386497, -5.167641 51.384227, -5.190599 51.381953, -5.213555 51.379675, -5.236509 51.377392, -5.259460 51.375105, -5.282409 51.372813, -5.305356 51.370516, -5.328301 51.368215, -5.351243 51.365910, -5.374183 51.363600, -5.397121 51.361286, -5.420056 51.358967, -5.442989 51.356644, -5.465920 51.354316, -5.488848 51.351984, -5.511774 51.349647, -5.534698 51.347306, -5.557619 51.344960, -5.580538 51.342610, -5.603454 51.340256, -5.626369 51.337897, -5.649281 51.335533, -5.672190 51.333165, -5.695097 51.330793, -5.718002 51.328416, -5.740904 51.326034, -5.763804 51.323649, -5.786702 51.321258, -5.809597 51.318863, -5.832490 51.316464, -5.855381 51.314060, -5.878269 51.311652, -5.901154 51.309240, -5.924038 51.306823, -5.946918 51.304401, -5.969797 51.301975, -5.992673 51.299545, -6.015546 51.297110, -6.038418 51.294670, -6.061286 51.292226, -6.084153 51.289778, -6.107016 51.287325, -6.129878 51.284868, -6.152737 51.282407, -6.175593 51.279940, -6.198447 51.277470, -6.221299 51.274995, -6.244148 51.272515, -6.266995 51.270032, -6.289839 51.267543, -6.312681 51.265050, -6.335520 51.262553, -6.358356 51.260052, -6.381191 51.257545, -6.404022 51.255035, -6.426852 51.252520, -6.449679 51.250001, -6.472503 51.247477, -6.495325 51.244948, -6.518144 51.242416, -6.540960 51.239878, -6.563775 51.237337, -6.586586 51.234791, -6.609396 51.232240, -6.632202 51.229685, -6.655006 51.227126, -6.677808 51.224562, -6.700607 51.221994, -6.723403 51.219421, -6.746197 51.216844, -6.768989 51.214263, -6.791777 51.211677, -6.814564 51.209087, -6.837347 51.206492, -6.860128 51.203893, -6.882907 51.201289, -6.905683 51.198681, -6.928456 51.196069, -6.951227 51.193452, -6.973995 51.190830, -6.996761 51.188205, -7.019524 51.185575, -7.042284 51.182940, -7.065042 51.180301, -7.087797 51.177658, -7.110550 51.175010, -7.133300 51.172358, -7.156047 51.169701, -7.178792 51.167040, -7.201534 51.164375, -7.224273 51.161705, -7.247010 51.159030, -7.269744 51.156352, -7.292476 51.153669, -7.315205 51.150981, -7.337931 51.148289, -7.360655 51.145593, -7.383376 51.142892, -7.406094 51.140187, -7.428810 51.137478, -7.451523 51.134764, -7.474233 51.132046, -7.496941 51.129323, -7.519646 51.126596, -7.542348 51.123865, -7.565047 51.121129, -7.587744 51.118388, -7.610438 51.115644, -7.633130 51.112895, -7.655819 51.110141, -7.678505 51.107383, -7.701188 51.104621, -7.723869 51.101855, -7.746547 51.099084, -7.769222 51.096308, -7.791894 51.093529, -7.814564 51.090744, -7.837231 51.087956, -7.859896 51.085163, -7.882557 51.082366, -7.905216 51.079564, -7.927872 51.076758, -7.950525 51.073948, -7.973176 51.071133, -7.995824 51.068314, -8.018469 51.065490, -8.041111 51.062662, -8.063751 51.059830, -8.086387 51.056993, -8.109021 51.054152, -8.131652 51.051307, -8.154281 51.048457, -8.176906 51.045603, -8.199529 51.042744, -8.222149 51.039881, -8.244767 51.037014, -8.267381 51.034142, -8.289993 51.031266, -8.312601 51.028386, -8.335207 51.025501, -8.357811 51.022612, -8.380411 51.019719, -8.403009 51.016821, -8.425603 51.013919, -8.448195 51.011012, -8.470784 51.008101, -8.493370 51.005186, -8.515954 51.002267, -8.538534 50.999343, -8.561112 50.996415, -8.583687 50.993482, -8.606259 50.990545, -8.628828 50.987604, -8.651394 50.984658, -8.673958 50.981708, -8.696518 50.978754, -8.719076 50.975795, -8.741631 50.972832, -8.764183 50.969864, -8.786732 50.966893, -8.809278 50.963917, -8.831821 50.960936, -8.854361 50.957951, -8.876899 50.954962, -8.899433 50.951969, -8.921965 50.948971, -8.944494 50.945969, -8.967020 50.942963, -8.989542 50.939952, -9.012062 50.936937, -9.034580 50.933917, -9.057094 50.930894, -9.079605 50.927865, -9.102113 50.924833, -9.124619 50.921796, -9.147121 50.918755, -9.169620 50.915710, -9.192117 50.912660, -9.214610 50.909606, -9.237101 50.906548, -9.259589 50.903485, -9.282073 50.900418, -9.304555 50.897347, -9.327034 50.894271, -9.349510 50.891191, -9.371983 50.888107, -9.394452 50.885018, -9.416919 50.881925, -9.439383 50.878828, -9.461844 50.875727, -9.484302 50.872621, -9.506757 50.869511, -9.529209 50.866396, -9.551658 50.863278, -9.574103 50.860155, -9.596546 50.857027, -9.618986 50.853896, -9.641423 50.850760, -9.663857 50.847619, -9.686288 50.844475, -9.708716 50.841326, -9.731140 50.838173, -9.753562 50.835015, -9.775981 50.831854, -9.798396 50.828687, -9.820809 50.825517, -9.843219 50.822343, -9.865625 50.819164, -9.888029 50.815980, -9.910429 50.812793, -9.932826 50.809601, -9.955221 50.806405, -9.977612 50.803205, -10.000000 50.800000, -10.022926 50.798730, -10.045851 50.797455, -10.068775 50.796176, -10.091698 50.794893, -10.114619 50.793604, -10.137539 50.792312, -10.160458 50.791015, -10.183376 50.789713, -10.206292 50.788407, -10.229207 50.787097, -10.252121 50.785781, -10.275033 50.784462, -10.297944 50.783138, -10.320854 50.781809, -10.343762 50.780476, -10.366670 50.779139, -10.389575 50.777797, -10.412480 50.776451, -10.435383 50.775100, -10.458285 50.773744, -10.481186 50.772384, -10.504085 50.771020, -10.526983 50.769651, -10.549879 50.768278, -10.572775 50.766900, -10.595668 50.765517, -10.618561 50.764131, -10.641452 50.762739, -10.664342 50.761344, -10.687230 50.759943, -10.710117 50.758539, -10.733003 50.757129, -10.755887 50.755716, -10.778770 50.754298, -10.801652 50.752875, -10.824532 50.751448, -10.847411 50.750016, -10.870288 50.748580, -10.893164 50.747140, -10.916038 50.745695, -10.938911 50.744245, -10.961783 50.742791, -10.984653 50.741333, -11.007522 50.739870, -11.030390 50.738403, -11.053256 50.736931, -11.076120 50.735454, -11.098983 50.733974, -11.121845 50.732488, -11.144705 50.730999, -11.167564 50.729504, -11.190421 50.728006, -11.213277 50.726503, -11.236131 50.724995, -11.258984 50.723483, -11.281835 50.721966, -11.304685 50.720445, -11.327534 50.718920, -11.350381 50.717390, -11.373226 50.715855, -11.396070 50.714317, -11.418912 50.712773, -11.441753 50.711225, -11.464593 50.709673, -11.487431 50.708117, -11.510267 50.706555, -11.533102 50.704990, -11.555935 50.703420, -11.578767 50.701845, -11.601597 50.700266, -11.624426 50.698683, -11.647253 50.697095, -11.670079 50.695502, -11.692903 50.693905, -11.715725 50.692304, -11.738546 50.690698, -11.761366 50.689088, -11.784184 50.687473, -11.807000 50.685854, -11.829815 50.684231, -11.852628 50.682603, -11.875439 50.680970, -11.898249 50.679333, -11.921058 50.677692, -11.943864 50.676046, -11.966669 50.674396, -11.989473 50.672741, -12.012275 50.671082, -12.035075 50.669418, -12.057874 50.667750, -12.080671 50.666078, -12.103466 50.664401, -12.126260 50.662719, -12.149052 50.661033, -12.171843 50.659343, -12.194632 50.657648, -12.217419 50.655949, -12.240205 50.654245, -12.262989 50.652537, -12.285771 50.650825, -12.308551 50.649108, -12.331330 50.647386, -12.354108 50.645661, -12.376883 50.643930, -12.399657 50.642196, -12.422429 50.640456, -12.445200 50.638713, -12.467969 50.636965, -12.490736 50.635212, -12.513502 50.633455, -12.536265 50.631694, -12.559027 50.629928, -12.581788 50.628158, -12.604546 50.626383, -12.627303 50.624604, -12.650058 50.622821, -12.672812 50.621033, -12.695564 50.619240, -12.718314 50.617444, -12.741062 50.615642, -12.763808 50.613837, -12.786553 50.612027, -12.809296 50.610212, -12.832037 50.608393, -12.854777 50.606570, -12.877515 50.604742, -12.900250 50.602910, -12.922985 50.601073, -12.945717 50.599232, -12.968448 50.597387, -12.991177 50.595537, -13.013904 50.593682, -13.036629 50.591824, -13.059352 50.589960, -13.082074 50.588093, -13.104794 50.586221, -13.127512 50.584344, -13.150228 50.582463, -13.172943 50.580578, -13.195655 50.578688, -13.218366 50.576794, -13.241075 50.574896, -13.263782 50.572993, -13.286487 50.571086, -13.309191 50.569174, -13.331892 50.567258, -13.354592 50.565337, -13.377290 50.563412, -13.399986 50.561483, -13.422680 50.559549, -13.445372 50.557610, -13.468063 50.555668, -13.490751 50.553721, -13.513438 50.551769, -13.536123 50.549813, -13.558806 50.547853, -13.581487 50.545888, -13.604166 50.543919, -13.626843 50.541946, -13.649519 50.539968, -13.672192 50.537986, -13.694864 50.535999, -13.717533 50.534008, -13.740201 50.532012, -13.762867 50.530012, -13.785531 50.528008, -13.808193 50.525999, -13.830853 50.523986, -13.853511 50.521969, -13.876167 50.519947, -13.898821 50.517921, -13.921473 50.515890, -13.944123 50.513855, -13.966772 50.511815, -13.989418 50.509772, -14.012063 50.507723, -14.034705 50.505671, -14.057346 50.503614, -14.079984 50.501552, -14.102621 50.499486, -14.125255 50.497416, -14.147888 50.495342, -14.170518 50.493263, -14.193147 50.491179, -14.215773 50.489091, -14.238398 50.486999, -14.261021 50.484903, -14.283641 50.482802, -14.306260 50.480696, -14.328876 50.478587, -14.351491 50.476473, -14.374103 50.474354, -14.396714 50.472231, -14.419322 50.470104, -14.441928 50.467973, -14.464533 50.465837, -14.487135 50.463696, -14.509735 50.461552, -14.532334 50.459403, -14.554930 50.457249, -14.577524 50.455091, -14.600116 50.452929, -14.622706 50.450762, -14.645294 50.448591, -14.667879 50.446416, -14.690463 50.444236, -14.713045 50.442052, -14.735624 50.439864, -14.758202 50.437671, -14.780777 50.435474, -14.803351 50.433272, -14.825922 50.431066, -14.848491 50.428856, -14.871058 50.426641, -14.893623 50.424422, -14.916185 50.422199, -14.938746 50.419971, -14.961305 50.417739, -14.983861 50.415503, -15.006415 50.413262, -15.028967 50.411017, -15.051517 50.408767, -15.074065 50.406513, -15.096611 50.404255, -15.119154 50.401992, -15.141696 50.399725, -15.164235 50.397454, -15.186772 50.395178, -15.209307 50.392898, -15.231839 50.390614, -15.254370 50.388325, -15.276898 50.386032, -15.299424 50.383735, -15.321948 50.381433, -15.344470 50.379127, -15.366990 50.376816, -15.389507 50.374501, -15.412023 50.372182, -15.434536 50.369859, -15.457046 50.367531, -15.479555 50.365199, -15.502061 50.362862, -15.524566 50.360521, -15.547067 50.358176, -15.569567 50.355826, -15.592065 50.353472, -15.614560 50.351114, -15.637053 50.348752, -15.659544 50.346385, -15.682032 50.344013, -15.704519 50.341638, -15.727003 50.339258, -15.749484 50.336873, -15.771964 50.334485, -15.794441 50.332092, -15.816916 50.329695, -15.839389 50.327293, -15.861859 50.324887, -15.884328 50.322477, -15.906793 50.320062, -15.929257 50.317643, -15.951718 50.315220, -15.974177 50.312792, -15.996634 50.310360, -16.019089 50.307924, -16.041541 50.305484, -16.063991 50.303039, -16.086438 50.300590, -16.108883 50.298136, -16.131326 50.295678, -16.153767 50.293216, -16.176205 50.290749, -16.198641 50.288279, -16.221075 50.285804, -16.243506 50.283324, -16.265935 50.280840, -16.288361 50.278352, -16.310785 50.275860, -16.333207 50.273363, -16.355627 50.270862, -16.378044 50.268357, -16.400459 50.265847, -16.422871 50.263333, -16.445281 50.260815, -16.467689 50.258292, -16.490094 50.255765, -16.512497 50.253234, -16.534898 50.250699, -16.557296 50.248159, -16.579692 50.245615, -16.602085 50.243066, -16.624476 50.240514, -16.646865 50.237957, -16.669251 50.235395, -16.691635 50.232830, -16.714016 50.230260, -16.736395 50.227686, -16.758772 50.225107, -16.781146 50.222524, -16.803517 50.219937, -16.825887 50.217346, -16.848254 50.214750, -16.870618 50.212150, -16.892980 50.209546, -16.915339 50.206937, -16.937697 50.204325, -16.960051 50.201707, -16.982403 50.199086, -17.004753 50.196460, -17.027100 50.193830, -17.049445 50.191196, -17.071787 50.188557, -17.094127 50.185915, -17.116465 50.183267, -17.138800 50.180616, -17.161132 50.177960, -17.183462 50.175300, -17.205789 50.172636, -17.228114 50.169967, -17.250437 50.167295, -17.272757 50.164618, -17.295074 50.161936, -17.317389 50.159250, -17.339702 50.156561, -17.362011 50.153866, -17.384319 50.151168, -17.406624 50.148465, -17.428926 50.145758, -17.451226 50.143047, -17.473523 50.140331, -17.495818 50.137611, -17.518110 50.134887, -17.540400 50.132159, -17.562687 50.129426, -17.584972 50.126689, -17.607254 50.123948, -17.629533 50.121203, -17.651810 50.118453, -17.674085 50.115699, -17.696357 50.112941, -17.718626 50.110179, -17.740893 50.107412, -17.763157 50.104641, -17.785418 50.101866, -17.807677 50.099086, -17.829934 50.096302, -17.852187 50.093514, -17.874439 50.090722, -17.896687 50.087926, -17.918933 50.085125, -17.941177 50.082320, -17.963417 50.079511, -17.985655 50.076697, -18.007891 50.073879, -18.030124 50.071057, -18.052354 50.068231, -18.074582 50.065401, -18.096807 50.062566, -18.119030 50.059727, -18.141249 50.056884, -18.163467 50.054036, -18.185681 50.051184, -18.207893 50.048329, -18.230102 50.045468, -18.252309 50.042604, -18.274513 50.039735, -18.296714 50.036862, -18.318913 50.033985, -18.341109 50.031104, -18.363302 50.028218, -18.385493 50.025328, -18.407681 50.022434, -18.429866 50.019536, -18.452049 50.016634, -18.474229 50.013727, -18.496406 50.010816, -18.518581 50.007901, -18.540753 50.004981, -18.562922 50.002058, -18.585088 49.999130, -18.607252 49.996198, -18.629413 49.993261, -18.651572 49.990321, -18.673727 49.987376, -18.695880 49.984427, -18.718030 49.981474, -18.740178 49.978517, -18.762323 49.975555, -18.784465 49.972589, -18.806604 49.969619, -18.828741 49.966645, -18.850875 49.963666, -18.873006 49.960684, -18.895134 49.957697, -18.917260 49.954706, -18.939383 49.951710, -18.961503 49.948711, -18.983620 49.945707, -19.005735 49.942699, -19.027847 49.939687, -19.049956 49.936671, -19.072062 49.933650, -19.094165 49.930626, -19.116266 49.927597, -19.138364 49.924563, -19.160459 49.921526, -19.182552 49.918485, -19.204641 49.915439, -19.226728 49.912389, -19.248812 49.909335, -19.270894 49.906277, -19.292972 49.903214, -19.315048 49.900147, -19.337120 49.897076, -19.359190 49.894001, -19.381258 49.890922, -19.403322 49.887839, -19.425384 49.884751, -19.447442 49.881659, -19.469498 49.878563, -19.491551 49.875463, -19.513601 49.872359, -19.535649 49.869250, -19.557693 49.866137, -19.579735 49.863021, -19.601774 49.859899, -19.623810 49.856774, -19.645843 49.853645, -19.667874 49.850511, -19.689901 49.847373, -19.711926 49.844231, -19.733947 49.841085, -19.755966 49.837935, -19.777982 49.834780, -19.799995 49.831622, -19.822006 49.828459, -19.844013 49.825292, -19.866017 49.822121, -19.888019 49.818946, -19.910018 49.815766, -19.932014 49.812582, -19.954007 49.809395, -19.975997 49.806203, -19.997984 49.803007, -20.019968 49.799806, -20.041949 49.796602, -20.063928 49.793393, -20.085903 49.790181, -20.107876 49.786964, -20.129845 49.783743, -20.151812 49.780517, -20.173776 49.777288, -20.195737 49.774054, -20.217695 49.770817, -20.239650 49.767575, -20.261602 49.764329, -20.283551 49.761079, -20.305497 49.757825, -20.327440 49.754566, -20.349380 49.751304, -20.371318 49.748037, -20.393252 49.744766, -20.415184 49.741491, -20.437112 49.738212, -20.459038 49.734929, -20.480960 49.731642, -20.502880 49.728350, -20.524796 49.725054, -20.546710 49.721755, -20.568620 49.718451, -20.590528 49.715143, -20.612433 49.711830, -20.634334 49.708514, -20.656233 49.705194, -20.678129 49.701869, -20.700021 49.698540, -20.721911 49.695208, -20.743798 49.691871, -20.765681 49.688530, -20.787562 49.685184, -20.809440 49.681835, -20.831314 49.678482, -20.853186 49.675124, -20.875054 49.671762, -20.896920 49.668397, -20.918782 49.665027, -20.940642 49.661653, -20.962498 49.658274, -20.984352 49.654892, -21.006202 49.651506, -21.028049 49.648115, -21.049894 49.644721, -21.071735 49.641322, -21.093573 49.637919, -21.115408 49.634512, -21.137240 49.631101, -21.159069 49.627686, -21.180895 49.624267, -21.202718 49.620844, -21.224538 49.617416, -21.246355 49.613985, -21.268169 49.610549, -21.289979 49.607109, -21.311787 49.603666, -21.333591 49.600218, -21.355393 49.596766, -21.377191 49.593309, -21.398986 49.589849, -21.420778 49.586385, -21.442567 49.582917, -21.464353 49.579444, -21.486136 49.575968, -21.507916 49.572487, -21.529692 49.569002, -21.551466 49.565513, -21.573236 49.562020, -21.595003 49.558523, -21.616767 49.555022, -21.638528 49.551517, -21.660286 49.548008, -21.682041 49.544495, -21.703793 49.540977, -21.725541 49.537456, -21.747286 49.533930, -21.769029 49.530401, -21.790768 49.526867, -21.812504 49.523329, -21.834236 49.519787, -21.855966 49.516242, -21.877693 49.512692, -21.899416 49.509138, -21.921136 49.505579, -21.942853 49.502017, -21.964567 49.498451, -21.986278 49.494881, -22.007985 49.491306, -22.029689 49.487728, -22.051391 49.484145, -22.073089 49.480559, -22.094783 49.476968, -22.116475 49.473374, -22.138163 49.469775, -22.159849 49.466172, -22.181531 49.462565, -22.203210 49.458955, -22.224885 49.455340, -22.246558 49.451721, -22.268227 49.448098, -22.289893 49.444471, -22.311556 49.440839, -22.333215 49.437204, -22.354872 49.433565, -22.376525 49.429922, -22.398175 49.426275, -22.419822 49.422623, -22.441465 49.418968, -22.463106 49.415308, -22.484743 49.411645, -22.506377 49.407978, -22.528007 49.404306, -22.549635 49.400630, -22.571259 49.396951, -22.592880 49.393267, -22.614498 49.389580, -22.636112 49.385888, -22.657723 49.382192, -22.679331 49.378493, -22.700936 49.374789, -22.722537 49.371081, -22.744135 49.367369, -22.765730 49.363653, -22.787322 49.359933, -22.808910 49.356210, -22.830495 49.352482, -22.852077 49.348750, -22.873656 49.345014, -22.895231 49.341274, -22.916803 49.337530, -22.938372 49.333782, -22.959937 49.330030, -22.981499 49.326274, -23.003058 49.322514, -23.024613 49.318750, -23.046166 49.314982, -23.067715 49.311210, -23.089260 49.307434, -23.110803 49.303654, -23.132342 49.299870, -23.153877 49.296082, -23.175410 49.292290, -23.196939 49.288494, -23.218465 49.284694, -23.239987 49.280890, -23.261506 49.277081, -23.283022 49.273269, -23.304534 49.269453, -23.326044 49.265633, -23.347549 49.261809, -23.369052 49.257981, -23.390551 49.254149, -23.412047 49.250313, -23.433539 49.246473, -23.455028 49.242629, -23.476514 49.238781, -23.497997 49.234930, -23.519476 49.231074, -23.540951 49.227214, -23.562424 49.223350, -23.583893 49.219482, -23.605358 49.215610, -23.626821 49.211734, -23.648280 49.207855, -23.669735 49.203971, -23.691187 49.200083, -23.712636 49.196191, -23.734082 49.192296, -23.755524 49.188396, -23.776962 49.184492, -23.798398 49.180585, -23.819829 49.176673, -23.841258 49.172758, -23.862683 49.168838, -23.884105 49.164915, -23.905523 49.160987, -23.926938 49.157056, -23.948350 49.153121, -23.969758 49.149181, -23.991162 49.145238, -24.012564 49.141291, -24.033962 49.137340, -24.055356 49.133385, -24.076747 49.129426, -24.098135 49.125463, -24.119519 49.121496, -24.140900 49.117525, -24.162277 49.113550, -24.183651 49.109571, -24.205022 49.105588, -24.226389 49.101602, -24.247752 49.097611, -24.269113 49.093617, -24.290469 49.089618, -24.311823 49.085616, -24.333173 49.081609, -24.354519 49.077599, -24.375862 49.073585, -24.397202 49.069566, -24.418538 49.065544, -24.439870 49.061518, -24.461200 49.057488, -24.482525 49.053454, -24.503848 49.049416, -24.525166 49.045375, -24.546482 49.041329, -24.567794 49.037279, -24.589102 49.033226, -24.610407 49.029168, -24.631708 49.025107, -24.653006 49.021042, -24.674301 49.016972, -24.695592 49.012899, -24.716879 49.008822, -24.738163 49.004741, -24.759444 49.000656, -24.780721 48.996567, -24.801994 48.992475, -24.823264 48.988378, -24.844531 48.984277, -24.865794 48.980173, -24.887054 48.976065, -24.908310 48.971952, -24.929562 48.967836, -24.950811 48.963716, -24.972057 48.959592, -24.993299 48.955464, -25.014537 48.951333, -25.035772 48.947197, -25.057004 48.943057, -25.078231 48.938914, -25.099456 48.934766, -25.120677 48.930615, -25.141894 48.926460, -25.163108 48.922301, -25.184318 48.918138, -25.205525 48.913971, -25.226728 48.909801, -25.247928 48.905626, -25.269124 48.901448, -25.290316 48.897265, -25.311505 48.893079, -25.332691 48.888889, -25.353873 48.884695, -25.375051 48.880497, -25.396226 48.876295, -25.417397 48.872090, -25.438565 48.867880, -25.459729 48.863667, -25.480890 48.859449, -25.502046 48.855228, -25.523200 48.851003, -25.544350 48.846774, -25.565496 48.842542, -25.586639 48.838305, -25.607778 48.834065, -25.628913 48.829820, -25.650045 48.825572, -25.671174 48.821320, -25.692299 48.817064, -25.713420 48.812804, -25.734537 48.808541, -25.755651 48.804273, -25.776762 48.800002, -25.797869 48.795727, -25.818972 48.791448, -25.840071 48.787165, -25.861167 48.782878, -25.882260 48.778587, -25.903349 48.774293, -25.924434 48.769995, -25.945515 48.765692, -25.966593 48.761386, -25.987668 48.757077, -26.008739 48.752763, -26.029806 48.748445, -26.050869 48.744124, -26.071929 48.739799, -26.092985 48.735470, -26.114038 48.731137, -26.135087 48.726800, -26.156132 48.722460, -26.177174 48.718115, -26.198212 48.713767, -26.219247 48.709415, -26.240277 48.705059, -26.261305 48.700700, -26.282328 48.696336, -26.303348 48.691969, -26.324364 48.687598, -26.345377 48.683223, -26.366386 48.678844, -26.387391 48.674461, -26.408393 48.670075, -26.429391 48.665685, -26.450385 48.661291, -26.471376 48.656893, -26.492363 48.652491, -26.513346 48.648086, -26.534326 48.643676, -26.555301 48.639263, -26.576274 48.634846, -26.597242 48.630425, -26.618207 48.626001, -26.639169 48.621573, -26.660126 48.617140, -26.681080 48.612704, -26.702030 48.608265, -26.722977 48.603821, -26.743920 48.599374, -26.764859 48.594923, -26.785795 48.590468, -26.806726 48.586009, -26.827654 48.581546, -26.848579 48.577080, -26.869500 48.572610, -26.890417 48.568136, -26.911330 48.563658, -26.932239 48.559177, -26.953145 48.554692, -26.974048 48.550203, -26.994946 48.545710, -27.015841 48.541213, -27.036732 48.536713, -27.057619 48.532209, -27.078503 48.527701, -27.099383 48.523189, -27.120259 48.518673, -27.141131 48.514154, -27.162000 48.509631, -27.182865 48.505104, -27.203726 48.500574, -27.224584 48.496039, -27.245438 48.491501, -27.266288 48.486959, -27.287134 48.482414, -27.307977 48.477864, -27.328816 48.473311, -27.349651 48.468754, -27.370482 48.464194, -27.391310 48.459629, -27.412134 48.455061, -27.432954 48.450489, -27.453770 48.445913, -27.474583 48.441334, -27.495392 48.436750, -27.516197 48.432163, -27.536998 48.427573, -27.557796 48.422978, -27.578590 48.418380, -27.599380 48.413778, -27.620166 48.409172, -27.640949 48.404563, -27.661727 48.399950, -27.682502 48.395333, -27.703274 48.390712, -27.724041 48.386088, -27.744805 48.381459, -27.765565 48.376828, -27.786321 48.372192, -27.807073 48.367553, -27.827822 48.362910, -27.848567 48.358263, -27.869308 48.353612, -27.890045 48.348958, -27.910778 48.344300, -27.931508 48.339638, -27.952234 48.334973, -27.972956 48.330304, -27.993674 48.325631, -28.014388 48.320954, -28.035099 48.316274, -28.055806 48.311590, -28.076509 48.306902, -28.097208 48.302210, -28.117904 48.297515, -28.138595 48.292816, -28.159283 48.288114, -28.179967 48.283407, -28.200647 48.278697, -28.221324 48.273984, -28.241996 48.269266, -28.262665 48.264545, -28.283330 48.259820, -28.303991 48.255091, -28.324649 48.250359, -28.345302 48.245623, -28.365952 48.240884, -28.386597 48.236140, -28.407239 48.231393, -28.427878 48.226642, -28.448512 48.221888, -28.469142 48.217130, -28.489769 48.212368, -28.510392 48.207603, -28.531011 48.202833, -28.551626 48.198060, -28.572237 48.193284, -28.592845 48.188504, -28.613448 48.183720, -28.634048 48.178932, -28.654644 48.174141, -28.675236 48.169346, -28.695824 48.164547, -28.716409 48.159745, -28.736989 48.154939, -28.757566 48.150129, -28.778139 48.145316, -28.798708 48.140499, -28.819273 48.135678, -28.839834 48.130854, -28.860391 48.126026, -28.880945 48.121194, -28.901494 48.116359, -28.922040 48.111520, -28.942582 48.106677, -28.963120 48.101831, -28.983654 48.096981, -29.004184 48.092127, -29.024711 48.087270, -29.045233 48.082409, -29.065752 48.077544, -29.086266 48.072676, -29.106777 48.067804, -29.127284 48.062929, -29.147787 48.058049, -29.168286 48.053166, -29.188782 48.048280, -29.209273 48.043390, -29.229761 48.038496, -29.250244 48.033599, -29.270724 48.028697, -29.291200 48.023793, -29.311672 48.018884, -29.332140 48.013972, -29.352604 48.009057, -29.373064 48.004138, -29.393521 47.999215, -29.413973 47.994288, -29.434421 47.989358, -29.454866 47.984424, -29.475307 47.979487, -29.495744 47.974546, -29.516176 47.969601, -29.536605 47.964653, -29.557030 47.959701, -29.577452 47.954745, -29.597869 47.949786, -29.618282 47.944824, -29.638691 47.939857, -29.659097 47.934887, -29.679498 47.929914, -29.699896 47.924936, -29.720290 47.919956, -29.740679 47.914971, -29.761065 47.909983, -29.781447 47.904991, -29.801825 47.899996, -29.822199 47.894997, -29.842569 47.889995, -29.862935 47.884989, -29.883298 47.879979, -29.903656 47.874966, -29.924010 47.869949, -29.944361 47.864928, -29.964707 47.859904, -29.985050 47.854877, -30.005388 47.849846, -30.025723 47.844811, -30.046053 47.839772, -30.066380 47.834730, -30.086703 47.829685, -30.107022 47.824635, -30.127337 47.819583, -30.147647 47.814526, -30.167954 47.809466, -30.188257 47.804403, -30.208556 47.799336, -30.228852 47.794265, -30.249143 47.789191, -30.269430 47.784113, -30.289713 47.779032, -30.309992 47.773947, -30.330267 47.768858, -30.350539 47.763766, -30.370806 47.758670, -30.391069 47.753571, -30.411329 47.748468, -30.431584 47.743362, -30.451835 47.738252, -30.472083 47.733138, -30.492326 47.728021, -30.512566 47.722901, -30.532801 47.717777, -30.553033 47.712649, -30.573260 47.707517, -30.593484 47.702383, -30.613704 47.697244, -30.633919 47.692102, -30.654131 47.686957, -30.674338 47.681808, -30.694542 47.676655, -30.714742 47.671499, -30.734937 47.666339, -30.755129 47.661176, -30.775316 47.656009, -30.795500 47.650839, -30.815680 47.645665, -30.835855 47.640488, -30.856027 47.635307, -30.876195 47.630122, -30.896358 47.624934, -30.916518 47.619743, -30.936674 47.614548, -30.956825 47.609349, -30.976973 47.604147, -30.997117 47.598941, -31.017256 47.593732, -31.037392 47.588519, -31.057523 47.583303, -31.077651 47.578084, -31.097775 47.572860, -31.117894 47.567633, -31.138010 47.562403, -31.158121 47.557169, -31.178229 47.551932, -31.198332 47.546691, -31.218432 47.541447, -31.238527 47.536199, -31.258618 47.530948, -31.278706 47.525693, -31.298789 47.520434, -31.318868 47.515172, -31.338944 47.509907, -31.359015 47.504638, -31.379082 47.499366, -31.399145 47.494090, -31.419205 47.488810, -31.439260 47.483528, -31.459311 47.478241, -31.479358 47.472951, -31.499401 47.467658, -31.519440 47.462361, -31.539475 47.457061, -31.559506 47.451757, -31.579533 47.446449, -31.599556 47.441139, -31.619574 47.435824, -31.639589 47.430506, -31.659600 47.425185, -31.679607 47.419860, -31.699609 47.414532, -31.719608 47.409200, -31.739602 47.403865, -31.759593 47.398527, -31.779579 47.393184, -31.799561 47.387839, -31.819540 47.382490, -31.839514 47.377137, -31.859484 47.371781, -31.879450 47.366422, -31.899412 47.361059, -31.919370 47.355692, -31.939324 47.350322, -31.959274 47.344949, -31.979220 47.339572, -31.999162 47.334192, -32.019100 47.328808, -32.039033 47.323421, -32.058963 47.318030, -32.078888 47.312636, -32.098810 47.307239, -32.118727 47.301838, -32.138640 47.296433, -32.158550 47.291025, -32.178455 47.285614, -32.198356 47.280199, -32.218253 47.274781, -32.238146 47.269359, -32.258035 47.263934, -32.277919 47.258505, -32.297800 47.253073, -32.317677 47.247638, -32.337549 47.242199, -32.357418 47.236757, -32.377282 47.231311, -32.397142 47.225862, -32.416999 47.220409, -32.436851 47.214953, -32.456699 47.209494, -32.476543 47.204031, -32.496383 47.198564, -32.516218 47.193095, -32.536050 47.187622, -32.555878 47.182145, -32.575701 47.176665, -32.595521 47.171182, -32.615336 47.165695, -32.635147 47.160204, -32.654954 47.154711, -32.674757 47.149214, -32.694556 47.143713, -32.714351 47.138209, -32.734142 47.132702, -32.753928 47.127191, -32.773711 47.121677, -32.793489 47.116159, -32.813264 47.110639, -32.833034 47.105114, -32.852800 47.099586, -32.872562 47.094055, -32.892320 47.088521, -32.912074 47.082983, -32.931823 47.077441, -32.951569 47.071897, -32.971311 47.066349, -32.991048 47.060797, -33.010781 47.055242, -33.030510 47.049684, -33.050235 47.044122, -33.069956 47.038557, -33.089673 47.032989, -33.109386 47.027417, -33.129094 47.021842, -33.148799 47.016263, -33.168499 47.010681, -33.188195 47.005096, -33.207887 46.999507, -33.227575 46.993915, -33.247259 46.988319, -33.266939 46.982720, -33.286615 46.977118, -33.306286 46.971513, -33.325954 46.965904, -33.345617 46.960291, -33.365276 46.954676, -33.384931 46.949057, -33.404582 46.943434, -33.424228 46.937808, -33.443871 46.932179, -33.463510 46.926547, -33.483144 46.920911, -33.502774 46.915272, -33.522400 46.909629, -33.542022 46.903983, -33.561640 46.898334, -33.581254 46.892681, -33.600863 46.887025, -33.620469 46.881366, -33.640070 46.875703, -33.659667 46.870037, -33.679260 46.864368, -33.698849 46.858695, -33.718434 46.853019, -33.738014 46.847340, -33.757591 46.841657, -33.777163 46.835971, -33.796731 46.830282, -33.816295 46.824589, -33.835855 46.818893, -33.855411 46.813193, -33.874962 46.807491, -33.894510 46.801785, -33.914053 46.796075, -33.933592 46.790362, -33.953127 46.784646, -33.972658 46.778927, -33.992184 46.773204, -34.011707 46.767478, -34.031225 46.761749, -34.050740 46.756016, -34.070250 46.750281, -34.089756 46.744541, -34.109257 46.738799, -34.128755 46.733053, -34.148248 46.727304, -34.167738 46.721551, -34.187223 46.715795, -34.206704 46.710036, -34.226181 46.704274, -34.245653 46.698508, -34.265122 46.692739, -34.284586 46.686967, -34.304046 46.681191, -34.323502 46.675412, -34.342954 46.669630, -34.362402 46.663844, -34.381845 46.658056, -34.401285 46.652263, -34.420720 46.646468, -34.440151 46.640669, -34.459578 46.634867, -34.479001 46.629062, -34.498419 46.623254, -34.517834 46.617442, -34.537244 46.611627, -34.556650 46.605808, -34.576052 46.599986, -34.595449 46.594162, -34.614843 46.588333, -34.634232 46.582502, -34.653618 46.576667, -34.672999 46.570829, -34.692375 46.564988, -34.711748 46.559143, -34.731117 46.553295, -34.750481 46.547444, -34.769841 46.541590, -34.789197 46.535732, -34.808549 46.529871, -34.827896 46.524007, -34.847240 46.518139, -34.866579 46.512268, -34.885914 46.506394, -34.905245 46.500517, -34.924572 46.494637, -34.943894 46.488753, -34.963213 46.482866, -34.982527 46.476976, -35.001837 46.471082, -35.021143 46.465185, -35.040444 46.459285, -35.059742 46.453382, -35.079035 46.447476, -35.098324 46.441566, -35.117609 46.435653, -35.136890 46.429737, -35.156166 46.423817, -35.175439 46.417895, -35.194707 46.411969, -35.213971 46.406039, -35.233230 46.400107, -35.252486 46.394171, -35.271737 46.388233, -35.290985 46.382290, -35.310228 46.376345, -35.329466 46.370397, -35.348701 46.364445, -35.367932 46.358490, -35.387158 46.352532, -35.406380 46.346570, -35.425598 46.340605, -35.444811 46.334638, -35.464021 46.328666, -35.483226 46.322692, -35.502427 46.316715, -35.521624 46.310734, -35.540817 46.304750, -35.560005 46.298763, -35.579190 46.292772, -35.598370 46.286779, -35.617546 46.280782, -35.636717 46.274782, -35.655885 46.268779, -35.675048 46.262772, -35.694207 46.256763, -35.713362 46.250750, -35.732513 46.244734, -35.751659 46.238715, -35.770802 46.232692, -35.789940 46.226667, -35.809074 46.220638, -35.828203 46.214606, -35.847329 46.208571, -35.866450 46.202532, -35.885567 46.196491, -35.904680 46.190446, -35.923789 46.184398, -35.942893 46.178347, -35.961993 46.172293, -35.981089 46.166235, -36.000181 46.160175, -36.019269 46.154111, -36.038352 46.148044, -36.057432 46.141974, -36.076507 46.135901, -36.095578 46.129824, -36.114644 46.123744, -36.133707 46.117661, -36.152765 46.111575, -36.171819 46.105486, -36.190868 46.099394, -36.209914 46.093298, -36.228955 46.087200, -36.247993 46.081098, -36.267025 46.074993, -36.286054 46.068885, -36.305079 46.062773, -36.324099 46.056659, -36.343115 46.050541, -36.362127 46.044421, -36.381135 46.038297, -36.400138 46.032170, -36.419137 46.026039, -36.438132 46.019906, -36.457123 46.013769, -36.476110 46.007630, -36.495092 46.001487, -36.514070 45.995341, -36.533044 45.989192, -36.552014 45.983040, -36.570979 45.976884, -36.589941 45.970726, -36.608898 45.964564, -36.627850 45.958399, -36.646799 45.952232, -36.665744 45.946061, -36.684684 45.939886, -36.703620 45.933709, -36.722551 45.927529, -36.741479 45.921345, -36.760402 45.915158, -36.779321 45.908969, -36.798236 45.902776, -36.817147 45.896580, -36.836053 45.890381, -36.854956 45.884178, -36.873854 45.877973, -36.892747 45.871764, -36.911637 45.865553, -36.930522 45.859338, -36.949403 45.853120, -36.968280 45.846899, -36.987153 45.840675, -37.006021 45.834448, -37.024886 45.828218, -37.043746 45.821985, -37.062601 45.815748, -37.081453 45.809509, -37.100300 45.803266, -37.119143 45.797020, -37.137982 45.790771, -37.156817 45.784519, -37.175647 45.778264, -37.194473 45.772006, -37.213295 45.765745, -37.232113 45.759481, -37.250927 45.753213, -37.269736 45.746943, -37.288541 45.740669, -37.307342 45.734392, -37.326138 45.728113, -37.344931 45.721830, -37.363719 45.715544, -37.382503 45.709255, -37.401283 45.702963, -37.420058 45.696668, -37.438829 45.690369, -37.457596 45.684068, -37.476359 45.677764, -37.495118 45.671456, -37.513872 45.665146, -37.532622 45.658832, -37.551368 45.652516, -37.570110 45.646196, -37.588847 45.639873, -37.607580 45.633547, -37.626309 45.627218, -37.645034 45.620887, -37.663754 45.614552, -37.682471 45.608213, -37.701183 45.601872, -37.719891 45.595528, -37.738594 45.589181, -37.757294 45.582831, -37.775989 45.576477, -37.794680 45.570121, -37.813366 45.563762, -37.832049 45.557399, -37.850727 45.551034, -37.869401 45.544665, -37.888070 45.538293, -37.906736 45.531919, -37.925397 45.525541, -37.944054 45.519160, -37.962707 45.512777, -37.981356 45.506390, -38.000000 45.500000, -38.020758 45.499989, -38.041516 45.499974, -38.062274 45.499955, -38.083032 45.499932, -38.103790 45.499906, -38.124548 45.499876, -38.145306 45.499842, -38.166064 45.499805, -38.186822 45.499763, -38.207580 45.499718, -38.228338 45.499670, -38.249096 45.499617, -38.269854 45.499561, -38.290611 45.499500, -38.311369 45.499437, -38.332127 45.499369, -38.352884 45.499298, -38.373642 45.499222, -38.394399 45.499143, -38.415157 45.499061, -38.435914 45.498974, -38.456671 45.498884, -38.477429 45.498790, -38.498186 45.498693, -38.518943 45.498591, -38.539700 45.498486, -38.560457 45.498377, -38.581214 45.498264, -38.601970 45.498148, -38.622727 45.498027, -38.643484 45.497903, -38.664240 45.497775, -38.684997 45.497644, -38.705753 45.497509, -38.726509 45.497370, -38.747265 45.497227, -38.768021 45.497080, -38.788777 45.496930, -38.809533 45.496776, -38.830288 45.496618, -38.851044 45.496456, -38.871799 45.496291, -38.892555 45.496122, -38.913310 45.495949, -38.934065 45.495772, -38.954820 45.495592, -38.975574 45.495408, -38.996329 45.495220, -39.017084 45.495028, -39.037838 45.494833, -39.058592 45.494633, -39.079346 45.494430, -39.100100 45.494224, -39.120854 45.494013, -39.141607 45.493799, -39.162361 45.493581, -39.183114 45.493359, -39.203867 45.493134, -39.224620 45.492904, -39.245373 45.492671, -39.266126 45.492435, -39.286878 45.492194, -39.307630 45.491950, -39.328382 45.491702, -39.349134 45.491450, -39.369886 45.491194, -39.390637 45.490935, -39.411389 45.490672, -39.432140 45.490405, -39.452891 45.490134, -39.473641 45.489860, -39.494392 45.489582, -39.515142 45.489300, -39.535892 45.489014, -39.556642 45.488725, -39.577392 45.488432, -39.598141 45.488135, -39.618891 45.487834, -39.639640 45.487530, -39.660388 45.487222, -39.681137 45.486910, -39.701885 45.486594, -39.722633 45.486275, -39.743381 45.485952, -39.764129 45.485625, -39.784876 45.485294, -39.805623 45.484959, -39.826370 45.484621, -39.847117 45.484279, -39.867863 45.483934, -39.888609 45.483584, -39.909355 45.483231, -39.930101 45.482874, -39.950846 45.482513, -39.971591 45.482149, -39.992336 45.481780, -40.013080 45.481408, -40.033825 45.481033, -40.054569 45.480653, -40.075312 45.480270, -40.096056 45.479883, -40.116799 45.479492, -40.137542 45.479097, -40.158284 45.478699, -40.179027 45.478297, -40.199768 45.477891, -40.220510 45.477482, -40.241251 45.477068, -40.261993 45.476651, -40.282733 45.476230, -40.303474 45.475806, -40.324214 45.475378, -40.344954 45.474945, -40.365693 45.474510, -40.386432 45.474070, -40.407171 45.473627, -40.427910 45.473180, -40.448648 45.472729, -40.469385 45.472274, -40.490123 45.471816, -40.510860 45.471354, -40.531597 45.470888, -40.552333 45.470418, -40.573070 45.469945, -40.593805 45.469468, -40.614541 45.468987, -40.635276 45.468502, -40.656011 45.468014, -40.676745 45.467522, -40.697479 45.467026, -40.718212 45.466526, -40.738946 45.466023, -40.759679 45.465516, -40.780411 45.465005, -40.801143 45.464490, -40.821875 45.463972, -40.842606 45.463450, -40.863337 45.462924, -40.884068 45.462394, -40.904798 45.461861, -40.925528 45.461324, -40.946257 45.460783, -40.966986 45.460238, -40.987715 45.459690, -41.008443 45.459138, -41.029171 45.458582, -41.049898 45.458022, -41.070625 45.457459, -41.091352 45.456892, -41.112078 45.456321, -41.132804 45.455747, -41.153529 45.455168, -41.174254 45.454586, -41.194978 45.454000, -41.215702 45.453411, -41.236426 45.452817, -41.257149 45.452220, -41.277872 45.451619, -41.298594 45.451015, -41.319316 45.450406, -41.340037 45.449794, -41.360758 45.449179, -41.381479 45.448559, -41.402199 45.447936, -41.422918 45.447309, -41.443637 45.446678, -41.464356 45.446043, -41.485074 45.445405, -41.505792 45.444763, -41.526509 45.444117, -41.547225 45.443468, -41.567942 45.442814, -41.588657 45.442157, -41.609373 45.441496, -41.630088 45.440832, -41.650802 45.440164, -41.671516 45.439492, -41.692229 45.438816, -41.712942 45.438136, -41.733654 45.437453, -41.754366 45.436766, -41.775077 45.436075, -41.795788 45.435381, -41.816498 45.434683, -41.837208 45.433981, -41.857917 45.433275, -41.878626 45.432566, -41.899334 45.431853, -41.920042 45.431136, -41.940749 45.430415, -41.961456 45.429691, -41.982162 45.428962, -42.002868 45.428231, -42.023573 45.427495, -42.044277 45.426756, -42.064981 45.426012, -42.085684 45.425266, -42.106387 45.424515, -42.127090 45.423761, -42.147791 45.423003, -42.168492 45.422241, -42.189193 45.421475, -42.209893 45.420706, -42.230593 45.419933, -42.251292 45.419156, -42.271990 45.418376, -42.292688 45.417592, -42.313385 45.416804, -42.334082 45.416012, -42.354778 45.415216, -42.375473 45.414417, -42.396168 45.413614, -42.416862 45.412808, -42.437556 45.411997, -42.458249 45.411183, -42.478942 45.410365, -42.499633 45.409544, -42.520325 45.408718, -42.541015 45.407889, -42.561706 45.407056, -42.582395 45.406220, -42.603084 45.405380, -42.623772 45.404536, -42.644460 45.403688, -42.665147 45.402836, -42.685833 45.401981, -42.706519 45.401122, -42.727204 45.400259, -42.747888 45.399393, -42.768572 45.398523, -42.789256 45.397649, -42.809938 45.396771, -42.830620 45.395890, -42.851301 45.395005, -42.871982 45.394116, -42.892662 45.393224, -42.913341 45.392327, -42.934020 45.391427, -42.954698 45.390524, -42.975375 45.389616, -42.996052 45.388705, -43.016728 45.387790, -43.037403 45.386871, -43.058078 45.385949, -43.078752 45.385023, -43.099425 45.384093, -43.120098 45.383159, -43.140770 45.382222, -43.161441 45.381281, -43.182112 45.380336, -43.202782 45.379388, -43.223451 45.378435, -43.244119 45.377479, -43.264787 45.376520, -43.285454 45.375556, -43.306120 45.374589, -43.326786 45.373618, -43.347451 45.372644, -43.368115 45.371665, -43.388779 45.370683, -43.409442 45.369698, -43.430104 45.368708, -43.450765 45.367715, -43.471426 45.366718, -43.492086 45.365717, -43.512745 45.364713, -43.533403 45.363705, -43.554061 45.362693, -43.574718 45.361677, -43.595374 45.360658, -43.616030 45.359635, -43.636684 45.358608, -43.657338 45.357578, -43.677991 45.356544, -43.698644 45.355506, -43.719296 45.354464, -43.739947 45.353419, -43.760597 45.352370, -43.781246 45.351317, -43.801895 45.350261, -43.822543 45.349200, -43.843190 45.348136, -43.863836 45.347069, -43.884482 45.345997, -43.905126 45.344922, -43.925770 45.343843, -43.946414 45.342761, -43.967056 45.341675, -43.987698 45.340585, -44.008338 45.339491, -44.028978 45.338394, -44.049618 45.337292, -44.070256 45.336188, -44.090894 45.335079, -44.111530 45.333967, -44.132166 45.332851, -44.152801 45.331731, -44.173436 45.330608, -44.194069 45.329481, -44.214702 45.328350, -44.235334 45.327215, -44.255965 45.326077, -44.276595 45.324935, -44.297224 45.323789, -44.317853 45.322640, -44.338481 45.321487, -44.359108 45.320330, -44.379734 45.319169, -44.400359 45.318005, -44.420983 45.316837, -44.441607 45.315665, -44.462229 45.314490, -44.482851 45.313311, -44.503472 45.312128, -44.524092 45.310941, -44.544711 45.309751, -44.565329 45.308557, -44.585947 45.307359, -44.606563 45.306158, -44.627179 45.304953, -44.647794 45.303744, -44.668408 45.302532, -44.689021 45.301315, -44.709633 45.300095, -44.730244 45.298872, -44.750855 45.297644, -44.771464 45.296413, -44.792073 45.295179, -44.812680 45.293940, -44.833287 45.292698, -44.853893 45.291452, -44.874498 45.290203, -44.895102 45.288949, -44.915705 45.287692, -44.936308 45.286432, -44.956909 45.285167, -44.977509 45.283899, -44.998109 45.282627, -45.018707 45.281352, -45.039305 45.280073, -45.059902 45.278790, -45.080497 45.277503, -45.101092 45.276213, -45.121686 45.274919, -45.142279 45.273621, -45.162871 45.272320, -45.183462 45.271015, -45.204052 45.269706, -45.224642 45.268393, -45.245230 45.267077, -45.265817 45.265757, -45.286403 45.264434, -45.306989 45.263106, -45.327573 45.261775, -45.348156 45.260441, -45.368739 45.259102, -45.389320 45.257760, -45.409901 45.256414, -45.430480 45.255065, -45.451059 45.253712, -45.471636 45.252355, -45.492213 45.250994, -45.512789 45.249630, -45.533363 45.248262, -45.553937 45.246890, -45.574509 45.245515, -45.595081 45.244136, -45.615652 45.242753, -45.636221 45.241367, -45.656790 45.239977, -45.677357 45.238583, -45.697924 45.237185, -45.718490 45.235784, -45.739054 45.234379, -45.759618 45.232971, -45.780180 45.231559, -45.800742 45.230143, -45.821302 45.228723, -45.841862 45.227300, -45.862420 45.225873, -45.882977 45.224442, -45.903534 45.223008, -45.924089 45.221569, -45.944643 45.220128, -45.965197 45.218682, -45.985749 45.217233, -46.006300 45.215780, -46.026850 45.214324, -46.047399 45.212864, -46.067947 45.211400, -46.088494 45.209932, -46.109040 45.208461, -46.129584 45.206986, -46.150128 45.205507, -46.170671 45.204025, -46.191212 45.202539, -46.211753 45.201049, -46.232292 45.199556, -46.252831 45.198059, -46.273368 45.196558, -46.293904 45.195054, -46.314439 45.193546, -46.334973 45.192034, -46.355506 45.190519, -46.376038 45.189000, -46.396569 45.187477, -46.417098 45.185950, -46.437627 45.184420, -46.458154 45.182886, -46.478680 45.181349, -46.499206 45.179808, -46.519730 45.178263, -46.540253 45.176714, -46.560774 45.175162, -46.581295 45.173606, -46.601815 45.172047, -46.622333 45.170484, -46.642851 45.168917, -46.663367 45.167346, -46.683882 45.165772, -46.704396 45.164194, -46.724909 45.162612, -46.745420 45.161027, -46.765931 45.159438, -46.786440 45.157846, -46.806948 45.156249, -46.827455 45.154649, -46.847961 45.153046, -46.868466 45.151439, -46.888970 45.149828, -46.909472 45.148213, -46.929974 45.146595, -46.950474 45.144973, -46.970973 45.143347, -46.991470 45.141718, -47.011967 45.140085, -47.032463 45.138448, -47.052957 45.136808, -47.073450 45.135164, -47.093942 45.133517, -47.114432 45.131865, -47.134922 45.130210, -47.155410 45.128552, -47.175897 45.126889, -47.196383 45.125224, -47.216868 45.123554, -47.237352 45.121881, -47.257834 45.120204, -47.278315 45.118523, -47.298795 45.116839, -47.319274 45.115151, -47.339751 45.113460, -47.360228 45.111764, -47.380703 45.110065, -47.401177 45.108363, -47.421649 45.106657, -47.442121 45.104947, -47.462591 45.103233, -47.483060 45.101516, -47.503528 45.099795, -47.523994 45.098071, -47.544459 45.096343, -47.564923 45.094611, -47.585386 45.092876, -47.605848 45.091137, -47.626308 45.089394, -47.646767 45.087647, -47.667225 45.085897, -47.687681 45.084144, -47.708136 45.082386, -47.728590 45.080625, -47.749043 45.078861, -47.769495 45.077092, -47.789945 45.075320, -47.810394 45.073545, -47.830841 45.071766, -47.851288 45.069983, -47.871733 45.068196, -47.892177 45.066406, -47.912619 45.064612, -47.933061 45.062815, -47.953501 45.061014, -47.973939 45.059209, -47.994377 45.057400, -48.014813 45.055588, -48.035248 45.053773, -48.055681 45.051953, -48.076113 45.050130, -48.096544 45.048304, -48.116974 45.046473, -48.137402 45.044639, -48.157829 45.042802, -48.178255 45.040961, -48.198679 45.039116, -48.219102 45.037267, -48.239524 45.035415, -48.259944 45.033559, -48.280363 45.031700, -48.300781 45.029837, -48.321198 45.027970, -48.341613 45.026100, -48.362026 45.024226, -48.382439 45.022348, -48.402850 45.020467, -48.423260 45.018582, -48.443668 45.016694, -48.464075 45.014802, -48.484481 45.012906, -48.504885 45.011006, -48.525288 45.009103, -48.545690 45.007197, -48.566090 45.005286, -48.586489 45.003373, -48.606886 45.001455, -48.627282 44.999534, -48.647677 44.997609, -48.668071 44.995680, -48.688463 44.993748, -48.708853 44.991813, -48.729243 44.989873, -48.749630 44.987930, -48.770017 44.985984, -48.790402 44.984034, -48.810786 44.982080, -48.831168 44.980122, -48.851549 44.978161, -48.871929 44.976196, -48.892307 44.974228, -48.912684 44.972256, -48.933059 44.970281, -48.953433 44.968301, -48.973806 44.966318, -48.994177 44.964332, -49.014547 44.962342, -49.034915 44.960348, -49.055282 44.958351, -49.075647 44.956350, -49.096011 44.954345, -49.116374 44.952337, -49.136735 44.950325, -49.157095 44.948310, -49.177453 44.946291, -49.197810 44.944268, -49.218166 44.942242, -49.238520 44.940212, -49.258872 44.938179, -49.279224 44.936142, -49.299573 44.934101, -49.319922 44.932057, -49.340268 44.930009, -49.360614 44.927957, -49.380958 44.925902, -49.401300 44.923843, -49.421641 44.921781, -49.441981 44.919715, -49.462319 44.917645, -49.482655 44.915572, -49.502991 44.913495, -49.523324 44.911415, -49.543656 44.909331, -49.563987 44.907243, -49.584316 44.905152, -49.604644 44.903057, -49.624970 44.900958, -49.645295 44.898856, -49.665619 44.896751, -49.685940 44.894641, -49.706261 44.892528, -49.726580 44.890412, -49.746897 44.888292, -49.767213 44.886168, -49.787527 44.884041, -49.807840 44.881910, -49.828151 44.879775, -49.848461 44.877637, -49.868769 44.875496, -49.889076 44.873350, -49.909381 44.871201, -49.929685 44.869049, -49.949987 44.866893, -49.970288 44.864733, -49.990587 44.862570, -50.010885 44.860403, -50.031181 44.858232, -50.051476 44.856058, -50.071769 44.853881, -50.092060 44.851699, -50.112350 44.849515, -50.132639 44.847326, -50.152926 44.845134, -50.173211 44.842938, -50.193495 44.840739, -50.213777 44.838536, -50.234058 44.836330, -50.254337 44.834120, -50.274615 44.831906, -50.294891 44.829689, -50.315165 44.827468, -50.335438 44.825244, -50.355710 44.823016, -50.375979 44.820785, -50.396248 44.818550, -50.416514 44.816311, -50.436779 44.814069, -50.457043 44.811823, -50.477305 44.809573, -50.497565 44.807320, -50.517824 44.805064, -50.538081 44.802804, -50.558337 44.800540, -50.578591 44.798273, -50.598843 44.796002, -50.619094 44.793727, -50.639343 44.791449, -50.659591 44.789167, -50.679837 44.786882, -50.700081 44.784593, -50.720324 44.782301, -50.740565 44.780005, -50.760804 44.777705, -50.781042 44.775402, -50.801279 44.773096, -50.821514 44.770785, -50.841747 44.768472, -50.861978 44.766154, -50.882208 44.763833, -50.902436 44.761509, -50.922663 44.759181, -50.942888 44.756849, -50.963111 44.754514, -50.983333 44.752175, -51.003553 44.749832, -51.023771 44.747487, -51.043988 44.745137, -51.064203 44.742784, -51.084417 44.740427, -51.104629 44.738067, -51.124839 44.735703, -51.145047 44.733336, -51.165254 44.730965, -51.185459 44.728591, -51.205663 44.726212, -51.225865 44.723831, -51.246065 44.721446, -51.266264 44.719057, -51.286461 44.716665, -51.306656 44.714269, -51.326849 44.711870, -51.347041 44.709467, -51.367231 44.707060, -51.387420 44.704650, -51.407607 44.702236, -51.427792 44.699819, -51.447975 44.697398, -51.468157 44.694974, -51.488337 44.692546, -51.508516 44.690115, -51.528692 44.687680, -51.548867 44.685241, -51.569041 44.682799, -51.589212 44.680354, -51.609382 44.677905, -51.629550 44.675452, -51.649717 44.672996, -51.669882 44.670536, -51.690045 44.668073, -51.710206 44.665606, -51.730366 44.663135, -51.750524 44.660661, -51.770680 44.658184, -51.790834 44.655703, -51.810987 44.653218, -51.831138 44.650730, -51.851287 44.648238, -51.871435 44.645743, -51.891581 44.643244, -51.911725 44.640742, -51.931867 44.638236, -51.952008 44.635726, -51.972147 44.633213, -51.992284 44.630697, -52.012419 44.628177, -52.032553 44.625653, -52.052685 44.623126, -52.072815 44.620596, -52.092943 44.618061, -52.113070 44.615524, -52.133194 44.612982, -52.153317 44.610438, -52.173439 44.607889, -52.193558 44.605338, -52.213676 44.602782, -52.233792 44.600223, -52.253906 44.597661, -52.274019 44.595095, -52.294129 44.592525, -52.314238 44.589952, -52.334345 44.587376, -52.354451 44.584796, -52.374554 44.582212, -52.394656 44.579625, -52.414756 44.577034, -52.434854 44.574440, -52.454951 44.571842, -52.475045 44.569241, -52.495138 44.566636, -52.515229 44.564028, -52.535318 44.561416, -52.555406 44.558801, -52.575491 44.556182, -52.595575 44.553560, -52.615657 44.550934, -52.635737 44.548304, -52.655815 44.545672, -52.675892 44.543035, -52.695966 44.540395, -52.716039 44.537752, -52.736110 44.535105, -52.756180 44.532454, -52.776247 44.529800, -52.796313 44.527143, -52.816376 44.524482, -52.836438 44.521817, -52.856498 44.519149, -52.876556 44.516477, -52.896613 44.513802, -52.916667 44.511124, -52.936720 44.508442, -52.956771 44.505756, -52.976820 44.503067, -52.996867 44.500374, -53.016912 44.497678, -53.036956 44.494978, -53.056997 44.492275, -53.077037 44.489569, -53.097075 44.486859, -53.117111 44.484145, -53.137145 44.481428, -53.157177 44.478707, -53.177208 44.475983, -53.197236 44.473255, -53.217263 44.470524, -53.237288 44.467789, -53.257310 44.465051, -53.277331 44.462310, -53.297351 44.459564, -53.317368 44.456816, -53.337383 44.454064, -53.357397 44.451308, -53.377408 44.448549, -53.397418 44.445786, -53.417426 44.443020, -53.437432 44.440251, -53.457436 44.437477, -53.477438 44.434701, -53.497438 44.431921, -53.517436 44.429137, -53.537433 44.426350, -53.557427 44.423560, -53.577420 44.420766, -53.597410 44.417968, -53.617399 44.415167, -53.637386 44.412362, -53.657371 44.409554, -53.677354 44.406743, -53.697335 44.403928, -53.717314 44.401110, -53.737291 44.398288, -53.757267 44.395462, -53.777240 44.392633, -53.797212 44.389801, -53.817181 44.386965, -53.837149 44.384126, -53.857114 44.381283, -53.877078 44.378437, -53.897040 44.375587, -53.916999 44.372734, -53.936957 44.369877, -53.956913 44.367017, -53.976867 44.364153, -53.996819 44.361286, -54.016769 44.358416, -54.036717 44.355542, -54.056663 44.352664, -54.076608 44.349783, -54.096550 44.346898, -54.116490 44.344011, -54.136428 44.341119, -54.156365 44.338224, -54.176299 44.335326, -54.196231 44.332424, -54.216162 44.329519, -54.236090 44.326610, -54.256017 44.323698, -54.275941 44.320782, -54.295864 44.317863, -54.315784 44.314940, -54.335703 44.312014, -54.355619 44.309085, -54.375534 44.306152, -54.395446 44.303215, -54.415357 44.300275, -54.435266 44.297332, -54.455172 44.294385, -54.475077 44.291435, -54.494979 44.288481, -54.514880 44.285524, -54.534778 44.282563, -54.554675 44.279599, -54.574569 44.276632, -54.594462 44.273661, -54.614353 44.270686, -54.634241 44.267708, -54.654128 44.264727, -54.674012 44.261742, -54.693894 44.258754, -54.713775 44.255762, -54.733653 44.252767, -54.753530 44.249768, -54.773404 44.246766, -54.793276 44.243761, -54.813147 44.240752, -54.833015 44.237740, -54.852881 44.234724, -54.872745 44.231705, -54.892608 44.228682, -54.912468 44.225656, -54.932326 44.222626, -54.952182 44.219593, -54.972036 44.216557, -54.991888 44.213517, -55.011737 44.210473, -55.031585 44.207427, -55.051431 44.204376, -55.071275 44.201323, -55.091116 44.198266, -55.110956 44.195205, -55.130794 44.192141, -55.150629 44.189074, -55.170462 44.186003, -55.190294 44.182929, -55.210123 44.179851, -55.229950 44.176770, -55.249775 44.173685, -55.269598 44.170597, -55.289419 44.167506, -55.309238 44.164411, -55.329055 44.161313, -55.348870 44.158211, -55.368682 44.155106, -55.388493 44.151998, -55.408302 44.148886, -55.428108 44.145770, -55.447912 44.142652, -55.467714 44.139529, -55.487514 44.136404, -55.507312 44.133275, -55.527108 44.130142, -55.546902 44.127006, -55.566694 44.123867, -55.586483 44.120724, -55.606271 44.117578, -55.626056 44.114429, -55.645840 44.111276, -55.665621 44.108119, -55.685400 44.104960, -55.705177 44.101796, -55.724952 44.098630, -55.744724 44.095460, -55.764495 44.092286, -55.784263 44.089109, -55.804030 44.085929, -55.823794 44.082746, -55.843556 44.079558, -55.863316 44.076368, -55.883074 44.073174, -55.902829 44.069977, -55.922583 44.066776, -55.942334 44.063572, -55.962084 44.060365, -55.981831 44.057154, -56.001576 44.053939, -56.021318 44.050722, -56.041059 44.047501, -56.060798 44.044276, -56.080534 44.041048, -56.100268 44.037817, -56.120000 44.034582, -56.139730 44.031344, -56.159458 44.028103, -56.179184 44.024858, -56.198907 44.021610, -56.218628 44.018358, -56.238348 44.015103, -56.258065 44.011845, -56.277779 44.008583, -56.297492 44.005318, -56.317202 44.002049, -56.336911 43.998777, -56.356617 43.995502, -56.376321 43.992223, -56.396023 43.988941, -56.415722 43.985655, -56.435420 43.982366, -56.455115 43.979074, -56.474808 43.975778, -56.494499 43.972479, -56.514187 43.969177, -56.533874 43.965871, -56.553558 43.962562, -56.573240 43.959249, -56.592920 43.955933, -56.612598 43.952614, -56.632273 43.949291, -56.651946 43.945965, -56.671617 43.942636, -56.691286 43.939303, -56.710953 43.935967, -56.730617 43.932627, -56.750280 43.929284, -56.769940 43.925938, -56.789598 43.922588, -56.809253 43.919235, -56.828907 43.915879, -56.848558 43.912519, -56.868207 43.909156, -56.887853 43.905789, -56.907498 43.902419, -56.927140 43.899046, -56.946780 43.895669, -56.966418 43.892289, -56.986054 43.888906, -57.005687 43.885519, -57.025318 43.882129, -57.044947 43.878736, -57.064574 43.875339, -57.084198 43.871939, -57.103820 43.868535, -57.123440 43.865128, -57.143058 43.861718, -57.162673 43.858304, -57.182287 43.854888, -57.201898 43.851467, -57.221506 43.848044, -57.241113 43.844617, -57.260717 43.841186, -57.280319 43.837753, -57.299919 43.834316, -57.319516 43.830875, -57.339111 43.827431, -57.358704 43.823984, -57.378295 43.820534, -57.397883 43.817080, -57.417469 43.813623, -57.437053 43.810162, -57.456635 43.806699, -57.476214 43.803231, -57.495791 43.799761, -57.515366 43.796287, -57.534938 43.792810, -57.554508 43.789329, -57.574076 43.785846, -57.593642 43.782358, -57.613205 43.778868, -57.632766 43.775374, -57.652325 43.771877, -57.671882 43.768376, -57.691436 43.764872, -57.710988 43.761365, -57.730537 43.757855, -57.750085 43.754341, -57.769630 43.750823, -57.789173 43.747303, -57.808713 43.743779, -57.828251 43.740252, -57.847787 43.736721, -57.867320 43.733187, -57.886852 43.729650, -57.906381 43.726110, -57.925907 43.722566, -57.945431 43.719019, -57.964953 43.715468, -57.984473 43.711915, -58.003990 43.708357, -58.023505 43.704797, -58.043018 43.701233, -58.062529 43.697666, -58.082037 43.694096, -58.101542 43.690522, -58.121046 43.686945, -58.140547 43.683365, -58.160046 43.679781, -58.179542 43.676194, -58.199036 43.672604, -58.218528 43.669010, -58.238017 43.665413, -58.257504 43.661813, -58.276989 43.658209, -58.296472 43.654603, -58.315952 43.650993, -58.335429 43.647379, -58.354905 43.643762, -58.374378 43.640142, -58.393848 43.636519, -58.413317 43.632892, -58.432783 43.629262, -58.452246 43.625629, -58.471708 43.621992, -58.491167 43.618352, -58.510623 43.614709, -58.530077 43.611063, -58.549529 43.607413, -58.568979 43.603760, -58.588426 43.600104, -58.607871 43.596444, -58.627313 43.592781, -58.646753 43.589115, -58.666191 43.585445, -58.685626 43.581772, -58.705059 43.578096, -58.724490 43.574417, -58.743918 43.570734, -58.763343 43.567048, -58.782767 43.563359, -58.802188 43.559666, -58.821607 43.555970, -58.841023 43.552271, -58.860437 43.548569, -58.879848 43.544863, -58.899257 43.541154, -58.918664 43.537442, -58.938068 43.533726, -58.957470 43.530007, -58.976870 43.526285, -58.996267 43.522560, -59.015662 43.518831, -59.035054 43.515099, -59.054444 43.511364, -59.073832 43.507625, -59.093217 43.503883, -59.112600 43.500138, -59.131980 43.496390, -59.151358 43.492638, -59.170733 43.488883, -59.190107 43.485125, -59.209477 43.481364, -59.228846 43.477599, -59.248211 43.473831, -59.267575 43.470060, -59.286936 43.466285, -59.306295 43.462507, -59.325651 43.458726, -59.345005 43.454942, -59.364356 43.451155, -59.383705 43.447364, -59.403051 43.443570, -59.422396 43.439772, -59.441737 43.435972, -59.461076 43.432168, -59.480413 43.428361, -59.499748 43.424550, -59.519079 43.420737, -59.538409 43.416920, -59.557736 43.413100, -59.577061 43.409276, -59.596383 43.405449, -59.615703 43.401620, -59.635020 43.397786, -59.654335 43.393950, -59.673647 43.390110, -59.692957 43.386267, -59.712265 43.382421, -59.731570 43.378572, -59.750872 43.374719, -59.770172 43.370863, -59.789470 43.367004, -59.808765 43.363142, -59.828058 43.359276, -59.847348 43.355407, -59.866636 43.351535, -59.885922 43.347660, -59.905205 43.343781, -59.924485 43.339899, -59.943763 43.336014, -59.963038 43.332126, -59.982312 43.328234, -60.001582 43.324339, -60.020850 43.320441, -60.040116 43.316540, -60.059379 43.312636, -60.078640 43.308728, -60.097898 43.304817, -60.117154 43.300903, -60.136407 43.296985, -60.155658 43.293065, -60.174906 43.289141, -60.194152 43.285214, -60.213395 43.281283, -60.232636 43.277350, -60.251874 43.273413, -60.271110 43.269473, -60.290344 43.265530, -60.309574 43.261583, -60.328803 43.257634, -60.348029 43.253681, -60.367252 43.249725, -60.386473 43.245765, -60.405691 43.241803, -60.424907 43.237837, -60.444121 43.233868, -60.463332 43.229896, -60.482540 43.225920, -60.501746 43.221942, -60.520949 43.217960, -60.540150 43.213975, -60.559348 43.209987, -60.578544 43.205995, -60.597738 43.202001, -60.616928 43.198003, -60.636117 43.194002, -60.655302 43.189997, -60.674486 43.185990, -60.693666 43.181979, -60.712845 43.177965, -60.732020 43.173948, -60.751194 43.169928, -60.770364 43.165904, -60.789532 43.161878, -60.808698 43.157848, -60.827861 43.153815, -60.847021 43.149778, -60.866180 43.145739, -60.885335 43.141696, -60.904488 43.137650, -60.923638 43.133601, -60.942786 43.129549, -60.961931 43.125493, -60.981074 43.121435, -61.000215 43.117373, -61.019352 43.113308, -61.038487 43.109239, -61.057620 43.105168, -61.076750 43.101093, -61.095878 43.097016, -61.115003 43.092935, -61.134125 43.088851, -61.153245 43.084763, -61.172362 43.080673, -61.191477 43.076579, -61.210589 43.072482, -61.229699 43.068382, -61.248806 43.064279, -61.267910 43.060172, -61.287012 43.056063, -61.306112 43.051950, -61.325209 43.047834, -61.344303 43.043715, -61.363395 43.039592, -61.382484 43.035467, -61.401571 43.031338, -61.420655 43.027206, -61.439736 43.023071, -61.458815 43.018933, -61.477891 43.014792, -61.496965 43.010647, -61.516036 43.006500, -61.535105 43.002349, -61.554171 42.998195, -61.573234 42.994038, -61.592295 42.989878, -61.611353 42.985714, -61.630409 42.981547, -61.649462 42.977378, -61.668513 42.973205, -61.687561 42.969028, -61.706606 42.964849, -61.725649 42.960667, -61.744689 42.956481, -61.763726 42.952292, -61.782761 42.948100, -61.801794 42.943905, -61.820824 42.939707, -61.839851 42.935506, -61.858875 42.931301, -61.877897 42.927094, -61.896917 42.922883, -61.915934 42.918669, -61.934948 42.914452, -61.953959 42.910231, -61.972968 42.906008, -61.991975 42.901782, -62.010979 42.897552, -62.029980 42.893319, -62.048978 42.889083, -62.067974 42.884844, -62.086968 42.880602, -62.105958 42.876356, -62.124946 42.872108, -62.143932 42.867856, -62.162915 42.863601, -62.181895 42.859343, -62.200873 42.855082, -62.219848 42.850818, -62.238820 42.846551, -62.257790 42.842280, -62.276757 42.838007, -62.295722 42.833730, -62.314684 42.829450, -62.333643 42.825167, -62.352600 42.820881, -62.371554 42.816592, -62.390505 42.812299, -62.409454 42.808004, -62.428400 42.803705, -62.447343 42.799403, -62.466284 42.795099, -62.485223 42.790791, -62.504158 42.786479, -62.523091 42.782165, -62.542021 42.777848, -62.560949 42.773527, -62.579874 42.769204, -62.598797 42.764877, -62.617716 42.760547, -62.636633 42.756214, -62.655548 42.751878, -62.674460 42.747539, -62.693369 42.743197, -62.712275 42.738852, -62.731179 42.734503, -62.750080 42.730151, -62.768979 42.725797, -62.787875 42.721439, -62.806768 42.717078, -62.825659 42.712714, -62.844547 42.708347, -62.863432 42.703977, -62.882315 42.699603, -62.901195 42.695227, -62.920072 42.690847, -62.938946 42.686465, -62.957818 42.682079, -62.976688 42.677690, -62.995554 42.673298, -63.014418 42.668903, -63.033280 42.664505, -63.052138 42.660104, -63.070994 42.655700, -63.089848 42.651292, -63.108698 42.646882, -63.127546 42.642468, -63.146391 42.638052, -63.165234 42.633632, -63.184074 42.629209, -63.202911 42.624783, -63.221746 42.620354, -63.240578 42.615922, -63.259407 42.611487, -63.278233 42.607049, -63.297057 42.602607, -63.315878 42.598163, -63.334697 42.593716, -63.353512 42.589265, -63.372326 42.584811, -63.391136 42.580355, -63.409944 42.575895, -63.428749 42.571432, -63.447551 42.566966, -63.466351 42.562497, -63.485148 42.558025, -63.503942 42.553550, -63.522733 42.549071, -63.541522 42.544590, -63.560308 42.540106, -63.579092 42.535618, -63.597873 42.531128, -63.616651 42.526634, -63.635426 42.522138, -63.654199 42.517638, -63.672969 42.513135, -63.691736 42.508629, -63.710500 42.504120, -63.729262 42.499608, -63.748021 42.495093, -63.766778 42.490575, -63.785531 42.486054, -63.804282 42.481530, -63.823031 42.477003, -63.841776 42.472472, -63.860519 42.467939, -63.879259 42.463403, -63.897997 42.458863, -63.916731 42.454321, -63.935463 42.449775, -63.954193 42.445226, -63.972919 42.440675, -63.991643 42.436120, -64.010364 42.431562, -64.029082 42.427001, -64.047798 42.422438, -64.066511 42.417871, -64.085221 42.413301, -64.103929 42.408728, -64.122633 42.404152, -64.141335 42.399573, -64.160035 42.394991, -64.178731 42.390406, -64.197425 42.385817, -64.216116 42.381226, -64.234804 42.376632, -64.253490 42.372035, -64.272173 42.367434, -64.290853 42.362831, -64.309530 42.358225, -64.328205 42.353615, -64.346877 42.349003, -64.365546 42.344387, -64.384213 42.339769, -64.402876 42.335147, -64.421537 42.330523, -64.440195 42.325895, -64.458851 42.321264, -64.477504 42.316631, -64.496154 42.311994, -64.514801 42.307355, -64.533445 42.302712, -64.552087 42.298066, -64.570726 42.293417, -64.589362 42.288766, -64.607996 42.284111, -64.626626 42.279453, -64.645254 42.274792, -64.663880 42.270129, -64.682502 42.265462, -64.701122 42.260792, -64.719739 42.256119, -64.738353 42.251443, -64.756964 42.246764, -64.775573 42.242082, -64.794179 42.237398, -64.812782 42.232710, -64.831382 42.228019, -64.849980 42.223325, -64.868575 42.218628, -64.887167 42.213928, -64.905756 42.209225, -64.924342 42.204519, -64.942926 42.199810, -64.961507 42.195099, -64.980085 42.190384, -64.998661 42.185666, -65.017233 42.180945, -65.035803 42.176221, -65.054370 42.171494, -65.072935 42.166764, -65.091496 42.162031, -65.110055 42.157295, -65.128611 42.152557, -65.147164 42.147815, -65.165715 42.143070, -65.184263 42.138322, -65.202807 42.133571, -65.221349 42.128818, -65.239889 42.124061, -65.258425 42.119301, -65.276959 42.114538, -65.295490 42.109773, -65.314018 42.105004, -65.332544 42.100232, -65.351066 42.095457, -65.369586 42.090680, -65.388103 42.085899, -65.406617 42.081116, -65.425129 42.076329, -65.443637 42.071540, -65.462143 42.066747, -65.480646 42.061952, -65.499146 42.057153, -65.517644 42.052352, -65.536139 42.047547, -65.554630 42.042740, -65.573120 42.037930, -65.591606 42.033116, -65.610089 42.028300, -65.628570 42.023481, -65.647048 42.018659, -65.665523 42.013833, -65.683995 42.009005, -65.702465 42.004174, -65.720931 41.999340, -65.739395 41.994503, -65.757856 41.989663, -65.776314 41.984820, -65.794770 41.979974, -65.813222 41.975126, -65.831672 41.970274, -65.850119 41.965419, -65.868563 41.960561, -65.887005 41.955701, -65.905443 41.950837, -65.923879 41.945971, -65.942312 41.941101, -65.960742 41.936229, -65.979169 41.931353, -65.997594 41.926475, -66.016015 41.921594, -66.034434 41.916709, -66.052850 41.911822, -66.071263 41.906932, -66.089674 41.902039, -66.108081 41.897143, -66.126486 41.892244, -66.144888 41.887342, -66.163287 41.882437, -66.181683 41.877530, -66.200077 41.872619, -66.218467 41.867705, -66.236855 41.862789, -66.255240 41.857869, -66.273622 41.852947, -66.292001 41.848022, -66.310378 41.843093, -66.328751 41.838162, -66.347122 41.833228, -66.365490 41.828291, -66.383855 41.823351, -66.402218 41.818408, -66.420577 41.813462, -66.438934 41.808514, -66.457287 41.803562, -66.475638 41.798607, -66.493986 41.793650, -66.512332 41.788689, -66.530674 41.783726, -66.549014 41.778760, -66.567350 41.773791, -66.585684 41.768819, -66.604015 41.763844, -66.622344 41.758866, -66.640669 41.753885, -66.658991 41.748901, -66.677311 41.743914, -66.695628 41.738925, -66.713942 41.733932, -66.732253 41.728937, -66.750561 41.723939, -66.768867 41.718937, -66.787169 41.713933, -66.805469 41.708926, -66.823766 41.703916, -66.842060 41.698904, -66.860351 41.693888, -66.878640 41.688869, -66.896925 41.683848, -66.915208 41.678823, -66.933487 41.673796, -66.951764 41.668766, -66.970038 41.663733, -66.988310 41.658697, -67.006578 41.653658, -67.024843 41.648616, -67.043106 41.643572, -67.061366 41.638524, -67.079623 41.633474, -67.097877 41.628420, -67.116128 41.623364, -67.134376 41.618305, -67.152622 41.613243, -67.170864 41.608178, -67.189104 41.603110, -67.207341 41.598040, -67.225575 41.592966, -67.243806 41.587890, -67.262034 41.582810, -67.280260 41.577728, -67.298482 41.572643, -67.316702 41.567555, -67.334919 41.562465, -67.353133 41.557371, -67.371344 41.552274, -67.389552 41.547175, -67.407757 41.542073, -67.425959 41.536968, -67.444159 41.531860, -67.462356 41.526749, -67.480549 41.521635, -67.498740 41.516518, -67.516928 41.511399, -67.535114 41.506276, -67.553296 41.501151, -67.571475 41.496023, -67.589652 41.490892, -67.607825 41.485758, -67.625996 41.480622, -67.644164 41.475482, -67.662329 41.470340, -67.680491 41.465195, -67.698650 41.460046, -67.716807 41.454896, -67.734960 41.449742, -67.753111 41.444585, -67.771259 41.439426, -67.789403 41.434263, -67.807545 41.429098, -67.825684 41.423930, -67.843820 41.418759, -67.861954 41.413585, -67.880084 41.408409, -67.898212 41.403229, -67.916336 41.398047, -67.934458 41.392862, -67.952577 41.387674, -67.970693 41.382483, -67.988806 41.377289, -68.006916 41.372093, -68.025023 41.366893, -68.043127 41.361691, -68.061229 41.356486, -68.079327 41.351278, -68.097423 41.346068, -68.115516 41.340854, -68.133606 41.335638, -68.151693 41.330419, -68.169777 41.325197, -68.187858 41.319972, -68.205936 41.314744, -68.224012 41.309514, -68.242084 41.304280, -68.260154 41.299044, -68.278220 41.293805, -68.296284 41.288563, -68.314345 41.283319, -68.332403 41.278071, -68.350458 41.272821, -68.368510 41.267568, -68.386559 41.262312, -68.404606 41.257053, -68.422649 41.251792, -68.440690 41.246527, -68.458727 41.241260, -68.476762 41.235990, -68.494794 41.230717, -68.512823 41.225442, -68.530849 41.220163, -68.548872 41.214882, -68.566892 41.209598, -68.584909 41.204311, -68.602923 41.199021, -68.620935 41.193729, -68.638943 41.188434, -68.656949 41.183136, -68.674952 41.177835, -68.692951 41.172531, -68.710948 41.167225, -68.728942 41.161915, -68.746933 41.156603, -68.764921 41.151288, -68.782906 41.145971, -68.800889 41.140650, -68.818868 41.135327, -68.836844 41.130001, -68.854818 41.124672, -68.872789 41.119340, -68.890756 41.114006, -68.908721 41.108668, -68.926683 41.103328, -68.944642 41.097986, -68.962598 41.092640, -68.980551 41.087292, -68.998501 41.081940, -69.016448 41.076586, -69.034392 41.071230, -69.052334 41.065870, -69.070272 41.060508, -69.088208 41.055143, -69.106140 41.049775, -69.124070 41.044404, -69.141997 41.039031, -69.159921 41.033654, -69.177842 41.028275, -69.195760 41.022894, -69.213675 41.017509, -69.231587 41.012122, -69.249496 41.006732, -69.267402 41.001339, -69.285305 40.995943, -69.303206 40.990545, -69.321103 40.985144, -69.338998 40.979740, -69.356889 40.974333, -69.374778 40.968924, -69.392664 40.963511, -69.410546 40.958096, -69.428426 40.952679, -69.446303 40.947258, -69.464177 40.941835, -69.482048 40.936409, -69.499916 40.930980, -69.517781 40.925548, -69.535644 40.920114, -69.553503 40.914677, -69.571359 40.909237, -69.589213 40.903795, -69.607063 40.898349, -69.624911 40.892901, -69.642755 40.887450, -69.660597 40.881997, -69.678436 40.876540, -69.696271 40.871081, -69.714104 40.865620, -69.731934 40.860155, -69.749761 40.854688, -69.767585 40.849218, -69.785406 40.843745, -69.803224 40.838269, -69.821040 40.832791, -69.838852 40.827310, -69.856661 40.821826, -69.874467 40.816340, -69.892271 40.810850, -69.910071 40.805358, -69.927869 40.799864, -69.945663 40.794366, -69.963455 40.788866, -69.981244 40.783363, -69.999029 40.777858, -70.016812 40.772349, -70.034592 40.766838, -70.052369 40.761324, -70.070143 40.755808, -70.087914 40.750288, -70.105682 40.744766, -70.123447 40.739242, -70.141209 40.733714, -70.158968 40.728184, -70.176724 40.722651, -70.194477 40.717115, -70.212228 40.711577, -70.229975 40.706036, -70.247719 40.700492, -70.265461 40.694946, -70.283199 40.689397, -70.300935 40.683845, -70.318667 40.678290, -70.336397 40.672733, -70.354124 40.667173, -70.371847 40.661610, -70.389568 40.656044, -70.407286 40.650476, -70.425001 40.644905, -70.442713 40.639332, -70.460422 40.633755, -70.478128 40.628176, -70.495831 40.622595, -70.513531 40.617010, -70.531228 40.611423, -70.548922 40.605833, -70.566613 40.600241, -70.584301 40.594646, -70.601986 40.589048, -70.619669 40.583447, -70.637348 40.577844, -70.655024 40.572238, -70.672698 40.566629, -70.690368 40.561018, -70.708036 40.555404, -70.725700 40.549787, -70.743362 40.544167, -70.761020 40.538545, -70.778676 40.532920, -70.796329 40.527293, -70.813978 40.521663, -70.831625 40.516030, -70.849269 40.510394, -70.866910 40.504756, -70.884547 40.499115, -70.902182 40.493471, -70.919814 40.487825, -70.937443 40.482176, -70.955069 40.476524, -70.972692 40.470870, -70.990312 40.465213, -71.007929 40.459553, -71.025543 40.453891, -71.043154 40.448226, -71.060762 40.442558, -71.078368 40.436888, -71.095970 40.431215, -71.113569 40.425539, -71.131165 40.419861, -71.148759 40.414180, -71.166349 40.408496, -71.183936 40.402810, -71.201521 40.397120, -71.219102 40.391429, -71.236680 40.385734, -71.254256 40.380037, -71.271828 40.374338, -71.289398 40.368635, -71.306964 40.362930, -71.324528 40.357223, -71.342089 40.351512, -71.359646 40.345799, -71.377201 40.340084, -71.394752 40.334365, -71.412301 40.328644, -71.429847 40.322921, -71.447390 40.317195, -71.464929 40.311466, -71.482466 40.305734, -71.500000 40.300000, -71.518896 40.301489, -71.537794 40.302975, -71.556692 40.304458, -71.575591 40.305938, -71.594490 40.307414, -71.613391 40.308888, -71.632292 40.310359, -71.651194 40.311826, -71.670097 40.313291, -71.689001 40.314752, -71.707906 40.316210, -71.726811 40.317665, -71.745718 40.319118, -71.764625 40.320567, -71.783533 40.322013, -71.802441 40.323456, -71.821351 40.324895, -71.840261 40.326332, -71.859172 40.327766, -71.878084 40.329196, -71.896997 40.330624, -71.915911 40.332048, -71.934825 40.333470, -71.953740 40.334888, -71.972656 40.336303, -71.991573 40.337715, -72.010490 40.339124, -72.029409 40.340530, -72.048328 40.341933, -72.067248 40.343333, -72.086168 40.344729, -72.105090 40.346123, -72.124012 40.347513, -72.142935 40.348901, -72.161859 40.350285, -72.180783 40.351666, -72.199709 40.353045, -72.218635 40.354420, -72.237562 40.355792, -72.256489 40.357161, -72.275418 40.358526, -72.294347 40.359889, -72.313277 40.361249, -72.332207 40.362605, -72.351139 40.363959, -72.370071 40.365309, -72.389004 40.366657, -72.407938 40.368001, -72.426872 40.369342, -72.445808 40.370680, -72.464744 40.372015, -72.483680 40.373347, -72.502618 40.374676, -72.521556 40.376001, -72.540495 40.377324, -72.559435 40.378644, -72.578375 40.379960, -72.597316 40.381273, -72.616258 40.382584, -72.635201 40.383891, -72.654144 40.385195, -72.673089 40.386496, -72.692033 40.387794, -72.710979 40.389088, -72.729925 40.390380, -72.748872 40.391669, -72.767820 40.392954, -72.786769 40.394237, -72.805718 40.395516, -72.824668 40.396792, -72.843619 40.398065, -72.862570 40.399335, -72.881522 40.400602, -72.900475 40.401866, -72.919428 40.403127, -72.938383 40.404385, -72.957338 40.405639, -72.976293 40.406891, -72.995250 40.408139, -73.014207 40.409384, -73.033164 40.410627, -73.052123 40.411866, -73.071082 40.413102, -73.090042 40.414335, -73.109002 40.415565, -73.127964 40.416791, -73.146925 40.418015, -73.165888 40.419235, -73.184851 40.420453, -73.203815 40.421667, -73.222780 40.422878, -73.241745 40.424086, -73.260711 40.425291, -73.279678 40.426493, -73.298645 40.427692, -73.317613 40.428888, -73.336582 40.430081, -73.355552 40.431270, -73.374522 40.432457, -73.393492 40.433640, -73.412464 40.434820, -73.431436 40.435997, -73.450409 40.437171, -73.469382 40.438342, -73.488356 40.439510, -73.507331 40.440675, -73.526306 40.441836, -73.545282 40.442995, -73.564259 40.444150, -73.583236 40.445303, -73.602214 40.446452, -73.621193 40.447598, -73.640172 40.448741, -73.659152 40.449881, -73.678133 40.451017, -73.697114 40.452151, -73.716096 40.453282, -73.735078 40.454409, -73.754061 40.455534, -73.773045 40.456655, -73.792029 40.457773, -73.811014 40.458888, -73.830000 40.460000, -73.839442 40.472639, -73.848887 40.485276, -73.858335 40.497913, -73.867788 40.510549, -73.877243 40.523185, -73.886703 40.535820, -73.896166 40.548454, -73.905632 40.561087, -73.915102 40.573719, -73.924576 40.586351, -73.934053 40.598981, -73.943534 40.611611, -73.953018 40.624241, -73.962506 40.636869, -73.971998 40.649497, -73.981493 40.662124, -73.990992 40.674750, -74.000494 40.687375, -74.010000 40.700000)
