LINESTRING (-1.400000 50.910000, -1.382700 50.901660, -1.361761 50.892754, -1.337815 50.883355, -1.311496 50.873542, -1.283436 50.863391, -1.254265 50.852978, -1.224615 50.842383, -1.195115 50.831683, -1.166396 50.820957, -1.139084 50.810286, -1.113808 50.799749, -1.091194 50.789428, -1.071870 50.779402, -1.056460 50.769754, -1.045589 50.760565, -1.039883 50.751914, -1.039966 50.743884, -1.046464 50.736553, -1.060000 50.730000, -1.077533 50.723768, -1.095180 50.717501, -1.112939 50.711198, -1.130810 50.704861, -1.148791 50.698489, -1.166880 50.692085, -1.185077 50.685647, -1.203380 50.679176, -1.221787 50.672675, -1.240298 50.666142, -1.258911 50.659578, -1.277624 50.652984, -1.296437 50.646362, -1.315348 50.639710, -1.334356 50.633031, -1.353459 50.626323, -1.372657 50.619589, -1.391947 50.612829, -1.411329 50.606043, -1.430801 50.599231, -1.450361 50.592396, -1.470010 50.585536, -1.489745 50.578653, -1.509564 50.571747, -1.529468 50.564819, -1.549454 50.557870, -1.569520 50.550900, -1.589667 50.543909, -1.609892 50.536899, -1.630195 50.529870, -1.650573 50.522822, -1.671026 50.515757, -1.691553 50.508674, -1.712151 50.501575, -1.732821 50.494459, -1.753559 50.487328, -1.774366 50.480183, -1.795240 50.473023, -1.816180 50.465850, -1.837184 50.458664, -1.858251 50.451465, -1.879380 50.444255, -1.900569 50.437034, -1.921818 50.429802, -1.943125 50.422561, -1.964489 50.415310, -1.985908 50.408051, -2.007381 50.400783, -2.028908 50.393509, -2.050486 50.386227, -2.072114 50.378940, -2.093792 50.371647, -2.115518 50.364349, -2.137291 50.357048, -2.159108 50.349742, -2.180971 50.342434, -2.202876 50.335123, -2.224823 50.327811, -2.246810 50.320497, -2.268837 50.313183, -2.290902 50.305870, -2.313003 50.298557, -2.335140 50.291245, -2.357312 50.283936, -2.379516 50.276630, -2.401753 50.269327, -2.424020 50.262028, -2.446316 50.254734, -2.468641 50.247445, -2.490992 50.240162, -2.513370 50.232886, -2.535772 50.225617, -2.558197 50.218355, -2.580645 50.211103, -2.603113 50.203860, -2.625601 50.196626, -2.648108 50.189403, -2.670632 50.182191, -2.693172 50.174991, -2.715727 50.167803, -2.738295 50.160629, -2.760876 50.153468, -2.783469 50.146322, -2.806071 50.139191, -2.828683 50.132075, -2.851302 50.124976, -2.873928 50.117894, -2.896560 50.110829, -2.919195 50.103783, -2.941834 50.096756, -2.964474 50.089749, -2.987115 50.082762, -3.009756 50.075796, -3.032395 50.068852, -3.055031 50.061930, -3.077663 50.055031, -3.100290 50.048156, -3.122910 50.041305, -3.145524 50.034479, -3.168128 50.027679, -3.190723 50.020905, -3.213307 50.014158, -3.235878 50.007439, -3.258437 50.000748, -3.280981 49.994086, -3.303509 49.987454, -3.326021 49.980853, -3.348515 49.974282, -3.370989 49.967743, -3.393444 49.961237, -3.415878 49.954764, -3.438289 49.948324, -3.460676 49.941919, -3.483039 49.935549, -3.505376 49.929215, -3.527686 49.922918, -3.549969 49.916658, -3.572221 49.910435, -3.594444 49.904252, -3.616635 49.898107, -3.638794 49.892002, -3.660919 49.885938, -3.683009 49.879916, -3.705064 49.873935, -3.727081 49.867997, -3.749060 49.862103, -3.771000 49.856252, -3.792900 49.850447, -3.814758 49.844687, -3.836574 49.838973, -3.858346 49.833306, -3.880073 49.827686, -3.901754 49.822115, -3.923389 49.816593, -3.944975 49.811120, -3.966513 49.805698, -3.988000 49.800327, -4.009435 49.795007, -4.030819 49.789740, -4.052149 49.784526, -4.073424 49.779367, -4.094643 49.774261, -4.115806 49.769211, -4.136911 49.764217, -4.157957 49.759280, -4.178943 49.754400, -4.199868 49.749578, -4.220731 49.744815, -4.241530 49.740111, -4.262265 49.735468, -4.282935 49.730886, -4.303538 49.726365, -4.324074 49.721907, -4.344541 49.717512, -4.364938 49.713180, -4.385265 49.708913, -4.405520 49.704712, -4.425702 49.700576, -4.445810 49.696507, -4.465843 49.692505, -4.485800 49.688571, -4.505679 49.684706, -4.525481 49.680911, -4.545203 49.677186, -4.564845 49.673532, -4.584405 49.669949, -4.603884 49.666439, -4.623278 49.663002, -4.642588 49.659639, -4.661812 49.656351, -4.680950 49.653137, -4.700000 49.650000, -4.719044 49.647107, -4.738334 49.644591, -4.757865 49.642444, -4.777629 49.640657, -4.797623 49.639222, -4.817838 49.638129, -4.838271 49.637369, -4.858913 49.636935, -4.879761 49.636817, -4.900807 49.637007, -4.922045 49.637496, -4.943471 49.638276, -4.965077 49.639336, -4.986857 49.640670, -5.008807 49.642267, -5.030919 49.644120, -5.053188 49.646220, -5.075607 49.648558, -5.098171 49.651125, -5.120874 49.653913, -5.143709 49.656912, -5.166671 49.660115, -5.189753 49.663513, -5.212950 49.667096, -5.236255 49.670857, -5.259662 49.674787, -5.283165 49.678876, -5.306758 49.683117, -5.330434 49.687501, -5.354188 49.692019, -5.378014 49.696662, -5.401904 49.701422, -5.425854 49.706290, -5.449857 49.711258, -5.473905 49.716318, -5.497995 49.721459, -5.522118 49.726674, -5.546269 49.731955, -5.570441 49.737293, -5.594629 49.742678, -5.618825 49.748103, -5.643023 49.753560, -5.667218 49.759038, -5.691402 49.764531, -5.715570 49.770029, -5.739714 49.775524, -5.763829 49.781008, -5.787908 49.786471, -5.811944 49.791906, -5.835932 49.797303, -5.859864 49.802655, -5.883733 49.807953, -5.907535 49.813188, -5.931261 49.818352, -5.954906 49.823437, -5.978462 49.828433, -6.001924 49.833333, -6.025284 49.838128, -6.048537 49.842810, -6.071674 49.847370, -6.094691 49.851799, -6.117579 49.856090, -6.140333 49.860234, -6.162945 49.864222, -6.185409 49.868046, -6.207718 49.871697, -6.229866 49.875168, -6.251846 49.878450, -6.273650 49.881533, -6.295273 49.884411, -6.316707 49.887074, -6.337945 49.889514, -6.358982 49.891723, -6.379809 49.893692, -6.400420 49.895413, -6.420809 49.896877, -6.440968 49.898076, -6.460891 49.899002, -6.480571 49.899646, -6.500000 49.900000, -6.519366 49.900203, -6.538751 49.900399, -6.558153 49.900587, -6.577574 49.900768, -6.597013 49.900942, -6.616469 49.901108, -6.635944 49.901267, -6.655437 49.901419, -6.674948 49.901564, -6.694477 49.901701, -6.714024 49.901831, -6.733588 49.901953, -6.753171 49.902069, -6.772771 49.902177, -6.792389 49.902277, -6.812024 49.902371, -6.831678 49.902457, -6.851349 49.902535, -6.871038 49.902607, -6.890744 49.902671, -6.910468 49.902728, -6.930209 49.902777, -6.949968 49.902819, -6.969744 49.902854, -6.989538 49.902881, -7.009349 49.902902, -7.029178 49.902914, -7.049024 49.902920, -7.068887 49.902918, -7.088767 49.902909, -7.108665 49.902892, -7.128580 49.902868, -7.148512 49.902837, -7.168461 49.902799, -7.188427 49.902753, -7.208411 49.902700, -7.228411 49.902639, -7.248428 49.902571, -7.268462 49.902496, -7.288514 49.902414, -7.308582 49.902324, -7.328667 49.902226, -7.348768 49.902122, -7.368887 49.902010, -7.389022 49.901891, -7.409174 49.901764, -7.429343 49.901630, -7.449528 49.901489, -7.469730 49.901340, -7.489949 49.901184, -7.510184 49.901021, -7.530435 49.900850, -7.550703 49.900672, -7.570988 49.900487, -7.591289 49.900294, -7.611606 49.900094, -7.631940 49.899887, -7.652290 49.899672, -7.672656 49.899450, -7.693038 49.899220, -7.713437 49.898984, -7.733852 49.898739, -7.754283 49.898488, -7.774730 49.898229, -7.795193 49.897963, -7.815672 49.897689, -7.836167 49.897408, -7.856678 49.897120, -7.877205 49.896824, -7.897748 49.896521, -7.918307 49.896211, -7.938882 49.895893, -7.959472 49.895568, -7.980078 49.895236, -8.000700 49.894896, -8.021338 49.894549, -8.041991 49.894195, -8.062660 49.893833, -8.083344 49.893464, -8.104044 49.893087, -8.124760 49.892703, -8.145491 49.892312, -8.166237 49.891913, -8.186999 49.891507, -8.207776 49.891094, -8.228568 49.890673, -8.249376 49.890245, -8.270199 49.889810, -8.291038 49.889367, -8.311891 49.888917, -8.332760 49.888460, -8.353644 49.887995, -8.374543 49.887523, -8.395457 49.887043, -8.416385 49.886556, -8.437329 49.886062, -8.458288 49.885560, -8.479262 49.885051, -8.500251 49.884535, -8.521255 49.884011, -8.542273 49.883480, -8.563306 49.882942, -8.584354 49.882396, -8.605417 49.881843, -8.626494 49.881283, -8.647586 49.880715, -8.668693 49.880140, -8.689814 49.879557, -8.710949 49.878968, -8.732100 49.878370, -8.753264 49.877766, -8.774443 49.877154, -8.795637 49.876535, -8.816845 49.875908, -8.838067 49.875274, -8.859303 49.874633, -8.880554 49.873984, -8.901819 49.873329, -8.923098 49.872665, -8.944391 49.871995, -8.965698 49.871317, -8.987020 49.870631, -9.008355 49.869939, -9.029705 49.869239, -9.051068 49.868531, -9.072445 49.867817, -9.093837 49.867094, -9.115242 49.866365, -9.136661 49.865628, -9.158094 49.864884, -9.179540 49.864133, -9.201000 49.863374, -9.222474 49.862608, -9.243962 49.861835, -9.265463 49.861054, -9.286978 49.860266, -9.308506 49.859471, -9.330048 49.858668, -9.351604 49.857858, -9.373172 49.857041, -9.394755 49.856216, -9.416350 49.855384, -9.437959 49.854545, -9.459581 49.853698, -9.481217 49.852844, -9.502865 49.851983, -9.524527 49.851114, -9.546202 49.850238, -9.567891 49.849355, -9.589592 49.848464, -9.611306 49.847566, -9.633034 49.846661, -9.654774 49.845749, -9.676527 49.844829, -9.698293 49.843902, -9.720072 49.842967, -9.741864 49.842026, -9.763669 49.841077, -9.785486 49.840120, -9.807317 49.839157, -9.829160 49.838186, -9.851015 49.837207, -9.872883 49.836222, -9.894764 49.835229, -9.916657 49.834229, -9.938563 49.833222, -9.960482 49.832207, -9.982412 49.831185, -10.004356 49.830156, -10.026311 49.829119, -10.048279 49.828075, -10.070259 49.827024, -10.092252 49.825966, -10.114257 49.824900, -10.136274 49.823827, -10.158303 49.822747, -10.180344 49.821659, -10.202397 49.820565, -10.224463 49.819463, -10.246540 49.818353, -10.268629 49.817237, -10.290731 49.816113, -10.312844 49.814982, -10.334969 49.813844, -10.357106 49.812698, -10.379255 49.811545, -10.401415 49.810385, -10.423588 49.809218, -10.445772 49.808043, -10.467967 49.806861, -10.490175 49.805672, -10.512394 49.804476, -10.534624 49.803272, -10.556866 49.802061, -10.579120 49.800843, -10.601385 49.799618, -10.623661 49.798386, -10.645949 49.797146, -10.668248 49.795899, -10.690558 49.794645, -10.712880 49.793383, -10.735213 49.792115, -10.757557 49.790839, -10.779912 49.789556, -10.802278 49.788265, -10.824656 49.786968, -10.847044 49.785663, -10.869444 49.784351, -10.891855 49.783032, -10.914276 49.781706, -10.936709 49.780373, -10.959152 49.779032, -10.981606 49.777684, -11.004071 49.776329, -11.026547 49.774967, -11.049033 49.773597, -11.071531 49.772221, -11.094038 49.770837, -11.116557 49.769446, -11.139086 49.768048, -11.161626 49.766643, -11.184176 49.765230, -11.206737 49.763811, -11.229308 49.762384, -11.251889 49.760950, -11.274481 49.759509, -11.297084 49.758061, -11.319696 49.756605, -11.342319 49.755143, -11.364952 49.753673, -11.387596 49.752196, -11.410249 49.750712, -11.432913 49.749221, -11.455587 49.747723, -11.478270 49.746218, -11.500964 49.744705, -11.523668 49.743186, -11.546382 49.741659, -11.569106 49.740125, -11.591839 49.738584, -11.614583 49.737036, -11.637336 49.735481, -11.660099 49.733919, -11.682872 49.732350, -11.705654 49.730773, -11.728447 49.729190, -11.751248 49.727599, -11.774060 49.726002, -11.796881 49.724397, -11.819711 49.722785, -11.842551 49.721166, -11.865401 49.719540, -11.888260 49.717907, -11.911128 49.716267, -11.934006 49.714620, -11.956893 49.712966, -11.979789 49.711305, -12.002694 49.709637, -12.025609 49.707961, -12.048533 49.706279, -12.071466 49.704589, -12.094408 49.702893, -12.117359 49.701190, -12.140320 49.699479, -12.163289 49.697762, -12.186267 49.696037, -12.209254 49.694306, -12.232250 49.692567, -12.255255 49.690822, -12.278269 49.689069, -12.301292 49.687309, -12.324323 49.685543, -12.347363 49.683769, -12.370412 49.681989, -12.393469 49.680202, -12.416535 49.678407, -12.439609 49.676606, -12.462692 49.674797, -12.485784 49.672982, -12.508884 49.671160, -12.531992 49.669330, -12.555109 49.667494, -12.578234 49.665651, -12.601368 49.663801, -12.624510 49.661944, -12.647660 49.660080, -12.670818 49.658209, -12.693985 49.656331, -12.717160 49.654447, -12.740342 49.652555, -12.763533 49.650656, -12.786732 49.648751, -12.809939 49.646839, -12.833154 49.644919, -12.856377 49.642993, -12.879608 49.641060, -12.902846 49.639120, -12.926093 49.637173, -12.949347 49.635220, -12.972609 49.633259, -12.995879 49.631292, -13.019157 49.629317, -13.042442 49.627336, -13.065735 49.625348, -13.089035 49.623354, -13.112343 49.621352, -13.135658 49.619343, -13.158981 49.617328, -13.182312 49.615306, -13.205650 49.613277, -13.228995 49.611241, -13.252348 49.609199, -13.275707 49.607149, -13.299075 49.605093, -13.322449 49.603030, -13.345831 49.600960, -13.369219 49.598884, -13.392615 49.596800, -13.416018 49.594710, -13.439429 49.592613, -13.462846 49.590510, -13.486270 49.588399, -13.509701 49.586282, -13.533139 49.584158, -13.556584 49.582028, -13.580036 49.579890, -13.603495 49.577746, -13.626960 49.575595, -13.650432 49.573438, -13.673911 49.571274, -13.697397 49.569103, -13.720889 49.566925, -13.744388 49.564741, -13.767893 49.562549, -13.791405 49.560352, -13.814924 49.558147, -13.838449 49.555936, -13.861981 49.553718, -13.885519 49.551494, -13.909063 49.549263, -13.932613 49.547025, -13.956170 49.544780, -13.979734 49.542529, -14.003303 49.540272, -14.026879 49.538007, -14.050461 49.535736, -14.074049 49.533459, -14.097643 49.531175, -14.121243 49.528884, -14.144849 49.526586, -14.168461 49.524282, -14.192079 49.521972, -14.215704 49.519655, -14.239334 49.517331, -14.262969 49.515001, -14.286611 49.512664, -14.310259 49.510320, -14.333912 49.507970, -14.357571 49.505614, -14.381236 49.503251, -14.404906 49.500881, -14.428582 49.498505, -14.452264 49.496122, -14.475951 49.493733, -14.499643 49.491337, -14.523342 49.488935, -14.547045 49.486526, -14.570754 49.484111, -14.594469 49.481689, -14.618188 49.479261, -14.641914 49.476827, -14.665644 49.474385, -14.689380 49.471938, -14.713121 49.469484, -14.736867 49.467023, -14.760618 49.464557, -14.784374 49.462083, -14.808136 49.459604, -14.831902 49.457117, -14.855674 49.454625, -14.879450 49.452126, -14.903232 49.449620, -14.927018 49.447109, -14.950809 49.444590, -14.974605 49.442066, -14.998406 49.439535, -15.022212 49.436998, -15.046022 49.434454, -15.069838 49.431904, -15.093657 49.429348, -15.117482 49.426785, -15.141311 49.424216, -15.165145 49.421641, -15.188983 49.419059, -15.212826 49.416471, -15.236673 49.413877, -15.260525 49.411276, -15.284381 49.408670, -15.308242 49.406056, -15.332106 49.403437, -15.355976 49.400811, -15.379849 49.398180, -15.403727 49.395541, -15.427609 49.392897, -15.451495 49.390246, -15.475385 49.387589, -15.499280 49.384926, -15.523178 49.382257, -15.547081 49.379581, -15.570987 49.376900, -15.594898 49.374212, -15.618813 49.371518, -15.642731 49.368817, -15.666653 49.366111, -15.690580 49.363398, -15.714510 49.360679, -15.738443 49.357954, -15.762381 49.355223, -15.786322 49.352486, -15.810267 49.349743, -15.834216 49.346993, -15.858168 49.344238, -15.882124 49.341476, -15.906084 49.338708, -15.930047 49.335934, -15.954013 49.333155, -15.977983 49.330369, -16.001957 49.327576, -16.025933 49.324778, -16.049914 49.321974, -16.073897 49.319164, -16.097884 49.316348, -16.121874 49.313525, -16.145867 49.310697, -16.169864 49.307863, -16.193864 49.305022, -16.217866 49.302176, -16.241872 49.299324, -16.265881 49.296466, -16.289894 49.293601, -16.313909 49.290731, -16.337927 49.287855, -16.361948 49.284973, -16.385972 49.282085, -16.409999 49.279191, -16.434028 49.276291, -16.458061 49.273385, -16.482096 49.270473, -16.506134 49.267556, -16.530175 49.264632, -16.554219 49.261703, -16.578265 49.258768, -16.602314 49.255827, -16.626365 49.252880, -16.650419 49.249927, -16.674476 49.246968, -16.698535 49.244004, -16.722596 49.241033, -16.746660 49.238057, -16.770727 49.235075, -16.794795 49.232088, -16.818867 49.229094, -16.842940 49.226095, -16.867016 49.223090, -16.891094 49.220079, -16.915174 49.217063, -16.939256 49.214040, -16.963341 49.211012, -16.987427 49.207978, -17.011516 49.204939, -17.035607 49.201894, -17.059700 49.198843, -17.083795 49.195786, -17.107892 49.192724, -17.131991 49.189656, -17.156091 49.186583, -17.180194 49.183503, -17.204298 49.180419, -17.228405 49.177328, -17.252513 49.174232, -17.276623 49.171130, -17.300734 49.168023, -17.324847 49.164910, -17.348962 49.161791, -17.373079 49.158667, -17.397197 49.155537, -17.421317 49.152402, -17.445438 49.149261, -17.469561 49.146115, -17.493685 49.142963, -17.517811 49.139805, -17.541938 49.136642, -17.566067 49.133474, -17.590197 49.130300, -17.614328 49.127120, -17.638460 49.123936, -17.662594 49.120745, -17.686729 49.117549, -17.710866 49.114348, -17.735003 49.111141, -17.759142 49.107929, -17.783281 49.104711, -17.807422 49.101488, -17.831564 49.098260, -17.855707 49.095026, -17.879851 49.091787, -17.903996 49.088542, -17.928142 49.085292, -17.952288 49.082037, -17.976436 49.078776, -18.000584 49.075510, -18.024734 49.072238, -18.048884 49.068962, -18.073035 49.065680, -18.097186 49.062393, -18.121338 49.059100, -18.145491 49.055802, -18.169645 49.052499, -18.193799 49.049191, -18.217954 49.045877, -18.242109 49.042558, -18.266265 49.039234, -18.290421 49.035905, -18.314578 49.032570, -18.338735 49.029230, -18.362893 49.025885, -18.387051 49.022535, -18.411210 49.019180, -18.435368 49.015819, -18.459527 49.012454, -18.483687 49.009083, -18.507846 49.005707, -18.532006 49.002326, -18.556166 48.998940, -18.580326 48.995549, -18.604486 48.992153, -18.628646 48.988751, -18.652807 48.985345, -18.676967 48.981933, -18.701127 48.978517, -18.725288 48.975095, -18.749448 48.971668, -18.773608 48.968237, -18.797768 48.964800, -18.821928 48.961359, -18.846088 48.957912, -18.870247 48.954460, -18.894407 48.951004, -18.918566 48.947542, -18.942725 48.944076, -18.966883 48.940604, -18.991041 48.937128, -19.015199 48.933647, -19.039356 48.930160, -19.063513 48.926669, -19.087670 48.923174, -19.111826 48.919673, -19.135981 48.916167, -19.160136 48.912657, -19.184291 48.909141, -19.208445 48.905621, -19.232598 48.902096, -19.256750 48.898566, -19.280902 48.895032, -19.305054 48.891492, -19.329204 48.887948, -19.353354 48.884399, -19.377503 48.880845, -19.401651 48.877287, -19.425798 48.873724, -19.449944 48.870156, -19.474090 48.866583, -19.498235 48.863006, -19.522378 48.859424, -19.546521 48.855837, -19.570663 48.852246, -19.594803 48.848650, -19.618943 48.845050, -19.643081 48.841444, -19.667219 48.837834, -19.691355 48.834220, -19.715490 48.830601, -19.739624 48.826977, -19.763756 48.823349, -19.787888 48.819716, -19.812018 48.816079, -19.836147 48.812437, -19.860274 48.808790, -19.884400 48.805139, -19.908525 48.801484, -19.932648 48.797824, -19.956770 48.794160, -19.980891 48.790491, -20.005010 48.786817, -20.029127 48.783139, -20.053243 48.779457, -20.077357 48.775770, -20.101470 48.772079, -20.125581 48.768384, -20.149691 48.764684, -20.173798 48.760979, -20.197904 48.757271, -20.222009 48.753557, -20.246111 48.749840, -20.270212 48.746118, -20.294311 48.742392, -20.318408 48.738662, -20.342504 48.734927, -20.366597 48.731188, -20.390689 48.727445, -20.414778 48.723697, -20.438866 48.719945, -20.462952 48.716189, -20.487035 48.712429, -20.511117 48.708664, -20.535196 48.704896, -20.559274 48.701123, -20.583349 48.697346, -20.607422 48.693564, -20.631493 48.689779, -20.655562 48.685989, -20.679629 48.682196, -20.703693 48.678398, -20.727755 48.674596, -20.751815 48.670790, -20.775873 48.666979, -20.799928 48.663165, -20.823981 48.659347, -20.848031 48.655524, -20.872079 48.651698, -20.896124 48.647867, -20.920168 48.644033, -20.944208 48.640194, -20.968246 48.636352, -20.992282 48.632505, -21.016315 48.628655, -21.040345 48.624801, -21.064373 48.620942, -21.088398 48.617080, -21.112420 48.613214, -21.136440 48.609344, -21.160457 48.605469, -21.184471 48.601592, -21.208483 48.597710, -21.232492 48.593824, -21.256497 48.589935, -21.280501 48.586041, -21.304501 48.582144, -21.328498 48.578243, -21.352493 48.574338, -21.376484 48.570430, -21.400473 48.566517, -21.424458 48.562601, -21.448441 48.558681, -21.472420 48.554758, -21.496397 48.550830, -21.520370 48.546899, -21.544340 48.542964, -21.568307 48.539026, -21.592271 48.535084, -21.616232 48.531138, -21.640190 48.527188, -21.664144 48.523235, -21.688095 48.519279, -21.712043 48.515318, -21.735988 48.511354, -21.759929 48.507387, -21.783867 48.503416, -21.807802 48.499441, -21.831733 48.495463, -21.855661 48.491481, -21.879585 48.487496, -21.903506 48.483507, -21.927424 48.479515, -21.951337 48.475519, -21.975248 48.471519, -21.999155 48.467517, -22.023058 48.463510, -22.046958 48.459501, -22.070854 48.455488, -22.094746 48.451471, -22.118635 48.447451, -22.142520 48.443428, -22.166402 48.439402, -22.190279 48.435372, -22.214153 48.431338, -22.238023 48.427302, -22.261890 48.423262, -22.285752 48.419218, -22.309611 48.415172, -22.333466 48.411122, -22.357317 48.407069, -22.381164 48.403012, -22.405007 48.398952, -22.428846 48.394890, -22.452681 48.390823, -22.476512 48.386754, -22.500340 48.382682, -22.524163 48.378606, -22.547982 48.374527, -22.571797 48.370445, -22.595608 48.366360, -22.619414 48.362272, -22.643217 48.358180, -22.667015 48.354086, -22.690810 48.349988, -22.714600 48.345888, -22.738385 48.341784, -22.762167 48.337677, -22.785944 48.333567, -22.809717 48.329454, -22.833486 48.325339, -22.857250 48.321220, -22.881010 48.317098, -22.904765 48.312973, -22.928517 48.308845, -22.952263 48.304715, -22.976006 48.300581, -22.999743 48.296445, -23.023477 48.292305, -23.047205 48.288163, -23.070930 48.284018, -23.094649 48.279870, -23.118364 48.275719, -23.142075 48.271565, -23.165781 48.267409, -23.189482 48.263249, -23.213179 48.259087, -23.236871 48.254922, -23.260558 48.250754, -23.284240 48.246584, -23.307918 48.242411, -23.331591 48.238235, -23.355259 48.234056, -23.378923 48.229875, -23.402581 48.225691, -23.426235 48.221504, -23.449884 48.217315, -23.473528 48.213123, -23.497167 48.208928, -23.520801 48.204731, -23.544430 48.200531, -23.568055 48.196329, -23.591674 48.192124, -23.615288 48.187916, -23.638897 48.183706, -23.662502 48.179493, -23.686101 48.175278, -23.709695 48.171060, -23.733284 48.166840, -23.756868 48.162617, -23.780446 48.158392, -23.804020 48.154165, -23.827588 48.149935, -23.851151 48.145702, -23.874709 48.141467, -23.898262 48.137230, -23.921810 48.132990, -23.945352 48.128748, -23.968889 48.124504, -23.992420 48.120257, -24.015946 48.116008, -24.039467 48.111757, -24.062983 48.107503, -24.086493 48.103247, -24.109998 48.098989, -24.133497 48.094728, -24.156991 48.090465, -24.180479 48.086200, -24.203962 48.081933, -24.227439 48.077664, -24.250911 48.073392, -24.274378 48.069118, -24.297838 48.064843, -24.321294 48.060564, -24.344743 48.056284, -24.368187 48.052002, -24.391625 48.047717, -24.415058 48.043431, -24.438485 48.039142, -24.461907 48.034852, -24.485322 48.030559, -24.508732 48.026264, -24.532136 48.021967, -24.555535 48.017669, -24.578927 48.013368, -24.602314 48.009065, -24.625695 48.004760, -24.649070 48.000454, -24.672440 47.996145, -24.695803 47.991834, -24.719161 47.987522, -24.742512 47.983208, -24.765858 47.978892, -24.789198 47.974573, -24.812532 47.970253, -24.835860 47.965932, -24.859181 47.961608, -24.882497 47.957283, -24.905807 47.952956, -24.929111 47.948627, -24.952409 47.944296, -24.975700 47.939963, -24.998986 47.935629, -25.022265 47.931293, -25.045539 47.926956, -25.068806 47.922616, -25.092067 47.918275, -25.115322 47.913932, -25.138571 47.909588, -25.161813 47.905242, -25.185049 47.900895, -25.208279 47.896545, -25.231503 47.892195, -25.254720 47.887842, -25.277931 47.883488, -25.301136 47.879133, -25.324335 47.874776, -25.347527 47.870417, -25.370713 47.866057, -25.393892 47.861696, -25.417065 47.857333, -25.440232 47.852968, -25.463392 47.848602, -25.486545 47.844235, -25.509693 47.839866, -25.532833 47.835496, -25.555968 47.831124, -25.579096 47.826751, -25.602217 47.822377, -25.625332 47.818001, -25.648440 47.813624, -25.671541 47.809246, -25.694636 47.804867, -25.717725 47.800486, -25.740806 47.796103, -25.763882 47.791720, -25.786950 47.787335, -25.810012 47.782949, -25.833067 47.778562, -25.856115 47.774174, -25.879157 47.769785, -25.902192 47.765394, -25.925220 47.761002, -25.948242 47.756609, -25.971257 47.752215, -25.994265 47.747820, -26.017266 47.743424, -26.040260 47.739026, -26.063247 47.734628, -26.086228 47.730228, -26.109202 47.725828, -26.132169 47.721426, -26.155129 47.717024, -26.178082 47.712620, -26.201028 47.708215, -26.223967 47.703810, -26.246899 47.699404, -26.269825 47.694996, -26.292743 47.690588, -26.315654 47.686179, -26.338559 47.681769, -26.361456 47.677358, -26.384346 47.672946, -26.407229 47.668533, -26.430105 47.664120, -26.452974 47.659705, -26.475836 47.655290, -26.498691 47.650874, -26.521539 47.646457, -26.544379 47.642040, -26.567213 47.637622, -26.590039 47.633203, -26.612858 47.628783, -26.635670 47.624363, -26.658474 47.619942, -26.681272 47.615520, -26.704062 47.611098, -26.726845 47.606675, -26.749620 47.602252, -26.772389 47.597827, -26.795150 47.593403, -26.817904 47.588977, -26.840650 47.584551, -26.863389 47.580125, -26.886121 47.575698, -26.908845 47.571270, -26.931562 47.566842, -26.954272 47.562414, -26.976974 47.557985, -26.999669 47.553556, -27.022356 47.549126, -27.045036 47.544696, -27.067709 47.540265, -27.090374 47.535834, -27.113031 47.531402, -27.135682 47.526970, -27.158324 47.522538, -27.180959 47.518106, -27.203587 47.513673, -27.226207 47.509240, -27.248819 47.504806, -27.271424 47.500373, -27.294021 47.495939, -27.316611 47.491504, -27.339193 47.487070, -27.361767 47.482635, -27.384334 47.478200, -27.406893 47.473765, -27.429445 47.469330, -27.451989 47.464895, -27.474525 47.460459, -27.497053 47.456024, -27.519574 47.451588, -27.542087 47.447152, -27.564592 47.442716, -27.587090 47.438280, -27.609580 47.433844, -27.632062 47.429408, -27.654536 47.424972, -27.677002 47.420536, -27.699461 47.416100, -27.721912 47.411664, -27.744355 47.407228, -27.766790 47.402792, -27.789217 47.398356, -27.811637 47.393920, -27.834048 47.389485, -27.856452 47.385049, -27.878848 47.380614, -27.901236 47.376178, -27.923616 47.371743, -27.945988 47.367308, -27.968352 47.362874, -27.990708 47.358439, -28.013056 47.354005, -28.035397 47.349571, -28.057729 47.345137, -28.080053 47.340704, -28.102369 47.336270, -28.124677 47.331837, -28.146978 47.327405, -28.169270 47.322973, -28.191554 47.318541, -28.213830 47.314109, -28.236098 47.309678, -28.258358 47.305247, -28.280609 47.300817, -28.302853 47.296387, -28.325089 47.291957, -28.347316 47.287528, -28.369535 47.283100, -28.391746 47.278672, -28.413949 47.274244, -28.436144 47.269817, -28.458331 47.265391, -28.480509 47.260965, -28.502679 47.256539, -28.524841 47.252114, -28.546995 47.247690, -28.569141 47.243266, -28.591278 47.238843, -28.613407 47.234421, -28.635528 47.229999, -28.657640 47.225578, -28.679745 47.221158, -28.701840 47.216738, -28.723928 47.212319, -28.746007 47.207901, -28.768078 47.203484, -28.790141 47.199067, -28.812195 47.194651, -28.834241 47.190236, -28.856279 47.185822, -28.878308 47.181408, -28.900329 47.176996, -28.922341 47.172584, -28.944346 47.168173, -28.966341 47.163763, -28.988328 47.159354, -29.010307 47.154946, -29.032278 47.150539, -29.054239 47.146132, -29.076193 47.141727, -29.098138 47.137323, -29.120074 47.132919, -29.142002 47.128517, -29.163922 47.124116, -29.185833 47.119715, -29.207736 47.115316, -29.229630 47.110918, -29.251515 47.106521, -29.273392 47.102125, -29.295260 47.097730, -29.317120 47.093337, -29.338971 47.088944, -29.360814 47.084553, -29.382648 47.080163, -29.404474 47.075774, -29.426291 47.071386, -29.448099 47.066999, -29.469899 47.062614, -29.491690 47.058230, -29.513472 47.053847, -29.535246 47.049466, -29.557011 47.045086, -29.578768 47.040707, -29.600515 47.036330, -29.622254 47.031953, -29.643985 47.027579, -29.665707 47.023205, -29.687420 47.018833, -29.709124 47.014463, -29.730820 47.010094, -29.752507 47.005726, -29.774185 47.001360, -29.795854 46.996995, -29.817515 46.992632, -29.839167 46.988270, -29.860810 46.983910, -29.882444 46.979551, -29.904070 46.975194, -29.925687 46.970839, -29.947295 46.966485, -29.968894 46.962132, -29.990484 46.957782, -30.012066 46.953433, -30.033639 46.949085, -30.055203 46.944739, -30.076758 46.940395, -30.098304 46.936053, -30.119842 46.931712, -30.141370 46.927373, -30.162890 46.923036, -30.184400 46.918701, -30.205902 46.914367, -30.227395 46.910035, -30.248879 46.905705, -30.270355 46.901377, -30.291821 46.897051, -30.313278 46.892726, -30.334727 46.888404, -30.356166 46.884083, -30.377597 46.879764, -30.399018 46.875447, -30.420431 46.871132, -30.441835 46.866819, -30.463230 46.862508, -30.484615 46.858199, -30.505992 46.853891, -30.527360 46.849586, -30.548719 46.845283, -30.570068 46.840982, -30.591409 46.836683, -30.612741 46.832386, -30.634064 46.828091, -30.655377 46.823799, -30.676682 46.819508, -30.697978 46.815220, -30.719264 46.810933, -30.740542 46.806649, -30.761810 46.802367, -30.783070 46.798087, -30.804320 46.793810, -30.825561 46.789535, -30.846794 46.785262, -30.868017 46.780991, -30.889231 46.776722, -30.910436 46.772456, -30.931631 46.768192, -30.952818 46.763930, -30.973996 46.759671, -30.995164 46.755414, -31.016323 46.751160, -31.037473 46.746908, -31.058614 46.742658, -31.079746 46.738411, -31.100869 46.734166, -31.121982 46.729923, -31.143087 46.725683, -31.164182 46.721446, -31.185268 46.717211, -31.206345 46.712978, -31.227413 46.708748, -31.248471 46.704521, -31.269520 46.700296, -31.290560 46.696074, -31.311591 46.691854, -31.332613 46.687637, -31.353625 46.683423, -31.374629 46.679211, -31.395622 46.675002, -31.416607 46.670795, -31.437583 46.666592, -31.458549 46.662391, -31.479506 46.658192, -31.500454 46.653997, -31.521392 46.649804, -31.542321 46.645614, -31.563241 46.641426, -31.584152 46.637242, -31.605053 46.633060, -31.625945 46.628881, -31.646828 46.624705, -31.667702 46.620532, -31.688566 46.616362, -31.709421 46.612194, -31.730266 46.608030, -31.751103 46.603868, -31.771930 46.599710, -31.792747 46.595554, -31.813556 46.591401, -31.834355 46.587251, -31.855144 46.583105, -31.875925 46.578961, -31.896696 46.574820, -31.917457 46.570683, -31.938210 46.566548, -31.958952 46.562417, -31.979686 46.558288, -32.000410 46.554163, -32.021125 46.550041, -32.041830 46.545922, -32.062527 46.541806, -32.083213 46.537694, -32.103890 46.533584, -32.124558 46.529478, -32.145217 46.525375, -32.165866 46.521275, -32.186506 46.517178, -32.207136 46.513085, -32.227757 46.508995, -32.248368 46.504909, -32.268971 46.500825, -32.289563 46.496745, -32.310146 46.492669, -32.330720 46.488595, -32.351285 46.484525, -32.371840 46.480459, -32.392385 46.476396, -32.412921 46.472336, -32.433448 46.468280, -32.453965 46.464227, -32.474473 46.460178, -32.494971 46.456132, -32.515460 46.452089, -32.535939 46.448051, -32.556409 46.444015, -32.576869 46.439984, -32.597320 46.435956, -32.617762 46.431931, -32.638194 46.427910, -32.658616 46.423893, -32.679029 46.419879, -32.699433 46.415869, -32.719827 46.411863, -32.740211 46.407860, -32.760586 46.403861, -32.780952 46.399866, -32.801308 46.395874, -32.821654 46.391887, -32.841991 46.387903, -32.862319 46.383922, -32.882637 46.379946, -32.902945 46.375973, -32.923244 46.372004, -32.943534 46.368039, -32.963814 46.364078, -32.984084 46.360121, -33.004345 46.356168, -33.024596 46.352218, -33.044838 46.348273, -33.065070 46.344331, -33.085293 46.340393, -33.105506 46.336460, -33.125710 46.332530, -33.145904 46.328604, -33.166089 46.324682, -33.186264 46.320765, -33.206429 46.316851, -33.226585 46.312941, -33.246731 46.309036, -33.266868 46.305135, -33.286995 46.301237, -33.307113 46.297344, -33.327221 46.293455, -33.347319 46.289570, -33.367408 46.285689, -33.387488 46.281813, -33.407558 46.277941, -33.427618 46.274073, -33.447668 46.270209, -33.467709 46.266349, -33.487741 46.262494, -33.507763 46.258643, -33.527775 46.254796, -33.547778 46.250953, -33.567771 46.247115, -33.587754 46.243282, -33.607728 46.239452, -33.627693 46.235627, -33.647647 46.231806, -33.667593 46.227990, -33.687528 46.224178, -33.707454 46.220371, -33.727370 46.216568, -33.747277 46.212770, -33.767174 46.208976, -33.787062 46.205186, -33.806940 46.201401, -33.826808 46.197621, -33.846667 46.193845, -33.866516 46.190074, -33.886355 46.186307, -33.906185 46.182545, -33.926006 46.178788, -33.945816 46.175035, -33.965617 46.171287, -33.985409 46.167543, -34.005190 46.163804, -34.024963 46.160070, -34.044725 46.156341, -34.064478 46.152616, -34.084221 46.148896, -34.103955 46.145181, -34.123679 46.141470, -34.143393 46.137765, -34.163098 46.134064, -34.182793 46.130368, -34.202479 46.126677, -34.222155 46.122990, -34.241821 46.119309, -34.261478 46.115632, -34.281125 46.111960, -34.300762 46.108294, -34.320390 46.104632, -34.340008 46.100975, -34.359616 46.097323, -34.379215 46.093676, -34.398804 46.090034, -34.418384 46.086397, -34.437954 46.082765, -34.457514 46.079138, -34.477065 46.075517, -34.496606 46.071900, -34.516137 46.068288, -34.535659 46.064682, -34.555171 46.061080, -34.574673 46.057484, -34.594166 46.053893, -34.613649 46.050307, -34.633123 46.046726, -34.652587 46.043151, -34.672041 46.039580, -34.691486 46.036015, -34.710921 46.032455, -34.730346 46.028901, -34.749762 46.025351, -34.769168 46.021807, -34.788564 46.018269, -34.807951 46.014735, -34.827328 46.011207, -34.846696 46.007684, -34.866053 46.004167, -34.885402 46.000655, -34.904740 45.997149, -34.924069 45.993648, -34.943388 45.990152, -34.962698 45.986662, -34.981998 45.983177, -35.001288 45.979698, -35.020569 45.976224, -35.039840 45.972756, -35.059102 45.969293, -35.078354 45.965836, -35.097596 45.962385, -35.116828 45.958939, -35.136051 45.955498, -35.155265 45.952063, -35.174468 45.948634, -35.193662 45.945211, -35.212847 45.941793, -35.232021 45.938381, -35.251186 45.934974, -35.270342 45.931574, -35.289488 45.928179, -35.308624 45.924789, -35.327750 45.921406, -35.346867 45.918028, -35.365975 45.914656, -35.385072 45.911290, -35.404160 45.907930, -35.423239 45.904575, -35.442308 45.901226, -35.461367 45.897884, -35.480416 45.894547, -35.499456 45.891216, -35.518487 45.887891, -35.537507 45.884572, -35.556519 45.881258, -35.575520 45.877951, -35.594512 45.874650, -35.613494 45.871355, -35.632467 45.868065, -35.651430 45.864782, -35.670383 45.861505, -35.689327 45.858234, -35.708261 45.854969, -35.727186 45.851710, -35.746101 45.848457, -35.765006 45.845210, -35.783902 45.841970, -35.802788 45.838735, -35.821664 45.835507, -35.840531 45.832285, -35.859389 45.829069, -35.878236 45.825859, -35.897074 45.822656, -35.915903 45.819459, -35.934722 45.816268, -35.953531 45.813083, -35.972331 45.809905, -35.991121 45.806733, -36.009902 45.803567, -36.028673 45.800408, -36.047434 45.797255, -36.066186 45.794108, -36.084928 45.790968, -36.103661 45.787834, -36.122384 45.784707, -36.141098 45.781586, -36.159802 45.778472, -36.178496 45.775364, -36.197181 45.772262, -36.215856 45.769167, -36.234522 45.766079, -36.253178 45.762997, -36.271824 45.759921, -36.290461 45.756853, -36.309089 45.753790, -36.327707 45.750735, -36.346315 45.747686, -36.364914 45.744643, -36.383503 45.741608, -36.402082 45.738579, -36.420653 45.735556, -36.439213 45.732540, -36.457764 45.729531, -36.476306 45.726529, -36.494838 45.723534, -36.513360 45.720545, -36.531873 45.717563, -36.550376 45.714588, -36.568870 45.711619, -36.587354 45.708658, -36.605829 45.705703, -36.624294 45.702755, -36.642750 45.699814, -36.661196 45.696880, -36.679633 45.693953, -36.698060 45.691033, -36.716478 45.688119, -36.734886 45.685213, -36.753285 45.682314, -36.771674 45.679421, -36.790053 45.676536, -36.808424 45.673657, -36.826784 45.670786, -36.845135 45.667922, -36.863477 45.665064, -36.881809 45.662214, -36.900132 45.659371, -36.918445 45.656535, -36.936749 45.653706, -36.955043 45.650885, -36.973328 45.648070, -36.991603 45.645263, -37.009869 45.642463, -37.028125 45.639670, -37.046372 45.636884, -37.064610 45.634105, -37.082838 45.631334, -37.101056 45.628570, -37.119266 45.625814, -37.137465 45.623064, -37.155655 45.620322, -37.173836 45.617587, -37.192007 45.614860, -37.210169 45.612140, -37.228322 45.609427, -37.246465 45.606722, -37.264598 45.604024, -37.282723 45.601334, -37.300837 45.598651, -37.318943 45.595976, -37.337039 45.593308, -37.355125 45.590647, -37.373202 45.587994, -37.391270 45.585349, -37.409328 45.582711, -37.427377 45.580081, -37.445417 45.577458, -37.463447 45.574843, -37.481467 45.572235, -37.499479 45.569635, -37.517481 45.567043, -37.535473 45.564459, -37.553457 45.561882, -37.571430 45.559312, -37.589395 45.556751, -37.607350 45.554197, -37.625296 45.551651, -37.643232 45.549113, -37.661159 45.546582, -37.679077 45.544059, -37.696985 45.541544, -37.714884 45.539037, -37.732774 45.536538, -37.750654 45.534047, -37.768525 45.531563, -37.786387 45.529087, -37.804239 45.526620, -37.822082 45.524160, -37.839916 45.521708, -37.857740 45.519264, -37.875555 45.516828, -37.893361 45.514400, -37.911157 45.511980, -37.928944 45.509568, -37.946722 45.507164, -37.964491 45.504768, -37.982250 45.502380, -38.000000 45.500000, -38.017709 45.497631, -38.035429 45.495264, -38.053158 45.492900, -38.070896 45.490538, -38.088645 45.488179, -38.106403 45.485821, -38.124172 45.483467, -38.141950 45.481114, -38.159737 45.478764, -38.177535 45.476416, -38.195342 45.474071, -38.213159 45.471728, -38.230986 45.469387, -38.248822 45.467048, -38.266668 45.464712, -38.284524 45.462378, -38.302390 45.460046, -38.320265 45.457717, -38.338150 45.455389, -38.356045 45.453064, -38.373950 45.450741, -38.391864 45.448421, -38.409787 45.446102, -38.427721 45.443786, -38.445664 45.441472, -38.463617 45.439160, -38.481579 45.436851, -38.499551 45.434543, -38.517533 45.432238, -38.535524 45.429935, -38.553525 45.427634, -38.571536 45.425335, -38.589556 45.423038, -38.607586 45.420743, -38.625625 45.418450, -38.643674 45.416160, -38.661733 45.413871, -38.679801 45.411585, -38.697879 45.409300, -38.715966 45.407018, -38.734063 45.404738, -38.752169 45.402459, -38.770285 45.400183, -38.788411 45.397909, -38.806546 45.395637, -38.824690 45.393366, -38.842844 45.391098, -38.861008 45.388832, -38.879181 45.386568, -38.897364 45.384305, -38.915556 45.382045, -38.933757 45.379786, -38.951968 45.377530, -38.970189 45.375275, -38.988418 45.373022, -39.006658 45.370771, -39.024907 45.368522, -39.043165 45.366275, -39.061433 45.364030, -39.079710 45.361786, -39.097996 45.359545, -39.116292 45.357305, -39.134597 45.355067, -39.152912 45.352831, -39.171236 45.350597, -39.189570 45.348365, -39.207913 45.346134, -39.226265 45.343905, -39.244627 45.341678, -39.262997 45.339453, -39.281378 45.337229, -39.299767 45.335008, -39.318166 45.332788, -39.336575 45.330569, -39.354992 45.328353, -39.373419 45.326138, -39.391855 45.323925, -39.410301 45.321713, -39.428756 45.319503, -39.447220 45.317295, -39.465693 45.315089, -39.484176 45.312884, -39.502668 45.310681, -39.521169 45.308479, -39.539679 45.306279, -39.558199 45.304081, -39.576728 45.301885, -39.595266 45.299690, -39.613813 45.297496, -39.632369 45.295304, -39.650935 45.293114, -39.669510 45.290925, -39.688094 45.288738, -39.706687 45.286552, -39.725289 45.284368, -39.743901 45.282186, -39.762522 45.280005, -39.781152 45.277825, -39.799791 45.275647, -39.818439 45.273471, -39.837096 45.271296, -39.855762 45.269122, -39.874438 45.266950, -39.893122 45.264780, -39.911816 45.262611, -39.930519 45.260443, -39.949230 45.258277, -39.967951 45.256112, -39.986681 45.253948, -40.005420 45.251786, -40.024168 45.249626, -40.042925 45.247466, -40.061691 45.245309, -40.080466 45.243152, -40.099250 45.240997, -40.118044 45.238843, -40.136846 45.236691, -40.155657 45.234540, -40.174477 45.232390, -40.193306 45.230241, -40.212144 45.228094, -40.230991 45.225948, -40.249847 45.223804, -40.268712 45.221661, -40.287586 45.219519, -40.306468 45.217378, -40.325360 45.215238, -40.344261 45.213100, -40.363170 45.210963, -40.382088 45.208827, -40.401016 45.206693, -40.419952 45.204559, -40.438897 45.202427, -40.457851 45.200296, -40.476813 45.198167, -40.495785 45.196038, -40.514765 45.193911, -40.533755 45.191784, -40.552753 45.189659, -40.571759 45.187535, -40.590775 45.185412, -40.609800 45.183291, -40.628833 45.181170, -40.647875 45.179051, -40.666926 45.176932, -40.685985 45.174815, -40.705053 45.172699, -40.724130 45.170584, -40.743216 45.168469, -40.762311 45.166356, -40.781414 45.164244, -40.800526 45.162133, -40.819647 45.160024, -40.838776 45.157915, -40.857914 45.155807, -40.877061 45.153700, -40.896216 45.151594, -40.915380 45.149489, -40.934553 45.147385, -40.953734 45.145282, -40.972924 45.143180, -40.992123 45.141079, -41.011330 45.138979, -41.030546 45.136880, -41.049770 45.134781, -41.069003 45.132684, -41.088245 45.130588, -41.107495 45.128492, -41.126754 45.126397, -41.146021 45.124304, -41.165297 45.122211, -41.184581 45.120119, -41.203874 45.118027, -41.223175 45.115937, -41.242485 45.113848, -41.261804 45.111759, -41.281131 45.109671, -41.300466 45.107584, -41.319810 45.105498, -41.339162 45.103412, -41.358523 45.101328, -41.377892 45.099244, -41.397270 45.097161, -41.416656 45.095078, -41.436051 45.092997, -41.455454 45.090916, -41.474865 45.088836, -41.494285 45.086757, -41.513713 45.084678, -41.533150 45.082600, -41.552595 45.080523, -41.572048 45.078446, -41.591510 45.076370, -41.610980 45.074295, -41.630458 45.072221, -41.649945 45.070147, -41.669440 45.068074, -41.688943 45.066001, -41.708455 45.063929, -41.727975 45.061858, -41.747503 45.059787, -41.767039 45.057717, -41.786584 45.055648, -41.806137 45.053579, -41.825698 45.051511, -41.845267 45.049443, -41.864845 45.047376, -41.884431 45.045309, -41.904025 45.043243, -41.923627 45.041178, -41.943237 45.039113, -41.962856 45.037048, -41.982483 45.034985, -42.002118 45.032921, -42.021761 45.030858, -42.041412 45.028796, -42.061071 45.026734, -42.080739 45.024673, -42.100414 45.022612, -42.120098 45.020551, -42.139790 45.018491, -42.159489 45.016432, -42.179197 45.014373, -42.198913 45.012314, -42.218637 45.010256, -42.238369 45.008198, -42.258109 45.006140, -42.277858 45.004083, -42.297614 45.002026, -42.317378 44.999970, -42.337150 44.997914, -42.356930 44.995859, -42.376718 44.993803, -42.396514 44.991749, -42.416318 44.989694, -42.436130 44.987640, -42.455950 44.985586, -42.475778 44.983532, -42.495614 44.981479, -42.515457 44.979426, -42.535309 44.977373, -42.555168 44.975321, -42.575035 44.973269, -42.594911 44.971217, -42.614794 44.969166, -42.634684 44.967114, -42.654583 44.965063, -42.674490 44.963012, -42.694404 44.960962, -42.714326 44.958911, -42.734256 44.956861, -42.754194 44.954811, -42.774139 44.952761, -42.794093 44.950712, -42.814054 44.948662, -42.834022 44.946613, -42.853999 44.944564, -42.873983 44.942515, -42.893975 44.940466, -42.913975 44.938417, -42.933982 44.936369, -42.953997 44.934320, -42.974020 44.932272, -42.994050 44.930224, -43.014088 44.928176, -43.034134 44.926128, -43.054187 44.924080, -43.074248 44.922032, -43.094316 44.919984, -43.114392 44.917937, -43.134476 44.915889, -43.154567 44.913841, -43.174666 44.911794, -43.194773 44.909746, -43.214887 44.907699, -43.235008 44.905651, -43.255137 44.903604, -43.275274 44.901556, -43.295418 44.899509, -43.315569 44.897461, -43.335728 44.895413, -43.355895 44.893366, -43.376069 44.891318, -43.396250 44.889271, -43.416439 44.887223, -43.436635 44.885175, -43.456839 44.883127, -43.477050 44.881079, -43.497269 44.879031, -43.517495 44.876983, -43.537728 44.874935, -43.557968 44.872886, -43.578217 44.870838, -43.598472 44.868789, -43.618735 44.866740, -43.639005 44.864691, -43.659282 44.862642, -43.679567 44.860593, -43.699858 44.858544, -43.720158 44.856494, -43.740464 44.854444, -43.760778 44.852395, -43.781099 44.850344, -43.801427 44.848294, -43.821762 44.846244, -43.842105 44.844193, -43.862455 44.842142, -43.882812 44.840091, -43.903176 44.838039, -43.923548 44.835988, -43.943926 44.833936, -43.964312 44.831883, -43.984705 44.829831, -44.005105 44.827778, -44.025512 44.825725, -44.045926 44.823672, -44.066347 44.821618, -44.086775 44.819564, -44.107211 44.817510, -44.127653 44.815455, -44.148103 44.813400, -44.168559 44.811345, -44.189023 44.809289, -44.209494 44.807233, -44.229971 44.805177, -44.250456 44.803120, -44.270947 44.801063, -44.291446 44.799006, -44.311951 44.796948, -44.332464 44.794890, -44.352983 44.792831, -44.373509 44.790772, -44.394042 44.788713, -44.414582 44.786653, -44.435129 44.784592, -44.455683 44.782531, -44.476244 44.780470, -44.496812 44.778409, -44.517386 44.776346, -44.537967 44.774284, -44.558555 44.772221, -44.579150 44.770157, -44.599752 44.768093, -44.620360 44.766028, -44.640975 44.763963, -44.661597 44.761898, -44.682226 44.759831, -44.702861 44.757765, -44.723503 44.755698, -44.744152 44.753630, -44.764808 44.751561, -44.785470 44.749493, -44.806139 44.747423, -44.826814 44.745353, -44.847496 44.743283, -44.868185 44.741211, -44.888881 44.739140, -44.909583 44.737067, -44.930291 44.734994, -44.951007 44.732921, -44.971729 44.730846, -44.992457 44.728772, -45.013192 44.726696, -45.033933 44.724620, -45.054681 44.722543, -45.075436 44.720466, -45.096197 44.718388, -45.116965 44.716309, -45.137739 44.714229, -45.158519 44.712149, -45.179306 44.710068, -45.200100 44.707987, -45.220899 44.705905, -45.241706 44.703822, -45.262518 44.701738, -45.283337 44.699653, -45.304163 44.697568, -45.324995 44.695482, -45.345833 44.693396, -45.366677 44.691308, -45.387528 44.689220, -45.408385 44.687131, -45.429249 44.685041, -45.450118 44.682951, -45.470994 44.680860, -45.491877 44.678767, -45.512765 44.676675, -45.533660 44.674581, -45.554561 44.672486, -45.575468 44.670391, -45.596382 44.668295, -45.617302 44.666198, -45.638227 44.664100, -45.659160 44.662001, -45.680098 44.659901, -45.701042 44.657801, -45.721992 44.655700, -45.742949 44.653597, -45.763912 44.651494, -45.784880 44.649390, -45.805855 44.647285, -45.826836 44.645179, -45.847823 44.643073, -45.868816 44.640965, -45.889815 44.638856, -45.910820 44.636747, -45.931831 44.634636, -45.952848 44.632525, -45.973872 44.630413, -45.994901 44.628299, -46.015935 44.626185, -46.036976 44.624070, -46.058023 44.621953, -46.079076 44.619836, -46.100135 44.617718, -46.121199 44.615599, -46.142269 44.613478, -46.163346 44.611357, -46.184428 44.609235, -46.205516 44.607111, -46.226609 44.604987, -46.247709 44.602862, -46.268814 44.600735, -46.289925 44.598608, -46.311042 44.596479, -46.332165 44.594350, -46.353293 44.592219, -46.374428 44.590087, -46.395567 44.587954, -46.416713 44.585820, -46.437864 44.583685, -46.459021 44.581549, -46.480184 44.579412, -46.501352 44.577273, -46.522526 44.575134, -46.543705 44.572993, -46.564890 44.570851, -46.586081 44.568708, -46.607277 44.566564, -46.628479 44.564419, -46.649686 44.562272, -46.670899 44.560125, -46.692118 44.557976, -46.713342 44.555826, -46.734571 44.553675, -46.755806 44.551522, -46.777046 44.549369, -46.798292 44.547214, -46.819544 44.545058, -46.840800 44.542901, -46.862063 44.540742, -46.883330 44.538583, -46.904603 44.536422, -46.925881 44.534260, -46.947165 44.532096, -46.968454 44.529932, -46.989749 44.527766, -47.011048 44.525598, -47.032353 44.523430, -47.053664 44.521260, -47.074979 44.519089, -47.096300 44.516917, -47.117626 44.514743, -47.138958 44.512568, -47.160294 44.510392, -47.181636 44.508214, -47.202983 44.506035, -47.224335 44.503855, -47.245692 44.501673, -47.267055 44.499490, -47.288422 44.497306, -47.309795 44.495120, -47.331173 44.492933, -47.352556 44.490745, -47.373944 44.488555, -47.395337 44.486364, -47.416735 44.484171, -47.438139 44.481977, -47.459547 44.479782, -47.480960 44.477585, -47.502378 44.475387, -47.523802 44.473187, -47.545230 44.470986, -47.566663 44.468784, -47.588101 44.466580, -47.609544 44.464375, -47.630992 44.462168, -47.652445 44.459960, -47.673903 44.457750, -47.695365 44.455539, -47.716833 44.453326, -47.738305 44.451112, -47.759782 44.448897, -47.781264 44.446680, -47.802751 44.444461, -47.824242 44.442241, -47.845739 44.440019, -47.867240 44.437796, -47.888745 44.435572, -47.910256 44.433345, -47.931771 44.431118, -47.953291 44.428889, -47.974816 44.426658, -47.996345 44.424426, -48.017879 44.422192, -48.039417 44.419956, -48.060961 44.417719, -48.082508 44.415481, -48.104061 44.413241, -48.125618 44.410999, -48.147179 44.408756, -48.168745 44.406511, -48.190316 44.404264, -48.211891 44.402016, -48.233471 44.399767, -48.255055 44.397515, -48.276643 44.395262, -48.298236 44.393008, -48.319834 44.390752, -48.341436 44.388494, -48.363042 44.386234, -48.384653 44.383973, -48.406268 44.381710, -48.427888 44.379446, -48.449511 44.377180, -48.471140 44.374912, -48.492772 44.372643, -48.514409 44.370372, -48.536050 44.368099, -48.557696 44.365824, -48.579345 44.363548, -48.600999 44.361270, -48.622657 44.358991, -48.644320 44.356709, -48.665986 44.354426, -48.687657 44.352141, -48.709332 44.349855, -48.731011 44.347567, -48.752694 44.345277, -48.774382 44.342985, -48.796073 44.340691, -48.817769 44.338396, -48.839469 44.336099, -48.861172 44.333800, -48.882880 44.331500, -48.904592 44.329198, -48.926308 44.326893, -48.948028 44.324588, -48.969752 44.322280, -48.991479 44.319970, -49.013211 44.317659, -49.034947 44.315346, -49.056687 44.313031, -49.078430 44.310714, -49.100178 44.308396, -49.121929 44.306075, -49.143684 44.303753, -49.165443 44.301429, -49.187206 44.299103, -49.208973 44.296775, -49.230744 44.294446, -49.252518 44.292114, -49.274296 44.289781, -49.296078 44.287446, -49.317864 44.285109, -49.339653 44.282770, -49.361446 44.280429, -49.383243 44.278086, -49.405043 44.275741, -49.426847 44.273395, -49.448655 44.271046, -49.470467 44.268696, -49.492282 44.266344, -49.514100 44.263990, -49.535922 44.261633, -49.557748 44.259275, -49.579577 44.256915, -49.601410 44.254553, -49.623247 44.252190, -49.645086 44.249824, -49.666930 44.247456, -49.688777 44.245086, -49.710627 44.242714, -49.732481 44.240341, -49.754338 44.237965, -49.776199 44.235587, -49.798062 44.233208, -49.819930 44.230826, -49.841801 44.228443, -49.863675 44.226057, -49.885552 44.223669, -49.907433 44.221280, -49.929317 44.218888, -49.951204 44.216494, -49.973095 44.214099, -49.994988 44.211701, -50.016885 44.209301, -50.038786 44.206900, -50.060689 44.204496, -50.082596 44.202090, -50.104506 44.199682, -50.126419 44.197272, -50.148335 44.194860, -50.170254 44.192446, -50.192176 44.190030, -50.214102 44.187612, -50.236030 44.185191, -50.257962 44.182769, -50.279896 44.180344, -50.301834 44.177918, -50.323775 44.175489, -50.345718 44.173058, -50.367665 44.170626, -50.389614 44.168191, -50.411567 44.165754, -50.433522 44.163314, -50.455480 44.160873, -50.477442 44.158430, -50.499406 44.155984, -50.521373 44.153536, -50.543342 44.151086, -50.565315 44.148634, -50.587290 44.146180, -50.609269 44.143724, -50.631250 44.141266, -50.653233 44.138805, -50.675220 44.136342, -50.697209 44.133877, -50.719201 44.131410, -50.741196 44.128941, -50.763193 44.126469, -50.785193 44.123996, -50.807195 44.121520, -50.829201 44.119042, -50.851208 44.116561, -50.873219 44.114079, -50.895232 44.111594, -50.917247 44.109107, -50.939265 44.106618, -50.961286 44.104127, -50.983309 44.101634, -51.005335 44.099138, -51.027363 44.096640, -51.049393 44.094140, -51.071426 44.091637, -51.093462 44.089132, -51.115500 44.086625, -51.137540 44.084116, -51.159582 44.081605, -51.181627 44.079091, -51.203675 44.076575, -51.225724 44.074057, -51.247776 44.071536, -51.269830 44.069013, -51.291887 44.066488, -51.313946 44.063961, -51.336007 44.061431, -51.358070 44.058899, -51.380135 44.056365, -51.402203 44.053828, -51.424272 44.051289, -51.446344 44.048748, -51.468418 44.046205, -51.490495 44.043659, -51.512573 44.041111, -51.534653 44.038560, -51.556736 44.036008, -51.578820 44.033453, -51.600906 44.030895, -51.622995 44.028335, -51.645085 44.025773, -51.667178 44.023209, -51.689272 44.020642, -51.711369 44.018073, -51.733467 44.015501, -51.755567 44.012927, -51.777669 44.010351, -51.799773 44.007773, -51.821879 44.005192, -51.843987 44.002608, -51.866097 44.000023, -51.888208 43.997435, -51.910321 43.994844, -51.932436 43.992251, -51.954553 43.989656, -51.976671 43.987058, -51.998791 43.984458, -52.020913 43.981856, -52.043036 43.979251, -52.065162 43.976644, -52.087289 43.974034, -52.109417 43.971422, -52.131547 43.968807, -52.153679 43.966190, -52.175812 43.963571, -52.197947 43.960949, -52.220083 43.958325, -52.242221 43.955698, -52.264361 43.953069, -52.286501 43.950438, -52.308644 43.947804, -52.330788 43.945167, -52.352933 43.942528, -52.375080 43.939887, -52.397228 43.937243, -52.419377 43.934597, -52.441528 43.931948, -52.463680 43.929297, -52.485834 43.926643, -52.507989 43.923987, -52.530145 43.921328, -52.552302 43.918667, -52.574461 43.916003, -52.596621 43.913337, -52.618782 43.910669, -52.640945 43.907998, -52.663108 43.905324, -52.685273 43.902648, -52.707439 43.899969, -52.729606 43.897288, -52.751774 43.894605, -52.773944 43.891919, -52.796114 43.889230, -52.818285 43.886539, -52.840458 43.883845, -52.862631 43.881149, -52.884806 43.878450, -52.906982 43.875749, -52.929158 43.873045, -52.951336 43.870339, -52.973514 43.867630, -52.995693 43.864919, -53.017874 43.862205, -53.040055 43.859488, -53.062237 43.856769, -53.084420 43.854047, -53.106603 43.851323, -53.128788 43.848597, -53.150973 43.845867, -53.173159 43.843135, -53.195346 43.840401, -53.217534 43.837664, -53.239722 43.834925, -53.261911 43.832182, -53.284101 43.829438, -53.306291 43.826690, -53.328482 43.823941, -53.350674 43.821188, -53.372866 43.818433, -53.395059 43.815675, -53.417253 43.812915, -53.439447 43.810152, -53.461641 43.807387, -53.483837 43.804619, -53.506032 43.801848, -53.528228 43.799075, -53.550425 43.796299, -53.572622 43.793521, -53.594820 43.790740, -53.617017 43.787956, -53.639216 43.785170, -53.661414 43.782381, -53.683614 43.779589, -53.705813 43.776795, -53.728013 43.773998, -53.750213 43.771199, -53.772413 43.768397, -53.794614 43.765592, -53.816815 43.762784, -53.839016 43.759974, -53.861217 43.757162, -53.883418 43.754347, -53.905620 43.751529, -53.927822 43.748708, -53.950024 43.745885, -53.972226 43.743059, -53.994428 43.740230, -54.016631 43.737399, -54.038833 43.734565, -54.061035 43.731729, -54.083238 43.728889, -54.105440 43.726048, -54.127643 43.723203, -54.149845 43.720356, -54.172048 43.717506, -54.194250 43.714653, -54.216452 43.711798, -54.238655 43.708940, -54.260857 43.706080, -54.283059 43.703216, -54.305260 43.700350, -54.327462 43.697482, -54.349663 43.694610, -54.371865 43.691736, -54.394066 43.688860, -54.416266 43.685980, -54.438467 43.683098, -54.460667 43.680213, -54.482867 43.677326, -54.505066 43.674435, -54.527266 43.671542, -54.549465 43.668647, -54.571663 43.665748, -54.593861 43.662847, -54.616059 43.659944, -54.638256 43.657037, -54.660453 43.654128, -54.682649 43.651216, -54.704845 43.648301, -54.727041 43.645384, -54.749235 43.642464, -54.771430 43.639541, -54.793623 43.636615, -54.815817 43.633687, -54.838009 43.630756, -54.860201 43.627822, -54.882392 43.624886, -54.904583 43.621946, -54.926773 43.619004, -54.948962 43.616060, -54.971151 43.613112, -54.993339 43.610162, -55.015526 43.607209, -55.037712 43.604253, -55.059898 43.601295, -55.082082 43.598334, -55.104266 43.595370, -55.126449 43.592403, -55.148631 43.589434, -55.170813 43.586461, -55.192993 43.583486, -55.215173 43.580509, -55.237351 43.577528, -55.259529 43.574545, -55.281705 43.571559, -55.303881 43.568570, -55.326056 43.565579, -55.348229 43.562584, -55.370402 43.559587, -55.392573 43.556588, -55.414744 43.553585, -55.436913 43.550580, -55.459081 43.547571, -55.481248 43.544561, -55.503414 43.541547, -55.525578 43.538530, -55.547742 43.535511, -55.569904 43.532489, -55.592065 43.529464, -55.614225 43.526437, -55.636383 43.523406, -55.658540 43.520373, -55.680696 43.517337, -55.702851 43.514298, -55.725004 43.511257, -55.747156 43.508213, -55.769306 43.505166, -55.791455 43.502116, -55.813603 43.499063, -55.835749 43.496008, -55.857893 43.492949, -55.880036 43.489888, -55.902178 43.486824, -55.924318 43.483758, -55.946457 43.480688, -55.968594 43.477616, -55.990729 43.474541, -56.012863 43.471463, -56.034995 43.468383, -56.057126 43.465299, -56.079255 43.462213, -56.101382 43.459124, -56.123507 43.456032, -56.145631 43.452937, -56.167753 43.449840, -56.189873 43.446740, -56.211992 43.443636, -56.234109 43.440531, -56.256224 43.437422, -56.278337 43.434310, -56.300448 43.431196, -56.322557 43.428079, -56.344665 43.424959, -56.366771 43.421836, -56.388874 43.418711, -56.410976 43.415582, -56.433076 43.412451, -56.455174 43.409317, -56.477269 43.406180, -56.499363 43.403041, -56.521455 43.399898, -56.543544 43.396753, -56.565632 43.393605, -56.587717 43.390454, -56.609801 43.387300, -56.631882 43.384143, -56.653961 43.380984, -56.676038 43.377822, -56.698113 43.374657, -56.720185 43.371489, -56.742255 43.368318, -56.764323 43.365145, -56.786389 43.361969, -56.808453 43.358789, -56.830514 43.355607, -56.852572 43.352423, -56.874629 43.349235, -56.896683 43.346045, -56.918735 43.342851, -56.940784 43.339655, -56.962831 43.336456, -56.984875 43.333255, -57.006917 43.330050, -57.028957 43.326843, -57.050994 43.323632, -57.073028 43.320419, -57.095060 43.317204, -57.117089 43.313985, -57.139116 43.310763, -57.161140 43.307539, -57.183162 43.304312, -57.205181 43.301082, -57.227197 43.297849, -57.249211 43.294613, -57.271221 43.291375, -57.293230 43.288134, -57.315235 43.284889, -57.337238 43.281642, -57.359238 43.278393, -57.381235 43.275140, -57.403229 43.271885, -57.425221 43.268626, -57.447209 43.265365, -57.469195 43.262101, -57.491178 43.258835, -57.513158 43.255565, -57.535135 43.252293, -57.557109 43.249017, -57.579080 43.245739, -57.601048 43.242458, -57.623013 43.239175, -57.644976 43.235888, -57.666935 43.232599, -57.688891 43.229306, -57.710844 43.226011, -57.732793 43.222714, -57.754740 43.219413, -57.776684 43.216109, -57.798624 43.212803, -57.820561 43.209494, -57.842495 43.206182, -57.864426 43.202867, -57.886354 43.199549, -57.908278 43.196229, -57.930199 43.192906, -57.952117 43.189580, -57.974031 43.186251, -57.995943 43.182919, -58.017850 43.179584, -58.039755 43.176247, -58.061656 43.172907, -58.083553 43.169564, -58.105448 43.166218, -58.127338 43.162869, -58.149226 43.159518, -58.171109 43.156163, -58.192990 43.152806, -58.214866 43.149446, -58.236740 43.146084, -58.258609 43.142718, -58.280475 43.139350, -58.302338 43.135978, -58.324196 43.132604, -58.346052 43.129228, -58.367903 43.125848, -58.389751 43.122466, -58.411595 43.119080, -58.433436 43.115692, -58.455272 43.112301, -58.477105 43.108908, -58.498934 43.105511, -58.520760 43.102112, -58.542581 43.098710, -58.564399 43.095305, -58.586213 43.091897, -58.608023 43.088487, -58.629829 43.085073, -58.651631 43.081657, -58.673429 43.078238, -58.695223 43.074816, -58.717014 43.071392, -58.738800 43.067964, -58.760582 43.064534, -58.782361 43.061101, -58.804135 43.057666, -58.825905 43.054227, -58.847671 43.050786, -58.869433 43.047342, -58.891191 43.043895, -58.912944 43.040445, -58.934694 43.036993, -58.956439 43.033537, -58.978181 43.030079, -58.999917 43.026618, -59.021650 43.023155, -59.043379 43.019688, -59.065103 43.016219, -59.086823 43.012747, -59.108538 43.009272, -59.130249 43.005795, -59.151956 43.002315, -59.173658 42.998831, -59.195357 42.995346, -59.217050 42.991857, -59.238739 42.988365, -59.260424 42.984871, -59.282104 42.981374, -59.303780 42.977874, -59.325451 42.974372, -59.347118 42.970867, -59.368780 42.967359, -59.390438 42.963848, -59.412091 42.960334, -59.433739 42.956818, -59.455383 42.953299, -59.477022 42.949777, -59.498657 42.946252, -59.520287 42.942725, -59.541912 42.939195, -59.563532 42.935662, -59.585148 42.932126, -59.606759 42.928588, -59.628365 42.925047, -59.649966 42.921503, -59.671562 42.917956, -59.693154 42.914407, -59.714741 42.910855, -59.736323 42.907300, -59.757899 42.903742, -59.779472 42.900182, -59.801039 42.896619, -59.822601 42.893053, -59.844158 42.889484, -59.865710 42.885913, -59.887257 42.882339, -59.908800 42.878762, -59.930337 42.875183, -59.951869 42.871601, -59.973396 42.868016, -59.994917 42.864428, -60.016434 42.860838, -60.037946 42.857245, -60.059452 42.853649, -60.080953 42.850050, -60.102449 42.846449, -60.123940 42.842845, -60.145425 42.839239, -60.166906 42.835629, -60.188381 42.832017, -60.209850 42.828402, -60.231315 42.824785, -60.252774 42.821165, -60.274227 42.817542, -60.295676 42.813916, -60.317118 42.810288, -60.338556 42.806657, -60.359988 42.803024, -60.381414 42.799387, -60.402836 42.795748, -60.424251 42.792107, -60.445661 42.788462, -60.467066 42.784815, -60.488465 42.781165, -60.509858 42.777513, -60.531246 42.773858, -60.552628 42.770200, -60.574005 42.766540, -60.595376 42.762877, -60.616741 42.759211, -60.638101 42.755543, -60.659455 42.751871, -60.680803 42.748198, -60.702145 42.744521, -60.723482 42.740842, -60.744813 42.737161, -60.766138 42.733476, -60.787457 42.729789, -60.808770 42.726100, -60.830078 42.722407, -60.851380 42.718712, -60.872676 42.715015, -60.893965 42.711315, -60.915249 42.707612, -60.936527 42.703906, -60.957799 42.700198, -60.979065 42.696487, -61.000325 42.692774, -61.021579 42.689058, -61.042827 42.685340, -61.064069 42.681618, -61.085305 42.677894, -61.106535 42.674168, -61.127758 42.670439, -61.148976 42.666707, -61.170187 42.662973, -61.191392 42.659236, -61.212591 42.655497, -61.233784 42.651755, -61.254970 42.648010, -61.276150 42.644263, -61.297324 42.640513, -61.318492 42.636761, -61.339653 42.633005, -61.360808 42.629248, -61.381957 42.625488, -61.403099 42.621725, -61.424235 42.617960, -61.445364 42.614192, -61.466487 42.610421, -61.487604 42.606648, -61.508714 42.602873, -61.529817 42.599095, -61.550915 42.595314, -61.572005 42.591531, -61.593089 42.587745, -61.614167 42.583956, -61.635238 42.580165, -61.656302 42.576372, -61.677360 42.572576, -61.698411 42.568777, -61.719455 42.564976, -61.740493 42.561173, -61.761524 42.557367, -61.782548 42.553558, -61.803566 42.549747, -61.824577 42.545933, -61.845581 42.542117, -61.866578 42.538298, -61.887569 42.534477, -61.908552 42.530653, -61.929529 42.526827, -61.950499 42.522998, -61.971462 42.519167, -61.992419 42.515333, -62.013368 42.511497, -62.034310 42.507658, -62.055246 42.503817, -62.076174 42.499973, -62.097096 42.496127, -62.118010 42.492278, -62.138917 42.488427, -62.159818 42.484573, -62.180711 42.480717, -62.201597 42.476858, -62.222476 42.472997, -62.243348 42.469134, -62.264213 42.465268, -62.285071 42.461399, -62.305921 42.457528, -62.326765 42.453655, -62.347601 42.449779, -62.368430 42.445901, -62.389251 42.442020, -62.410066 42.438137, -62.430873 42.434252, -62.451672 42.430364, -62.472465 42.426473, -62.493250 42.422581, -62.514027 42.418685, -62.534798 42.414788, -62.555561 42.410888, -62.576316 42.406985, -62.597064 42.403080, -62.617805 42.399173, -62.638538 42.395264, -62.659264 42.391351, -62.679982 42.387437, -62.700692 42.383520, -62.721395 42.379601, -62.742091 42.375679, -62.762779 42.371755, -62.783459 42.367829, -62.804132 42.363900, -62.824797 42.359969, -62.845454 42.356036, -62.866104 42.352100, -62.886746 42.348162, -62.907380 42.344221, -62.928007 42.340278, -62.948625 42.336333, -62.969236 42.332385, -62.989840 42.328436, -63.010435 42.324483, -63.031023 42.320529, -63.051602 42.316572, -63.072174 42.312613, -63.092738 42.308651, -63.113294 42.304687, -63.133843 42.300721, -63.154383 42.296752, -63.174915 42.292782, -63.195440 42.288808, -63.215956 42.284833, -63.236464 42.280855, -63.256965 42.276875, -63.277457 42.272893, -63.297941 42.268908, -63.318417 42.264922, -63.338885 42.260933, -63.359345 42.256941, -63.379797 42.252947, -63.400241 42.248951, -63.420676 42.244953, -63.441103 42.240953, -63.461522 42.236950, -63.481933 42.232945, -63.502336 42.228938, -63.522730 42.224928, -63.543116 42.220917, -63.563494 42.216903, -63.583863 42.212887, -63.604224 42.208868, -63.624577 42.204848, -63.644922 42.200825, -63.665257 42.196800, -63.685585 42.192773, -63.705904 42.188743, -63.726215 42.184712, -63.746517 42.180678, -63.766811 42.176642, -63.787096 42.172603, -63.807373 42.168563, -63.827641 42.164520, -63.847901 42.160476, -63.868152 42.156429, -63.888394 42.152379, -63.908628 42.148328, -63.928854 42.144275, -63.949070 42.140219, -63.969278 42.136161, -63.989478 42.132101, -64.009668 42.128039, -64.029850 42.123975, -64.050023 42.119909, -64.070188 42.115840, -64.090343 42.111770, -64.110490 42.107697, -64.130628 42.103622, -64.150758 42.099545, -64.170878 42.095466, -64.190990 42.091385, -64.211092 42.087301, -64.231186 42.083216, -64.251271 42.079129, -64.271347 42.075039, -64.291414 42.070947, -64.311472 42.066854, -64.331521 42.062758, -64.351561 42.058660, -64.371592 42.054560, -64.391614 42.050458, -64.411627 42.046354, -64.431631 42.042248, -64.451626 42.038139, -64.471612 42.034029, -64.491589 42.029917, -64.511556 42.025802, -64.531514 42.021686, -64.551464 42.017568, -64.571404 42.013447, -64.591334 42.009325, -64.611256 42.005200, -64.631168 42.001074, -64.651071 41.996945, -64.670965 41.992815, -64.690849 41.988682, -64.710725 41.984548, -64.730590 41.980412, -64.750447 41.976273, -64.770294 41.972133, -64.790132 41.967990, -64.809960 41.963846, -64.829779 41.959700, -64.849588 41.955551, -64.869388 41.951401, -64.889179 41.947249, -64.908960 41.943095, -64.928732 41.938938, -64.948494 41.934780, -64.968246 41.930620, -64.987989 41.926459, -65.007722 41.922295, -65.027446 41.918129, -65.047160 41.913961, -65.066865 41.909792, -65.086560 41.905620, -65.106245 41.901447, -65.125921 41.897272, -65.145587 41.893094, -65.165243 41.888915, -65.184889 41.884734, -65.204526 41.880552, -65.224153 41.876367, -65.243770 41.872180, -65.263377 41.867992, -65.282975 41.863802, -65.302562 41.859609, -65.322140 41.855415, -65.341708 41.851220, -65.361266 41.847022, -65.380815 41.842822, -65.400353 41.838621, -65.419881 41.834418, -65.439400 41.830213, -65.458908 41.826006, -65.478406 41.821798, -65.497895 41.817587, -65.517373 41.813375, -65.536842 41.809161, -65.556300 41.804945, -65.575748 41.800728, -65.595186 41.796508, -65.614614 41.792287, -65.634032 41.788064, -65.653440 41.783839, -65.672838 41.779613, -65.692225 41.775385, -65.711603 41.771155, -65.730970 41.766923, -65.750327 41.762690, -65.769673 41.758455, -65.789010 41.754218, -65.808336 41.749979, -65.827651 41.745739, -65.846957 41.741497, -65.866252 41.737253, -65.885537 41.733007, -65.904811 41.728760, -65.924076 41.724511, -65.943329 41.720261, -65.962573 41.716009, -65.981805 41.711755, -66.001028 41.707499, -66.020240 41.703242, -66.039441 41.698983, -66.058632 41.694722, -66.077813 41.690460, -66.096983 41.686196, -66.116142 41.681931, -66.135291 41.677664, -66.154430 41.673395, -66.173557 41.669124, -66.192674 41.664852, -66.211781 41.660579, -66.230877 41.656303, -66.249962 41.652026, -66.269037 41.647748, -66.288100 41.643468, -66.307154 41.639186, -66.326196 41.634903, -66.345228 41.630618, -66.364249 41.626332, -66.383259 41.622044, -66.402258 41.617754, -66.421247 41.613463, -66.440224 41.609170, -66.459191 41.604876, -66.478147 41.600580, -66.497093 41.596283, -66.516027 41.591984, -66.534950 41.587684, -66.553863 41.583382, -66.572764 41.579078, -66.591655 41.574774, -66.610535 41.570467, -66.629403 41.566159, -66.648261 41.561850, -66.667107 41.557539, -66.685943 41.553226, -66.704768 41.548913, -66.723581 41.544597, -66.742384 41.540280, -66.761175 41.535962, -66.779955 41.531642, -66.798724 41.527321, -66.817482 41.522999, -66.836229 41.518675, -66.854964 41.514349, -66.873689 41.510022, -66.892402 41.505694, -66.911104 41.501364, -66.929795 41.497033, -66.948474 41.492700, -66.967142 41.488366, -66.985799 41.484031, -67.004445 41.479694, -67.023079 41.475356, -67.041702 41.471016, -67.060314 41.466675, -67.078914 41.462333, -67.097503 41.457989, -67.116080 41.453644, -67.134646 41.449298, -67.153201 41.444950, -67.171744 41.440601, -67.190275 41.436251, -67.208796 41.431899, -67.227304 41.427546, -67.245802 41.423192, -67.264287 41.418836, -67.282761 41.414479, -67.301224 41.410121, -67.319675 41.405761, -67.338114 41.401400, -67.356542 41.397038, -67.374958 41.392675, -67.393363 41.388310, -67.411756 41.383944, -67.430137 41.379577, -67.448506 41.375208, -67.466864 41.370838, -67.485210 41.366467, -67.503545 41.362095, -67.521867 41.357722, -67.540178 41.353347, -67.558477 41.348971, -67.576764 41.344594, -67.595040 41.340216, -67.613304 41.335836, -67.631555 41.331455, -67.649795 41.327073, -67.668023 41.322690, -67.686240 41.318306, -67.704444 41.313920, -67.722636 41.309534, -67.740817 41.305146, -67.758985 41.300757, -67.777142 41.296367, -67.795286 41.291976, -67.813419 41.287583, -67.831540 41.283190, -67.849648 41.278795, -67.867745 41.274399, -67.885829 41.270002, -67.903902 41.265604, -67.921962 41.261205, -67.940010 41.256805, -67.958046 41.252403, -67.976070 41.248001, -67.994082 41.243598, -68.012082 41.239193, -68.030069 41.234787, -68.048044 41.230381, -68.066007 41.225973, -68.083958 41.221564, -68.101897 41.217154, -68.119823 41.212743, -68.137737 41.208331, -68.155639 41.203918, -68.173529 41.199504, -68.191406 41.195089, -68.209271 41.190673, -68.227123 41.186256, -68.244963 41.181838, -68.262791 41.177419, -68.280606 41.172999, -68.298409 41.168578, -68.316200 41.164156, -68.333978 41.159733, -68.351744 41.155309, -68.369497 41.150885, -68.387238 41.146459, -68.404966 41.142032, -68.422682 41.137604, -68.440385 41.133176, -68.458076 41.128746, -68.475754 41.124316, -68.493420 41.119884, -68.511073 41.115452, -68.528713 41.111019, -68.546341 41.106585, -68.563956 41.102150, -68.581559 41.097714, -68.599149 41.093277, -68.616726 41.088840, -68.634290 41.084401, -68.651842 41.079962, -68.669381 41.075522, -68.686908 41.071080, -68.704421 41.066639, -68.721922 41.062196, -68.739410 41.057752, -68.756886 41.053308, -68.774348 41.048863, -68.791798 41.044417, -68.809235 41.039970, -68.826659 41.035522, -68.844070 41.031074, -68.861468 41.026625, -68.878854 41.022175, -68.896226 41.017724, -68.913586 41.013272, -68.930933 41.008820, -68.948266 41.004367, -68.965587 40.999913, -68.982895 40.995459, -69.000190 40.991004, -69.017472 40.986548, -69.034740 40.982091, -69.051996 40.977633, -69.069239 40.973175, -69.086468 40.968716, -69.103685 40.964257, -69.120888 40.959797, -69.138079 40.955336, -69.155256 40.950874, -69.172420 40.946412, -69.189571 40.941949, -69.206709 40.937485, -69.223834 40.933021, -69.240945 40.928556, -69.258043 40.924090, -69.275128 40.919624, -69.292200 40.915157, -69.309259 40.910690, -69.326304 40.906222, -69.343336 40.901753, -69.360355 40.897284, -69.377360 40.892814, -69.394353 40.888343, -69.411331 40.883872, -69.428297 40.879400, -69.445249 40.874928, -69.462188 40.870455, -69.479113 40.865982, -69.496025 40.861508, -69.512923 40.857033, -69.529809 40.852558, -69.546680 40.848083, -69.563538 40.843607, -69.580383 40.839130, -69.597214 40.834653, -69.614032 40.830175, -69.630836 40.825697, -69.647627 40.821218, -69.664404 40.816739, -69.681168 40.812259, -69.697918 40.807779, -69.714654 40.803299, -69.731377 40.798817, -69.748087 40.794336, -69.764782 40.789854, -69.781464 40.785371, -69.798133 40.780889, -69.814787 40.776405, -69.831429 40.771921, -69.848056 40.767437, -69.864670 40.762953, -69.881269 40.758468, -69.897856 40.753982, -69.914428 40.749496, -69.930987 40.745010, -69.947532 40.740523, -69.964063 40.736036, -69.980580 40.731549, -69.997084 40.727061, -70.013574 40.722573, -70.030049 40.718085, -70.046511 40.713596, -70.062960 40.709107, -70.079394 40.704617, -70.095814 40.700128, -70.112221 40.695638, -70.128613 40.691147, -70.144992 40.686656, -70.161357 40.682165, -70.177707 40.677674, -70.194044 40.673182, -70.210367 40.668690, -70.226676 40.664198, -70.242971 40.659706, -70.259251 40.655213, -70.275518 40.650720, -70.291771 40.646227, -70.308009 40.641733, -70.324234 40.637240, -70.340444 40.632746, -70.356640 40.628251, -70.372823 40.623757, -70.388991 40.619262, -70.405145 40.614767, -70.421284 40.610272, -70.437410 40.605777, -70.453521 40.601282, -70.469619 40.596786, -70.485702 40.592290, -70.501770 40.587795, -70.517825 40.583298, -70.533865 40.578802, -70.549891 40.574306, -70.565903 40.569809, -70.581900 40.565313, -70.597884 40.560816, -70.613852 40.556319, -70.629807 40.551822, -70.645747 40.547325, -70.661673 40.542827, -70.677584 40.538330, -70.693481 40.533832, -70.709364 40.529335, -70.725232 40.524837, -70.741086 40.520340, -70.756926 40.515842, -70.772751 40.511344, -70.788561 40.506846, -70.804357 40.502348, -70.820139 40.497850, -70.835906 40.493352, -70.851659 40.488854, -70.867397 40.484356, -70.883120 40.479858, -70.898829 40.475360, -70.914524 40.470862, -70.930203 40.466364, -70.945869 40.461866, -70.961519 40.457368, -70.977155 40.452870, -70.992777 40.448372, -71.008384 40.443874, -71.023976 40.439376, -71.039553 40.434878, -71.055116 40.430381, -71.070664 40.425883, -71.086198 40.421385, -71.101716 40.416888, -71.117221 40.412390, -71.132710 40.407893, -71.148184 40.403396, -71.163644 40.398899, -71.179089 40.394401, -71.194519 40.389905, -71.209935 40.385408, -71.225335 40.380911, -71.240721 40.376414, -71.256092 40.371918, -71.271448 40.367422, -71.286790 40.362926, -71.302116 40.358430, -71.317427 40.353934, -71.332724 40.349438, -71.348006 40.344943, -71.363272 40.340448, -71.378524 40.335953, -71.393761 40.331458, -71.408983 40.326963, -71.424190 40.322469, -71.439382 40.317974, -71.454559 40.313481, -71.469721 40.308987, -71.484868 40.304493, -71.500000 40.300000, -71.515328 40.295566, -71.530849 40.291310, -71.546559 40.287232, -71.562456 40.283328, -71.578536 40.279598, -71.594796 40.276037, -71.611234 40.272646, -71.627845 40.269420, -71.644628 40.266359, -71.661579 40.263459, -71.678695 40.260719, -71.695974 40.258137, -71.713411 40.255711, -71.731004 40.253438, -71.748749 40.251316, -71.766645 40.249344, -71.784688 40.247519, -71.802874 40.245838, -71.821201 40.244301, -71.839666 40.242904, -71.858265 40.241645, -71.876996 40.240524, -71.895856 40.239537, -71.914841 40.238682, -71.933948 40.237957, -71.953175 40.237360, -71.972519 40.236890, -71.991975 40.236543, -72.011542 40.236318, -72.031216 40.236213, -72.050995 40.236226, -72.070874 40.236354, -72.090851 40.236596, -72.110923 40.236949, -72.131088 40.237412, -72.151341 40.237982, -72.171679 40.238658, -72.192101 40.239436, -72.212602 40.240316, -72.233180 40.241295, -72.253831 40.242370, -72.274552 40.243541, -72.295340 40.244805, -72.316193 40.246159, -72.337107 40.247603, -72.358079 40.249133, -72.379105 40.250748, -72.400183 40.252445, -72.421310 40.254223, -72.442482 40.256080, -72.463697 40.258014, -72.484951 40.260022, -72.506241 40.262102, -72.527564 40.264254, -72.548917 40.266473, -72.570296 40.268759, -72.591699 40.271110, -72.613123 40.273523, -72.634563 40.275996, -72.656018 40.278528, -72.677483 40.281116, -72.698957 40.283758, -72.720434 40.286453, -72.741913 40.289199, -72.763390 40.291992, -72.784862 40.294832, -72.806326 40.297717, -72.827778 40.300644, -72.849216 40.303611, -72.870636 40.306617, -72.892035 40.309659, -72.913409 40.312735, -72.934756 40.315844, -72.956072 40.318983, -72.977354 40.322151, -72.998598 40.325346, -73.019802 40.328565, -73.040963 40.331806, -73.062076 40.335068, -73.083139 40.338349, -73.104148 40.341646, -73.125101 40.344958, -73.145993 40.348282, -73.166822 40.351618, -73.187584 40.354962, -73.208276 40.358313, -73.228895 40.361669, -73.249437 40.365028, -73.269899 40.368387, -73.290278 40.371746, -73.310571 40.375102, -73.330773 40.378453, -73.350882 40.381797, -73.370895 40.385132, -73.390808 40.388456, -73.410618 40.391768, -73.430321 40.395065, -73.449914 40.398346, -73.469394 40.401608, -73.488757 40.404850, -73.508000 40.408069, -73.527120 40.411264, -73.546113 40.414433, -73.564976 40.417574, -73.583705 40.420685, -73.602298 40.423763, -73.620750 40.426808, -73.639058 40.429817, -73.657220 40.432788, -73.675231 40.435719, -73.693088 40.438609, -73.710788 40.441455, -73.728328 40.444256, -73.745703 40.447010, -73.762911 40.449714, -73.779948 40.452367, -73.796811 40.454967, -73.813496 40.457512, -73.830000 40.460000, -73.845339 40.463531, -73.859546 40.469217, -73.872708 40.476855, -73.884909 40.486244, -73.896234 40.497183, -73.906768 40.509469, -73.916595 40.522902, -73.925800 40.537279, -73.934466 40.552398, -73.942677 40.568057, -73.950519 40.584056, -73.958074 40.600191, -73.965427 40.616261, -73.972661 40.632064, -73.979862 40.647398, -73.987112 40.662060, -73.994496 40.675849, -74.002097 40.688563, -74.010000 40.700000)
