LINESTRING (-3.000000 53.400000, -3.022676 53.404591, -3.045357 53.409177, -3.068043 53.413759, -3.090734 53.418337, -3.113429 53.422910, -3.136130 53.427480, -3.158835 53.432044, -3.181546 53.436605, -3.204261 53.441161, -3.226981 53.445713, -3.249706 53.450261, -3.272435 53.454804, -3.295170 53.459343, -3.317910 53.463878, -3.340654 53.468408, -3.363403 53.472934, -3.386157 53.477456, -3.408916 53.481974, -3.431680 53.486487, -3.454448 53.490995, -3.477222 53.495500, -3.500000 53.500000, -3.520223 53.491684, -3.540439 53.483365, -3.560646 53.475043, -3.580846 53.466717, -3.601038 53.458387, -3.621221 53.450055, -3.641397 53.441719, -3.661565 53.433379, -3.681725 53.425036, -3.701877 53.416690, -3.722021 53.408340, -3.742158 53.399987, -3.762286 53.391630, -3.782407 53.383271, -3.802519 53.374907, -3.822624 53.366541, -3.842721 53.358171, -3.862809 53.349797, -3.882890 53.341421, -3.902964 53.333040, -3.923029 53.324657, -3.943086 53.316270, -3.963135 53.307880, -3.983177 53.299486, -4.003211 53.291089, -4.023237 53.282689, -4.043254 53.274285, -4.063265 53.265879, -4.083267 53.257468, -4.103261 53.249054, -4.123247 53.240637, -4.143226 53.232217, -4.163197 53.223793, -4.183160 53.215366, -4.203115 53.206936, -4.223062 53.198502, -4.243001 53.190065, -4.262933 53.181625, -4.282856 53.173181, -4.302772 53.164734, -4.322680 53.156284, -4.342580 53.147830, -4.362473 53.139373, -4.382357 53.130913, -4.402234 53.122449, -4.422102 53.113982, -4.441963 53.105512, -4.461817 53.097039, -4.481662 53.088562, -4.501499 53.080082, -4.521329 53.071598, -4.541151 53.063112, -4.560965 53.054622, -4.580771 53.046128, -4.600570 53.037632, -4.620360 53.029132, -4.640143 53.020629, -4.659918 53.012122, -4.679686 53.003613, -4.699445 52.995100, -4.719197 52.986583, -4.738941 52.978064, -4.758677 52.969541, -4.778405 52.961015, -4.798126 52.952486, -4.817838 52.943953, -4.837543 52.935417, -4.857241 52.926878, -4.876930 52.918336, -4.896612 52.909790, -4.916286 52.901241, -4.935952 52.892689, -4.955610 52.884134, -4.975261 52.875575, -4.994904 52.867013, -5.014539 52.858448, -5.034166 52.849880, -5.053786 52.841308, -5.073398 52.832733, -5.093002 52.824155, -5.112598 52.815574, -5.132187 52.806990, -5.151768 52.798402, -5.171341 52.789811, -5.190906 52.781217, -5.210464 52.772619, -5.230014 52.764019, -5.249556 52.755415, -5.269091 52.746808, -5.288618 52.738198, -5.308137 52.729584, -5.327648 52.720968, -5.347152 52.712348, -5.366648 52.703725, -5.386136 52.695099, -5.405617 52.686469, -5.425090 52.677837, -5.444555 52.669201, -5.464013 52.660562, -5.483462 52.651920, -5.502905 52.643274, -5.522339 52.634626, -5.541766 52.625974, -5.561185 52.617319, -5.580596 52.608661, -5.600000 52.600000, -5.611580 52.587157, -5.623153 52.574313, -5.634719 52.561468, -5.646278 52.548622, -5.657831 52.535774, -5.669377 52.522926, -5.680916 52.510076, -5.692448 52.497225, -5.703974 52.484373, -5.715492 52.471520, -5.727005 52.458666, -5.738510 52.445811, -5.750009 52.432954, -5.761501 52.420097, -5.772986 52.407238, -5.784465 52.394379, -5.795937 52.381518, -5.807402 52.368656, -5.818860 52.355793, -5.830312 52.342929, -5.841757 52.330063, -5.853196 52.317197, -5.864628 52.304330, -5.876053 52.291461, -5.887472 52.278591, -5.898884 52.265721, -5.910289 52.252849, -5.921688 52.239976, -5.933080 52.227102, -5.944466 52.214226, -5.955845 52.201350, -5.967217 52.188473, -5.978583 52.175594, -5.989942 52.162715, -6.001295 52.149834, -6.012641 52.136953, -6.023980 52.124070, -6.035313 52.111186, -6.046640 52.098301, -6.057960 52.085415, -6.069273 52.072528, -6.080580 52.059639, -6.091880 52.046750, -6.103174 52.033860, -6.114461 52.020968, -6.125742 52.008076, -6.137016 51.995182, -6.148284 51.982287, -6.159545 51.969392, -6.170800 51.956495, -6.182048 51.943597, -6.193290 51.930698, -6.204525 51.917798, -6.215754 51.904897, -6.226977 51.891994, -6.238193 51.879091, -6.249402 51.866187, -6.260605 51.853281, -6.271802 51.840375, -6.282992 51.827467, -6.294176 51.814559, -6.305354 51.801649, -6.316525 51.788738, -6.327690 51.775827, -6.338848 51.762914, -6.350000 51.750000, -6.371898 51.744888, -6.393791 51.739772, -6.415679 51.734651, -6.437563 51.729527, -6.459441 51.724399, -6.481314 51.719266, -6.503183 51.714130, -6.525046 51.708989, -6.546904 51.703844, -6.568758 51.698696, -6.590606 51.693543, -6.612450 51.688386, -6.634288 51.683225, -6.656122 51.678060, -6.677950 51.672891, -6.699774 51.667718, -6.721592 51.662541, -6.743406 51.657360, -6.765214 51.652175, -6.787018 51.646986, -6.808817 51.641793, -6.830610 51.636596, -6.852399 51.631394, -6.874182 51.626189, -6.895961 51.620980, -6.917735 51.615766, -6.939503 51.610549, -6.961267 51.605328, -6.983025 51.600102, -7.004779 51.594873, -7.026528 51.589639, -7.048271 51.584402, -7.070010 51.579160, -7.091743 51.573915, -7.113472 51.568665, -7.135195 51.563412, -7.156914 51.558154, -7.178627 51.552893, -7.200336 51.547627, -7.222039 51.542357, -7.243737 51.537084, -7.265431 51.531806, -7.287119 51.526525, -7.308802 51.521239, -7.330481 51.515950, -7.352154 51.510656, -7.373822 51.505358, -7.395485 51.500057, -7.417143 51.494751, -7.438796 51.489442, -7.460444 51.484128, -7.482087 51.478811, -7.503725 51.473489, -7.525358 51.468164, -7.546986 51.462834, -7.568608 51.457501, -7.590226 51.452164, -7.611839 51.446822, -7.633446 51.441477, -7.655049 51.436128, -7.676646 51.430774, -7.698239 51.425417, -7.719826 51.420056, -7.741408 51.414691, -7.762986 51.409322, -7.784558 51.403948, -7.806125 51.398571, -7.827687 51.393190, -7.849244 51.387805, -7.870796 51.382416, -7.892342 51.377024, -7.913884 51.371627, -7.935421 51.366226, -7.956952 51.360821, -7.978479 51.355413, -8.000000 51.350000, -8.023406 51.350687, -8.046812 51.351370, -8.070219 51.352048, -8.093627 51.352721, -8.117036 51.353390, -8.140445 51.354054, -8.163855 51.354713, -8.187265 51.355368, -8.210676 51.356018, -8.234088 51.356663, -8.257501 51.357304, -8.280914 51.357940, -8.304328 51.358571, -8.327742 51.359198, -8.351157 51.359820, -8.374573 51.360437, -8.397990 51.361050, -8.421407 51.361658, -8.444824 51.362261, -8.468242 51.362860, -8.491661 51.363454, -8.515081 51.364043, -8.538501 51.364628, -8.561921 51.365208, -8.585343 51.365783, -8.608764 51.366354, -8.632187 51.366920, -8.655610 51.367481, -8.679033 51.368038, -8.702457 51.368590, -8.725882 51.369137, -8.749307 51.369679, -8.772733 51.370217, -8.796159 51.370751, -8.819586 51.371279, -8.843014 51.371803, -8.866442 51.372323, -8.889870 51.372837, -8.913299 51.373347, -8.936729 51.373852, -8.960159 51.374353, -8.983589 51.374849, -9.007020 51.375340, -9.030452 51.375827, -9.053884 51.376308, -9.077316 51.376786, -9.100749 51.377258, -9.124183 51.377726, -9.147617 51.378189, -9.171051 51.378648, -9.194486 51.379102, -9.217922 51.379551, -9.241358 51.379995, -9.264794 51.380435, -9.288231 51.380870, -9.311668 51.381301, -9.335105 51.381726, -9.358543 51.382148, -9.381982 51.382564, -9.405421 51.382976, -9.428860 51.383383, -9.452300 51.383785, -9.475740 51.384183, -9.499181 51.384576, -9.522622 51.384965, -9.546063 51.385348, -9.569505 51.385727, -9.592947 51.386102, -9.616389 51.386471, -9.639832 51.386836, -9.663276 51.387197, -9.686719 51.387552, -9.710163 51.387903, -9.733607 51.388250, -9.757052 51.388591, -9.780497 51.388928, -9.803943 51.389260, -9.827388 51.389588, -9.850834 51.389911, -9.874281 51.390229, -9.897728 51.390543, -9.921175 51.390851, -9.944622 51.391156, -9.968070 51.391455, -9.991518 51.391750, -10.014966 51.392040, -10.038414 51.392326, -10.061863 51.392606, -10.085312 51.392882, -10.108762 51.393154, -10.132211 51.393421, -10.155661 51.393683, -10.179112 51.393940, -10.202562 51.394193, -10.226013 51.394441, -10.249464 51.394684, -10.272915 51.394923, -10.296367 51.395157, -10.319818 51.395386, -10.343270 51.395611, -10.366722 51.395831, -10.390175 51.396046, -10.413627 51.396257, -10.437080 51.396463, -10.460533 51.396664, -10.483987 51.396860, -10.507440 51.397052, -10.530894 51.397239, -10.554348 51.397422, -10.577802 51.397600, -10.601256 51.397773, -10.624710 51.397941, -10.648165 51.398105, -10.671619 51.398264, -10.695074 51.398419, -10.718529 51.398568, -10.741984 51.398713, -10.765440 51.398854, -10.788895 51.398989, -10.812351 51.399120, -10.835807 51.399247, -10.859262 51.399368, -10.882718 51.399485, -10.906175 51.399598, -10.929631 51.399705, -10.953087 51.399808, -10.976543 51.399906, -11.000000 51.400000, -11.023316 51.398386, -11.046630 51.396768, -11.069942 51.395145, -11.093253 51.393517, -11.116562 51.391885, -11.139870 51.390248, -11.163176 51.388606, -11.186480 51.386960, -11.209782 51.385309, -11.233083 51.383654, -11.256382 51.381994, -11.279680 51.380329, -11.302975 51.378660, -11.326269 51.376986, -11.349562 51.375307, -11.372852 51.373624, -11.396141 51.371936, -11.419428 51.370244, -11.442714 51.368547, -11.465997 51.366845, -11.489279 51.365139, -11.512559 51.363428, -11.535838 51.361713, -11.559115 51.359993, -11.582390 51.358268, -11.605663 51.356539, -11.628934 51.354805, -11.652204 51.353066, -11.675472 51.351323, -11.698738 51.349576, -11.722003 51.347823, -11.745265 51.346066, -11.768526 51.344305, -11.791785 51.342539, -11.815042 51.340768, -11.838298 51.338993, -11.861551 51.337213, -11.884803 51.335428, -11.908053 51.333639, -11.931302 51.331845, -11.954548 51.330047, -11.977792 51.328244, -12.001035 51.326436, -12.024276 51.324624, -12.047515 51.322807, -12.070752 51.320986, -12.093988 51.319160, -12.117221 51.317329, -12.140453 51.315494, -12.163683 51.313654, -12.186911 51.311810, -12.210137 51.309961, -12.233361 51.308108, -12.256583 51.306249, -12.279804 51.304387, -12.303022 51.302519, -12.326239 51.300647, -12.349454 51.298771, -12.372666 51.296890, -12.395877 51.295004, -12.419086 51.293114, -12.442293 51.291219, -12.465499 51.289320, -12.488702 51.287416, -12.511903 51.285507, -12.535103 51.283594, -12.558300 51.281676, -12.581496 51.279754, -12.604689 51.277827, -12.627881 51.275895, -12.651071 51.273959, -12.674258 51.272018, -12.697444 51.270073, -12.720628 51.268123, -12.743810 51.266169, -12.766990 51.264210, -12.790168 51.262246, -12.813344 51.260278, -12.836518 51.258305, -12.859690 51.256328, -12.882859 51.254346, -12.906027 51.252360, -12.929193 51.250369, -12.952357 51.248373, -12.975519 51.246373, -12.998679 51.244368, -13.021837 51.242359, -13.044993 51.240345, -13.068147 51.238327, -13.091298 51.236304, -13.114448 51.234276, -13.137596 51.232244, -13.160742 51.230207, -13.183885 51.228166, -13.207027 51.226120, -13.230166 51.224070, -13.253304 51.222015, -13.276439 51.219955, -13.299572 51.217891, -13.322704 51.215823, -13.345833 51.213749, -13.368960 51.211672, -13.392085 51.209589, -13.415208 51.207502, -13.438328 51.205411, -13.461447 51.203315, -13.484564 51.201214, -13.507678 51.199109, -13.530790 51.197000, -13.553901 51.194885, -13.577009 51.192767, -13.600115 51.190643, -13.623219 51.188516, -13.646320 51.186383, -13.669420 51.184246, -13.692517 51.182105, -13.715613 51.179959, -13.738706 51.177808, -13.761797 51.175653, -13.784885 51.173493, -13.807972 51.171329, -13.831057 51.169160, -13.854139 51.166987, -13.877219 51.164809, -13.900297 51.162627, -13.923373 51.160440, -13.946446 51.158248, -13.969518 51.156052, -13.992587 51.153852, -14.015654 51.151646, -14.038718 51.149437, -14.061781 51.147223, -14.084841 51.145004, -14.107899 51.142781, -14.130955 51.140553, -14.154009 51.138321, -14.177060 51.136084, -14.200110 51.133843, -14.223157 51.131597, -14.246201 51.129346, -14.269244 51.127091, -14.292284 51.124832, -14.315322 51.122568, -14.338358 51.120299, -14.361391 51.118026, -14.384422 51.115749, -14.407451 51.113467, -14.430478 51.111180, -14.453502 51.108889, -14.476524 51.106593, -14.499544 51.104293, -14.522561 51.101988, -14.545577 51.099679, -14.568589 51.097365, -14.591600 51.095047, -14.614608 51.092724, -14.637614 51.090397, -14.660618 51.088065, -14.683619 51.085729, -14.706618 51.083388, -14.729615 51.081043, -14.752609 51.078693, -14.775601 51.076338, -14.798591 51.073980, -14.821578 51.071616, -14.844563 51.069248, -14.867545 51.066876, -14.890526 51.064499, -14.913503 51.062118, -14.936479 51.059732, -14.959452 51.057341, -14.982423 51.054946, -15.005391 51.052547, -15.028357 51.050143, -15.051321 51.047735, -15.074282 51.045322, -15.097241 51.042904, -15.120197 51.040482, -15.143151 51.038056, -15.166103 51.035625, -15.189052 51.033190, -15.211999 51.030750, -15.234943 51.028305, -15.257885 51.025856, -15.280825 51.023403, -15.303762 51.020945, -15.326696 51.018483, -15.349629 51.016016, -15.372558 51.013545, -15.395486 51.011069, -15.418411 51.008589, -15.441333 51.006104, -15.464253 51.003614, -15.487171 51.001121, -15.510086 50.998622, -15.532998 50.996120, -15.555908 50.993613, -15.578816 50.991101, -15.601721 50.988585, -15.624624 50.986064, -15.647524 50.983539, -15.670422 50.981009, -15.693317 50.978475, -15.716209 50.975937, -15.739100 50.973394, -15.761987 50.970846, -15.784872 50.968294, -15.807755 50.965738, -15.830635 50.963177, -15.853513 50.960612, -15.876388 50.958042, -15.899260 50.955467, -15.922130 50.952889, -15.944998 50.950305, -15.967863 50.947718, -15.990725 50.945126, -16.013585 50.942529, -16.036442 50.939928, -16.059297 50.937322, -16.082149 50.934712, -16.104998 50.932098, -16.127845 50.929479, -16.150690 50.926855, -16.173532 50.924228, -16.196371 50.921595, -16.219208 50.918959, -16.242042 50.916317, -16.264873 50.913672, -16.287702 50.911022, -16.310528 50.908367, -16.333352 50.905708, -16.356173 50.903045, -16.378992 50.900377, -16.401807 50.897704, -16.424621 50.895027, -16.447431 50.892346, -16.470239 50.889660, -16.493045 50.886970, -16.515847 50.884276, -16.538647 50.881577, -16.561445 50.878873, -16.584239 50.876165, -16.607032 50.873453, -16.629821 50.870736, -16.652608 50.868015, -16.675392 50.865289, -16.698173 50.862559, -16.720952 50.859825, -16.743728 50.857086, -16.766502 50.854342, -16.789273 50.851595, -16.812041 50.848842, -16.834806 50.846086, -16.857569 50.843325, -16.880329 50.840559, -16.903086 50.837789, -16.925841 50.835015, -16.948593 50.832236, -16.971342 50.829453, -16.994088 50.826665, -17.016832 50.823873, -17.039573 50.821076, -17.062311 50.818275, -17.085047 50.815470, -17.107780 50.812660, -17.130510 50.809846, -17.153237 50.807028, -17.175962 50.804205, -17.198684 50.801377, -17.221403 50.798545, -17.244119 50.795709, -17.266833 50.792868, -17.289544 50.790023, -17.312252 50.787174, -17.334957 50.784320, -17.357660 50.781462, -17.380359 50.778599, -17.403056 50.775732, -17.425751 50.772860, -17.448442 50.769985, -17.471131 50.767104, -17.493816 50.764220, -17.516499 50.761330, -17.539180 50.758437, -17.561857 50.755539, -17.584532 50.752637, -17.607203 50.749730, -17.629872 50.746819, -17.652538 50.743903, -17.675202 50.740984, -17.697862 50.738059, -17.720520 50.735131, -17.743175 50.732198, -17.765827 50.729260, -17.788476 50.726318, -17.811122 50.723372, -17.833766 50.720422, -17.856406 50.717467, -17.879044 50.714507, -17.901679 50.711543, -17.924311 50.708575, -17.946940 50.705603, -17.969566 50.702626, -17.992190 50.699645, -18.014810 50.696659, -18.037428 50.693669, -18.060043 50.690674, -18.082654 50.687676, -18.105263 50.684673, -18.127869 50.681665, -18.150473 50.678653, -18.173073 50.675637, -18.195670 50.672616, -18.218265 50.669591, -18.240856 50.666562, -18.263445 50.663528, -18.286031 50.660490, -18.308613 50.657448, -18.331193 50.654401, -18.353770 50.651349, -18.376344 50.648294, -18.398915 50.645234, -18.421483 50.642170, -18.444048 50.639101, -18.466611 50.636028, -18.489170 50.632951, -18.511726 50.629869, -18.534280 50.626783, -18.556830 50.623693, -18.579377 50.620598, -18.601922 50.617499, -18.624463 50.614395, -18.647002 50.611287, -18.669537 50.608175, -18.692070 50.605059, -18.714599 50.601938, -18.737126 50.598813, -18.759650 50.595683, -18.782170 50.592549, -18.804688 50.589411, -18.827202 50.586269, -18.849714 50.583122, -18.872222 50.579970, -18.894728 50.576815, -18.917230 50.573655, -18.939730 50.570491, -18.962226 50.567322, -18.984720 50.564149, -19.007210 50.560972, -19.029698 50.557790, -19.052182 50.554604, -19.074663 50.551414, -19.097141 50.548220, -19.119617 50.545021, -19.142089 50.541818, -19.164558 50.538610, -19.187024 50.535398, -19.209487 50.532182, -19.231947 50.528961, -19.254404 50.525737, -19.276858 50.522507, -19.299308 50.519274, -19.321756 50.516036, -19.344200 50.512794, -19.366642 50.509548, -19.389080 50.506297, -19.411516 50.503042, -19.433948 50.499783, -19.456377 50.496519, -19.478803 50.493251, -19.501226 50.489979, -19.523645 50.486702, -19.546062 50.483421, -19.568476 50.480136, -19.590886 50.476847, -19.613293 50.473553, -19.635698 50.470255, -19.658099 50.466952, -19.680497 50.463646, -19.702891 50.460335, -19.725283 50.457019, -19.747672 50.453700, -19.770057 50.450376, -19.792439 50.447048, -19.814818 50.443715, -19.837194 50.440379, -19.859567 50.437037, -19.881937 50.433692, -19.904303 50.430343, -19.926666 50.426989, -19.949026 50.423630, -19.971383 50.420268, -19.993737 50.416901, -20.016088 50.413530, -20.038435 50.410155, -20.060779 50.406775, -20.083120 50.403391, -20.105458 50.400003, -20.127793 50.396611, -20.150124 50.393214, -20.172452 50.389813, -20.194777 50.386408, -20.217099 50.382998, -20.239418 50.379584, -20.261733 50.376166, -20.284045 50.372744, -20.306354 50.369317, -20.328660 50.365886, -20.350963 50.362451, -20.373262 50.359012, -20.395558 50.355568, -20.417851 50.352120, -20.440140 50.348668, -20.462427 50.345212, -20.484710 50.341751, -20.506990 50.338286, -20.529266 50.334817, -20.551539 50.331343, -20.573810 50.327866, -20.596076 50.324384, -20.618340 50.320897, -20.640600 50.317407, -20.662857 50.313912, -20.685111 50.310413, -20.707361 50.306910, -20.729608 50.303402, -20.751852 50.299891, -20.774093 50.296375, -20.796330 50.292855, -20.818564 50.289330, -20.840795 50.285801, -20.863022 50.282268, -20.885247 50.278731, -20.907467 50.275190, -20.929685 50.271644, -20.951899 50.268094, -20.974110 50.264540, -20.996318 50.260982, -21.018522 50.257419, -21.040723 50.253853, -21.062920 50.250281, -21.085115 50.246706, -21.107306 50.243127, -21.129493 50.239543, -21.151677 50.235955, -21.173858 50.232363, -21.196036 50.228767, -21.218210 50.225166, -21.240381 50.221561, -21.262549 50.217952, -21.284713 50.214339, -21.306874 50.210721, -21.329031 50.207100, -21.351185 50.203474, -21.373336 50.199844, -21.395483 50.196209, -21.417627 50.192571, -21.439768 50.188928, -21.461905 50.185281, -21.484039 50.181630, -21.506169 50.177975, -21.528297 50.174315, -21.550420 50.170651, -21.572541 50.166983, -21.594657 50.163311, -21.616771 50.159635, -21.638881 50.155954, -21.660988 50.152270, -21.683091 50.148581, -21.705191 50.144888, -21.727287 50.141190, -21.749380 50.137489, -21.771470 50.133783, -21.793556 50.130073, -21.815639 50.126359, -21.837718 50.122641, -21.859794 50.118918, -21.881867 50.115192, -21.903936 50.111461, -21.926001 50.107726, -21.948063 50.103987, -21.970122 50.100243, -21.992177 50.096496, -22.014229 50.092744, -22.036277 50.088988, -22.058322 50.085228, -22.080364 50.081464, -22.102402 50.077695, -22.124436 50.073923, -22.146467 50.070146, -22.168495 50.066365, -22.190519 50.062580, -22.212539 50.058791, -22.234557 50.054997, -22.256570 50.051200, -22.278580 50.047398, -22.300587 50.043592, -22.322590 50.039782, -22.344590 50.035967, -22.366586 50.032149, -22.388579 50.028327, -22.410568 50.024500, -22.432554 50.020669, -22.454536 50.016834, -22.476514 50.012995, -22.498490 50.009151, -22.520461 50.005304, -22.542429 50.001452, -22.564394 49.997597, -22.586355 49.993737, -22.608313 49.989873, -22.630267 49.986004, -22.652217 49.982132, -22.674164 49.978256, -22.696107 49.974375, -22.718047 49.970490, -22.739984 49.966601, -22.761916 49.962708, -22.783846 49.958811, -22.805771 49.954910, -22.827693 49.951004, -22.849612 49.947095, -22.871527 49.943181, -22.893438 49.939263, -22.915346 49.935341, -22.937251 49.931415, -22.959151 49.927485, -22.981048 49.923551, -23.002942 49.919612, -23.024832 49.915670, -23.046718 49.911723, -23.068601 49.907772, -23.090481 49.903817, -23.112356 49.899858, -23.134228 49.895895, -23.156097 49.891928, -23.177962 49.887956, -23.199823 49.883981, -23.221681 49.880001, -23.243535 49.876018, -23.265385 49.872030, -23.287232 49.868038, -23.309075 49.864042, -23.330915 49.860042, -23.352751 49.856038, -23.374583 49.852029, -23.396412 49.848017, -23.418237 49.844000, -23.440059 49.839980, -23.461877 49.835955, -23.483691 49.831926, -23.505502 49.827893, -23.527308 49.823856, -23.549112 49.819815, -23.570912 49.815770, -23.592708 49.811721, -23.614500 49.807667, -23.636289 49.803610, -23.658074 49.799548, -23.679855 49.795483, -23.701633 49.791413, -23.723407 49.787339, -23.745178 49.783262, -23.766944 49.779180, -23.788708 49.775094, -23.810467 49.771004, -23.832223 49.766909, -23.853975 49.762811, -23.875723 49.758709, -23.897468 49.754602, -23.919209 49.750492, -23.940946 49.746378, -23.962680 49.742259, -23.984410 49.738136, -24.006136 49.734010, -24.027859 49.729879, -24.049578 49.725744, -24.071293 49.721605, -24.093005 49.717462, -24.114712 49.713315, -24.136416 49.709164, -24.158117 49.705009, -24.179813 49.700850, -24.201506 49.696687, -24.223196 49.692520, -24.244881 49.688348, -24.266563 49.684173, -24.288241 49.679993, -24.309915 49.675810, -24.331586 49.671622, -24.353253 49.667431, -24.374916 49.663235, -24.396575 49.659036, -24.418231 49.654832, -24.439883 49.650624, -24.461531 49.646413, -24.483175 49.642197, -24.504816 49.637977, -24.526453 49.633753, -24.548086 49.629525, -24.569715 49.625293, -24.591341 49.621058, -24.612963 49.616818, -24.634581 49.612574, -24.656195 49.608326, -24.677806 49.604074, -24.699413 49.599818, -24.721016 49.595557, -24.742615 49.591293, -24.764211 49.587025, -24.785802 49.582753, -24.807390 49.578477, -24.828974 49.574197, -24.850555 49.569913, -24.872131 49.565624, -24.893704 49.561332, -24.915273 49.557036, -24.936838 49.552736, -24.958400 49.548432, -24.979957 49.544123, -25.001511 49.539811, -25.023061 49.535495, -25.044607 49.531175, -25.066149 49.526851, -25.087688 49.522522, -25.109223 49.518190, -25.130754 49.513854, -25.152281 49.509514, -25.173804 49.505169, -25.195323 49.500821, -25.216839 49.496469, -25.238351 49.492113, -25.259859 49.487753, -25.281363 49.483389, -25.302863 49.479020, -25.324360 49.474648, -25.345852 49.470272, -25.367341 49.465892, -25.388826 49.461508, -25.410307 49.457120, -25.431784 49.452728, -25.453258 49.448332, -25.474727 49.443932, -25.496193 49.439528, -25.517655 49.435120, -25.539113 49.430708, -25.560567 49.426292, -25.582017 49.421873, -25.603463 49.417449, -25.624906 49.413021, -25.646344 49.408589, -25.667779 49.404154, -25.689210 49.399714, -25.710637 49.395270, -25.732060 49.390823, -25.753480 49.386371, -25.774895 49.381916, -25.796306 49.377456, -25.817714 49.372993, -25.839118 49.368526, -25.860518 49.364054, -25.881913 49.359579, -25.903305 49.355100, -25.924694 49.350617, -25.946078 49.346130, -25.967458 49.341639, -25.988835 49.337144, -26.010207 49.332645, -26.031576 49.328142, -26.052940 49.323635, -26.074301 49.319124, -26.095658 49.314610, -26.117011 49.310091, -26.138360 49.305568, -26.159705 49.301042, -26.181046 49.296512, -26.202384 49.291977, -26.223717 49.287439, -26.245047 49.282897, -26.266372 49.278351, -26.287694 49.273801, -26.309011 49.269247, -26.330325 49.264689, -26.351635 49.260127, -26.372940 49.255561, -26.394242 49.250992, -26.415540 49.246418, -26.436834 49.241841, -26.458124 49.237259, -26.479410 49.232674, -26.500692 49.228085, -26.521971 49.223492, -26.543245 49.218895, -26.564515 49.214294, -26.585781 49.209689, -26.607044 49.205080, -26.628302 49.200468, -26.649556 49.195851, -26.670807 49.191231, -26.692053 49.186607, -26.713296 49.181978, -26.734534 49.177346, -26.755769 49.172710, -26.776999 49.168070, -26.798226 49.163427, -26.819448 49.158779, -26.840667 49.154127, -26.861882 49.149472, -26.883092 49.144812, -26.904299 49.140149, -26.925502 49.135482, -26.946700 49.130811, -26.967895 49.126136, -26.989086 49.121458, -27.010272 49.116775, -27.031455 49.112088, -27.052634 49.107398, -27.073808 49.102704, -27.094979 49.098006, -27.116145 49.093304, -27.137308 49.088598, -27.158467 49.083888, -27.179621 49.079174, -27.200772 49.074457, -27.221918 49.069736, -27.243061 49.065010, -27.264200 49.060281, -27.285334 49.055549, -27.306464 49.050812, -27.327591 49.046071, -27.348713 49.041327, -27.369832 49.036578, -27.390946 49.031826, -27.412056 49.027070, -27.433163 49.022310, -27.454265 49.017547, -27.475363 49.012779, -27.496457 49.008007, -27.517547 49.003232, -27.538633 48.998453, -27.559715 48.993670, -27.580793 48.988883, -27.601867 48.984093, -27.622937 48.979298, -27.644003 48.974500, -27.665065 48.969698, -27.686122 48.964892, -27.707176 48.960082, -27.728226 48.955268, -27.749271 48.950451, -27.770313 48.945630, -27.791350 48.940804, -27.812383 48.935976, -27.833413 48.931143, -27.854438 48.926306, -27.875459 48.921466, -27.896476 48.916622, -27.917489 48.911773, -27.938498 48.906922, -27.959502 48.902066, -27.980503 48.897206, -28.001500 48.892343, -28.022492 48.887476, -28.043481 48.882605, -28.064465 48.877730, -28.085445 48.872852, -28.106421 48.867969, -28.127393 48.863083, -28.148361 48.858193, -28.169325 48.853300, -28.190285 48.848402, -28.211241 48.843501, -28.232192 48.838596, -28.253140 48.833687, -28.274083 48.828774, -28.295022 48.823857, -28.315958 48.818937, -28.336889 48.814013, -28.357816 48.809085, -28.378738 48.804153, -28.399657 48.799218, -28.420572 48.794279, -28.441482 48.789335, -28.462388 48.784389, -28.483291 48.779438, -28.504189 48.774484, -28.525083 48.769525, -28.545972 48.764564, -28.566858 48.759598, -28.587740 48.754628, -28.608617 48.749655, -28.629490 48.744678, -28.650360 48.739697, -28.671225 48.734713, -28.692086 48.729724, -28.712942 48.724732, -28.733795 48.719736, -28.754643 48.714737, -28.775488 48.709733, -28.796328 48.704726, -28.817164 48.699715, -28.837996 48.694701, -28.858824 48.689682, -28.879647 48.684660, -28.900467 48.679634, -28.921282 48.674605, -28.942093 48.669571, -28.962900 48.664534, -28.983703 48.659493, -29.004501 48.654448, -29.025296 48.649400, -29.046086 48.644348, -29.066872 48.639292, -29.087654 48.634232, -29.108432 48.629169, -29.129206 48.624102, -29.149975 48.619031, -29.170740 48.613956, -29.191501 48.608878, -29.212258 48.603796, -29.233011 48.598710, -29.253760 48.593621, -29.274504 48.588528, -29.295244 48.583431, -29.315980 48.578330, -29.336712 48.573226, -29.357440 48.568118, -29.378163 48.563006, -29.398882 48.557890, -29.419598 48.552771, -29.440308 48.547648, -29.461015 48.542521, -29.481718 48.537391, -29.502416 48.532257, -29.523110 48.527119, -29.543800 48.521977, -29.564486 48.516832, -29.585167 48.511683, -29.605844 48.506531, -29.626517 48.501374, -29.647186 48.496214, -29.667851 48.491050, -29.688511 48.485883, -29.709168 48.480712, -29.729820 48.475537, -29.750468 48.470359, -29.771111 48.465176, -29.791751 48.459990, -29.812386 48.454801, -29.833017 48.449607, -29.853643 48.444411, -29.874266 48.439210, -29.894884 48.434006, -29.915498 48.428797, -29.936108 48.423586, -29.956714 48.418370, -29.977315 48.413151, -29.997912 48.407929, -30.018505 48.402702, -30.039094 48.397472, -30.059678 48.392238, -30.080258 48.387001, -30.100834 48.381760, -30.121406 48.376515, -30.141974 48.371267, -30.162537 48.366014, -30.183096 48.360759, -30.203651 48.355499, -30.224201 48.350236, -30.244748 48.344969, -30.265290 48.339699, -30.285827 48.334425, -30.306361 48.329147, -30.326890 48.323866, -30.347415 48.318581, -30.367936 48.313292, -30.388452 48.308000, -30.408965 48.302704, -30.429473 48.297404, -30.449977 48.292101, -30.470476 48.286794, -30.490971 48.281483, -30.511462 48.276169, -30.531949 48.270851, -30.552431 48.265530, -30.572909 48.260205, -30.593383 48.254876, -30.613853 48.249544, -30.634318 48.244208, -30.654779 48.238868, -30.675236 48.233525, -30.695689 48.228178, -30.716137 48.222827, -30.736581 48.217473, -30.757021 48.212115, -30.777456 48.206754, -30.797887 48.201389, -30.818314 48.196020, -30.838737 48.190648, -30.859155 48.185272, -30.879569 48.179893, -30.899979 48.174510, -30.920385 48.169123, -30.940786 48.163732, -30.961183 48.158339, -30.981575 48.152941, -31.001963 48.147540, -31.022347 48.142135, -31.042727 48.136727, -31.063103 48.131315, -31.083474 48.125899, -31.103841 48.120480, -31.124203 48.115057, -31.144561 48.109631, -31.164915 48.104201, -31.185265 48.098767, -31.205610 48.093330, -31.225951 48.087890, -31.246288 48.082445, -31.266620 48.076997, -31.286949 48.071546, -31.307272 48.066091, -31.327592 48.060632, -31.347907 48.055170, -31.368218 48.049704, -31.388524 48.044235, -31.408827 48.038762, -31.429125 48.033285, -31.449418 48.027805, -31.469708 48.022321, -31.489993 48.016834, -31.510273 48.011343, -31.530550 48.005849, -31.550822 48.000351, -31.571089 47.994849, -31.591353 47.989344, -31.611612 47.983836, -31.631866 47.978323, -31.652117 47.972808, -31.672363 47.967288, -31.692605 47.961765, -31.712842 47.956239, -31.733075 47.950709, -31.753304 47.945175, -31.773528 47.939638, -31.793748 47.934098, -31.813964 47.928553, -31.834176 47.923006, -31.854383 47.917454, -31.874585 47.911899, -31.894784 47.906341, -31.914978 47.900779, -31.935168 47.895214, -31.955353 47.889645, -31.975534 47.884072, -31.995711 47.878496, -32.015883 47.872916, -32.036051 47.867333, -32.056215 47.861746, -32.076374 47.856156, -32.096529 47.850563, -32.116680 47.844965, -32.136826 47.839364, -32.156968 47.833760, -32.177106 47.828152, -32.197239 47.822541, -32.217368 47.816926, -32.237492 47.811308, -32.257612 47.805686, -32.277728 47.800060, -32.297840 47.794431, -32.317947 47.788799, -32.338049 47.783163, -32.358148 47.777523, -32.378242 47.771880, -32.398331 47.766234, -32.418417 47.760584, -32.438498 47.754931, -32.458574 47.749274, -32.478646 47.743613, -32.498714 47.737949, -32.518778 47.732282, -32.538837 47.726611, -32.558891 47.720936, -32.578942 47.715258, -32.598988 47.709577, -32.619029 47.703892, -32.639067 47.698203, -32.659100 47.692511, -32.679128 47.686816, -32.699152 47.681117, -32.719172 47.675415, -32.739187 47.669709, -32.759198 47.663999, -32.779205 47.658286, -32.799207 47.652570, -32.819205 47.646850, -32.839198 47.641127, -32.859187 47.635400, -32.879172 47.629670, -32.899153 47.623936, -32.919128 47.618199, -32.939100 47.612459, -32.959067 47.606715, -32.979030 47.600967, -32.998988 47.595216, -33.018942 47.589462, -33.038892 47.583704, -33.058837 47.577942, -33.078778 47.572178, -33.098714 47.566409, -33.118647 47.560637, -33.138574 47.554862, -33.158497 47.549084, -33.178416 47.543302, -33.198331 47.537516, -33.218241 47.531727, -33.238147 47.525935, -33.258048 47.520139, -33.277945 47.514339, -33.297837 47.508537, -33.317725 47.502730, -33.337609 47.496921, -33.357488 47.491108, -33.377363 47.485291, -33.397234 47.479471, -33.417100 47.473648, -33.436962 47.467821, -33.456819 47.461991, -33.476672 47.456157, -33.496520 47.450320, -33.516364 47.444479, -33.536204 47.438636, -33.556039 47.432788, -33.575870 47.426937, -33.595696 47.421083, -33.615518 47.415226, -33.635336 47.409365, -33.655149 47.403500, -33.674958 47.397632, -33.694762 47.391761, -33.714562 47.385886, -33.734358 47.380008, -33.754149 47.374127, -33.773936 47.368242, -33.793718 47.362353, -33.813496 47.356462, -33.833269 47.350567, -33.853038 47.344668, -33.872803 47.338766, -33.892563 47.332861, -33.912319 47.326952, -33.932070 47.321040, -33.951817 47.315125, -33.971560 47.309206, -33.991298 47.303284, -34.011032 47.297358, -34.030761 47.291429, -34.050486 47.285496, -34.070206 47.279561, -34.089922 47.273621, -34.109634 47.267679, -34.129341 47.261733, -34.149043 47.255784, -34.168742 47.249831, -34.188436 47.243875, -34.208125 47.237915, -34.227810 47.231952, -34.247491 47.225986, -34.267167 47.220017, -34.286838 47.214044, -34.306506 47.208067, -34.326168 47.202088, -34.345827 47.196105, -34.365481 47.190118, -34.385130 47.184129, -34.404775 47.178135, -34.424416 47.172139, -34.444052 47.166139, -34.463684 47.160136, -34.483311 47.154129, -34.502934 47.148120, -34.522553 47.142106, -34.542167 47.136090, -34.561776 47.130070, -34.581382 47.124047, -34.600982 47.118020, -34.620579 47.111990, -34.640170 47.105957, -34.659758 47.099920, -34.679341 47.093880, -34.698919 47.087837, -34.718493 47.081790, -34.738063 47.075740, -34.757628 47.069687, -34.777189 47.063630, -34.796745 47.057570, -34.816297 47.051507, -34.835844 47.045440, -34.855387 47.039370, -34.874926 47.033297, -34.894460 47.027220, -34.913989 47.021140, -34.933514 47.015057, -34.953035 47.008971, -34.972551 47.002881, -34.992063 46.996787, -35.011571 46.990691, -35.031073 46.984591, -35.050572 46.978488, -35.070066 46.972382, -35.089555 46.966272, -35.109041 46.960159, -35.128521 46.954042, -35.147997 46.947923, -35.167469 46.941800, -35.186936 46.935674, -35.206399 46.929544, -35.225858 46.923411, -35.245311 46.917275, -35.264761 46.911135, -35.284206 46.904993, -35.303646 46.898847, -35.323083 46.892697, -35.342514 46.886545, -35.361941 46.880389, -35.381364 46.874230, -35.400782 46.868067, -35.420196 46.861901, -35.439605 46.855732, -35.459010 46.849560, -35.478411 46.843384, -35.497807 46.837206, -35.517198 46.831023, -35.536585 46.824838, -35.555968 46.818649, -35.575346 46.812457, -35.594719 46.806262, -35.614089 46.800064, -35.633453 46.793862, -35.652814 46.787657, -35.672169 46.781449, -35.691521 46.775237, -35.710867 46.769022, -35.730210 46.762804, -35.749548 46.756583, -35.768881 46.750358, -35.788210 46.744130, -35.807535 46.737899, -35.826855 46.731665, -35.846170 46.725427, -35.865482 46.719186, -35.884788 46.712942, -35.904090 46.706695, -35.923388 46.700444, -35.942681 46.694190, -35.961970 46.687933, -35.981254 46.681673, -36.000534 46.675409, -36.019810 46.669143, -36.039081 46.662873, -36.058347 46.656599, -36.077609 46.650323, -36.096866 46.644043, -36.116119 46.637760, -36.135368 46.631474, -36.154612 46.625185, -36.173852 46.618892, -36.193087 46.612596, -36.212317 46.606297, -36.231544 46.599995, -36.250765 46.593689, -36.269983 46.587380, -36.289195 46.581068, -36.308404 46.574753, -36.327607 46.568435, -36.346807 46.562113, -36.366002 46.555788, -36.385192 46.549460, -36.404378 46.543129, -36.423559 46.536795, -36.442736 46.530457, -36.461909 46.524116, -36.481077 46.517772, -36.500240 46.511425, -36.519399 46.505074, -36.538554 46.498721, -36.557704 46.492364, -36.576850 46.486004, -36.595991 46.479641, -36.615127 46.473274, -36.634260 46.466904, -36.653387 46.460532, -36.672511 46.454156, -36.691629 46.447776, -36.710744 46.441394, -36.729853 46.435008, -36.748959 46.428620, -36.768060 46.422228, -36.787156 46.415833, -36.806248 46.409434, -36.825335 46.403033, -36.844418 46.396628, -36.863497 46.390221, -36.882571 46.383810, -36.901640 46.377395, -36.920705 46.370978, -36.939766 46.364558, -36.958822 46.358134, -36.977873 46.351707, -36.996920 46.345277, -37.015963 46.338844, -37.035001 46.332408, -37.054035 46.325968, -37.073064 46.319526, -37.092088 46.313080, -37.111109 46.306631, -37.130124 46.300179, -37.149136 46.293724, -37.168142 46.287265, -37.187144 46.280804, -37.206142 46.274339, -37.225136 46.267871, -37.244124 46.261400, -37.263109 46.254926, -37.282089 46.248449, -37.301064 46.241969, -37.320035 46.235485, -37.339001 46.228998, -37.357963 46.222509, -37.376921 46.216016, -37.395873 46.209520, -37.414822 46.203020, -37.433766 46.196518, -37.452705 46.190013, -37.471640 46.183504, -37.490571 46.176992, -37.509497 46.170477, -37.528419 46.163959, -37.547336 46.157438, -37.566248 46.150914, -37.585156 46.144387, -37.604060 46.137856, -37.622959 46.131323, -37.641854 46.124786, -37.660744 46.118246, -37.679630 46.111704, -37.698511 46.105158, -37.717387 46.098608, -37.736260 46.092056, -37.755127 46.085501, -37.773991 46.078943, -37.792849 46.072381, -37.811704 46.065816, -37.830554 46.059249, -37.849399 46.052678, -37.868240 46.046104, -37.887076 46.039527, -37.905908 46.032947, -37.924735 46.026364, -37.943558 46.019777, -37.962377 46.013188, -37.981191 46.006596, -38.000000 46.000000, -38.021068 45.999713, -38.042136 45.999423, -38.063204 45.999129, -38.084271 45.998831, -38.105339 45.998528, -38.126406 45.998223, -38.147472 45.997913, -38.168539 45.997599, -38.189605 45.997282, -38.210671 45.996960, -38.231737 45.996635, -38.252803 45.996306, -38.273868 45.995973, -38.294933 45.995636, -38.315998 45.995295, -38.337063 45.994951, -38.358127 45.994602, -38.379191 45.994250, -38.400255 45.993893, -38.421318 45.993533, -38.442382 45.993169, -38.463445 45.992802, -38.484507 45.992430, -38.505570 45.992054, -38.526632 45.991675, -38.547693 45.991291, -38.568755 45.990904, -38.589816 45.990513, -38.610877 45.990118, -38.631938 45.989720, -38.652998 45.989317, -38.674058 45.988910, -38.695118 45.988500, -38.716177 45.988086, -38.737236 45.987668, -38.758295 45.987246, -38.779353 45.986820, -38.800411 45.986390, -38.821469 45.985956, -38.842527 45.985519, -38.863584 45.985078, -38.884640 45.984632, -38.905697 45.984183, -38.926753 45.983730, -38.947809 45.983274, -38.968864 45.982813, -38.989919 45.982348, -39.010974 45.981880, -39.032028 45.981408, -39.053082 45.980932, -39.074136 45.980452, -39.095189 45.979968, -39.116242 45.979480, -39.137294 45.978988, -39.158346 45.978493, -39.179398 45.977994, -39.200449 45.977490, -39.221500 45.976983, -39.242551 45.976472, -39.263601 45.975958, -39.284651 45.975439, -39.305700 45.974916, -39.326749 45.974390, -39.347798 45.973860, -39.368846 45.973326, -39.389894 45.972788, -39.410941 45.972246, -39.431988 45.971700, -39.453035 45.971151, -39.474081 45.970597, -39.495126 45.970040, -39.516172 45.969479, -39.537217 45.968914, -39.558261 45.968345, -39.579305 45.967772, -39.600349 45.967196, -39.621392 45.966615, -39.642434 45.966031, -39.663476 45.965443, -39.684518 45.964851, -39.705560 45.964255, -39.726600 45.963655, -39.747641 45.963051, -39.768681 45.962444, -39.789720 45.961832, -39.810759 45.961217, -39.831798 45.960598, -39.852836 45.959975, -39.873874 45.959348, -39.894911 45.958718, -39.915947 45.958083, -39.936984 45.957445, -39.958019 45.956803, -39.979054 45.956156, -40.000089 45.955507, -40.021123 45.954853, -40.042157 45.954195, -40.063190 45.953534, -40.084223 45.952868, -40.105255 45.952199, -40.126287 45.951526, -40.147318 45.950849, -40.168349 45.950168, -40.189379 45.949483, -40.210408 45.948795, -40.231437 45.948102, -40.252466 45.947406, -40.273494 45.946706, -40.294522 45.946002, -40.315549 45.945294, -40.336575 45.944583, -40.357601 45.943867, -40.378626 45.943148, -40.399651 45.942424, -40.420675 45.941697, -40.441699 45.940966, -40.462722 45.940232, -40.483745 45.939493, -40.504767 45.938750, -40.525788 45.938004, -40.546809 45.937254, -40.567829 45.936500, -40.588849 45.935742, -40.609868 45.934980, -40.630887 45.934214, -40.651905 45.933445, -40.672922 45.932672, -40.693939 45.931894, -40.714955 45.931113, -40.735971 45.930328, -40.756986 45.929540, -40.778001 45.928747, -40.799014 45.927951, -40.820028 45.927150, -40.841040 45.926346, -40.862052 45.925538, -40.883064 45.924726, -40.904075 45.923910, -40.925085 45.923091, -40.946094 45.922268, -40.967103 45.921440, -40.988112 45.920609, -41.009119 45.919774, -41.030126 45.918935, -41.051133 45.918093, -41.072138 45.917246, -41.093144 45.916396, -41.114148 45.915542, -41.135152 45.914684, -41.156155 45.913822, -41.177158 45.912956, -41.198159 45.912086, -41.219161 45.911213, -41.240161 45.910336, -41.261161 45.909454, -41.282160 45.908569, -41.303159 45.907681, -41.324157 45.906788, -41.345154 45.905891, -41.366150 45.904991, -41.387146 45.904087, -41.408141 45.903179, -41.429136 45.902267, -41.450130 45.901351, -41.471123 45.900432, -41.492115 45.899508, -41.513107 45.898581, -41.534098 45.897650, -41.555088 45.896715, -41.576078 45.895776, -41.597066 45.894833, -41.618055 45.893887, -41.639042 45.892936, -41.660029 45.891982, -41.681015 45.891024, -41.702000 45.890062, -41.722984 45.889097, -41.743968 45.888127, -41.764951 45.887154, -41.785934 45.886177, -41.806915 45.885196, -41.827896 45.884211, -41.848876 45.883222, -41.869855 45.882229, -41.890834 45.881233, -41.911812 45.880233, -41.932789 45.879229, -41.953765 45.878221, -41.974741 45.877209, -41.995716 45.876193, -42.016690 45.875174, -42.037663 45.874151, -42.058635 45.873123, -42.079607 45.872092, -42.100578 45.871058, -42.121548 45.870019, -42.142517 45.868977, -42.163486 45.867930, -42.184454 45.866880, -42.205421 45.865826, -42.226387 45.864768, -42.247352 45.863707, -42.268317 45.862641, -42.289281 45.861572, -42.310244 45.860499, -42.331206 45.859422, -42.352167 45.858341, -42.373128 45.857256, -42.394088 45.856168, -42.415046 45.855076, -42.436004 45.853979, -42.456962 45.852880, -42.477918 45.851776, -42.498874 45.850668, -42.519828 45.849557, -42.540782 45.848441, -42.561735 45.847322, -42.582688 45.846199, -42.603639 45.845073, -42.624590 45.843942, -42.645539 45.842807, -42.666488 45.841669, -42.687436 45.840527, -42.708383 45.839381, -42.729329 45.838231, -42.750275 45.837078, -42.771219 45.835921, -42.792163 45.834759, -42.813105 45.833594, -42.834047 45.832425, -42.854988 45.831253, -42.875928 45.830076, -42.896868 45.828896, -42.917806 45.827712, -42.938743 45.826524, -42.959680 45.825332, -42.980616 45.824136, -43.001550 45.822937, -43.022484 45.821733, -43.043417 45.820526, -43.064349 45.819315, -43.085280 45.818101, -43.106210 45.816882, -43.127140 45.815660, -43.148068 45.814433, -43.168995 45.813203, -43.189922 45.811969, -43.210847 45.810732, -43.231772 45.809490, -43.252696 45.808245, -43.273619 45.806996, -43.294540 45.805743, -43.315461 45.804486, -43.336381 45.803226, -43.357300 45.801961, -43.378218 45.800693, -43.399135 45.799421, -43.420052 45.798145, -43.440967 45.796865, -43.461881 45.795582, -43.482794 45.794295, -43.503706 45.793003, -43.524618 45.791708, -43.545528 45.790410, -43.566437 45.789107, -43.587346 45.787801, -43.608253 45.786491, -43.629160 45.785177, -43.650065 45.783859, -43.670970 45.782537, -43.691873 45.781212, -43.712775 45.779882, -43.733677 45.778549, -43.754577 45.777212, -43.775477 45.775872, -43.796375 45.774527, -43.817273 45.773179, -43.838169 45.771827, -43.859064 45.770471, -43.879959 45.769111, -43.900852 45.767748, -43.921745 45.766380, -43.942636 45.765009, -43.963526 45.763634, -43.984415 45.762255, -44.005304 45.760873, -44.026191 45.759486, -44.047077 45.758096, -44.067962 45.756702, -44.088846 45.755304, -44.109729 45.753903, -44.130611 45.752497, -44.151492 45.751088, -44.172372 45.749675, -44.193251 45.748258, -44.214129 45.746838, -44.235005 45.745413, -44.255881 45.743985, -44.276755 45.742553, -44.297629 45.741117, -44.318501 45.739678, -44.339373 45.738234, -44.360243 45.736787, -44.381112 45.735336, -44.401980 45.733881, -44.422847 45.732422, -44.443713 45.730960, -44.464578 45.729494, -44.485441 45.728024, -44.506304 45.726550, -44.527165 45.725072, -44.548026 45.723591, -44.568885 45.722106, -44.589743 45.720617, -44.610600 45.719124, -44.631456 45.717627, -44.652311 45.716127, -44.673165 45.714623, -44.694017 45.713115, -44.714869 45.711603, -44.735719 45.710087, -44.756568 45.708568, -44.777416 45.707045, -44.798263 45.705518, -44.819109 45.703987, -44.839954 45.702453, -44.860797 45.700914, -44.881639 45.699372, -44.902481 45.697826, -44.923321 45.696277, -44.944160 45.694723, -44.964997 45.693166, -44.985834 45.691605, -45.006669 45.690040, -45.027503 45.688472, -45.048337 45.686899, -45.069168 45.685323, -45.089999 45.683743, -45.110829 45.682159, -45.131657 45.680572, -45.152484 45.678980, -45.173310 45.677385, -45.194135 45.675786, -45.214959 45.674184, -45.235781 45.672577, -45.256602 45.670967, -45.277422 45.669353, -45.298241 45.667735, -45.319059 45.666113, -45.339875 45.664488, -45.360690 45.662859, -45.381504 45.661226, -45.402317 45.659589, -45.423128 45.657949, -45.443939 45.656305, -45.464748 45.654657, -45.485556 45.653005, -45.506362 45.651349, -45.527168 45.649690, -45.547972 45.648027, -45.568775 45.646360, -45.589577 45.644689, -45.610377 45.643014, -45.631176 45.641336, -45.651974 45.639654, -45.672771 45.637968, -45.693566 45.636279, -45.714361 45.634585, -45.735153 45.632888, -45.755945 45.631187, -45.776736 45.629483, -45.797525 45.627774, -45.818313 45.626062, -45.839099 45.624346, -45.859885 45.622626, -45.880669 45.620903, -45.901451 45.619176, -45.922233 45.617445, -45.943013 45.615710, -45.963792 45.613971, -45.984570 45.612229, -46.005346 45.610483, -46.026121 45.608733, -46.046895 45.606979, -46.067667 45.605222, -46.088439 45.603460, -46.109208 45.601696, -46.129977 45.599927, -46.150744 45.598154, -46.171510 45.596378, -46.192275 45.594598, -46.213038 45.592814, -46.233800 45.591027, -46.254561 45.589236, -46.275320 45.587441, -46.296078 45.585642, -46.316834 45.583839, -46.337590 45.582033, -46.358344 45.580223, -46.379096 45.578409, -46.399848 45.576591, -46.420598 45.574770, -46.441346 45.572945, -46.462094 45.571116, -46.482839 45.569283, -46.503584 45.567447, -46.524327 45.565607, -46.545069 45.563763, -46.565809 45.561915, -46.586549 45.560064, -46.607286 45.558209, -46.628023 45.556350, -46.648758 45.554487, -46.669491 45.552621, -46.690224 45.550751, -46.710954 45.548877, -46.731684 45.546999, -46.752412 45.545118, -46.773139 45.543233, -46.793864 45.541344, -46.814588 45.539451, -46.835310 45.537555, -46.856031 45.535655, -46.876751 45.533751, -46.897469 45.531843, -46.918186 45.529932, -46.938902 45.528017, -46.959616 45.526098, -46.980329 45.524175, -47.001040 45.522249, -47.021750 45.520319, -47.042458 45.518385, -47.063165 45.516448, -47.083871 45.514506, -47.104575 45.512561, -47.125277 45.510612, -47.145979 45.508660, -47.166679 45.506704, -47.187377 45.504744, -47.208074 45.502780, -47.228769 45.500812, -47.249463 45.498841, -47.270156 45.496866, -47.290847 45.494888, -47.311537 45.492905, -47.332225 45.490919, -47.352912 45.488929, -47.373597 45.486935, -47.394281 45.484938, -47.414963 45.482937, -47.435644 45.480932, -47.456324 45.478924, -47.477002 45.476911, -47.497678 45.474895, -47.518353 45.472876, -47.539027 45.470852, -47.559699 45.468825, -47.580369 45.466794, -47.601038 45.464759, -47.621706 45.462721, -47.642372 45.460679, -47.663036 45.458633, -47.683699 45.456583, -47.704361 45.454530, -47.725021 45.452473, -47.745680 45.450412, -47.766337 45.448348, -47.786992 45.446280, -47.807646 45.444208, -47.828299 45.442132, -47.848950 45.440053, -47.869599 45.437970, -47.890247 45.435883, -47.910893 45.433792, -47.931538 45.431698, -47.952182 45.429600, -47.972823 45.427499, -47.993464 45.425393, -48.014102 45.423284, -48.034739 45.421171, -48.055375 45.419055, -48.076009 45.416934, -48.096642 45.414810, -48.117273 45.412683, -48.137902 45.410551, -48.158530 45.408416, -48.179156 45.406277, -48.199781 45.404135, -48.220404 45.401989, -48.241026 45.399839, -48.261646 45.397685, -48.282264 45.395528, -48.302881 45.393367, -48.323496 45.391202, -48.344110 45.389033, -48.364722 45.386861, -48.385333 45.384685, -48.405942 45.382506, -48.426549 45.380322, -48.447155 45.378135, -48.467759 45.375944, -48.488361 45.373750, -48.508962 45.371552, -48.529562 45.369350, -48.550160 45.367144, -48.570756 45.364935, -48.591350 45.362722, -48.611943 45.360506, -48.632535 45.358285, -48.653124 45.356061, -48.673712 45.353833, -48.694299 45.351602, -48.714884 45.349367, -48.735467 45.347128, -48.756048 45.344885, -48.776628 45.342639, -48.797207 45.340389, -48.817783 45.338136, -48.838358 45.335878, -48.858932 45.333617, -48.879504 45.331353, -48.900074 45.329084, -48.920642 45.326812, -48.941209 45.324536, -48.961774 45.322257, -48.982338 45.319974, -49.002900 45.317687, -49.023460 45.315396, -49.044018 45.313102, -49.064575 45.310804, -49.085130 45.308502, -49.105684 45.306197, -49.126236 45.303888, -49.146786 45.301576, -49.167334 45.299259, -49.187881 45.296939, -49.208426 45.294615, -49.228970 45.292288, -49.249511 45.289957, -49.270051 45.287622, -49.290590 45.285284, -49.311127 45.282942, -49.331662 45.280596, -49.352195 45.278246, -49.372726 45.275893, -49.393256 45.273536, -49.413784 45.271176, -49.434311 45.268812, -49.454836 45.266444, -49.475359 45.264072, -49.495880 45.261697, -49.516400 45.259318, -49.536917 45.256935, -49.557434 45.254549, -49.577948 45.252159, -49.598461 45.249766, -49.618972 45.247368, -49.639481 45.244967, -49.659988 45.242563, -49.680494 45.240155, -49.700998 45.237743, -49.721501 45.235327, -49.742001 45.232908, -49.762500 45.230485, -49.782997 45.228058, -49.803492 45.225628, -49.823986 45.223194, -49.844478 45.220756, -49.864968 45.218315, -49.885456 45.215870, -49.905942 45.213421, -49.926427 45.210969, -49.946910 45.208513, -49.967391 45.206054, -49.987871 45.203590, -50.008348 45.201124, -50.028824 45.198653, -50.049298 45.196179, -50.069771 45.193701, -50.090241 45.191219, -50.110710 45.188734, -50.131177 45.186245, -50.151642 45.183753, -50.172105 45.181257, -50.192567 45.178757, -50.213027 45.176253, -50.233485 45.173746, -50.253941 45.171235, -50.274395 45.168721, -50.294848 45.166203, -50.315299 45.163681, -50.335748 45.161156, -50.356195 45.158627, -50.376640 45.156094, -50.397084 45.153558, -50.417525 45.151018, -50.437965 45.148474, -50.458403 45.145927, -50.478839 45.143376, -50.499274 45.140822, -50.519706 45.138263, -50.540137 45.135701, -50.560566 45.133136, -50.580993 45.130567, -50.601418 45.127994, -50.621841 45.125418, -50.642263 45.122838, -50.662682 45.120254, -50.683100 45.117667, -50.703516 45.115076, -50.723930 45.112481, -50.744343 45.109883, -50.764753 45.107281, -50.785161 45.104676, -50.805568 45.102066, -50.825973 45.099454, -50.846376 45.096837, -50.866777 45.094217, -50.887176 45.091594, -50.907573 45.088966, -50.927969 45.086335, -50.948362 45.083701, -50.968754 45.081063, -50.989144 45.078421, -51.009531 45.075775, -51.029917 45.073126, -51.050302 45.070474, -51.070684 45.067817, -51.091064 45.065157, -51.111442 45.062494, -51.131819 45.059827, -51.152194 45.057156, -51.172566 45.054481, -51.192937 45.051803, -51.213306 45.049122, -51.233673 45.046436, -51.254038 45.043747, -51.274401 45.041055, -51.294762 45.038359, -51.315122 45.035659, -51.335479 45.032956, -51.355835 45.030249, -51.376188 45.027538, -51.396540 45.024824, -51.416889 45.022106, -51.437237 45.019384, -51.457583 45.016659, -51.477927 45.013931, -51.498269 45.011198, -51.518609 45.008462, -51.538947 45.005723, -51.559283 45.002980, -51.579617 45.000233, -51.599949 44.997483, -51.620279 44.994729, -51.640608 44.991971, -51.660934 44.989210, -51.681258 44.986445, -51.701581 44.983677, -51.721901 44.980905, -51.742220 44.978129, -51.762536 44.975350, -51.782851 44.972567, -51.803163 44.969781, -51.823474 44.966991, -51.843783 44.964197, -51.864089 44.961400, -51.884394 44.958599, -51.904697 44.955795, -51.924997 44.952987, -51.945296 44.950175, -51.965593 44.947360, -51.985887 44.944542, -52.006180 44.941719, -52.026471 44.938893, -52.046760 44.936064, -52.067046 44.933231, -52.087331 44.930394, -52.107614 44.927554, -52.127895 44.924710, -52.148173 44.921862, -52.168450 44.919011, -52.188725 44.916156, -52.208997 44.913298, -52.229268 44.910436, -52.249537 44.907571, -52.269803 44.904702, -52.290068 44.901829, -52.310330 44.898953, -52.330591 44.896073, -52.350849 44.893190, -52.371106 44.890303, -52.391360 44.887412, -52.411613 44.884518, -52.431863 44.881621, -52.452111 44.878719, -52.472358 44.875815, -52.492602 44.872906, -52.512844 44.869994, -52.533084 44.867079, -52.553322 44.864160, -52.573558 44.861237, -52.593792 44.858311, -52.614024 44.855381, -52.634254 44.852447, -52.654482 44.849510, -52.674708 44.846570, -52.694931 44.843626, -52.715153 44.840678, -52.735372 44.837727, -52.755590 44.834772, -52.775805 44.831814, -52.796018 44.828852, -52.816230 44.825886, -52.836439 44.822917, -52.856646 44.819944, -52.876851 44.816968, -52.897054 44.813988, -52.917254 44.811005, -52.937453 44.808018, -52.957650 44.805028, -52.977844 44.802034, -52.998037 44.799036, -53.018227 44.796035, -53.038415 44.793030, -53.058601 44.790022, -53.078785 44.787010, -53.098967 44.783995, -53.119147 44.780976, -53.139325 44.777953, -53.159500 44.774927, -53.179674 44.771898, -53.199845 44.768865, -53.220014 44.765828, -53.240181 44.762788, -53.260346 44.759744, -53.280509 44.756697, -53.300670 44.753646, -53.320829 44.750591, -53.340985 44.747533, -53.361139 44.744472, -53.381291 44.741407, -53.401442 44.738338, -53.421589 44.735266, -53.441735 44.732190, -53.461879 44.729111, -53.482020 44.726028, -53.502160 44.722942, -53.522297 44.719852, -53.542432 44.716759, -53.562565 44.713662, -53.582695 44.710562, -53.602824 44.707458, -53.622950 44.704350, -53.643075 44.701239, -53.663197 44.698124, -53.683317 44.695006, -53.703434 44.691885, -53.723550 44.688760, -53.743663 44.685631, -53.763775 44.682499, -53.783884 44.679363, -53.803990 44.676223, -53.824095 44.673081, -53.844198 44.669934, -53.864298 44.666784, -53.884396 44.663631, -53.904492 44.660474, -53.924586 44.657314, -53.944677 44.654150, -53.964767 44.650982, -53.984854 44.647811, -54.004939 44.644637, -54.025022 44.641459, -54.045102 44.638277, -54.065181 44.635092, -54.085257 44.631903, -54.105331 44.628711, -54.125403 44.625515, -54.145472 44.622316, -54.165539 44.619114, -54.185605 44.615907, -54.205668 44.612698, -54.225728 44.609484, -54.245787 44.606268, -54.265843 44.603048, -54.285897 44.599824, -54.305949 44.596597, -54.325998 44.593366, -54.346046 44.590131, -54.366091 44.586894, -54.386134 44.583652, -54.406174 44.580408, -54.426213 44.577159, -54.446249 44.573908, -54.466283 44.570652, -54.486314 44.567393, -54.506344 44.564131, -54.526371 44.560865, -54.546396 44.557596, -54.566419 44.554323, -54.586439 44.551047, -54.606457 44.547767, -54.626473 44.544484, -54.646487 44.541197, -54.666498 44.537907, -54.686507 44.534613, -54.706514 44.531316, -54.726519 44.528015, -54.746521 44.524711, -54.766521 44.521403, -54.786519 44.518092, -54.806514 44.514777, -54.826508 44.511459, -54.846498 44.508137, -54.866487 44.504812, -54.886474 44.501483, -54.906458 44.498151, -54.926439 44.494816, -54.946419 44.491476, -54.966396 44.488134, -54.986371 44.484788, -55.006344 44.481438, -55.026314 44.478085, -55.046282 44.474729, -55.066248 44.471369, -55.086212 44.468005, -55.106173 44.464638, -55.126132 44.461268, -55.146088 44.457894, -55.166042 44.454516, -55.185994 44.451136, -55.205944 44.447751, -55.225891 44.444363, -55.245836 44.440972, -55.265779 44.437577, -55.285720 44.434179, -55.305658 44.430778, -55.325593 44.427372, -55.345527 44.423964, -55.365458 44.420552, -55.385387 44.417136, -55.405313 44.413717, -55.425237 44.410295, -55.445159 44.406869, -55.465078 44.403439, -55.484995 44.400006, -55.504910 44.396570, -55.524823 44.393130, -55.544733 44.389687, -55.564640 44.386240, -55.584546 44.382790, -55.604449 44.379337, -55.624349 44.375880, -55.644248 44.372419, -55.664144 44.368955, -55.684037 44.365488, -55.703929 44.362017, -55.723818 44.358542, -55.743704 44.355065, -55.763588 44.351583, -55.783470 44.348099, -55.803350 44.344611, -55.823227 44.341119, -55.843102 44.337624, -55.862974 44.334125, -55.882844 44.330624, -55.902712 44.327118, -55.922577 44.323609, -55.942440 44.320097, -55.962300 44.316581, -55.982158 44.313062, -56.002014 44.309540, -56.021867 44.306014, -56.041718 44.302484, -56.061567 44.298951, -56.081413 44.295415, -56.101257 44.291875, -56.121098 44.288332, -56.140937 44.284785, -56.160774 44.281235, -56.180608 44.277682, -56.200440 44.274125, -56.220269 44.270565, -56.240096 44.267001, -56.259921 44.263434, -56.279743 44.259863, -56.299563 44.256289, -56.319380 44.252711, -56.339195 44.249130, -56.359008 44.245546, -56.378818 44.241958, -56.398625 44.238367, -56.418431 44.234773, -56.438233 44.231175, -56.458034 44.227573, -56.477832 44.223968, -56.497628 44.220360, -56.517421 44.216748, -56.537211 44.213133, -56.557000 44.209514, -56.576786 44.205893, -56.596569 44.202267, -56.616350 44.198638, -56.636129 44.195006, -56.655905 44.191371, -56.675678 44.187732, -56.695450 44.184089, -56.715219 44.180443, -56.734985 44.176794, -56.754749 44.173141, -56.774510 44.169485, -56.794269 44.165826, -56.814026 44.162163, -56.833780 44.158497, -56.853532 44.154827, -56.873281 44.151154, -56.893027 44.147477, -56.912772 44.143797, -56.932514 44.140114, -56.952253 44.136427, -56.971990 44.132737, -56.991724 44.129044, -57.011456 44.125347, -57.031186 44.121647, -57.050913 44.117943, -57.070637 44.114236, -57.090359 44.110525, -57.110079 44.106812, -57.129796 44.103094, -57.149510 44.099374, -57.169222 44.095650, -57.188932 44.091922, -57.208639 44.088191, -57.228344 44.084457, -57.248046 44.080720, -57.267746 44.076979, -57.287443 44.073234, -57.307138 44.069487, -57.326830 44.065736, -57.346520 44.061981, -57.366207 44.058223, -57.385892 44.054462, -57.405574 44.050697, -57.425254 44.046929, -57.444931 44.043158, -57.464605 44.039383, -57.484278 44.035605, -57.503947 44.031823, -57.523614 44.028039, -57.543279 44.024250, -57.562941 44.020459, -57.582601 44.016664, -57.602258 44.012865, -57.621913 44.009064, -57.641565 44.005258, -57.661214 44.001450, -57.680861 43.997638, -57.700506 43.993823, -57.720148 43.990004, -57.739787 43.986182, -57.759424 43.982357, -57.779058 43.978528, -57.798690 43.974696, -57.818320 43.970861, -57.837946 43.967022, -57.857571 43.963180, -57.877192 43.959335, -57.896812 43.955486, -57.916428 43.951634, -57.936042 43.947778, -57.955654 43.943919, -57.975263 43.940057, -57.994869 43.936191, -58.014473 43.932322, -58.034074 43.928450, -58.053673 43.924574, -58.073269 43.920695, -58.092863 43.916813, -58.112454 43.912927, -58.132043 43.909038, -58.151629 43.905146, -58.171212 43.901250, -58.190793 43.897351, -58.210371 43.893449, -58.229947 43.889543, -58.249520 43.885634, -58.269091 43.881721, -58.288659 43.877805, -58.308224 43.873886, -58.327787 43.869964, -58.347347 43.866038, -58.366905 43.862109, -58.386460 43.858176, -58.406013 43.854241, -58.425563 43.850302, -58.445110 43.846359, -58.464655 43.842413, -58.484197 43.838464, -58.503737 43.834512, -58.523274 43.830556, -58.542809 43.826597, -58.562340 43.822634, -58.581870 43.818669, -58.601396 43.814699, -58.620920 43.810727, -58.640442 43.806751, -58.659961 43.802772, -58.679477 43.798790, -58.698991 43.794804, -58.718502 43.790815, -58.738010 43.786823, -58.757516 43.782827, -58.777019 43.778828, -58.796520 43.774826, -58.816018 43.770820, -58.835514 43.766811, -58.855006 43.762799, -58.874497 43.758783, -58.893984 43.754765, -58.913469 43.750742, -58.932951 43.746717, -58.952431 43.742688, -58.971908 43.738656, -58.991383 43.734621, -59.010855 43.730582, -59.030324 43.726540, -59.049790 43.722495, -59.069254 43.718446, -59.088716 43.714394, -59.108174 43.710339, -59.127630 43.706280, -59.147084 43.702218, -59.166535 43.698153, -59.185983 43.694085, -59.205428 43.690013, -59.224871 43.685938, -59.244311 43.681860, -59.263749 43.677778, -59.283184 43.673693, -59.302616 43.669605, -59.322046 43.665514, -59.341473 43.661419, -59.360897 43.657321, -59.380319 43.653220, -59.399738 43.649115, -59.419154 43.645007, -59.438568 43.640896, -59.457979 43.636781, -59.477388 43.632663, -59.496793 43.628542, -59.516196 43.624418, -59.535597 43.620290, -59.554995 43.616160, -59.574390 43.612025, -59.593782 43.607888, -59.613172 43.603747, -59.632559 43.599603, -59.651943 43.595456, -59.671325 43.591305, -59.690704 43.587151, -59.710081 43.582994, -59.729454 43.578834, -59.748825 43.574670, -59.768194 43.570503, -59.787559 43.566333, -59.806922 43.562160, -59.826283 43.557983, -59.845640 43.553803, -59.864995 43.549620, -59.884347 43.545433, -59.903697 43.541243, -59.923044 43.537050, -59.942388 43.532854, -59.961730 43.528654, -59.981068 43.524452, -60.000404 43.520245, -60.019738 43.516036, -60.039069 43.511823, -60.058397 43.507608, -60.077722 43.503388, -60.097044 43.499166, -60.116364 43.494940, -60.135682 43.490712, -60.154996 43.486479, -60.174308 43.482244, -60.193617 43.478005, -60.212923 43.473764, -60.232227 43.469518, -60.251528 43.465270, -60.270826 43.461018, -60.290122 43.456764, -60.309414 43.452505, -60.328704 43.448244, -60.347992 43.443980, -60.367276 43.439712, -60.386558 43.435441, -60.405838 43.431166, -60.425114 43.426889, -60.444388 43.422608, -60.463659 43.418324, -60.482927 43.414037, -60.502193 43.409746, -60.521456 43.405452, -60.540716 43.401155, -60.559973 43.396855, -60.579228 43.392552, -60.598480 43.388245, -60.617729 43.383935, -60.636975 43.379622, -60.656219 43.375306, -60.675460 43.370986, -60.694698 43.366663, -60.713933 43.362337, -60.733166 43.358008, -60.752396 43.353676, -60.771623 43.349340, -60.790848 43.345001, -60.810070 43.340659, -60.829288 43.336314, -60.848505 43.331965, -60.867718 43.327613, -60.886929 43.323258, -60.906137 43.318900, -60.925342 43.314539, -60.944545 43.310174, -60.963744 43.305806, -60.982941 43.301435, -61.002135 43.297061, -61.021327 43.292683, -61.040515 43.288303, -61.059701 43.283919, -61.078884 43.279532, -61.098065 43.275142, -61.117242 43.270748, -61.136417 43.266351, -61.155589 43.261951, -61.174758 43.257548, -61.193925 43.253142, -61.213089 43.248732, -61.232250 43.244320, -61.251408 43.239904, -61.270563 43.235485, -61.289716 43.231062, -61.308866 43.226637, -61.328013 43.222208, -61.347157 43.217776, -61.366298 43.213341, -61.385437 43.208903, -61.404573 43.204462, -61.423706 43.200017, -61.442836 43.195569, -61.461964 43.191118, -61.481089 43.186664, -61.500211 43.182207, -61.519330 43.177746, -61.538446 43.173282, -61.557560 43.168815, -61.576671 43.164345, -61.595779 43.159872, -61.614884 43.155395, -61.633986 43.150916, -61.653086 43.146433, -61.672183 43.141947, -61.691277 43.137458, -61.710368 43.132965, -61.729456 43.128470, -61.748542 43.123971, -61.767624 43.119469, -61.786704 43.114964, -61.805781 43.110456, -61.824856 43.105945, -61.843927 43.101430, -61.862996 43.096912, -61.882062 43.092392, -61.901125 43.087868, -61.920185 43.083340, -61.939243 43.078810, -61.958297 43.074276, -61.977349 43.069740, -61.996398 43.065200, -62.015444 43.060657, -62.034488 43.056111, -62.053528 43.051561, -62.072566 43.047009, -62.091601 43.042453, -62.110633 43.037894, -62.129662 43.033332, -62.148688 43.028767, -62.167712 43.024199, -62.186732 43.019628, -62.205750 43.015053, -62.224765 43.010475, -62.243778 43.005895, -62.262787 43.001311, -62.281793 42.996723, -62.300797 42.992133, -62.319798 42.987540, -62.338796 42.982943, -62.357791 42.978344, -62.376784 42.973741, -62.395773 42.969135, -62.414760 42.964526, -62.433743 42.959913, -62.452724 42.955298, -62.471703 42.950679, -62.490678 42.946058, -62.509650 42.941433, -62.528620 42.936805, -62.547586 42.932174, -62.566550 42.927540, -62.585511 42.922902, -62.604469 42.918262, -62.623425 42.913618, -62.642377 42.908972, -62.661327 42.904322, -62.680273 42.899669, -62.699217 42.895013, -62.718158 42.890354, -62.737096 42.885691, -62.756032 42.881026, -62.774964 42.876357, -62.793893 42.871685, -62.812820 42.867011, -62.831744 42.862333, -62.850665 42.857652, -62.869583 42.852968, -62.888498 42.848280, -62.907410 42.843590, -62.926320 42.838896, -62.945226 42.834200, -62.964130 42.829500, -62.983031 42.824797, -63.001929 42.820091, -63.020824 42.815382, -63.039716 42.810670, -63.058605 42.805955, -63.077492 42.801237, -63.096375 42.796515, -63.115256 42.791791, -63.134134 42.787063, -63.153009 42.782332, -63.171881 42.777598, -63.190750 42.772861, -63.209616 42.768121, -63.228479 42.763378, -63.247340 42.758632, -63.266197 42.753882, -63.285052 42.749130, -63.303904 42.744375, -63.322753 42.739616, -63.341599 42.734854, -63.360442 42.730089, -63.379282 42.725321, -63.398119 42.720551, -63.416954 42.715776, -63.435785 42.710999, -63.454614 42.706219, -63.473440 42.701436, -63.492263 42.696649, -63.511082 42.691860, -63.529899 42.687067, -63.548714 42.682272, -63.567525 42.677473, -63.586333 42.672671, -63.605138 42.667866, -63.623941 42.663058, -63.642740 42.658247, -63.661537 42.653433, -63.680331 42.648616, -63.699122 42.643796, -63.717910 42.638973, -63.736695 42.634146, -63.755477 42.629317, -63.774256 42.624484, -63.793032 42.619649, -63.811806 42.614810, -63.830576 42.609968, -63.849343 42.605124, -63.868108 42.600276, -63.886870 42.595425, -63.905628 42.590571, -63.924384 42.585714, -63.943137 42.580854, -63.961887 42.575991, -63.980634 42.571124, -63.999378 42.566255, -64.018120 42.561383, -64.036858 42.556508, -64.055593 42.551629, -64.074326 42.546748, -64.093055 42.541863, -64.111782 42.536976, -64.130505 42.532085, -64.149226 42.527191, -64.167944 42.522295, -64.186659 42.517395, -64.205370 42.512492, -64.224079 42.507586, -64.242785 42.502677, -64.261488 42.497766, -64.280189 42.492851, -64.298886 42.487933, -64.317580 42.483012, -64.336271 42.478087, -64.354960 42.473160, -64.373645 42.468230, -64.392328 42.463297, -64.411007 42.458361, -64.429684 42.453422, -64.448357 42.448479, -64.467028 42.443534, -64.485696 42.438586, -64.504361 42.433634, -64.523023 42.428680, -64.541681 42.423722, -64.560337 42.418762, -64.578990 42.413799, -64.597640 42.408832, -64.616288 42.403863, -64.634932 42.398890, -64.653573 42.393914, -64.672211 42.388936, -64.690846 42.383954, -64.709479 42.378970, -64.728108 42.373982, -64.746734 42.368991, -64.765358 42.363998, -64.783978 42.359001, -64.802596 42.354001, -64.821210 42.348999, -64.839822 42.343993, -64.858431 42.338984, -64.877036 42.333973, -64.895639 42.328958, -64.914239 42.323940, -64.932835 42.318919, -64.951429 42.313896, -64.970020 42.308869, -64.988608 42.303839, -65.007193 42.298806, -65.025775 42.293771, -65.044353 42.288732, -65.062929 42.283690, -65.081502 42.278645, -65.100072 42.273598, -65.118639 42.268547, -65.137204 42.263493, -65.155765 42.258436, -65.174323 42.253377, -65.192878 42.248314, -65.211430 42.243248, -65.229979 42.238180, -65.248525 42.233108, -65.267069 42.228033, -65.285609 42.222956, -65.304146 42.217875, -65.322680 42.212791, -65.341212 42.207705, -65.359740 42.202615, -65.378265 42.197523, -65.396787 42.192427, -65.415307 42.187329, -65.433823 42.182227, -65.452336 42.177123, -65.470847 42.172015, -65.489354 42.166905, -65.507859 42.161791, -65.526360 42.156675, -65.544858 42.151556, -65.563354 42.146433, -65.581846 42.141308, -65.600336 42.136180, -65.618822 42.131048, -65.637305 42.125914, -65.655786 42.120777, -65.674263 42.115637, -65.692738 42.110494, -65.711209 42.105348, -65.729678 42.100199, -65.748143 42.095047, -65.766605 42.089892, -65.785065 42.084734, -65.803521 42.079573, -65.821975 42.074409, -65.840425 42.069243, -65.858873 42.064073, -65.877317 42.058900, -65.895758 42.053725, -65.914197 42.048546, -65.932632 42.043364, -65.951065 42.038180, -65.969494 42.032993, -65.987920 42.027802, -66.006344 42.022609, -66.024764 42.017413, -66.043181 42.012213, -66.061596 42.007011, -66.080007 42.001806, -66.098415 41.996598, -66.116821 41.991387, -66.135223 41.986173, -66.153622 41.980956, -66.172019 41.975737, -66.190412 41.970514, -66.208802 41.965288, -66.227189 41.960060, -66.245573 41.954828, -66.263955 41.949594, -66.282333 41.944356, -66.300708 41.939116, -66.319080 41.933873, -66.337449 41.928626, -66.355815 41.923377, -66.374178 41.918125, -66.392538 41.912870, -66.410895 41.907612, -66.429249 41.902352, -66.447600 41.897088, -66.465948 41.891821, -66.484293 41.886552, -66.502635 41.881279, -66.520974 41.876004, -66.539309 41.870725, -66.557642 41.865444, -66.575972 41.860160, -66.594299 41.854873, -66.612622 41.849583, -66.630943 41.844290, -66.649261 41.838994, -66.667575 41.833695, -66.685887 41.828394, -66.704195 41.823089, -66.722501 41.817782, -66.740803 41.812472, -66.759103 41.807158, -66.777399 41.801842, -66.795692 41.796523, -66.813983 41.791201, -66.832270 41.785876, -66.850554 41.780549, -66.868835 41.775218, -66.887114 41.769884, -66.905389 41.764548, -66.923661 41.759208, -66.941930 41.753866, -66.960196 41.748521, -66.978459 41.743173, -66.996719 41.737822, -67.014976 41.732468, -67.033229 41.727112, -67.051480 41.721752, -67.069728 41.716390, -67.087973 41.711024, -67.106214 41.705656, -67.124453 41.700285, -67.142688 41.694911, -67.160921 41.689534, -67.179150 41.684154, -67.197377 41.678772, -67.215600 41.673386, -67.233820 41.667998, -67.252038 41.662606, -67.270252 41.657212, -67.288463 41.651815, -67.306671 41.646415, -67.324876 41.641012, -67.343078 41.635607, -67.361277 41.630198, -67.379473 41.624787, -67.397666 41.619373, -67.415856 41.613955, -67.434042 41.608535, -67.452226 41.603113, -67.470407 41.597687, -67.488584 41.592258, -67.506759 41.586827, -67.524930 41.581392, -67.543098 41.575955, -67.561264 41.570515, -67.579426 41.565072, -67.597585 41.559627, -67.615741 41.554178, -67.633894 41.548726, -67.652044 41.543272, -67.670191 41.537815, -67.688335 41.532355, -67.706476 41.526892, -67.724614 41.521426, -67.742748 41.515958, -67.760880 41.510486, -67.779009 41.505012, -67.797134 41.499535, -67.815257 41.494055, -67.833376 41.488572, -67.851492 41.483086, -67.869605 41.477598, -67.887716 41.472107, -67.905823 41.466612, -67.923927 41.461115, -67.942028 41.455616, -67.960126 41.450113, -67.978220 41.444607, -67.996312 41.439099, -68.014401 41.433588, -68.032486 41.428074, -68.050569 41.422557, -68.068648 41.417037, -68.086725 41.411515, -68.104798 41.405989, -68.122868 41.400461, -68.140935 41.394930, -68.158999 41.389396, -68.177060 41.383860, -68.195118 41.378320, -68.213173 41.372778, -68.231225 41.367233, -68.249274 41.361685, -68.267319 41.356134, -68.285362 41.350580, -68.303401 41.345024, -68.321438 41.339465, -68.339471 41.333903, -68.357501 41.328338, -68.375528 41.322770, -68.393552 41.317200, -68.411573 41.311627, -68.429591 41.306051, -68.447606 41.300472, -68.465618 41.294890, -68.483627 41.289305, -68.501632 41.283718, -68.519635 41.278128, -68.537634 41.272535, -68.555630 41.266939, -68.573623 41.261341, -68.591614 41.255739, -68.609601 41.250135, -68.627585 41.244528, -68.645566 41.238919, -68.663543 41.233306, -68.681518 41.227691, -68.699490 41.222073, -68.717458 41.216452, -68.735424 41.210828, -68.753386 41.205202, -68.771345 41.199572, -68.789301 41.193940, -68.807255 41.188305, -68.825205 41.182668, -68.843151 41.177027, -68.861095 41.171384, -68.879036 41.165738, -68.896974 41.160089, -68.914908 41.154438, -68.932840 41.148783, -68.950768 41.143126, -68.968693 41.137466, -68.986615 41.131804, -69.004534 41.126138, -69.022450 41.120470, -69.040363 41.114799, -69.058273 41.109125, -69.076180 41.103449, -69.094083 41.097769, -69.111984 41.092087, -69.129881 41.086402, -69.147776 41.080715, -69.165667 41.075024, -69.183555 41.069331, -69.201440 41.063635, -69.219322 41.057936, -69.237201 41.052235, -69.255076 41.046531, -69.272949 41.040824, -69.290818 41.035114, -69.308685 41.029401, -69.326548 41.023686, -69.344408 41.017968, -69.362265 41.012247, -69.380119 41.006524, -69.397970 41.000797, -69.415818 40.995068, -69.433663 40.989336, -69.451504 40.983602, -69.469343 40.977865, -69.487178 40.972125, -69.505011 40.966382, -69.522840 40.960636, -69.540666 40.954888, -69.558489 40.949137, -69.576309 40.943383, -69.594125 40.937627, -69.611939 40.931867, -69.629750 40.926105, -69.647557 40.920341, -69.665361 40.914573, -69.683163 40.908803, -69.700961 40.903030, -69.718756 40.897254, -69.736548 40.891476, -69.754336 40.885695, -69.772122 40.879911, -69.789905 40.874124, -69.807684 40.868335, -69.825461 40.862543, -69.843234 40.856748, -69.861004 40.850950, -69.878771 40.845150, -69.896535 40.839347, -69.914296 40.833541, -69.932053 40.827733, -69.949808 40.821922, -69.967560 40.816108, -69.985308 40.810291, -70.003053 40.804472, -70.020795 40.798650, -70.038534 40.792825, -70.056270 40.786997, -70.074003 40.781167, -70.091733 40.775334, -70.109459 40.769499, -70.127183 40.763660, -70.144903 40.757819, -70.162620 40.751976, -70.180334 40.746129, -70.198045 40.740280, -70.215753 40.734428, -70.233458 40.728573, -70.251160 40.722716, -70.268858 40.716856, -70.286554 40.710993, -70.304246 40.705128, -70.321935 40.699260, -70.339621 40.693389, -70.357304 40.687516, -70.374984 40.681640, -70.392661 40.675761, -70.410334 40.669879, -70.428005 40.663995, -70.445672 40.658108, -70.463337 40.652218, -70.480998 40.646326, -70.498656 40.640431, -70.516311 40.634533, -70.533962 40.628633, -70.551611 40.622729, -70.569257 40.616824, -70.586899 40.610915, -70.604538 40.605004, -70.622174 40.599090, -70.639807 40.593174, -70.657437 40.587254, -70.675064 40.581333, -70.692688 40.575408, -70.710308 40.569481, -70.727926 40.563551, -70.745540 40.557618, -70.763151 40.551683, -70.780759 40.545745, -70.798364 40.539804, -70.815966 40.533861, -70.833565 40.527915, -70.851161 40.521966, -70.868753 40.516015, -70.886342 40.510061, -70.903929 40.504105, -70.921512 40.498145, -70.939092 40.492183, -70.956668 40.486219, -70.974242 40.480251, -70.991813 40.474281, -71.009380 40.468309, -71.026945 40.462334, -71.044506 40.456356, -71.062064 40.450375, -71.079619 40.444392, -71.097171 40.438406, -71.114719 40.432417, -71.132265 40.426426, -71.149807 40.420432, -71.167347 40.414436, -71.184883 40.408437, -71.202416 40.402435, -71.219946 40.396430, -71.237473 40.390423, -71.254997 40.384414, -71.272517 40.378401, -71.290035 40.372386, -71.307549 40.366369, -71.325060 40.360348, -71.342568 40.354325, -71.360073 40.348300, -71.377575 40.342271, -71.395074 40.336241, -71.412569 40.330207, -71.430062 40.324171, -71.447551 40.318132, -71.465037 40.312091, -71.482520 40.306047, -71.500000 40.300000, -71.519051 40.301501, -71.538103 40.302999, -71.557156 40.304494, -71.576210 40.305986, -71.595265 40.307475, -71.614320 40.308960, -71.633377 40.310443, -71.652434 40.311922, -71.671492 40.313399, -71.690551 40.314872, -71.709611 40.316342, -71.728671 40.317808, -71.747732 40.319272, -71.766795 40.320733, -71.785858 40.322190, -71.804921 40.323645, -71.823986 40.325096, -71.843051 40.326544, -71.862118 40.327989, -71.881185 40.329431, -71.900253 40.330869, -71.919321 40.332305, -71.938391 40.333737, -71.957461 40.335166, -71.976532 40.336593, -71.995604 40.338016, -72.014677 40.339435, -72.033751 40.340852, -72.052825 40.342266, -72.071900 40.343676, -72.090976 40.345084, -72.110053 40.346488, -72.129130 40.347889, -72.148209 40.349287, -72.167288 40.350682, -72.186368 40.352073, -72.205448 40.353462, -72.224530 40.354847, -72.243612 40.356230, -72.262695 40.357609, -72.281779 40.358985, -72.300864 40.360358, -72.319949 40.361727, -72.339035 40.363094, -72.358122 40.364457, -72.377210 40.365818, -72.396298 40.367175, -72.415387 40.368529, -72.434477 40.369880, -72.453568 40.371228, -72.472660 40.372572, -72.491752 40.373914, -72.510845 40.375252, -72.529939 40.376587, -72.549033 40.377919, -72.568129 40.379248, -72.587225 40.380574, -72.606321 40.381897, -72.625419 40.383216, -72.644517 40.384532, -72.663616 40.385846, -72.682716 40.387156, -72.701817 40.388463, -72.720918 40.389766, -72.740020 40.391067, -72.759123 40.392365, -72.778226 40.393659, -72.797331 40.394950, -72.816435 40.396238, -72.835541 40.397523, -72.854648 40.398805, -72.873755 40.400084, -72.892863 40.401359, -72.911971 40.402631, -72.931080 40.403901, -72.950191 40.405167, -72.969301 40.406430, -72.988413 40.407689, -73.007525 40.408946, -73.026638 40.410199, -73.045751 40.411450, -73.064866 40.412697, -73.083981 40.413941, -73.103096 40.415182, -73.122213 40.416420, -73.141330 40.417654, -73.160448 40.418886, -73.179566 40.420114, -73.198686 40.421339, -73.217806 40.422561, -73.236926 40.423780, -73.256047 40.424995, -73.275169 40.426208, -73.294292 40.427417, -73.313416 40.428624, -73.332540 40.429827, -73.351664 40.431027, -73.370790 40.432223, -73.389916 40.433417, -73.409043 40.434607, -73.428170 40.435795, -73.447298 40.436979, -73.466427 40.438160, -73.485557 40.439338, -73.504687 40.440513, -73.523818 40.441684, -73.542949 40.442853, -73.562081 40.444018, -73.581214 40.445180, -73.600347 40.446339, -73.619482 40.447495, -73.638616 40.448647, -73.657752 40.449797, -73.676888 40.450943, -73.696025 40.452086, -73.715162 40.453226, -73.734300 40.454363, -73.753439 40.455497, -73.772578 40.456627, -73.791718 40.457755, -73.810859 40.458879, -73.830000 40.460000, -73.839442 40.472639, -73.848887 40.485276, -73.858335 40.497913, -73.867788 40.510549, -73.877243 40.523185, -73.886703 40.535820, -73.896166 40.548454, -73.905632 40.561087, -73.915102 40.573719, -73.924576 40.586351, -73.934053 40.598981, -73.943534 40.611611, -73.953018 40.624241, -73.962506 40.636869, -73.971998 40.649497, -73.981493 40.662124, -73.990992 40.674750, -74.000494 40.687375, -74.010000 40.700000)
