MULTILINESTRING ((139.650000 35.450000, 139.668417 35.463540, 139.686840 35.477076, 139.705269 35.490610, 139.723705 35.504142, 139.742146 35.517670, 139.760594 35.531196, 139.779048 35.544718, 139.797508 35.558238, 139.815975 35.571756, 139.834448 35.585270, 139.852927 35.598781, 139.871412 35.612290, 139.889903 35.625796, 139.908401 35.639299, 139.926905 35.652799, 139.945415 35.666297, 139.963932 35.679791, 139.982455 35.693283, 140.000984 35.706772, 140.019519 35.720258, 140.038061 35.733741, 140.056608 35.747221, 140.075163 35.760699, 140.093723 35.774173, 140.112290 35.787645, 140.130863 35.801114, 140.149442 35.814580, 140.168028 35.828043, 140.186620 35.841504, 140.205218 35.854961, 140.223822 35.868416, 140.242433 35.881868, 140.261050 35.895317, 140.279674 35.908763, 140.298304 35.922206, 140.316940 35.935646, 140.335583 35.949083, 140.354231 35.962518, 140.372887 35.975949, 140.391548 35.989378, 140.410216 36.002804, 140.428890 36.016227, 140.447571 36.029647, 140.466258 36.043064, 140.484951 36.056478, 140.503651 36.069890, 140.522357 36.083298, 140.541070 36.096704, 140.559788 36.110106, 140.578514 36.123506, 140.597245 36.136903, 140.615983 36.150297, 140.634728 36.163688, 140.653479 36.177076, 140.672236 36.190461, 140.691000 36.203843, 140.709770 36.217222, 140.728546 36.230598, 140.747329 36.243972, 140.766119 36.257342, 140.784914 36.270710, 140.803717 36.284074, 140.822525 36.297436, 140.841340 36.310795, 140.860162 36.324150, 140.878990 36.337503, 140.897824 36.350853, 140.916665 36.364200, 140.935513 36.377544, 140.954367 36.390885, 140.973227 36.404223, 140.992094 36.417558, 141.010967 36.430890, 141.029847 36.444219, 141.048733 36.457545, 141.067626 36.470868, 141.086525 36.484188, 141.105431 36.497505, 141.124343 36.510819, 141.143262 36.524130, 141.162187 36.537439, 141.181119 36.550744, 141.200057 36.564046, 141.219002 36.577345, 141.237953 36.590641, 141.256911 36.603935, 141.275876 36.617225, 141.294847 36.630512, 141.313824 36.643796, 141.332808 36.657077, 141.351799 36.670356, 141.370796 36.683631, 141.389800 36.696903, 141.408810 36.710172, 141.427827 36.723438, 141.446850 36.736701, 141.465880 36.749961, 141.484917 36.763218, 141.503960 36.776472, 141.523009 36.789723, 141.542066 36.802971, 141.561129 36.816216, 141.580198 36.829458, 141.599274 36.842696, 141.618357 36.855932, 141.637446 36.869165, 141.656542 36.882394, 141.675645 36.895621, 141.694754 36.908844, 141.713870 36.922065, 141.732992 36.935282, 141.752121 36.948497, 141.771257 36.961708, 141.790399 36.974916, 141.809548 36.988121, 141.828704 37.001323, 141.847866 37.014522, 141.867035 37.027718, 141.886211 37.040911, 141.905393 37.054100, 141.924582 37.067287, 141.943777 37.080470, 141.962980 37.093651, 141.982189 37.106828, 142.001404 37.120002, 142.020627 37.133173, 142.039856 37.146341, 142.059091 37.159506, 142.078334 37.172668, 142.097583 37.185827, 142.116839 37.198982, 142.136101 37.212135, 142.155371 37.225284, 142.174647 37.238430, 142.193929 37.251573, 142.213219 37.264713, 142.232515 37.277850, 142.251818 37.290984, 142.271127 37.304114, 142.290444 37.317242, 142.309767 37.330366, 142.329097 37.343487, 142.348433 37.356605, 142.367777 37.369720, 142.387127 37.382832, 142.406484 37.395940, 142.425848 37.409045, 142.445218 37.422148, 142.464595 37.435247, 142.483979 37.448343, 142.503370 37.461435, 142.522768 37.474525, 142.542172 37.487611, 142.561583 37.500694, 142.581001 37.513774, 142.600426 37.526851, 142.619858 37.539925, 142.639296 37.552995, 142.658742 37.566063, 142.678194 37.579127, 142.697653 37.592188, 142.717118 37.605245, 142.736591 37.618300, 142.756070 37.631351, 142.775557 37.644399, 142.795050 37.657444, 142.814550 37.670486, 142.834056 37.683524, 142.853570 37.696560, 142.873091 37.709592, 142.892618 37.722620, 142.912152 37.735646, 142.931693 37.748668, 142.951241 37.761688, 142.970796 37.774704, 142.990358 37.787716, 143.009927 37.800726, 143.029502 37.813732, 143.049085 37.826735, 143.068674 37.839735, 143.088270 37.852731, 143.107874 37.865724, 143.127484 37.878714, 143.147101 37.891701, 143.166725 37.904685, 143.186355 37.917665, 143.205993 37.930642, 143.225638 37.943615, 143.245290 37.956586, 143.264948 37.969553, 143.284614 37.982517, 143.304286 37.995477, 143.323966 38.008435, 143.343652 38.021389, 143.363345 38.034340, 143.383046 38.047287, 143.402753 38.060231, 143.422467 38.073172, 143.442189 38.086110, 143.461917 38.099044, 143.481652 38.111975, 143.501394 38.124903, 143.521143 38.137827, 143.540900 38.150748, 143.560663 38.163666, 143.580433 38.176580, 143.600210 38.189492, 143.619994 38.202399, 143.639786 38.215304, 143.659584 38.228205, 143.679389 38.241103, 143.699201 38.253998, 143.719021 38.266889, 143.738847 38.279777, 143.758680 38.292661, 143.778521 38.305542, 143.798368 38.318420, 143.818223 38.331295, 143.838084 38.344166, 143.857953 38.357034, 143.877829 38.369898, 143.897712 38.382759, 143.917601 38.395617, 143.937498 38.408471, 143.957402 38.421322, 143.977313 38.434170, 143.997232 38.447014, 144.017157 38.459855, 144.037089 38.472693, 144.057029 38.485527, 144.076975 38.498357, 144.096929 38.511185, 144.116890 38.524009, 144.136858 38.536829, 144.156833 38.549647, 144.176815 38.562460, 144.196804 38.575271, 144.216800 38.588078, 144.236804 38.600881, 144.256815 38.613682, 144.276832 38.626478, 144.296857 38.639272, 144.316889 38.652062, 144.336929 38.664848, 144.356975 38.677631, 144.377029 38.690411, 144.397089 38.703187, 144.417157 38.715960, 144.437232 38.728730, 144.457315 38.741496, 144.477404 38.754258, 144.497501 38.767017, 144.517604 38.779773, 144.537715 38.792525, 144.557834 38.805274, 144.577959 38.818019, 144.598092 38.830761, 144.618231 38.843500, 144.638378 38.856235, 144.658533 38.868966, 144.678694 38.881694, 144.698863 38.894419, 144.719039 38.907140, 144.739222 38.919857, 144.759412 38.932571, 144.779610 38.945282, 144.799815 38.957989, 144.820027 38.970693, 144.840246 38.983393, 144.860473 38.996090, 144.880706 39.008783, 144.900947 39.021473, 144.921196 39.034159, 144.941452 39.046842, 144.961714 39.059521, 144.981985 39.072197, 145.002262 39.084869, 145.022547 39.097537, 145.042839 39.110203, 145.063138 39.122864, 145.083445 39.135522, 145.103759 39.148177, 145.124080 39.160828, 145.144409 39.173476, 145.164745 39.186120, 145.185088 39.198760, 145.205438 39.211397, 145.225796 39.224030, 145.246161 39.236660, 145.266534 39.249287, 145.286914 39.261909, 145.307301 39.274529, 145.327695 39.287144, 145.348097 39.299756, 145.368507 39.312365, 145.388923 39.324970, 145.409347 39.337571, 145.429778 39.350169, 145.450217 39.362763, 145.470663 39.375354, 145.491116 39.387941, 145.511577 39.400524, 145.532045 39.413104, 145.552521 39.425681, 145.573004 39.438253, 145.593494 39.450823, 145.613992 39.463388, 145.634497 39.475950, 145.655010 39.488508, 145.675530 39.501063, 145.696057 39.513614, 145.716592 39.526162, 145.737134 39.538706, 145.757684 39.551246, 145.778241 39.563783, 145.798805 39.576316, 145.819377 39.588845, 145.839957 39.601371, 145.860544 39.613893, 145.881138 39.626412, 145.901740 39.638926, 145.922349 39.651438, 145.942965 39.663945, 145.963589 39.676449, 145.984221 39.688950, 146.004860 39.701446, 146.025507 39.713939, 146.046161 39.726429, 146.066822 39.738914, 146.087491 39.751396, 146.108167 39.763875, 146.128851 39.776349, 146.149543 39.788820, 146.170242 39.801288, 146.190948 39.813751, 146.211662 39.826211, 146.232384 39.838668, 146.253113 39.851120, 146.273849 39.863569, 146.294593 39.876014, 146.315345 39.888456, 146.336104 39.900894, 146.356871 39.913328, 146.377645 39.925758, 146.398427 39.938185, 146.419216 39.950608, 146.440013 39.963027, 146.460817 39.975443, 146.481629 39.987855, 146.502448 40.000263, 146.523276 40.012667, 146.544110 40.025068, 146.564952 40.037465, 146.585802 40.049858, 146.606660 40.062247, 146.627525 40.074633, 146.648397 40.087015, 146.669277 40.099393, 146.690165 40.111768, 146.711060 40.124138, 146.731963 40.136505, 146.752874 40.148869, 146.773792 40.161228, 146.794718 40.173584, 146.815651 40.185936, 146.836592 40.198284, 146.857541 40.210628, 146.878497 40.222969, 146.899461 40.235305, 146.920433 40.247638, 146.941412 40.259968, 146.962399 40.272293, 146.983393 40.284615, 147.004395 40.296933, 147.025405 40.309247, 147.046423 40.321557, 147.067448 40.333863, 147.088481 40.346166, 147.109521 40.358465, 147.130569 40.370760, 147.151625 40.383051, 147.172689 40.395338, 147.193760 40.407622, 147.214839 40.419902, 147.235925 40.432178, 147.257020 40.444450, 147.278122 40.456718, 147.299231 40.468982, 147.320349 40.481243, 147.341474 40.493499, 147.362607 40.505752, 147.383747 40.518001, 147.404896 40.530246, 147.426052 40.542488, 147.447215 40.554725, 147.468387 40.566959, 147.489566 40.579188, 147.510753 40.591414, 147.531948 40.603636, 147.553150 40.615854, 147.574360 40.628069, 147.595578 40.640279, 147.616804 40.652485, 147.638038 40.664688, 147.659279 40.676887, 147.680528 40.689081, 147.701785 40.701272, 147.723050 40.713459, 147.744322 40.725642, 147.765602 40.737821, 147.786890 40.749997, 147.808186 40.762168, 147.829489 40.774335, 147.850801 40.786499, 147.872120 40.798658, 147.893447 40.810814, 147.914782 40.822966, 147.936125 40.835114, 147.957475 40.847257, 147.978833 40.859397, 148.000199 40.871533, 148.021573 40.883665, 148.042955 40.895794, 148.064345 40.907918, 148.085742 40.920038, 148.107147 40.932154, 148.128561 40.944266, 148.149982 40.956375, 148.171411 40.968479, 148.192847 40.980579, 148.214292 40.992676, 148.235744 41.004768, 148.257205 41.016857, 148.278673 41.028941, 148.300149 41.041022, 148.321633 41.053098, 148.343125 41.065171, 148.364625 41.077239, 148.386132 41.089304, 148.407648 41.101364, 148.429171 41.113421, 148.450703 41.125473, 148.472242 41.137522, 148.493789 41.149566, 148.515344 41.161607, 148.536907 41.173643, 148.558478 41.185675, 148.580057 41.197704, 148.601644 41.209728, 148.623239 41.221748, 148.644841 41.233765, 148.666452 41.245777, 148.688070 41.257785, 148.709697 41.269789, 148.731331 41.281790, 148.752974 41.293786, 148.774624 41.305778, 148.796283 41.317766, 148.817949 41.329749, 148.839623 41.341729, 148.861306 41.353705, 148.882996 41.365677, 148.904694 41.377644, 148.926400 41.389608, 148.948114 41.401567, 148.969837 41.413523, 148.991567 41.425474, 149.013305 41.437421, 149.035051 41.449364, 149.056805 41.461303, 149.078568 41.473238, 149.100338 41.485169, 149.122116 41.497096, 149.143902 41.509018, 149.165697 41.520937, 149.187499 41.532851, 149.209309 41.544761, 149.231128 41.556667, 149.252954 41.568569, 149.274788 41.580467, 149.296631 41.592361, 149.318481 41.604251, 149.340340 41.616136, 149.362207 41.628017, 149.384081 41.639895, 149.405964 41.651768, 149.427855 41.663636, 149.449754 41.675501, 149.471661 41.687362, 149.493576 41.699218, 149.515499 41.711070, 149.537430 41.722918, 149.559370 41.734762, 149.581317 41.746602, 149.603273 41.758438, 149.625236 41.770269, 149.647208 41.782096, 149.669188 41.793919, 149.691176 41.805738, 149.713172 41.817552, 149.735176 41.829363, 149.757188 41.841169, 149.779209 41.852971, 149.801237 41.864769, 149.823274 41.876562, 149.845319 41.888352, 149.867371 41.900137, 149.889433 41.911918, 149.911502 41.923695, 149.933579 41.935467, 149.955665 41.947235, 149.977758 41.958999, 149.999860 41.970759, 150.021970 41.982515, 150.044088 41.994266, 150.066214 42.006013, 150.088349 42.017756, 150.110492 42.029494, 150.132642 42.041228, 150.154801 42.052958, 150.176969 42.064684, 150.199144 42.076406, 150.221328 42.088123, 150.243519 42.099836, 150.265719 42.111545, 150.287927 42.123249, 150.310144 42.134949, 150.332368 42.146645, 150.354601 42.158336, 150.376842 42.170024, 150.399091 42.181706, 150.421349 42.193385, 150.443615 42.205059, 150.465888 42.216729, 150.488171 42.228395, 150.510461 42.240057, 150.532760 42.251714, 150.555066 42.263366, 150.577382 42.275015, 150.599705 42.286659, 150.622036 42.298299, 150.644376 42.309934, 150.666724 42.321565, 150.689081 42.333192, 150.711445 42.344814, 150.733818 42.356432, 150.756200 42.368046, 150.778589 42.379656, 150.800987 42.391261, 150.823393 42.402861, 150.845807 42.414457, 150.868230 42.426049, 150.890661 42.437637, 150.913100 42.449220, 150.935547 42.460799, 150.958003 42.472373, 150.980467 42.483943, 151.002940 42.495509, 151.025420 42.507070, 151.047909 42.518627, 151.070407 42.530179, 151.092912 42.541727, 151.115426 42.553271, 151.137949 42.564810, 151.160479 42.576345, 151.183018 42.587875, 151.205566 42.599401, 151.228121 42.610923, 151.250685 42.622440, 151.273258 42.633953, 151.295838 42.645461, 151.318427 42.656965, 151.341025 42.668464, 151.363631 42.679959, 151.386245 42.691450, 151.408867 42.702936, 151.431498 42.714417, 151.454137 42.725895, 151.476785 42.737367, 151.499441 42.748836, 151.522105 42.760299, 151.544778 42.771759, 151.567459 42.783213, 151.590149 42.794664, 151.612847 42.806110, 151.635553 42.817551, 151.658268 42.828988, 151.680991 42.840420, 151.703723 42.851848, 151.726463 42.863271, 151.749211 42.874690, 151.771968 42.886105, 151.794733 42.897515, 151.817507 42.908920, 151.840289 42.920321, 151.863080 42.931717, 151.885879 42.943109, 151.908686 42.954496, 151.931502 42.965879, 151.954326 42.977257, 151.977159 42.988631, 152.000000 43.000000, 152.025740 43.007399, 152.051487 43.014792, 152.077240 43.022179, 152.102999 43.029560, 152.128764 43.036936, 152.154535 43.044305, 152.180313 43.051669, 152.206097 43.059027, 152.231886 43.066380, 152.257683 43.073727, 152.283485 43.081067, 152.309293 43.088402, 152.335108 43.095732, 152.360929 43.103055, 152.386756 43.110373, 152.412589 43.117684, 152.438428 43.124990, 152.464274 43.132291, 152.490126 43.139585, 152.515983 43.146874, 152.541847 43.154156, 152.567718 43.161433, 152.593594 43.168704, 152.619476 43.175969, 152.645365 43.183229, 152.671260 43.190482, 152.697161 43.197730, 152.723068 43.204972, 152.748981 43.212208, 152.774901 43.219438, 152.800826 43.226662, 152.826758 43.233881, 152.852696 43.241093, 152.878640 43.248300, 152.904590 43.255501, 152.930546 43.262696, 152.956509 43.269885, 152.982477 43.277069, 153.008452 43.284246, 153.034433 43.291417, 153.060419 43.298583, 153.086413 43.305743, 153.112412 43.312897, 153.138417 43.320045, 153.164428 43.327187, 153.190446 43.334323, 153.216469 43.341453, 153.242499 43.348578, 153.268535 43.355696, 153.294577 43.362809, 153.320625 43.369915, 153.346679 43.377016, 153.372739 43.384111, 153.398806 43.391200, 153.424878 43.398283, 153.450957 43.405360, 153.477041 43.412431, 153.503132 43.419496, 153.529229 43.426555, 153.555332 43.433609, 153.581441 43.440656, 153.607556 43.447698, 153.633677 43.454733, 153.659804 43.461763, 153.685937 43.468786, 153.712077 43.475804, 153.738222 43.482816, 153.764374 43.489821, 153.790531 43.496821, 153.816695 43.503815, 153.842865 43.510803, 153.869040 43.517785, 153.895222 43.524761, 153.921410 43.531731, 153.947604 43.538695, 153.973804 43.545653, 154.000010 43.552605, 154.026222 43.559551, 154.052440 43.566491, 154.078664 43.573425, 154.104894 43.580353, 154.131130 43.587275, 154.157372 43.594191, 154.183621 43.601101, 154.209875 43.608005, 154.236135 43.614903, 154.262402 43.621795, 154.288674 43.628681, 154.314952 43.635561, 154.341237 43.642435, 154.367527 43.649303, 154.393824 43.656165, 154.420126 43.663020, 154.446434 43.669870, 154.472749 43.676714, 154.499069 43.683552, 154.525396 43.690384, 154.551728 43.697209, 154.578066 43.704029, 154.604411 43.710843, 154.630761 43.717650, 154.657118 43.724452, 154.683480 43.731247, 154.709848 43.738036, 154.736223 43.744820, 154.762603 43.751597, 154.788989 43.758368, 154.815381 43.765133, 154.841779 43.771892, 154.868184 43.778645, 154.894594 43.785392, 154.921010 43.792133, 154.947432 43.798867, 154.973860 43.805596, 155.000294 43.812319, 155.026734 43.819035, 155.053180 43.825745, 155.079631 43.832450, 155.106089 43.839148, 155.132553 43.845840, 155.159022 43.852526, 155.185498 43.859205, 155.211979 43.865879, 155.238467 43.872547, 155.264960 43.879208, 155.291459 43.885863, 155.317964 43.892513, 155.344475 43.899156, 155.370992 43.905793, 155.397515 43.912423, 155.424044 43.919048, 155.450579 43.925667, 155.477119 43.932279, 155.503666 43.938885, 155.530218 43.945485, 155.556777 43.952079, 155.583341 43.958667, 155.609911 43.965249, 155.636487 43.971824, 155.663069 43.978394, 155.689656 43.984957, 155.716250 43.991514, 155.742850 43.998065, 155.769455 44.004609, 155.796066 44.011148, 155.822683 44.017680, 155.849306 44.024206, 155.875935 44.030726, 155.902570 44.037240, 155.929210 44.043748, 155.955857 44.050249, 155.982509 44.056744, 156.009167 44.063233, 156.035831 44.069716, 156.062500 44.076192, 156.089176 44.082663, 156.115857 44.089127, 156.142545 44.095585, 156.169238 44.102037, 156.195937 44.108482, 156.222641 44.114922, 156.249352 44.121355, 156.276068 44.127782, 156.302790 44.134202, 156.329518 44.140617, 156.356252 44.147025, 156.382992 44.153427, 156.409737 44.159822, 156.436488 44.166212, 156.463245 44.172595, 156.490008 44.178972, 156.516776 44.185343, 156.543551 44.191707, 156.570331 44.198065, 156.597117 44.204417, 156.623908 44.210763, 156.650706 44.217103, 156.677509 44.223436, 156.704318 44.229763, 156.731133 44.236083, 156.757953 44.242398, 156.784779 44.248706, 156.811611 44.255007, 156.838449 44.261303, 156.865293 44.267592, 156.892142 44.273875, 156.918997 44.280152, 156.945857 44.286422, 156.972724 44.292686, 156.999596 44.298944, 157.026474 44.305195, 157.053358 44.311441, 157.080247 44.317680, 157.107142 44.323912, 157.134043 44.330138, 157.160949 44.336358, 157.187861 44.342572, 157.214779 44.348779, 157.241703 44.354980, 157.268632 44.361175, 157.295567 44.367363, 157.322508 44.373545, 157.349454 44.379721, 157.376406 44.385890, 157.403364 44.392053, 157.430327 44.398210, 157.457296 44.404360, 157.484271 44.410504, 157.511251 44.416641, 157.538237 44.422773, 157.565229 44.428897, 157.592226 44.435016, 157.619229 44.441128, 157.646238 44.447234, 157.673252 44.453333, 157.700272 44.459426, 157.727298 44.465513, 157.754329 44.471593, 157.781366 44.477667, 157.808408 44.483735, 157.835456 44.489796, 157.862510 44.495851, 157.889569 44.501899, 157.916634 44.507941, 157.943705 44.513977, 157.970781 44.520006, 157.997862 44.526029, 158.024950 44.532045, 158.052043 44.538055, 158.079141 44.544059, 158.106245 44.550056, 158.133355 44.556047, 158.160470 44.562031, 158.187591 44.568009, 158.214718 44.573981, 158.241850 44.579946, 158.268987 44.585905, 158.296130 44.591857, 158.323279 44.597803, 158.350433 44.603742, 158.377593 44.609675, 158.404758 44.615602, 158.431929 44.621522, 158.459105 44.627436, 158.486287 44.633343, 158.513475 44.639244, 158.540668 44.645138, 158.567866 44.651026, 158.595070 44.656907, 158.622280 44.662782, 158.649495 44.668651, 158.676716 44.674513, 158.703942 44.680368, 158.731173 44.686217, 158.758410 44.692060, 158.785653 44.697896, 158.812901 44.703726, 158.840155 44.709549, 158.867414 44.715365, 158.894678 44.721176, 158.921948 44.726979, 158.949223 44.732777, 158.976504 44.738567, 159.003791 44.744352, 159.031083 44.750129, 159.058380 44.755901, 159.085683 44.761665, 159.112991 44.767423, 159.140304 44.773175, 159.167623 44.778920, 159.194948 44.784659, 159.222278 44.790391, 159.249613 44.796117, 159.276954 44.801836, 159.304300 44.807549, 159.331652 44.813255, 159.359009 44.818954, 159.386371 44.824647, 159.413739 44.830334, 159.441112 44.836014, 159.468491 44.841687, 159.495875 44.847354, 159.523264 44.853014, 159.550659 44.858668, 159.578059 44.864315, 159.605465 44.869956, 159.632876 44.875590, 159.660292 44.881218, 159.687714 44.886839, 159.715140 44.892453, 159.742573 44.898061, 159.770010 44.903662, 159.797454 44.909257, 159.824902 44.914845, 159.852356 44.920427, 159.879815 44.926002, 159.907279 44.931570, 159.934749 44.937132, 159.962224 44.942687, 159.989704 44.948236, 160.017190 44.953778, 160.044680 44.959313, 160.072177 44.964842, 160.099678 44.970365, 160.127185 44.975880, 160.154697 44.981389, 160.182215 44.986892, 160.209737 44.992388, 160.237265 44.997877, 160.264798 45.003360, 160.292337 45.008836, 160.319881 45.014305, 160.347430 45.019768, 160.374984 45.025224, 160.402543 45.030673, 160.430108 45.036116, 160.457678 45.041553, 160.485253 45.046982, 160.512834 45.052405, 160.540420 45.057822, 160.568010 45.063231, 160.595607 45.068634, 160.623208 45.074031, 160.650814 45.079421, 160.678426 45.084804, 160.706043 45.090180, 160.733665 45.095550, 160.761293 45.100913, 160.788925 45.106270, 160.816563 45.111619, 160.844206 45.116963, 160.871854 45.122299, 160.899507 45.127629, 160.927166 45.132952, 160.954829 45.138268, 160.982498 45.143578, 161.010172 45.148881, 161.037851 45.154178, 161.065535 45.159467, 161.093224 45.164750, 161.120919 45.170027, 161.148618 45.175296, 161.176323 45.180559, 161.204033 45.185816, 161.231748 45.191065, 161.259468 45.196308, 161.287193 45.201544, 161.314923 45.206774, 161.342659 45.211996, 161.370399 45.217212, 161.398144 45.222422, 161.425895 45.227624, 161.453651 45.232820, 161.481411 45.238009, 161.509177 45.243192, 161.536948 45.248367, 161.564724 45.253536, 161.592505 45.258698, 161.620291 45.263854, 161.648082 45.269003, 161.675878 45.274145, 161.703679 45.279280, 161.731486 45.284408, 161.759297 45.289530, 161.787113 45.294645, 161.814934 45.299753, 161.842761 45.304855, 161.870592 45.309950, 161.898428 45.315038, 161.926269 45.320119, 161.954116 45.325193, 161.981967 45.330261, 162.009823 45.335322, 162.037684 45.340376, 162.065550 45.345423, 162.093422 45.350464, 162.121298 45.355498, 162.149179 45.360525, 162.177065 45.365545, 162.204956 45.370558, 162.232851 45.375565, 162.260752 45.380565, 162.288658 45.385558, 162.316569 45.390544, 162.344484 45.395524, 162.372405 45.400497, 162.400330 45.405462, 162.428261 45.410422, 162.456196 45.415374, 162.484136 45.420319, 162.512081 45.425258, 162.540031 45.430190, 162.567986 45.435115, 162.595945 45.440033, 162.623910 45.444944, 162.651879 45.449849, 162.679854 45.454747, 162.707833 45.459637, 162.735817 45.464521, 162.763806 45.469399, 162.791799 45.474269, 162.819798 45.479133, 162.847801 45.483989, 162.875809 45.488839, 162.903822 45.493682, 162.931840 45.498518, 162.959863 45.503348, 162.987890 45.508170, 163.015922 45.512986, 163.043959 45.517795, 163.072001 45.522596, 163.100047 45.527391, 163.128099 45.532180, 163.156155 45.536961, 163.184216 45.541735, 163.212281 45.546503, 163.240352 45.551264, 163.268427 45.556017, 163.296507 45.560764, 163.324592 45.565504, 163.352681 45.570238, 163.380775 45.574964, 163.408874 45.579683, 163.436978 45.584396, 163.465086 45.589101, 163.493199 45.593800, 163.521316 45.598492, 163.549439 45.603177, 163.577566 45.607855, 163.605698 45.612526, 163.633834 45.617190, 163.661975 45.621847, 163.690121 45.626498, 163.718272 45.631141, 163.746427 45.635778, 163.774587 45.640408, 163.802751 45.645030, 163.830920 45.649646, 163.859094 45.654255, 163.887272 45.658857, 163.915455 45.663452, 163.943643 45.668040, 163.971835 45.672621, 164.000032 45.677195, 164.028233 45.681763, 164.056439 45.686323, 164.084650 45.690876, 164.112865 45.695423, 164.141085 45.699962, 164.169309 45.704495, 164.197538 45.709021, 164.225772 45.713539, 164.254010 45.718051, 164.282253 45.722556, 164.310500 45.727054, 164.338752 45.731544, 164.367008 45.736028, 164.395269 45.740505, 164.423534 45.744975, 164.451804 45.749438, 164.480079 45.753894, 164.508357 45.758343, 164.536641 45.762785, 164.564929 45.767220, 164.593221 45.771648, 164.621518 45.776069, 164.649820 45.780483, 164.678125 45.784891, 164.706436 45.789291, 164.734751 45.793684, 164.763070 45.798070, 164.791394 45.802449, 164.819722 45.806821, 164.848054 45.811186, 164.876391 45.815545, 164.904733 45.819896, 164.933079 45.824240, 164.961429 45.828577, 164.989784 45.832907, 165.018143 45.837230, 165.046507 45.841546, 165.074875 45.845855, 165.103247 45.850157, 165.131624 45.854452, 165.160005 45.858740, 165.188390 45.863021, 165.216780 45.867295, 165.245174 45.871562, 165.273573 45.875822, 165.301976 45.880075, 165.330383 45.884321, 165.358795 45.888559, 165.387211 45.892791, 165.415631 45.897016, 165.444056 45.901233, 165.472484 45.905444, 165.500918 45.909647, 165.529355 45.913844, 165.557797 45.918033, 165.586243 45.922216, 165.614694 45.926391, 165.643148 45.930559, 165.671607 45.934720, 165.700070 45.938874, 165.728538 45.943021, 165.757010 45.947161, 165.785486 45.951294, 165.813966 45.955420, 165.842450 45.959539, 165.870939 45.963651, 165.899432 45.967755, 165.927929 45.971853, 165.956430 45.975943, 165.984936 45.980026, 166.013446 45.984103, 166.041960 45.988172, 166.070478 45.992234, 166.099000 45.996289, 166.127527 46.000337, 166.156057 46.004378, 166.184592 46.008411, 166.213131 46.012438, 166.241674 46.016457, 166.270222 46.020470, 166.298773 46.024475, 166.327329 46.028473, 166.355888 46.032464, 166.384452 46.036448, 166.413020 46.040425, 166.441592 46.044395, 166.470168 46.048357, 166.498748 46.052313, 166.527333 46.056261, 166.555921 46.060202, 166.584514 46.064136, 166.613110 46.068063, 166.641711 46.071983, 166.670316 46.075896, 166.698924 46.079801, 166.727537 46.083700, 166.756154 46.087591, 166.784775 46.091475, 166.813400 46.095352, 166.842029 46.099222, 166.870662 46.103084, 166.899299 46.106940, 166.927939 46.110788, 166.956584 46.114630, 166.985233 46.118464, 167.013886 46.122290, 167.042543 46.126110, 167.071204 46.129923, 167.099869 46.133728, 167.128538 46.137526, 167.157210 46.141318, 167.185887 46.145101, 167.214568 46.148878, 167.243252 46.152648, 167.271941 46.156410, 167.300633 46.160165, 167.329329 46.163913, 167.358030 46.167654, 167.386734 46.171388, 167.415442 46.175114, 167.444154 46.178834, 167.472869 46.182546, 167.501589 46.186251, 167.530313 46.189949, 167.559040 46.193639, 167.587771 46.197322, 167.616506 46.200999, 167.645245 46.204668, 167.673988 46.208329, 167.702735 46.211984, 167.731485 46.215631, 167.760239 46.219271, 167.788997 46.222904, 167.817759 46.226530, 167.846525 46.230148, 167.875294 46.233760, 167.904067 46.237364, 167.932844 46.240960, 167.961625 46.244550, 167.990410 46.248132, 168.019198 46.251708, 168.047990 46.255276, 168.076786 46.258836, 168.105585 46.262390, 168.134388 46.265936, 168.163195 46.269475, 168.192006 46.273007, 168.220820 46.276531, 168.249638 46.280049, 168.278460 46.283559, 168.307286 46.287062, 168.336115 46.290557, 168.364948 46.294045, 168.393784 46.297527, 168.422624 46.301000, 168.451468 46.304467, 168.480316 46.307926, 168.509167 46.311378, 168.538021 46.314823, 168.566880 46.318261, 168.595742 46.321691, 168.624607 46.325114, 168.653477 46.328530, 168.682349 46.331938, 168.711226 46.335340, 168.740106 46.338734, 168.768989 46.342120, 168.797877 46.345500, 168.826767 46.348872, 168.855662 46.352237, 168.884559 46.355594, 168.913461 46.358945, 168.942366 46.362288, 168.971274 46.365623, 169.000186 46.368952, 169.029102 46.372273, 169.058021 46.375587, 169.086943 46.378893, 169.115869 46.382193, 169.144799 46.385485, 169.173732 46.388769, 169.202668 46.392047, 169.231608 46.395317, 169.260552 46.398580, 169.289499 46.401835, 169.318449 46.405083, 169.347403 46.408324, 169.376360 46.411558, 169.405321 46.414784, 169.434285 46.418003, 169.463252 46.421215, 169.492223 46.424419, 169.521197 46.427616, 169.550175 46.430806, 169.579156 46.433988, 169.608141 46.437163, 169.637128 46.440331, 169.666120 46.443492, 169.695114 46.446645, 169.724112 46.449790, 169.753113 46.452929, 169.782118 46.456060, 169.811126 46.459184, 169.840137 46.462300, 169.869152 46.465409, 169.898170 46.468511, 169.927191 46.471605, 169.956215 46.474692, 169.985243 46.477772, 170.014274 46.480845, 170.043308 46.483910, 170.072346 46.486967, 170.101387 46.490018, 170.130431 46.493061, 170.159478 46.496096, 170.188529 46.499125, 170.217583 46.502146, 170.246640 46.505159, 170.275700 46.508165, 170.304763 46.511164, 170.333830 46.514156, 170.362900 46.517140, 170.391973 46.520117, 170.421049 46.523086, 170.450129 46.526048, 170.479211 46.529003, 170.508297 46.531950, 170.537386 46.534890, 170.566478 46.537823, 170.595573 46.540748, 170.624672 46.543666, 170.653773 46.546576, 170.682878 46.549479, 170.711985 46.552375, 170.741096 46.555263, 170.770210 46.558144, 170.799327 46.561017, 170.828447 46.563883, 170.857570 46.566742, 170.886696 46.569594, 170.915825 46.572437, 170.944958 46.575274, 170.974093 46.578103, 171.003231 46.580925, 171.032373 46.583739, 171.061517 46.586546, 171.090665 46.589346, 171.119815 46.592138, 171.148969 46.594923, 171.178125 46.597700, 171.207284 46.600470, 171.236447 46.603232, 171.265612 46.605988, 171.294780 46.608735, 171.323952 46.611476, 171.353126 46.614208, 171.382303 46.616934, 171.411483 46.619652, 171.440666 46.622362, 171.469852 46.625066, 171.499041 46.627761, 171.528233 46.630450, 171.557428 46.633131, 171.586625 46.635804, 171.615826 46.638470, 171.645029 46.641129, 171.674235 46.643780, 171.703444 46.646424, 171.732656 46.649060, 171.761871 46.651689, 171.791088 46.654311, 171.820309 46.656925, 171.849532 46.659531, 171.878758 46.662130, 171.907987 46.664722, 171.937218 46.667306, 171.966453 46.669883, 171.995690 46.672453, 172.024930 46.675014, 172.054173 46.677569, 172.083418 46.680116, 172.112666 46.682656, 172.141917 46.685188, 172.171171 46.687712, 172.200428 46.690230, 172.229687 46.692739, 172.258949 46.695242, 172.288213 46.697736, 172.317481 46.700224, 172.346751 46.702704, 172.376023 46.705176, 172.405299 46.707641, 172.434577 46.710099, 172.463857 46.712549, 172.493141 46.714991, 172.522427 46.717426, 172.551716 46.719854, 172.581007 46.722274, 172.610301 46.724687, 172.639597 46.727092, 172.668896 46.729490, 172.698198 46.731880, 172.727502 46.734263, 172.756809 46.736638, 172.786119 46.739006, 172.815431 46.741366, 172.844746 46.743719, 172.874063 46.746065, 172.903382 46.748402, 172.932705 46.750733, 172.962029 46.753056, 172.991357 46.755371, 173.020687 46.757679, 173.050019 46.759979, 173.079354 46.762272, 173.108691 46.764558, 173.138031 46.766836, 173.167373 46.769106, 173.196718 46.771369, 173.226065 46.773625, 173.255415 46.775873, 173.284767 46.778113, 173.314122 46.780346, 173.343479 46.782571, 173.372838 46.784789, 173.402200 46.787000, 173.431564 46.789202, 173.460931 46.791398, 173.490300 46.793586, 173.519671 46.795766, 173.549045 46.797939, 173.578421 46.800104, 173.607800 46.802262, 173.637181 46.804412, 173.666564 46.806555, 173.695949 46.808690, 173.725337 46.810818, 173.754728 46.812938, 173.784120 46.815051, 173.813515 46.817156, 173.842912 46.819254, 173.872311 46.821344, 173.901713 46.823427, 173.931117 46.825502, 173.960523 46.827569, 173.989932 46.829629, 174.019343 46.831682, 174.048756 46.833726, 174.078171 46.835764, 174.107588 46.837794, 174.137008 46.839816, 174.166430 46.841831, 174.195854 46.843838, 174.225280 46.845838, 174.254709 46.847830, 174.284139 46.849815, 174.313572 46.851792, 174.343007 46.853761, 174.372444 46.855723, 174.401884 46.857678, 174.431325 46.859624, 174.460768 46.861564, 174.490214 46.863496, 174.519662 46.865420, 174.549112 46.867337, 174.578564 46.869246, 174.608018 46.871147, 174.637474 46.873041, 174.666932 46.874928, 174.696393 46.876807, 174.725855 46.878678, 174.755319 46.880542, 174.784786 46.882398, 174.814254 46.884247, 174.843725 46.886088, 174.873197 46.887921, 174.902672 46.889747, 174.932149 46.891566, 174.961627 46.893377, 174.991108 46.895180, 175.020590 46.896976, 175.050075 46.898764, 175.079561 46.900544, 175.109050 46.902317, 175.138540 46.904083, 175.168032 46.905841, 175.197526 46.907591, 175.227023 46.909334, 175.256521 46.911069, 175.286021 46.912796, 175.315522 46.914516, 175.345026 46.916229, 175.374532 46.917933, 175.404039 46.919631, 175.433549 46.921320, 175.463060 46.923002, 175.492573 46.924677, 175.522088 46.926344, 175.551605 46.928003, 175.581123 46.929655, 175.610644 46.931299, 175.640166 46.932936, 175.669690 46.934565, 175.699216 46.936186, 175.728743 46.937800, 175.758272 46.939406, 175.787804 46.941005, 175.817336 46.942596, 175.846871 46.944179, 175.876407 46.945755, 175.905946 46.947323, 175.935485 46.948884, 175.965027 46.950437, 175.994570 46.951982, 176.024115 46.953520, 176.053662 46.955050, 176.083210 46.956573, 176.112760 46.958088, 176.142312 46.959595, 176.171865 46.961095, 176.201420 46.962587, 176.230977 46.964072, 176.260535 46.965549, 176.290095 46.967018, 176.319657 46.968480, 176.349220 46.969934, 176.378785 46.971381, 176.408351 46.972820, 176.437919 46.974251, 176.467488 46.975675, 176.497059 46.977091, 176.526632 46.978500, 176.556206 46.979901, 176.585782 46.981294, 176.615359 46.982680, 176.644938 46.984058, 176.674518 46.985428, 176.704100 46.986791, 176.733684 46.988146, 176.763268 46.989494, 176.792855 46.990834, 176.822443 46.992166, 176.852032 46.993491, 176.881623 46.994808, 176.911215 46.996117, 176.940808 46.997419, 176.970403 46.998713, 177.000000 47.000000, 177.028420 47.005726, 177.056846 47.011446, 177.085278 47.017158, 177.113717 47.022863, 177.142161 47.028562, 177.170612 47.034253, 177.199068 47.039937, 177.227531 47.045614, 177.255999 47.051284, 177.284474 47.056947, 177.312955 47.062603, 177.341441 47.068252, 177.369934 47.073894, 177.398433 47.079529, 177.426938 47.085156, 177.455449 47.090777, 177.483966 47.096391, 177.512488 47.101997, 177.541017 47.107596, 177.569552 47.113189, 177.598093 47.118774, 177.626640 47.124352, 177.655193 47.129923, 177.683752 47.135487, 177.712317 47.141044, 177.740887 47.146594, 177.769464 47.152136, 177.798047 47.157672, 177.826635 47.163200, 177.855230 47.168721, 177.883831 47.174236, 177.912437 47.179743, 177.941049 47.185242, 177.969668 47.190735, 177.998292 47.196221, 178.026922 47.201700, 178.055558 47.207171, 178.084200 47.212635, 178.112848 47.218092, 178.141502 47.223542, 178.170162 47.228985, 178.198827 47.234421, 178.227499 47.239849, 178.256176 47.245271, 178.284859 47.250685, 178.313548 47.256092, 178.342243 47.261492, 178.370944 47.266885, 178.399650 47.272270, 178.428363 47.277649, 178.457081 47.283020, 178.485805 47.288384, 178.514535 47.293741, 178.543271 47.299091, 178.572012 47.304433, 178.600760 47.309769, 178.629513 47.315097, 178.658272 47.320418, 178.687036 47.325732, 178.715807 47.331038, 178.744583 47.336337, 178.773365 47.341630, 178.802153 47.346915, 178.830947 47.352192, 178.859746 47.357463, 178.888551 47.362726, 178.917362 47.367982, 178.946178 47.373231, 178.975001 47.378473, 179.003829 47.383707, 179.032663 47.388934, 179.061502 47.394154, 179.090347 47.399367, 179.119198 47.404573, 179.148055 47.409771, 179.176917 47.414962, 179.205785 47.420146, 179.234659 47.425322, 179.263538 47.430491, 179.292423 47.435653, 179.321313 47.440808, 179.350210 47.445956, 179.379112 47.451096, 179.408019 47.456229, 179.436933 47.461355, 179.465852 47.466473, 179.494776 47.471584, 179.523706 47.476688, 179.552642 47.481785, 179.581583 47.486874, 179.610530 47.491956, 179.639483 47.497031, 179.668441 47.502098, 179.697405 47.507159, 179.726374 47.512211, 179.755349 47.517257, 179.784329 47.522295, 179.813315 47.527326, 179.842307 47.532350, 179.871304 47.537366, 179.900307 47.542376, 179.929315 47.547377, 179.958329 47.552372, 179.987348 47.557359, 180.000000 47.559530), (-180.000000 47.559530, -179.983627 47.562339, -179.954597 47.567311, -179.925561 47.572276, -179.896520 47.577234, -179.867473 47.582185, -179.838420 47.587128, -179.809363 47.592064, -179.780299 47.596992, -179.751231 47.601913, -179.722156 47.606827, -179.693077 47.611733, -179.663992 47.616633, -179.634901 47.621524, -179.605805 47.626409, -179.576704 47.631286, -179.547597 47.636155, -179.518484 47.641018, -179.489367 47.645873, -179.460244 47.650720, -179.431115 47.655560, -179.401981 47.660393, -179.372842 47.665219, -179.343697 47.670037, -179.314547 47.674847, -179.285392 47.679651, -179.256231 47.684447, -179.227065 47.689235, -179.197893 47.694016, -179.168716 47.698790, -179.139534 47.703556, -179.110346 47.708315, -179.081154 47.713067, -179.051955 47.717811, -179.022752 47.722548, -178.993543 47.727277, -178.964329 47.731999, -178.935110 47.736713, -178.905885 47.741420, -178.876655 47.746120, -178.847420 47.750812, -178.818179 47.755497, -178.788933 47.760175, -178.759682 47.764844, -178.730426 47.769507, -178.701165 47.774162, -178.671898 47.778810, -178.642626 47.783450, -178.613349 47.788083, -178.584066 47.792708, -178.554779 47.797326, -178.525486 47.801936, -178.496188 47.806539, -178.466884 47.811135, -178.437576 47.815723, -178.408262 47.820303, -178.378944 47.824876, -178.349620 47.829442, -178.320291 47.834000, -178.290957 47.838551, -178.261617 47.843094, -178.232273 47.847630, -178.202923 47.852158, -178.173568 47.856679, -178.144209 47.861192, -178.114844 47.865698, -178.085473 47.870196, -178.056098 47.874687, -178.026718 47.879171, -177.997333 47.883646, -177.967942 47.888115, -177.938547 47.892576, -177.909146 47.897029, -177.879741 47.901475, -177.850330 47.905913, -177.820914 47.910344, -177.791494 47.914767, -177.762068 47.919183, -177.732637 47.923591, -177.703202 47.927992, -177.673761 47.932385, -177.644315 47.936771, -177.614864 47.941149, -177.585408 47.945520, -177.555948 47.949883, -177.526482 47.954239, -177.497011 47.958587, -177.467536 47.962927, -177.438055 47.967260, -177.408570 47.971586, -177.379079 47.975903, -177.349584 47.980214, -177.320084 47.984517, -177.290578 47.988812, -177.261068 47.993099, -177.231553 47.997380, -177.202033 48.001652, -177.172509 48.005917, -177.142979 48.010174, -177.113444 48.014424, -177.083905 48.018667, -177.054361 48.022901, -177.024812 48.027128, -176.995258 48.031348, -176.965699 48.035560, -176.936135 48.039764, -176.906567 48.043961, -176.876994 48.048150, -176.847416 48.052332, -176.817833 48.056506, -176.788245 48.060672, -176.758653 48.064831, -176.729055 48.068982, -176.699453 48.073126, -176.669847 48.077262, -176.640235 48.081390, -176.610619 48.085511, -176.580998 48.089624, -176.551372 48.093730, -176.521742 48.097828, -176.492107 48.101918, -176.462467 48.106001, -176.432822 48.110076, -176.403173 48.114144, -176.373519 48.118203, -176.343860 48.122256, -176.314197 48.126300, -176.284529 48.130337, -176.254856 48.134366, -176.225179 48.138388, -176.195497 48.142402, -176.165810 48.146409, -176.136119 48.150407, -176.106423 48.154398, -176.076723 48.158382, -176.047018 48.162358, -176.017308 48.166326, -175.987594 48.170286, -175.957875 48.174239, -175.928151 48.178184, -175.898423 48.182122, -175.868691 48.186052, -175.838954 48.189974, -175.809212 48.193888, -175.779466 48.197795, -175.749715 48.201694, -175.719960 48.205586, -175.690200 48.209470, -175.660436 48.213346, -175.630667 48.217214, -175.600893 48.221075, -175.571116 48.224928, -175.541333 48.228773, -175.511547 48.232611, -175.481755 48.236441, -175.451960 48.240263, -175.422160 48.244078, -175.392355 48.247885, -175.362546 48.251684, -175.332733 48.255475, -175.302915 48.259259, -175.273093 48.263035, -175.243266 48.266804, -175.213435 48.270564, -175.183600 48.274317, -175.153760 48.278062, -175.123916 48.281800, -175.094067 48.285529, -175.064214 48.289251, -175.034357 48.292966, -175.004496 48.296672, -174.974630 48.300371, -174.944759 48.304062, -174.914885 48.307746, -174.885006 48.311421, -174.855123 48.315089, -174.825235 48.318749, -174.795344 48.322402, -174.765448 48.326046, -174.735547 48.329683, -174.705643 48.333312, -174.675734 48.336934, -174.645821 48.340548, -174.615904 48.344153, -174.585982 48.347752, -174.556057 48.351342, -174.526127 48.354925, -174.496193 48.358499, -174.466254 48.362067, -174.436312 48.365626, -174.406365 48.369177, -174.376414 48.372721, -174.346459 48.376257, -174.316500 48.379785, -174.286537 48.383306, -174.256569 48.386818, -174.226597 48.390323, -174.196622 48.393820, -174.166642 48.397310, -174.136658 48.400791, -174.106670 48.404265, -174.076678 48.407731, -174.046681 48.411189, -174.016681 48.414639, -173.986677 48.418082, -173.956668 48.421517, -173.926656 48.424944, -173.896639 48.428363, -173.866619 48.431774, -173.836594 48.435177, -173.806566 48.438573, -173.776533 48.441961, -173.746496 48.445341, -173.716456 48.448713, -173.686411 48.452078, -173.656362 48.455434, -173.626310 48.458783, -173.596253 48.462124, -173.566193 48.465457, -173.536129 48.468783, -173.506060 48.472100, -173.475988 48.475410, -173.445912 48.478712, -173.415832 48.482005, -173.385748 48.485292, -173.355660 48.488570, -173.325568 48.491840, -173.295472 48.495103, -173.265373 48.498358, -173.235269 48.501605, -173.205162 48.504844, -173.175051 48.508075, -173.144936 48.511298, -173.114817 48.514514, -173.084695 48.517721, -173.054568 48.520921, -173.024438 48.524113, -172.994304 48.527297, -172.964167 48.530473, -172.934025 48.533642, -172.903880 48.536802, -172.873731 48.539955, -172.843578 48.543099, -172.813421 48.546236, -172.783261 48.549365, -172.753097 48.552486, -172.722929 48.555599, -172.692758 48.558705, -172.662583 48.561802, -172.632404 48.564892, -172.602221 48.567973, -172.572035 48.571047, -172.541845 48.574113, -172.511652 48.577171, -172.481455 48.580221, -172.451254 48.583263, -172.421049 48.586298, -172.390841 48.589324, -172.360630 48.592343, -172.330414 48.595353, -172.300196 48.598356, -172.269973 48.601351, -172.239747 48.604337, -172.209518 48.607316, -172.179284 48.610287, -172.149048 48.613251, -172.118807 48.616206, -172.088564 48.619153, -172.058316 48.622092, -172.028065 48.625024, -171.997811 48.627947, -171.967553 48.630863, -171.937292 48.633771, -171.907027 48.636671, -171.876759 48.639562, -171.846487 48.642446, -171.816212 48.645322, -171.785933 48.648190, -171.755651 48.651050, -171.725365 48.653902, -171.695076 48.656747, -171.664784 48.659583, -171.634488 48.662411, -171.604189 48.665232, -171.573886 48.668044, -171.543581 48.670849, -171.513271 48.673645, -171.482959 48.676434, -171.452643 48.679214, -171.422323 48.681987, -171.392000 48.684752, -171.361674 48.687509, -171.331345 48.690257, -171.301012 48.692998, -171.270677 48.695731, -171.240337 48.698456, -171.209995 48.701173, -171.179649 48.703882, -171.149300 48.706583, -171.118948 48.709276, -171.088592 48.711961, -171.058233 48.714638, -171.027871 48.717307, -170.997506 48.719968, -170.967138 48.722621, -170.936766 48.725267, -170.906391 48.727904, -170.876013 48.730533, -170.845632 48.733154, -170.815248 48.735767, -170.784860 48.738373, -170.754470 48.740970, -170.724076 48.743559, -170.693679 48.746140, -170.663279 48.748714, -170.632876 48.751279, -170.602469 48.753836, -170.572060 48.756386, -170.541648 48.758927, -170.511232 48.761460, -170.480814 48.763985, -170.450392 48.766503, -170.419967 48.769012, -170.389540 48.771513, -170.359109 48.774006, -170.328675 48.776492, -170.298239 48.778969, -170.267799 48.781438, -170.237356 48.783899, -170.206911 48.786352, -170.176462 48.788797, -170.146010 48.791235, -170.115556 48.793664, -170.085098 48.796085, -170.054638 48.798498, -170.024174 48.800903, -169.993708 48.803300, -169.963239 48.805689, -169.932767 48.808070, -169.902292 48.810443, -169.871814 48.812808, -169.841333 48.815164, -169.810849 48.817513, -169.780363 48.819854, -169.749874 48.822187, -169.719381 48.824511, -169.688886 48.826828, -169.658389 48.829137, -169.627888 48.831437, -169.597385 48.833730, -169.566879 48.836014, -169.536370 48.838290, -169.505858 48.840559, -169.475343 48.842819, -169.444826 48.845071, -169.414306 48.847316, -169.383784 48.849552, -169.353258 48.851780, -169.322730 48.854000, -169.292199 48.856212, -169.261666 48.858416, -169.231129 48.860611, -169.200591 48.862799, -169.170049 48.864979, -169.139505 48.867151, -169.108958 48.869314, -169.078408 48.871470, -169.047856 48.873617, -169.017302 48.875756, -168.986744 48.877888, -168.956184 48.880011, -168.925622 48.882126, -168.895057 48.884233, -168.864489 48.886332, -168.833919 48.888423, -168.803346 48.890506, -168.772771 48.892581, -168.742193 48.894647, -168.711612 48.896706, -168.681030 48.898756, -168.650444 48.900799, -168.619856 48.902833, -168.589266 48.904859, -168.558673 48.906877, -168.528078 48.908887, -168.497480 48.910889, -168.466880 48.912883, -168.436277 48.914869, -168.405672 48.916847, -168.375064 48.918816, -168.344454 48.920778, -168.313842 48.922731, -168.283227 48.924676, -168.252610 48.926613, -168.221991 48.928542, -168.191369 48.930463, -168.160745 48.932376, -168.130118 48.934281, -168.099489 48.936177, -168.068858 48.938066, -168.038225 48.939946, -168.007589 48.941819, -167.976951 48.943683, -167.946310 48.945539, -167.915668 48.947387, -167.885023 48.949227, -167.854376 48.951058, -167.823726 48.952882, -167.793075 48.954697, -167.762421 48.956505, -167.731765 48.958304, -167.701106 48.960095, -167.670446 48.961878, -167.639783 48.963653, -167.609118 48.965419, -167.578451 48.967178, -167.547782 48.968929, -167.517111 48.970671, -167.486437 48.972405, -167.455762 48.974131, -167.425084 48.975849, -167.394404 48.977559, -167.363722 48.979260, -167.333038 48.980954, -167.302352 48.982639, -167.271664 48.984317, -167.240974 48.985986, -167.210282 48.987647, -167.179587 48.989300, -167.148891 48.990944, -167.118192 48.992581, -167.087492 48.994209, -167.056790 48.995829, -167.026085 48.997442, -166.995379 48.999045, -166.964671 49.000641, -166.933960 49.002229, -166.903248 49.003808, -166.872534 49.005380, -166.841818 49.006943, -166.811100 49.008498, -166.780380 49.010045, -166.749658 49.011584, -166.718934 49.013114, -166.688208 49.014637, -166.657481 49.016151, -166.626752 49.017657, -166.596020 49.019155, -166.565287 49.020645, -166.534552 49.022126, -166.503816 49.023600, -166.473077 49.025065, -166.442337 49.026522, -166.411594 49.027971, -166.380850 49.029412, -166.350105 49.030845, -166.319357 49.032269, -166.288608 49.033685, -166.257857 49.035094, -166.227104 49.036494, -166.196350 49.037885, -166.165594 49.039269, -166.134836 49.040644, -166.104076 49.042012, -166.073315 49.043371, -166.042552 49.044722, -166.011787 49.046064, -165.981021 49.047399, -165.950253 49.048725, -165.919484 49.050044, -165.888713 49.051354, -165.857940 49.052655, -165.827165 49.053949, -165.796389 49.055234, -165.765612 49.056512, -165.734833 49.057781, -165.704052 49.059042, -165.673270 49.060295, -165.642486 49.061539, -165.611701 49.062775, -165.580914 49.064004, -165.550125 49.065224, -165.519335 49.066435, -165.488544 49.067639, -165.457751 49.068834, -165.426957 49.070022, -165.396161 49.071201, -165.365364 49.072372, -165.334565 49.073534, -165.303765 49.074689, -165.272963 49.075835, -165.242160 49.076973, -165.211356 49.078103, -165.180550 49.079224, -165.149743 49.080338, -165.118934 49.081443, -165.088124 49.082540, -165.057313 49.083629, -165.026500 49.084710, -164.995686 49.085782, -164.964871 49.086847, -164.934054 49.087903, -164.903236 49.088950, -164.872417 49.089990, -164.841596 49.091022, -164.810775 49.092045, -164.779952 49.093060, -164.749127 49.094067, -164.718302 49.095065, -164.687475 49.096056, -164.656647 49.097038, -164.625818 49.098012, -164.594987 49.098978, -164.564156 49.099935, -164.533323 49.100885, -164.502489 49.101826, -164.471654 49.102759, -164.440817 49.103683, -164.409980 49.104600, -164.379141 49.105508, -164.348302 49.106408, -164.317461 49.107300, -164.286619 49.108184, -164.255776 49.109059, -164.224932 49.109927, -164.194087 49.110786, -164.163240 49.111636, -164.132393 49.112479, -164.101545 49.113313, -164.070695 49.114139, -164.039845 49.114957, -164.008994 49.115767, -163.978141 49.116568, -163.947288 49.117362, -163.916433 49.118147, -163.885578 49.118924, -163.854722 49.119692, -163.823864 49.120453, -163.793006 49.121205, -163.762147 49.121949, -163.731287 49.122684, -163.700426 49.123412, -163.669564 49.124131, -163.638701 49.124842, -163.607838 49.125545, -163.576973 49.126239, -163.546108 49.126926, -163.515242 49.127604, -163.484375 49.128274, -163.453507 49.128935, -163.422638 49.129589, -163.391768 49.130234, -163.360898 49.130871, -163.330027 49.131500, -163.299155 49.132120, -163.268283 49.132732, -163.237409 49.133336, -163.206535 49.133932, -163.175660 49.134520, -163.144785 49.135099, -163.113908 49.135670, -163.083031 49.136233, -163.052153 49.136788, -163.021275 49.137334, -162.990396 49.137872, -162.959516 49.138402, -162.928636 49.138924, -162.897755 49.139437, -162.866873 49.139943, -162.835991 49.140440, -162.805108 49.140928, -162.774224 49.141409, -162.743340 49.141881, -162.712455 49.142345, -162.681570 49.142801, -162.650684 49.143249, -162.619798 49.143688, -162.588911 49.144119, -162.558023 49.144542, -162.527135 49.144957, -162.496247 49.145363, -162.465358 49.145761, -162.434468 49.146151, -162.403578 49.146533, -162.372688 49.146906, -162.341797 49.147271, -162.310906 49.147628, -162.280014 49.147977, -162.249122 49.148317, -162.218229 49.148650, -162.187336 49.148974, -162.156442 49.149289, -162.125549 49.149597, -162.094654 49.149896, -162.063760 49.150187, -162.032865 49.150470, -162.001969 49.150744, -161.971074 49.151011, -161.940178 49.151269, -161.909282 49.151518, -161.878385 49.151760, -161.847488 49.151993, -161.816591 49.152218, -161.785693 49.152435, -161.754796 49.152644, -161.723898 49.152844, -161.693000 49.153036, -161.662101 49.153220, -161.631202 49.153396, -161.600303 49.153563, -161.569404 49.153722, -161.538505 49.153873, -161.507606 49.154016, -161.476706 49.154150, -161.445806 49.154276, -161.414906 49.154394, -161.384006 49.154504, -161.353106 49.154605, -161.322206 49.154698, -161.291305 49.154783, -161.260405 49.154860, -161.229504 49.154928, -161.198603 49.154989, -161.167702 49.155040, -161.136801 49.155084, -161.105901 49.155120, -161.075000 49.155147, -161.044099 49.155166, -161.013198 49.155176, -160.982297 49.155179, -160.951396 49.155173, -160.920495 49.155159, -160.889594 49.155137, -160.858693 49.155106, -160.827792 49.155068, -160.796891 49.155021, -160.765990 49.154965, -160.735090 49.154902, -160.704189 49.154830, -160.673288 49.154750, -160.642388 49.154662, -160.611488 49.154565, -160.580587 49.154461, -160.549687 49.154348, -160.518788 49.154226, -160.487888 49.154097, -160.456988 49.153959, -160.426089 49.153813, -160.395190 49.153659, -160.364291 49.153497, -160.333392 49.153326, -160.302493 49.153147, -160.271595 49.152960, -160.240697 49.152765, -160.209799 49.152561, -160.178901 49.152349, -160.148004 49.152129, -160.117107 49.151900, -160.086210 49.151664, -160.055314 49.151419, -160.024417 49.151166, -159.993522 49.150904, -159.962626 49.150635, -159.931731 49.150357, -159.900836 49.150071, -159.869942 49.149777, -159.839048 49.149474, -159.808154 49.149163, -159.777261 49.148844, -159.746368 49.148517, -159.715475 49.148181, -159.684583 49.147838, -159.653692 49.147486, -159.622800 49.147125, -159.591910 49.146757, -159.561019 49.146380, -159.530130 49.145995, -159.499240 49.145602, -159.468351 49.145200, -159.437463 49.144791, -159.406575 49.144373, -159.375688 49.143947, -159.344801 49.143512, -159.313915 49.143069, -159.283030 49.142619, -159.252144 49.142159, -159.221260 49.141692, -159.190376 49.141217, -159.159493 49.140733, -159.128610 49.140241, -159.097728 49.139740, -159.066847 49.139232, -159.035966 49.138715, -159.005086 49.138190, -158.974206 49.137657, -158.943327 49.137115, -158.912449 49.136565, -158.881572 49.136008, -158.850695 49.135441, -158.819819 49.134867, -158.788944 49.134284, -158.758069 49.133693, -158.727195 49.133094, -158.696322 49.132487, -158.665450 49.131871, -158.634578 49.131248, -158.603707 49.130615, -158.572837 49.129975, -158.541968 49.129327, -158.511100 49.128670, -158.480232 49.128005, -158.449366 49.127332, -158.418500 49.126650, -158.387635 49.125961, -158.356770 49.125263, -158.325907 49.124557, -158.295045 49.123842, -158.264183 49.123120, -158.233323 49.122389, -158.202463 49.121650, -158.171604 49.120903, -158.140746 49.120148, -158.109890 49.119384, -158.079034 49.118612, -158.048179 49.117832, -158.017325 49.117043, -157.986472 49.116247, -157.955620 49.115442, -157.924769 49.114629, -157.893919 49.113808, -157.863070 49.112978, -157.832222 49.112141, -157.801375 49.111295, -157.770529 49.110441, -157.739684 49.109579, -157.708841 49.108708, -157.677998 49.107829, -157.647157 49.106942, -157.616316 49.106047, -157.585477 49.105144, -157.554639 49.104232, -157.523802 49.103312, -157.492966 49.102384, -157.462131 49.101448, -157.431298 49.100504, -157.400465 49.099551, -157.369634 49.098590, -157.338804 49.097621, -157.307976 49.096644, -157.277148 49.095658, -157.246322 49.094664, -157.215497 49.093662, -157.184673 49.092652, -157.153850 49.091634, -157.123029 49.090607, -157.092209 49.089573, -157.061390 49.088530, -157.030573 49.087479, -156.999757 49.086419, -156.968942 49.085352, -156.938129 49.084276, -156.907317 49.083192, -156.876506 49.082100, -156.845696 49.080999, -156.814888 49.079891, -156.784082 49.078774, -156.753276 49.077649, -156.722473 49.076516, -156.691670 49.075375, -156.660869 49.074225, -156.630069 49.073067, -156.599271 49.071901, -156.568475 49.070727, -156.537679 49.069545, -156.506886 49.068354, -156.476093 49.067156, -156.445303 49.065949, -156.414513 49.064734, -156.383725 49.063510, -156.352939 49.062279, -156.322154 49.061039, -156.291371 49.059791, -156.260590 49.058535, -156.229809 49.057271, -156.199031 49.055999, -156.168254 49.054718, -156.137479 49.053429, -156.106705 49.052132, -156.075933 49.050827, -156.045162 49.049514, -156.014393 49.048192, -155.983626 49.046863, -155.952861 49.045525, -155.922097 49.044179, -155.891334 49.042825, -155.860574 49.041462, -155.829815 49.040092, -155.799058 49.038713, -155.768302 49.037326, -155.737548 49.035931, -155.706796 49.034528, -155.676046 49.033116, -155.645298 49.031697, -155.614551 49.030269, -155.583806 49.028833, -155.553063 49.027389, -155.522321 49.025937, -155.491582 49.024476, -155.460844 49.023008, -155.430108 49.021531, -155.399373 49.020046, -155.368641 49.018553, -155.337911 49.017052, -155.307182 49.015542, -155.276455 49.014025, -155.245730 49.012499, -155.215007 49.010965, -155.184286 49.009423, -155.153567 49.007873, -155.122850 49.006315, -155.092134 49.004748, -155.061421 49.003174, -155.030710 49.001591, -155.000000 49.000000, -154.969603 49.003345, -154.939201 49.006682, -154.908796 49.010011, -154.878386 49.013332, -154.847973 49.016645, -154.817555 49.019950, -154.787134 49.023247, -154.756708 49.026536, -154.726278 49.029817, -154.695845 49.033090, -154.665407 49.036355, -154.634965 49.039612, -154.604519 49.042861, -154.574070 49.046102, -154.543616 49.049335, -154.513159 49.052560, -154.482697 49.055777, -154.452232 49.058986, -154.421762 49.062187, -154.391289 49.065380, -154.360812 49.068565, -154.330331 49.071741, -154.299846 49.074910, -154.269357 49.078071, -154.238864 49.081224, -154.208367 49.084368, -154.177867 49.087505, -154.147363 49.090634, -154.116854 49.093754, -154.086342 49.096867, -154.055827 49.099972, -154.025307 49.103068, -153.994784 49.106156, -153.964256 49.109237, -153.933725 49.112309, -153.903191 49.115373, -153.872652 49.118430, -153.842110 49.121478, -153.811564 49.124518, -153.781014 49.127550, -153.750460 49.130574, -153.719903 49.133590, -153.689342 49.136598, -153.658777 49.139598, -153.628209 49.142589, -153.597637 49.145573, -153.567061 49.148549, -153.536482 49.151516, -153.505899 49.154476, -153.475312 49.157427, -153.444721 49.160370, -153.414127 49.163306, -153.383530 49.166233, -153.352929 49.169152, -153.322324 49.172063, -153.291715 49.174966, -153.261103 49.177860, -153.230488 49.180747, -153.199869 49.183626, -153.169246 49.186496, -153.138620 49.189358, -153.107990 49.192213, -153.077356 49.195059, -153.046720 49.197897, -153.016079 49.200727, -152.985435 49.203549, -152.954788 49.206363, -152.924137 49.209168, -152.893483 49.211966, -152.862825 49.214755, -152.832164 49.217537, -152.801499 49.220310, -152.770831 49.223075, -152.740159 49.225832, -152.709485 49.228581, -152.678806 49.231322, -152.648124 49.234054, -152.617439 49.236779, -152.586751 49.239495, -152.556059 49.242203, -152.525364 49.244903, -152.494665 49.247595, -152.463963 49.250279, -152.433258 49.252955, -152.402549 49.255622, -152.371837 49.258282, -152.341122 49.260933, -152.310403 49.263576, -152.279681 49.266211, -152.248956 49.268838, -152.218228 49.271457, -152.187496 49.274067, -152.156761 49.276670, -152.126023 49.279264, -152.095282 49.281850, -152.064537 49.284428, -152.033790 49.286998, -152.003039 49.289559, -151.972285 49.292113, -151.941527 49.294658, -151.910767 49.297195, -151.880003 49.299724, -151.849236 49.302245, -151.818466 49.304758, -151.787693 49.307262, -151.756917 49.309758, -151.726138 49.312246, -151.695355 49.314726, -151.664570 49.317198, -151.633781 49.319662, -151.602989 49.322117, -151.572194 49.324564, -151.541397 49.327003, -151.510596 49.329434, -151.479792 49.331857, -151.448985 49.334271, -151.418175 49.336678, -151.387362 49.339076, -151.356546 49.341466, -151.325727 49.343847, -151.294905 49.346221, -151.264080 49.348586, -151.233253 49.350943, -151.202422 49.353292, -151.171588 49.355633, -151.140751 49.357965, -151.109912 49.360290, -151.079069 49.362606, -151.048224 49.364914, -151.017376 49.367214, -150.986524 49.369505, -150.955670 49.371788, -150.924813 49.374063, -150.893954 49.376330, -150.863091 49.378589, -150.832226 49.380839, -150.801357 49.383082, -150.770486 49.385316, -150.739612 49.387541, -150.708736 49.389759, -150.677856 49.391968, -150.646974 49.394169, -150.616089 49.396362, -150.585201 49.398547, -150.554311 49.400723, -150.523418 49.402892, -150.492522 49.405051, -150.461623 49.407203, -150.430722 49.409347, -150.399818 49.411482, -150.368911 49.413609, -150.338002 49.415728, -150.307090 49.417838, -150.276175 49.419941, -150.245258 49.422035, -150.214338 49.424121, -150.183415 49.426198, -150.152490 49.428267, -150.121562 49.430329, -150.090632 49.432381, -150.059699 49.434426, -150.028763 49.436462, -149.997825 49.438490, -149.966884 49.440510, -149.935941 49.442522, -149.904995 49.444525, -149.874047 49.446520, -149.843096 49.448507, -149.812143 49.450486, -149.781187 49.452456, -149.750229 49.454418, -149.719268 49.456372, -149.688305 49.458317, -149.657339 49.460254, -149.626371 49.462183, -149.595400 49.464104, -149.564427 49.466016, -149.533452 49.467921, -149.502474 49.469816, -149.471494 49.471704, -149.440511 49.473583, -149.409526 49.475454, -149.378539 49.477317, -149.347549 49.479172, -149.316557 49.481018, -149.285563 49.482856, -149.254566 49.484686, -149.223567 49.486507, -149.192566 49.488320, -149.161563 49.490125, -149.130557 49.491921, -149.099549 49.493710, -149.068538 49.495490, -149.037526 49.497261, -149.006511 49.499025, -148.975494 49.500780, -148.944474 49.502526, -148.913453 49.504265, -148.882429 49.505995, -148.851403 49.507717, -148.820375 49.509431, -148.789345 49.511136, -148.758312 49.512833, -148.727278 49.514522, -148.696241 49.516202, -148.665202 49.517874, -148.634161 49.519538, -148.603118 49.521194, -148.572073 49.522841, -148.541026 49.524480, -148.509977 49.526110, -148.478925 49.527732, -148.447872 49.529346, -148.416816 49.530952, -148.385759 49.532549, -148.354699 49.534138, -148.323638 49.535719, -148.292574 49.537291, -148.261509 49.538856, -148.230441 49.540411, -148.199372 49.541959, -148.168300 49.543498, -148.137227 49.545029, -148.106151 49.546551, -148.075074 49.548065, -148.043995 49.549571, -148.012914 49.551069, -147.981831 49.552558, -147.950746 49.554039, -147.919659 49.555511, -147.888570 49.556975, -147.857480 49.558431, -147.826387 49.559879, -147.795293 49.561318, -147.764197 49.562749, -147.733099 49.564172, -147.702000 49.565586, -147.670898 49.566992, -147.639795 49.568389, -147.608690 49.569778, -147.577583 49.571159, -147.546475 49.572532, -147.515364 49.573896, -147.484252 49.575252, -147.453139 49.576599, -147.422023 49.577939, -147.390906 49.579270, -147.359787 49.580592, -147.328667 49.581906, -147.297544 49.583212, -147.266420 49.584509, -147.235295 49.585799, -147.204168 49.587079, -147.173039 49.588352, -147.141909 49.589616, -147.110777 49.590872, -147.079643 49.592119, -147.048508 49.593358, -147.017371 49.594589, -146.986233 49.595811, -146.955093 49.597025, -146.923951 49.598231, -146.892808 49.599428, -146.861664 49.600617, -146.830518 49.601797, -146.799370 49.602970, -146.768221 49.604133, -146.737071 49.605289, -146.705919 49.606436, -146.674765 49.607575, -146.643611 49.608705, -146.612454 49.609827, -146.581297 49.610941, -146.550137 49.612046, -146.518977 49.613143, -146.487815 49.614232, -146.456652 49.615312, -146.425487 49.616384, -146.394321 49.617447, -146.363153 49.618502, -146.331984 49.619549, -146.300814 49.620588, -146.269643 49.621618, -146.238470 49.622639, -146.207296 49.623653, -146.176121 49.624657, -146.144944 49.625654, -146.113766 49.626642, -146.082587 49.627622, -146.051407 49.628593, -146.020225 49.629556, -145.989042 49.630511, -145.957858 49.631457, -145.926673 49.632395, -145.895486 49.633325, -145.864299 49.634246, -145.833110 49.635159, -145.801920 49.636063, -145.770728 49.636959, -145.739536 49.637847, -145.708343 49.638726, -145.677148 49.639597, -145.645952 49.640460, -145.614756 49.641314, -145.583558 49.642160, -145.552359 49.642997, -145.521159 49.643826, -145.489958 49.644646, -145.458756 49.645459, -145.427553 49.646262, -145.396348 49.647058, -145.365143 49.647845, -145.333937 49.648624, -145.302730 49.649394, -145.271522 49.650156, -145.240312 49.650909, -145.209102 49.651654, -145.177891 49.652391, -145.146679 49.653120, -145.115466 49.653840, -145.084253 49.654551, -145.053038 49.655254, -145.021822 49.655949, -144.990606 49.656635, -144.959388 49.657313, -144.928170 49.657983, -144.896951 49.658644, -144.865731 49.659297, -144.834510 49.659941, -144.803288 49.660578, -144.772066 49.661205, -144.740843 49.661824, -144.709619 49.662435, -144.678394 49.663038, -144.647168 49.663632, -144.615942 49.664217, -144.584715 49.664795, -144.553487 49.665364, -144.522259 49.665924, -144.491029 49.666476, -144.459799 49.667020, -144.428569 49.667555, -144.397337 49.668082, -144.366105 49.668600, -144.334873 49.669110, -144.303639 49.669612, -144.272406 49.670105, -144.241171 49.670590, -144.209936 49.671067, -144.178700 49.671535, -144.147464 49.671994, -144.116227 49.672446, -144.084989 49.672889, -144.053751 49.673323, -144.022512 49.673749, -143.991273 49.674167, -143.960033 49.674576, -143.928793 49.674977, -143.897552 49.675369, -143.866311 49.675753, -143.835069 49.676129, -143.803827 49.676496, -143.772584 49.676855, -143.741341 49.677205, -143.710098 49.677547, -143.678854 49.677881, -143.647609 49.678206, -143.616364 49.678523, -143.585119 49.678831, -143.553873 49.679131, -143.522627 49.679423, -143.491381 49.679706, -143.460134 49.679981, -143.428887 49.680247, -143.397639 49.680505, -143.366392 49.680755, -143.335144 49.680996, -143.303895 49.681229, -143.272647 49.681453, -143.241398 49.681669, -143.210148 49.681876, -143.178899 49.682076, -143.147649 49.682266, -143.116399 49.682449, -143.085149 49.682622, -143.053898 49.682788, -143.022648 49.682945, -142.991397 49.683094, -142.960146 49.683234, -142.928895 49.683366, -142.897643 49.683489, -142.866392 49.683604, -142.835140 49.683711, -142.803888 49.683809, -142.772636 49.683899, -142.741384 49.683980, -142.710132 49.684053, -142.678880 49.684118, -142.647628 49.684174, -142.616375 49.684221, -142.585123 49.684261, -142.553870 49.684292, -142.522618 49.684314, -142.491365 49.684328, -142.460113 49.684334, -142.428860 49.684331, -142.397608 49.684320, -142.366355 49.684301, -142.335103 49.684273, -142.303850 49.684236, -142.272598 49.684191, -142.241345 49.684138, -142.210093 49.684077, -142.178841 49.684007, -142.147589 49.683928, -142.116337 49.683841, -142.085085 49.683746, -142.053833 49.683643, -142.022582 49.683531, -141.991330 49.683410, -141.960079 49.683281, -141.928828 49.683144, -141.897577 49.682998, -141.866326 49.682844, -141.835076 49.682682, -141.803826 49.682511, -141.772575 49.682331, -141.741326 49.682144, -141.710076 49.681948, -141.678827 49.681743, -141.647578 49.681530, -141.616329 49.681309, -141.585080 49.681079, -141.553832 49.680841, -141.522584 49.680594, -141.491337 49.680339, -141.460089 49.680076, -141.428842 49.679804, -141.397596 49.679524, -141.366350 49.679235, -141.335104 49.678938, -141.303859 49.678633, -141.272614 49.678319, -141.241369 49.677997, -141.210125 49.677666, -141.178881 49.677327, -141.147638 49.676979, -141.116395 49.676624, -141.085152 49.676259, -141.053910 49.675887, -141.022669 49.675506, -140.991428 49.675116, -140.960188 49.674718, -140.928948 49.674312, -140.897708 49.673897, -140.866469 49.673474, -140.835231 49.673043, -140.803993 49.672603, -140.772756 49.672154, -140.741520 49.671698, -140.710284 49.671233, -140.679048 49.670759, -140.647813 49.670277, -140.616579 49.669787, -140.585346 49.669288, -140.554113 49.668781, -140.522881 49.668265, -140.491649 49.667742, -140.460418 49.667209, -140.429188 49.666668, -140.397958 49.666119, -140.366730 49.665562, -140.335502 49.664996, -140.304274 49.664422, -140.273048 49.663839, -140.241822 49.663248, -140.210597 49.662648, -140.179373 49.662040, -140.148149 49.661424, -140.116926 49.660800, -140.085704 49.660166, -140.054483 49.659525, -140.023263 49.658875, -139.992044 49.658217, -139.960825 49.657550, -139.929607 49.656875, -139.898390 49.656192, -139.867175 49.655500, -139.835959 49.654800, -139.804745 49.654091, -139.773532 49.653374, -139.742320 49.652649, -139.711108 49.651915, -139.679898 49.651173, -139.648688 49.650422, -139.617480 49.649663, -139.586272 49.648896, -139.555066 49.648120, -139.523860 49.647336, -139.492656 49.646544, -139.461452 49.645743, -139.430250 49.644933, -139.399048 49.644116, -139.367848 49.643290, -139.336649 49.642455, -139.305450 49.641613, -139.274253 49.640761, -139.243057 49.639902, -139.211862 49.639034, -139.180668 49.638158, -139.149476 49.637273, -139.118284 49.636380, -139.087094 49.635478, -139.055904 49.634568, -139.024716 49.633650, -138.993529 49.632724, -138.962344 49.631789, -138.931159 49.630845, -138.899976 49.629894, -138.868794 49.628934, -138.837613 49.627965, -138.806433 49.626988, -138.775255 49.626003, -138.744078 49.625009, -138.712902 49.624007, -138.681727 49.622997, -138.650554 49.621978, -138.619382 49.620951, -138.588212 49.619916, -138.557042 49.618872, -138.525875 49.617820, -138.494708 49.616759, -138.463543 49.615690, -138.432379 49.614613, -138.401216 49.613528, -138.370055 49.612434, -138.338896 49.611331, -138.307738 49.610220, -138.276581 49.609101, -138.245425 49.607974, -138.214271 49.606838, -138.183119 49.605694, -138.151968 49.604541, -138.120818 49.603380, -138.089670 49.602211, -138.058524 49.601034, -138.027379 49.599848, -137.996235 49.598653, -137.965093 49.597451, -137.933953 49.596240, -137.902814 49.595020, -137.871677 49.593792, -137.840541 49.592556, -137.809407 49.591312, -137.778274 49.590059, -137.747143 49.588798, -137.716014 49.587528, -137.684886 49.586251, -137.653760 49.584964, -137.622636 49.583670, -137.591513 49.582367, -137.560392 49.581056, -137.529272 49.579736, -137.498154 49.578408, -137.467038 49.577072, -137.435924 49.575727, -137.404811 49.574375, -137.373701 49.573013, -137.342591 49.571644, -137.311484 49.570266, -137.280378 49.568879, -137.249274 49.567485, -137.218172 49.566082, -137.187072 49.564671, -137.155974 49.563251, -137.124877 49.561823, -137.093782 49.560387, -137.062689 49.558942, -137.031598 49.557489, -137.000508 49.556028, -136.969421 49.554558, -136.938335 49.553080, -136.907252 49.551594, -136.876170 49.550099, -136.845090 49.548597, -136.814012 49.547085, -136.782936 49.545566, -136.751862 49.544038, -136.720790 49.542502, -136.689720 49.540957, -136.658651 49.539404, -136.627585 49.537843, -136.596521 49.536274, -136.565459 49.534696, -136.534398 49.533110, -136.503340 49.531516, -136.472284 49.529913, -136.441230 49.528302, -136.410178 49.526682, -136.379128 49.525055, -136.348080 49.523419, -136.317034 49.521775, -136.285990 49.520122, -136.254948 49.518461, -136.223909 49.516792, -136.192871 49.515114, -136.161836 49.513429, -136.130803 49.511735, -136.099772 49.510032, -136.068743 49.508322, -136.037716 49.506603, -136.006692 49.504875, -135.975669 49.503140, -135.944649 49.501396, -135.913631 49.499644, -135.882616 49.497883, -135.851602 49.496115, -135.820591 49.494337, -135.789582 49.492552, -135.758576 49.490759, -135.727571 49.488957, -135.696569 49.487146, -135.665569 49.485328, -135.634572 49.483501, -135.603577 49.481666, -135.572584 49.479823, -135.541594 49.477971, -135.510605 49.476111, -135.479620 49.474243, -135.448636 49.472367, -135.417655 49.470482, -135.386677 49.468589, -135.355700 49.466688, -135.324726 49.464779, -135.293755 49.462861, -135.262786 49.460935, -135.231820 49.459000, -135.200855 49.457058, -135.169894 49.455107, -135.138935 49.453148, -135.107978 49.451180, -135.077024 49.449205, -135.046072 49.447221, -135.015123 49.445229, -134.984176 49.443228, -134.953232 49.441220, -134.922290 49.439203, -134.891351 49.437178, -134.860415 49.435144, -134.829481 49.433102, -134.798550 49.431052, -134.767621 49.428994, -134.736695 49.426928, -134.705771 49.424853, -134.674850 49.422770, -134.643932 49.420679, -134.613016 49.418580, -134.582103 49.416472, -134.551193 49.414356, -134.520285 49.412232, -134.489380 49.410100, -134.458478 49.407959, -134.427579 49.405810, -134.396682 49.403653, -134.365788 49.401488, -134.334896 49.399314, -134.304007 49.397133, -134.273121 49.394943, -134.242238 49.392744, -134.211358 49.390538, -134.180480 49.388323, -134.149605 49.386100, -134.118733 49.383869, -134.087864 49.381630, -134.056998 49.379382, -134.026134 49.377127, -133.995273 49.374863, -133.964415 49.372591, -133.933560 49.370310, -133.902708 49.368022, -133.871859 49.365725, -133.841012 49.363420, -133.810169 49.361106, -133.779328 49.358785, -133.748491 49.356455, -133.717656 49.354118, -133.686824 49.351771, -133.655995 49.349417, -133.625169 49.347055, -133.594346 49.344684, -133.563526 49.342305, -133.532709 49.339918, -133.501895 49.337523, -133.471084 49.335120, -133.440276 49.332708, -133.409471 49.330288, -133.378669 49.327860, -133.347870 49.325424, -133.317075 49.322980, -133.286282 49.320527, -133.255492 49.318067, -133.224705 49.315598, -133.193922 49.313121, -133.163141 49.310635, -133.132364 49.308142, -133.101590 49.305640, -133.070819 49.303131, -133.040051 49.300613, -133.009286 49.298087, -132.978525 49.295552, -132.947766 49.293010, -132.917011 49.290460, -132.886259 49.287901, -132.855510 49.285334, -132.824764 49.282759, -132.794022 49.280176, -132.763282 49.277584, -132.732546 49.274985, -132.701814 49.272377, -132.671084 49.269761, -132.640358 49.267137, -132.609635 49.264505, -132.578915 49.261865, -132.548199 49.259217, -132.517486 49.256560, -132.486776 49.253895, -132.456069 49.251222, -132.425366 49.248541, -132.394666 49.245852, -132.363970 49.243155, -132.333277 49.240450, -132.302587 49.237736, -132.271901 49.235015, -132.241218 49.232285, -132.210538 49.229547, -132.179862 49.226801, -132.149189 49.224047, -132.118520 49.221285, -132.087854 49.218514, -132.057192 49.215736, -132.026533 49.212949, -131.995877 49.210155, -131.965225 49.207352, -131.934576 49.204541, -131.903931 49.201722, -131.873290 49.198895, -131.842652 49.196059, -131.812017 49.193216, -131.781386 49.190365, -131.750759 49.187505, -131.720135 49.184637, -131.689514 49.181762, -131.658897 49.178878, -131.628284 49.175986, -131.597674 49.173086, -131.567068 49.170178, -131.536466 49.167262, -131.505867 49.164337, -131.475272 49.161405, -131.444680 49.158465, -131.414092 49.155516, -131.383508 49.152559, -131.352927 49.149595, -131.322350 49.146622, -131.291776 49.143641, -131.261207 49.140652, -131.230641 49.137655, -131.200079 49.134650, -131.169520 49.131637, -131.138965 49.128616, -131.108414 49.125587, -131.077867 49.122549, -131.047323 49.119504, -131.016783 49.116451, -130.986247 49.113389, -130.955715 49.110320, -130.925186 49.107242, -130.894661 49.104157, -130.864140 49.101063, -130.833623 49.097961, -130.803110 49.094852, -130.772600 49.091734, -130.742094 49.088608, -130.711593 49.085474, -130.681095 49.082332, -130.650600 49.079182, -130.620110 49.076024, -130.589624 49.072858, -130.559141 49.069684, -130.528663 49.066502, -130.498188 49.063312, -130.467717 49.060114, -130.437251 49.056908, -130.406788 49.053694, -130.376329 49.050472, -130.345874 49.047242, -130.315423 49.044003, -130.284976 49.040757, -130.254533 49.037503, -130.224093 49.034241, -130.193658 49.030971, -130.163227 49.027692, -130.132800 49.024406, -130.102377 49.021112, -130.071958 49.017810, -130.041543 49.014500, -130.011132 49.011181, -129.980725 49.007855, -129.950322 49.004521, -129.919924 49.001179, -129.889529 48.997829, -129.859138 48.994471, -129.828752 48.991105, -129.798370 48.987731, -129.767991 48.984348, -129.737617 48.980958, -129.707247 48.977560, -129.676882 48.974155, -129.646520 48.970741, -129.616162 48.967319, -129.585809 48.963889, -129.555460 48.960451, -129.525115 48.957005, -129.494774 48.953551, -129.464438 48.950090, -129.434105 48.946620, -129.403777 48.943142, -129.373453 48.939657, -129.343134 48.936163, -129.312818 48.932662, -129.282507 48.929153, -129.252200 48.925635, -129.221898 48.922110, -129.191599 48.918577, -129.161305 48.915036, -129.131016 48.911486, -129.100730 48.907929, -129.070449 48.904365, -129.040172 48.900792, -129.009900 48.897211, -128.979632 48.893622, -128.949368 48.890026, -128.919109 48.886421, -128.888853 48.882808, -128.858603 48.879188, -128.828357 48.875560, -128.798115 48.871924, -128.767877 48.868279, -128.737644 48.864627, -128.707415 48.860968, -128.677191 48.857300, -128.646971 48.853624, -128.616756 48.849940, -128.586545 48.846249, -128.556339 48.842550, -128.526137 48.838842, -128.495939 48.835127, -128.465746 48.831404, -128.435558 48.827673, -128.405374 48.823934, -128.375194 48.820187, -128.345019 48.816433, -128.314849 48.812670, -128.284683 48.808900, -128.254521 48.805122, -128.224364 48.801336, -128.194212 48.797542, -128.164064 48.793740, -128.133921 48.789930, -128.103783 48.786113, -128.073649 48.782288, -128.043519 48.778454, -128.013394 48.774613, -127.983274 48.770764, -127.953159 48.766908, -127.923048 48.763043, -127.892941 48.759171, -127.862840 48.755290, -127.832743 48.751402, -127.802651 48.747506, -127.772563 48.743602, -127.742480 48.739691, -127.712402 48.735771, -127.682328 48.731844, -127.652259 48.727909, -127.622195 48.723966, -127.592136 48.720015, -127.562081 48.716056, -127.532031 48.712090, -127.501986 48.708116, -127.471945 48.704134, -127.441909 48.700144, -127.411878 48.696146, -127.381852 48.692141, -127.351831 48.688128, -127.321814 48.684107, -127.291802 48.680078, -127.261795 48.676041, -127.231793 48.671997, -127.201795 48.667945, -127.171803 48.663885, -127.141815 48.659817, -127.111832 48.655741, -127.081854 48.651658, -127.051881 48.647567, -127.021913 48.643468, -126.991949 48.639361, -126.961991 48.635247, -126.932037 48.631125, -126.902088 48.626995, -126.872144 48.622857, -126.842206 48.618711, -126.812271 48.614558, -126.782342 48.610397, -126.752418 48.606228, -126.722499 48.602052, -126.692585 48.597868, -126.662675 48.593676, -126.632771 48.589476, -126.602872 48.585268, -126.572977 48.581053, -126.543088 48.576830, -126.513204 48.572599, -126.483324 48.568361, -126.453450 48.564115, -126.423580 48.559861, -126.393716 48.555599, -126.363857 48.551330, -126.334003 48.547053, -126.304153 48.542768, -126.274309 48.538476, -126.244470 48.534175, -126.214636 48.529867, -126.184807 48.525552, -126.154983 48.521229, -126.125165 48.516897, -126.095351 48.512559, -126.065543 48.508212, -126.035739 48.503858, -126.005941 48.499496, -125.976148 48.495127, -125.946360 48.490750, -125.916577 48.486365, -125.886799 48.481972, -125.857027 48.477572, -125.827259 48.473164, -125.797497 48.468749, -125.767740 48.464325, -125.737988 48.459894, -125.708242 48.455456, -125.678500 48.451010, -125.648764 48.446556, -125.619033 48.442094, -125.589307 48.437625, -125.559587 48.433148, -125.529871 48.428663, -125.500161 48.424171, -125.470456 48.419671, -125.440757 48.415164, -125.411063 48.410649, -125.381374 48.406126, -125.351690 48.401596, -125.322012 48.397057, -125.292338 48.392512, -125.262671 48.387959, -125.233008 48.383398, -125.203351 48.378829, -125.173699 48.374253, -125.144053 48.369669, -125.114412 48.365078, -125.084776 48.360479, -125.055145 48.355872, -125.025520 48.351258, -124.995900 48.346636, -124.966286 48.342007, -124.936677 48.337370, -124.907074 48.332725, -124.877475 48.328073, -124.847883 48.323413, -124.818295 48.318745, -124.788713 48.314070, -124.759137 48.309388, -124.729566 48.304698, -124.700000 48.300000, -124.669645 48.300220, -124.639290 48.300431, -124.608935 48.300635, -124.578579 48.300831, -124.548224 48.301019, -124.517868 48.301198, -124.487511 48.301370, -124.457155 48.301534, -124.426798 48.301690, -124.396442 48.301837, -124.366085 48.301977, -124.335728 48.302109, -124.305370 48.302233, -124.275013 48.302349, -124.244656 48.302457, -124.214298 48.302556, -124.183940 48.302648, -124.153582 48.302732, -124.123224 48.302808, -124.092866 48.302876, -124.062508 48.302936, -124.032150 48.302988, -124.001792 48.303032, -123.971433 48.303068, -123.941075 48.303096, -123.910717 48.303116, -123.880358 48.303128, -123.850000 48.303132, -123.819642 48.303128, -123.789283 48.303116, -123.758925 48.303096, -123.728567 48.303068, -123.698208 48.303032, -123.667850 48.302988, -123.637492 48.302936, -123.607134 48.302876, -123.576776 48.302808, -123.546418 48.302732, -123.516060 48.302648, -123.485702 48.302556, -123.455344 48.302457, -123.424987 48.302349, -123.394630 48.302233, -123.364272 48.302109, -123.333915 48.301977, -123.303558 48.301837, -123.273202 48.301690, -123.242845 48.301534, -123.212489 48.301370, -123.182132 48.301198, -123.151776 48.301019, -123.121421 48.300831, -123.091065 48.300635, -123.060710 48.300431, -123.030355 48.300220, -123.000000 48.300000, -122.982091 48.283912, -122.964192 48.267822, -122.946305 48.251728, -122.928430 48.235632, -122.910565 48.219533, -122.892712 48.203431, -122.874870 48.187327, -122.857039 48.171220, -122.839220 48.155110, -122.821412 48.138997, -122.803614 48.122882, -122.785828 48.106763, -122.768053 48.090642, -122.750290 48.074519, -122.732537 48.058392, -122.714796 48.042263, -122.697065 48.026131, -122.679346 48.009997, -122.661638 47.993859, -122.643941 47.977719, -122.626255 47.961576, -122.608580 47.945431, -122.590916 47.929283, -122.573263 47.913132, -122.555621 47.896978, -122.537990 47.880822, -122.520370 47.864663, -122.502761 47.848501, -122.485163 47.832337, -122.467576 47.816170, -122.450000 47.800000, -122.439965 47.781823, -122.429937 47.763644, -122.419916 47.745465, -122.409902 47.727285, -122.399895 47.709104, -122.389895 47.690922, -122.379902 47.672739, -122.369916 47.654556, -122.359937 47.636371, -122.349965 47.618186, -122.340000 47.600000))
