LINESTRING (-74.010000 40.700000, -74.001399 40.688578, -73.992801 40.677155, -73.984207 40.665731, -73.975615 40.654307, -73.967026 40.642883, -73.958439 40.631457, -73.949856 40.620031, -73.941276 40.608604, -73.932699 40.597177, -73.924125 40.585749, -73.915553 40.574321, -73.906985 40.562891, -73.898419 40.551461, -73.889857 40.540031, -73.881297 40.528600, -73.872740 40.517168, -73.864186 40.505736, -73.855635 40.494303, -73.847087 40.482869, -73.838542 40.471435, -73.830000 40.460000, -73.813092 40.463725, -73.796183 40.467448, -73.779271 40.471168, -73.762358 40.474886, -73.745443 40.478601, -73.728526 40.482314, -73.711607 40.486024, -73.694686 40.489732, -73.677763 40.493437, -73.660839 40.497140, -73.643912 40.500841, -73.626984 40.504539, -73.610054 40.508234, -73.593122 40.511927, -73.576188 40.515618, -73.559252 40.519306, -73.542315 40.522991, -73.525375 40.526675, -73.508434 40.530355, -73.491491 40.534033, -73.474546 40.537709, -73.457599 40.541382, -73.440650 40.545053, -73.423700 40.548721, -73.406747 40.552387, -73.389793 40.556051, -73.372837 40.559711, -73.355879 40.563370, -73.338919 40.567026, -73.321957 40.570679, -73.304993 40.574330, -73.288028 40.577979, -73.271061 40.581625, -73.254092 40.585268, -73.237121 40.588909, -73.220148 40.592548, -73.203173 40.596184, -73.186196 40.599817, -73.169218 40.603448, -73.152238 40.607077, -73.135256 40.610703, -73.118272 40.614327, -73.101286 40.617948, -73.084299 40.621566, -73.067309 40.625182, -73.050318 40.628796, -73.033325 40.632407, -73.016330 40.636016, -72.999333 40.639622, -72.982335 40.643226, -72.965334 40.646827, -72.948332 40.650426, -72.931328 40.654022, -72.914322 40.657616, -72.897314 40.661207, -72.880304 40.664796, -72.863293 40.668382, -72.846280 40.671966, -72.829265 40.675547, -72.812248 40.679125, -72.795229 40.682702, -72.778208 40.686275, -72.761186 40.689847, -72.744162 40.693415, -72.727136 40.696982, -72.710108 40.700545, -72.693078 40.704107, -72.676047 40.707665, -72.659013 40.711222, -72.641978 40.714775, -72.624941 40.718327, -72.607902 40.721875, -72.590862 40.725421, -72.573819 40.728965, -72.556775 40.732506, -72.539729 40.736045, -72.522681 40.739581, -72.505631 40.743115, -72.488580 40.746646, -72.471527 40.750175, -72.454472 40.753701, -72.437415 40.757224, -72.420356 40.760746, -72.403295 40.764264, -72.386233 40.767780, -72.369169 40.771294, -72.352103 40.774805, -72.335035 40.778313, -72.317966 40.781820, -72.300894 40.785323, -72.283821 40.788824, -72.266746 40.792323, -72.249670 40.795819, -72.232591 40.799312, -72.215511 40.802803, -72.198429 40.806291, -72.181345 40.809777, -72.164259 40.813261, -72.147171 40.816741, -72.130082 40.820220, -72.112991 40.823696, -72.095898 40.827169, -72.078803 40.830640, -72.061707 40.834108, -72.044609 40.837574, -72.027509 40.841037, -72.010407 40.844498, -71.993303 40.847956, -71.976198 40.851411, -71.959091 40.854864, -71.941982 40.858315, -71.924871 40.861763, -71.907758 40.865209, -71.890644 40.868651, -71.873528 40.872092, -71.856410 40.875530, -71.839290 40.878965, -71.822169 40.882398, -71.805046 40.885828, -71.787921 40.889256, -71.770794 40.892682, -71.753665 40.896104, -71.736535 40.899524, -71.719403 40.902942, -71.702269 40.906357, -71.685134 40.909770, -71.667996 40.913180, -71.650857 40.916587, -71.633716 40.919992, -71.616574 40.923395, -71.599429 40.926795, -71.582283 40.930192, -71.565135 40.933587, -71.547985 40.936979, -71.530834 40.940369, -71.513680 40.943756, -71.496525 40.947141, -71.479369 40.950523, -71.462210 40.953902, -71.445050 40.957279, -71.427888 40.960654, -71.410724 40.964026, -71.393559 40.967395, -71.376391 40.970762, -71.359222 40.974126, -71.342051 40.977488, -71.324879 40.980847, -71.307705 40.984204, -71.290529 40.987558, -71.273351 40.990910, -71.256171 40.994259, -71.238990 40.997605, -71.221807 41.000949, -71.204622 41.004290, -71.187436 41.007629, -71.170247 41.010965, -71.153057 41.014299, -71.135866 41.017630, -71.118672 41.020959, -71.101477 41.024285, -71.084280 41.027608, -71.067081 41.030929, -71.049881 41.034248, -71.032679 41.037563, -71.015475 41.040877, -70.998269 41.044187, -70.981062 41.047495, -70.963853 41.050801, -70.946642 41.054104, -70.929430 41.057404, -70.912215 41.060702, -70.894999 41.063998, -70.877782 41.067290, -70.860562 41.070581, -70.843341 41.073868, -70.826118 41.077153, -70.808894 41.080436, -70.791667 41.083716, -70.774439 41.086993, -70.757210 41.090268, -70.739978 41.093540, -70.722745 41.096810, -70.705510 41.100077, -70.688274 41.103341, -70.671035 41.106603, -70.653795 41.109863, -70.636553 41.113120, -70.619310 41.116374, -70.602065 41.119626, -70.584818 41.122875, -70.567569 41.126121, -70.550319 41.129365, -70.533067 41.132607, -70.515813 41.135845, -70.498558 41.139082, -70.481301 41.142315, -70.464042 41.145546, -70.446782 41.148775, -70.429519 41.152001, -70.412255 41.155224, -70.394990 41.158445, -70.377723 41.161663, -70.360454 41.164879, -70.343183 41.168092, -70.325911 41.171302, -70.308636 41.174510, -70.291361 41.177716, -70.274083 41.180918, -70.256804 41.184118, -70.239523 41.187316, -70.222241 41.190511, -70.204957 41.193703, -70.187671 41.196893, -70.170383 41.200080, -70.153094 41.203265, -70.135803 41.206447, -70.118510 41.209627, -70.101216 41.212803, -70.083920 41.215978, -70.066622 41.219149, -70.049323 41.222319, -70.032022 41.225485, -70.014719 41.228649, -69.997415 41.231810, -69.980109 41.234969, -69.962801 41.238125, -69.945492 41.241279, -69.928181 41.244430, -69.910868 41.247578, -69.893554 41.250724, -69.876238 41.253867, -69.858920 41.257008, -69.841601 41.260146, -69.824280 41.263281, -69.806957 41.266414, -69.789633 41.269544, -69.772307 41.272672, -69.754979 41.275797, -69.737650 41.278919, -69.720319 41.282039, -69.702986 41.285157, -69.685652 41.288271, -69.668316 41.291383, -69.650978 41.294493, -69.633639 41.297599, -69.616298 41.300704, -69.598955 41.303805, -69.581611 41.306904, -69.564265 41.310001, -69.546918 41.313095, -69.529569 41.316186, -69.512218 41.319274, -69.494865 41.322360, -69.477511 41.325444, -69.460155 41.328525, -69.442798 41.331603, -69.425439 41.334678, -69.408078 41.337751, -69.390716 41.340822, -69.373352 41.343889, -69.355987 41.346955, -69.338619 41.350017, -69.321251 41.353077, -69.303880 41.356134, -69.286508 41.359189, -69.269134 41.362241, -69.251759 41.365290, -69.234382 41.368337, -69.217003 41.371382, -69.199623 41.374423, -69.182241 41.377462, -69.164858 41.380499, -69.147473 41.383532, -69.130086 41.386564, -69.112698 41.389592, -69.095308 41.392618, -69.077916 41.395641, -69.060523 41.398662, -69.043128 41.401680, -69.025732 41.404695, -69.008334 41.407708, -68.990934 41.410718, -68.973533 41.413726, -68.956130 41.416731, -68.938725 41.419733, -68.921319 41.422733, -68.903911 41.425730, -68.886502 41.428725, -68.869091 41.431716, -68.851679 41.434706, -68.834265 41.437692, -68.816849 41.440676, -68.799431 41.443658, -68.782013 41.446636, -68.764592 41.449612, -68.747170 41.452586, -68.729746 41.455557, -68.712321 41.458525, -68.694894 41.461490, -68.677465 41.464453, -68.660035 41.467414, -68.642604 41.470371, -68.625170 41.473326, -68.607735 41.476279, -68.590299 41.479229, -68.572861 41.482176, -68.555421 41.485120, -68.537980 41.488062, -68.520537 41.491001, -68.503093 41.493938, -68.485647 41.496872, -68.468199 41.499803, -68.450750 41.502732, -68.433300 41.505658, -68.415847 41.508581, -68.398393 41.511502, -68.380938 41.514420, -68.363481 41.517336, -68.346023 41.520249, -68.328562 41.523159, -68.311101 41.526067, -68.293637 41.528971, -68.276173 41.531874, -68.258706 41.534773, -68.241238 41.537670, -68.223769 41.540565, -68.206298 41.543457, -68.188825 41.546346, -68.171351 41.549232, -68.153875 41.552116, -68.136397 41.554997, -68.118919 41.557875, -68.101438 41.560751, -68.083956 41.563625, -68.066473 41.566495, -68.048987 41.569363, -68.031501 41.572228, -68.014013 41.575091, -67.996523 41.577951, -67.979031 41.580808, -67.961539 41.583663, -67.944044 41.586515, -67.926548 41.589364, -67.909051 41.592211, -67.891552 41.595055, -67.874051 41.597896, -67.856549 41.600735, -67.839045 41.603571, -67.821540 41.606404, -67.804033 41.609235, -67.786525 41.612063, -67.769015 41.614889, -67.751504 41.617712, -67.733991 41.620532, -67.716477 41.623349, -67.698961 41.626164, -67.681443 41.628976, -67.663924 41.631786, -67.646404 41.634593, -67.628882 41.637397, -67.611358 41.640198, -67.593833 41.642997, -67.576306 41.645793, -67.558778 41.648587, -67.541249 41.651378, -67.523717 41.654166, -67.506185 41.656952, -67.488650 41.659734, -67.471115 41.662515, -67.453577 41.665292, -67.436039 41.668067, -67.418498 41.670839, -67.400957 41.673609, -67.383413 41.676376, -67.365869 41.679140, -67.348322 41.681902, -67.330775 41.684660, -67.313225 41.687417, -67.295674 41.690170, -67.278122 41.692921, -67.260568 41.695669, -67.243013 41.698415, -67.225456 41.701158, -67.207898 41.703898, -67.190338 41.706635, -67.172777 41.709370, -67.155214 41.712102, -67.137650 41.714832, -67.120084 41.717559, -67.102517 41.720283, -67.084948 41.723004, -67.067378 41.725723, -67.049806 41.728439, -67.032233 41.731153, -67.014658 41.733863, -66.997082 41.736572, -66.979504 41.739277, -66.961925 41.741980, -66.944345 41.744680, -66.926762 41.747377, -66.909179 41.750072, -66.891594 41.752764, -66.874007 41.755453, -66.856419 41.758140, -66.838830 41.760824, -66.821239 41.763505, -66.803647 41.766184, -66.786053 41.768859, -66.768457 41.771533, -66.750860 41.774203, -66.733262 41.776871, -66.715662 41.779536, -66.698061 41.782199, -66.680459 41.784858, -66.662855 41.787516, -66.645249 41.790170, -66.627642 41.792822, -66.610033 41.795471, -66.592423 41.798117, -66.574812 41.800761, -66.557199 41.803402, -66.539585 41.806040, -66.521969 41.808676, -66.504352 41.811309, -66.486733 41.813939, -66.469113 41.816566, -66.451492 41.819191, -66.433869 41.821813, -66.416244 41.824433, -66.398618 41.827049, -66.380991 41.829663, -66.363362 41.832275, -66.345732 41.834883, -66.328101 41.837489, -66.310467 41.840093, -66.292833 41.842693, -66.275197 41.845291, -66.257560 41.847886, -66.239921 41.850479, -66.222281 41.853069, -66.204639 41.855656, -66.186996 41.858240, -66.169352 41.860822, -66.151706 41.863401, -66.134058 41.865977, -66.116409 41.868550, -66.098759 41.871121, -66.081108 41.873690, -66.063455 41.876255, -66.045800 41.878818, -66.028144 41.881378, -66.010487 41.883935, -65.992828 41.886490, -65.975168 41.889042, -65.957507 41.891591, -65.939844 41.894137, -65.922180 41.896681, -65.904514 41.899222, -65.886847 41.901761, -65.869178 41.904297, -65.851508 41.906830, -65.833837 41.909360, -65.816164 41.911887, -65.798490 41.914412, -65.780815 41.916934, -65.763138 41.919454, -65.745459 41.921971, -65.727780 41.924485, -65.710099 41.926996, -65.692416 41.929504, -65.674732 41.932010, -65.657047 41.934514, -65.639360 41.937014, -65.621672 41.939512, -65.603983 41.942007, -65.586292 41.944499, -65.568600 41.946989, -65.550906 41.949476, -65.533211 41.951960, -65.515515 41.954441, -65.497817 41.956920, -65.480118 41.959396, -65.462417 41.961869, -65.444716 41.964340, -65.427012 41.966808, -65.409308 41.969273, -65.391602 41.971735, -65.373895 41.974195, -65.356186 41.976652, -65.338476 41.979106, -65.320764 41.981557, -65.303052 41.984006, -65.285337 41.986452, -65.267622 41.988896, -65.249905 41.991336, -65.232187 41.993774, -65.214467 41.996209, -65.196746 41.998642, -65.179024 42.001072, -65.161300 42.003499, -65.143575 42.005923, -65.125849 42.008344, -65.108121 42.010763, -65.090392 42.013179, -65.072662 42.015593, -65.054930 42.018003, -65.037197 42.020411, -65.019463 42.022816, -65.001727 42.025219, -64.983990 42.027619, -64.966251 42.030016, -64.948512 42.032410, -64.930770 42.034801, -64.913028 42.037190, -64.895284 42.039576, -64.877539 42.041960, -64.859793 42.044340, -64.842045 42.046718, -64.824296 42.049093, -64.806545 42.051466, -64.788794 42.053835, -64.771041 42.056202, -64.753286 42.058566, -64.735530 42.060928, -64.717773 42.063286, -64.700015 42.065642, -64.682255 42.067996, -64.664494 42.070346, -64.646732 42.072694, -64.628968 42.075039, -64.611203 42.077381, -64.593437 42.079721, -64.575670 42.082058, -64.557901 42.084392, -64.540131 42.086723, -64.522359 42.089052, -64.504586 42.091377, -64.486812 42.093700, -64.469037 42.096021, -64.451260 42.098338, -64.433482 42.100653, -64.415703 42.102965, -64.397922 42.105275, -64.380141 42.107581, -64.362357 42.109885, -64.344573 42.112186, -64.326787 42.114485, -64.309000 42.116780, -64.291212 42.119073, -64.273422 42.121363, -64.255631 42.123651, -64.237839 42.125935, -64.220046 42.128217, -64.202251 42.130497, -64.184455 42.132773, -64.166658 42.135047, -64.148859 42.137318, -64.131059 42.139586, -64.113258 42.141851, -64.095456 42.144114, -64.077652 42.146374, -64.059847 42.148631, -64.042041 42.150885, -64.024234 42.153137, -64.006425 42.155386, -63.988615 42.157632, -63.970804 42.159875, -63.952991 42.162116, -63.935177 42.164354, -63.917362 42.166589, -63.899546 42.168821, -63.881728 42.171051, -63.863909 42.173278, -63.846089 42.175502, -63.828268 42.177723, -63.810445 42.179942, -63.792622 42.182157, -63.774797 42.184370, -63.756970 42.186581, -63.739143 42.188788, -63.721314 42.190993, -63.703484 42.193195, -63.685652 42.195394, -63.667820 42.197591, -63.649986 42.199784, -63.632151 42.201975, -63.614315 42.204164, -63.596477 42.206349, -63.578639 42.208532, -63.560799 42.210712, -63.542958 42.212889, -63.525115 42.215063, -63.507271 42.217235, -63.489427 42.219404, -63.471581 42.221570, -63.453733 42.223733, -63.435885 42.225893, -63.418035 42.228051, -63.400184 42.230206, -63.382332 42.232359, -63.364478 42.234508, -63.346624 42.236655, -63.328768 42.238799, -63.310911 42.240940, -63.293053 42.243078, -63.275193 42.245214, -63.257332 42.247347, -63.239470 42.249477, -63.221607 42.251604, -63.203743 42.253729, -63.185878 42.255850, -63.168011 42.257969, -63.150143 42.260086, -63.132274 42.262199, -63.114404 42.264310, -63.096532 42.266418, -63.078659 42.268523, -63.060785 42.270625, -63.042910 42.272725, -63.025034 42.274821, -63.007157 42.276916, -62.989278 42.279007, -62.971398 42.281095, -62.953517 42.283181, -62.935635 42.285264, -62.917752 42.287344, -62.899867 42.289421, -62.881981 42.291496, -62.864094 42.293568, -62.846206 42.295637, -62.828317 42.297703, -62.810427 42.299766, -62.792535 42.301827, -62.774642 42.303885, -62.756748 42.305940, -62.738853 42.307992, -62.720957 42.310042, -62.703059 42.312089, -62.685161 42.314133, -62.667261 42.316174, -62.649360 42.318212, -62.631458 42.320248, -62.613555 42.322281, -62.595650 42.324311, -62.577745 42.326338, -62.559838 42.328363, -62.541930 42.330384, -62.524021 42.332403, -62.506111 42.334419, -62.488200 42.336433, -62.470287 42.338443, -62.452374 42.340451, -62.434459 42.342456, -62.416543 42.344458, -62.398626 42.346458, -62.380708 42.348454, -62.362788 42.350448, -62.344868 42.352439, -62.326946 42.354427, -62.309024 42.356413, -62.291100 42.358396, -62.273175 42.360375, -62.255249 42.362352, -62.237322 42.364327, -62.219393 42.366298, -62.201464 42.368267, -62.183533 42.370233, -62.165601 42.372196, -62.147669 42.374156, -62.129735 42.376114, -62.111800 42.378068, -62.093863 42.380020, -62.075926 42.381970, -62.057988 42.383916, -62.040048 42.385859, -62.022107 42.387800, -62.004166 42.389738, -61.986223 42.391673, -61.968279 42.393606, -61.950334 42.395535, -61.932388 42.397462, -61.914440 42.399386, -61.896492 42.401307, -61.878542 42.403225, -61.860592 42.405141, -61.842640 42.407054, -61.824688 42.408964, -61.806734 42.410871, -61.788779 42.412775, -61.770823 42.414677, -61.752866 42.416575, -61.734907 42.418471, -61.716948 42.420365, -61.698988 42.422255, -61.681026 42.424142, -61.663064 42.426027, -61.645100 42.427909, -61.627135 42.429788, -61.609170 42.431664, -61.591203 42.433538, -61.573235 42.435409, -61.555266 42.437277, -61.537296 42.439142, -61.519325 42.441004, -61.501352 42.442863, -61.483379 42.444720, -61.465405 42.446574, -61.447429 42.448425, -61.429453 42.450273, -61.411476 42.452119, -61.393497 42.453961, -61.375517 42.455801, -61.357537 42.457638, -61.339555 42.459472, -61.321572 42.461304, -61.303588 42.463132, -61.285603 42.464958, -61.267617 42.466781, -61.249630 42.468601, -61.231642 42.470418, -61.213653 42.472233, -61.195663 42.474045, -61.177672 42.475854, -61.159680 42.477660, -61.141687 42.479463, -61.123692 42.481263, -61.105697 42.483061, -61.087701 42.484856, -61.069703 42.486648, -61.051705 42.488437, -61.033705 42.490223, -61.015705 42.492007, -60.997704 42.493788, -60.979701 42.495565, -60.961697 42.497341, -60.943693 42.499113, -60.925687 42.500882, -60.907681 42.502649, -60.889673 42.504413, -60.871665 42.506174, -60.853655 42.507932, -60.835644 42.509687, -60.817633 42.511440, -60.799620 42.513190, -60.781606 42.514936, -60.763592 42.516681, -60.745576 42.518422, -60.727559 42.520160, -60.709541 42.521896, -60.691523 42.523629, -60.673503 42.525359, -60.655482 42.527086, -60.637461 42.528810, -60.619438 42.530532, -60.601414 42.532250, -60.583390 42.533966, -60.565364 42.535679, -60.547337 42.537389, -60.529310 42.539097, -60.511281 42.540801, -60.493252 42.542503, -60.475221 42.544202, -60.457189 42.545898, -60.439157 42.547591, -60.421123 42.549282, -60.403089 42.550969, -60.385053 42.552654, -60.367017 42.554336, -60.348980 42.556015, -60.330941 42.557691, -60.312902 42.559365, -60.294861 42.561035, -60.276820 42.562703, -60.258778 42.564368, -60.240735 42.566030, -60.222691 42.567689, -60.204645 42.569346, -60.186599 42.571000, -60.168552 42.572650, -60.150504 42.574298, -60.132455 42.575943, -60.114405 42.577586, -60.096355 42.579225, -60.078303 42.580862, -60.060250 42.582496, -60.042196 42.584127, -60.024142 42.585755, -60.006086 42.587380, -59.988030 42.589003, -59.969972 42.590622, -59.951914 42.592239, -59.933854 42.593853, -59.915794 42.595464, -59.897733 42.597072, -59.879671 42.598678, -59.861608 42.600280, -59.843544 42.601880, -59.825479 42.603477, -59.807413 42.605071, -59.789346 42.606662, -59.771279 42.608251, -59.753210 42.609836, -59.735140 42.611419, -59.717070 42.612999, -59.698999 42.614576, -59.680926 42.616150, -59.662853 42.617722, -59.644779 42.619290, -59.626704 42.620856, -59.608628 42.622419, -59.590551 42.623979, -59.572474 42.625536, -59.554395 42.627090, -59.536315 42.628642, -59.518235 42.630190, -59.500154 42.631736, -59.482071 42.633279, -59.463988 42.634819, -59.445904 42.636357, -59.427819 42.637891, -59.409734 42.639423, -59.391647 42.640951, -59.373559 42.642477, -59.355471 42.644000, -59.337382 42.645520, -59.319291 42.647038, -59.301200 42.648552, -59.283108 42.650064, -59.265015 42.651573, -59.246922 42.653079, -59.228827 42.654582, -59.210731 42.656082, -59.192635 42.657580, -59.174538 42.659074, -59.156440 42.660566, -59.138341 42.662055, -59.120241 42.663541, -59.102140 42.665024, -59.084039 42.666504, -59.065936 42.667982, -59.047833 42.669456, -59.029729 42.670928, -59.011624 42.672397, -58.993518 42.673863, -58.975411 42.675326, -58.957304 42.676787, -58.939195 42.678244, -58.921086 42.679699, -58.902976 42.681151, -58.884865 42.682600, -58.866753 42.684046, -58.848640 42.685489, -58.830527 42.686930, -58.812412 42.688367, -58.794297 42.689802, -58.776181 42.691234, -58.758064 42.692663, -58.739947 42.694089, -58.721828 42.695512, -58.703709 42.696932, -58.685589 42.698350, -58.667468 42.699765, -58.649346 42.701177, -58.631223 42.702586, -58.613100 42.703992, -58.594976 42.705395, -58.576851 42.706795, -58.558725 42.708193, -58.540598 42.709588, -58.522470 42.710979, -58.504342 42.712368, -58.486213 42.713755, -58.468083 42.715138, -58.449952 42.716518, -58.431820 42.717896, -58.413688 42.719271, -58.395555 42.720642, -58.377421 42.722011, -58.359286 42.723377, -58.341150 42.724741, -58.323014 42.726101, -58.304877 42.727459, -58.286739 42.728813, -58.268600 42.730165, -58.250461 42.731514, -58.232320 42.732860, -58.214179 42.734203, -58.196037 42.735544, -58.177895 42.736881, -58.159751 42.738216, -58.141607 42.739548, -58.123462 42.740876, -58.105316 42.742202, -58.087169 42.743526, -58.069022 42.744846, -58.050874 42.746163, -58.032725 42.747478, -58.014575 42.748790, -57.996425 42.750098, -57.978274 42.751404, -57.960122 42.752708, -57.941969 42.754008, -57.923815 42.755305, -57.905661 42.756600, -57.887506 42.757891, -57.869350 42.759180, -57.851194 42.760466, -57.833037 42.761749, -57.814878 42.763029, -57.796720 42.764306, -57.778560 42.765581, -57.760400 42.766852, -57.742239 42.768121, -57.724077 42.769387, -57.705915 42.770650, -57.687751 42.771910, -57.669587 42.773167, -57.651423 42.774422, -57.633257 42.775673, -57.615091 42.776922, -57.596924 42.778167, -57.578756 42.779410, -57.560588 42.780650, -57.542419 42.781887, -57.524249 42.783122, -57.506079 42.784353, -57.487907 42.785581, -57.469735 42.786807, -57.451563 42.788030, -57.433389 42.789250, -57.415215 42.790467, -57.397040 42.791681, -57.378865 42.792892, -57.360688 42.794100, -57.342511 42.795306, -57.324334 42.796509, -57.306155 42.797708, -57.287976 42.798905, -57.269796 42.800099, -57.251616 42.801290, -57.233435 42.802479, -57.215253 42.803664, -57.197070 42.804846, -57.178887 42.806026, -57.160703 42.807203, -57.142518 42.808377, -57.124333 42.809548, -57.106147 42.810716, -57.087960 42.811881, -57.069772 42.813043, -57.051584 42.814203, -57.033396 42.815359, -57.015206 42.816513, -56.997016 42.817664, -56.978825 42.818812, -56.960634 42.819957, -56.942441 42.821099, -56.924249 42.822239, -56.906055 42.823375, -56.887861 42.824509, -56.869666 42.825639, -56.851470 42.826767, -56.833274 42.827892, -56.815077 42.829014, -56.796880 42.830133, -56.778682 42.831249, -56.760483 42.832363, -56.742284 42.833473, -56.724083 42.834581, -56.705883 42.835686, -56.687681 42.836788, -56.669479 42.837887, -56.651276 42.838983, -56.633073 42.840076, -56.614869 42.841166, -56.596664 42.842254, -56.578459 42.843338, -56.560253 42.844420, -56.542047 42.845499, -56.523839 42.846575, -56.505632 42.847648, -56.487423 42.848718, -56.469214 42.849785, -56.451004 42.850849, -56.432794 42.851911, -56.414583 42.852970, -56.396371 42.854025, -56.378159 42.855078, -56.359946 42.856128, -56.341733 42.857175, -56.323519 42.858219, -56.305304 42.859261, -56.287089 42.860299, -56.268873 42.861334, -56.250656 42.862367, -56.232439 42.863397, -56.214221 42.864424, -56.196003 42.865448, -56.177784 42.866469, -56.159565 42.867487, -56.141344 42.868502, -56.123124 42.869514, -56.104902 42.870524, -56.086680 42.871531, -56.068458 42.872534, -56.050235 42.873535, -56.032011 42.874533, -56.013787 42.875528, -55.995562 42.876520, -55.977336 42.877510, -55.959110 42.878496, -55.940884 42.879479, -55.922656 42.880460, -55.904429 42.881438, -55.886200 42.882413, -55.867971 42.883385, -55.849742 42.884354, -55.831512 42.885320, -55.813281 42.886283, -55.795050 42.887243, -55.776818 42.888201, -55.758586 42.889155, -55.740353 42.890107, -55.722119 42.891056, -55.703885 42.892002, -55.685650 42.892945, -55.667415 42.893885, -55.649179 42.894822, -55.630943 42.895756, -55.612706 42.896688, -55.594469 42.897616, -55.576231 42.898542, -55.557993 42.899465, -55.539754 42.900385, -55.521514 42.901302, -55.503274 42.902216, -55.485033 42.903127, -55.466792 42.904035, -55.448550 42.904940, -55.430308 42.905843, -55.412065 42.906742, -55.393822 42.907639, -55.375578 42.908533, -55.357334 42.909424, -55.339089 42.910312, -55.320843 42.911197, -55.302597 42.912079, -55.284351 42.912958, -55.266104 42.913835, -55.247856 42.914708, -55.229608 42.915579, -55.211360 42.916447, -55.193111 42.917311, -55.174861 42.918173, -55.156611 42.919032, -55.138361 42.919888, -55.120109 42.920742, -55.101858 42.921592, -55.083606 42.922439, -55.065353 42.923284, -55.047100 42.924125, -55.028846 42.924964, -55.010592 42.925800, -54.992338 42.926633, -54.974083 42.927463, -54.955827 42.928290, -54.937571 42.929114, -54.919314 42.929935, -54.901057 42.930754, -54.882800 42.931569, -54.864542 42.932382, -54.846283 42.933192, -54.828024 42.933998, -54.809765 42.934802, -54.791505 42.935603, -54.773245 42.936401, -54.754984 42.937197, -54.736722 42.937989, -54.718461 42.938778, -54.700198 42.939565, -54.681936 42.940348, -54.663672 42.941129, -54.645409 42.941907, -54.627145 42.942682, -54.608880 42.943454, -54.590615 42.944223, -54.572350 42.944989, -54.554084 42.945752, -54.535817 42.946513, -54.517550 42.947270, -54.499283 42.948025, -54.481015 42.948776, -54.462747 42.949525, -54.444478 42.950271, -54.426209 42.951014, -54.407940 42.951754, -54.389670 42.952491, -54.371399 42.953225, -54.353129 42.953956, -54.334857 42.954685, -54.316586 42.955410, -54.298314 42.956133, -54.280041 42.956852, -54.261768 42.957569, -54.243495 42.958283, -54.225221 42.958994, -54.206947 42.959702, -54.188672 42.960407, -54.170397 42.961109, -54.152121 42.961809, -54.133845 42.962505, -54.115569 42.963199, -54.097292 42.963889, -54.079015 42.964577, -54.060738 42.965262, -54.042460 42.965944, -54.024181 42.966623, -54.005902 42.967299, -53.987623 42.967972, -53.969344 42.968642, -53.951064 42.969309, -53.932783 42.969974, -53.914503 42.970635, -53.896221 42.971294, -53.877940 42.971950, -53.859658 42.972603, -53.841376 42.973252, -53.823093 42.973899, -53.804810 42.974543, -53.786526 42.975185, -53.768243 42.975823, -53.749958 42.976458, -53.731674 42.977091, -53.713389 42.977720, -53.695103 42.978347, -53.676818 42.978970, -53.658532 42.979591, -53.640245 42.980209, -53.621958 42.980824, -53.603671 42.981436, -53.585383 42.982045, -53.567096 42.982652, -53.548807 42.983255, -53.530519 42.983855, -53.512230 42.984453, -53.493940 42.985047, -53.475651 42.985639, -53.457361 42.986228, -53.439070 42.986814, -53.420779 42.987397, -53.402488 42.987977, -53.384197 42.988554, -53.365905 42.989128, -53.347613 42.989699, -53.329320 42.990268, -53.311028 42.990833, -53.292734 42.991396, -53.274441 42.991955, -53.256147 42.992512, -53.237853 42.993066, -53.219559 42.993617, -53.201264 42.994165, -53.182969 42.994710, -53.164673 42.995252, -53.146377 42.995791, -53.128081 42.996327, -53.109785 42.996861, -53.091488 42.997391, -53.073191 42.997919, -53.054894 42.998443, -53.036596 42.998965, -53.018298 42.999484, -53.000000 43.000000, -52.983918 43.006412, -52.967832 43.012822, -52.951743 43.019229, -52.935651 43.025635, -52.919555 43.032038, -52.903456 43.038438, -52.887353 43.044837, -52.871247 43.051233, -52.855138 43.057627, -52.839026 43.064019, -52.822910 43.070408, -52.806790 43.076795, -52.790668 43.083180, -52.774542 43.089563, -52.758412 43.095944, -52.742280 43.102322, -52.726144 43.108698, -52.710004 43.115071, -52.693861 43.121443, -52.677715 43.127812, -52.661566 43.134178, -52.645413 43.140543, -52.629257 43.146905, -52.613097 43.153265, -52.596934 43.159623, -52.580768 43.165978, -52.564598 43.172331, -52.548425 43.178682, -52.532248 43.185031, -52.516069 43.191377, -52.499885 43.197721, -52.483699 43.204063, -52.467509 43.210403, -52.451316 43.216740, -52.435119 43.223075, -52.418919 43.229407, -52.402716 43.235738, -52.386509 43.242066, -52.370299 43.248391, -52.354086 43.254715, -52.337869 43.261036, -52.321649 43.267355, -52.305425 43.273672, -52.289198 43.279986, -52.272968 43.286298, -52.256734 43.292608, -52.240497 43.298915, -52.224257 43.305220, -52.208013 43.311523, -52.191766 43.317824, -52.175515 43.324122, -52.159261 43.330418, -52.143004 43.336711, -52.126744 43.343003, -52.110480 43.349292, -52.094212 43.355578, -52.077941 43.361863, -52.061667 43.368145, -52.045390 43.374425, -52.029109 43.380702, -52.012825 43.386977, -51.996537 43.393250, -51.980246 43.399521, -51.963952 43.405789, -51.947654 43.412055, -51.931353 43.418318, -51.915049 43.424580, -51.898741 43.430839, -51.882430 43.437095, -51.866115 43.443350, -51.849797 43.449602, -51.833476 43.455851, -51.817151 43.462099, -51.800823 43.468344, -51.784492 43.474587, -51.768157 43.480827, -51.751819 43.487065, -51.735477 43.493301, -51.719133 43.499534, -51.702784 43.505765, -51.686433 43.511994, -51.670078 43.518221, -51.653719 43.524445, -51.637357 43.530666, -51.620992 43.536886, -51.604624 43.543103, -51.588252 43.549318, -51.571876 43.555530, -51.555498 43.561740, -51.539116 43.567948, -51.522730 43.574153, -51.506342 43.580357, -51.489949 43.586557, -51.473554 43.592756, -51.457155 43.598952, -51.440753 43.605145, -51.424347 43.611337, -51.407938 43.617526, -51.391525 43.623712, -51.375110 43.629897, -51.358690 43.636079, -51.342268 43.642258, -51.325842 43.648436, -51.309413 43.654611, -51.292980 43.660783, -51.276544 43.666953, -51.260104 43.673121, -51.243661 43.679287, -51.227215 43.685450, -51.210766 43.691611, -51.194313 43.697769, -51.177856 43.703925, -51.161397 43.710079, -51.144933 43.716230, -51.128467 43.722379, -51.111997 43.728526, -51.095524 43.734670, -51.079047 43.740812, -51.062567 43.746951, -51.046084 43.753088, -51.029597 43.759223, -51.013107 43.765356, -50.996613 43.771486, -50.980116 43.777613, -50.963616 43.783738, -50.947112 43.789861, -50.930605 43.795982, -50.914095 43.802100, -50.897581 43.808216, -50.881064 43.814329, -50.864543 43.820440, -50.848019 43.826549, -50.831492 43.832655, -50.814961 43.838759, -50.798427 43.844861, -50.781889 43.850960, -50.765349 43.857056, -50.748804 43.863151, -50.732257 43.869243, -50.715706 43.875332, -50.699151 43.881419, -50.682593 43.887504, -50.666032 43.893587, -50.649468 43.899667, -50.632900 43.905744, -50.616328 43.911819, -50.599754 43.917892, -50.583176 43.923963, -50.566594 43.930031, -50.550009 43.936096, -50.533421 43.942160, -50.516829 43.948220, -50.500234 43.954279, -50.483636 43.960335, -50.467034 43.966388, -50.450429 43.972440, -50.433821 43.978488, -50.417209 43.984535, -50.400593 43.990579, -50.383975 43.996620, -50.367353 44.002660, -50.350727 44.008696, -50.334098 44.014731, -50.317466 44.020763, -50.300831 44.026792, -50.284192 44.032819, -50.267549 44.038844, -50.250903 44.044866, -50.234254 44.050886, -50.217602 44.056904, -50.200946 44.062919, -50.184287 44.068931, -50.167624 44.074942, -50.150958 44.080949, -50.134288 44.086955, -50.117615 44.092958, -50.100939 44.098958, -50.084260 44.104956, -50.067577 44.110952, -50.050890 44.116945, -50.034201 44.122936, -50.017507 44.128924, -50.000811 44.134910, -49.984111 44.140894, -49.967408 44.146875, -49.950701 44.152853, -49.933991 44.158829, -49.917277 44.164803, -49.900561 44.170775, -49.883840 44.176743, -49.867117 44.182710, -49.850390 44.188674, -49.833659 44.194635, -49.816926 44.200595, -49.800189 44.206551, -49.783448 44.212505, -49.766704 44.218457, -49.749957 44.224407, -49.733206 44.230353, -49.716452 44.236298, -49.699695 44.242240, -49.682934 44.248179, -49.666170 44.254117, -49.649402 44.260051, -49.632631 44.265983, -49.615857 44.271913, -49.599079 44.277840, -49.582298 44.283765, -49.565513 44.289688, -49.548725 44.295607, -49.531934 44.301525, -49.515139 44.307440, -49.498341 44.313352, -49.481540 44.319262, -49.464735 44.325170, -49.447927 44.331075, -49.431115 44.336978, -49.414300 44.342878, -49.397482 44.348776, -49.380660 44.354671, -49.363835 44.360564, -49.347006 44.366454, -49.330174 44.372342, -49.313339 44.378227, -49.296500 44.384110, -49.279658 44.389991, -49.262813 44.395869, -49.245964 44.401744, -49.229112 44.407617, -49.212256 44.413488, -49.195397 44.419356, -49.178535 44.425221, -49.161669 44.431085, -49.144800 44.436945, -49.127928 44.442803, -49.111052 44.448659, -49.094172 44.454512, -49.077290 44.460363, -49.060404 44.466211, -49.043514 44.472057, -49.026621 44.477900, -49.009725 44.483741, -48.992826 44.489579, -48.975923 44.495415, -48.959016 44.501248, -48.942107 44.507078, -48.925194 44.512907, -48.908277 44.518732, -48.891357 44.524556, -48.874434 44.530376, -48.857507 44.536195, -48.840577 44.542010, -48.823644 44.547824, -48.806707 44.553635, -48.789767 44.559443, -48.772823 44.565248, -48.755876 44.571052, -48.738926 44.576852, -48.721972 44.582651, -48.705015 44.588446, -48.688055 44.594240, -48.671091 44.600030, -48.654124 44.605818, -48.637153 44.611604, -48.620179 44.617387, -48.603202 44.623168, -48.586221 44.628946, -48.569237 44.634722, -48.552250 44.640495, -48.535259 44.646265, -48.518264 44.652033, -48.501267 44.657799, -48.484266 44.663562, -48.467261 44.669322, -48.450254 44.675080, -48.433242 44.680836, -48.416228 44.686589, -48.399210 44.692339, -48.382189 44.698087, -48.365164 44.703832, -48.348136 44.709575, -48.331105 44.715315, -48.314070 44.721053, -48.297032 44.726788, -48.279990 44.732521, -48.262945 44.738251, -48.245897 44.743979, -48.228845 44.749704, -48.211790 44.755426, -48.194731 44.761146, -48.177670 44.766864, -48.160604 44.772579, -48.143536 44.778291, -48.126464 44.784001, -48.109389 44.789708, -48.092310 44.795413, -48.075228 44.801115, -48.058142 44.806815, -48.041053 44.812512, -48.023961 44.818206, -48.006866 44.823898, -47.989767 44.829588, -47.972664 44.835275, -47.955559 44.840959, -47.938449 44.846641, -47.921337 44.852320, -47.904221 44.857997, -47.887102 44.863671, -47.869979 44.869342, -47.852853 44.875011, -47.835724 44.880678, -47.818591 44.886342, -47.801455 44.892003, -47.784316 44.897662, -47.767173 44.903318, -47.750027 44.908972, -47.732877 44.914623, -47.715724 44.920271, -47.698568 44.925917, -47.681408 44.931561, -47.664245 44.937201, -47.647079 44.942840, -47.629909 44.948475, -47.612736 44.954108, -47.595559 44.959739, -47.578379 44.965367, -47.561196 44.970992, -47.544009 44.976615, -47.526819 44.982235, -47.509626 44.987853, -47.492429 44.993468, -47.475229 44.999080, -47.458025 45.004690, -47.440818 45.010297, -47.423608 45.015902, -47.406395 45.021504, -47.389178 45.027104, -47.371957 45.032700, -47.354733 45.038295, -47.337506 45.043887, -47.320276 45.049476, -47.303042 45.055062, -47.285805 45.060646, -47.268564 45.066228, -47.251320 45.071807, -47.234073 45.077383, -47.216822 45.082956, -47.199568 45.088527, -47.182311 45.094096, -47.165050 45.099662, -47.147786 45.105225, -47.130519 45.110785, -47.113248 45.116343, -47.095974 45.121899, -47.078696 45.127452, -47.061415 45.133002, -47.044131 45.138549, -47.026843 45.144094, -47.009552 45.149637, -46.992258 45.155177, -46.974960 45.160714, -46.957659 45.166248, -46.940354 45.171780, -46.923047 45.177309, -46.905735 45.182836, -46.888421 45.188360, -46.871103 45.193882, -46.853782 45.199401, -46.836457 45.204917, -46.819129 45.210430, -46.801798 45.215941, -46.784463 45.221450, -46.767125 45.226956, -46.749783 45.232459, -46.732439 45.237959, -46.715090 45.243457, -46.697739 45.248952, -46.680384 45.254445, -46.663026 45.259935, -46.645664 45.265422, -46.628299 45.270907, -46.610931 45.276389, -46.593559 45.281869, -46.576184 45.287345, -46.558806 45.292820, -46.541424 45.298291, -46.524039 45.303760, -46.506651 45.309226, -46.489259 45.314690, -46.471864 45.320151, -46.454466 45.325609, -46.437064 45.331065, -46.419659 45.336518, -46.402250 45.341969, -46.384838 45.347416, -46.367423 45.352862, -46.350004 45.358304, -46.332582 45.363744, -46.315157 45.369181, -46.297728 45.374616, -46.280297 45.380048, -46.262861 45.385477, -46.245423 45.390903, -46.227980 45.396327, -46.210535 45.401749, -46.193086 45.407167, -46.175634 45.412583, -46.158179 45.417997, -46.140720 45.423407, -46.123258 45.428815, -46.105793 45.434221, -46.088324 45.439623, -46.070852 45.445023, -46.053376 45.450421, -46.035897 45.455815, -46.018415 45.461207, -46.000930 45.466597, -45.983441 45.471983, -45.965949 45.477367, -45.948453 45.482749, -45.930954 45.488127, -45.913452 45.493503, -45.895946 45.498877, -45.878437 45.504247, -45.860925 45.509615, -45.843410 45.514981, -45.825891 45.520343, -45.808368 45.525703, -45.790843 45.531060, -45.773314 45.536415, -45.755782 45.541767, -45.738246 45.547116, -45.720707 45.552463, -45.703165 45.557806, -45.685619 45.563148, -45.668070 45.568486, -45.650518 45.573822, -45.632962 45.579155, -45.615403 45.584485, -45.597841 45.589813, -45.580275 45.595138, -45.562706 45.600460, -45.545134 45.605780, -45.527558 45.611097, -45.509979 45.616411, -45.492397 45.621723, -45.474811 45.627032, -45.457222 45.632338, -45.439630 45.637641, -45.422035 45.642942, -45.404436 45.648240, -45.386833 45.653535, -45.369228 45.658828, -45.351619 45.664118, -45.334007 45.669405, -45.316391 45.674690, -45.298772 45.679972, -45.281150 45.685251, -45.263524 45.690527, -45.245895 45.695801, -45.228263 45.701072, -45.210628 45.706340, -45.192989 45.711606, -45.175347 45.716869, -45.157701 45.722129, -45.140052 45.727386, -45.122400 45.732641, -45.104745 45.737893, -45.087086 45.743142, -45.069424 45.748389, -45.051758 45.753632, -45.034089 45.758873, -45.016417 45.764112, -44.998742 45.769347, -44.981063 45.774580, -44.963381 45.779811, -44.945696 45.785038, -44.928007 45.790263, -44.910315 45.795485, -44.892620 45.800704, -44.874921 45.805921, -44.857219 45.811134, -44.839514 45.816345, -44.821806 45.821554, -44.804094 45.826759, -44.786379 45.831962, -44.768660 45.837162, -44.750938 45.842360, -44.733213 45.847554, -44.715485 45.852746, -44.697753 45.857935, -44.680018 45.863122, -44.662280 45.868306, -44.644538 45.873486, -44.626793 45.878665, -44.609045 45.883840, -44.591293 45.889013, -44.573539 45.894183, -44.555780 45.899350, -44.538019 45.904514, -44.520254 45.909676, -44.502486 45.914835, -44.484715 45.919991, -44.466940 45.925145, -44.449162 45.930295, -44.431381 45.935443, -44.413596 45.940588, -44.395808 45.945731, -44.378017 45.950870, -44.360222 45.956007, -44.342425 45.961141, -44.324624 45.966273, -44.306819 45.971401, -44.289011 45.976527, -44.271200 45.981650, -44.253386 45.986770, -44.235569 45.991888, -44.217748 45.997003, -44.199924 46.002115, -44.182096 46.007224, -44.164265 46.012330, -44.146431 46.017434, -44.128594 46.022535, -44.110753 46.027633, -44.092909 46.032728, -44.075062 46.037821, -44.057212 46.042911, -44.039358 46.047998, -44.021501 46.053082, -44.003641 46.058163, -43.985777 46.063242, -43.967910 46.068318, -43.950040 46.073391, -43.932166 46.078461, -43.914289 46.083529, -43.896409 46.088593, -43.878526 46.093655, -43.860639 46.098714, -43.842749 46.103771, -43.824856 46.108824, -43.806960 46.113875, -43.789060 46.118923, -43.771157 46.123968, -43.753251 46.129011, -43.735341 46.134050, -43.717428 46.139087, -43.699512 46.144121, -43.681593 46.149152, -43.663670 46.154181, -43.645744 46.159206, -43.627815 46.164229, -43.609882 46.169249, -43.591946 46.174266, -43.574007 46.179281, -43.556065 46.184292, -43.538119 46.189301, -43.520171 46.194307, -43.502218 46.199310, -43.484263 46.204310, -43.466304 46.209308, -43.448342 46.214303, -43.430377 46.219295, -43.412409 46.224284, -43.394437 46.229270, -43.376462 46.234253, -43.358484 46.239234, -43.340502 46.244212, -43.322517 46.249187, -43.304529 46.254159, -43.286538 46.259128, -43.268543 46.264095, -43.250546 46.269059, -43.232544 46.274020, -43.214540 46.278978, -43.196532 46.283933, -43.178522 46.288885, -43.160507 46.293835, -43.142490 46.298782, -43.124469 46.303726, -43.106446 46.308667, -43.088418 46.313605, -43.070388 46.318540, -43.052354 46.323473, -43.034317 46.328403, -43.016277 46.333330, -42.998234 46.338254, -42.980187 46.343175, -42.962137 46.348093, -42.944084 46.353009, -42.926028 46.357922, -42.907968 46.362831, -42.889905 46.367738, -42.871839 46.372643, -42.853770 46.377544, -42.835697 46.382442, -42.817621 46.387338, -42.799542 46.392231, -42.781460 46.397121, -42.763374 46.402008, -42.745285 46.406892, -42.727193 46.411774, -42.709098 46.416652, -42.690999 46.421528, -42.672898 46.426401, -42.654793 46.431271, -42.636684 46.436138, -42.618573 46.441002, -42.600458 46.445863, -42.582340 46.450722, -42.564219 46.455578, -42.546095 46.460430, -42.527967 46.465280, -42.509836 46.470128, -42.491702 46.474972, -42.473565 46.479813, -42.455424 46.484652, -42.437280 46.489487, -42.419133 46.494320, -42.400983 46.499150, -42.382830 46.503977, -42.364673 46.508801, -42.346513 46.513622, -42.328350 46.518441, -42.310184 46.523256, -42.292014 46.528069, -42.273841 46.532879, -42.255665 46.537685, -42.237486 46.542489, -42.219304 46.547291, -42.201118 46.552089, -42.182929 46.556884, -42.164737 46.561677, -42.146542 46.566466, -42.128343 46.571253, -42.110142 46.576037, -42.091937 46.580818, -42.073729 46.585596, -42.055517 46.590371, -42.037303 46.595143, -42.019085 46.599913, -42.000864 46.604679, -41.982640 46.609443, -41.964413 46.614203, -41.946182 46.618961, -41.927948 46.623716, -41.909711 46.628468, -41.891471 46.633217, -41.873228 46.637963, -41.854981 46.642707, -41.836731 46.647447, -41.818478 46.652185, -41.800222 46.656919, -41.781963 46.661651, -41.763700 46.666380, -41.745434 46.671106, -41.727165 46.675828, -41.708893 46.680549, -41.690618 46.685266, -41.672339 46.689980, -41.654058 46.694691, -41.635773 46.699400, -41.617485 46.704105, -41.599193 46.708808, -41.580899 46.713508, -41.562601 46.718204, -41.544300 46.722898, -41.525996 46.727589, -41.507689 46.732277, -41.489379 46.736962, -41.471065 46.741644, -41.452748 46.746324, -41.434428 46.751000, -41.416105 46.755673, -41.397779 46.760344, -41.379450 46.765011, -41.361117 46.769676, -41.342781 46.774338, -41.324442 46.778997, -41.306100 46.783652, -41.287755 46.788305, -41.269406 46.792955, -41.251054 46.797602, -41.232700 46.802246, -41.214342 46.806888, -41.195980 46.811526, -41.177616 46.816161, -41.159249 46.820794, -41.140878 46.825423, -41.122504 46.830049, -41.104127 46.834673, -41.085747 46.839294, -41.067364 46.843911, -41.048977 46.848526, -41.030587 46.853138, -41.012195 46.857747, -40.993799 46.862352, -40.975400 46.866955, -40.956997 46.871555, -40.938592 46.876152, -40.920183 46.880747, -40.901772 46.885338, -40.883357 46.889926, -40.864939 46.894511, -40.846517 46.899093, -40.828093 46.903673, -40.809666 46.908249, -40.791235 46.912823, -40.772801 46.917393, -40.754364 46.921960, -40.735924 46.926525, -40.717481 46.931087, -40.699035 46.935645, -40.680585 46.940201, -40.662133 46.944753, -40.643677 46.949303, -40.625218 46.953850, -40.606756 46.958394, -40.588291 46.962935, -40.569823 46.967472, -40.551351 46.972007, -40.532877 46.976539, -40.514399 46.981068, -40.495918 46.985594, -40.477434 46.990117, -40.458947 46.994637, -40.440457 46.999154, -40.421964 47.003668, -40.403467 47.008179, -40.384968 47.012687, -40.366465 47.017192, -40.347959 47.021695, -40.329450 47.026194, -40.310938 47.030690, -40.292423 47.035183, -40.273905 47.039673, -40.255383 47.044161, -40.236859 47.048645, -40.218331 47.053126, -40.199800 47.057604, -40.181267 47.062080, -40.162730 47.066552, -40.144190 47.071021, -40.125646 47.075488, -40.107100 47.079951, -40.088551 47.084411, -40.069998 47.088868, -40.051443 47.093323, -40.032884 47.097774, -40.014322 47.102222, -39.995757 47.106668, -39.977189 47.111110, -39.958618 47.115549, -39.940044 47.119986, -39.921466 47.124419, -39.902886 47.128849, -39.884302 47.133277, -39.865716 47.137701, -39.847126 47.142122, -39.828533 47.146541, -39.809938 47.150956, -39.791339 47.155368, -39.772737 47.159777, -39.754131 47.164184, -39.735523 47.168587, -39.716912 47.172987, -39.698298 47.177384, -39.679680 47.181778, -39.661060 47.186170, -39.642436 47.190558, -39.623809 47.194943, -39.605179 47.199325, -39.586547 47.203704, -39.567911 47.208080, -39.549272 47.212453, -39.530629 47.216823, -39.511984 47.221190, -39.493336 47.225554, -39.474685 47.229915, -39.456030 47.234273, -39.437373 47.238628, -39.418713 47.242980, -39.400049 47.247329, -39.381382 47.251675, -39.362713 47.256017, -39.344040 47.260357, -39.325364 47.264694, -39.306685 47.269028, -39.288003 47.273358, -39.269318 47.277686, -39.250630 47.282010, -39.231939 47.286332, -39.213245 47.290650, -39.194548 47.294966, -39.175848 47.299278, -39.157144 47.303588, -39.138438 47.307894, -39.119729 47.312197, -39.101016 47.316498, -39.082301 47.320795, -39.063582 47.325089, -39.044860 47.329380, -39.026136 47.333668, -39.007408 47.337953, -38.988678 47.342235, -38.969944 47.346514, -38.951207 47.350790, -38.932467 47.355062, -38.913724 47.359332, -38.894979 47.363599, -38.876230 47.367863, -38.857478 47.372123, -38.838723 47.376381, -38.819965 47.380635, -38.801204 47.384886, -38.782440 47.389135, -38.763673 47.393380, -38.744903 47.397622, -38.726129 47.401861, -38.707353 47.406097, -38.688574 47.410330, -38.669792 47.414560, -38.651007 47.418787, -38.632219 47.423011, -38.613427 47.427232, -38.594633 47.431449, -38.575836 47.435664, -38.557036 47.439875, -38.538232 47.444084, -38.519426 47.448289, -38.500617 47.452492, -38.481805 47.456691, -38.462989 47.460887, -38.444171 47.465080, -38.425350 47.469270, -38.406525 47.473457, -38.387698 47.477641, -38.368868 47.481821, -38.350035 47.485999, -38.331198 47.490174, -38.312359 47.494345, -38.293517 47.498513, -38.274672 47.502679, -38.255823 47.506841, -38.236972 47.511000, -38.218118 47.515156, -38.199261 47.519309, -38.180401 47.523459, -38.161537 47.527606, -38.142671 47.531749, -38.123802 47.535890, -38.104930 47.540027, -38.086055 47.544162, -38.067177 47.548293, -38.048296 47.552421, -38.029412 47.556546, -38.010525 47.560668, -37.991635 47.564787, -37.972742 47.568903, -37.953846 47.573016, -37.934947 47.577125, -37.916045 47.581232, -37.897141 47.585335, -37.878233 47.589435, -37.859322 47.593533, -37.840409 47.597627, -37.821492 47.601718, -37.802572 47.605805, -37.783650 47.609890, -37.764724 47.613972, -37.745796 47.618050, -37.726864 47.622126, -37.707930 47.626198, -37.688993 47.630267, -37.670052 47.634333, -37.651109 47.638396, -37.632163 47.642456, -37.613214 47.646512, -37.594262 47.650566, -37.575307 47.654616, -37.556349 47.658664, -37.537388 47.662708, -37.518424 47.666749, -37.499458 47.670787, -37.480488 47.674822, -37.461516 47.678853, -37.442540 47.682882, -37.423562 47.686907, -37.404580 47.690930, -37.385596 47.694949, -37.366609 47.698965, -37.347618 47.702978, -37.328625 47.706987, -37.309629 47.710994, -37.290630 47.714998, -37.271629 47.718998, -37.252624 47.722995, -37.233616 47.726989, -37.214606 47.730980, -37.195592 47.734968, -37.176576 47.738953, -37.157556 47.742934, -37.138534 47.746913, -37.119509 47.750888, -37.100481 47.754860, -37.081450 47.758829, -37.062416 47.762795, -37.043379 47.766757, -37.024340 47.770717, -37.005297 47.774673, -36.986252 47.778626, -36.967203 47.782576, -36.948152 47.786523, -36.929098 47.790467, -36.910041 47.794408, -36.890981 47.798345, -36.871918 47.802279, -36.852853 47.806211, -36.833784 47.810139, -36.814713 47.814063, -36.795638 47.817985, -36.776561 47.821903, -36.757481 47.825819, -36.738398 47.829731, -36.719312 47.833640, -36.700224 47.837546, -36.681132 47.841449, -36.662037 47.845348, -36.642940 47.849244, -36.623840 47.853138, -36.604737 47.857028, -36.585631 47.860914, -36.566522 47.864798, -36.547411 47.868679, -36.528296 47.872556, -36.509179 47.876430, -36.490058 47.880301, -36.470935 47.884169, -36.451809 47.888034, -36.432681 47.891895, -36.413549 47.895753, -36.394414 47.899608, -36.375277 47.903460, -36.356137 47.907309, -36.336994 47.911155, -36.317848 47.914997, -36.298699 47.918836, -36.279548 47.922672, -36.260393 47.926505, -36.241236 47.930335, -36.222076 47.934161, -36.202913 47.937984, -36.183747 47.941804, -36.164579 47.945621, -36.145407 47.949435, -36.126233 47.953246, -36.107056 47.957053, -36.087876 47.960857, -36.068693 47.964658, -36.049508 47.968456, -36.030319 47.972250, -36.011128 47.976042, -35.991934 47.979830, -35.972737 47.983615, -35.953538 47.987396, -35.934335 47.991175, -35.915130 47.994950, -35.895922 47.998722, -35.876711 48.002491, -35.857497 48.006257, -35.838281 48.010020, -35.819062 48.013779, -35.799839 48.017535, -35.780615 48.021288, -35.761387 48.025038, -35.742156 48.028784, -35.722923 48.032528, -35.703687 48.036268, -35.684448 48.040004, -35.665207 48.043738, -35.645962 48.047469, -35.626715 48.051196, -35.607465 48.054920, -35.588212 48.058641, -35.568957 48.062358, -35.549698 48.066073, -35.530437 48.069784, -35.511173 48.073492, -35.491906 48.077196, -35.472637 48.080898, -35.453365 48.084596, -35.434090 48.088291, -35.414812 48.091983, -35.395531 48.095672, -35.376248 48.099357, -35.356962 48.103039, -35.337673 48.106718, -35.318382 48.110394, -35.299087 48.114066, -35.279790 48.117735, -35.260490 48.121401, -35.241188 48.125064, -35.221882 48.128724, -35.202574 48.132380, -35.183263 48.136033, -35.163950 48.139683, -35.144633 48.143329, -35.125314 48.146973, -35.105992 48.150613, -35.086668 48.154250, -35.067341 48.157883, -35.048010 48.161514, -35.028678 48.165141, -35.009342 48.168765, -34.990004 48.172386, -34.970663 48.176003, -34.951319 48.179617, -34.931973 48.183228, -34.912624 48.186836, -34.893272 48.190440, -34.873917 48.194041, -34.854560 48.197639, -34.835200 48.201234, -34.815837 48.204826, -34.796471 48.208414, -34.777103 48.211999, -34.757732 48.215580, -34.738359 48.219159, -34.718982 48.222734, -34.699603 48.226306, -34.680222 48.229875, -34.660837 48.233440, -34.641450 48.237002, -34.622060 48.240561, -34.602668 48.244117, -34.583273 48.247669, -34.563875 48.251218, -34.544474 48.254764, -34.525071 48.258307, -34.505665 48.261846, -34.486256 48.265382, -34.466845 48.268915, -34.447431 48.272444, -34.428014 48.275970, -34.408595 48.279493, -34.389172 48.283013, -34.369748 48.286530, -34.350320 48.290043, -34.330890 48.293553, -34.311457 48.297059, -34.292022 48.300563, -34.272584 48.304063, -34.253143 48.307559, -34.233700 48.311053, -34.214254 48.314543, -34.194805 48.318030, -34.175353 48.321514, -34.155899 48.324994, -34.136443 48.328471, -34.116983 48.331945, -34.097521 48.335416, -34.078057 48.338883, -34.058589 48.342347, -34.039119 48.345808, -34.019647 48.349265, -34.000171 48.352719, -33.980694 48.356170, -33.961213 48.359618, -33.941730 48.363062, -33.922244 48.366503, -33.902756 48.369941, -33.883265 48.373375, -33.863771 48.376806, -33.844275 48.380234, -33.824776 48.383658, -33.805274 48.387080, -33.785770 48.390498, -33.766263 48.393912, -33.746754 48.397324, -33.727242 48.400732, -33.707727 48.404136, -33.688210 48.407538, -33.668690 48.410936, -33.649168 48.414331, -33.629642 48.417722, -33.610115 48.421110, -33.590584 48.424495, -33.571052 48.427877, -33.551516 48.431255, -33.531978 48.434630, -33.512437 48.438002, -33.492894 48.441370, -33.473348 48.444735, -33.453800 48.448097, -33.434249 48.451456, -33.414695 48.454811, -33.395139 48.458163, -33.375580 48.461511, -33.356019 48.464856, -33.336455 48.468198, -33.316888 48.471537, -33.297319 48.474872, -33.277748 48.478204, -33.258173 48.481532, -33.238597 48.484858, -33.219017 48.488180, -33.199435 48.491498, -33.179851 48.494814, -33.160264 48.498126, -33.140674 48.501434, -33.121082 48.504740, -33.101487 48.508042, -33.081890 48.511341, -33.062290 48.514636, -33.042688 48.517928, -33.023083 48.521217, -33.003475 48.524502, -32.983865 48.527784, -32.964253 48.531063, -32.944638 48.534338, -32.925020 48.537610, -32.905400 48.540879, -32.885777 48.544144, -32.866152 48.547407, -32.846524 48.550665, -32.826894 48.553921, -32.807261 48.557173, -32.787626 48.560421, -32.767988 48.563667, -32.748348 48.566909, -32.728705 48.570148, -32.709060 48.573383, -32.689412 48.576615, -32.669761 48.579844, -32.650108 48.583069, -32.630453 48.586291, -32.610795 48.589510, -32.591134 48.592725, -32.571471 48.595937, -32.551806 48.599145, -32.532138 48.602351, -32.512468 48.605553, -32.492795 48.608751, -32.473119 48.611946, -32.453441 48.615138, -32.433761 48.618327, -32.414078 48.621512, -32.394393 48.624694, -32.374705 48.627872, -32.355015 48.631047, -32.335322 48.634219, -32.315627 48.637387, -32.295929 48.640552, -32.276229 48.643714, -32.256526 48.646872, -32.236821 48.650027, -32.217113 48.653179, -32.197403 48.656327, -32.177691 48.659472, -32.157976 48.662613, -32.138258 48.665751, -32.118538 48.668886, -32.098816 48.672017, -32.079091 48.675145, -32.059364 48.678270, -32.039634 48.681391, -32.019902 48.684509, -32.000167 48.687624, -31.980430 48.690735, -31.960691 48.693843, -31.940949 48.696947, -31.921204 48.700048, -31.901458 48.703146, -31.881709 48.706240, -31.861957 48.709331, -31.842203 48.712418, -31.822446 48.715503, -31.802687 48.718583, -31.782926 48.721661, -31.763162 48.724735, -31.743396 48.727806, -31.723628 48.730873, -31.703857 48.733937, -31.684083 48.736997, -31.664308 48.740054, -31.644529 48.743108, -31.624749 48.746158, -31.604966 48.749205, -31.585180 48.752249, -31.565393 48.755289, -31.545602 48.758326, -31.525810 48.761359, -31.506015 48.764389, -31.486217 48.767416, -31.466418 48.770439, -31.446616 48.773459, -31.426811 48.776476, -31.407004 48.779489, -31.387195 48.782498, -31.367383 48.785505, -31.347569 48.788507, -31.327753 48.791507, -31.307934 48.794503, -31.288113 48.797496, -31.268290 48.800485, -31.248464 48.803471, -31.228636 48.806453, -31.208805 48.809433, -31.188972 48.812408, -31.169137 48.815380, -31.149299 48.818349, -31.129459 48.821315, -31.109617 48.824277, -31.089772 48.827236, -31.069925 48.830191, -31.050076 48.833143, -31.030224 48.836091, -31.010370 48.839036, -30.990514 48.841978, -30.970655 48.844916, -30.950794 48.847851, -30.930931 48.850782, -30.911065 48.853710, -30.891197 48.856635, -30.871327 48.859556, -30.851455 48.862474, -30.831580 48.865388, -30.811702 48.868299, -30.791823 48.871206, -30.771941 48.874110, -30.752057 48.877011, -30.732170 48.879908, -30.712282 48.882802, -30.692390 48.885693, -30.672497 48.888580, -30.652601 48.891463, -30.632703 48.894343, -30.612803 48.897220, -30.592901 48.900093, -30.572996 48.902963, -30.553089 48.905829, -30.533179 48.908692, -30.513268 48.911552, -30.493354 48.914408, -30.473437 48.917261, -30.453519 48.920110, -30.433598 48.922956, -30.413675 48.925799, -30.393750 48.928638, -30.373822 48.931473, -30.353892 48.934305, -30.333960 48.937134, -30.314026 48.939959, -30.294089 48.942781, -30.274150 48.945599, -30.254209 48.948414, -30.234266 48.951226, -30.214320 48.954034, -30.194373 48.956839, -30.174422 48.959640, -30.154470 48.962438, -30.134515 48.965232, -30.114559 48.968023, -30.094600 48.970810, -30.074638 48.973594, -30.054675 48.976375, -30.034709 48.979152, -30.014741 48.981925, -29.994771 48.984696, -29.974799 48.987462, -29.954824 48.990226, -29.934847 48.992986, -29.914868 48.995742, -29.894887 48.998495, -29.874903 49.001244, -29.854918 49.003991, -29.834930 49.006733, -29.814940 49.009472, -29.794948 49.012208, -29.774953 49.014940, -29.754957 49.017669, -29.734958 49.020394, -29.714957 49.023116, -29.694953 49.025835, -29.674948 49.028550, -29.654940 49.031261, -29.634931 49.033969, -29.614919 49.036674, -29.594905 49.039375, -29.574888 49.042073, -29.554870 49.044767, -29.534849 49.047458, -29.514826 49.050145, -29.494802 49.052829, -29.474774 49.055509, -29.454745 49.058186, -29.434714 49.060859, -29.414680 49.063529, -29.394644 49.066196, -29.374606 49.068859, -29.354566 49.071518, -29.334524 49.074174, -29.314480 49.076827, -29.294434 49.079476, -29.274385 49.082122, -29.254334 49.084764, -29.234281 49.087403, -29.214226 49.090038, -29.194169 49.092670, -29.174110 49.095298, -29.154049 49.097923, -29.133985 49.100544, -29.113920 49.103162, -29.093852 49.105777, -29.073782 49.108387, -29.053710 49.110995, -29.033636 49.113599, -29.013560 49.116199, -28.993482 49.118796, -28.973401 49.121390, -28.953319 49.123980, -28.933234 49.126566, -28.913148 49.129149, -28.893059 49.131729, -28.872968 49.134305, -28.852875 49.136878, -28.832780 49.139447, -28.812683 49.142012, -28.792584 49.144575, -28.772483 49.147133, -28.752379 49.149688, -28.732274 49.152240, -28.712166 49.154788, -28.692057 49.157333, -28.671945 49.159874, -28.651832 49.162412, -28.631716 49.164946, -28.611598 49.167477, -28.591478 49.170004, -28.571356 49.172528, -28.551232 49.175048, -28.531106 49.177565, -28.510978 49.180078, -28.490848 49.182588, -28.470716 49.185094, -28.450582 49.187597, -28.430446 49.190096, -28.410308 49.192592, -28.390167 49.195084, -28.370025 49.197572, -28.349881 49.200058, -28.329735 49.202539, -28.309586 49.205018, -28.289436 49.207492, -28.269283 49.209964, -28.249129 49.212431, -28.228973 49.214895, -28.208814 49.217356, -28.188654 49.219813, -28.168491 49.222267, -28.148327 49.224717, -28.128161 49.227164, -28.107992 49.229607, -28.087822 49.232047, -28.067649 49.234483, -28.047475 49.236915, -28.027299 49.239344, -28.007120 49.241770, -27.986940 49.244192, -27.966758 49.246611, -27.946573 49.249026, -27.926387 49.251437, -27.906199 49.253845, -27.886009 49.256250, -27.865816 49.258651, -27.845622 49.261048, -27.825426 49.263442, -27.805228 49.265832, -27.785028 49.268219, -27.764826 49.270603, -27.744622 49.272982, -27.724416 49.275359, -27.704209 49.277732, -27.683999 49.280101, -27.663787 49.282467, -27.643574 49.284829, -27.623358 49.287187, -27.603141 49.289543, -27.582921 49.291894, -27.562700 49.294242, -27.542476 49.296587, -27.522251 49.298928, -27.502024 49.301266, -27.481795 49.303600, -27.461564 49.305930, -27.441331 49.308257, -27.421096 49.310580, -27.400860 49.312900, -27.380621 49.315216, -27.360381 49.317529, -27.340138 49.319839, -27.319894 49.322144, -27.299648 49.324446, -27.279400 49.326745, -27.259150 49.329040, -27.238898 49.331332, -27.218644 49.333620, -27.198389 49.335904, -27.178131 49.338185, -27.157872 49.340463, -27.137611 49.342737, -27.117347 49.345007, -27.097082 49.347274, -27.076816 49.349537, -27.056547 49.351797, -27.036276 49.354053, -27.016004 49.356305, -26.995730 49.358554, -26.975453 49.360800, -26.955175 49.363042, -26.934896 49.365280, -26.914614 49.367515, -26.894330 49.369747, -26.874045 49.371974, -26.853758 49.374199, -26.833469 49.376419, -26.813178 49.378636, -26.792885 49.380850, -26.772591 49.383060, -26.752294 49.385267, -26.731996 49.387469, -26.711696 49.389669, -26.691394 49.391865, -26.671091 49.394057, -26.650785 49.396246, -26.630478 49.398431, -26.610169 49.400612, -26.589858 49.402790, -26.569546 49.404965, -26.549231 49.407136, -26.528915 49.409303, -26.508597 49.411467, -26.488277 49.413627, -26.467955 49.415784, -26.447632 49.417937, -26.427307 49.420087, -26.406980 49.422233, -26.386651 49.424375, -26.366321 49.426514, -26.345988 49.428649, -26.325654 49.430781, -26.305319 49.432909, -26.284981 49.435034, -26.264642 49.437155, -26.244301 49.439272, -26.223958 49.441386, -26.203613 49.443496, -26.183267 49.445603, -26.162919 49.447706, -26.142569 49.449806, -26.122217 49.451902, -26.101864 49.453995, -26.081509 49.456084, -26.061152 49.458169, -26.040793 49.460251, -26.020433 49.462329, -26.000071 49.464403, -25.979708 49.466475, -25.959342 49.468542, -25.938975 49.470606, -25.918606 49.472666, -25.898236 49.474723, -25.877863 49.476776, -25.857489 49.478826, -25.837114 49.480872, -25.816736 49.482914, -25.796357 49.484953, -25.775976 49.486988, -25.755594 49.489020, -25.735210 49.491048, -25.714824 49.493073, -25.694436 49.495094, -25.674047 49.497111, -25.653656 49.499125, -25.633264 49.501135, -25.612869 49.503141, -25.592473 49.505144, -25.572076 49.507144, -25.551677 49.509140, -25.531276 49.511132, -25.510873 49.513121, -25.490469 49.515106, -25.470063 49.517087, -25.449655 49.519065, -25.429246 49.521040, -25.408835 49.523010, -25.388423 49.524977, -25.368009 49.526941, -25.347593 49.528901, -25.327176 49.530857, -25.306757 49.532810, -25.286336 49.534759, -25.265914 49.536705, -25.245490 49.538647, -25.225064 49.540585, -25.204637 49.542520, -25.184208 49.544451, -25.163778 49.546379, -25.143346 49.548303, -25.122912 49.550223, -25.102477 49.552140, -25.082040 49.554053, -25.061602 49.555963, -25.041162 49.557869, -25.020720 49.559771, -25.000277 49.561670, -24.979832 49.563565, -24.959386 49.565457, -24.938938 49.567345, -24.918488 49.569229, -24.898037 49.571110, -24.877585 49.572987, -24.857130 49.574861, -24.836675 49.576731, -24.816217 49.578597, -24.795758 49.580460, -24.775298 49.582319, -24.754836 49.584175, -24.734372 49.586027, -24.713907 49.587875, -24.693440 49.589720, -24.672972 49.591561, -24.652502 49.593399, -24.632031 49.595233, -24.611558 49.597063, -24.591083 49.598890, -24.570607 49.600713, -24.550130 49.602532, -24.529651 49.604348, -24.509170 49.606160, -24.488688 49.607969, -24.468205 49.609774, -24.447720 49.611575, -24.427233 49.613373, -24.406745 49.615167, -24.386255 49.616958, -24.365764 49.618745, -24.345271 49.620528, -24.324777 49.622308, -24.304282 49.624084, -24.283785 49.625856, -24.263286 49.627625, -24.242786 49.629391, -24.222284 49.631152, -24.201781 49.632910, -24.181277 49.634665, -24.160771 49.636415, -24.140263 49.638162, -24.119754 49.639906, -24.099244 49.641646, -24.078732 49.643382, -24.058218 49.645115, -24.037704 49.646844, -24.017187 49.648569, -23.996670 49.650291, -23.976150 49.652009, -23.955630 49.653724, -23.935108 49.655434, -23.914584 49.657142, -23.894059 49.658845, -23.873533 49.660545, -23.853005 49.662242, -23.832476 49.663934, -23.811945 49.665624, -23.791413 49.667309, -23.770880 49.668991, -23.750345 49.670669, -23.729808 49.672344, -23.709271 49.674015, -23.688731 49.675682, -23.668191 49.677346, -23.647649 49.679006, -23.627105 49.680662, -23.606561 49.682315, -23.586014 49.683964, -23.565467 49.685610, -23.544918 49.687252, -23.524368 49.688890, -23.503816 49.690524, -23.483263 49.692155, -23.462708 49.693783, -23.442152 49.695406, -23.421595 49.697026, -23.401037 49.698643, -23.380477 49.700256, -23.359915 49.701865, -23.339353 49.703470, -23.318789 49.705072, -23.298223 49.706670, -23.277656 49.708265, -23.257088 49.709856, -23.236519 49.711443, -23.215948 49.713027, -23.195376 49.714607, -23.174802 49.716183, -23.154228 49.717756, -23.133651 49.719325, -23.113074 49.720891, -23.092495 49.722452, -23.071915 49.724011, -23.051334 49.725565, -23.030751 49.727116, -23.010167 49.728663, -22.989581 49.730207, -22.968995 49.731747, -22.948407 49.733283, -22.927817 49.734815, -22.907227 49.736344, -22.886635 49.737870, -22.866042 49.739391, -22.845447 49.740909, -22.824852 49.742424, -22.804255 49.743935, -22.783656 49.745442, -22.763057 49.746945, -22.742456 49.748445, -22.721854 49.749941, -22.701250 49.751433, -22.680646 49.752922, -22.660040 49.754407, -22.639432 49.755889, -22.618824 49.757367, -22.598214 49.758841, -22.577603 49.760311, -22.556991 49.761778, -22.536378 49.763241, -22.515763 49.764701, -22.495147 49.766157, -22.474530 49.767609, -22.453911 49.769058, -22.433292 49.770503, -22.412671 49.771944, -22.392049 49.773381, -22.371425 49.774815, -22.350801 49.776246, -22.330175 49.777672, -22.309548 49.779095, -22.288920 49.780515, -22.268291 49.781930, -22.247660 49.783342, -22.227028 49.784750, -22.206395 49.786155, -22.185761 49.787556, -22.165126 49.788953, -22.144489 49.790347, -22.123851 49.791737, -22.103212 49.793123, -22.082572 49.794506, -22.061931 49.795885, -22.041288 49.797260, -22.020645 49.798632, -22.000000 49.800000, -21.980053 49.803667, -21.960102 49.807331, -21.940149 49.810991, -21.920192 49.814648, -21.900233 49.818301, -21.880270 49.821951, -21.860304 49.825597, -21.840336 49.829240, -21.820364 49.832880, -21.800390 49.836516, -21.780412 49.840149, -21.760432 49.843778, -21.740448 49.847404, -21.720461 49.851026, -21.700472 49.854645, -21.680479 49.858261, -21.660484 49.861873, -21.640485 49.865482, -21.620484 49.869087, -21.600479 49.872689, -21.580472 49.876287, -21.560461 49.879882, -21.540448 49.883474, -21.520431 49.887062, -21.500412 49.890646, -21.480390 49.894227, -21.460364 49.897805, -21.440336 49.901379, -21.420305 49.904950, -21.400270 49.908517, -21.380233 49.912081, -21.360193 49.915642, -21.340150 49.919199, -21.320104 49.922752, -21.300055 49.926302, -21.280003 49.929849, -21.259948 49.933392, -21.239890 49.936932, -21.219829 49.940468, -21.199765 49.944001, -21.179699 49.947530, -21.159629 49.951056, -21.139556 49.954578, -21.119481 49.958097, -21.099402 49.961613, -21.079321 49.965125, -21.059237 49.968633, -21.039149 49.972138, -21.019059 49.975640, -20.998966 49.979138, -20.978870 49.982633, -20.958771 49.986124, -20.938669 49.989612, -20.918564 49.993096, -20.898457 49.996577, -20.878346 50.000054, -20.858233 50.003528, -20.838116 50.006998, -20.817997 50.010465, -20.797875 50.013928, -20.777750 50.017388, -20.757622 50.020845, -20.737491 50.024298, -20.717357 50.027747, -20.697220 50.031193, -20.677081 50.034635, -20.656938 50.038074, -20.636793 50.041510, -20.616645 50.044942, -20.596494 50.048371, -20.576340 50.051796, -20.556183 50.055217, -20.536023 50.058635, -20.515860 50.062050, -20.495695 50.065461, -20.475527 50.068868, -20.455355 50.072273, -20.435181 50.075673, -20.415004 50.079070, -20.394825 50.082464, -20.374642 50.085854, -20.354456 50.089241, -20.334268 50.092624, -20.314077 50.096003, -20.293883 50.099379, -20.273686 50.102752, -20.253486 50.106121, -20.233284 50.109487, -20.213078 50.112849, -20.192870 50.116207, -20.172659 50.119562, -20.152445 50.122914, -20.132228 50.126262, -20.112009 50.129606, -20.091786 50.132947, -20.071561 50.136285, -20.051333 50.139619, -20.031102 50.142950, -20.010869 50.146276, -19.990632 50.149600, -19.970393 50.152920, -19.950151 50.156236, -19.929906 50.159549, -19.909658 50.162859, -19.889408 50.166164, -19.869154 50.169467, -19.848898 50.172766, -19.828639 50.176061, -19.808377 50.179353, -19.788113 50.182641, -19.767846 50.185926, -19.747576 50.189207, -19.727303 50.192485, -19.707027 50.195759, -19.686749 50.199029, -19.666468 50.202296, -19.646184 50.205560, -19.625897 50.208820, -19.605607 50.212076, -19.585315 50.215329, -19.565020 50.218579, -19.544722 50.221825, -19.524422 50.225067, -19.504118 50.228306, -19.483812 50.231541, -19.463503 50.234773, -19.443192 50.238001, -19.422877 50.241226, -19.402560 50.244447, -19.382241 50.247664, -19.361918 50.250878, -19.341593 50.254089, -19.321265 50.257296, -19.300934 50.260499, -19.280600 50.263699, -19.260264 50.266895, -19.239925 50.270088, -19.219583 50.273277, -19.199239 50.276463, -19.178892 50.279645, -19.158542 50.282824, -19.138189 50.285999, -19.117834 50.289170, -19.097476 50.292338, -19.077115 50.295502, -19.056752 50.298663, -19.036386 50.301820, -19.016017 50.304974, -18.995645 50.308124, -18.975271 50.311271, -18.954894 50.314414, -18.934515 50.317553, -18.914132 50.320689, -18.893747 50.323821, -18.873360 50.326950, -18.852969 50.330075, -18.832576 50.333197, -18.812180 50.336315, -18.791782 50.339429, -18.771381 50.342540, -18.750977 50.345647, -18.730571 50.348751, -18.710162 50.351851, -18.689750 50.354948, -18.669335 50.358041, -18.648918 50.361130, -18.628499 50.364216, -18.608076 50.367298, -18.587651 50.370377, -18.567224 50.373452, -18.546793 50.376524, -18.526360 50.379592, -18.505925 50.382656, -18.485486 50.385717, -18.465046 50.388774, -18.444602 50.391828, -18.424156 50.394878, -18.403707 50.397925, -18.383256 50.400968, -18.362802 50.404007, -18.342345 50.407043, -18.321886 50.410075, -18.301424 50.413103, -18.280959 50.416128, -18.260492 50.419150, -18.240022 50.422168, -18.219550 50.425182, -18.199075 50.428192, -18.178598 50.431199, -18.158117 50.434203, -18.137635 50.437203, -18.117149 50.440199, -18.096661 50.443192, -18.076171 50.446181, -18.055678 50.449166, -18.035182 50.452148, -18.014684 50.455126, -17.994183 50.458101, -17.973680 50.461072, -17.953174 50.464039, -17.932665 50.467003, -17.912154 50.469963, -17.891640 50.472920, -17.871124 50.475873, -17.850605 50.478822, -17.830084 50.481768, -17.809560 50.484710, -17.789033 50.487649, -17.768504 50.490584, -17.747972 50.493515, -17.727438 50.496443, -17.706902 50.499367, -17.686362 50.502288, -17.665821 50.505205, -17.645276 50.508118, -17.624729 50.511028, -17.604180 50.513934, -17.583628 50.516836, -17.563074 50.519735, -17.542517 50.522630, -17.521957 50.525522, -17.501395 50.528410, -17.480831 50.531294, -17.460264 50.534175, -17.439694 50.537052, -17.419122 50.539926, -17.398548 50.542795, -17.377971 50.545662, -17.357391 50.548524, -17.336809 50.551383, -17.316224 50.554239, -17.295637 50.557090, -17.275048 50.559938, -17.254456 50.562783, -17.233861 50.565624, -17.213264 50.568461, -17.192665 50.571294, -17.172063 50.574124, -17.151458 50.576951, -17.130852 50.579773, -17.110242 50.582592, -17.089630 50.585408, -17.069016 50.588220, -17.048399 50.591028, -17.027780 50.593832, -17.007159 50.596633, -16.986534 50.599430, -16.965908 50.602224, -16.945279 50.605014, -16.924647 50.607800, -16.904014 50.610583, -16.883377 50.613362, -16.862738 50.616137, -16.842097 50.618909, -16.821454 50.621677, -16.800808 50.624441, -16.780159 50.627202, -16.759508 50.629959, -16.738855 50.632712, -16.718199 50.635462, -16.697541 50.638208, -16.676880 50.640951, -16.656217 50.643689, -16.635552 50.646425, -16.614884 50.649156, -16.594214 50.651884, -16.573541 50.654608, -16.552866 50.657329, -16.532189 50.660046, -16.511509 50.662759, -16.490827 50.665469, -16.470142 50.668174, -16.449455 50.670877, -16.428766 50.673575, -16.408074 50.676270, -16.387380 50.678961, -16.366684 50.681649, -16.345985 50.684333, -16.325284 50.687013, -16.304580 50.689690, -16.283875 50.692363, -16.263166 50.695032, -16.242456 50.697698, -16.221743 50.700360, -16.201027 50.703018, -16.180310 50.705672, -16.159590 50.708323, -16.138867 50.710971, -16.118143 50.713614, -16.097416 50.716254, -16.076686 50.718890, -16.055955 50.721523, -16.035221 50.724152, -16.014484 50.726777, -15.993746 50.729398, -15.973005 50.732016, -15.952261 50.734630, -15.931516 50.737241, -15.910768 50.739848, -15.890017 50.742451, -15.869265 50.745050, -15.848510 50.747646, -15.827753 50.750238, -15.806993 50.752826, -15.786232 50.755411, -15.765468 50.757992, -15.744701 50.760569, -15.723933 50.763143, -15.703162 50.765713, -15.682389 50.768279, -15.661613 50.770842, -15.640836 50.773401, -15.620056 50.775956, -15.599273 50.778507, -15.578489 50.781055, -15.557702 50.783599, -15.536913 50.786140, -15.516122 50.788676, -15.495328 50.791209, -15.474532 50.793739, -15.453734 50.796264, -15.432934 50.798786, -15.412131 50.801304, -15.391327 50.803819, -15.370519 50.806330, -15.349710 50.808837, -15.328899 50.811340, -15.308085 50.813840, -15.287269 50.816336, -15.266451 50.818828, -15.245630 50.821317, -15.224808 50.823802, -15.203983 50.826283, -15.183156 50.828761, -15.162327 50.831234, -15.141495 50.833704, -15.120662 50.836171, -15.099826 50.838633, -15.078988 50.841092, -15.058147 50.843548, -15.037305 50.845999, -15.016460 50.848447, -14.995614 50.850891, -14.974764 50.853331, -14.953913 50.855768, -14.933060 50.858201, -14.912204 50.860630, -14.891347 50.863056, -14.870487 50.865477, -14.849625 50.867896, -14.828761 50.870310, -14.807894 50.872721, -14.787026 50.875127, -14.766155 50.877531, -14.745282 50.879930, -14.724407 50.882326, -14.703530 50.884718, -14.682651 50.887106, -14.661769 50.889491, -14.640886 50.891872, -14.620000 50.894249, -14.599112 50.896622, -14.578222 50.898992, -14.557330 50.901358, -14.536436 50.903720, -14.515540 50.906079, -14.494642 50.908433, -14.473741 50.910784, -14.452838 50.913132, -14.431934 50.915475, -14.411027 50.917815, -14.390118 50.920151, -14.369207 50.922483, -14.348294 50.924812, -14.327378 50.927137, -14.306461 50.929458, -14.285542 50.931776, -14.264620 50.934089, -14.243697 50.936399, -14.222771 50.938705, -14.201843 50.941008, -14.180913 50.943307, -14.159982 50.945602, -14.139048 50.947893, -14.118112 50.950180, -14.097174 50.952464, -14.076234 50.954744, -14.055291 50.957020, -14.034347 50.959293, -14.013401 50.961562, -13.992453 50.963827, -13.971502 50.966088, -13.950550 50.968345, -13.929596 50.970599, -13.908639 50.972849, -13.887681 50.975096, -13.866720 50.977338, -13.845758 50.979577, -13.824793 50.981812, -13.803826 50.984043, -13.782858 50.986271, -13.761887 50.988494, -13.740915 50.990714, -13.719940 50.992931, -13.698964 50.995143, -13.677985 50.997352, -13.657004 50.999557, -13.636022 51.001758, -13.615037 51.003956, -13.594051 51.006149, -13.573062 51.008339, -13.552072 51.010526, -13.531079 51.012708, -13.510085 51.014887, -13.489088 51.017062, -13.468090 51.019233, -13.447089 51.021400, -13.426087 51.023564, -13.405083 51.025724, -13.384076 51.027880, -13.363068 51.030032, -13.342058 51.032181, -13.321046 51.034325, -13.300032 51.036466, -13.279016 51.038604, -13.257998 51.040737, -13.236978 51.042867, -13.215956 51.044993, -13.194933 51.047115, -13.173907 51.049233, -13.152879 51.051348, -13.131850 51.053459, -13.110819 51.055566, -13.089785 51.057669, -13.068750 51.059769, -13.047713 51.061865, -13.026674 51.063957, -13.005633 51.066045, -12.984590 51.068129, -12.963545 51.070210, -12.942499 51.072287, -12.921450 51.074360, -12.900400 51.076429, -12.879348 51.078495, -12.858294 51.080556, -12.837238 51.082614, -12.816180 51.084669, -12.795120 51.086719, -12.774058 51.088766, -12.752995 51.090808, -12.731929 51.092847, -12.710862 51.094883, -12.689793 51.096914, -12.668722 51.098942, -12.647650 51.100966, -12.626575 51.102986, -12.605499 51.105002, -12.584420 51.107015, -12.563340 51.109023, -12.542258 51.111028, -12.521174 51.113030, -12.500089 51.115027, -12.479001 51.117021, -12.457912 51.119010, -12.436821 51.120996, -12.415728 51.122979, -12.394634 51.124957, -12.373537 51.126932, -12.352439 51.128902, -12.331339 51.130869, -12.310237 51.132833, -12.289133 51.134792, -12.268028 51.136748, -12.246921 51.138699, -12.225812 51.140648, -12.204701 51.142592, -12.183588 51.144532, -12.162474 51.146469, -12.141358 51.148402, -12.120240 51.150331, -12.099120 51.152256, -12.077999 51.154177, -12.056876 51.156095, -12.035751 51.158009, -12.014624 51.159919, -11.993496 51.161825, -11.972366 51.163727, -11.951234 51.165626, -11.930100 51.167521, -11.908965 51.169412, -11.887828 51.171299, -11.866689 51.173182, -11.845548 51.175062, -11.824406 51.176937, -11.803262 51.178809, -11.782116 51.180677, -11.760969 51.182542, -11.739820 51.184402, -11.718669 51.186259, -11.697516 51.188112, -11.676362 51.189961, -11.655206 51.191806, -11.634048 51.193647, -11.612889 51.195485, -11.591728 51.197319, -11.570565 51.199149, -11.549401 51.200975, -11.528235 51.202797, -11.507067 51.204616, -11.485898 51.206431, -11.464727 51.208241, -11.443554 51.210048, -11.422380 51.211852, -11.401204 51.213651, -11.380026 51.215447, -11.358847 51.217238, -11.337666 51.219026, -11.316483 51.220811, -11.295299 51.222591, -11.274113 51.224367, -11.252925 51.226140, -11.231736 51.227909, -11.210545 51.229674, -11.189353 51.231435, -11.168159 51.233192, -11.146963 51.234946, -11.125766 51.236695, -11.104567 51.238441, -11.083367 51.240183, -11.062164 51.241922, -11.040961 51.243656, -11.019755 51.245386, -10.998549 51.247113, -10.977340 51.248836, -10.956130 51.250555, -10.934918 51.252270, -10.913705 51.253982, -10.892490 51.255689, -10.871274 51.257393, -10.850056 51.259093, -10.828836 51.260789, -10.807615 51.262481, -10.786393 51.264169, -10.765169 51.265854, -10.743943 51.267535, -10.722715 51.269211, -10.701487 51.270884, -10.680256 51.272554, -10.659024 51.274219, -10.637791 51.275880, -10.616556 51.277538, -10.595319 51.279192, -10.574081 51.280842, -10.552842 51.282488, -10.531600 51.284130, -10.510358 51.285769, -10.489114 51.287403, -10.467868 51.289034, -10.446621 51.290661, -10.425372 51.292284, -10.404122 51.293903, -10.382870 51.295519, -10.361617 51.297130, -10.340363 51.298738, -10.319106 51.300342, -10.297849 51.301942, -10.276590 51.303538, -10.255329 51.305130, -10.234067 51.306718, -10.212804 51.308303, -10.191539 51.309884, -10.170272 51.311461, -10.149004 51.313034, -10.127735 51.314603, -10.106464 51.316168, -10.085192 51.317730, -10.063918 51.319287, -10.042643 51.320841, -10.021366 51.322391, -10.000088 51.323937, -9.978809 51.325479, -9.957528 51.327018, -9.936245 51.328552, -9.914962 51.330083, -9.893677 51.331609, -9.872390 51.333132, -9.851102 51.334651, -9.829813 51.336167, -9.808522 51.337678, -9.787230 51.339185, -9.765936 51.340689, -9.744641 51.342189, -9.723345 51.343685, -9.702047 51.345177, -9.680748 51.346665, -9.659447 51.348149, -9.638145 51.349630, -9.616842 51.351106, -9.595537 51.352579, -9.574231 51.354048, -9.552924 51.355513, -9.531615 51.356974, -9.510305 51.358431, -9.488993 51.359885, -9.467680 51.361334, -9.446366 51.362780, -9.425051 51.364222, -9.403734 51.365659, -9.382416 51.367094, -9.361096 51.368524, -9.339775 51.369950, -9.318453 51.371372, -9.297130 51.372791, -9.275805 51.374206, -9.254479 51.375617, -9.233151 51.377024, -9.211822 51.378427, -9.190492 51.379826, -9.169161 51.381221, -9.147828 51.382613, -9.126494 51.384000, -9.105159 51.385384, -9.083822 51.386764, -9.062485 51.388140, -9.041145 51.389512, -9.019805 51.390880, -8.998463 51.392245, -8.977120 51.393605, -8.955776 51.394962, -8.934431 51.396314, -8.913084 51.397663, -8.891736 51.399008, -8.870387 51.400349, -8.849036 51.401687, -8.827685 51.403020, -8.806332 51.404349, -8.784977 51.405675, -8.763622 51.406997, -8.742265 51.408314, -8.720907 51.409628, -8.699548 51.410938, -8.678188 51.412245, -8.656826 51.413547, -8.635463 51.414845, -8.614099 51.416140, -8.592734 51.417430, -8.571368 51.418717, -8.550000 51.420000)
