LINESTRING (-3.000000 53.400000, -3.022676 53.404591, -3.045357 53.409177, -3.068043 53.413759, -3.090734 53.418337, -3.113429 53.422910, -3.136130 53.427480, -3.158835 53.432044, -3.181546 53.436605, -3.204261 53.441161, -3.226981 53.445713, -3.249706 53.450261, -3.272435 53.454804, -3.295170 53.459343, -3.317910 53.463878, -3.340654 53.468408, -3.363403 53.472934, -3.386157 53.477456, -3.408916 53.481974, -3.431680 53.486487, -3.454448 53.490995, -3.477222 53.495500, -3.500000 53.500000, -3.520223 53.491684, -3.540439 53.483365, -3.560646 53.475043, -3.580846 53.466717, -3.601038 53.458387, -3.621221 53.450055, -3.641397 53.441719, -3.661565 53.433379, -3.681725 53.425036, -3.701877 53.416690, -3.722021 53.408340, -3.742158 53.399987, -3.762286 53.391630, -3.782407 53.383271, -3.802519 53.374907, -3.822624 53.366541, -3.842721 53.358171, -3.862809 53.349797, -3.882890 53.341421, -3.902964 53.333040, -3.923029 53.324657, -3.943086 53.316270, -3.963135 53.307880, -3.983177 53.299486, -4.003211 53.291089, -4.023237 53.282689, -4.043254 53.274285, -4.063265 53.265879, -4.083267 53.257468, -4.103261 53.249054, -4.123247 53.240637, -4.143226 53.232217, -4.163197 53.223793, -4.183160 53.215366, -4.203115 53.206936, -4.223062 53.198502, -4.243001 53.190065, -4.262933 53.181625, -4.282856 53.173181, -4.302772 53.164734, -4.322680 53.156284, -4.342580 53.147830, -4.362473 53.139373, -4.382357 53.130913, -4.402234 53.122449, -4.422102 53.113982, -4.441963 53.105512, -4.461817 53.097039, -4.481662 53.088562, -4.501499 53.080082, -4.521329 53.071598, -4.541151 53.063112, -4.560965 53.054622, -4.580771 53.046128, -4.600570 53.037632, -4.620360 53.029132, -4.640143 53.020629, -4.659918 53.012122, -4.679686 53.003613, -4.699445 52.995100, -4.719197 52.986583, -4.738941 52.978064, -4.758677 52.969541, -4.778405 52.961015, -4.798126 52.952486, -4.817838 52.943953, -4.837543 52.935417, -4.857241 52.926878, -4.876930 52.918336, -4.896612 52.909790, -4.916286 52.901241, -4.935952 52.892689, -4.955610 52.884134, -4.975261 52.875575, -4.994904 52.867013, -5.014539 52.858448, -5.034166 52.849880, -5.053786 52.841308, -5.073398 52.832733, -5.093002 52.824155, -5.112598 52.815574, -5.132187 52.806990, -5.151768 52.798402, -5.171341 52.789811, -5.190906 52.781217, -5.210464 52.772619, -5.230014 52.764019, -5.249556 52.755415, -5.269091 52.746808, -5.288618 52.738198, -5.308137 52.729584, -5.327648 52.720968, -5.347152 52.712348, -5.366648 52.703725, -5.386136 52.695099, -5.405617 52.686469, -5.425090 52.677837, -5.444555 52.669201, -5.464013 52.660562, -5.483462 52.651920, -5.502905 52.643274, -5.522339 52.634626, -5.541766 52.625974, -5.561185 52.617319, -5.580596 52.608661, -5.600000 52.600000, -5.611580 52.587157, -5.623153 52.574313, -5.634719 52.561468, -5.646278 52.548622, -5.657831 52.535774, -5.669377 52.522926, -5.680916 52.510076, -5.692448 52.497225, -5.703974 52.484373, -5.715492 52.471520, -5.727005 52.458666, -5.738510 52.445811, -5.750009 52.432954, -5.761501 52.420097, -5.772986 52.407238, -5.784465 52.394379, -5.795937 52.381518, -5.807402 52.368656, -5.818860 52.355793, -5.830312 52.342929, -5.841757 52.330063, -5.853196 52.317197, -5.864628 52.304330, -5.876053 52.291461, -5.887472 52.278591, -5.898884 52.265721, -5.910289 52.252849, -5.921688 52.239976, -5.933080 52.227102, -5.944466 52.214226, -5.955845 52.201350, -5.967217 52.188473, -5.978583 52.175594, -5.989942 52.162715, -6.001295 52.149834, -6.012641 52.136953, -6.023980 52.124070, -6.035313 52.111186, -6.046640 52.098301, -6.057960 52.085415, -6.069273 52.072528, -6.080580 52.059639, -6.091880 52.046750, -6.103174 52.033860, -6.114461 52.020968, -6.125742 52.008076, -6.137016 51.995182, -6.148284 51.982287, -6.159545 51.969392, -6.170800 51.956495, -6.182048 51.943597, -6.193290 51.930698, -6.204525 51.917798, -6.215754 51.904897, -6.226977 51.891994, -6.238193 51.879091, -6.249402 51.866187, -6.260605 51.853281, -6.271802 51.840375, -6.282992 51.827467, -6.294176 51.814559, -6.305354 51.801649, -6.316525 51.788738, -6.327690 51.775827, -6.338848 51.762914, -6.350000 51.750000, -6.372190 51.744820, -6.394375 51.739635, -6.416555 51.734446, -6.438730 51.729254, -6.460899 51.724057, -6.483064 51.718855, -6.505223 51.713650, -6.527378 51.708440, -6.549527 51.703227, -6.571671 51.698009, -6.593810 51.692787, -6.615944 51.687561, -6.638073 51.682330, -6.660197 51.677096, -6.682315 51.671857, -6.704429 51.666614, -6.726537 51.661367, -6.748640 51.656116, -6.770738 51.650861, -6.792831 51.645602, -6.814919 51.640338, -6.837002 51.635070, -6.859080 51.629798, -6.881152 51.624522, -6.903219 51.619242, -6.925282 51.613958, -6.947339 51.608670, -6.969391 51.603377, -6.991437 51.598081, -7.013479 51.592780, -7.035516 51.587475, -7.057547 51.582166, -7.079573 51.576853, -7.101594 51.571535, -7.123610 51.566214, -7.145621 51.560888, -7.167626 51.555559, -7.189627 51.550225, -7.211622 51.544887, -7.233612 51.539545, -7.255597 51.534199, -7.277577 51.528849, -7.299551 51.523495, -7.321521 51.518136, -7.343485 51.512774, -7.365444 51.507407, -7.387398 51.502037, -7.409347 51.496662, -7.431290 51.491283, -7.453229 51.485900, -7.475162 51.480513, -7.497090 51.475122, -7.519013 51.469726, -7.540930 51.464327, -7.562843 51.458924, -7.584750 51.453516, -7.606652 51.448105, -7.628549 51.442689, -7.650441 51.437269, -7.672327 51.431845, -7.694209 51.426417, -7.716085 51.420985, -7.737956 51.415549, -7.759821 51.410109, -7.781682 51.404665, -7.803537 51.399217, -7.825387 51.393765, -7.847232 51.388308, -7.869072 51.382848, -7.890906 51.377383, -7.912735 51.371915, -7.934559 51.366442, -7.956378 51.360965, -7.978192 51.355485, -8.000000 51.350000, -8.008022 51.363524, -8.016048 51.377046, -8.024080 51.390569, -8.032116 51.404091, -8.040156 51.417612, -8.048202 51.431133, -8.056252 51.444653, -8.064307 51.458173, -8.072367 51.471692, -8.080432 51.485210, -8.088501 51.498728, -8.096575 51.512246, -8.104654 51.525763, -8.112738 51.539279, -8.120826 51.552795, -8.128920 51.566310, -8.137018 51.579825, -8.145121 51.593339, -8.153229 51.606852, -8.161341 51.620365, -8.169459 51.633878, -8.177581 51.647390, -8.185708 51.660901, -8.193840 51.674412, -8.201977 51.687922, -8.210119 51.701431, -8.218266 51.714940, -8.226417 51.728449, -8.234573 51.741957, -8.242735 51.755464, -8.250901 51.768971, -8.259072 51.782477, -8.267247 51.795983, -8.275428 51.809488, -8.283614 51.822993, -8.291805 51.836497, -8.300000 51.850000, -8.308751 51.836964, -8.317497 51.823927, -8.326238 51.810889, -8.334974 51.797851, -8.343704 51.784812, -8.352430 51.771772, -8.361151 51.758732, -8.369866 51.745691, -8.378577 51.732649, -8.387283 51.719607, -8.395983 51.706564, -8.404679 51.693521, -8.413369 51.680476, -8.422055 51.667432, -8.430735 51.654386, -8.439411 51.641340, -8.448081 51.628294, -8.456747 51.615246, -8.465407 51.602198, -8.474063 51.589150, -8.482714 51.576100, -8.491359 51.563051, -8.500000 51.550000, -8.522384 51.545368, -8.544764 51.540732, -8.567139 51.536091, -8.589509 51.531446, -8.611875 51.526797, -8.634236 51.522143, -8.656593 51.517486, -8.678945 51.512824, -8.701292 51.508158, -8.723635 51.503487, -8.745974 51.498813, -8.768308 51.494134, -8.790637 51.489451, -8.812961 51.484764, -8.835281 51.480072, -8.857597 51.475376, -8.879908 51.470676, -8.902214 51.465972, -8.924516 51.461263, -8.946813 51.456551, -8.969105 51.451834, -8.991393 51.447112, -9.013676 51.442387, -9.035955 51.437657, -9.058229 51.432923, -9.080498 51.428185, -9.102763 51.423443, -9.125023 51.418697, -9.147278 51.413946, -9.169529 51.409191, -9.191775 51.404432, -9.214017 51.399668, -9.236254 51.394901, -9.258486 51.390129, -9.280714 51.385353, -9.302937 51.380573, -9.325156 51.375788, -9.347369 51.371000, -9.369578 51.366207, -9.391783 51.361410, -9.413983 51.356609, -9.436178 51.351803, -9.458368 51.346994, -9.480554 51.342180, -9.502735 51.337362, -9.524912 51.332540, -9.547084 51.327714, -9.569251 51.322883, -9.591413 51.318048, -9.613571 51.313209, -9.635724 51.308366, -9.657873 51.303519, -9.680017 51.298668, -9.702156 51.293812, -9.724290 51.288952, -9.746420 51.284088, -9.768545 51.279220, -9.790666 51.274348, -9.812781 51.269472, -9.834892 51.264591, -9.856999 51.259706, -9.879100 51.254817, -9.901197 51.249924, -9.923289 51.245027, -9.945377 51.240125, -9.967459 51.235220, -9.989538 51.230310, -10.011611 51.225396, -10.033679 51.220478, -10.055743 51.215556, -10.077803 51.210630, -10.099857 51.205699, -10.121907 51.200765, -10.143952 51.195826, -10.165992 51.190883, -10.188028 51.185936, -10.210059 51.180985, -10.232085 51.176029, -10.254106 51.171070, -10.276123 51.166106, -10.298135 51.161139, -10.320142 51.156167, -10.342144 51.151191, -10.364142 51.146211, -10.386135 51.141227, -10.408123 51.136238, -10.430106 51.131246, -10.452085 51.126249, -10.474059 51.121248, -10.496028 51.116244, -10.517992 51.111235, -10.539952 51.106222, -10.561907 51.101204, -10.583857 51.096183, -10.605802 51.091158, -10.627743 51.086128, -10.649678 51.081095, -10.671609 51.076057, -10.693536 51.071015, -10.715457 51.065969, -10.737374 51.060919, -10.759286 51.055865, -10.781193 51.050807, -10.803095 51.045745, -10.824993 51.040678, -10.846885 51.035608, -10.868773 51.030533, -10.890656 51.025455, -10.912535 51.020372, -10.934408 51.015285, -10.956277 51.010194, -10.978141 51.005099, -11.000000 51.000000, -11.023367 50.999205, -11.046733 50.998405, -11.070098 50.997601, -11.093462 50.996792, -11.116825 50.995978, -11.140188 50.995160, -11.163550 50.994337, -11.186911 50.993509, -11.210271 50.992677, -11.233630 50.991840, -11.256988 50.990998, -11.280346 50.990152, -11.303703 50.989301, -11.327059 50.988446, -11.350414 50.987585, -11.373768 50.986720, -11.397121 50.985851, -11.420473 50.984977, -11.443825 50.984098, -11.467176 50.983214, -11.490525 50.982326, -11.513874 50.981433, -11.537222 50.980536, -11.560569 50.979634, -11.583915 50.978727, -11.607260 50.977815, -11.630605 50.976899, -11.653948 50.975978, -11.677291 50.975053, -11.700632 50.974123, -11.723973 50.973188, -11.747312 50.972249, -11.770651 50.971305, -11.793989 50.970356, -11.817325 50.969403, -11.840661 50.968445, -11.863996 50.967482, -11.887330 50.966515, -11.910663 50.965543, -11.933995 50.964567, -11.957326 50.963585, -11.980656 50.962599, -12.003985 50.961609, -12.027313 50.960614, -12.050640 50.959614, -12.073966 50.958610, -12.097290 50.957601, -12.120614 50.956587, -12.143937 50.955568, -12.167259 50.954545, -12.190580 50.953518, -12.213900 50.952485, -12.237219 50.951448, -12.260536 50.950407, -12.283853 50.949361, -12.307169 50.948310, -12.330483 50.947254, -12.353797 50.946194, -12.377109 50.945129, -12.400421 50.944060, -12.423731 50.942986, -12.447040 50.941907, -12.470348 50.940824, -12.493655 50.939736, -12.516961 50.938643, -12.540266 50.937546, -12.563570 50.936444, -12.586873 50.935337, -12.610174 50.934226, -12.633475 50.933110, -12.656774 50.931990, -12.680072 50.930865, -12.703369 50.929735, -12.726665 50.928601, -12.749960 50.927462, -12.773254 50.926318, -12.796546 50.925170, -12.819837 50.924017, -12.843128 50.922859, -12.866417 50.921697, -12.889705 50.920530, -12.912991 50.919359, -12.936277 50.918183, -12.959561 50.917002, -12.982844 50.915817, -13.006126 50.914627, -13.029407 50.913432, -13.052687 50.912233, -13.075965 50.911029, -13.099242 50.909821, -13.122518 50.908607, -13.145793 50.907390, -13.169066 50.906167, -13.192339 50.904940, -13.215610 50.903709, -13.238879 50.902472, -13.262148 50.901232, -13.285415 50.899986, -13.308682 50.898736, -13.331946 50.897481, -13.355210 50.896222, -13.378472 50.894958, -13.401733 50.893689, -13.424993 50.892416, -13.448252 50.891138, -13.471509 50.889856, -13.494765 50.888569, -13.518020 50.887277, -13.541273 50.885981, -13.564525 50.884680, -13.587776 50.883374, -13.611025 50.882064, -13.634274 50.880749, -13.657520 50.879430, -13.680766 50.878106, -13.704010 50.876777, -13.727253 50.875444, -13.750495 50.874106, -13.773735 50.872763, -13.796974 50.871416, -13.820211 50.870065, -13.843447 50.868708, -13.866682 50.867347, -13.889916 50.865982, -13.913148 50.864611, -13.936379 50.863237, -13.959608 50.861857, -13.982836 50.860473, -14.006063 50.859085, -14.029288 50.857691, -14.052512 50.856294, -14.075734 50.854891, -14.098955 50.853484, -14.122175 50.852072, -14.145393 50.850656, -14.168610 50.849235, -14.191825 50.847810, -14.215039 50.846380, -14.238252 50.844945, -14.261463 50.843506, -14.284673 50.842062, -14.307881 50.840613, -14.331088 50.839160, -14.354293 50.837703, -14.377497 50.836240, -14.400699 50.834773, -14.423900 50.833302, -14.447100 50.831826, -14.470298 50.830345, -14.493495 50.828860, -14.516690 50.827370, -14.539883 50.825875, -14.563075 50.824376, -14.586266 50.822872, -14.609455 50.821364, -14.632643 50.819851, -14.655829 50.818334, -14.679014 50.816812, -14.702197 50.815285, -14.725378 50.813754, -14.748558 50.812218, -14.771737 50.810677, -14.794914 50.809132, -14.818090 50.807583, -14.841263 50.806028, -14.864436 50.804470, -14.887607 50.802906, -14.910776 50.801338, -14.933944 50.799766, -14.957110 50.798188, -14.980275 50.796607, -15.003438 50.795020, -15.026599 50.793429, -15.049759 50.791834, -15.072917 50.790234, -15.096074 50.788629, -15.119229 50.787020, -15.142383 50.785406, -15.165535 50.783787, -15.188685 50.782164, -15.211834 50.780537, -15.234981 50.778905, -15.258126 50.777268, -15.281270 50.775627, -15.304412 50.773981, -15.327553 50.772330, -15.350692 50.770675, -15.373829 50.769015, -15.396965 50.767351, -15.420099 50.765682, -15.443231 50.764009, -15.466362 50.762331, -15.489491 50.760648, -15.512619 50.758961, -15.535744 50.757270, -15.558868 50.755573, -15.581991 50.753873, -15.605112 50.752167, -15.628231 50.750457, -15.651348 50.748743, -15.674463 50.747023, -15.697577 50.745300, -15.720690 50.743572, -15.743800 50.741839, -15.766909 50.740101, -15.790016 50.738359, -15.813121 50.736613, -15.836225 50.734862, -15.859327 50.733106, -15.882427 50.731346, -15.905526 50.729581, -15.928622 50.727812, -15.951717 50.726038, -15.974810 50.724259, -15.997902 50.722476, -16.020992 50.720689, -16.044079 50.718897, -16.067166 50.717100, -16.090250 50.715299, -16.113333 50.713493, -16.136413 50.711682, -16.159492 50.709868, -16.182570 50.708048, -16.205645 50.706224, -16.228719 50.704395, -16.251791 50.702562, -16.274861 50.700725, -16.297929 50.698882, -16.320995 50.697035, -16.344060 50.695184, -16.367123 50.693328, -16.390184 50.691468, -16.413243 50.689603, -16.436300 50.687733, -16.459356 50.685859, -16.482409 50.683980, -16.505461 50.682097, -16.528511 50.680209, -16.551559 50.678317, -16.574605 50.676420, -16.597649 50.674519, -16.620692 50.672613, -16.643732 50.670703, -16.666771 50.668787, -16.689808 50.666868, -16.712843 50.664944, -16.735876 50.663015, -16.758907 50.661082, -16.781936 50.659144, -16.804964 50.657202, -16.827989 50.655255, -16.851013 50.653304, -16.874034 50.651348, -16.897054 50.649388, -16.920072 50.647423, -16.943088 50.645453, -16.966101 50.643479, -16.989113 50.641501, -17.012123 50.639518, -17.035132 50.637530, -17.058138 50.635538, -17.081142 50.633541, -17.104144 50.631540, -17.127144 50.629535, -17.150143 50.627524, -17.173139 50.625510, -17.196133 50.623490, -17.219126 50.621466, -17.242116 50.619438, -17.265105 50.617405, -17.288091 50.615368, -17.311076 50.613326, -17.334058 50.611280, -17.357038 50.609229, -17.380017 50.607173, -17.402993 50.605113, -17.425968 50.603049, -17.448940 50.600980, -17.471911 50.598906, -17.494879 50.596828, -17.517845 50.594746, -17.540810 50.592658, -17.563772 50.590567, -17.586732 50.588471, -17.609690 50.586370, -17.632646 50.584265, -17.655600 50.582155, -17.678552 50.580041, -17.701502 50.577922, -17.724450 50.575799, -17.747396 50.573672, -17.770340 50.571539, -17.793281 50.569403, -17.816221 50.567262, -17.839158 50.565116, -17.862094 50.562966, -17.885027 50.560811, -17.907958 50.558652, -17.930887 50.556488, -17.953814 50.554320, -17.976739 50.552147, -17.999662 50.549970, -18.022582 50.547788, -18.045501 50.545602, -18.068417 50.543411, -18.091332 50.541216, -18.114244 50.539016, -18.137154 50.536812, -18.160062 50.534603, -18.182967 50.532390, -18.205871 50.530172, -18.228772 50.527950, -18.251671 50.525723, -18.274568 50.523492, -18.297463 50.521257, -18.320356 50.519016, -18.343247 50.516772, -18.366135 50.514523, -18.389021 50.512269, -18.411905 50.510011, -18.434787 50.507748, -18.457666 50.505481, -18.480544 50.503210, -18.503419 50.500934, -18.526292 50.498653, -18.549163 50.496368, -18.572031 50.494079, -18.594898 50.491785, -18.617762 50.489486, -18.640624 50.487183, -18.663484 50.484876, -18.686341 50.482564, -18.709196 50.480248, -18.732049 50.477927, -18.754900 50.475602, -18.777748 50.473272, -18.800595 50.470938, -18.823438 50.468599, -18.846280 50.466256, -18.869120 50.463908, -18.891957 50.461556, -18.914792 50.459200, -18.937624 50.456838, -18.960455 50.454473, -18.983283 50.452103, -19.006108 50.449729, -19.028932 50.447350, -19.051753 50.444966, -19.074572 50.442578, -19.097388 50.440186, -19.120203 50.437789, -19.143015 50.435388, -19.165824 50.432982, -19.188631 50.430572, -19.211436 50.428158, -19.234239 50.425739, -19.257039 50.423315, -19.279837 50.420887, -19.302633 50.418455, -19.325426 50.416018, -19.348217 50.413577, -19.371006 50.411131, -19.393792 50.408681, -19.416576 50.406226, -19.439357 50.403767, -19.462137 50.401303, -19.484913 50.398835, -19.507688 50.396363, -19.530460 50.393886, -19.553229 50.391404, -19.575997 50.388919, -19.598762 50.386428, -19.621524 50.383934, -19.644284 50.381434, -19.667042 50.378931, -19.689797 50.376423, -19.712550 50.373910, -19.735301 50.371394, -19.758049 50.368872, -19.780794 50.366346, -19.803537 50.363816, -19.826278 50.361282, -19.849017 50.358743, -19.871752 50.356199, -19.894486 50.353651, -19.917217 50.351099, -19.939946 50.348542, -19.962672 50.345981, -19.985395 50.343415, -20.008117 50.340845, -20.030835 50.338270, -20.053552 50.335692, -20.076265 50.333108, -20.098977 50.330520, -20.121686 50.327928, -20.144392 50.325332, -20.167096 50.322731, -20.189797 50.320125, -20.212496 50.317515, -20.235193 50.314901, -20.257887 50.312282, -20.280578 50.309659, -20.303267 50.307031, -20.325954 50.304399, -20.348638 50.301763, -20.371319 50.299122, -20.393998 50.296477, -20.416674 50.293827, -20.439348 50.291173, -20.462019 50.288515, -20.484688 50.285852, -20.507354 50.283185, -20.530018 50.280513, -20.552679 50.277837, -20.575338 50.275157, -20.597994 50.272472, -20.620647 50.269783, -20.643298 50.267089, -20.665947 50.264391, -20.688592 50.261688, -20.711236 50.258981, -20.733876 50.256270, -20.756514 50.253554, -20.779150 50.250834, -20.801783 50.248110, -20.824413 50.245381, -20.847041 50.242648, -20.869666 50.239910, -20.892288 50.237168, -20.914908 50.234422, -20.937525 50.231671, -20.960140 50.228916, -20.982752 50.226156, -21.005362 50.223392, -21.027969 50.220624, -21.050573 50.217851, -21.073174 50.215074, -21.095773 50.212292, -21.118370 50.209506, -21.140963 50.206716, -21.163554 50.203921, -21.186143 50.201122, -21.208728 50.198319, -21.231311 50.195511, -21.253892 50.192699, -21.276470 50.189882, -21.299045 50.187061, -21.321617 50.184236, -21.344187 50.181406, -21.366754 50.178572, -21.389318 50.175734, -21.411880 50.172891, -21.434439 50.170044, -21.456995 50.167192, -21.479549 50.164336, -21.502100 50.161476, -21.524648 50.158611, -21.547194 50.155742, -21.569737 50.152869, -21.592277 50.149991, -21.614814 50.147109, -21.637349 50.144223, -21.659881 50.141332, -21.682410 50.138437, -21.704936 50.135537, -21.727460 50.132633, -21.749981 50.129725, -21.772500 50.126812, -21.795015 50.123895, -21.817528 50.120974, -21.840038 50.118048, -21.862545 50.115118, -21.885050 50.112184, -21.907552 50.109245, -21.930051 50.106302, -21.952547 50.103355, -21.975040 50.100403, -21.997531 50.097447, -22.020019 50.094486, -22.042504 50.091522, -22.064987 50.088553, -22.087466 50.085579, -22.109943 50.082601, -22.132417 50.079619, -22.154888 50.076633, -22.177357 50.073642, -22.199822 50.070647, -22.222285 50.067647, -22.244745 50.064643, -22.267202 50.061635, -22.289657 50.058623, -22.312108 50.055606, -22.334557 50.052585, -22.357003 50.049559, -22.379446 50.046529, -22.401886 50.043495, -22.424323 50.040457, -22.446758 50.037414, -22.469189 50.034367, -22.491618 50.031316, -22.514044 50.028260, -22.536467 50.025200, -22.558888 50.022135, -22.581305 50.019067, -22.603720 50.015994, -22.626131 50.012916, -22.648540 50.009835, -22.670946 50.006749, -22.693349 50.003658, -22.715749 50.000564, -22.738146 49.997465, -22.760541 49.994362, -22.782932 49.991254, -22.805321 49.988142, -22.827707 49.985026, -22.850089 49.981906, -22.872469 49.978781, -22.894846 49.975652, -22.917220 49.972518, -22.939592 49.969381, -22.961960 49.966239, -22.984325 49.963092, -23.006687 49.959942, -23.029047 49.956787, -23.051403 49.953628, -23.073757 49.950464, -23.096108 49.947297, -23.118455 49.944124, -23.140800 49.940948, -23.163142 49.937767, -23.185481 49.934583, -23.207817 49.931393, -23.230150 49.928200, -23.252480 49.925002, -23.274807 49.921800, -23.297131 49.918594, -23.319452 49.915383, -23.341770 49.912168, -23.364085 49.908949, -23.386397 49.905725, -23.408706 49.902497, -23.431013 49.899265, -23.453316 49.896029, -23.475616 49.892788, -23.497913 49.889544, -23.520207 49.886294, -23.542499 49.883041, -23.564787 49.879783, -23.587072 49.876521, -23.609354 49.873255, -23.631633 49.869984, -23.653910 49.866710, -23.676183 49.863431, -23.698453 49.860147, -23.720720 49.856860, -23.742984 49.853568, -23.765245 49.850272, -23.787503 49.846971, -23.809758 49.843667, -23.832010 49.840358, -23.854258 49.837045, -23.876504 49.833727, -23.898747 49.830405, -23.920987 49.827079, -23.943223 49.823749, -23.965457 49.820415, -23.987687 49.817076, -24.009915 49.813733, -24.032139 49.810386, -24.054360 49.807035, -24.076578 49.803679, -24.098794 49.800319, -24.121006 49.796955, -24.143214 49.793586, -24.165420 49.790214, -24.187623 49.786837, -24.209823 49.783456, -24.232019 49.780070, -24.254213 49.776681, -24.276403 49.773287, -24.298590 49.769889, -24.320774 49.766486, -24.342955 49.763080, -24.365133 49.759669, -24.387308 49.756254, -24.409480 49.752834, -24.431648 49.749411, -24.453813 49.745983, -24.475976 49.742551, -24.498135 49.739115, -24.520291 49.735675, -24.542444 49.732230, -24.564593 49.728781, -24.586740 49.725328, -24.608883 49.721871, -24.631023 49.718409, -24.653160 49.714943, -24.675294 49.711473, -24.697425 49.707999, -24.719553 49.704521, -24.741677 49.701038, -24.763798 49.697551, -24.785916 49.694060, -24.808031 49.690565, -24.830143 49.687066, -24.852251 49.683562, -24.874357 49.680054, -24.896459 49.676542, -24.918558 49.673026, -24.940653 49.669505, -24.962746 49.665980, -24.984835 49.662452, -25.006921 49.658918, -25.029004 49.655381, -25.051084 49.651840, -25.073160 49.648294, -25.095234 49.644744, -25.117304 49.641190, -25.139371 49.637632, -25.161434 49.634069, -25.183494 49.630502, -25.205552 49.626932, -25.227605 49.623357, -25.249656 49.619777, -25.271704 49.616194, -25.293748 49.612606, -25.315789 49.609014, -25.337826 49.605418, -25.359861 49.601818, -25.381892 49.598214, -25.403920 49.594605, -25.425944 49.590993, -25.447966 49.587376, -25.469984 49.583755, -25.491999 49.580129, -25.514010 49.576500, -25.536019 49.572866, -25.558024 49.569229, -25.580025 49.565587, -25.602024 49.561941, -25.624019 49.558290, -25.646011 49.554636, -25.668000 49.550977, -25.689985 49.547314, -25.711967 49.543648, -25.733946 49.539976, -25.755921 49.536301, -25.777893 49.532622, -25.799862 49.528938, -25.821827 49.525250, -25.843789 49.521558, -25.865748 49.517862, -25.887704 49.514162, -25.909656 49.510458, -25.931605 49.506749, -25.953550 49.503037, -25.975492 49.499320, -25.997431 49.495599, -26.019367 49.491874, -26.041299 49.488144, -26.063228 49.484411, -26.085153 49.480673, -26.107075 49.476932, -26.128994 49.473186, -26.150910 49.469436, -26.172822 49.465682, -26.194731 49.461924, -26.216636 49.458161, -26.238538 49.454395, -26.260437 49.450624, -26.282332 49.446849, -26.304224 49.443070, -26.326112 49.439287, -26.347997 49.435500, -26.369879 49.431709, -26.391757 49.427913, -26.413632 49.424114, -26.435504 49.420310, -26.457372 49.416502, -26.479237 49.412690, -26.501098 49.408874, -26.522956 49.405054, -26.544811 49.401229, -26.566662 49.397401, -26.588510 49.393568, -26.610354 49.389732, -26.632195 49.385891, -26.654033 49.382046, -26.675867 49.378197, -26.697698 49.374344, -26.719525 49.370487, -26.741349 49.366625, -26.763169 49.362760, -26.784986 49.358890, -26.806800 49.355017, -26.828610 49.351139, -26.850417 49.347257, -26.872220 49.343371, -26.894020 49.339481, -26.915816 49.335587, -26.937609 49.331689, -26.959398 49.327786, -26.981184 49.323880, -27.002967 49.319969, -27.024746 49.316055, -27.046521 49.312136, -27.068294 49.308213, -27.090062 49.304286, -27.111827 49.300355, -27.133589 49.296420, -27.155347 49.292481, -27.177102 49.288538, -27.198853 49.284590, -27.220601 49.280639, -27.242346 49.276683, -27.264086 49.272724, -27.285824 49.268760, -27.307558 49.264792, -27.329288 49.260821, -27.351015 49.256845, -27.372738 49.252865, -27.394458 49.248881, -27.416174 49.244893, -27.437887 49.240900, -27.459596 49.236904, -27.481302 49.232904, -27.503004 49.228899, -27.524703 49.224891, -27.546398 49.220878, -27.568090 49.216862, -27.589778 49.212841, -27.611463 49.208817, -27.633144 49.204788, -27.654822 49.200755, -27.676496 49.196718, -27.698166 49.192677, -27.719833 49.188632, -27.741497 49.184583, -27.763157 49.180530, -27.784813 49.176473, -27.806466 49.172412, -27.828115 49.168347, -27.849761 49.164277, -27.871403 49.160204, -27.893041 49.156127, -27.914676 49.152045, -27.936308 49.147960, -27.957935 49.143870, -27.979560 49.139777, -28.001180 49.135679, -28.022798 49.131578, -28.044411 49.127472, -28.066021 49.123362, -28.087627 49.119249, -28.109230 49.115131, -28.130829 49.111009, -28.152425 49.106883, -28.174017 49.102754, -28.195606 49.098620, -28.217190 49.094482, -28.238772 49.090340, -28.260349 49.086194, -28.281923 49.082044, -28.303494 49.077890, -28.325061 49.073732, -28.346624 49.069570, -28.368183 49.065404, -28.389739 49.061234, -28.411292 49.057060, -28.432840 49.052882, -28.454385 49.048700, -28.475927 49.044514, -28.497465 49.040324, -28.518999 49.036130, -28.540530 49.031932, -28.562057 49.027730, -28.583580 49.023524, -28.605100 49.019314, -28.626616 49.015100, -28.648128 49.010881, -28.669637 49.006659, -28.691142 49.002433, -28.712643 48.998203, -28.734141 48.993969, -28.755635 48.989731, -28.777126 48.985489, -28.798613 48.981243, -28.820096 48.976993, -28.841575 48.972739, -28.863051 48.968481, -28.884523 48.964219, -28.905992 48.959953, -28.927456 48.955683, -28.948918 48.951409, -28.970375 48.947131, -28.991829 48.942849, -29.013279 48.938563, -29.034725 48.934273, -29.056168 48.929979, -29.077607 48.925682, -29.099042 48.921380, -29.120474 48.917074, -29.141902 48.912764, -29.163326 48.908451, -29.184747 48.904133, -29.206164 48.899811, -29.227577 48.895486, -29.248986 48.891156, -29.270392 48.886823, -29.291794 48.882485, -29.313192 48.878144, -29.334587 48.873798, -29.355978 48.869449, -29.377365 48.865096, -29.398748 48.860738, -29.420128 48.856377, -29.441504 48.852012, -29.462876 48.847643, -29.484245 48.843270, -29.505609 48.838893, -29.526971 48.834512, -29.548328 48.830127, -29.569681 48.825738, -29.591031 48.821345, -29.612377 48.816948, -29.633720 48.812548, -29.655058 48.808143, -29.676393 48.803734, -29.697724 48.799322, -29.719052 48.794905, -29.740375 48.790485, -29.761695 48.786061, -29.783011 48.781633, -29.804323 48.777200, -29.825632 48.772764, -29.846937 48.768324, -29.868238 48.763880, -29.889535 48.759432, -29.910828 48.754981, -29.932118 48.750525, -29.953404 48.746065, -29.974686 48.741602, -29.995964 48.737134, -30.017239 48.732663, -30.038510 48.728188, -30.059777 48.723708, -30.081040 48.719225, -30.102299 48.714738, -30.123555 48.710247, -30.144807 48.705752, -30.166055 48.701253, -30.187299 48.696751, -30.208539 48.692244, -30.229776 48.687734, -30.251009 48.683219, -30.272238 48.678701, -30.293463 48.674179, -30.314684 48.669653, -30.335902 48.665123, -30.357115 48.660589, -30.378325 48.656051, -30.399532 48.651509, -30.420734 48.646964, -30.441932 48.642414, -30.463127 48.637861, -30.484318 48.633304, -30.505505 48.628743, -30.526688 48.624178, -30.547867 48.619609, -30.569043 48.615036, -30.590214 48.610459, -30.611382 48.605879, -30.632546 48.601294, -30.653706 48.596706, -30.674862 48.592114, -30.696015 48.587518, -30.717163 48.582918, -30.738308 48.578314, -30.759449 48.573707, -30.780586 48.569095, -30.801719 48.564480, -30.822849 48.559860, -30.843974 48.555237, -30.865096 48.550610, -30.886213 48.545979, -30.907327 48.541345, -30.928437 48.536706, -30.949543 48.532064, -30.970645 48.527417, -30.991744 48.522767, -31.012838 48.518113, -31.033929 48.513455, -31.055016 48.508794, -31.076099 48.504128, -31.097178 48.499459, -31.118253 48.494786, -31.139324 48.490108, -31.160391 48.485428, -31.181455 48.480743, -31.202514 48.476054, -31.223570 48.471362, -31.244622 48.466665, -31.265669 48.461965, -31.286713 48.457261, -31.307753 48.452553, -31.328790 48.447842, -31.349822 48.443126, -31.370850 48.438407, -31.391875 48.433684, -31.412895 48.428957, -31.433912 48.424226, -31.454924 48.419491, -31.475933 48.414753, -31.496938 48.410011, -31.517939 48.405264, -31.538936 48.400515, -31.559929 48.395761, -31.580918 48.391003, -31.601903 48.386242, -31.622885 48.381477, -31.643862 48.376708, -31.664836 48.371935, -31.685805 48.367158, -31.706771 48.362378, -31.727732 48.357594, -31.748690 48.352805, -31.769644 48.348014, -31.790594 48.343218, -31.811540 48.338418, -31.832482 48.333615, -31.853420 48.328808, -31.874354 48.323997, -31.895284 48.319183, -31.916210 48.314364, -31.937132 48.309542, -31.958050 48.304716, -31.978965 48.299886, -31.999875 48.295052, -32.020781 48.290215, -32.041684 48.285374, -32.062582 48.280529, -32.083477 48.275680, -32.104367 48.270827, -32.125254 48.265971, -32.146136 48.261111, -32.167015 48.256247, -32.187889 48.251379, -32.208760 48.246508, -32.229627 48.241632, -32.250489 48.236753, -32.271348 48.231871, -32.292203 48.226984, -32.313054 48.222094, -32.333900 48.217199, -32.354743 48.212302, -32.375582 48.207400, -32.396417 48.202495, -32.417248 48.197585, -32.438074 48.192672, -32.458897 48.187756, -32.479716 48.182835, -32.500531 48.177911, -32.521342 48.172983, -32.542148 48.168051, -32.562951 48.163116, -32.583750 48.158177, -32.604545 48.153234, -32.625336 48.148287, -32.646122 48.143336, -32.666905 48.138382, -32.687684 48.133424, -32.708459 48.128462, -32.729229 48.123497, -32.749996 48.118528, -32.770759 48.113555, -32.791518 48.108578, -32.812272 48.103598, -32.833023 48.098614, -32.853769 48.093626, -32.874512 48.088634, -32.895251 48.083639, -32.915985 48.078640, -32.936716 48.073637, -32.957442 48.068630, -32.978165 48.063620, -32.998883 48.058606, -33.019597 48.053588, -33.040308 48.048567, -33.061014 48.043542, -33.081716 48.038513, -33.102414 48.033480, -33.123109 48.028444, -33.143799 48.023404, -33.164485 48.018360, -33.185167 48.013312, -33.205845 48.008261, -33.226519 48.003206, -33.247188 47.998148, -33.267854 47.993085, -33.288516 47.988019, -33.309174 47.982950, -33.329827 47.977876, -33.350477 47.972799, -33.371122 47.967718, -33.391764 47.962634, -33.412401 47.957546, -33.433035 47.952454, -33.453664 47.947358, -33.474289 47.942259, -33.494910 47.937156, -33.515527 47.932049, -33.536140 47.926939, -33.556749 47.921825, -33.577354 47.916707, -33.597955 47.911585, -33.618551 47.906460, -33.639144 47.901332, -33.659732 47.896199, -33.680317 47.891063, -33.700897 47.885923, -33.721473 47.880780, -33.742046 47.875632, -33.762614 47.870481, -33.783178 47.865327, -33.803737 47.860169, -33.824293 47.855007, -33.844845 47.849841, -33.865393 47.844672, -33.885936 47.839499, -33.906476 47.834323, -33.927011 47.829142, -33.947542 47.823959, -33.968069 47.818771, -33.988592 47.813580, -34.009111 47.808385, -34.029626 47.803186, -34.050137 47.797984, -34.070643 47.792779, -34.091146 47.787569, -34.111644 47.782356, -34.132138 47.777139, -34.152628 47.771919, -34.173114 47.766695, -34.193596 47.761467, -34.214074 47.756236, -34.234548 47.751001, -34.255017 47.745762, -34.275483 47.740520, -34.295944 47.735274, -34.316401 47.730024, -34.336854 47.724771, -34.357303 47.719514, -34.377748 47.714254, -34.398189 47.708990, -34.418625 47.703722, -34.439058 47.698451, -34.459486 47.693176, -34.479910 47.687897, -34.500330 47.682615, -34.520746 47.677329, -34.541158 47.672040, -34.561565 47.666747, -34.581969 47.661450, -34.602368 47.656150, -34.622763 47.650846, -34.643154 47.645538, -34.663541 47.640227, -34.683924 47.634913, -34.704303 47.629594, -34.724677 47.624272, -34.745047 47.618947, -34.765414 47.613618, -34.785776 47.608285, -34.806133 47.602948, -34.826487 47.597608, -34.846837 47.592265, -34.867182 47.586918, -34.887523 47.581567, -34.907860 47.576213, -34.928193 47.570855, -34.948522 47.565493, -34.968847 47.560128, -34.989167 47.554759, -35.009483 47.549387, -35.029795 47.544011, -35.050103 47.538631, -35.070407 47.533248, -35.090707 47.527862, -35.111002 47.522471, -35.131293 47.517078, -35.151580 47.511680, -35.171863 47.506279, -35.192142 47.500875, -35.212416 47.495466, -35.232687 47.490055, -35.252953 47.484639, -35.273215 47.479221, -35.293473 47.473798, -35.313726 47.468372, -35.333976 47.462943, -35.354221 47.457510, -35.374462 47.452073, -35.394699 47.446633, -35.414932 47.441189, -35.435160 47.435741, -35.455385 47.430291, -35.475605 47.424836, -35.495821 47.419378, -35.516033 47.413916, -35.536240 47.408451, -35.556444 47.402983, -35.576643 47.397510, -35.596838 47.392035, -35.617029 47.386555, -35.637215 47.381072, -35.657398 47.375586, -35.677576 47.370096, -35.697750 47.364603, -35.717920 47.359106, -35.738085 47.353605, -35.758246 47.348101, -35.778404 47.342593, -35.798557 47.337082, -35.818705 47.331567, -35.838850 47.326049, -35.858990 47.320527, -35.879126 47.315002, -35.899258 47.309473, -35.919386 47.303941, -35.939509 47.298405, -35.959629 47.292866, -35.979744 47.287323, -35.999855 47.281776, -36.019961 47.276226, -36.040064 47.270673, -36.060162 47.265116, -36.080256 47.259556, -36.100346 47.253992, -36.120431 47.248424, -36.140512 47.242853, -36.160589 47.237279, -36.180662 47.231700, -36.200731 47.226119, -36.220795 47.220534, -36.240856 47.214945, -36.260911 47.209353, -36.280963 47.203758, -36.301011 47.198159, -36.321054 47.192556, -36.341093 47.186950, -36.361128 47.181341, -36.381158 47.175728, -36.401185 47.170111, -36.421207 47.164491, -36.441224 47.158868, -36.461238 47.153241, -36.481247 47.147610, -36.501253 47.141976, -36.521253 47.136339, -36.541250 47.130698, -36.561242 47.125054, -36.581231 47.119406, -36.601215 47.113754, -36.621194 47.108100, -36.641170 47.102441, -36.661141 47.096780, -36.681108 47.091114, -36.701070 47.085446, -36.721029 47.079774, -36.740983 47.074098, -36.760933 47.068419, -36.780879 47.062736, -36.800820 47.057050, -36.820757 47.051361, -36.840690 47.045668, -36.860619 47.039971, -36.880543 47.034272, -36.900463 47.028568, -36.920379 47.022862, -36.940291 47.017151, -36.960198 47.011438, -36.980101 47.005721, -37.000000 47.000000, -37.021568 46.999366, -37.043136 46.998727, -37.064704 46.998085, -37.086270 46.997438, -37.107837 46.996787, -37.129402 46.996133, -37.150968 46.995474, -37.172532 46.994811, -37.194097 46.994144, -37.215660 46.993473, -37.237223 46.992799, -37.258786 46.992120, -37.280348 46.991437, -37.301909 46.990750, -37.323470 46.990058, -37.345030 46.989363, -37.366590 46.988664, -37.388149 46.987961, -37.409708 46.987254, -37.431266 46.986542, -37.452824 46.985827, -37.474380 46.985107, -37.495937 46.984384, -37.517493 46.983656, -37.539048 46.982925, -37.560602 46.982189, -37.582156 46.981450, -37.603710 46.980706, -37.625262 46.979958, -37.646814 46.979206, -37.668366 46.978450, -37.689917 46.977691, -37.711467 46.976927, -37.733017 46.976159, -37.754566 46.975387, -37.776115 46.974611, -37.797662 46.973831, -37.819210 46.973046, -37.840756 46.972258, -37.862302 46.971466, -37.883847 46.970670, -37.905392 46.969869, -37.926936 46.969065, -37.948479 46.968257, -37.970022 46.967444, -37.991564 46.966628, -38.013106 46.965807, -38.034646 46.964983, -38.056186 46.964154, -38.077726 46.963322, -38.099264 46.962485, -38.120802 46.961644, -38.142340 46.960800, -38.163877 46.959951, -38.185413 46.959098, -38.206948 46.958241, -38.228482 46.957380, -38.250016 46.956515, -38.271550 46.955646, -38.293082 46.954773, -38.314614 46.953896, -38.336145 46.953015, -38.357675 46.952130, -38.379205 46.951241, -38.400734 46.950348, -38.422262 46.949451, -38.443790 46.948549, -38.465317 46.947644, -38.486843 46.946735, -38.508368 46.945821, -38.529893 46.944904, -38.551417 46.943983, -38.572940 46.943057, -38.594462 46.942128, -38.615984 46.941194, -38.637505 46.940257, -38.659025 46.939315, -38.680544 46.938369, -38.702063 46.937420, -38.723580 46.936466, -38.745098 46.935508, -38.766614 46.934547, -38.788129 46.933581, -38.809644 46.932611, -38.831158 46.931637, -38.852671 46.930659, -38.874184 46.929677, -38.895695 46.928691, -38.917206 46.927702, -38.938716 46.926708, -38.960225 46.925710, -38.981734 46.924707, -39.003241 46.923701, -39.024748 46.922691, -39.046254 46.921677, -39.067759 46.920659, -39.089264 46.919637, -39.110767 46.918611, -39.132270 46.917580, -39.153772 46.916546, -39.175273 46.915508, -39.196773 46.914466, -39.218272 46.913419, -39.239771 46.912369, -39.261268 46.911315, -39.282765 46.910256, -39.304261 46.909194, -39.325756 46.908127, -39.347251 46.907057, -39.368744 46.905982, -39.390237 46.904904, -39.411728 46.903821, -39.433219 46.902735, -39.454709 46.901644, -39.476198 46.900550, -39.497686 46.899451, -39.519174 46.898348, -39.540660 46.897242, -39.562145 46.896131, -39.583630 46.895016, -39.605114 46.893898, -39.626597 46.892775, -39.648079 46.891648, -39.669560 46.890517, -39.691040 46.889383, -39.712519 46.888244, -39.733997 46.887101, -39.755475 46.885954, -39.776951 46.884803, -39.798427 46.883648, -39.819901 46.882489, -39.841375 46.881327, -39.862848 46.880160, -39.884320 46.878989, -39.905791 46.877814, -39.927260 46.876635, -39.948729 46.875452, -39.970198 46.874265, -39.991665 46.873074, -40.013131 46.871879, -40.034596 46.870680, -40.056060 46.869477, -40.077523 46.868270, -40.098986 46.867059, -40.120447 46.865843, -40.141907 46.864624, -40.163367 46.863401, -40.184825 46.862174, -40.206283 46.860943, -40.227739 46.859708, -40.249194 46.858469, -40.270649 46.857226, -40.292102 46.855978, -40.313555 46.854727, -40.335006 46.853472, -40.356457 46.852213, -40.377906 46.850950, -40.399355 46.849683, -40.420802 46.848411, -40.442248 46.847136, -40.463694 46.845857, -40.485138 46.844574, -40.506581 46.843287, -40.528024 46.841995, -40.549465 46.840700, -40.570905 46.839401, -40.592344 46.838098, -40.613783 46.836790, -40.635220 46.835479, -40.656656 46.834164, -40.678091 46.832845, -40.699525 46.831521, -40.720958 46.830194, -40.742389 46.828863, -40.763820 46.827528, -40.785250 46.826188, -40.806679 46.824845, -40.828106 46.823498, -40.849533 46.822147, -40.870958 46.820792, -40.892382 46.819432, -40.913806 46.818069, -40.935228 46.816702, -40.956649 46.815331, -40.978069 46.813955, -40.999488 46.812576, -41.020906 46.811193, -41.042322 46.809806, -41.063738 46.808415, -41.085152 46.807019, -41.106566 46.805620, -41.127978 46.804217, -41.149389 46.802810, -41.170799 46.801399, -41.192208 46.799984, -41.213616 46.798564, -41.235022 46.797141, -41.256428 46.795714, -41.277832 46.794283, -41.299235 46.792848, -41.320637 46.791409, -41.342038 46.789966, -41.363438 46.788519, -41.384836 46.787068, -41.406234 46.785612, -41.427630 46.784153, -41.449025 46.782690, -41.470419 46.781223, -41.491812 46.779752, -41.513204 46.778277, -41.534594 46.776798, -41.555983 46.775315, -41.577372 46.773828, -41.598758 46.772338, -41.620144 46.770843, -41.641529 46.769344, -41.662912 46.767841, -41.684294 46.766334, -41.705675 46.764823, -41.727055 46.763308, -41.748434 46.761790, -41.769811 46.760267, -41.791187 46.758740, -41.812562 46.757209, -41.833936 46.755675, -41.855308 46.754136, -41.876679 46.752593, -41.898049 46.751046, -41.919418 46.749496, -41.940786 46.747941, -41.962152 46.746383, -41.983517 46.744820, -42.004881 46.743254, -42.026244 46.741683, -42.047605 46.740108, -42.068965 46.738530, -42.090324 46.736948, -42.111682 46.735361, -42.133038 46.733771, -42.154393 46.732176, -42.175747 46.730578, -42.197100 46.728976, -42.218451 46.727369, -42.239801 46.725759, -42.261150 46.724145, -42.282497 46.722527, -42.303843 46.720905, -42.325188 46.719279, -42.346532 46.717648, -42.367874 46.716014, -42.389215 46.714376, -42.410555 46.712734, -42.431894 46.711088, -42.453231 46.709438, -42.474566 46.707785, -42.495901 46.706127, -42.517234 46.704465, -42.538566 46.702799, -42.559897 46.701129, -42.581226 46.699456, -42.602554 46.697778, -42.623880 46.696096, -42.645206 46.694411, -42.666530 46.692721, -42.687852 46.691028, -42.709174 46.689330, -42.730493 46.687629, -42.751812 46.685923, -42.773129 46.684214, -42.794445 46.682501, -42.815760 46.680783, -42.837073 46.679062, -42.858385 46.677337, -42.879695 46.675608, -42.901004 46.673875, -42.922312 46.672137, -42.943618 46.670396, -42.964923 46.668651, -42.986227 46.666903, -43.007529 46.665150, -43.028830 46.663393, -43.050129 46.661632, -43.071427 46.659867, -43.092724 46.658099, -43.114019 46.656326, -43.135313 46.654549, -43.156606 46.652769, -43.177897 46.650984, -43.199186 46.649196, -43.220475 46.647403, -43.241762 46.645607, -43.263047 46.643807, -43.284331 46.642003, -43.305614 46.640194, -43.326895 46.638382, -43.348174 46.636566, -43.369453 46.634746, -43.390730 46.632922, -43.412005 46.631094, -43.433279 46.629262, -43.454552 46.627427, -43.475823 46.625587, -43.497092 46.623743, -43.518361 46.621896, -43.539627 46.620044, -43.560893 46.618189, -43.582157 46.616329, -43.603419 46.614466, -43.624680 46.612598, -43.645939 46.610727, -43.667197 46.608852, -43.688454 46.606973, -43.709709 46.605090, -43.730962 46.603203, -43.752214 46.601312, -43.773465 46.599417, -43.794714 46.597518, -43.815962 46.595615, -43.837208 46.593709, -43.858452 46.591798, -43.879696 46.589884, -43.900937 46.587965, -43.922177 46.586043, -43.943416 46.584116, -43.964653 46.582186, -43.985889 46.580252, -44.007123 46.578314, -44.028355 46.576372, -44.049586 46.574426, -44.070816 46.572476, -44.092044 46.570522, -44.113270 46.568564, -44.134495 46.566603, -44.155718 46.564637, -44.176940 46.562668, -44.198160 46.560694, -44.219379 46.558717, -44.240596 46.556735, -44.261812 46.554750, -44.283026 46.552761, -44.304239 46.550768, -44.325450 46.548771, -44.346659 46.546770, -44.367867 46.544765, -44.389073 46.542756, -44.410278 46.540744, -44.431481 46.538727, -44.452683 46.536707, -44.473883 46.534682, -44.495081 46.532654, -44.516278 46.530622, -44.537473 46.528586, -44.558667 46.526545, -44.579859 46.524501, -44.601049 46.522454, -44.622238 46.520402, -44.643425 46.518346, -44.664611 46.516286, -44.685795 46.514223, -44.706977 46.512155, -44.728158 46.510084, -44.749337 46.508009, -44.770515 46.505929, -44.791691 46.503846, -44.812865 46.501759, -44.834038 46.499668, -44.855209 46.497574, -44.876378 46.495475, -44.897546 46.493372, -44.918712 46.491266, -44.939877 46.489155, -44.961040 46.487041, -44.982201 46.484923, -45.003360 46.482801, -45.024518 46.480675, -45.045675 46.478545, -45.066829 46.476411, -45.087982 46.474273, -45.109133 46.472131, -45.130283 46.469986, -45.151431 46.467836, -45.172577 46.465683, -45.193722 46.463526, -45.214865 46.461365, -45.236006 46.459200, -45.257146 46.457031, -45.278284 46.454858, -45.299420 46.452681, -45.320554 46.450500, -45.341687 46.448316, -45.362818 46.446128, -45.383948 46.443935, -45.405075 46.441739, -45.426201 46.439539, -45.447326 46.437335, -45.468448 46.435127, -45.489569 46.432915, -45.510688 46.430700, -45.531806 46.428480, -45.552921 46.426257, -45.574035 46.424030, -45.595148 46.421798, -45.616258 46.419563, -45.637367 46.417324, -45.658474 46.415082, -45.679580 46.412835, -45.700683 46.410584, -45.721785 46.408330, -45.742885 46.406072, -45.763983 46.403809, -45.785080 46.401543, -45.806175 46.399273, -45.827268 46.396999, -45.848359 46.394722, -45.869449 46.392440, -45.890537 46.390155, -45.911623 46.387865, -45.932707 46.385572, -45.953790 46.383275, -45.974870 46.380974, -45.995949 46.378669, -46.017026 46.376360, -46.038102 46.374048, -46.059175 46.371731, -46.080247 46.369411, -46.101317 46.367087, -46.122385 46.364758, -46.143452 46.362426, -46.164516 46.360091, -46.185579 46.357751, -46.206640 46.355407, -46.227700 46.353060, -46.248757 46.350709, -46.269813 46.348353, -46.290866 46.345994, -46.311918 46.343632, -46.332968 46.341265, -46.354017 46.338894, -46.375063 46.336520, -46.396108 46.334141, -46.417151 46.331759, -46.438192 46.329373, -46.459231 46.326983, -46.480268 46.324589, -46.501304 46.322192, -46.522337 46.319790, -46.543369 46.317385, -46.564399 46.314976, -46.585427 46.312563, -46.606453 46.310146, -46.627478 46.307725, -46.648500 46.305300, -46.669521 46.302872, -46.690539 46.300440, -46.711556 46.298003, -46.732571 46.295563, -46.753584 46.293120, -46.774596 46.290672, -46.795605 46.288220, -46.816613 46.285765, -46.837618 46.283306, -46.858622 46.280842, -46.879624 46.278376, -46.900624 46.275905, -46.921622 46.273430, -46.942618 46.270952, -46.963612 46.268469, -46.984605 46.265983, -47.005595 46.263493, -47.026584 46.260999, -47.047570 46.258501, -47.068555 46.256000, -47.089538 46.253495, -47.110519 46.250985, -47.131498 46.248472, -47.152475 46.245955, -47.173450 46.243435, -47.194423 46.240910, -47.215394 46.238382, -47.236364 46.235850, -47.257331 46.233313, -47.278296 46.230774, -47.299260 46.228230, -47.320222 46.225682, -47.341181 46.223131, -47.362139 46.220576, -47.383095 46.218017, -47.404048 46.215454, -47.425000 46.212887, -47.445950 46.210317, -47.466898 46.207742, -47.487844 46.205164, -47.508788 46.202582, -47.529730 46.199996, -47.550670 46.197407, -47.571608 46.194813, -47.592544 46.192216, -47.613478 46.189615, -47.634410 46.187010, -47.655340 46.184401, -47.676268 46.181788, -47.697194 46.179172, -47.718118 46.176552, -47.739041 46.173928, -47.759961 46.171300, -47.780879 46.168668, -47.801795 46.166033, -47.822709 46.163393, -47.843621 46.160750, -47.864531 46.158103, -47.885439 46.155453, -47.906345 46.152798, -47.927250 46.150140, -47.948152 46.147478, -47.969052 46.144812, -47.989950 46.142142, -48.010846 46.139468, -48.031740 46.136791, -48.052631 46.134110, -48.073521 46.131425, -48.094409 46.128736, -48.115295 46.126043, -48.136179 46.123347, -48.157060 46.120647, -48.177940 46.117942, -48.198818 46.115235, -48.219693 46.112523, -48.240567 46.109808, -48.261438 46.107088, -48.282307 46.104365, -48.303175 46.101639, -48.324040 46.098908, -48.344903 46.096173, -48.365764 46.093435, -48.386623 46.090693, -48.407480 46.087947, -48.428335 46.085198, -48.449188 46.082445, -48.470039 46.079687, -48.490887 46.076926, -48.511734 46.074162, -48.532578 46.071393, -48.553421 46.068621, -48.574261 46.065845, -48.595099 46.063065, -48.615935 46.060281, -48.636769 46.057494, -48.657601 46.054702, -48.678431 46.051907, -48.699258 46.049108, -48.720084 46.046306, -48.740907 46.043499, -48.761729 46.040689, -48.782548 46.037875, -48.803365 46.035057, -48.824180 46.032236, -48.844993 46.029411, -48.865803 46.026582, -48.886612 46.023749, -48.907418 46.020912, -48.928223 46.018072, -48.949025 46.015228, -48.969825 46.012380, -48.990623 46.009528, -49.011418 46.006672, -49.032212 46.003813, -49.053003 46.000950, -49.073793 45.998083, -49.094580 45.995213, -49.115365 45.992338, -49.136147 45.989460, -49.156928 45.986578, -49.177707 45.983693, -49.198483 45.980803, -49.219257 45.977910, -49.240029 45.975013, -49.260799 45.972112, -49.281566 45.969208, -49.302332 45.966300, -49.323095 45.963388, -49.343856 45.960472, -49.364615 45.957553, -49.385372 45.954629, -49.406126 45.951702, -49.426878 45.948772, -49.447628 45.945837, -49.468376 45.942899, -49.489122 45.939957, -49.509866 45.937011, -49.530607 45.934061, -49.551346 45.931108, -49.572083 45.928151, -49.592817 45.925190, -49.613550 45.922226, -49.634280 45.919257, -49.655008 45.916285, -49.675734 45.913310, -49.696457 45.910330, -49.717179 45.907347, -49.737898 45.904360, -49.758615 45.901369, -49.779329 45.898374, -49.800042 45.895376, -49.820752 45.892374, -49.841460 45.889368, -49.862166 45.886359, -49.882869 45.883346, -49.903570 45.880329, -49.924269 45.877308, -49.944966 45.874284, -49.965660 45.871255, -49.986353 45.868224, -50.007043 45.865188, -50.027730 45.862149, -50.048416 45.859105, -50.069099 45.856059, -50.089780 45.853008, -50.110458 45.849954, -50.131135 45.846896, -50.151809 45.843834, -50.172480 45.840769, -50.193150 45.837699, -50.213817 45.834626, -50.234482 45.831550, -50.255145 45.828469, -50.275805 45.825385, -50.296463 45.822297, -50.317119 45.819206, -50.337772 45.816111, -50.358424 45.813012, -50.379072 45.809909, -50.399719 45.806802, -50.420363 45.803692, -50.441005 45.800578, -50.461645 45.797461, -50.482282 45.794340, -50.502917 45.791215, -50.523550 45.788086, -50.544180 45.784953, -50.564809 45.781817, -50.585434 45.778677, -50.606058 45.775534, -50.626679 45.772386, -50.647298 45.769235, -50.667914 45.766081, -50.688528 45.762922, -50.709140 45.759760, -50.729749 45.756594, -50.750357 45.753425, -50.770961 45.750252, -50.791564 45.747075, -50.812164 45.743894, -50.832762 45.740710, -50.853357 45.737522, -50.873950 45.734330, -50.894541 45.731134, -50.915129 45.727935, -50.935715 45.724733, -50.956299 45.721526, -50.976880 45.718316, -50.997459 45.715102, -51.018035 45.711884, -51.038609 45.708663, -51.059181 45.705438, -51.079750 45.702209, -51.100317 45.698977, -51.120882 45.695741, -51.141444 45.692501, -51.162004 45.689258, -51.182562 45.686010, -51.203117 45.682760, -51.223669 45.679505, -51.244220 45.676247, -51.264768 45.672985, -51.285313 45.669719, -51.305856 45.666450, -51.326397 45.663177, -51.346935 45.659901, -51.367471 45.656620, -51.388005 45.653336, -51.408536 45.650049, -51.429064 45.646757, -51.449591 45.643462, -51.470114 45.640164, -51.490636 45.636861, -51.511155 45.633555, -51.531671 45.630246, -51.552186 45.626932, -51.572697 45.623615, -51.593207 45.620295, -51.613713 45.616970, -51.634218 45.613642, -51.654720 45.610310, -51.675220 45.606975, -51.695717 45.603636, -51.716211 45.600293, -51.736704 45.596947, -51.757193 45.593597, -51.777681 45.590243, -51.798166 45.586886, -51.818648 45.583525, -51.839128 45.580160, -51.859606 45.576792, -51.880081 45.573420, -51.900553 45.570044, -51.921024 45.566665, -51.941491 45.563282, -51.961956 45.559895, -51.982419 45.556505, -52.002880 45.553111, -52.023337 45.549713, -52.043793 45.546312, -52.064246 45.542907, -52.084696 45.539499, -52.105144 45.536087, -52.125589 45.532671, -52.146032 45.529251, -52.166473 45.525828, -52.186911 45.522401, -52.207346 45.518971, -52.227779 45.515537, -52.248210 45.512099, -52.268638 45.508658, -52.289063 45.505213, -52.309486 45.501764, -52.329907 45.498312, -52.350325 45.494856, -52.370740 45.491397, -52.391153 45.487933, -52.411563 45.484467, -52.431971 45.480996, -52.452377 45.477522, -52.472780 45.474044, -52.493180 45.470563, -52.513578 45.467078, -52.533973 45.463589, -52.554366 45.460097, -52.574757 45.456601, -52.595144 45.453102, -52.615530 45.449599, -52.635912 45.446092, -52.656292 45.442582, -52.676670 45.439068, -52.697045 45.435550, -52.717418 45.432029, -52.737788 45.428504, -52.758155 45.424976, -52.778520 45.421443, -52.798882 45.417908, -52.819242 45.414368, -52.839599 45.410825, -52.859954 45.407279, -52.880306 45.403729, -52.900656 45.400175, -52.921003 45.396618, -52.941347 45.393057, -52.961689 45.389492, -52.982029 45.385924, -53.002365 45.382352, -53.022700 45.378776, -53.043031 45.375197, -53.063360 45.371615, -53.083687 45.368028, -53.104011 45.364439, -53.124332 45.360845, -53.144651 45.357248, -53.164967 45.353647, -53.185280 45.350043, -53.205591 45.346435, -53.225900 45.342824, -53.246205 45.339209, -53.266509 45.335590, -53.286809 45.331968, -53.307107 45.328342, -53.327403 45.324712, -53.347695 45.321079, -53.367986 45.317443, -53.388273 45.313802, -53.408558 45.310158, -53.428841 45.306511, -53.449120 45.302860, -53.469397 45.299205, -53.489672 45.295547, -53.509944 45.291885, -53.530213 45.288220, -53.550480 45.284551, -53.570744 45.280879, -53.591005 45.277202, -53.611264 45.273523, -53.631520 45.269839, -53.651774 45.266153, -53.672025 45.262462, -53.692273 45.258768, -53.712519 45.255071, -53.732762 45.251369, -53.753002 45.247665, -53.773240 45.243956, -53.793475 45.240244, -53.813707 45.236529, -53.833937 45.232810, -53.854164 45.229087, -53.874389 45.225361, -53.894611 45.221631, -53.914830 45.217898, -53.935046 45.214161, -53.955260 45.210421, -53.975471 45.206677, -53.995680 45.202929, -54.015886 45.199178, -54.036089 45.195423, -54.056290 45.191665, -54.076487 45.187903, -54.096683 45.184138, -54.116875 45.180369, -54.137065 45.176596, -54.157252 45.172820, -54.177437 45.169041, -54.197619 45.165258, -54.217798 45.161471, -54.237974 45.157681, -54.258148 45.153887, -54.278319 45.150089, -54.298487 45.146288, -54.318653 45.142484, -54.338816 45.138676, -54.358976 45.134864, -54.379134 45.131049, -54.399289 45.127231, -54.419441 45.123408, -54.439591 45.119583, -54.459738 45.115753, -54.479882 45.111921, -54.500023 45.108084, -54.520162 45.104244, -54.540298 45.100401, -54.560431 45.096554, -54.580562 45.092703, -54.600690 45.088849, -54.620815 45.084992, -54.640937 45.081130, -54.661057 45.077266, -54.681174 45.073398, -54.701288 45.069526, -54.721400 45.065651, -54.741508 45.061772, -54.761614 45.057890, -54.781718 45.054004, -54.801818 45.050114, -54.821916 45.046221, -54.842011 45.042325, -54.862104 45.038425, -54.882193 45.034522, -54.902280 45.030615, -54.922365 45.026704, -54.942446 45.022790, -54.962525 45.018872, -54.982601 45.014951, -55.002674 45.011027, -55.022744 45.007099, -55.042812 45.003167, -55.062877 44.999232, -55.082939 44.995293, -55.102998 44.991351, -55.123055 44.987406, -55.143109 44.983456, -55.163160 44.979504, -55.183208 44.975547, -55.203254 44.971588, -55.223297 44.967625, -55.243337 44.963658, -55.263374 44.959688, -55.283409 44.955714, -55.303440 44.951737, -55.323469 44.947756, -55.343495 44.943772, -55.363519 44.939784, -55.383539 44.935793, -55.403557 44.931798, -55.423572 44.927800, -55.443584 44.923798, -55.463594 44.919793, -55.483601 44.915784, -55.503604 44.911772, -55.523605 44.907756, -55.543604 44.903737, -55.563599 44.899715, -55.583592 44.895689, -55.603582 44.891659, -55.623569 44.887626, -55.643553 44.883589, -55.663535 44.879549, -55.683513 44.875505, -55.703489 44.871458, -55.723462 44.867408, -55.743432 44.863354, -55.763400 44.859296, -55.783364 44.855235, -55.803326 44.851171, -55.823285 44.847103, -55.843241 44.843032, -55.863195 44.838957, -55.883145 44.834878, -55.903093 44.830797, -55.923038 44.826711, -55.942980 44.822622, -55.962919 44.818530, -55.982855 44.814434, -56.002789 44.810335, -56.022720 44.806233, -56.042647 44.802127, -56.062572 44.798017, -56.082495 44.793904, -56.102414 44.789787, -56.122331 44.785667, -56.142244 44.781544, -56.162155 44.777417, -56.182063 44.773287, -56.201968 44.769153, -56.221870 44.765016, -56.241770 44.760875, -56.261666 44.756731, -56.281560 44.752583, -56.301451 44.748432, -56.321339 44.744278, -56.341224 44.740120, -56.361106 44.735958, -56.380986 44.731793, -56.400862 44.727625, -56.420736 44.723453, -56.440607 44.719278, -56.460475 44.715099, -56.480340 44.710917, -56.500202 44.706732, -56.520061 44.702543, -56.539918 44.698350, -56.559771 44.694154, -56.579622 44.689955, -56.599470 44.685752, -56.619315 44.681546, -56.639157 44.677336, -56.658996 44.673123, -56.678832 44.668907, -56.698666 44.664687, -56.718496 44.660464, -56.738324 44.656237, -56.758149 44.652007, -56.777970 44.647773, -56.797789 44.643536, -56.817605 44.639295, -56.837419 44.635051, -56.857229 44.630804, -56.877036 44.626553, -56.896841 44.622299, -56.916642 44.618041, -56.936441 44.613780, -56.956236 44.609516, -56.976029 44.605248, -56.995819 44.600977, -57.015606 44.596702, -57.035390 44.592424, -57.055171 44.588142, -57.074950 44.583857, -57.094725 44.579569, -57.114498 44.575277, -57.134267 44.570982, -57.154034 44.566683, -57.173797 44.562381, -57.193558 44.558076, -57.213316 44.553767, -57.233071 44.549455, -57.252823 44.545139, -57.272572 44.540820, -57.292318 44.536498, -57.312061 44.532172, -57.331801 44.527843, -57.351539 44.523510, -57.371273 44.519174, -57.391004 44.514834, -57.410733 44.510492, -57.430458 44.506145, -57.450181 44.501796, -57.469901 44.497443, -57.489617 44.493086, -57.509331 44.488726, -57.529042 44.484363, -57.548750 44.479997, -57.568455 44.475627, -57.588157 44.471253, -57.607856 44.466877, -57.627552 44.462496, -57.647245 44.458113, -57.666935 44.453726, -57.686622 44.449336, -57.706306 44.444942, -57.725988 44.440545, -57.745666 44.436145, -57.765341 44.431741, -57.785014 44.427334, -57.804683 44.422923, -57.824350 44.418509, -57.844013 44.414092, -57.863673 44.409671, -57.883331 44.405247, -57.902986 44.400820, -57.922637 44.396389, -57.942286 44.391955, -57.961931 44.387517, -57.981574 44.383076, -58.001214 44.378632, -58.020850 44.374184, -58.040484 44.369733, -58.060115 44.365279, -58.079742 44.360821, -58.099367 44.356360, -58.118989 44.351896, -58.138608 44.347428, -58.158223 44.342957, -58.177836 44.338482, -58.197446 44.334004, -58.217053 44.329523, -58.236656 44.325039, -58.256257 44.320551, -58.275855 44.316059, -58.295450 44.311565, -58.315042 44.307067, -58.334630 44.302565, -58.354216 44.298061, -58.373799 44.293553, -58.393379 44.289041, -58.412955 44.284527, -58.432529 44.280009, -58.452100 44.275487, -58.471668 44.270963, -58.491232 44.266434, -58.510794 44.261903, -58.530353 44.257368, -58.549908 44.252830, -58.569461 44.248289, -58.589010 44.243744, -58.608557 44.239196, -58.628101 44.234645, -58.647641 44.230090, -58.667179 44.225532, -58.686713 44.220970, -58.706245 44.216406, -58.725773 44.211837, -58.745298 44.207266, -58.764821 44.202691, -58.784340 44.198113, -58.803856 44.193532, -58.823370 44.188947, -58.842880 44.184359, -58.862387 44.179768, -58.881891 44.175173, -58.901392 44.170575, -58.920891 44.165974, -58.940386 44.161369, -58.959878 44.156762, -58.979366 44.152150, -58.998852 44.147536, -59.018335 44.142918, -59.037815 44.138297, -59.057292 44.133672, -59.076765 44.129044, -59.096236 44.124413, -59.115704 44.119779, -59.135168 44.115141, -59.154630 44.110500, -59.174088 44.105856, -59.193544 44.101208, -59.212996 44.096557, -59.232445 44.091903, -59.251891 44.087246, -59.271334 44.082585, -59.290774 44.077921, -59.310211 44.073253, -59.329645 44.068583, -59.349076 44.063909, -59.368504 44.059232, -59.387929 44.054551, -59.407350 44.049867, -59.426769 44.045180, -59.446184 44.040489, -59.465597 44.035796, -59.485006 44.031099, -59.504412 44.026398, -59.523816 44.021695, -59.543216 44.016988, -59.562613 44.012278, -59.582007 44.007564, -59.601398 44.002848, -59.620785 43.998128, -59.640170 43.993404, -59.659552 43.988678, -59.678930 43.983948, -59.698306 43.979215, -59.717678 43.974479, -59.737047 43.969739, -59.756413 43.964996, -59.775777 43.960250, -59.795136 43.955501, -59.814493 43.950748, -59.833847 43.945992, -59.853198 43.941233, -59.872545 43.936470, -59.891890 43.931704, -59.911231 43.926935, -59.930570 43.922163, -59.949905 43.917387, -59.969237 43.912609, -59.988566 43.907826, -60.007892 43.903041, -60.027214 43.898253, -60.046534 43.893461, -60.065851 43.888666, -60.085164 43.883867, -60.104474 43.879066, -60.123782 43.874261, -60.143086 43.869453, -60.162387 43.864641, -60.181684 43.859827, -60.200979 43.855009, -60.220271 43.850188, -60.239559 43.845363, -60.258845 43.840536, -60.278127 43.835705, -60.297406 43.830871, -60.316682 43.826034, -60.335955 43.821193, -60.355225 43.816349, -60.374491 43.811502, -60.393755 43.806652, -60.413015 43.801798, -60.432272 43.796942, -60.451527 43.792082, -60.470778 43.787219, -60.490025 43.782352, -60.509270 43.777483, -60.528512 43.772610, -60.547750 43.767734, -60.566985 43.762854, -60.586218 43.757972, -60.605447 43.753086, -60.624673 43.748197, -60.643895 43.743305, -60.663115 43.738409, -60.682331 43.733510, -60.701545 43.728609, -60.720755 43.723703, -60.739962 43.718795, -60.759166 43.713884, -60.778366 43.708969, -60.797564 43.704051, -60.816758 43.699130, -60.835950 43.694205, -60.855138 43.689278, -60.874323 43.684347, -60.893505 43.679413, -60.912683 43.674476, -60.931859 43.669535, -60.951031 43.664592, -60.970200 43.659645, -60.989366 43.654695, -61.008529 43.649741, -61.027689 43.644785, -61.046845 43.639825, -61.065999 43.634862, -61.085149 43.629896, -61.104296 43.624927, -61.123440 43.619955, -61.142581 43.614979, -61.161718 43.610000, -61.180853 43.605018, -61.199984 43.600033, -61.219112 43.595045, -61.238237 43.590053, -61.257358 43.585058, -61.276477 43.580060, -61.295592 43.575059, -61.314704 43.570055, -61.333813 43.565047, -61.352919 43.560037, -61.372022 43.555023, -61.391121 43.550006, -61.410218 43.544986, -61.429311 43.539962, -61.448401 43.534936, -61.467487 43.529906, -61.486571 43.524873, -61.505651 43.519837, -61.524728 43.514798, -61.543802 43.509755, -61.562873 43.504709, -61.581941 43.499661, -61.601005 43.494609, -61.620066 43.489554, -61.639124 43.484495, -61.658179 43.479434, -61.677231 43.474369, -61.696279 43.469301, -61.715325 43.464231, -61.734367 43.459156, -61.753406 43.454079, -61.772441 43.448999, -61.791474 43.443915, -61.810503 43.438828, -61.829529 43.433739, -61.848552 43.428646, -61.867572 43.423549, -61.886588 43.418450, -61.905601 43.413347, -61.924611 43.408242, -61.943618 43.403133, -61.962622 43.398021, -61.981622 43.392906, -62.000620 43.387788, -62.019614 43.382666, -62.038604 43.377542, -62.057592 43.372414, -62.076576 43.367283, -62.095558 43.362150, -62.114536 43.357012, -62.133510 43.351872, -62.152482 43.346729, -62.171450 43.341582, -62.190415 43.336433, -62.209377 43.331280, -62.228336 43.326124, -62.247291 43.320965, -62.266243 43.315803, -62.285192 43.310638, -62.304138 43.305469, -62.323081 43.300298, -62.342020 43.295123, -62.360956 43.289945, -62.379889 43.284764, -62.398819 43.279580, -62.417745 43.274393, -62.436669 43.269203, -62.455589 43.264010, -62.474505 43.258813, -62.493419 43.253614, -62.512329 43.248411, -62.531236 43.243205, -62.550140 43.237996, -62.569041 43.232784, -62.587938 43.227569, -62.606832 43.222350, -62.625723 43.217129, -62.644611 43.211905, -62.663495 43.206677, -62.682376 43.201446, -62.701254 43.196212, -62.720129 43.190975, -62.739000 43.185735, -62.757869 43.180492, -62.776734 43.175246, -62.795595 43.169997, -62.814454 43.164744, -62.833309 43.159489, -62.852161 43.154230, -62.871010 43.148968, -62.889855 43.143704, -62.908698 43.138436, -62.927537 43.133165, -62.946373 43.127891, -62.965205 43.122613, -62.984034 43.117333, -63.002860 43.112050, -63.021683 43.106763, -63.040503 43.101474, -63.059319 43.096181, -63.078132 43.090886, -63.096942 43.085587, -63.115748 43.080285, -63.134552 43.074980, -63.153352 43.069672, -63.172148 43.064361, -63.190942 43.059047, -63.209732 43.053730, -63.228519 43.048409, -63.247303 43.043086, -63.266083 43.037760, -63.284860 43.032430, -63.303634 43.027097, -63.322405 43.021762, -63.341172 43.016423, -63.359937 43.011081, -63.378697 43.005736, -63.397455 43.000389, -63.416209 42.995038, -63.434960 42.989684, -63.453708 42.984326, -63.472453 42.978966, -63.491194 42.973603, -63.509932 42.968237, -63.528667 42.962867, -63.547398 42.957495, -63.566127 42.952120, -63.584851 42.946741, -63.603573 42.941360, -63.622291 42.935975, -63.641007 42.930587, -63.659718 42.925197, -63.678427 42.919803, -63.697132 42.914406, -63.715834 42.909006, -63.734533 42.903604, -63.753228 42.898198, -63.771921 42.892789, -63.790609 42.887377, -63.809295 42.881962, -63.827977 42.876544, -63.846656 42.871123, -63.865332 42.865698, -63.884005 42.860271, -63.902674 42.854841, -63.921340 42.849408, -63.940002 42.843971, -63.958662 42.838532, -63.977318 42.833090, -63.995971 42.827644, -64.014620 42.822196, -64.033266 42.816745, -64.051909 42.811290, -64.070549 42.805833, -64.089185 42.800372, -64.107818 42.794909, -64.126448 42.789442, -64.145074 42.783973, -64.163697 42.778500, -64.182317 42.773025, -64.200934 42.767546, -64.219547 42.762064, -64.238157 42.756580, -64.256764 42.751092, -64.275367 42.745601, -64.293967 42.740108, -64.312564 42.734611, -64.331158 42.729111, -64.349748 42.723609, -64.368335 42.718103, -64.386918 42.712594, -64.405499 42.707083, -64.424076 42.701568, -64.442649 42.696050, -64.461220 42.690530, -64.479787 42.685006, -64.498351 42.679479, -64.516911 42.673950, -64.535469 42.668417, -64.554022 42.662881, -64.572573 42.657342, -64.591120 42.651801, -64.609664 42.646256, -64.628205 42.640708, -64.646742 42.635158, -64.665276 42.629604, -64.683807 42.624048, -64.702335 42.618488, -64.720859 42.612925, -64.739380 42.607360, -64.757897 42.601791, -64.776411 42.596220, -64.794922 42.590645, -64.813430 42.585068, -64.831934 42.579487, -64.850435 42.573904, -64.868933 42.568317, -64.887427 42.562728, -64.905918 42.557136, -64.924406 42.551540, -64.942890 42.545942, -64.961371 42.540341, -64.979849 42.534736, -64.998323 42.529129, -65.016794 42.523519, -65.035262 42.517906, -65.053727 42.512290, -65.072188 42.506671, -65.090646 42.501049, -65.109100 42.495424, -65.127552 42.489796, -65.145999 42.484165, -65.164444 42.478531, -65.182885 42.472894, -65.201323 42.467254, -65.219758 42.461611, -65.238189 42.455966, -65.256617 42.450317, -65.275042 42.444665, -65.293463 42.439011, -65.311881 42.433353, -65.330296 42.427693, -65.348707 42.422029, -65.367115 42.416363, -65.385520 42.410694, -65.403921 42.405022, -65.422319 42.399346, -65.440714 42.393668, -65.459105 42.387987, -65.477493 42.382303, -65.495878 42.376616, -65.514259 42.370926, -65.532637 42.365234, -65.551012 42.359538, -65.569383 42.353839, -65.587751 42.348138, -65.606116 42.342433, -65.624477 42.336726, -65.642835 42.331015, -65.661190 42.325302, -65.679541 42.319586, -65.697889 42.313866, -65.716234 42.308144, -65.734575 42.302419, -65.752914 42.296691, -65.771248 42.290960, -65.789580 42.285227, -65.807908 42.279490, -65.826232 42.273750, -65.844554 42.268008, -65.862872 42.262262, -65.881186 42.256514, -65.899498 42.250763, -65.917806 42.245008, -65.936110 42.239251, -65.954412 42.233491, -65.972710 42.227728, -65.991004 42.221963, -66.009295 42.216194, -66.027583 42.210422, -66.045868 42.204648, -66.064149 42.198870, -66.082427 42.193090, -66.100702 42.187307, -66.118973 42.181520, -66.137241 42.175731, -66.155505 42.169939, -66.173767 42.164145, -66.192024 42.158347, -66.210279 42.152546, -66.228530 42.146743, -66.246778 42.140936, -66.265022 42.135127, -66.283263 42.129315, -66.301501 42.123500, -66.319736 42.117682, -66.337967 42.111861, -66.356194 42.106037, -66.374419 42.100210, -66.392640 42.094381, -66.410857 42.088548, -66.429072 42.082713, -66.447283 42.076875, -66.465490 42.071034, -66.483695 42.065190, -66.501895 42.059343, -66.520093 42.053494, -66.538287 42.047641, -66.556478 42.041786, -66.574666 42.035927, -66.592850 42.030066, -66.611031 42.024202, -66.629208 42.018335, -66.647382 42.012466, -66.665553 42.006593, -66.683720 42.000717, -66.701884 41.994839, -66.720045 41.988958, -66.738202 41.983074, -66.756356 41.977187, -66.774507 41.971297, -66.792654 41.965404, -66.810798 41.959509, -66.828938 41.953610, -66.847076 41.947709, -66.865209 41.941805, -66.883340 41.935898, -66.901467 41.929988, -66.919591 41.924076, -66.937711 41.918160, -66.955828 41.912242, -66.973942 41.906321, -66.992052 41.900397, -67.010159 41.894470, -67.028262 41.888540, -67.046363 41.882608, -67.064459 41.876672, -67.082553 41.870734, -67.100643 41.864793, -67.118730 41.858849, -67.136813 41.852902, -67.154893 41.846953, -67.172970 41.841000, -67.191043 41.835045, -67.209113 41.829087, -67.227180 41.823126, -67.245243 41.817162, -67.263303 41.811195, -67.281359 41.805226, -67.299412 41.799254, -67.317462 41.793279, -67.335509 41.787301, -67.353552 41.781320, -67.371591 41.775337, -67.389627 41.769350, -67.407660 41.763361, -67.425690 41.757369, -67.443716 41.751374, -67.461739 41.745377, -67.479758 41.739376, -67.497774 41.733373, -67.515787 41.727367, -67.533797 41.721358, -67.551803 41.715346, -67.569805 41.709332, -67.587804 41.703314, -67.605800 41.697294, -67.623793 41.691271, -67.641782 41.685246, -67.659768 41.679217, -67.677750 41.673186, -67.695729 41.667152, -67.713705 41.661115, -67.731677 41.655075, -67.749646 41.649032, -67.767611 41.642987, -67.785574 41.636939, -67.803532 41.630888, -67.821488 41.624834, -67.839440 41.618778, -67.857389 41.612718, -67.875334 41.606656, -67.893276 41.600591, -67.911214 41.594524, -67.929150 41.588453, -67.947081 41.582380, -67.965010 41.576304, -67.982935 41.570225, -68.000857 41.564143, -68.018775 41.558059, -68.036690 41.551972, -68.054601 41.545882, -68.072510 41.539789, -68.090414 41.533693, -68.108316 41.527595, -68.126214 41.521494, -68.144109 41.515390, -68.162000 41.509284, -68.179888 41.503174, -68.197772 41.497062, -68.215654 41.490947, -68.233531 41.484829, -68.251406 41.478709, -68.269277 41.472586, -68.287145 41.466460, -68.305009 41.460331, -68.322870 41.454199, -68.340727 41.448065, -68.358582 41.441928, -68.376432 41.435788, -68.394280 41.429646, -68.412124 41.423500, -68.429965 41.417352, -68.447802 41.411201, -68.465636 41.405048, -68.483466 41.398891, -68.501294 41.392732, -68.519117 41.386571, -68.536938 41.380406, -68.554755 41.374239, -68.572568 41.368068, -68.590379 41.361896, -68.608185 41.355720, -68.625989 41.349542, -68.643789 41.343361, -68.661586 41.337177, -68.679379 41.330990, -68.697169 41.324801, -68.714956 41.318609, -68.732739 41.312414, -68.750519 41.306217, -68.768295 41.300016, -68.786068 41.293813, -68.803838 41.287608, -68.821604 41.281399, -68.839367 41.275188, -68.857127 41.268974, -68.874883 41.262758, -68.892636 41.256538, -68.910385 41.250316, -68.928131 41.244091, -68.945874 41.237864, -68.963613 41.231633, -68.981349 41.225400, -68.999082 41.219165, -69.016811 41.212926, -69.034537 41.206685, -69.052259 41.200441, -69.069978 41.194195, -69.087694 41.187945, -69.105406 41.181693, -69.123115 41.175439, -69.140820 41.169181, -69.158522 41.162921, -69.176221 41.156658, -69.193916 41.150393, -69.211608 41.144124, -69.229297 41.137854, -69.246982 41.131580, -69.264664 41.125303, -69.282342 41.119024, -69.300017 41.112743, -69.317689 41.106458, -69.335357 41.100171, -69.353022 41.093881, -69.370683 41.087588, -69.388341 41.081293, -69.405996 41.074995, -69.423647 41.068695, -69.441295 41.062391, -69.458940 41.056085, -69.476581 41.049776, -69.494219 41.043465, -69.511853 41.037151, -69.529484 41.030834, -69.547112 41.024515, -69.564736 41.018192, -69.582357 41.011867, -69.599975 41.005540, -69.617589 40.999210, -69.635199 40.992877, -69.652807 40.986541, -69.670411 40.980203, -69.688011 40.973862, -69.705608 40.967518, -69.723202 40.961172, -69.740793 40.954823, -69.758380 40.948471, -69.775963 40.942117, -69.793544 40.935760, -69.811121 40.929400, -69.828694 40.923038, -69.846264 40.916673, -69.863831 40.910306, -69.881394 40.903935, -69.898954 40.897562, -69.916511 40.891187, -69.934064 40.884808, -69.951614 40.878427, -69.969160 40.872044, -69.986703 40.865657, -70.004243 40.859268, -70.021779 40.852877, -70.039312 40.846483, -70.056842 40.840086, -70.074368 40.833686, -70.091891 40.827284, -70.109410 40.820879, -70.126926 40.814472, -70.144439 40.808061, -70.161948 40.801649, -70.179454 40.795233, -70.196956 40.788815, -70.214455 40.782394, -70.231951 40.775971, -70.249443 40.769545, -70.266932 40.763116, -70.284417 40.756685, -70.301900 40.750251, -70.319378 40.743814, -70.336854 40.737375, -70.354326 40.730933, -70.371794 40.724489, -70.389260 40.718042, -70.406721 40.711592, -70.424180 40.705139, -70.441635 40.698684, -70.459087 40.692227, -70.476535 40.685767, -70.493980 40.679304, -70.511421 40.672838, -70.528860 40.666370, -70.546294 40.659899, -70.563726 40.653426, -70.581154 40.646950, -70.598578 40.640471, -70.616000 40.633990, -70.633418 40.627506, -70.650832 40.621020, -70.668243 40.614530, -70.685651 40.608039, -70.703055 40.601544, -70.720456 40.595047, -70.737854 40.588548, -70.755248 40.582046, -70.772639 40.575541, -70.790026 40.569034, -70.807410 40.562524, -70.824791 40.556011, -70.842168 40.549496, -70.859542 40.542978, -70.876913 40.536458, -70.894280 40.529935, -70.911643 40.523409, -70.929004 40.516881, -70.946361 40.510350, -70.963714 40.503817, -70.981065 40.497281, -70.998412 40.490742, -71.015755 40.484201, -71.033095 40.477657, -71.050432 40.471111, -71.067765 40.464562, -71.085095 40.458010, -71.102422 40.451456, -71.119745 40.444900, -71.137065 40.438340, -71.154381 40.431778, -71.171694 40.425214, -71.189004 40.418647, -71.206310 40.412077, -71.223613 40.405505, -71.240912 40.398930, -71.258209 40.392353, -71.275501 40.385773, -71.292791 40.379191, -71.310077 40.372605, -71.327359 40.366018, -71.344639 40.359428, -71.361915 40.352835, -71.379187 40.346239, -71.396456 40.339641, -71.413722 40.333041, -71.430984 40.326438, -71.448243 40.319832, -71.465499 40.313224, -71.482751 40.306613, -71.500000 40.300000, -71.519051 40.301501, -71.538103 40.302999, -71.557156 40.304494, -71.576210 40.305986, -71.595265 40.307475, -71.614320 40.308960, -71.633377 40.310443, -71.652434 40.311922, -71.671492 40.313399, -71.690551 40.314872, -71.709611 40.316342, -71.728671 40.317808, -71.747732 40.319272, -71.766795 40.320733, -71.785858 40.322190, -71.804921 40.323645, -71.823986 40.325096, -71.843051 40.326544, -71.862118 40.327989, -71.881185 40.329431, -71.900253 40.330869, -71.919321 40.332305, -71.938391 40.333737, -71.957461 40.335166, -71.976532 40.336593, -71.995604 40.338016, -72.014677 40.339435, -72.033751 40.340852, -72.052825 40.342266, -72.071900 40.343676, -72.090976 40.345084, -72.110053 40.346488, -72.129130 40.347889, -72.148209 40.349287, -72.167288 40.350682, -72.186368 40.352073, -72.205448 40.353462, -72.224530 40.354847, -72.243612 40.356230, -72.262695 40.357609, -72.281779 40.358985, -72.300864 40.360358, -72.319949 40.361727, -72.339035 40.363094, -72.358122 40.364457, -72.377210 40.365818, -72.396298 40.367175, -72.415387 40.368529, -72.434477 40.369880, -72.453568 40.371228, -72.472660 40.372572, -72.491752 40.373914, -72.510845 40.375252, -72.529939 40.376587, -72.549033 40.377919, -72.568129 40.379248, -72.587225 40.380574, -72.606321 40.381897, -72.625419 40.383216, -72.644517 40.384532, -72.663616 40.385846, -72.682716 40.387156, -72.701817 40.388463, -72.720918 40.389766, -72.740020 40.391067, -72.759123 40.392365, -72.778226 40.393659, -72.797331 40.394950, -72.816435 40.396238, -72.835541 40.397523, -72.854648 40.398805, -72.873755 40.400084, -72.892863 40.401359, -72.911971 40.402631, -72.931080 40.403901, -72.950191 40.405167, -72.969301 40.406430, -72.988413 40.407689, -73.007525 40.408946, -73.026638 40.410199, -73.045751 40.411450, -73.064866 40.412697, -73.083981 40.413941, -73.103096 40.415182, -73.122213 40.416420, -73.141330 40.417654, -73.160448 40.418886, -73.179566 40.420114, -73.198686 40.421339, -73.217806 40.422561, -73.236926 40.423780, -73.256047 40.424995, -73.275169 40.426208, -73.294292 40.427417, -73.313416 40.428624, -73.332540 40.429827, -73.351664 40.431027, -73.370790 40.432223, -73.389916 40.433417, -73.409043 40.434607, -73.428170 40.435795, -73.447298 40.436979, -73.466427 40.438160, -73.485557 40.439338, -73.504687 40.440513, -73.523818 40.441684, -73.542949 40.442853, -73.562081 40.444018, -73.581214 40.445180, -73.600347 40.446339, -73.619482 40.447495, -73.638616 40.448647, -73.657752 40.449797, -73.676888 40.450943, -73.696025 40.452086, -73.715162 40.453226, -73.734300 40.454363, -73.753439 40.455497, -73.772578 40.456627, -73.791718 40.457755, -73.810859 40.458879, -73.830000 40.460000, -73.839442 40.472639, -73.848887 40.485276, -73.858335 40.497913, -73.867788 40.510549, -73.877243 40.523185, -73.886703 40.535820, -73.896166 40.548454, -73.905632 40.561087, -73.915102 40.573719, -73.924576 40.586351, -73.934053 40.598981, -73.943534 40.611611, -73.953018 40.624241, -73.962506 40.636869, -73.971998 40.649497, -73.981493 40.662124, -73.990992 40.674750, -74.000494 40.687375, -74.010000 40.700000)
