LINESTRING (-1.400000 50.910000, -1.382700 50.901660, -1.361761 50.892754, -1.337815 50.883355, -1.311496 50.873542, -1.283436 50.863391, -1.254265 50.852978, -1.224615 50.842383, -1.195115 50.831683, -1.166396 50.820957, -1.139084 50.810286, -1.113808 50.799749, -1.091194 50.789428, -1.071870 50.779402, -1.056460 50.769754, -1.045589 50.760565, -1.039883 50.751914, -1.039966 50.743884, -1.046464 50.736553, -1.060000 50.730000, -1.077636 50.723732, -1.095387 50.717428, -1.113252 50.711087, -1.131230 50.704712, -1.149318 50.698303, -1.167517 50.691859, -1.185824 50.685382, -1.204239 50.678873, -1.222759 50.672331, -1.241384 50.665759, -1.260112 50.659155, -1.278941 50.652521, -1.297872 50.645857, -1.316901 50.639164, -1.336028 50.632443, -1.355252 50.625694, -1.374570 50.618918, -1.393983 50.612116, -1.413488 50.605287, -1.433084 50.598433, -1.452770 50.591554, -1.472544 50.584652, -1.492405 50.577725, -1.512353 50.570776, -1.532384 50.563805, -1.552499 50.556812, -1.572696 50.549797, -1.592974 50.542763, -1.613330 50.535708, -1.633765 50.528635, -1.654276 50.521543, -1.674862 50.514433, -1.695522 50.507305, -1.716255 50.500161, -1.737060 50.493001, -1.757934 50.485825, -1.778877 50.478635, -1.799888 50.471430, -1.820965 50.464212, -1.842106 50.456981, -1.863311 50.449738, -1.884579 50.442483, -1.905907 50.435216, -1.927295 50.427940, -1.948742 50.420653, -1.970245 50.413358, -1.991805 50.406054, -2.013418 50.398742, -2.035086 50.391423, -2.056805 50.384097, -2.078575 50.376766, -2.100394 50.369428, -2.122261 50.362087, -2.144176 50.354741, -2.166135 50.347392, -2.188140 50.340040, -2.210187 50.332686, -2.232276 50.325330, -2.254406 50.317974, -2.276575 50.310617, -2.298782 50.303261, -2.321026 50.295906, -2.343305 50.288552, -2.365618 50.281201, -2.387965 50.273853, -2.410343 50.266509, -2.432752 50.259169, -2.455190 50.251835, -2.477657 50.244505, -2.500150 50.237182, -2.522668 50.229867, -2.545211 50.222558, -2.567777 50.215258, -2.590365 50.207967, -2.612974 50.200686, -2.635602 50.193414, -2.658248 50.186154, -2.680911 50.178905, -2.703590 50.171669, -2.726283 50.164445, -2.748990 50.157235, -2.771709 50.150039, -2.794439 50.142859, -2.817178 50.135693, -2.839926 50.128544, -2.862681 50.121412, -2.885442 50.114297, -2.908208 50.107201, -2.930977 50.100124, -2.953750 50.093066, -2.976523 50.086028, -2.999296 50.079012, -3.022068 50.072017, -3.044838 50.065044, -3.067605 50.058094, -3.090366 50.051168, -3.113122 50.044266, -3.135871 50.037390, -3.158612 50.030539, -3.181343 50.023714, -3.204063 50.016916, -3.226772 50.010147, -3.249468 50.003405, -3.272149 49.996693, -3.294816 49.990010, -3.317466 49.983358, -3.340098 49.976738, -3.362711 49.970149, -3.385305 49.963592, -3.407878 49.957069, -3.430428 49.950580, -3.452955 49.944125, -3.475457 49.937706, -3.497934 49.931323, -3.520383 49.924976, -3.542805 49.918667, -3.565197 49.912396, -3.587560 49.906164, -3.609891 49.899971, -3.632189 49.893819, -3.654453 49.887707, -3.676683 49.881637, -3.698877 49.875610, -3.721033 49.869625, -3.743151 49.863684, -3.765230 49.857788, -3.787269 49.851936, -3.809265 49.846131, -3.831219 49.840372, -3.853130 49.834660, -3.874995 49.828996, -3.896814 49.823381, -3.918585 49.817816, -3.940309 49.812300, -3.961983 49.806835, -3.983606 49.801422, -4.005177 49.796061, -4.026696 49.790753, -4.048161 49.785498, -4.069571 49.780298, -4.090925 49.775153, -4.112221 49.770064, -4.133459 49.765031, -4.154638 49.760056, -4.175756 49.755138, -4.196812 49.750279, -4.217806 49.745480, -4.238736 49.740741, -4.259601 49.736062, -4.280400 49.731445, -4.301132 49.726891, -4.321795 49.722399, -4.342390 49.717971, -4.362914 49.713608, -4.383366 49.709310, -4.403746 49.705078, -4.424052 49.700912, -4.444284 49.696814, -4.464439 49.692784, -4.484518 49.688822, -4.504519 49.684931, -4.524441 49.681109, -4.544282 49.677359, -4.564042 49.673680, -4.583721 49.670074, -4.603315 49.666541, -4.622825 49.663082, -4.642250 49.659698, -4.661588 49.656389, -4.680838 49.653156, -4.700000 49.650000, -4.719044 49.647108, -4.738335 49.644596, -4.757867 49.642455, -4.777634 49.640676, -4.797630 49.639251, -4.817848 49.638171, -4.838284 49.637426, -4.858930 49.637008, -4.879782 49.636908, -4.900832 49.637118, -4.922076 49.637628, -4.943506 49.638430, -4.965118 49.639515, -4.986904 49.640874, -5.008860 49.642498, -5.030979 49.644379, -5.053254 49.646507, -5.075680 49.648875, -5.098252 49.651472, -5.120962 49.654291, -5.143804 49.657323, -5.166774 49.660558, -5.189864 49.663988, -5.213068 49.667605, -5.236381 49.671399, -5.259796 49.675362, -5.283306 49.679485, -5.306907 49.683760, -5.330592 49.688177, -5.354354 49.692728, -5.378187 49.697404, -5.402085 49.702196, -5.426042 49.707096, -5.450052 49.712096, -5.474108 49.717185, -5.498205 49.722357, -5.522335 49.727601, -5.546493 49.732909, -5.570671 49.738274, -5.594865 49.743685, -5.619067 49.749134, -5.643271 49.754614, -5.667471 49.760114, -5.691660 49.765627, -5.715832 49.771143, -5.739981 49.776655, -5.764100 49.782153, -5.788182 49.787629, -5.812221 49.793075, -5.836210 49.798481, -5.860144 49.803840, -5.884015 49.809142, -5.907817 49.814379, -5.931544 49.819543, -5.955188 49.824624, -5.978743 49.829615, -6.002203 49.834506, -6.025561 49.839290, -6.048810 49.843957, -6.071943 49.848499, -6.094955 49.852908, -6.117838 49.857175, -6.140585 49.861292, -6.163190 49.865250, -6.185646 49.869040, -6.207947 49.872654, -6.230085 49.876083, -6.252054 49.879319, -6.273847 49.882354, -6.295457 49.885179, -6.316877 49.887785, -6.338101 49.890164, -6.359122 49.892307, -6.379933 49.894207, -6.400526 49.895853, -6.420896 49.897239, -6.441035 49.898355, -6.460937 49.899193, -6.480594 49.899744, -6.500000 49.900000, -6.519377 49.900103, -6.538772 49.900198, -6.558184 49.900286, -6.577613 49.900366, -6.597061 49.900439, -6.616525 49.900505, -6.636007 49.900563, -6.655506 49.900614, -6.675023 49.900657, -6.694557 49.900693, -6.714108 49.900722, -6.733677 49.900743, -6.753263 49.900757, -6.772865 49.900764, -6.792486 49.900763, -6.812123 49.900755, -6.831777 49.900739, -6.851448 49.900716, -6.871137 49.900685, -6.890842 49.900647, -6.910564 49.900602, -6.930304 49.900549, -6.950060 49.900489, -6.969833 49.900422, -6.989623 49.900347, -7.009429 49.900265, -7.029253 49.900175, -7.049093 49.900078, -7.068950 49.899973, -7.088823 49.899861, -7.108713 49.899742, -7.128620 49.899615, -7.148543 49.899481, -7.168483 49.899340, -7.188440 49.899191, -7.208413 49.899034, -7.228402 49.898870, -7.248408 49.898699, -7.268430 49.898521, -7.288469 49.898334, -7.308523 49.898141, -7.328595 49.897940, -7.348682 49.897732, -7.368786 49.897516, -7.388905 49.897293, -7.409041 49.897062, -7.429193 49.896824, -7.449362 49.896579, -7.469546 49.896326, -7.489746 49.896066, -7.509963 49.895798, -7.530195 49.895523, -7.550443 49.895240, -7.570707 49.894950, -7.590987 49.894653, -7.611283 49.894348, -7.631595 49.894036, -7.651922 49.893716, -7.672265 49.893389, -7.692624 49.893055, -7.712998 49.892713, -7.733389 49.892363, -7.753794 49.892006, -7.774216 49.891642, -7.794652 49.891270, -7.815105 49.890891, -7.835573 49.890505, -7.856056 49.890111, -7.876555 49.889709, -7.897069 49.889300, -7.917598 49.888884, -7.938143 49.888460, -7.958703 49.888029, -7.979279 49.887591, -7.999869 49.887145, -8.020475 49.886691, -8.041096 49.886230, -8.061732 49.885762, -8.082383 49.885286, -8.103049 49.884803, -8.123730 49.884313, -8.144426 49.883815, -8.165137 49.883309, -8.185863 49.882796, -8.206604 49.882276, -8.227360 49.881748, -8.248131 49.881213, -8.268916 49.880670, -8.289716 49.880120, -8.310531 49.879563, -8.331361 49.878998, -8.352205 49.878425, -8.373064 49.877846, -8.393937 49.877258, -8.414825 49.876664, -8.435728 49.876062, -8.456645 49.875452, -8.477576 49.874835, -8.498522 49.874211, -8.519482 49.873579, -8.540457 49.872940, -8.561446 49.872293, -8.582449 49.871639, -8.603467 49.870978, -8.624499 49.870309, -8.645545 49.869632, -8.666605 49.868948, -8.687679 49.868257, -8.708767 49.867558, -8.729870 49.866852, -8.750986 49.866139, -8.772117 49.865418, -8.793261 49.864690, -8.814420 49.863954, -8.835592 49.863211, -8.856778 49.862460, -8.877978 49.861702, -8.899192 49.860936, -8.920419 49.860163, -8.941660 49.859383, -8.962915 49.858595, -8.984184 49.857800, -9.005466 49.856998, -9.026762 49.856188, -9.048071 49.855370, -9.069394 49.854545, -9.090731 49.853713, -9.112081 49.852873, -9.133444 49.852026, -9.154821 49.851172, -9.176211 49.850310, -9.197614 49.849441, -9.219031 49.848564, -9.240461 49.847680, -9.261904 49.846788, -9.283360 49.845889, -9.304830 49.844983, -9.326313 49.844069, -9.347808 49.843148, -9.369317 49.842219, -9.390839 49.841283, -9.412374 49.840340, -9.433922 49.839389, -9.455482 49.838431, -9.477056 49.837465, -9.498643 49.836492, -9.520242 49.835512, -9.541854 49.834524, -9.563479 49.833529, -9.585117 49.832527, -9.606767 49.831517, -9.628430 49.830499, -9.650105 49.829475, -9.671794 49.828442, -9.693494 49.827403, -9.715208 49.826356, -9.736933 49.825302, -9.758672 49.824240, -9.780422 49.823171, -9.802185 49.822095, -9.823961 49.821011, -9.845748 49.819920, -9.867548 49.818821, -9.889361 49.817715, -9.911185 49.816602, -9.933022 49.815481, -9.954871 49.814353, -9.976732 49.813218, -9.998605 49.812075, -10.020490 49.810925, -10.042387 49.809768, -10.064296 49.808603, -10.086217 49.807431, -10.108150 49.806251, -10.130095 49.805064, -10.152052 49.803870, -10.174020 49.802668, -10.196001 49.801459, -10.217993 49.800243, -10.239996 49.799019, -10.262012 49.797788, -10.284039 49.796550, -10.306078 49.795304, -10.328128 49.794051, -10.350190 49.792791, -10.372263 49.791523, -10.394348 49.790248, -10.416444 49.788966, -10.438552 49.787676, -10.460671 49.786379, -10.482802 49.785075, -10.504943 49.783763, -10.527096 49.782444, -10.549261 49.781118, -10.571436 49.779784, -10.593623 49.778443, -10.615821 49.777095, -10.638030 49.775740, -10.660250 49.774377, -10.682481 49.773007, -10.704723 49.771629, -10.726976 49.770244, -10.749240 49.768852, -10.771515 49.767453, -10.793800 49.766046, -10.816097 49.764633, -10.838404 49.763211, -10.860722 49.761783, -10.883051 49.760347, -10.905391 49.758904, -10.927741 49.757454, -10.950102 49.755996, -10.972474 49.754531, -10.994856 49.753059, -11.017248 49.751579, -11.039651 49.750093, -11.062065 49.748599, -11.084489 49.747097, -11.106923 49.745589, -11.129368 49.744073, -11.151823 49.742550, -11.174289 49.741020, -11.196764 49.739482, -11.219250 49.737938, -11.241746 49.736386, -11.264252 49.734827, -11.286769 49.733260, -11.309295 49.731686, -11.331832 49.730105, -11.354378 49.728517, -11.376935 49.726922, -11.399502 49.725319, -11.422078 49.723710, -11.444664 49.722093, -11.467261 49.720468, -11.489867 49.718837, -11.512482 49.717198, -11.535108 49.715552, -11.557743 49.713899, -11.580388 49.712239, -11.603043 49.710572, -11.625707 49.708897, -11.648381 49.707215, -11.671065 49.705526, -11.693757 49.703830, -11.716460 49.702127, -11.739172 49.700416, -11.761893 49.698698, -11.784624 49.696973, -11.807364 49.695241, -11.830113 49.693502, -11.852872 49.691756, -11.875640 49.690002, -11.898417 49.688242, -11.921203 49.686474, -11.943999 49.684699, -11.966803 49.682917, -11.989617 49.681128, -12.012440 49.679331, -12.035271 49.677528, -12.058112 49.675717, -12.080962 49.673899, -12.103820 49.672074, -12.126688 49.670242, -12.149564 49.668403, -12.172449 49.666557, -12.195343 49.664704, -12.218246 49.662843, -12.241157 49.660976, -12.264077 49.659101, -12.287006 49.657220, -12.309943 49.655331, -12.332889 49.653435, -12.355844 49.651532, -12.378807 49.649622, -12.401778 49.647705, -12.424758 49.645781, -12.447746 49.643850, -12.470743 49.641911, -12.493748 49.639966, -12.516761 49.638014, -12.539783 49.636054, -12.562813 49.634088, -12.585851 49.632114, -12.608897 49.630134, -12.631951 49.628146, -12.655014 49.626152, -12.678084 49.624150, -12.701163 49.622142, -12.724250 49.620126, -12.747344 49.618103, -12.770447 49.616074, -12.793557 49.614037, -12.816676 49.611993, -12.839802 49.609943, -12.862936 49.607885, -12.886078 49.605821, -12.909227 49.603749, -12.932384 49.601671, -12.955549 49.599585, -12.978722 49.597493, -13.001902 49.595393, -13.025090 49.593287, -13.048285 49.591173, -13.071488 49.589053, -13.094698 49.586926, -13.117916 49.584792, -13.141141 49.582651, -13.164373 49.580503, -13.187613 49.578348, -13.210860 49.576186, -13.234115 49.574017, -13.257376 49.571841, -13.280645 49.569659, -13.303921 49.567469, -13.327205 49.565273, -13.350495 49.563070, -13.373792 49.560860, -13.397097 49.558643, -13.420408 49.556419, -13.443727 49.554188, -13.467052 49.551950, -13.490384 49.549706, -13.513724 49.547454, -13.537070 49.545196, -13.560423 49.542931, -13.583782 49.540659, -13.607149 49.538381, -13.630522 49.536095, -13.653901 49.533803, -13.677288 49.531504, -13.700681 49.529198, -13.724081 49.526885, -13.747487 49.524565, -13.770900 49.522239, -13.794319 49.519906, -13.817744 49.517566, -13.841176 49.515219, -13.864615 49.512865, -13.888060 49.510505, -13.911511 49.508138, -13.934968 49.505764, -13.958432 49.503384, -13.981902 49.500996, -14.005378 49.498602, -14.028860 49.496201, -14.052349 49.493794, -14.075843 49.491379, -14.099344 49.488958, -14.122850 49.486531, -14.146363 49.484096, -14.169881 49.481655, -14.193406 49.479207, -14.216936 49.476753, -14.240472 49.474292, -14.264015 49.471824, -14.287562 49.469349, -14.311116 49.466868, -14.334675 49.464380, -14.358240 49.461886, -14.381811 49.459384, -14.405388 49.456877, -14.428970 49.454362, -14.452557 49.451841, -14.476150 49.449313, -14.499749 49.446779, -14.523353 49.444238, -14.546962 49.441690, -14.570577 49.439136, -14.594198 49.436575, -14.617823 49.434008, -14.641454 49.431434, -14.665091 49.428853, -14.688732 49.426266, -14.712379 49.423672, -14.736031 49.421072, -14.759688 49.418465, -14.783350 49.415852, -14.807017 49.413232, -14.830690 49.410606, -14.854367 49.407973, -14.878049 49.405333, -14.901737 49.402687, -14.925429 49.400035, -14.949126 49.397376, -14.972828 49.394710, -14.996535 49.392038, -15.020246 49.389360, -15.043963 49.386675, -15.067684 49.383983, -15.091410 49.381285, -15.115140 49.378581, -15.138876 49.375870, -15.162615 49.373153, -15.186360 49.370429, -15.210109 49.367699, -15.233862 49.364962, -15.257620 49.362219, -15.281382 49.359470, -15.305149 49.356714, -15.328920 49.353952, -15.352696 49.351183, -15.376476 49.348408, -15.400260 49.345627, -15.424048 49.342839, -15.447841 49.340045, -15.471638 49.337245, -15.495439 49.334438, -15.519244 49.331625, -15.543053 49.328805, -15.566866 49.325980, -15.590684 49.323147, -15.614505 49.320309, -15.638331 49.317464, -15.662160 49.314613, -15.685993 49.311756, -15.709830 49.308892, -15.733671 49.306022, -15.757516 49.303146, -15.781365 49.300264, -15.805217 49.297375, -15.829073 49.294480, -15.852933 49.291579, -15.876796 49.288671, -15.900663 49.285758, -15.924534 49.282838, -15.948408 49.279912, -15.972286 49.276980, -15.996167 49.274041, -16.020052 49.271096, -16.043940 49.268145, -16.067832 49.265188, -16.091727 49.262225, -16.115625 49.259256, -16.139527 49.256280, -16.163432 49.253299, -16.187341 49.250311, -16.211252 49.247317, -16.235167 49.244317, -16.259085 49.241311, -16.283006 49.238298, -16.306930 49.235280, -16.330857 49.232255, -16.354787 49.229225, -16.378721 49.226188, -16.402657 49.223145, -16.426596 49.220097, -16.450539 49.217042, -16.474484 49.213981, -16.498432 49.210914, -16.522382 49.207841, -16.546336 49.204762, -16.570292 49.201677, -16.594252 49.198586, -16.618213 49.195489, -16.642178 49.192386, -16.666145 49.189277, -16.690115 49.186162, -16.714087 49.183041, -16.738062 49.179914, -16.762040 49.176782, -16.786020 49.173643, -16.810002 49.170498, -16.833987 49.167348, -16.857975 49.164191, -16.881965 49.161029, -16.905957 49.157860, -16.929951 49.154686, -16.953948 49.151506, -16.977947 49.148320, -17.001948 49.145128, -17.025951 49.141930, -17.049957 49.138727, -17.073965 49.135517, -17.097975 49.132302, -17.121987 49.129081, -17.146001 49.125854, -17.170017 49.122621, -17.194035 49.119383, -17.218055 49.116139, -17.242077 49.112889, -17.266100 49.109633, -17.290126 49.106371, -17.314154 49.103104, -17.338183 49.099831, -17.362214 49.096552, -17.386247 49.093267, -17.410282 49.089977, -17.434318 49.086681, -17.458356 49.083379, -17.482396 49.080072, -17.506438 49.076759, -17.530480 49.073440, -17.554525 49.070115, -17.578571 49.066785, -17.602618 49.063450, -17.626667 49.060108, -17.650718 49.056761, -17.674770 49.053408, -17.698823 49.050050, -17.722877 49.046686, -17.746933 49.043317, -17.770991 49.039942, -17.795049 49.036561, -17.819109 49.033175, -17.843170 49.029783, -17.867232 49.026386, -17.891295 49.022983, -17.915359 49.019574, -17.939425 49.016160, -17.963491 49.012741, -17.987559 49.009316, -18.011628 49.005886, -18.035697 49.002450, -18.059768 48.999008, -18.083839 48.995561, -18.107911 48.992109, -18.131985 48.988651, -18.156059 48.985188, -18.180134 48.981719, -18.204209 48.978245, -18.228286 48.974766, -18.252363 48.971281, -18.276441 48.967790, -18.300519 48.964295, -18.324598 48.960793, -18.348678 48.957287, -18.372758 48.953775, -18.396839 48.950258, -18.420921 48.946736, -18.445003 48.943208, -18.469085 48.939675, -18.493168 48.936136, -18.517251 48.932592, -18.541335 48.929043, -18.565419 48.925489, -18.589503 48.921929, -18.613588 48.918365, -18.637673 48.914794, -18.661758 48.911219, -18.685843 48.907639, -18.709929 48.904053, -18.734015 48.900462, -18.758101 48.896866, -18.782187 48.893264, -18.806273 48.889658, -18.830359 48.886046, -18.854446 48.882429, -18.878532 48.878807, -18.902618 48.875180, -18.926704 48.871547, -18.950790 48.867910, -18.974876 48.864267, -18.998962 48.860620, -19.023048 48.856967, -19.047133 48.853309, -19.071219 48.849646, -19.095304 48.845978, -19.119389 48.842305, -19.143473 48.838627, -19.167557 48.834944, -19.191641 48.831256, -19.215725 48.827563, -19.239808 48.823864, -19.263890 48.820161, -19.287973 48.816453, -19.312054 48.812740, -19.336136 48.809022, -19.360216 48.805299, -19.384296 48.801571, -19.408376 48.797838, -19.432455 48.794101, -19.456533 48.790358, -19.480611 48.786610, -19.504688 48.782858, -19.528764 48.779101, -19.552839 48.775338, -19.576914 48.771571, -19.600988 48.767799, -19.625061 48.764023, -19.649133 48.760241, -19.673205 48.756455, -19.697275 48.752664, -19.721345 48.748868, -19.745413 48.745067, -19.769481 48.741261, -19.793548 48.737451, -19.817613 48.733636, -19.841678 48.729816, -19.865741 48.725992, -19.889804 48.722163, -19.913865 48.718329, -19.937925 48.714490, -19.961984 48.710647, -19.986041 48.706799, -20.010098 48.702946, -20.034153 48.699089, -20.058207 48.695227, -20.082259 48.691360, -20.106310 48.687489, -20.130360 48.683613, -20.154409 48.679733, -20.178456 48.675848, -20.202501 48.671959, -20.226546 48.668065, -20.250588 48.664166, -20.274629 48.660263, -20.298669 48.656355, -20.322707 48.652443, -20.346743 48.648526, -20.370778 48.644605, -20.394811 48.640679, -20.418843 48.636749, -20.442873 48.632814, -20.466901 48.628875, -20.490927 48.624931, -20.514952 48.620983, -20.538975 48.617031, -20.562996 48.613074, -20.587015 48.609113, -20.611032 48.605147, -20.635048 48.601177, -20.659061 48.597203, -20.683073 48.593224, -20.707083 48.589241, -20.731090 48.585254, -20.755096 48.581262, -20.779099 48.577266, -20.803101 48.573266, -20.827100 48.569261, -20.851098 48.565252, -20.875093 48.561239, -20.899086 48.557222, -20.923077 48.553200, -20.947066 48.549174, -20.971052 48.545144, -20.995036 48.541110, -21.019018 48.537071, -21.042998 48.533029, -21.066975 48.528982, -21.090950 48.524931, -21.114923 48.520876, -21.138893 48.516817, -21.162861 48.512753, -21.186826 48.508686, -21.210789 48.504614, -21.234750 48.500539, -21.258708 48.496459, -21.282663 48.492375, -21.306616 48.488287, -21.330566 48.484195, -21.354514 48.480099, -21.378459 48.476000, -21.402401 48.471896, -21.426341 48.467788, -21.450278 48.463676, -21.474212 48.459560, -21.498144 48.455440, -21.522072 48.451316, -21.545998 48.447189, -21.569921 48.443057, -21.593842 48.438921, -21.617759 48.434782, -21.641674 48.430639, -21.665586 48.426491, -21.689494 48.422340, -21.713400 48.418185, -21.737303 48.414027, -21.761203 48.409864, -21.785100 48.405698, -21.808993 48.401527, -21.832884 48.397353, -21.856772 48.393176, -21.880656 48.388994, -21.904538 48.384809, -21.928416 48.380620, -21.952291 48.376427, -21.976163 48.372231, -22.000032 48.368030, -22.023897 48.363827, -22.047759 48.359619, -22.071618 48.355408, -22.095474 48.351193, -22.119326 48.346974, -22.143175 48.342752, -22.167020 48.338527, -22.190862 48.334297, -22.214701 48.330064, -22.238536 48.325828, -22.262368 48.321588, -22.286197 48.317344, -22.310021 48.313097, -22.333843 48.308846, -22.357660 48.304592, -22.381475 48.300334, -22.405285 48.296073, -22.429092 48.291808, -22.452896 48.287540, -22.476695 48.283268, -22.500491 48.278993, -22.524284 48.274714, -22.548072 48.270432, -22.571857 48.266147, -22.595638 48.261858, -22.619416 48.257566, -22.643189 48.253270, -22.666959 48.248971, -22.690725 48.244669, -22.714487 48.240364, -22.738245 48.236055, -22.761999 48.231743, -22.785750 48.227427, -22.809496 48.223108, -22.833238 48.218786, -22.856977 48.214461, -22.880711 48.210133, -22.904441 48.205801, -22.928168 48.201466, -22.951890 48.197128, -22.975608 48.192786, -22.999322 48.188442, -23.023032 48.184094, -23.046738 48.179743, -23.070439 48.175389, -23.094137 48.171032, -23.117830 48.166672, -23.141519 48.162308, -23.165203 48.157942, -23.188884 48.153572, -23.212560 48.149200, -23.236232 48.144824, -23.259899 48.140445, -23.283562 48.136064, -23.307221 48.131679, -23.330875 48.127291, -23.354525 48.122900, -23.378171 48.118507, -23.401812 48.114110, -23.425448 48.109711, -23.449080 48.105308, -23.472708 48.100903, -23.496331 48.096494, -23.519950 48.092083, -23.543563 48.087669, -23.567173 48.083252, -23.590777 48.078832, -23.614378 48.074409, -23.637973 48.069984, -23.661564 48.065556, -23.685150 48.061124, -23.708731 48.056690, -23.732308 48.052254, -23.755880 48.047814, -23.779447 48.043372, -23.803009 48.038927, -23.826567 48.034479, -23.850120 48.030029, -23.873668 48.025576, -23.897211 48.021120, -23.920749 48.016662, -23.944282 48.012201, -23.967811 48.007737, -23.991334 48.003271, -24.014853 47.998802, -24.038366 47.994330, -24.061875 47.989856, -24.085378 47.985379, -24.108877 47.980900, -24.132370 47.976418, -24.155859 47.971933, -24.179342 47.967446, -24.202820 47.962957, -24.226293 47.958465, -24.249761 47.953971, -24.273224 47.949474, -24.296682 47.944974, -24.320135 47.940473, -24.343582 47.935968, -24.367024 47.931462, -24.390461 47.926953, -24.413892 47.922441, -24.437319 47.917927, -24.460740 47.913411, -24.484155 47.908893, -24.507566 47.904372, -24.530971 47.899849, -24.554370 47.895323, -24.577765 47.890795, -24.601154 47.886265, -24.624537 47.881733, -24.647915 47.877198, -24.671288 47.872661, -24.694655 47.868122, -24.718016 47.863581, -24.741373 47.859038, -24.764723 47.854492, -24.788068 47.849944, -24.811408 47.845394, -24.834742 47.840842, -24.858070 47.836288, -24.881393 47.831731, -24.904710 47.827173, -24.928021 47.822612, -24.951327 47.818050, -24.974627 47.813485, -24.997922 47.808918, -25.021211 47.804349, -25.044494 47.799778, -25.067771 47.795206, -25.091043 47.790631, -25.114308 47.786054, -25.137568 47.781475, -25.160823 47.776895, -25.184071 47.772312, -25.207314 47.767727, -25.230550 47.763141, -25.253781 47.758552, -25.277006 47.753962, -25.300225 47.749370, -25.323438 47.744776, -25.346645 47.740180, -25.369847 47.735582, -25.393042 47.730983, -25.416231 47.726382, -25.439414 47.721779, -25.462592 47.717174, -25.485763 47.712567, -25.508928 47.707959, -25.532087 47.703349, -25.555240 47.698737, -25.578387 47.694123, -25.601528 47.689508, -25.624663 47.684891, -25.647791 47.680273, -25.670914 47.675653, -25.694030 47.671031, -25.717140 47.666408, -25.740244 47.661783, -25.763342 47.657156, -25.786433 47.652528, -25.809518 47.647898, -25.832597 47.643267, -25.855670 47.638634, -25.878736 47.634000, -25.901796 47.629364, -25.924850 47.624726, -25.947897 47.620088, -25.970938 47.615447, -25.993973 47.610806, -26.017001 47.606163, -26.040023 47.601518, -26.063039 47.596872, -26.086048 47.592225, -26.109050 47.587576, -26.132046 47.582926, -26.155036 47.578274, -26.178019 47.573621, -26.200996 47.568967, -26.223966 47.564312, -26.246930 47.559655, -26.269887 47.554997, -26.292838 47.550338, -26.315782 47.545677, -26.338719 47.541016, -26.361650 47.536353, -26.384574 47.531688, -26.407492 47.527023, -26.430402 47.522357, -26.453307 47.517689, -26.476204 47.513020, -26.499095 47.508350, -26.521979 47.503679, -26.544857 47.499007, -26.567728 47.494333, -26.590592 47.489659, -26.613449 47.484983, -26.636300 47.480307, -26.659143 47.475629, -26.681980 47.470951, -26.704811 47.466271, -26.727634 47.461591, -26.750450 47.456909, -26.773260 47.452227, -26.796063 47.447543, -26.818859 47.442859, -26.841648 47.438173, -26.864430 47.433487, -26.887205 47.428800, -26.909974 47.424112, -26.932735 47.419423, -26.955489 47.414733, -26.978237 47.410043, -27.000977 47.405352, -27.023711 47.400659, -27.046437 47.395966, -27.069157 47.391273, -27.091869 47.386578, -27.114575 47.381883, -27.137273 47.377187, -27.159964 47.372490, -27.182648 47.367793, -27.205325 47.363095, -27.227995 47.358396, -27.250658 47.353697, -27.273314 47.348997, -27.295963 47.344296, -27.318604 47.339595, -27.341238 47.334893, -27.363865 47.330190, -27.386485 47.325487, -27.409098 47.320784, -27.431703 47.316079, -27.454302 47.311375, -27.476893 47.306669, -27.499476 47.301964, -27.522053 47.297258, -27.544622 47.292551, -27.567184 47.287844, -27.589739 47.283136, -27.612286 47.278428, -27.634826 47.273720, -27.657359 47.269011, -27.679884 47.264302, -27.702402 47.259592, -27.724912 47.254882, -27.747416 47.250172, -27.769911 47.245461, -27.792400 47.240751, -27.814881 47.236039, -27.837354 47.231328, -27.859820 47.226616, -27.882279 47.221904, -27.904730 47.217192, -27.927174 47.212479, -27.949610 47.207767, -27.972039 47.203054, -27.994460 47.198341, -28.016874 47.193628, -28.039280 47.188914, -28.061679 47.184201, -28.084070 47.179487, -28.106453 47.174774, -28.128829 47.170060, -28.151197 47.165346, -28.173558 47.160632, -28.195911 47.155918, -28.218257 47.151204, -28.240595 47.146490, -28.262925 47.141776, -28.285248 47.137062, -28.307563 47.132348, -28.329870 47.127634, -28.352170 47.122920, -28.374461 47.118207, -28.396746 47.113493, -28.419022 47.108779, -28.441291 47.104066, -28.463552 47.099353, -28.485805 47.094639, -28.508051 47.089926, -28.530289 47.085213, -28.552519 47.080501, -28.574741 47.075788, -28.596955 47.071076, -28.619162 47.066364, -28.641361 47.061652, -28.663552 47.056941, -28.685735 47.052229, -28.707910 47.047519, -28.730078 47.042808, -28.752237 47.038098, -28.774389 47.033388, -28.796533 47.028678, -28.818669 47.023969, -28.840797 47.019260, -28.862917 47.014551, -28.885029 47.009843, -28.907134 47.005136, -28.929230 47.000429, -28.951318 46.995722, -28.973399 46.991016, -28.995471 46.986310, -29.017536 46.981605, -29.039592 46.976900, -29.061641 46.972196, -29.083681 46.967492, -29.105714 46.962789, -29.127738 46.958087, -29.149755 46.953385, -29.171763 46.948683, -29.193763 46.943983, -29.215756 46.939283, -29.237740 46.934583, -29.259716 46.929884, -29.281684 46.925186, -29.303644 46.920489, -29.325596 46.915792, -29.347540 46.911096, -29.369475 46.906401, -29.391403 46.901707, -29.413322 46.897013, -29.435233 46.892320, -29.457136 46.887628, -29.479031 46.882937, -29.500918 46.878247, -29.522797 46.873557, -29.544667 46.868868, -29.566529 46.864181, -29.588383 46.859494, -29.610229 46.854808, -29.632066 46.850122, -29.653895 46.845438, -29.675717 46.840755, -29.697529 46.836073, -29.719334 46.831391, -29.741130 46.826711, -29.762918 46.822032, -29.784698 46.817354, -29.806469 46.812676, -29.828232 46.808000, -29.849987 46.803325, -29.871734 46.798651, -29.893472 46.793978, -29.915202 46.789307, -29.936923 46.784636, -29.958637 46.779966, -29.980342 46.775298, -30.002038 46.770631, -30.023726 46.765965, -30.045406 46.761300, -30.067077 46.756637, -30.088740 46.751974, -30.110395 46.747313, -30.132041 46.742653, -30.153679 46.737995, -30.175308 46.733338, -30.196929 46.728682, -30.218542 46.724027, -30.240146 46.719374, -30.261742 46.714722, -30.283329 46.710071, -30.304908 46.705422, -30.326478 46.700775, -30.348040 46.696128, -30.369593 46.691483, -30.391138 46.686840, -30.412674 46.682198, -30.434202 46.677557, -30.455721 46.672918, -30.477232 46.668281, -30.498734 46.663645, -30.520228 46.659010, -30.541714 46.654377, -30.563190 46.649746, -30.584658 46.645116, -30.606118 46.640488, -30.627569 46.635862, -30.649012 46.631237, -30.670445 46.626614, -30.691871 46.621992, -30.713287 46.617372, -30.734696 46.612754, -30.756095 46.608137, -30.777486 46.603522, -30.798868 46.598909, -30.820242 46.594298, -30.841607 46.589688, -30.862964 46.585080, -30.884312 46.580474, -30.905651 46.575870, -30.926981 46.571268, -30.948303 46.566667, -30.969616 46.562068, -30.990921 46.557472, -31.012217 46.552877, -31.033504 46.548284, -31.054783 46.543692, -31.076052 46.539103, -31.097314 46.534516, -31.118566 46.529931, -31.139810 46.525347, -31.161045 46.520766, -31.182271 46.516187, -31.203489 46.511609, -31.224698 46.507034, -31.245898 46.502461, -31.267089 46.497890, -31.288272 46.493320, -31.309446 46.488753, -31.330611 46.484189, -31.351767 46.479626, -31.372915 46.475065, -31.394054 46.470507, -31.415184 46.465950, -31.436305 46.461396, -31.457417 46.456844, -31.478521 46.452295, -31.499616 46.447747, -31.520702 46.443202, -31.541780 46.438659, -31.562848 46.434118, -31.583908 46.429580, -31.604959 46.425044, -31.626001 46.420510, -31.647034 46.415979, -31.668058 46.411449, -31.689074 46.406923, -31.710080 46.402398, -31.731078 46.397876, -31.752067 46.393357, -31.773047 46.388840, -31.794018 46.384325, -31.814981 46.379813, -31.835934 46.375303, -31.856879 46.370796, -31.877815 46.366291, -31.898742 46.361789, -31.919660 46.357289, -31.940569 46.352792, -31.961469 46.348298, -31.982360 46.343806, -32.003242 46.339316, -32.024116 46.334829, -32.044980 46.330345, -32.065836 46.325864, -32.086683 46.321385, -32.107520 46.316909, -32.128349 46.312435, -32.149169 46.307964, -32.169980 46.303496, -32.190782 46.299031, -32.211575 46.294568, -32.232359 46.290108, -32.253134 46.285651, -32.273901 46.281197, -32.294658 46.276745, -32.315406 46.272296, -32.336145 46.267851, -32.356876 46.263408, -32.377597 46.258967, -32.398309 46.254530, -32.419013 46.250096, -32.439707 46.245664, -32.460392 46.241236, -32.481069 46.236810, -32.501736 46.232388, -32.522394 46.227968, -32.543044 46.223551, -32.563684 46.219138, -32.584315 46.214727, -32.604938 46.210319, -32.625551 46.205915, -32.646155 46.201513, -32.666751 46.197115, -32.687337 46.192720, -32.707914 46.188327, -32.728482 46.183938, -32.749041 46.179552, -32.769591 46.175169, -32.790132 46.170790, -32.810664 46.166413, -32.831187 46.162040, -32.851701 46.157670, -32.872206 46.153303, -32.892701 46.148940, -32.913188 46.144579, -32.933666 46.140222, -32.954134 46.135868, -32.974594 46.131518, -32.995044 46.127171, -33.015485 46.122827, -33.035918 46.118487, -33.056341 46.114150, -33.076755 46.109816, -33.097160 46.105486, -33.117556 46.101159, -33.137942 46.096835, -33.158320 46.092515, -33.178689 46.088199, -33.199048 46.083886, -33.219399 46.079576, -33.239740 46.075270, -33.260072 46.070967, -33.280395 46.066668, -33.300709 46.062373, -33.321014 46.058081, -33.341310 46.053792, -33.361596 46.049508, -33.381874 46.045226, -33.402142 46.040949, -33.422401 46.036675, -33.442651 46.032405, -33.462892 46.028138, -33.483124 46.023875, -33.503347 46.019616, -33.523560 46.015360, -33.543765 46.011109, -33.563960 46.006861, -33.584146 46.002616, -33.604323 45.998376, -33.624491 45.994139, -33.644650 45.989906, -33.664799 45.985677, -33.684940 45.981452, -33.705071 45.977230, -33.725193 45.973013, -33.745306 45.968799, -33.765410 45.964589, -33.785505 45.960384, -33.805590 45.956182, -33.825666 45.951984, -33.845734 45.947790, -33.865791 45.943600, -33.885840 45.939414, -33.905880 45.935231, -33.925910 45.931053, -33.945932 45.926879, -33.965944 45.922709, -33.985947 45.918543, -34.005941 45.914382, -34.025925 45.910224, -34.045901 45.906070, -34.065867 45.901921, -34.085824 45.897775, -34.105772 45.893634, -34.125711 45.889497, -34.145640 45.885364, -34.165561 45.881235, -34.185472 45.877111, -34.205374 45.872991, -34.225267 45.868875, -34.245150 45.864763, -34.265025 45.860655, -34.284890 45.856552, -34.304746 45.852453, -34.324593 45.848359, -34.344431 45.844269, -34.364259 45.840183, -34.384078 45.836101, -34.403889 45.832024, -34.423689 45.827951, -34.443481 45.823883, -34.463264 45.819819, -34.483037 45.815760, -34.502801 45.811705, -34.522556 45.807654, -34.542302 45.803608, -34.562038 45.799566, -34.581766 45.795529, -34.601484 45.791497, -34.621193 45.787469, -34.640892 45.783445, -34.660583 45.779427, -34.680264 45.775412, -34.699936 45.771403, -34.719599 45.767398, -34.739253 45.763397, -34.758898 45.759401, -34.778533 45.755410, -34.798159 45.751424, -34.817776 45.747442, -34.837384 45.743465, -34.856982 45.739493, -34.876572 45.735525, -34.896152 45.731563, -34.915723 45.727605, -34.935284 45.723652, -34.954837 45.719703, -34.974380 45.715760, -34.993914 45.711821, -35.013439 45.707887, -35.032955 45.703958, -35.052461 45.700034, -35.071959 45.696114, -35.091447 45.692200, -35.110926 45.688291, -35.130395 45.684386, -35.149856 45.680486, -35.169307 45.676592, -35.188749 45.672702, -35.208182 45.668818, -35.227606 45.664938, -35.247020 45.661063, -35.266426 45.657194, -35.285822 45.653329, -35.305209 45.649470, -35.324586 45.645616, -35.343955 45.641767, -35.363314 45.637922, -35.382664 45.634084, -35.402005 45.630250, -35.421337 45.626421, -35.440660 45.622598, -35.459973 45.618779, -35.479277 45.614966, -35.498572 45.611158, -35.517858 45.607356, -35.537134 45.603559, -35.556402 45.599766, -35.575660 45.595980, -35.594909 45.592198, -35.614149 45.588422, -35.633380 45.584651, -35.652601 45.580886, -35.671813 45.577126, -35.691016 45.573371, -35.710210 45.569621, -35.729395 45.565877, -35.748571 45.562139, -35.767737 45.558406, -35.786894 45.554678, -35.806042 45.550956, -35.825181 45.547239, -35.844311 45.543528, -35.863431 45.539822, -35.882543 45.536122, -35.901645 45.532428, -35.920738 45.528738, -35.939822 45.525055, -35.958896 45.521377, -35.977962 45.517705, -35.997018 45.514038, -36.016065 45.510377, -36.035104 45.506722, -36.054132 45.503072, -36.073152 45.499428, -36.092163 45.495789, -36.111164 45.492157, -36.130156 45.488530, -36.149139 45.484908, -36.168113 45.481293, -36.187078 45.477683, -36.206034 45.474079, -36.224980 45.470481, -36.243918 45.466889, -36.262846 45.463302, -36.281765 45.459722, -36.300675 45.456147, -36.319576 45.452578, -36.338467 45.449015, -36.357350 45.445458, -36.376223 45.441907, -36.395088 45.438362, -36.413943 45.434822, -36.432789 45.431289, -36.451626 45.427761, -36.470454 45.424240, -36.489272 45.420725, -36.508082 45.417215, -36.526882 45.413712, -36.545674 45.410215, -36.564456 45.406724, -36.583229 45.403239, -36.601993 45.399760, -36.620748 45.396287, -36.639493 45.392820, -36.658230 45.389359, -36.676958 45.385905, -36.695676 45.382457, -36.714386 45.379014, -36.733086 45.375579, -36.751777 45.372149, -36.770459 45.368726, -36.789132 45.365308, -36.807796 45.361897, -36.826451 45.358493, -36.845097 45.355094, -36.863734 45.351702, -36.882361 45.348317, -36.900980 45.344937, -36.919589 45.341564, -36.938190 45.338198, -36.956781 45.334838, -36.975364 45.331484, -36.993937 45.328136, -37.012501 45.324795, -37.031056 45.321461, -37.049602 45.318133, -37.068139 45.314811, -37.086668 45.311496, -37.105186 45.308187, -37.123696 45.304885, -37.142197 45.301590, -37.160689 45.298301, -37.179172 45.295018, -37.197646 45.291742, -37.216111 45.288473, -37.234566 45.285211, -37.253013 45.281955, -37.271451 45.278705, -37.289880 45.275463, -37.308299 45.272226, -37.326710 45.268997, -37.345112 45.265775, -37.363504 45.262559, -37.381888 45.259349, -37.400263 45.256147, -37.418628 45.252951, -37.436985 45.249762, -37.455333 45.246580, -37.473672 45.243405, -37.492001 45.240237, -37.510322 45.237075, -37.528634 45.233920, -37.546937 45.230772, -37.565231 45.227631, -37.583515 45.224497, -37.601791 45.221370, -37.620058 45.218250, -37.638316 45.215136, -37.656565 45.212030, -37.674806 45.208931, -37.693037 45.205838, -37.711259 45.202753, -37.729472 45.199674, -37.747677 45.196603, -37.765872 45.193539, -37.784058 45.190482, -37.802236 45.187432, -37.820405 45.184388, -37.838564 45.181353, -37.856715 45.178324, -37.874857 45.175302, -37.892990 45.172288, -37.911114 45.169280, -37.929229 45.166280, -37.947336 45.163287, -37.965433 45.160302, -37.983522 45.157323, -38.001601 45.154352, -38.019672 45.151388, -38.037734 45.148431, -38.055787 45.145482, -38.073831 45.142540, -38.091866 45.139605, -38.109893 45.136677, -38.127910 45.133757, -38.145919 45.130845, -38.163919 45.127939, -38.181910 45.125041, -38.199892 45.122151, -38.217865 45.119268, -38.235829 45.116392, -38.253785 45.113524, -38.271732 45.110663, -38.289670 45.107810, -38.307599 45.104965, -38.325519 45.102126, -38.343431 45.099296, -38.361334 45.096473, -38.379227 45.093657, -38.397113 45.090849, -38.414989 45.088049, -38.432856 45.085256, -38.450715 45.082471, -38.468565 45.079694, -38.486406 45.076924, -38.504239 45.074162, -38.522062 45.071407, -38.539877 45.068661, -38.557683 45.065922, -38.575480 45.063190, -38.593269 45.060467, -38.611049 45.057751, -38.628820 45.055043, -38.646582 45.052343, -38.664336 45.049651, -38.682081 45.046966, -38.699817 45.044289, -38.717544 45.041621, -38.735263 45.038960, -38.752973 45.036306, -38.770674 45.033661, -38.788367 45.031024, -38.806051 45.028395, -38.823726 45.025773, -38.841392 45.023160, -38.859050 45.020554, -38.876699 45.017957, -38.894340 45.015368, -38.911971 45.012786, -38.929594 45.010213, -38.947209 45.007647, -38.964814 45.005090, -38.982412 45.002541, -39.000000 45.000000, -39.017569 44.997468, -39.035148 44.994938, -39.052738 44.992413, -39.070337 44.989890, -39.087946 44.987371, -39.105566 44.984855, -39.123195 44.982342, -39.140835 44.979832, -39.158485 44.977326, -39.176144 44.974823, -39.193814 44.972323, -39.211494 44.969826, -39.229184 44.967332, -39.246884 44.964842, -39.264594 44.962355, -39.282313 44.959871, -39.300043 44.957390, -39.317783 44.954912, -39.335533 44.952437, -39.353293 44.949966, -39.371063 44.947497, -39.388842 44.945032, -39.406632 44.942569, -39.424432 44.940110, -39.442241 44.937654, -39.460061 44.935201, -39.477890 44.932751, -39.495730 44.930304, -39.513579 44.927860, -39.531438 44.925419, -39.549308 44.922980, -39.567187 44.920545, -39.585076 44.918113, -39.602974 44.915684, -39.620883 44.913258, -39.638802 44.910835, -39.656730 44.908414, -39.674668 44.905997, -39.692617 44.903582, -39.710575 44.901171, -39.728542 44.898762, -39.746520 44.896356, -39.764508 44.893953, -39.782505 44.891553, -39.800512 44.889156, -39.818529 44.886761, -39.836556 44.884369, -39.854592 44.881981, -39.872638 44.879595, -39.890695 44.877211, -39.908760 44.874831, -39.926836 44.872453, -39.944921 44.870078, -39.963016 44.867706, -39.981121 44.865337, -39.999236 44.862970, -40.017360 44.860606, -40.035494 44.858245, -40.053638 44.855886, -40.071791 44.853531, -40.089954 44.851177, -40.108127 44.848827, -40.126310 44.846479, -40.144502 44.844134, -40.162704 44.841791, -40.180915 44.839451, -40.199136 44.837114, -40.217367 44.834779, -40.235608 44.832447, -40.253858 44.830118, -40.272117 44.827791, -40.290387 44.825466, -40.308666 44.823144, -40.326954 44.820825, -40.345252 44.818508, -40.363560 44.816194, -40.381877 44.813882, -40.400204 44.811573, -40.418541 44.809267, -40.436887 44.806962, -40.455242 44.804661, -40.473607 44.802361, -40.491982 44.800064, -40.510366 44.797770, -40.528760 44.795478, -40.547163 44.793189, -40.565576 44.790901, -40.583998 44.788617, -40.602429 44.786334, -40.620871 44.784054, -40.639321 44.781777, -40.657781 44.779502, -40.676251 44.777229, -40.694730 44.774958, -40.713218 44.772690, -40.731716 44.770424, -40.750224 44.768161, -40.768740 44.765899, -40.787267 44.763641, -40.805802 44.761384, -40.824347 44.759129, -40.842901 44.756877, -40.861465 44.754627, -40.880038 44.752380, -40.898621 44.750134, -40.917213 44.747891, -40.935814 44.745650, -40.954424 44.743411, -40.973044 44.741175, -40.991673 44.738940, -41.010312 44.736708, -41.028960 44.734478, -41.047617 44.732250, -41.066283 44.730024, -41.084959 44.727801, -41.103644 44.725579, -41.122338 44.723360, -41.141042 44.721143, -41.159755 44.718927, -41.178477 44.716714, -41.197208 44.714503, -41.215949 44.712294, -41.234699 44.710087, -41.253457 44.707882, -41.272226 44.705679, -41.291003 44.703479, -41.309790 44.701280, -41.328585 44.699083, -41.347390 44.696888, -41.366204 44.694695, -41.385028 44.692504, -41.403860 44.690315, -41.422702 44.688128, -41.441552 44.685943, -41.460412 44.683760, -41.479281 44.681579, -41.498159 44.679400, -41.517046 44.677222, -41.535942 44.675047, -41.554848 44.672873, -41.573762 44.670702, -41.592686 44.668532, -41.611618 44.666364, -41.630560 44.664198, -41.649510 44.662033, -41.668470 44.659871, -41.687439 44.657710, -41.706416 44.655551, -41.725403 44.653394, -41.744399 44.651239, -41.763404 44.649085, -41.782417 44.646934, -41.801440 44.644784, -41.820471 44.642636, -41.839512 44.640489, -41.858562 44.638344, -41.877620 44.636201, -41.896687 44.634060, -41.915764 44.631920, -41.934849 44.629782, -41.953943 44.627646, -41.973046 44.625512, -41.992158 44.623379, -42.011279 44.621247, -42.030409 44.619118, -42.049547 44.616990, -42.068695 44.614863, -42.087851 44.612739, -42.107016 44.610615, -42.126190 44.608494, -42.145372 44.606374, -42.164564 44.604255, -42.183764 44.602139, -42.202973 44.600023, -42.222191 44.597910, -42.241418 44.595797, -42.260653 44.593687, -42.279898 44.591577, -42.299150 44.589470, -42.318412 44.587364, -42.337683 44.585259, -42.356962 44.583156, -42.376249 44.581054, -42.395546 44.578954, -42.414851 44.576855, -42.434165 44.574758, -42.453488 44.572662, -42.472819 44.570567, -42.492159 44.568474, -42.511507 44.566382, -42.530864 44.564292, -42.550230 44.562203, -42.569605 44.560116, -42.588988 44.558029, -42.608379 44.555945, -42.627780 44.553861, -42.647188 44.551779, -42.666606 44.549698, -42.686032 44.547619, -42.705466 44.545540, -42.724909 44.543464, -42.744361 44.541388, -42.763821 44.539314, -42.783289 44.537241, -42.802766 44.535169, -42.822252 44.533098, -42.841746 44.531029, -42.861249 44.528961, -42.880760 44.526894, -42.900279 44.524828, -42.919807 44.522764, -42.939343 44.520701, -42.958888 44.518639, -42.978441 44.516578, -42.998003 44.514518, -43.017573 44.512460, -43.037152 44.510402, -43.056738 44.508346, -43.076334 44.506291, -43.095937 44.504237, -43.115549 44.502184, -43.135169 44.500133, -43.154798 44.498082, -43.174435 44.496032, -43.194080 44.493984, -43.213733 44.491936, -43.233395 44.489890, -43.253065 44.487845, -43.272743 44.485801, -43.292430 44.483757, -43.312125 44.481715, -43.331828 44.479674, -43.351539 44.477634, -43.371259 44.475594, -43.390987 44.473556, -43.410723 44.471519, -43.430467 44.469483, -43.450219 44.467447, -43.469980 44.465413, -43.489748 44.463380, -43.509525 44.461347, -43.529310 44.459316, -43.549103 44.457285, -43.568905 44.455255, -43.588714 44.453226, -43.608531 44.451198, -43.628357 44.449171, -43.648190 44.447145, -43.668032 44.445120, -43.687882 44.443095, -43.707740 44.441071, -43.727606 44.439049, -43.747479 44.437026, -43.767361 44.435005, -43.787251 44.432985, -43.807149 44.430965, -43.827055 44.428946, -43.846969 44.426928, -43.866891 44.424911, -43.886820 44.422895, -43.906758 44.420879, -43.926704 44.418864, -43.946657 44.416849, -43.966619 44.414836, -43.986588 44.412823, -44.006566 44.410811, -44.026551 44.408799, -44.046544 44.406789, -44.066545 44.404779, -44.086554 44.402769, -44.106570 44.400760, -44.126595 44.398752, -44.146627 44.396745, -44.166667 44.394738, -44.186715 44.392732, -44.206770 44.390726, -44.226834 44.388721, -44.246905 44.386717, -44.266984 44.384713, -44.287071 44.382710, -44.307165 44.380707, -44.327267 44.378705, -44.347377 44.376704, -44.367495 44.374703, -44.387620 44.372702, -44.407753 44.370703, -44.427893 44.368703, -44.448042 44.366704, -44.468198 44.364706, -44.488361 44.362708, -44.508532 44.360711, -44.528711 44.358714, -44.548897 44.356718, -44.569091 44.354722, -44.589293 44.352726, -44.609502 44.350731, -44.629718 44.348737, -44.649943 44.346742, -44.670174 44.344749, -44.690414 44.342755, -44.710660 44.340762, -44.730915 44.338770, -44.751176 44.336778, -44.771446 44.334786, -44.791722 44.332794, -44.812006 44.330803, -44.832298 44.328812, -44.852597 44.326822, -44.872903 44.324832, -44.893217 44.322842, -44.913538 44.320853, -44.933867 44.318864, -44.954203 44.316875, -44.974546 44.314886, -44.994897 44.312898, -45.015255 44.310910, -45.035621 44.308923, -45.055993 44.306935, -45.076373 44.304948, -45.096761 44.302961, -45.117155 44.300974, -45.137557 44.298988, -45.157966 44.297001, -45.178382 44.295015, -45.198806 44.293029, -45.219237 44.291044, -45.239675 44.289058, -45.260120 44.287073, -45.280572 44.285088, -45.301032 44.283103, -45.321499 44.281118, -45.341973 44.279133, -45.362454 44.277148, -45.382942 44.275164, -45.403437 44.273179, -45.423940 44.271195, -45.444449 44.269211, -45.464966 44.267227, -45.485489 44.265243, -45.506020 44.263259, -45.526558 44.261275, -45.547102 44.259291, -45.567654 44.257307, -45.588213 44.255324, -45.608779 44.253340, -45.629352 44.251356, -45.649931 44.249373, -45.670518 44.247389, -45.691112 44.245405, -45.711712 44.243422, -45.732320 44.241438, -45.752934 44.239454, -45.773555 44.237470, -45.794184 44.235487, -45.814819 44.233503, -45.835461 44.231519, -45.856109 44.229535, -45.876765 44.227551, -45.897428 44.225567, -45.918097 44.223583, -45.938773 44.221598, -45.959456 44.219614, -45.980145 44.217629, -46.000842 44.215645, -46.021545 44.213660, -46.042255 44.211675, -46.062971 44.209690, -46.083695 44.207705, -46.104425 44.205719, -46.125161 44.203734, -46.145905 44.201748, -46.166655 44.199762, -46.187411 44.197776, -46.208175 44.195789, -46.228945 44.193803, -46.249721 44.191816, -46.270504 44.189829, -46.291294 44.187842, -46.312090 44.185854, -46.332893 44.183867, -46.353703 44.181879, -46.374519 44.179890, -46.395341 44.177902, -46.416170 44.175913, -46.437005 44.173924, -46.457847 44.171934, -46.478696 44.169945, -46.499551 44.167955, -46.520412 44.165964, -46.541280 44.163974, -46.562154 44.161983, -46.583035 44.159991, -46.603921 44.158000, -46.624815 44.156008, -46.645715 44.154015, -46.666621 44.152022, -46.687533 44.150029, -46.708452 44.148035, -46.729377 44.146041, -46.750308 44.144047, -46.771246 44.142052, -46.792190 44.140057, -46.813140 44.138061, -46.834096 44.136065, -46.855059 44.134069, -46.876028 44.132072, -46.897003 44.130074, -46.917984 44.128076, -46.938971 44.126078, -46.959965 44.124079, -46.980965 44.122080, -47.001971 44.120080, -47.022983 44.118079, -47.044001 44.116078, -47.065025 44.114077, -47.086055 44.112075, -47.107092 44.110073, -47.128134 44.108070, -47.149182 44.106066, -47.170237 44.104062, -47.191297 44.102057, -47.212364 44.100052, -47.233437 44.098046, -47.254515 44.096040, -47.275599 44.094032, -47.296690 44.092025, -47.317786 44.090017, -47.338888 44.088008, -47.359997 44.085998, -47.381111 44.083988, -47.402231 44.081977, -47.423356 44.079966, -47.444488 44.077954, -47.465626 44.075941, -47.486769 44.073927, -47.507918 44.071913, -47.529073 44.069899, -47.550234 44.067883, -47.571400 44.065867, -47.592572 44.063850, -47.613750 44.061832, -47.634934 44.059814, -47.656124 44.057795, -47.677319 44.055775, -47.698519 44.053755, -47.719726 44.051733, -47.740938 44.049711, -47.762156 44.047689, -47.783379 44.045665, -47.804608 44.043641, -47.825843 44.041615, -47.847083 44.039590, -47.868329 44.037563, -47.889580 44.035535, -47.910837 44.033507, -47.932099 44.031478, -47.953367 44.029448, -47.974641 44.027417, -47.995919 44.025385, -48.017204 44.023353, -48.038494 44.021319, -48.059789 44.019285, -48.081090 44.017250, -48.102396 44.015214, -48.123707 44.013177, -48.145024 44.011139, -48.166346 44.009100, -48.187674 44.007061, -48.209007 44.005020, -48.230345 44.002979, -48.251689 44.000936, -48.273037 43.998893, -48.294392 43.996849, -48.315751 43.994803, -48.337116 43.992757, -48.358486 43.990710, -48.379861 43.988662, -48.401241 43.986613, -48.422626 43.984563, -48.444017 43.982512, -48.465413 43.980460, -48.486814 43.978407, -48.508220 43.976353, -48.529631 43.974298, -48.551048 43.972241, -48.572469 43.970184, -48.593896 43.968126, -48.615327 43.966067, -48.636764 43.964007, -48.658206 43.961945, -48.679652 43.959883, -48.701104 43.957819, -48.722561 43.955755, -48.744022 43.953689, -48.765489 43.951622, -48.786960 43.949555, -48.808437 43.947486, -48.829918 43.945416, -48.851405 43.943344, -48.872896 43.941272, -48.894392 43.939199, -48.915893 43.937124, -48.937398 43.935048, -48.958909 43.932972, -48.980424 43.930894, -49.001944 43.928814, -49.023469 43.926734, -49.044998 43.924652, -49.066533 43.922570, -49.088072 43.920486, -49.109616 43.918401, -49.131164 43.916314, -49.152717 43.914227, -49.174275 43.912138, -49.195838 43.910048, -49.217405 43.907957, -49.238976 43.905864, -49.260553 43.903771, -49.282134 43.901676, -49.303719 43.899580, -49.325309 43.897482, -49.346904 43.895383, -49.368503 43.893283, -49.390106 43.891182, -49.411715 43.889079, -49.433327 43.886976, -49.454944 43.884870, -49.476566 43.882764, -49.498192 43.880656, -49.519822 43.878547, -49.541457 43.876437, -49.563096 43.874325, -49.584739 43.872212, -49.606387 43.870097, -49.628039 43.867981, -49.649696 43.865864, -49.671356 43.863746, -49.693022 43.861626, -49.714691 43.859504, -49.736365 43.857382, -49.758042 43.855258, -49.779724 43.853132, -49.801411 43.851005, -49.823101 43.848877, -49.844796 43.846747, -49.866495 43.844616, -49.888198 43.842484, -49.909905 43.840350, -49.931616 43.838214, -49.953331 43.836078, -49.975050 43.833939, -49.996774 43.831800, -50.018501 43.829658, -50.040233 43.827516, -50.061968 43.825372, -50.083708 43.823226, -50.105451 43.821079, -50.127199 43.818930, -50.148950 43.816780, -50.170706 43.814629, -50.192465 43.812475, -50.214228 43.810321, -50.235995 43.808165, -50.257766 43.806007, -50.279541 43.803848, -50.301319 43.801687, -50.323102 43.799525, -50.344888 43.797361, -50.366678 43.795195, -50.388472 43.793028, -50.410269 43.790860, -50.432070 43.788690, -50.453875 43.786518, -50.475684 43.784345, -50.497497 43.782170, -50.519313 43.779993, -50.541132 43.777815, -50.562956 43.775636, -50.584783 43.773454, -50.606613 43.771271, -50.628447 43.769087, -50.650285 43.766901, -50.672126 43.764713, -50.693971 43.762524, -50.715819 43.760332, -50.737671 43.758140, -50.759527 43.755945, -50.781385 43.753749, -50.803248 43.751551, -50.825113 43.749352, -50.846982 43.747151, -50.868855 43.744948, -50.890731 43.742744, -50.912610 43.740537, -50.934493 43.738329, -50.956379 43.736120, -50.978268 43.733909, -51.000160 43.731695, -51.022056 43.729481, -51.043955 43.727264, -51.065858 43.725046, -51.087763 43.722826, -51.109672 43.720604, -51.131584 43.718381, -51.153499 43.716156, -51.175418 43.713929, -51.197339 43.711700, -51.219264 43.709469, -51.241191 43.707237, -51.263122 43.705003, -51.285056 43.702767, -51.306993 43.700529, -51.328933 43.698290, -51.350876 43.696048, -51.372822 43.693805, -51.394771 43.691560, -51.416723 43.689314, -51.438678 43.687065, -51.460636 43.684815, -51.482597 43.682562, -51.504561 43.680308, -51.526527 43.678052, -51.548497 43.675794, -51.570469 43.673535, -51.592445 43.671273, -51.614423 43.669010, -51.636403 43.666745, -51.658387 43.664477, -51.680373 43.662208, -51.702362 43.659938, -51.724354 43.657665, -51.746349 43.655390, -51.768346 43.653113, -51.790346 43.650835, -51.812349 43.648555, -51.834354 43.646272, -51.856362 43.643988, -51.878372 43.641702, -51.900385 43.639414, -51.922401 43.637123, -51.944419 43.634831, -51.966440 43.632538, -51.988463 43.630242, -52.010489 43.627944, -52.032517 43.625644, -52.054548 43.623342, -52.076581 43.621038, -52.098617 43.618733, -52.120655 43.616425, -52.142695 43.614115, -52.164738 43.611803, -52.186783 43.609490, -52.208830 43.607174, -52.230880 43.604856, -52.252932 43.602537, -52.274987 43.600215, -52.297043 43.597891, -52.319102 43.595565, -52.341163 43.593237, -52.363227 43.590908, -52.385292 43.588576, -52.407360 43.586242, -52.429430 43.583906, -52.451502 43.581568, -52.473576 43.579228, -52.495652 43.576886, -52.517731 43.574541, -52.539811 43.572195, -52.561894 43.569847, -52.583978 43.567496, -52.606065 43.565144, -52.628153 43.562789, -52.650244 43.560432, -52.672336 43.558074, -52.694431 43.555713, -52.716527 43.553350, -52.738625 43.550985, -52.760726 43.548617, -52.782828 43.546248, -52.804931 43.543877, -52.827037 43.541503, -52.849145 43.539127, -52.871254 43.536749, -52.893365 43.534369, -52.915478 43.531987, -52.937593 43.529603, -52.959709 43.527217, -52.981827 43.524828, -53.003947 43.522437, -53.026068 43.520044, -53.048191 43.517649, -53.070316 43.515252, -53.092442 43.512852, -53.114570 43.510451, -53.136700 43.508047, -53.158831 43.505641, -53.180963 43.503233, -53.203097 43.500822, -53.225233 43.498410, -53.247370 43.495995, -53.269508 43.493578, -53.291648 43.491159, -53.313790 43.488737, -53.335933 43.486313, -53.358077 43.483888, -53.380222 43.481459, -53.402369 43.479029, -53.424518 43.476596, -53.446667 43.474162, -53.468818 43.471724, -53.490970 43.469285, -53.513124 43.466843, -53.535278 43.464400, -53.557434 43.461953, -53.579591 43.459505, -53.601750 43.457054, -53.623909 43.454601, -53.646070 43.452146, -53.668232 43.449689, -53.690394 43.447229, -53.712558 43.444767, -53.734723 43.442302, -53.756889 43.439836, -53.779056 43.437367, -53.801225 43.434895, -53.823394 43.432422, -53.845564 43.429946, -53.867735 43.427468, -53.889907 43.424987, -53.912080 43.422504, -53.934253 43.420019, -53.956428 43.417532, -53.978604 43.415042, -54.000780 43.412550, -54.022957 43.410055, -54.045135 43.407558, -54.067314 43.405059, -54.089494 43.402557, -54.111674 43.400054, -54.133855 43.397547, -54.156037 43.395039, -54.178219 43.392528, -54.200402 43.390014, -54.222586 43.387499, -54.244771 43.384980, -54.266956 43.382460, -54.289141 43.379937, -54.311328 43.377412, -54.333514 43.374884, -54.355702 43.372354, -54.377889 43.369822, -54.400078 43.367287, -54.422267 43.364750, -54.444456 43.362210, -54.466646 43.359668, -54.488836 43.357123, -54.511026 43.354577, -54.533217 43.352027, -54.555408 43.349475, -54.577600 43.346921, -54.599792 43.344365, -54.621984 43.341806, -54.644177 43.339244, -54.666370 43.336680, -54.688563 43.334114, -54.710756 43.331545, -54.732949 43.328974, -54.755143 43.326401, -54.777337 43.323824, -54.799531 43.321246, -54.821725 43.318665, -54.843919 43.316081, -54.866114 43.313495, -54.888308 43.310907, -54.910503 43.308316, -54.932697 43.305723, -54.954892 43.303127, -54.977086 43.300529, -54.999281 43.297928, -55.021475 43.295325, -55.043670 43.292719, -55.065864 43.290111, -55.088058 43.287500, -55.110252 43.284887, -55.132446 43.282271, -55.154640 43.279653, -55.176833 43.277032, -55.199027 43.274409, -55.221220 43.271783, -55.243413 43.269154, -55.265606 43.266524, -55.287798 43.263890, -55.309990 43.261255, -55.332182 43.258616, -55.354373 43.255975, -55.376564 43.253332, -55.398755 43.250686, -55.420945 43.248037, -55.443135 43.245386, -55.465325 43.242733, -55.487514 43.240077, -55.509702 43.237418, -55.531890 43.234757, -55.554078 43.232093, -55.576265 43.229427, -55.598451 43.226758, -55.620637 43.224087, -55.642822 43.221413, -55.665007 43.218736, -55.687191 43.216057, -55.709374 43.213375, -55.731557 43.210691, -55.753739 43.208004, -55.775920 43.205315, -55.798100 43.202623, -55.820280 43.199929, -55.842459 43.197231, -55.864637 43.194532, -55.886815 43.191830, -55.908991 43.189125, -55.931167 43.186417, -55.953342 43.183707, -55.975516 43.180995, -55.997689 43.178279, -56.019861 43.175561, -56.042032 43.172841, -56.064202 43.170118, -56.086371 43.167392, -56.108539 43.164664, -56.130706 43.161933, -56.152872 43.159200, -56.175037 43.156464, -56.197201 43.153725, -56.219364 43.150984, -56.241525 43.148240, -56.263686 43.145493, -56.285845 43.142744, -56.308003 43.139992, -56.330160 43.137238, -56.352315 43.134481, -56.374470 43.131721, -56.396623 43.128959, -56.418775 43.126194, -56.440925 43.123426, -56.463074 43.120656, -56.485222 43.117883, -56.507368 43.115107, -56.529513 43.112329, -56.551657 43.109548, -56.573799 43.106765, -56.595940 43.103979, -56.618079 43.101190, -56.640217 43.098399, -56.662353 43.095605, -56.684488 43.092808, -56.706621 43.090008, -56.728752 43.087206, -56.750882 43.084402, -56.773010 43.081594, -56.795137 43.078784, -56.817262 43.075972, -56.839385 43.073156, -56.861507 43.070338, -56.883627 43.067517, -56.905745 43.064694, -56.927861 43.061868, -56.949976 43.059039, -56.972089 43.056208, -56.994200 43.053374, -57.016309 43.050537, -57.038416 43.047697, -57.060521 43.044855, -57.082625 43.042010, -57.104726 43.039163, -57.126826 43.036313, -57.148924 43.033460, -57.171019 43.030604, -57.193113 43.027746, -57.215204 43.024885, -57.237294 43.022021, -57.259382 43.019155, -57.281467 43.016286, -57.303550 43.013414, -57.325631 43.010540, -57.347710 43.007662, -57.369787 43.004783, -57.391862 43.001900, -57.413934 42.999015, -57.436005 42.996127, -57.458073 42.993236, -57.480138 42.990343, -57.502202 42.987447, -57.524263 42.984548, -57.546321 42.981646, -57.568378 42.978742, -57.590432 42.975835, -57.612483 42.972925, -57.634533 42.970013, -57.656579 42.967098, -57.678624 42.964180, -57.700666 42.961259, -57.722705 42.958336, -57.744742 42.955410, -57.766776 42.952481, -57.788808 42.949550, -57.810837 42.946616, -57.832863 42.943679, -57.854887 42.940739, -57.876909 42.937797, -57.898927 42.934852, -57.920943 42.931904, -57.942956 42.928954, -57.964967 42.926000, -57.986975 42.923044, -58.008980 42.920086, -58.030982 42.917124, -58.052981 42.914160, -58.074978 42.911193, -58.096971 42.908223, -58.118962 42.905251, -58.140950 42.902276, -58.162935 42.899298, -58.184917 42.896317, -58.206897 42.893334, -58.228873 42.890348, -58.250846 42.887359, -58.272816 42.884368, -58.294783 42.881373, -58.316748 42.878376, -58.338709 42.875377, -58.360666 42.872374, -58.382621 42.869369, -58.404573 42.866361, -58.426521 42.863350, -58.448467 42.860337, -58.470409 42.857320, -58.492348 42.854301, -58.514284 42.851280, -58.536216 42.848255, -58.558145 42.845228, -58.580071 42.842198, -58.601994 42.839165, -58.623913 42.836130, -58.645829 42.833092, -58.667741 42.830051, -58.689650 42.827007, -58.711556 42.823960, -58.733458 42.820911, -58.755356 42.817859, -58.777252 42.814805, -58.799143 42.811747, -58.821031 42.808687, -58.842916 42.805624, -58.864797 42.802558, -58.886674 42.799490, -58.908548 42.796419, -58.930418 42.793345, -58.952285 42.790268, -58.974148 42.787189, -58.996007 42.784106, -59.017862 42.781021, -59.039714 42.777934, -59.061562 42.774843, -59.083406 42.771750, -59.105247 42.768654, -59.127083 42.765555, -59.148916 42.762454, -59.170745 42.759350, -59.192570 42.756243, -59.214391 42.753133, -59.236208 42.750021, -59.258021 42.746905, -59.279830 42.743788, -59.301636 42.740667, -59.323437 42.737543, -59.345234 42.734417, -59.367027 42.731288, -59.388816 42.728156, -59.410601 42.725022, -59.432382 42.721885, -59.454159 42.718745, -59.475932 42.715602, -59.497700 42.712457, -59.519464 42.709309, -59.541224 42.706158, -59.562980 42.703004, -59.584732 42.699847, -59.606479 42.696688, -59.628222 42.693526, -59.649960 42.690362, -59.671695 42.687194, -59.693425 42.684024, -59.715150 42.680851, -59.736871 42.677675, -59.758588 42.674497, -59.780300 42.671316, -59.802008 42.668132, -59.823712 42.664945, -59.845410 42.661756, -59.867105 42.658564, -59.888794 42.655369, -59.910480 42.652172, -59.932160 42.648971, -59.953836 42.645768, -59.975508 42.642562, -59.997174 42.639354, -60.018836 42.636142, -60.040494 42.632928, -60.062146 42.629712, -60.083794 42.626492, -60.105437 42.623270, -60.127076 42.620045, -60.148709 42.616817, -60.170338 42.613587, -60.191962 42.610354, -60.213581 42.607118, -60.235195 42.603879, -60.256805 42.600638, -60.278409 42.597394, -60.300008 42.594147, -60.321603 42.590898, -60.343192 42.587645, -60.364777 42.584390, -60.386356 42.581133, -60.407931 42.577872, -60.429500 42.574609, -60.451064 42.571343, -60.472623 42.568075, -60.494177 42.564803, -60.515726 42.561529, -60.537270 42.558253, -60.558809 42.554973, -60.580342 42.551691, -60.601870 42.548406, -60.623393 42.545119, -60.644910 42.541828, -60.666423 42.538535, -60.687929 42.535240, -60.709431 42.531941, -60.730927 42.528640, -60.752418 42.525336, -60.773904 42.522030, -60.795384 42.518720, -60.816858 42.515408, -60.838327 42.512094, -60.859791 42.508776, -60.881249 42.505456, -60.902702 42.502134, -60.924149 42.498808, -60.945591 42.495480, -60.967027 42.492149, -60.988457 42.488816, -61.009882 42.485480, -61.031301 42.482141, -61.052714 42.478799, -61.074122 42.475455, -61.095524 42.472108, -61.116920 42.468758, -61.138311 42.465406, -61.159695 42.462051, -61.181074 42.458693, -61.202448 42.455333, -61.223815 42.451970, -61.245176 42.448604, -61.266532 42.445236, -61.287882 42.441865, -61.309226 42.438491, -61.330563 42.435115, -61.351895 42.431735, -61.373221 42.428354, -61.394541 42.424969, -61.415855 42.421582, -61.437163 42.418193, -61.458465 42.414800, -61.479761 42.411405, -61.501050 42.408007, -61.522334 42.404607, -61.543611 42.401204, -61.564882 42.397798, -61.586147 42.394390, -61.607406 42.390979, -61.628659 42.387566, -61.649905 42.384149, -61.671145 42.380731, -61.692379 42.377309, -61.713607 42.373885, -61.734828 42.370458, -61.756043 42.367029, -61.777251 42.363597, -61.798453 42.360162, -61.819649 42.356725, -61.840838 42.353285, -61.862021 42.349842, -61.883197 42.346397, -61.904367 42.342949, -61.925530 42.339499, -61.946687 42.336046, -61.967837 42.332590, -61.988981 42.329132, -62.010118 42.325671, -62.031248 42.322207, -62.052372 42.318741, -62.073489 42.315272, -62.094600 42.311801, -62.115704 42.308327, -62.136801 42.304851, -62.157891 42.301372, -62.178974 42.297890, -62.200051 42.294406, -62.221121 42.290919, -62.242184 42.287429, -62.263241 42.283937, -62.284290 42.280443, -62.305333 42.276945, -62.326368 42.273446, -62.347397 42.269943, -62.368419 42.266438, -62.389434 42.262931, -62.410442 42.259421, -62.431443 42.255908, -62.452437 42.252393, -62.473423 42.248875, -62.494403 42.245355, -62.515376 42.241832, -62.536341 42.238306, -62.557300 42.234778, -62.578251 42.231248, -62.599195 42.227715, -62.620132 42.224179, -62.641062 42.220641, -62.661984 42.217100, -62.682900 42.213557, -62.703807 42.210011, -62.724708 42.206462, -62.745602 42.202912, -62.766488 42.199358, -62.787366 42.195802, -62.808238 42.192244, -62.829102 42.188683, -62.849958 42.185119, -62.870807 42.181553, -62.891649 42.177985, -62.912483 42.174414, -62.933310 42.170840, -62.954129 42.167264, -62.974941 42.163685, -62.995745 42.160104, -63.016541 42.156521, -63.037330 42.152935, -63.058112 42.149346, -63.078885 42.145755, -63.099651 42.142162, -63.120410 42.138566, -63.141160 42.134967, -63.161903 42.131366, -63.182639 42.127763, -63.203366 42.124157, -63.224086 42.120548, -63.244798 42.116938, -63.265502 42.113324, -63.286198 42.109708, -63.306886 42.106090, -63.327567 42.102469, -63.348240 42.098846, -63.368904 42.095221, -63.389561 42.091593, -63.410210 42.087962, -63.430851 42.084329, -63.451484 42.080694, -63.472108 42.077056, -63.492725 42.073416, -63.513334 42.069773, -63.533935 42.066128, -63.554527 42.062481, -63.575112 42.058831, -63.595688 42.055178, -63.616256 42.051524, -63.636816 42.047866, -63.657368 42.044207, -63.677912 42.040545, -63.698447 42.036880, -63.718974 42.033214, -63.739493 42.029544, -63.760004 42.025873, -63.780506 42.022199, -63.801000 42.018522, -63.821485 42.014844, -63.841963 42.011163, -63.862431 42.007479, -63.882892 42.003793, -63.903344 42.000105, -63.923787 41.996414, -63.944222 41.992721, -63.964649 41.989026, -63.985067 41.985328, -64.005476 41.981628, -64.025877 41.977926, -64.046269 41.974221, -64.066653 41.970514, -64.087028 41.966805, -64.107395 41.963093, -64.127752 41.959379, -64.148102 41.955663, -64.168442 41.951944, -64.188774 41.948223, -64.209097 41.944499, -64.229411 41.940774, -64.249717 41.937046, -64.270013 41.933315, -64.290301 41.929583, -64.310580 41.925848, -64.330851 41.922111, -64.351112 41.918371, -64.371364 41.914629, -64.391608 41.910885, -64.411843 41.907139, -64.432068 41.903390, -64.452285 41.899639, -64.472493 41.895886, -64.492692 41.892130, -64.512881 41.888373, -64.533062 41.884613, -64.553234 41.880850, -64.573396 41.877086, -64.593549 41.873319, -64.613694 41.869550, -64.633829 41.865779, -64.653955 41.862005, -64.674072 41.858230, -64.694179 41.854452, -64.714278 41.850671, -64.734367 41.846889, -64.754447 41.843104, -64.774517 41.839317, -64.794579 41.835528, -64.814630 41.831737, -64.834673 41.827943, -64.854706 41.824148, -64.874730 41.820350, -64.894745 41.816550, -64.914750 41.812747, -64.934746 41.808943, -64.954732 41.805136, -64.974708 41.801327, -64.994676 41.797516, -65.014633 41.793703, -65.034582 41.789888, -65.054520 41.786070, -65.074449 41.782250, -65.094369 41.778429, -65.114279 41.774605, -65.134179 41.770778, -65.154069 41.766950, -65.173950 41.763120, -65.193822 41.759287, -65.213683 41.755452, -65.233535 41.751615, -65.253377 41.747776, -65.273209 41.743935, -65.293032 41.740092, -65.312845 41.736247, -65.332647 41.732399, -65.352441 41.728550, -65.372224 41.724698, -65.391997 41.720844, -65.411760 41.716989, -65.431514 41.713131, -65.451258 41.709271, -65.470991 41.705409, -65.490715 41.701545, -65.510428 41.697678, -65.530132 41.693810, -65.549826 41.689940, -65.569509 41.686067, -65.589183 41.682193, -65.608846 41.678316, -65.628499 41.674438, -65.648143 41.670557, -65.667776 41.666674, -65.687399 41.662790, -65.707011 41.658903, -65.726614 41.655014, -65.746206 41.651124, -65.765788 41.647231, -65.785360 41.643336, -65.804921 41.639439, -65.824472 41.635540, -65.844013 41.631640, -65.863544 41.627737, -65.883064 41.623832, -65.902574 41.619925, -65.922073 41.616017, -65.941562 41.612106, -65.961041 41.608193, -65.980509 41.604279, -65.999967 41.600362, -66.019414 41.596443, -66.038851 41.592523, -66.058277 41.588600, -66.077692 41.584676, -66.097098 41.580749, -66.116492 41.576821, -66.135876 41.572891, -66.155249 41.568959, -66.174612 41.565025, -66.193964 41.561089, -66.213305 41.557151, -66.232636 41.553211, -66.251956 41.549269, -66.271265 41.545326, -66.290563 41.541380, -66.309851 41.537433, -66.329128 41.533483, -66.348394 41.529532, -66.367650 41.525579, -66.386894 41.521624, -66.406128 41.517667, -66.425350 41.513709, -66.444562 41.509748, -66.463763 41.505786, -66.482953 41.501821, -66.502132 41.497855, -66.521300 41.493887, -66.540457 41.489918, -66.559603 41.485946, -66.578738 41.481973, -66.597863 41.477997, -66.616975 41.474020, -66.636077 41.470041, -66.655168 41.466061, -66.674248 41.462078, -66.693316 41.458094, -66.712374 41.454108, -66.731420 41.450120, -66.750455 41.446131, -66.769479 41.442139, -66.788492 41.438146, -66.807493 41.434151, -66.826483 41.430154, -66.845462 41.426156, -66.864429 41.422156, -66.883386 41.418154, -66.902331 41.414150, -66.921264 41.410144, -66.940186 41.406137, -66.959097 41.402128, -66.977996 41.398118, -66.996884 41.394105, -67.015761 41.390091, -67.034626 41.386075, -67.053480 41.382058, -67.072322 41.378039, -67.091152 41.374018, -67.109971 41.369995, -67.128779 41.365971, -67.147575 41.361945, -67.166359 41.357917, -67.185132 41.353888, -67.203893 41.349857, -67.222642 41.345824, -67.241380 41.341790, -67.260106 41.337754, -67.278821 41.333717, -67.297524 41.329678, -67.316215 41.325637, -67.334894 41.321594, -67.353561 41.317550, -67.372217 41.313504, -67.390861 41.309457, -67.409493 41.305408, -67.428113 41.301358, -67.446722 41.297305, -67.465318 41.293252, -67.483903 41.289196, -67.502476 41.285140, -67.521037 41.281081, -67.539586 41.277021, -67.558123 41.272959, -67.576647 41.268896, -67.595160 41.264831, -67.613661 41.260765, -67.632150 41.256697, -67.650627 41.252628, -67.669092 41.248557, -67.687545 41.244485, -67.705985 41.240411, -67.724414 41.236335, -67.742830 41.232258, -67.761234 41.228180, -67.779626 41.224100, -67.798006 41.220018, -67.816374 41.215935, -67.834729 41.211850, -67.853073 41.207764, -67.871404 41.203677, -67.889722 41.199588, -67.908029 41.195498, -67.926323 41.191406, -67.944604 41.187312, -67.962874 41.183218, -67.981131 41.179121, -67.999375 41.175024, -68.017608 41.170925, -68.035827 41.166824, -68.054035 41.162722, -68.072230 41.158619, -68.090412 41.154514, -68.108582 41.150408, -68.126740 41.146300, -68.144885 41.142191, -68.163017 41.138081, -68.181137 41.133969, -68.199244 41.129856, -68.217339 41.125741, -68.235421 41.121625, -68.253491 41.117508, -68.271548 41.113389, -68.289592 41.109269, -68.307624 41.105148, -68.325642 41.101025, -68.343649 41.096901, -68.361642 41.092776, -68.379623 41.088649, -68.397591 41.084521, -68.415546 41.080392, -68.433488 41.076261, -68.451418 41.072129, -68.469334 41.067996, -68.487238 41.063861, -68.505129 41.059725, -68.523008 41.055588, -68.540873 41.051450, -68.558725 41.047310, -68.576565 41.043169, -68.594391 41.039027, -68.612205 41.034884, -68.630005 41.030739, -68.647793 41.026593, -68.665567 41.022446, -68.683329 41.018297, -68.701077 41.014148, -68.718813 41.009997, -68.736535 41.005845, -68.754244 41.001692, -68.771941 40.997537, -68.789624 40.993381, -68.807293 40.989224, -68.824950 40.985066, -68.842594 40.980907, -68.860224 40.976747, -68.877841 40.972585, -68.895445 40.968422, -68.913036 40.964258, -68.930613 40.960093, -68.948177 40.955927, -68.965728 40.951760, -68.983266 40.947591, -69.000790 40.943422, -69.018301 40.939251, -69.035798 40.935079, -69.053282 40.930906, -69.070753 40.926732, -69.088210 40.922557, -69.105654 40.918380, -69.123085 40.914203, -69.140502 40.910024, -69.157905 40.905845, -69.175295 40.901664, -69.192672 40.897483, -69.210035 40.893300, -69.227384 40.889116, -69.244720 40.884931, -69.262042 40.880745, -69.279351 40.876558, -69.296646 40.872370, -69.313928 40.868181, -69.331195 40.863991, -69.348450 40.859800, -69.365690 40.855608, -69.382917 40.851415, -69.400130 40.847221, -69.417330 40.843026, -69.434515 40.838830, -69.451687 40.834633, -69.468846 40.830435, -69.485990 40.826236, -69.503121 40.822036, -69.520237 40.817835, -69.537340 40.813633, -69.554429 40.809430, -69.571505 40.805227, -69.588566 40.801022, -69.605613 40.796816, -69.622647 40.792610, -69.639667 40.788402, -69.656672 40.784194, -69.673664 40.779985, -69.690642 40.775775, -69.707606 40.771564, -69.724555 40.767352, -69.741491 40.763139, -69.758413 40.758925, -69.775321 40.754711, -69.792214 40.750495, -69.809094 40.746279, -69.825959 40.742062, -69.842810 40.737844, -69.859647 40.733625, -69.876470 40.729406, -69.893279 40.725185, -69.910074 40.720964, -69.926854 40.716742, -69.943621 40.712519, -69.960373 40.708295, -69.977110 40.704071, -69.993834 40.699845, -70.010543 40.695619, -70.027238 40.691392, -70.043919 40.687165, -70.060585 40.682936, -70.077237 40.678707, -70.093875 40.674477, -70.110498 40.670247, -70.127107 40.666015, -70.143701 40.661783, -70.160281 40.657550, -70.176847 40.653317, -70.193398 40.649082, -70.209935 40.644847, -70.226457 40.640611, -70.242965 40.636375, -70.259458 40.632138, -70.275937 40.627900, -70.292401 40.623662, -70.308851 40.619422, -70.325286 40.615183, -70.341707 40.610942, -70.358112 40.606701, -70.374504 40.602459, -70.390880 40.598216, -70.407242 40.593973, -70.423590 40.589730, -70.439922 40.585485, -70.456240 40.581240, -70.472544 40.576995, -70.488832 40.572748, -70.505106 40.568501, -70.521365 40.564254, -70.537610 40.560006, -70.553839 40.555757, -70.570054 40.551508, -70.586254 40.547258, -70.602439 40.543008, -70.618609 40.538757, -70.634765 40.534506, -70.650905 40.530254, -70.667031 40.526001, -70.683142 40.521748, -70.699237 40.517494, -70.715318 40.513240, -70.731384 40.508986, -70.747435 40.504731, -70.763471 40.500475, -70.779492 40.496219, -70.795498 40.491962, -70.811489 40.487705, -70.827465 40.483447, -70.843426 40.479189, -70.859372 40.474930, -70.875303 40.470671, -70.891219 40.466412, -70.907119 40.462152, -70.923005 40.457892, -70.938875 40.453631, -70.954730 40.449369, -70.970570 40.445108, -70.986395 40.440846, -71.002204 40.436583, -71.017999 40.432320, -71.033778 40.428057, -71.049542 40.423793, -71.065291 40.419529, -71.081024 40.415264, -71.096742 40.410999, -71.112445 40.406734, -71.128132 40.402469, -71.143805 40.398203, -71.159461 40.393936, -71.175103 40.389670, -71.190729 40.385403, -71.206340 40.381135, -71.221935 40.376867, -71.237515 40.372599, -71.253079 40.368331, -71.268628 40.364062, -71.284162 40.359794, -71.299680 40.355524, -71.315182 40.351255, -71.330669 40.346985, -71.346141 40.342715, -71.361597 40.338445, -71.377038 40.334174, -71.392462 40.329903, -71.407872 40.325632, -71.423266 40.321360, -71.438644 40.317089, -71.454006 40.312817, -71.469353 40.308545, -71.484684 40.304273, -71.500000 40.300000, -71.515465 40.295796, -71.531117 40.291764, -71.546955 40.287901, -71.562974 40.284205, -71.579173 40.280675, -71.595548 40.277307, -71.612096 40.274101, -71.628814 40.271053, -71.645699 40.268163, -71.662748 40.265427, -71.679958 40.262844, -71.697326 40.260413, -71.714849 40.258130, -71.732524 40.255993, -71.750349 40.254002, -71.768320 40.252154, -71.786434 40.250446, -71.804688 40.248877, -71.823079 40.247444, -71.841604 40.246147, -71.860261 40.244982, -71.879046 40.243948, -71.897956 40.243042, -71.916988 40.242263, -71.936139 40.241609, -71.955407 40.241078, -71.974788 40.240667, -71.994280 40.240375, -72.013878 40.240200, -72.033581 40.240140, -72.053385 40.240193, -72.073287 40.240356, -72.093285 40.240628, -72.113375 40.241007, -72.133554 40.241491, -72.153819 40.242078, -72.174167 40.242766, -72.194596 40.243553, -72.215101 40.244437, -72.235681 40.245416, -72.256332 40.246488, -72.277051 40.247651, -72.297834 40.248903, -72.318680 40.250243, -72.339585 40.251668, -72.360545 40.253177, -72.381559 40.254767, -72.402622 40.256436, -72.423732 40.258184, -72.444885 40.260006, -72.466079 40.261903, -72.487311 40.263871, -72.508577 40.265909, -72.529874 40.268015, -72.551199 40.270187, -72.572550 40.272423, -72.593923 40.274721, -72.615314 40.277079, -72.636722 40.279496, -72.658142 40.281969, -72.679572 40.284497, -72.701008 40.287077, -72.722448 40.289708, -72.743888 40.292388, -72.765325 40.295114, -72.786756 40.297886, -72.808179 40.300700, -72.829588 40.303556, -72.850983 40.306451, -72.872358 40.309384, -72.893712 40.312352, -72.915041 40.315353, -72.936342 40.318386, -72.957612 40.321450, -72.978847 40.324541, -73.000045 40.327658, -73.021202 40.330799, -73.042314 40.333963, -73.063380 40.337147, -73.084395 40.340350, -73.105357 40.343570, -73.126261 40.346804, -73.147106 40.350051, -73.167887 40.353310, -73.188602 40.356578, -73.209247 40.359853, -73.229819 40.363133, -73.250315 40.366418, -73.270732 40.369704, -73.291066 40.372990, -73.311313 40.376274, -73.331472 40.379555, -73.351538 40.382830, -73.371508 40.386097, -73.391379 40.389355, -73.411148 40.392602, -73.430811 40.395837, -73.450366 40.399056, -73.469808 40.402259, -73.489135 40.405443, -73.508343 40.408607, -73.527429 40.411748, -73.546389 40.414866, -73.565221 40.417958, -73.583921 40.421023, -73.602486 40.424057, -73.620912 40.427061, -73.639196 40.430031, -73.657335 40.432967, -73.675325 40.435866, -73.693163 40.438726, -73.710846 40.441546, -73.728371 40.444323, -73.745733 40.447057, -73.762931 40.449744, -73.779959 40.452384, -73.796816 40.454975, -73.813497 40.457514, -73.830000 40.460000, -73.845339 40.463531, -73.859546 40.469217, -73.872708 40.476855, -73.884909 40.486244, -73.896234 40.497183, -73.906768 40.509469, -73.916595 40.522902, -73.925800 40.537279, -73.934466 40.552398, -73.942677 40.568057, -73.950519 40.584056, -73.958074 40.600191, -73.965427 40.616261, -73.972661 40.632064, -73.979862 40.647398, -73.987112 40.662060, -73.994496 40.675849, -74.002097 40.688563, -74.010000 40.700000)
