LINESTRING (-1.400000 50.910000, -1.383451 50.901973, -1.364598 50.893936, -1.343820 50.885860, -1.321501 50.877718, -1.298019 50.869484, -1.273756 50.861130, -1.249093 50.852631, -1.224409 50.843959, -1.200085 50.835089, -1.176499 50.825996, -1.154033 50.816655, -1.133064 50.807039, -1.113972 50.797126, -1.097136 50.786889, -1.082933 50.776304, -1.071740 50.765348, -1.063936 50.753995, -1.059898 50.742221, -1.060000 50.730000, -1.062344 50.717093, -1.064675 50.703872, -1.066998 50.690347, -1.069321 50.676530, -1.071648 50.662433, -1.073986 50.648066, -1.076342 50.633441, -1.078720 50.618569, -1.081128 50.603460, -1.083571 50.588127, -1.086055 50.572581, -1.088586 50.556832, -1.091170 50.540892, -1.093813 50.524772, -1.096521 50.508483, -1.099301 50.492037, -1.102157 50.475445, -1.105097 50.458718, -1.108126 50.441867, -1.111249 50.424903, -1.114473 50.407838, -1.117805 50.390682, -1.121249 50.373448, -1.124811 50.356145, -1.128499 50.338786, -1.132317 50.321382, -1.136271 50.303943, -1.140367 50.286481, -1.144612 50.269008, -1.149011 50.251534, -1.153570 50.234070, -1.158295 50.216628, -1.163191 50.199219, -1.168266 50.181854, -1.173523 50.164544, -1.178970 50.147301, -1.184613 50.130135, -1.190456 50.113058, -1.196507 50.096082, -1.202770 50.079216, -1.209252 50.062472, -1.215958 50.045862, -1.222895 50.029397, -1.230069 50.013088, -1.237484 49.996945, -1.245148 49.980981, -1.253065 49.965205, -1.261243 49.949631, -1.269686 49.934267, -1.278401 49.919127, -1.287393 49.904220, -1.296669 49.889558, -1.306235 49.875152, -1.316095 49.861014, -1.326257 49.847153, -1.336727 49.833582, -1.347509 49.820312, -1.358611 49.807353, -1.370038 49.794717, -1.381797 49.782415, -1.393893 49.770457, -1.406332 49.758856, -1.419121 49.747621, -1.432265 49.736765, -1.445771 49.726298, -1.459646 49.716231, -1.473894 49.706575, -1.488523 49.697341, -1.503538 49.688541, -1.518946 49.680186, -1.534753 49.672285, -1.550966 49.664851, -1.567590 49.657895, -1.584633 49.651427, -1.602101 49.645458, -1.620000 49.640000, -1.638231 49.634873, -1.656668 49.629896, -1.675307 49.625068, -1.694145 49.620386, -1.713180 49.615849, -1.732408 49.611456, -1.751827 49.607204, -1.771433 49.603092, -1.791225 49.599119, -1.811198 49.595282, -1.831350 49.591581, -1.851678 49.588012, -1.872179 49.584575, -1.892851 49.581268, -1.913690 49.578089, -1.934693 49.575037, -1.955858 49.572110, -1.977182 49.569306, -1.998662 49.566623, -2.020294 49.564061, -2.042076 49.561617, -2.064006 49.559289, -2.086079 49.557076, -2.108294 49.554976, -2.130647 49.552988, -2.153136 49.551110, -2.175757 49.549341, -2.198508 49.547678, -2.221385 49.546119, -2.244387 49.544665, -2.267509 49.543312, -2.290749 49.542059, -2.314105 49.540904, -2.337573 49.539846, -2.361150 49.538883, -2.384833 49.538014, -2.408620 49.537236, -2.432507 49.536549, -2.456492 49.535951, -2.480572 49.535439, -2.504744 49.535013, -2.529004 49.534670, -2.553350 49.534409, -2.577780 49.534229, -2.602289 49.534128, -2.626876 49.534104, -2.651536 49.534156, -2.676268 49.534281, -2.701068 49.534479, -2.725934 49.534748, -2.750862 49.535086, -2.775850 49.535492, -2.800894 49.535963, -2.825991 49.536499, -2.851139 49.537098, -2.876335 49.537758, -2.901575 49.538478, -2.926857 49.539256, -2.952178 49.540090, -2.977535 49.540979, -3.002924 49.541921, -3.028343 49.542915, -3.053789 49.543960, -3.079258 49.545053, -3.104749 49.546193, -3.130257 49.547378, -3.155780 49.548607, -3.181315 49.549879, -3.206859 49.551191, -3.232408 49.552543, -3.257960 49.553932, -3.283512 49.555358, -3.309061 49.556818, -3.334604 49.558311, -3.360137 49.559835, -3.385658 49.561390, -3.411163 49.562973, -3.436650 49.564583, -3.462116 49.566218, -3.487557 49.567877, -3.512970 49.569558, -3.538353 49.571261, -3.563702 49.572982, -3.589015 49.574721, -3.614288 49.576477, -3.639517 49.578247, -3.664701 49.580030, -3.689836 49.581825, -3.714919 49.583631, -3.739947 49.585445, -3.764916 49.587266, -3.789825 49.589093, -3.814668 49.590925, -3.839444 49.592759, -3.864150 49.594594, -3.888782 49.596429, -3.913337 49.598262, -3.937812 49.600092, -3.962204 49.601918, -3.986510 49.603737, -4.010727 49.605549, -4.034851 49.607351, -4.058879 49.609143, -4.082809 49.610923, -4.106638 49.612690, -4.130361 49.614441, -4.153976 49.616176, -4.177480 49.617894, -4.200870 49.619592, -4.224142 49.621269, -4.247293 49.622924, -4.270321 49.624555, -4.293222 49.626161, -4.315992 49.627741, -4.338630 49.629293, -4.361131 49.630815, -4.383492 49.632306, -4.405711 49.633765, -4.427783 49.635191, -4.449707 49.636581, -4.471478 49.637934, -4.493094 49.639250, -4.514551 49.640526, -4.535846 49.641761, -4.556976 49.642954, -4.577938 49.644103, -4.598729 49.645207, -4.619345 49.646264, -4.639783 49.647274, -4.660041 49.648234, -4.680114 49.649143, -4.700000 49.650000, -4.719977 49.650924, -4.740200 49.652028, -4.760663 49.653305, -4.781358 49.654751, -4.802281 49.656361, -4.823423 49.658129, -4.844778 49.660050, -4.866341 49.662119, -4.888103 49.664331, -4.910059 49.666680, -4.932201 49.669161, -4.954524 49.671770, -4.977020 49.674500, -4.999684 49.677348, -5.022508 49.680306, -5.045485 49.683372, -5.068610 49.686538, -5.091875 49.689801, -5.115273 49.693154, -5.138799 49.696593, -5.162445 49.700113, -5.186205 49.703708, -5.210072 49.707374, -5.234039 49.711105, -5.258100 49.714896, -5.282248 49.718742, -5.306476 49.722637, -5.330777 49.726578, -5.355146 49.730558, -5.379574 49.734573, -5.404056 49.738617, -5.428584 49.742686, -5.453152 49.746774, -5.477753 49.750877, -5.502381 49.754989, -5.527028 49.759105, -5.551687 49.763220, -5.576352 49.767329, -5.601017 49.771427, -5.625673 49.775510, -5.650316 49.779571, -5.674936 49.783607, -5.699529 49.787611, -5.724086 49.791580, -5.748601 49.795507, -5.773068 49.799389, -5.797479 49.803220, -5.821827 49.806995, -5.846106 49.810709, -5.870308 49.814358, -5.894428 49.817935, -5.918457 49.821437, -5.942389 49.824859, -5.966216 49.828194, -5.989933 49.831440, -6.013532 49.834589, -6.037006 49.837639, -6.060349 49.840583, -6.083552 49.843417, -6.106610 49.846136, -6.129515 49.848735, -6.152260 49.851209, -6.174839 49.853554, -6.197244 49.855764, -6.219468 49.857834, -6.241505 49.859759, -6.263346 49.861536, -6.284986 49.863158, -6.306418 49.864621, -6.327633 49.865920, -6.348626 49.867051, -6.369389 49.868008, -6.389914 49.868786, -6.410196 49.869380, -6.430227 49.869787, -6.450000 49.870000, -6.469575 49.870111, -6.489168 49.870214, -6.508779 49.870310, -6.528407 49.870399, -6.548054 49.870480, -6.567718 49.870553, -6.587400 49.870620, -6.607100 49.870678, -6.626817 49.870729, -6.646553 49.870773, -6.666305 49.870809, -6.686076 49.870838, -6.705864 49.870860, -6.725669 49.870874, -6.745493 49.870880, -6.765333 49.870879, -6.785191 49.870871, -6.805067 49.870855, -6.824959 49.870831, -6.844870 49.870800, -6.864797 49.870762, -6.884742 49.870716, -6.904704 49.870663, -6.924683 49.870602, -6.944680 49.870534, -6.964693 49.870458, -6.984724 49.870375, -7.004772 49.870284, -7.024837 49.870186, -7.044919 49.870080, -7.065017 49.869967, -7.085133 49.869846, -7.105266 49.869718, -7.125416 49.869582, -7.145582 49.869439, -7.165766 49.869289, -7.185966 49.869130, -7.206183 49.868965, -7.226416 49.868792, -7.246667 49.868611, -7.266934 49.868423, -7.287217 49.868227, -7.307517 49.868024, -7.327834 49.867814, -7.348167 49.867596, -7.368517 49.867370, -7.388884 49.867137, -7.409266 49.866897, -7.429665 49.866649, -7.450081 49.866393, -7.470513 49.866130, -7.490961 49.865859, -7.511425 49.865581, -7.531906 49.865296, -7.552402 49.865003, -7.572915 49.864702, -7.593444 49.864394, -7.613989 49.864079, -7.634551 49.863756, -7.655128 49.863425, -7.675721 49.863087, -7.696330 49.862741, -7.716956 49.862388, -7.737597 49.862028, -7.758253 49.861659, -7.778926 49.861284, -7.799615 49.860901, -7.820319 49.860510, -7.841039 49.860112, -7.861775 49.859706, -7.882526 49.859293, -7.903293 49.858872, -7.924076 49.858444, -7.944874 49.858008, -7.965688 49.857565, -7.986517 49.857114, -8.007361 49.856656, -8.028221 49.856190, -8.049097 49.855717, -8.069988 49.855236, -8.090894 49.854748, -8.111815 49.854252, -8.132752 49.853749, -8.153704 49.853238, -8.174671 49.852720, -8.195653 49.852194, -8.216651 49.851661, -8.237663 49.851120, -8.258691 49.850571, -8.279733 49.850015, -8.300791 49.849452, -8.321863 49.848881, -8.342951 49.848303, -8.364053 49.847717, -8.385170 49.847123, -8.406302 49.846522, -8.427449 49.845914, -8.448610 49.845298, -8.469786 49.844674, -8.490977 49.844043, -8.512183 49.843404, -8.533403 49.842758, -8.554638 49.842105, -8.575887 49.841444, -8.597151 49.840775, -8.618429 49.840099, -8.639722 49.839415, -8.661029 49.838724, -8.682350 49.838026, -8.703686 49.837319, -8.725036 49.836606, -8.746401 49.835885, -8.767779 49.835156, -8.789172 49.834420, -8.810579 49.833676, -8.832000 49.832925, -8.853436 49.832166, -8.874885 49.831400, -8.896348 49.830626, -8.917826 49.829845, -8.939317 49.829056, -8.960822 49.828260, -8.982341 49.827456, -9.003874 49.826645, -9.025421 49.825826, -9.046982 49.825000, -9.068556 49.824166, -9.090144 49.823325, -9.111746 49.822477, -9.133361 49.821620, -9.154990 49.820757, -9.176633 49.819885, -9.198289 49.819007, -9.219959 49.818120, -9.241642 49.817227, -9.263339 49.816326, -9.285049 49.815417, -9.306772 49.814501, -9.328509 49.813577, -9.350259 49.812646, -9.372023 49.811707, -9.393799 49.810761, -9.415589 49.809807, -9.437392 49.808846, -9.459208 49.807878, -9.481038 49.806902, -9.502880 49.805918, -9.524735 49.804927, -9.546604 49.803929, -9.568485 49.802923, -9.590379 49.801909, -9.612286 49.800888, -9.634206 49.799860, -9.656139 49.798824, -9.678085 49.797781, -9.700043 49.796730, -9.722014 49.795671, -9.743998 49.794606, -9.765995 49.793533, -9.788004 49.792452, -9.810025 49.791364, -9.832060 49.790268, -9.854106 49.789165, -9.876166 49.788054, -9.898237 49.786936, -9.920321 49.785811, -9.942418 49.784678, -9.964527 49.783538, -9.986648 49.782390, -10.008781 49.781235, -10.030927 49.780072, -10.053085 49.778902, -10.075255 49.777724, -10.097437 49.776539, -10.119631 49.775347, -10.141837 49.774147, -10.164056 49.772939, -10.186286 49.771724, -10.208528 49.770502, -10.230782 49.769273, -10.253049 49.768035, -10.275327 49.766791, -10.297616 49.765539, -10.319918 49.764280, -10.342231 49.763013, -10.364556 49.761738, -10.386893 49.760457, -10.409241 49.759168, -10.431602 49.757871, -10.453973 49.756567, -10.476356 49.755256, -10.498751 49.753937, -10.521157 49.752611, -10.543575 49.751278, -10.566004 49.749937, -10.588444 49.748588, -10.610896 49.747233, -10.633359 49.745870, -10.655833 49.744499, -10.678318 49.743121, -10.700815 49.741736, -10.723323 49.740343, -10.745842 49.738943, -10.768372 49.737535, -10.790913 49.736121, -10.813465 49.734698, -10.836028 49.733269, -10.858603 49.731832, -10.881188 49.730387, -10.903784 49.728936, -10.926390 49.727477, -10.949008 49.726010, -10.971636 49.724536, -10.994275 49.723055, -11.016925 49.721567, -11.039586 49.720071, -11.062257 49.718568, -11.084939 49.717057, -11.107631 49.715539, -11.130334 49.714014, -11.153047 49.712481, -11.175771 49.710941, -11.198505 49.709394, -11.221250 49.707839, -11.244005 49.706277, -11.266770 49.704708, -11.289546 49.703132, -11.312332 49.701548, -11.335128 49.699956, -11.357935 49.698358, -11.380751 49.696752, -11.403578 49.695139, -11.426414 49.693518, -11.449261 49.691891, -11.472118 49.690256, -11.494985 49.688613, -11.517861 49.686964, -11.540748 49.685307, -11.563645 49.683642, -11.586551 49.681971, -11.609467 49.680292, -11.632393 49.678606, -11.655329 49.676913, -11.678274 49.675212, -11.701229 49.673504, -11.724194 49.671789, -11.747168 49.670066, -11.770152 49.668337, -11.793145 49.666600, -11.816148 49.664856, -11.839161 49.663104, -11.862182 49.661346, -11.885213 49.659580, -11.908254 49.657806, -11.931304 49.656026, -11.954363 49.654238, -11.977431 49.652444, -12.000509 49.650642, -12.023596 49.648832, -12.046692 49.647016, -12.069797 49.645192, -12.092911 49.643361, -12.116034 49.641523, -12.139166 49.639678, -12.162308 49.637825, -12.185458 49.635965, -12.208617 49.634098, -12.231785 49.632224, -12.254961 49.630343, -12.278147 49.628454, -12.301341 49.626559, -12.324544 49.624656, -12.347756 49.622746, -12.370977 49.620829, -12.394206 49.618904, -12.417443 49.616973, -12.440690 49.615034, -12.463944 49.613089, -12.487208 49.611136, -12.510479 49.609176, -12.533760 49.607208, -12.557048 49.605234, -12.580345 49.603253, -12.603650 49.601264, -12.626964 49.599268, -12.650286 49.597266, -12.673616 49.595256, -12.696954 49.593239, -12.720300 49.591215, -12.743654 49.589183, -12.767017 49.587145, -12.790388 49.585100, -12.813766 49.583047, -12.837153 49.580988, -12.860547 49.578921, -12.883950 49.576847, -12.907360 49.574766, -12.930778 49.572679, -12.954204 49.570584, -12.977638 49.568482, -13.001079 49.566373, -13.024528 49.564257, -13.047985 49.562134, -13.071450 49.560004, -13.094922 49.557866, -13.118402 49.555722, -13.141889 49.553571, -13.165383 49.551413, -13.188886 49.549248, -13.212395 49.547075, -13.235912 49.544896, -13.259436 49.542710, -13.282968 49.540517, -13.306507 49.538316, -13.330053 49.536109, -13.353607 49.533895, -13.377167 49.531674, -13.400735 49.529446, -13.424310 49.527211, -13.447892 49.524969, -13.471481 49.522720, -13.495077 49.520464, -13.518681 49.518201, -13.542291 49.515931, -13.565908 49.513655, -13.589531 49.511371, -13.613162 49.509080, -13.636800 49.506783, -13.660444 49.504478, -13.684095 49.502167, -13.707753 49.499849, -13.731417 49.497524, -13.755089 49.495192, -13.778766 49.492853, -13.802451 49.490507, -13.826142 49.488154, -13.849839 49.485795, -13.873543 49.483429, -13.897253 49.481055, -13.920970 49.478675, -13.944693 49.476288, -13.968423 49.473895, -13.992158 49.471494, -14.015900 49.469087, -14.039649 49.466672, -14.063403 49.464251, -14.087164 49.461823, -14.110931 49.459389, -14.134704 49.456947, -14.158483 49.454499, -14.182268 49.452044, -14.206059 49.449582, -14.229856 49.447114, -14.253659 49.444638, -14.277468 49.442156, -14.301283 49.439667, -14.325104 49.437171, -14.348930 49.434669, -14.372762 49.432160, -14.396600 49.429644, -14.420444 49.427121, -14.444293 49.424592, -14.468148 49.422056, -14.492009 49.419513, -14.515875 49.416963, -14.539747 49.414407, -14.563624 49.411844, -14.587507 49.409275, -14.611395 49.406699, -14.635289 49.404116, -14.659188 49.401526, -14.683092 49.398930, -14.707002 49.396327, -14.730917 49.393717, -14.754837 49.391101, -14.778762 49.388478, -14.802693 49.385849, -14.826628 49.383213, -14.850569 49.380570, -14.874515 49.377920, -14.898466 49.375265, -14.922422 49.372602, -14.946383 49.369933, -14.970349 49.367257, -14.994320 49.364575, -15.018295 49.361886, -15.042276 49.359191, -15.066261 49.356489, -15.090252 49.353780, -15.114246 49.351065, -15.138246 49.348343, -15.162250 49.345615, -15.186259 49.342880, -15.210273 49.340139, -15.234291 49.337391, -15.258314 49.334637, -15.282341 49.331876, -15.306373 49.329109, -15.330409 49.326336, -15.354450 49.323555, -15.378495 49.320769, -15.402544 49.317976, -15.426598 49.315176, -15.450656 49.312370, -15.474718 49.309558, -15.498785 49.306739, -15.522855 49.303913, -15.546930 49.301082, -15.571009 49.298243, -15.595092 49.295399, -15.619180 49.292548, -15.643271 49.289691, -15.667366 49.286827, -15.691465 49.283957, -15.715569 49.281080, -15.739676 49.278197, -15.763787 49.275308, -15.787901 49.272413, -15.812020 49.269511, -15.836142 49.266602, -15.860268 49.263688, -15.884398 49.260767, -15.908532 49.257840, -15.932669 49.254906, -15.956810 49.251966, -15.980954 49.249020, -16.005102 49.246068, -16.029254 49.243109, -16.053409 49.240144, -16.077567 49.237173, -16.101729 49.234196, -16.125894 49.231212, -16.150063 49.228222, -16.174235 49.225226, -16.198410 49.222224, -16.222589 49.219215, -16.246770 49.216200, -16.270955 49.213180, -16.295144 49.210152, -16.319335 49.207119, -16.343529 49.204080, -16.367727 49.201034, -16.391927 49.197982, -16.416131 49.194924, -16.440337 49.191860, -16.464547 49.188790, -16.488759 49.185713, -16.512975 49.182631, -16.537193 49.179542, -16.561414 49.176448, -16.585638 49.173347, -16.609865 49.170240, -16.634094 49.167127, -16.658326 49.164008, -16.682561 49.160883, -16.706798 49.157752, -16.731038 49.154615, -16.755281 49.151471, -16.779526 49.148322, -16.803773 49.145167, -16.828024 49.142006, -16.852276 49.138838, -16.876531 49.135665, -16.900789 49.132486, -16.925049 49.129301, -16.949311 49.126109, -16.973575 49.122912, -16.997842 49.119709, -17.022111 49.116500, -17.046382 49.113285, -17.070655 49.110064, -17.094931 49.106837, -17.119209 49.103605, -17.143488 49.100366, -17.167770 49.097121, -17.192054 49.093871, -17.216340 49.090615, -17.240627 49.087353, -17.264917 49.084085, -17.289209 49.080811, -17.313502 49.077531, -17.337798 49.074245, -17.362095 49.070954, -17.386394 49.067657, -17.410695 49.064354, -17.434997 49.061045, -17.459301 49.057731, -17.483607 49.054410, -17.507915 49.051084, -17.532224 49.047752, -17.556534 49.044415, -17.580846 49.041072, -17.605160 49.037722, -17.629475 49.034368, -17.653792 49.031007, -17.678110 49.027641, -17.702430 49.024269, -17.726750 49.020891, -17.751073 49.017508, -17.775396 49.014119, -17.799721 49.010725, -17.824047 49.007324, -17.848374 49.003919, -17.872703 49.000507, -17.897032 48.997090, -17.921363 48.993667, -17.945695 48.990239, -17.970028 48.986805, -17.994362 48.983365, -18.018697 48.979920, -18.043033 48.976470, -18.067369 48.973013, -18.091707 48.969552, -18.116046 48.966084, -18.140386 48.962611, -18.164726 48.959133, -18.189067 48.955649, -18.213409 48.952160, -18.237752 48.948665, -18.262096 48.945165, -18.286440 48.941659, -18.310785 48.938148, -18.335130 48.934631, -18.359476 48.931109, -18.383823 48.927581, -18.408170 48.924048, -18.432518 48.920510, -18.456866 48.916966, -18.481215 48.913417, -18.505564 48.909862, -18.529914 48.906302, -18.554263 48.902737, -18.578614 48.899166, -18.602964 48.895590, -18.627315 48.892009, -18.651666 48.888422, -18.676018 48.884830, -18.700369 48.881233, -18.724721 48.877631, -18.749073 48.874023, -18.773425 48.870410, -18.797777 48.866791, -18.822129 48.863168, -18.846482 48.859539, -18.870834 48.855905, -18.895186 48.852265, -18.919538 48.848621, -18.943890 48.844971, -18.968242 48.841316, -18.992594 48.837656, -19.016946 48.833991, -19.041297 48.830320, -19.065649 48.826645, -19.090000 48.822964, -19.114350 48.819278, -19.138701 48.815587, -19.163051 48.811891, -19.187401 48.808190, -19.211750 48.804484, -19.236099 48.800772, -19.260448 48.797056, -19.284796 48.793335, -19.309144 48.789608, -19.333491 48.785876, -19.357837 48.782140, -19.382183 48.778398, -19.406529 48.774652, -19.430873 48.770900, -19.455217 48.767144, -19.479561 48.763382, -19.503904 48.759616, -19.528246 48.755844, -19.552587 48.752068, -19.576927 48.748286, -19.601267 48.744500, -19.625606 48.740709, -19.649943 48.736913, -19.674280 48.733112, -19.698617 48.729306, -19.722952 48.725496, -19.747286 48.721680, -19.771619 48.717860, -19.795951 48.714035, -19.820282 48.710205, -19.844612 48.706370, -19.868941 48.702530, -19.893269 48.698686, -19.917595 48.694837, -19.941920 48.690983, -19.966245 48.687124, -19.990567 48.683261, -20.014889 48.679393, -20.039209 48.675520, -20.063528 48.671642, -20.087846 48.667760, -20.112162 48.663873, -20.136477 48.659981, -20.160791 48.656085, -20.185103 48.652184, -20.209413 48.648279, -20.233722 48.644368, -20.258030 48.640453, -20.282335 48.636534, -20.306640 48.632610, -20.330943 48.628681, -20.355244 48.624748, -20.379543 48.620810, -20.403841 48.616868, -20.428137 48.612921, -20.452431 48.608970, -20.476724 48.605014, -20.501014 48.601053, -20.525303 48.597088, -20.549590 48.593119, -20.573876 48.589145, -20.598159 48.585167, -20.622440 48.581184, -20.646720 48.577197, -20.670997 48.573205, -20.695273 48.569209, -20.719546 48.565209, -20.743818 48.561204, -20.768087 48.557194, -20.792355 48.553181, -20.816620 48.549163, -20.840883 48.545141, -20.865144 48.541114, -20.889402 48.537083, -20.913659 48.533048, -20.937913 48.529008, -20.962165 48.524964, -20.986415 48.520916, -21.010662 48.516864, -21.034907 48.512807, -21.059150 48.508746, -21.083390 48.504681, -21.107628 48.500612, -21.131864 48.496538, -21.156097 48.492461, -21.180327 48.488379, -21.204555 48.484293, -21.228780 48.480202, -21.253003 48.476108, -21.277224 48.472010, -21.301441 48.467907, -21.325656 48.463800, -21.349869 48.459690, -21.374079 48.455575, -21.398286 48.451456, -21.422490 48.447333, -21.446691 48.443206, -21.470890 48.439074, -21.495086 48.434939, -21.519279 48.430800, -21.543470 48.426657, -21.567657 48.422510, -21.591842 48.418359, -21.616023 48.414204, -21.640202 48.410045, -21.664378 48.405882, -21.688551 48.401715, -21.712720 48.397544, -21.736887 48.393370, -21.761051 48.389191, -21.785211 48.385009, -21.809369 48.380822, -21.833523 48.376632, -21.857674 48.372438, -21.881822 48.368240, -21.905967 48.364039, -21.930109 48.359833, -21.954247 48.355624, -21.978382 48.351411, -22.002514 48.347194, -22.026642 48.342974, -22.050768 48.338750, -22.074889 48.334522, -22.099008 48.330290, -22.123123 48.326055, -22.147234 48.321816, -22.171343 48.317573, -22.195447 48.313326, -22.219549 48.309076, -22.243646 48.304823, -22.267740 48.300565, -22.291831 48.296304, -22.315918 48.292040, -22.340001 48.287772, -22.364081 48.283500, -22.388157 48.279225, -22.412230 48.274946, -22.436299 48.270664, -22.460364 48.266378, -22.484425 48.262088, -22.508482 48.257796, -22.532536 48.253499, -22.556586 48.249199, -22.580632 48.244896, -22.604675 48.240589, -22.628713 48.236279, -22.652748 48.231966, -22.676778 48.227649, -22.700805 48.223328, -22.724828 48.219004, -22.748847 48.214677, -22.772861 48.210347, -22.796872 48.206013, -22.820879 48.201676, -22.844882 48.197335, -22.868880 48.192991, -22.892875 48.188644, -22.916865 48.184294, -22.940851 48.179940, -22.964833 48.175583, -22.988811 48.171223, -23.012785 48.166860, -23.036754 48.162493, -23.060719 48.158124, -23.084680 48.153751, -23.108637 48.149374, -23.132589 48.144995, -23.156537 48.140613, -23.180481 48.136227, -23.204420 48.131839, -23.228355 48.127447, -23.252285 48.123052, -23.276211 48.118654, -23.300133 48.114253, -23.324050 48.109849, -23.347962 48.105442, -23.371870 48.101031, -23.395774 48.096618, -23.419673 48.092202, -23.443567 48.087783, -23.467457 48.083361, -23.491342 48.078936, -23.515223 48.074508, -23.539098 48.070077, -23.562970 48.065643, -23.586836 48.061206, -23.610698 48.056766, -23.634555 48.052324, -23.658407 48.047878, -23.682254 48.043430, -23.706097 48.038979, -23.729935 48.034525, -23.753768 48.030068, -23.777596 48.025608, -23.801419 48.021146, -23.825238 48.016681, -23.849051 48.012213, -23.872860 48.007742, -23.896663 48.003269, -23.920462 47.998793, -23.944255 47.994314, -23.968044 47.989832, -23.991827 47.985348, -24.015606 47.980861, -24.039379 47.976372, -24.063148 47.971880, -24.086911 47.967385, -24.110669 47.962888, -24.134422 47.958388, -24.158170 47.953885, -24.181912 47.949380, -24.205650 47.944872, -24.229382 47.940362, -24.253109 47.935849, -24.276831 47.931334, -24.300547 47.926816, -24.324258 47.922296, -24.347964 47.917773, -24.371664 47.913248, -24.395359 47.908721, -24.419049 47.904191, -24.442734 47.899658, -24.466412 47.895123, -24.490086 47.890586, -24.513754 47.886046, -24.537417 47.881504, -24.561074 47.876960, -24.584725 47.872413, -24.608372 47.867864, -24.632012 47.863313, -24.655647 47.858760, -24.679277 47.854204, -24.702901 47.849646, -24.726519 47.845085, -24.750131 47.840523, -24.773738 47.835958, -24.797340 47.831391, -24.820936 47.826821, -24.844526 47.822250, -24.868110 47.817676, -24.891688 47.813101, -24.915261 47.808523, -24.938828 47.803943, -24.962389 47.799361, -24.985945 47.794776, -25.009495 47.790190, -25.033038 47.785602, -25.056576 47.781011, -25.080108 47.776419, -25.103635 47.771824, -25.127155 47.767228, -25.150669 47.762629, -25.174178 47.758029, -25.197680 47.753426, -25.221177 47.748822, -25.244668 47.744216, -25.268152 47.739607, -25.291631 47.734997, -25.315103 47.730385, -25.338570 47.725771, -25.362030 47.721155, -25.385484 47.716538, -25.408933 47.711918, -25.432375 47.707297, -25.455811 47.702674, -25.479240 47.698049, -25.502664 47.693422, -25.526082 47.688794, -25.549493 47.684163, -25.572898 47.679531, -25.596297 47.674898, -25.619689 47.670262, -25.643076 47.665625, -25.666456 47.660986, -25.689829 47.656346, -25.713197 47.651703, -25.736558 47.647060, -25.759913 47.642414, -25.783261 47.637767, -25.806603 47.633119, -25.829939 47.628468, -25.853268 47.623817, -25.876591 47.619163, -25.899907 47.614508, -25.923217 47.609852, -25.946521 47.605194, -25.969818 47.600535, -25.993108 47.595874, -26.016392 47.591212, -26.039669 47.586548, -26.062940 47.581882, -26.086205 47.577216, -26.109462 47.572548, -26.132714 47.567878, -26.155958 47.563207, -26.179196 47.558535, -26.202427 47.553862, -26.225652 47.549187, -26.248870 47.544511, -26.272081 47.539833, -26.295286 47.535154, -26.318484 47.530474, -26.341675 47.525793, -26.364860 47.521110, -26.388037 47.516426, -26.411208 47.511741, -26.434373 47.507055, -26.457530 47.502367, -26.480680 47.497679, -26.503824 47.492989, -26.526961 47.488298, -26.550091 47.483606, -26.573214 47.478913, -26.596331 47.474218, -26.619440 47.469523, -26.642543 47.464827, -26.665638 47.460129, -26.688727 47.455431, -26.711808 47.450731, -26.734883 47.446030, -26.757951 47.441329, -26.781012 47.436626, -26.804065 47.431923, -26.827112 47.427218, -26.850152 47.422513, -26.873184 47.417806, -26.896210 47.413099, -26.919228 47.408391, -26.942240 47.403682, -26.965244 47.398972, -26.988241 47.394261, -27.011231 47.389549, -27.034214 47.384837, -27.057190 47.380124, -27.080159 47.375410, -27.103120 47.370695, -27.126074 47.365979, -27.149021 47.361263, -27.171961 47.356546, -27.194894 47.351828, -27.217819 47.347110, -27.240737 47.342390, -27.263648 47.337671, -27.286551 47.332950, -27.309447 47.328229, -27.332336 47.323507, -27.355218 47.318785, -27.378092 47.314062, -27.400959 47.309338, -27.423818 47.304614, -27.446670 47.299889, -27.469515 47.295164, -27.492352 47.290438, -27.515182 47.285712, -27.538005 47.280985, -27.560820 47.276258, -27.583627 47.271530, -27.606428 47.266802, -27.629220 47.262074, -27.652005 47.257345, -27.674783 47.252615, -27.697553 47.247885, -27.720316 47.243155, -27.743071 47.238425, -27.765819 47.233694, -27.788559 47.228962, -27.811291 47.224231, -27.834016 47.219499, -27.856733 47.214767, -27.879443 47.210035, -27.902145 47.205302, -27.924839 47.200569, -27.947526 47.195836, -27.970205 47.191103, -27.992876 47.186369, -28.015540 47.181635, -28.038196 47.176901, -28.060845 47.172167, -28.083485 47.167433, -28.106118 47.162699, -28.128744 47.157965, -28.151361 47.153230, -28.173971 47.148496, -28.196573 47.143761, -28.219167 47.139026, -28.241753 47.134292, -28.264332 47.129557, -28.286903 47.124822, -28.309465 47.120088, -28.332021 47.115353, -28.354568 47.110619, -28.377107 47.105884, -28.399639 47.101150, -28.422162 47.096415, -28.444678 47.091681, -28.467186 47.086947, -28.489686 47.082213, -28.512178 47.077479, -28.534662 47.072745, -28.557139 47.068012, -28.579607 47.063279, -28.602067 47.058546, -28.624519 47.053813, -28.646964 47.049080, -28.669400 47.044348, -28.691828 47.039616, -28.714249 47.034884, -28.736661 47.030153, -28.759065 47.025421, -28.781461 47.020691, -28.803850 47.015960, -28.826230 47.011230, -28.848602 47.006500, -28.870966 47.001771, -28.893322 46.997042, -28.915669 46.992314, -28.938009 46.987586, -28.960341 46.982858, -28.982664 46.978131, -29.004979 46.973404, -29.027286 46.968678, -29.049585 46.963953, -29.071876 46.959228, -29.094159 46.954503, -29.116433 46.949779, -29.138699 46.945056, -29.160957 46.940333, -29.183207 46.935611, -29.205449 46.930889, -29.227682 46.926168, -29.249907 46.921448, -29.272124 46.916729, -29.294333 46.912010, -29.316533 46.907292, -29.338725 46.902574, -29.360909 46.897857, -29.383084 46.893141, -29.405251 46.888426, -29.427410 46.883712, -29.449560 46.878998, -29.471703 46.874285, -29.493836 46.869573, -29.515962 46.864862, -29.538079 46.860152, -29.560188 46.855442, -29.582288 46.850734, -29.604380 46.846026, -29.626463 46.841319, -29.648539 46.836613, -29.670605 46.831909, -29.692664 46.827205, -29.714714 46.822502, -29.736755 46.817800, -29.758788 46.813099, -29.780813 46.808399, -29.802829 46.803700, -29.824836 46.799002, -29.846835 46.794305, -29.868826 46.789610, -29.890808 46.784915, -29.912782 46.780222, -29.934747 46.775529, -29.956704 46.770838, -29.978652 46.766148, -30.000591 46.761459, -30.022522 46.756772, -30.044445 46.752085, -30.066359 46.747400, -30.088264 46.742716, -30.110161 46.738033, -30.132049 46.733352, -30.153929 46.728672, -30.175800 46.723993, -30.197662 46.719316, -30.219516 46.714639, -30.241361 46.709964, -30.263198 46.705291, -30.285026 46.700619, -30.306845 46.695948, -30.328656 46.691279, -30.350458 46.686611, -30.372251 46.681944, -30.394036 46.677279, -30.415812 46.672616, -30.437579 46.667954, -30.459337 46.663293, -30.481087 46.658634, -30.502829 46.653977, -30.524561 46.649321, -30.546285 46.644666, -30.568000 46.640014, -30.589706 46.635362, -30.611404 46.630713, -30.633092 46.626065, -30.654773 46.621418, -30.676444 46.616774, -30.698106 46.612131, -30.719760 46.607489, -30.741405 46.602850, -30.763041 46.598212, -30.784669 46.593576, -30.806287 46.588941, -30.827897 46.584309, -30.849498 46.579678, -30.871090 46.575049, -30.892674 46.570421, -30.914248 46.565796, -30.935814 46.561172, -30.957371 46.556550, -30.978919 46.551931, -31.000458 46.547313, -31.021988 46.542696, -31.043510 46.538082, -31.065022 46.533470, -31.086526 46.528860, -31.108021 46.524251, -31.129506 46.519645, -31.150983 46.515041, -31.172451 46.510438, -31.193911 46.505838, -31.215361 46.501240, -31.236802 46.496644, -31.258235 46.492049, -31.279658 46.487457, -31.301073 46.482867, -31.322478 46.478280, -31.343875 46.473694, -31.365263 46.469110, -31.386641 46.464529, -31.408011 46.459950, -31.429372 46.455373, -31.450724 46.450798, -31.472067 46.446225, -31.493400 46.441655, -31.514725 46.437087, -31.536041 46.432521, -31.557348 46.427958, -31.578646 46.423396, -31.599935 46.418838, -31.621215 46.414281, -31.642485 46.409727, -31.663747 46.405175, -31.685000 46.400626, -31.706244 46.396079, -31.727478 46.391534, -31.748704 46.386992, -31.769920 46.382452, -31.791128 46.377915, -31.812326 46.373380, -31.833516 46.368848, -31.854696 46.364318, -31.875867 46.359791, -31.897029 46.355266, -31.918182 46.350744, -31.939326 46.346224, -31.960461 46.341707, -31.981587 46.337192, -32.002704 46.332681, -32.023811 46.328171, -32.044910 46.323665, -32.065999 46.319161, -32.087079 46.314660, -32.108150 46.310161, -32.129212 46.305666, -32.150265 46.301172, -32.171309 46.296682, -32.192343 46.292194, -32.213369 46.287710, -32.234385 46.283228, -32.255392 46.278748, -32.276390 46.274272, -32.297379 46.269798, -32.318359 46.265328, -32.339329 46.260860, -32.360290 46.256395, -32.381242 46.251933, -32.402185 46.247474, -32.423119 46.243017, -32.444043 46.238564, -32.464959 46.234114, -32.485865 46.229666, -32.506762 46.225222, -32.527650 46.220780, -32.548528 46.216342, -32.569398 46.211907, -32.590258 46.207474, -32.611109 46.203045, -32.631950 46.198619, -32.652783 46.194196, -32.673606 46.189776, -32.694420 46.185359, -32.715225 46.180946, -32.736020 46.176535, -32.756806 46.172128, -32.777583 46.167724, -32.798351 46.163323, -32.819110 46.158925, -32.839859 46.154531, -32.860599 46.150139, -32.881330 46.145751, -32.902051 46.141367, -32.922763 46.136985, -32.943466 46.132607, -32.964160 46.128233, -32.984844 46.123861, -33.005520 46.119493, -33.026185 46.115129, -33.046842 46.110767, -33.067489 46.106409, -33.088127 46.102055, -33.108756 46.097704, -33.129375 46.093356, -33.149985 46.089012, -33.170586 46.084672, -33.191178 46.080335, -33.211760 46.076001, -33.232333 46.071671, -33.252896 46.067345, -33.273451 46.063022, -33.293996 46.058702, -33.314531 46.054387, -33.335058 46.050074, -33.355575 46.045766, -33.376082 46.041461, -33.396581 46.037160, -33.417070 46.032862, -33.437549 46.028568, -33.458020 46.024278, -33.478481 46.019992, -33.498932 46.015709, -33.519375 46.011430, -33.539808 46.007155, -33.560231 46.002884, -33.580646 45.998616, -33.601050 45.994352, -33.621446 45.990092, -33.641832 45.985836, -33.662209 45.981584, -33.682577 45.977335, -33.702935 45.973091, -33.723284 45.968850, -33.743623 45.964613, -33.763953 45.960381, -33.784274 45.956152, -33.804585 45.951927, -33.824887 45.947706, -33.845180 45.943489, -33.865463 45.939276, -33.885737 45.935067, -33.906002 45.930863, -33.926257 45.926662, -33.946503 45.922465, -33.966739 45.918273, -33.986966 45.914084, -34.007184 45.909900, -34.027392 45.905720, -34.047591 45.901544, -34.067780 45.897372, -34.087960 45.893204, -34.108131 45.889041, -34.128292 45.884881, -34.148444 45.880726, -34.168587 45.876575, -34.188720 45.872429, -34.208844 45.868287, -34.228958 45.864149, -34.249063 45.860015, -34.269159 45.855886, -34.289245 45.851761, -34.309321 45.847640, -34.329389 45.843524, -34.349447 45.839412, -34.369495 45.835304, -34.389535 45.831201, -34.409564 45.827102, -34.429585 45.823008, -34.449596 45.818918, -34.469597 45.814833, -34.489589 45.810752, -34.509572 45.806676, -34.529545 45.802604, -34.549509 45.798537, -34.569464 45.794474, -34.589409 45.790416, -34.609345 45.786363, -34.629271 45.782314, -34.649188 45.778270, -34.669095 45.774230, -34.688993 45.770195, -34.708882 45.766165, -34.728761 45.762139, -34.748631 45.758118, -34.768492 45.754102, -34.788343 45.750090, -34.808184 45.746083, -34.828016 45.742081, -34.847839 45.738084, -34.867652 45.734092, -34.887456 45.730104, -34.907251 45.726121, -34.927036 45.722143, -34.946812 45.718170, -34.966578 45.714202, -34.986335 45.710238, -35.006082 45.706280, -35.025820 45.702326, -35.045549 45.698377, -35.065268 45.694434, -35.084978 45.690495, -35.104678 45.686561, -35.124369 45.682632, -35.144051 45.678709, -35.163723 45.674790, -35.183386 45.670876, -35.203039 45.666967, -35.222683 45.663064, -35.242318 45.659165, -35.261943 45.655272, -35.281559 45.651383, -35.301165 45.647500, -35.320762 45.643622, -35.340349 45.639749, -35.359927 45.635881, -35.379496 45.632019, -35.399055 45.628161, -35.418605 45.624309, -35.438145 45.620462, -35.457676 45.616621, -35.477198 45.612784, -35.496710 45.608953, -35.516213 45.605127, -35.535706 45.601307, -35.555190 45.597492, -35.574665 45.593682, -35.594130 45.589878, -35.613586 45.586078, -35.633033 45.582285, -35.652470 45.578497, -35.671897 45.574714, -35.691315 45.570936, -35.710724 45.567164, -35.730124 45.563398, -35.749514 45.559637, -35.768894 45.555881, -35.788266 45.552131, -35.807628 45.548387, -35.826980 45.544648, -35.846323 45.540915, -35.865657 45.537187, -35.884981 45.533465, -35.904296 45.529748, -35.923602 45.526037, -35.942898 45.522332, -35.962185 45.518632, -35.981462 45.514938, -36.000730 45.511250, -36.019989 45.507567, -36.039238 45.503891, -36.058478 45.500219, -36.077709 45.496554, -36.096930 45.492894, -36.116142 45.489241, -36.135344 45.485593, -36.154537 45.481950, -36.173721 45.478314, -36.192895 45.474683, -36.212060 45.471059, -36.231216 45.467440, -36.250362 45.463827, -36.269499 45.460220, -36.288627 45.456619, -36.307745 45.453023, -36.326854 45.449434, -36.345953 45.445851, -36.365043 45.442273, -36.384124 45.438702, -36.403196 45.435137, -36.422258 45.431577, -36.441311 45.428024, -36.460354 45.424477, -36.479388 45.420936, -36.498413 45.417401, -36.517428 45.413872, -36.536435 45.410349, -36.555431 45.406833, -36.574419 45.403322, -36.593397 45.399818, -36.612366 45.396319, -36.631325 45.392827, -36.650276 45.389342, -36.669216 45.385862, -36.688148 45.382389, -36.707070 45.378922, -36.725983 45.375461, -36.744887 45.372007, -36.763781 45.368558, -36.782666 45.365117, -36.801542 45.361681, -36.820408 45.358252, -36.839266 45.354829, -36.858113 45.351413, -36.876952 45.348003, -36.895781 45.344599, -36.914601 45.341202, -36.933412 45.337811, -36.952213 45.334427, -36.971006 45.331049, -36.989788 45.327678, -37.008562 45.324313, -37.027326 45.320955, -37.046081 45.317603, -37.064827 45.314258, -37.083564 45.310919, -37.102291 45.307587, -37.121009 45.304262, -37.139718 45.300943, -37.158417 45.297631, -37.177108 45.294325, -37.195789 45.291026, -37.214460 45.287734, -37.233123 45.284449, -37.251776 45.281170, -37.270420 45.277898, -37.289055 45.274633, -37.307681 45.271374, -37.326297 45.268122, -37.344904 45.264877, -37.363502 45.261639, -37.382091 45.258408, -37.400671 45.255183, -37.419241 45.251965, -37.437802 45.248754, -37.456354 45.245550, -37.474897 45.242353, -37.493430 45.239163, -37.511955 45.235980, -37.530470 45.232804, -37.548976 45.229634, -37.567472 45.226472, -37.585960 45.223316, -37.604438 45.220168, -37.622907 45.217027, -37.641367 45.213892, -37.659818 45.210765, -37.678260 45.207645, -37.696693 45.204532, -37.715116 45.201425, -37.733530 45.198327, -37.751935 45.195235, -37.770331 45.192150, -37.788718 45.189073, -37.807096 45.186002, -37.825464 45.182939, -37.843824 45.179883, -37.862174 45.176834, -37.880515 45.173793, -37.898847 45.170759, -37.917170 45.167732, -37.935483 45.164712, -37.953788 45.161700, -37.972084 45.158694, -37.990370 45.155697, -38.008647 45.152706, -38.026916 45.149723, -38.045175 45.146748, -38.063425 45.143779, -38.081666 45.140818, -38.099898 45.137865, -38.118120 45.134919, -38.136334 45.131980, -38.154539 45.129049, -38.172734 45.126126, -38.190921 45.123209, -38.209098 45.120301, -38.227267 45.117400, -38.245426 45.114506, -38.263576 45.111620, -38.281718 45.108742, -38.299850 45.105871, -38.317973 45.103008, -38.336087 45.100152, -38.354192 45.097305, -38.372288 45.094464, -38.390375 45.091632, -38.408453 45.088807, -38.426523 45.085990, -38.444583 45.083180, -38.462634 45.080378, -38.480676 45.077584, -38.498709 45.074798, -38.516733 45.072020, -38.534748 45.069249, -38.552754 45.066486, -38.570751 45.063731, -38.588739 45.060984, -38.606718 45.058245, -38.624689 45.055513, -38.642650 45.052790, -38.660602 45.050074, -38.678545 45.047366, -38.696480 45.044667, -38.714405 45.041975, -38.732322 45.039291, -38.750229 45.036615, -38.768128 45.033947, -38.786018 45.031287, -38.803899 45.028636, -38.821770 45.025992, -38.839633 45.023356, -38.857487 45.020728, -38.875333 45.018109, -38.893169 45.015497, -38.910996 45.012894, -38.928815 45.010299, -38.946624 45.007712, -38.964425 45.005133, -38.982217 45.002562, -39.000000 45.000000, -39.017759 44.997447, -39.035527 44.994897, -39.053307 44.992351, -39.071096 44.989808, -39.088896 44.987268, -39.106706 44.984732, -39.124526 44.982199, -39.142357 44.979669, -39.160198 44.977142, -39.178049 44.974619, -39.195910 44.972099, -39.213782 44.969582, -39.231664 44.967069, -39.249556 44.964559, -39.267458 44.962051, -39.285371 44.959548, -39.303293 44.957047, -39.321226 44.954549, -39.339169 44.952055, -39.357123 44.949564, -39.375086 44.947076, -39.393060 44.944591, -39.411044 44.942109, -39.429038 44.939630, -39.447042 44.937155, -39.465056 44.934682, -39.483081 44.932213, -39.501115 44.929747, -39.519160 44.927283, -39.537215 44.924823, -39.555280 44.922366, -39.573355 44.919912, -39.591440 44.917461, -39.609535 44.915013, -39.627641 44.912567, -39.645756 44.910125, -39.663881 44.907686, -39.682017 44.905250, -39.700163 44.902817, -39.718318 44.900386, -39.736484 44.897959, -39.754660 44.895534, -39.772845 44.893113, -39.791041 44.890694, -39.809247 44.888278, -39.827463 44.885865, -39.845688 44.883455, -39.863924 44.881048, -39.882170 44.878644, -39.900426 44.876242, -39.918692 44.873843, -39.936967 44.871447, -39.955253 44.869054, -39.973548 44.866664, -39.991854 44.864277, -40.010169 44.861892, -40.028495 44.859510, -40.046830 44.857131, -40.065175 44.854754, -40.083530 44.852380, -40.101895 44.850009, -40.120270 44.847641, -40.138655 44.845275, -40.157050 44.842912, -40.175454 44.840552, -40.193869 44.838194, -40.212293 44.835839, -40.230727 44.833487, -40.249171 44.831137, -40.267625 44.828790, -40.286088 44.826445, -40.304562 44.824103, -40.323045 44.821764, -40.341538 44.819427, -40.360041 44.817093, -40.378553 44.814761, -40.397076 44.812432, -40.415608 44.810106, -40.434150 44.807782, -40.452701 44.805460, -40.471263 44.803141, -40.489834 44.800825, -40.508415 44.798511, -40.527005 44.796199, -40.545606 44.793890, -40.564216 44.791583, -40.582835 44.789279, -40.601465 44.786977, -40.620104 44.784678, -40.638752 44.782381, -40.657411 44.780086, -40.676079 44.777794, -40.694757 44.775504, -40.713444 44.773217, -40.732141 44.770932, -40.750848 44.768649, -40.769564 44.766369, -40.788290 44.764091, -40.807025 44.761815, -40.825770 44.759542, -40.844525 44.757271, -40.863289 44.755002, -40.882063 44.752735, -40.900846 44.750471, -40.919639 44.748209, -40.938442 44.745949, -40.957254 44.743691, -40.976076 44.741436, -40.994907 44.739183, -41.013747 44.736932, -41.032597 44.734683, -41.051457 44.732436, -41.070326 44.730192, -41.089205 44.727950, -41.108093 44.725710, -41.126990 44.723472, -41.145897 44.721236, -41.164814 44.719002, -41.183739 44.716771, -41.202675 44.714541, -41.221619 44.712314, -41.240574 44.710088, -41.259537 44.707865, -41.278510 44.705644, -41.297492 44.703425, -41.316484 44.701208, -41.335485 44.698992, -41.354496 44.696779, -41.373516 44.694568, -41.392545 44.692359, -41.411583 44.690152, -41.430631 44.687947, -41.449688 44.685744, -41.468755 44.683543, -41.487831 44.681343, -41.506916 44.679146, -41.526010 44.676951, -41.545114 44.674757, -41.564227 44.672566, -41.583349 44.670376, -41.602480 44.668188, -41.621621 44.666002, -41.640771 44.663818, -41.659930 44.661636, -41.679099 44.659456, -41.698276 44.657277, -41.717463 44.655101, -41.736659 44.652926, -41.755864 44.650753, -41.775079 44.648582, -41.794302 44.646412, -41.813535 44.644244, -41.832777 44.642078, -41.852028 44.639914, -41.871288 44.637752, -41.890557 44.635591, -41.909835 44.633432, -41.929123 44.631275, -41.948419 44.629119, -41.967725 44.626966, -41.987040 44.624813, -42.006363 44.622663, -42.025696 44.620514, -42.045038 44.618367, -42.064389 44.616221, -42.083749 44.614078, -42.103118 44.611935, -42.122496 44.609795, -42.141883 44.607656, -42.161279 44.605518, -42.180684 44.603382, -42.200098 44.601248, -42.219521 44.599115, -42.238953 44.596984, -42.258394 44.594855, -42.277843 44.592726, -42.297302 44.590600, -42.316770 44.588475, -42.336246 44.586351, -42.355732 44.584229, -42.375226 44.582109, -42.394729 44.579990, -42.414241 44.577872, -42.433762 44.575756, -42.453292 44.573641, -42.472831 44.571528, -42.492378 44.569416, -42.511935 44.567306, -42.531500 44.565197, -42.551074 44.563089, -42.570657 44.560983, -42.590248 44.558878, -42.609848 44.556775, -42.629458 44.554673, -42.649075 44.552572, -42.668702 44.550473, -42.688337 44.548375, -42.707981 44.546278, -42.727634 44.544183, -42.747296 44.542089, -42.766966 44.539996, -42.786645 44.537904, -42.806333 44.535814, -42.826029 44.533725, -42.845734 44.531637, -42.865447 44.529551, -42.885170 44.527466, -42.904900 44.525382, -42.924640 44.523299, -42.944388 44.521217, -42.964145 44.519137, -42.983910 44.517058, -43.003684 44.514980, -43.023466 44.512903, -43.043257 44.510827, -43.063057 44.508752, -43.082865 44.506679, -43.102682 44.504607, -43.122507 44.502536, -43.142341 44.500466, -43.162183 44.498397, -43.182034 44.496329, -43.201893 44.494262, -43.221760 44.492196, -43.241636 44.490132, -43.261521 44.488068, -43.281414 44.486006, -43.301316 44.483944, -43.321225 44.481884, -43.341144 44.479824, -43.361070 44.477766, -43.381005 44.475708, -43.400949 44.473652, -43.420901 44.471596, -43.440861 44.469542, -43.460829 44.467488, -43.480806 44.465436, -43.500791 44.463384, -43.520785 44.461334, -43.540787 44.459284, -43.560797 44.457235, -43.580815 44.455187, -43.600842 44.453140, -43.620877 44.451094, -43.640920 44.449048, -43.660972 44.447004, -43.681031 44.444960, -43.701099 44.442918, -43.721175 44.440876, -43.741260 44.438835, -43.761352 44.436795, -43.781453 44.434755, -43.801562 44.432716, -43.821679 44.430679, -43.841804 44.428642, -43.861937 44.426605, -43.882079 44.424570, -43.902228 44.422535, -43.922386 44.420501, -43.942552 44.418468, -43.962726 44.416435, -43.982908 44.414404, -44.003097 44.412373, -44.023296 44.410342, -44.043502 44.408312, -44.063716 44.406283, -44.083938 44.404255, -44.104168 44.402227, -44.124406 44.400200, -44.144652 44.398174, -44.164906 44.396148, -44.185168 44.394123, -44.205438 44.392099, -44.225716 44.390075, -44.246002 44.388052, -44.266296 44.386029, -44.286597 44.384007, -44.306907 44.381985, -44.327224 44.379964, -44.347550 44.377944, -44.367883 44.375924, -44.388224 44.373905, -44.408573 44.371886, -44.428930 44.369868, -44.449294 44.367850, -44.469666 44.365833, -44.490047 44.363816, -44.510435 44.361800, -44.530830 44.359784, -44.551234 44.357769, -44.571645 44.355754, -44.592064 44.353740, -44.612490 44.351726, -44.632925 44.349712, -44.653367 44.347699, -44.673817 44.345686, -44.694274 44.343674, -44.714739 44.341662, -44.735212 44.339651, -44.755692 44.337639, -44.776180 44.335629, -44.796676 44.333618, -44.817179 44.331608, -44.837690 44.329599, -44.858208 44.327589, -44.878734 44.325580, -44.899268 44.323571, -44.919809 44.321563, -44.940358 44.319555, -44.960914 44.317547, -44.981478 44.315540, -45.002049 44.313532, -45.022628 44.311525, -45.043214 44.309518, -45.063807 44.307512, -45.084408 44.305506, -45.105017 44.303500, -45.125633 44.301494, -45.146256 44.299488, -45.166887 44.297483, -45.187525 44.295478, -45.208171 44.293473, -45.228824 44.291468, -45.249484 44.289463, -45.270152 44.287459, -45.290827 44.285454, -45.311509 44.283450, -45.332198 44.281446, -45.352895 44.279442, -45.373600 44.277438, -45.394311 44.275434, -45.415030 44.273431, -45.435756 44.271427, -45.456489 44.269424, -45.477229 44.267420, -45.497977 44.265417, -45.518732 44.263414, -45.539494 44.261411, -45.560263 44.259407, -45.581039 44.257404, -45.601823 44.255401, -45.622613 44.253398, -45.643411 44.251395, -45.664216 44.249392, -45.685028 44.247389, -45.705847 44.245386, -45.726673 44.243383, -45.747506 44.241379, -45.768346 44.239376, -45.789193 44.237373, -45.810048 44.235370, -45.830909 44.233366, -45.851777 44.231363, -45.872652 44.229359, -45.893535 44.227355, -45.914424 44.225352, -45.935320 44.223348, -45.956223 44.221344, -45.977133 44.219340, -45.998050 44.217335, -46.018974 44.215331, -46.039904 44.213326, -46.060842 44.211322, -46.081786 44.209317, -46.102737 44.207312, -46.123695 44.205306, -46.144660 44.203301, -46.165632 44.201295, -46.186610 44.199290, -46.207596 44.197283, -46.228588 44.195277, -46.249586 44.193271, -46.270592 44.191264, -46.291604 44.189257, -46.312623 44.187250, -46.333649 44.185242, -46.354681 44.183234, -46.375720 44.181226, -46.396765 44.179218, -46.417818 44.177209, -46.438877 44.175200, -46.459942 44.173191, -46.481014 44.171181, -46.502093 44.169171, -46.523178 44.167161, -46.544270 44.165150, -46.565368 44.163139, -46.586473 44.161128, -46.607585 44.159116, -46.628703 44.157104, -46.649827 44.155091, -46.670958 44.153078, -46.692096 44.151065, -46.713239 44.149051, -46.734390 44.147037, -46.755546 44.145022, -46.776710 44.143007, -46.797879 44.140992, -46.819055 44.138976, -46.840237 44.136960, -46.861426 44.134943, -46.882621 44.132926, -46.903822 44.130908, -46.925030 44.128889, -46.946244 44.126871, -46.967464 44.124851, -46.988691 44.122832, -47.009924 44.120811, -47.031163 44.118790, -47.052408 44.116769, -47.073659 44.114747, -47.094917 44.112725, -47.116181 44.110701, -47.137451 44.108678, -47.158727 44.106654, -47.180010 44.104629, -47.201298 44.102603, -47.222593 44.100577, -47.243894 44.098551, -47.265201 44.096524, -47.286514 44.094496, -47.307833 44.092467, -47.329158 44.090438, -47.350489 44.088409, -47.371826 44.086378, -47.393169 44.084347, -47.414518 44.082315, -47.435873 44.080283, -47.457234 44.078250, -47.478601 44.076216, -47.499974 44.074182, -47.521353 44.072146, -47.542738 44.070111, -47.564129 44.068074, -47.585525 44.066037, -47.606928 44.063998, -47.628336 44.061960, -47.649750 44.059920, -47.671170 44.057880, -47.692596 44.055839, -47.714027 44.053797, -47.735465 44.051754, -47.756908 44.049711, -47.778357 44.047666, -47.799811 44.045621, -47.821271 44.043575, -47.842737 44.041529, -47.864209 44.039481, -47.885686 44.037433, -47.907169 44.035384, -47.928658 44.033334, -47.950152 44.031283, -47.971652 44.029231, -47.993158 44.027178, -48.014669 44.025125, -48.036186 44.023071, -48.057708 44.021015, -48.079236 44.018959, -48.100769 44.016902, -48.122308 44.014844, -48.143852 44.012785, -48.165402 44.010725, -48.186957 44.008664, -48.208518 44.006603, -48.230084 44.004540, -48.251655 44.002476, -48.273232 44.000412, -48.294815 43.998346, -48.316403 43.996280, -48.337996 43.994212, -48.359594 43.992144, -48.381198 43.990074, -48.402807 43.988004, -48.424421 43.985932, -48.446041 43.983860, -48.467666 43.981786, -48.489296 43.979711, -48.510932 43.977636, -48.532572 43.975559, -48.554218 43.973481, -48.575869 43.971402, -48.597526 43.969322, -48.619187 43.967241, -48.640853 43.965159, -48.662525 43.963076, -48.684202 43.960992, -48.705884 43.958906, -48.727571 43.956820, -48.749263 43.954732, -48.770960 43.952644, -48.792662 43.950554, -48.814369 43.948463, -48.836082 43.946371, -48.857799 43.944277, -48.879521 43.942183, -48.901248 43.940087, -48.922980 43.937990, -48.944717 43.935892, -48.966459 43.933793, -48.988206 43.931693, -49.009957 43.929591, -49.031714 43.927488, -49.053475 43.925384, -49.075242 43.923279, -49.097013 43.921173, -49.118788 43.919065, -49.140569 43.916956, -49.162354 43.914846, -49.184145 43.912735, -49.205939 43.910622, -49.227739 43.908508, -49.249543 43.906393, -49.271352 43.904276, -49.293166 43.902158, -49.314984 43.900039, -49.336807 43.897919, -49.358635 43.895797, -49.380467 43.893674, -49.402304 43.891550, -49.424145 43.889424, -49.445991 43.887297, -49.467842 43.885169, -49.489697 43.883039, -49.511556 43.880908, -49.533421 43.878775, -49.555289 43.876642, -49.577162 43.874507, -49.599039 43.872370, -49.620921 43.870232, -49.642808 43.868093, -49.664698 43.865952, -49.686593 43.863810, -49.708493 43.861666, -49.730396 43.859521, -49.752305 43.857375, -49.774217 43.855227, -49.796134 43.853078, -49.818055 43.850927, -49.839980 43.848775, -49.861909 43.846622, -49.883843 43.844466, -49.905781 43.842310, -49.927723 43.840152, -49.949670 43.837992, -49.971620 43.835831, -49.993575 43.833669, -50.015534 43.831505, -50.037497 43.829340, -50.059464 43.827173, -50.081435 43.825004, -50.103410 43.822834, -50.125389 43.820662, -50.147372 43.818489, -50.169360 43.816315, -50.191351 43.814138, -50.213346 43.811961, -50.235345 43.809781, -50.257349 43.807601, -50.279356 43.805418, -50.301367 43.803234, -50.323382 43.801048, -50.345400 43.798861, -50.367423 43.796672, -50.389449 43.794482, -50.411480 43.792290, -50.433514 43.790096, -50.455552 43.787901, -50.477594 43.785704, -50.499639 43.783506, -50.521688 43.781305, -50.543741 43.779104, -50.565798 43.776900, -50.587858 43.774695, -50.609922 43.772488, -50.631990 43.770280, -50.654061 43.768070, -50.676136 43.765858, -50.698215 43.763644, -50.720297 43.761429, -50.742383 43.759212, -50.764472 43.756994, -50.786565 43.754773, -50.808661 43.752551, -50.830761 43.750328, -50.852864 43.748102, -50.874971 43.745875, -50.897081 43.743646, -50.919195 43.741415, -50.941312 43.739183, -50.963433 43.736949, -50.985557 43.734713, -51.007684 43.732475, -51.029814 43.730236, -51.051948 43.727994, -51.074086 43.725751, -51.096226 43.723507, -51.118370 43.721260, -51.140517 43.719012, -51.162667 43.716761, -51.184821 43.714509, -51.206977 43.712255, -51.229137 43.710000, -51.251300 43.707742, -51.273467 43.705483, -51.295636 43.703222, -51.317809 43.700959, -51.339984 43.698694, -51.362163 43.696427, -51.384344 43.694159, -51.406529 43.691888, -51.428717 43.689616, -51.450908 43.687342, -51.473102 43.685066, -51.495298 43.682788, -51.517498 43.680508, -51.539701 43.678226, -51.561906 43.675942, -51.584115 43.673657, -51.606326 43.671369, -51.628540 43.669080, -51.650758 43.666789, -51.672977 43.664495, -51.695200 43.662200, -51.717426 43.659903, -51.739654 43.657604, -51.761885 43.655303, -51.784119 43.653000, -51.806355 43.650695, -51.828594 43.648388, -51.850836 43.646079, -51.873081 43.643769, -51.895328 43.641456, -51.917578 43.639141, -51.939830 43.636824, -51.962085 43.634505, -51.984343 43.632185, -52.006603 43.629862, -52.028866 43.627537, -52.051131 43.625210, -52.073399 43.622881, -52.095669 43.620550, -52.117942 43.618218, -52.140217 43.615883, -52.162494 43.613546, -52.184774 43.611207, -52.207057 43.608866, -52.229342 43.606523, -52.251629 43.604177, -52.273918 43.601830, -52.296210 43.599481, -52.318504 43.597129, -52.340800 43.594776, -52.363099 43.592420, -52.385399 43.590063, -52.407703 43.587703, -52.430008 43.585341, -52.452315 43.582977, -52.474625 43.580611, -52.496937 43.578243, -52.519250 43.575873, -52.541566 43.573501, -52.563885 43.571126, -52.586205 43.568749, -52.608527 43.566371, -52.630851 43.563990, -52.653177 43.561607, -52.675506 43.559222, -52.697836 43.556834, -52.720168 43.554445, -52.742502 43.552053, -52.764838 43.549659, -52.787176 43.547263, -52.809516 43.544865, -52.831858 43.542465, -52.854202 43.540062, -52.876547 43.537657, -52.898894 43.535251, -52.921243 43.532841, -52.943594 43.530430, -52.965947 43.528017, -52.988301 43.525601, -53.010657 43.523183, -53.033015 43.520763, -53.055374 43.518340, -53.077735 43.515916, -53.100098 43.513489, -53.122462 43.511060, -53.144828 43.508628, -53.167196 43.506195, -53.189565 43.503759, -53.211935 43.501321, -53.234307 43.498881, -53.256681 43.496438, -53.279056 43.493993, -53.301433 43.491546, -53.323811 43.489097, -53.346190 43.486645, -53.368571 43.484191, -53.390953 43.481735, -53.413337 43.479276, -53.435722 43.476815, -53.458108 43.474352, -53.480496 43.471887, -53.502885 43.469419, -53.525275 43.466949, -53.547667 43.464476, -53.570059 43.462002, -53.592453 43.459525, -53.614848 43.457045, -53.637245 43.454564, -53.659642 43.452080, -53.682041 43.449593, -53.704440 43.447105, -53.726841 43.444614, -53.749243 43.442120, -53.771646 43.439625, -53.794050 43.437126, -53.816455 43.434626, -53.838861 43.432123, -53.861268 43.429618, -53.883676 43.427110, -53.906085 43.424601, -53.928495 43.422088, -53.950906 43.419573, -53.973317 43.417056, -53.995730 43.414537, -54.018143 43.412015, -54.040557 43.409491, -54.062972 43.406964, -54.085388 43.404435, -54.107804 43.401904, -54.130222 43.399370, -54.152640 43.396833, -54.175058 43.394295, -54.197478 43.391753, -54.219898 43.389210, -54.242318 43.386664, -54.264740 43.384115, -54.287162 43.381564, -54.309584 43.379011, -54.332007 43.376455, -54.354431 43.373897, -54.376855 43.371336, -54.399280 43.368773, -54.421705 43.366208, -54.444131 43.363640, -54.466557 43.361069, -54.488983 43.358496, -54.511410 43.355921, -54.533838 43.353343, -54.556265 43.350762, -54.578693 43.348180, -54.601122 43.345594, -54.623550 43.343006, -54.645979 43.340416, -54.668409 43.337823, -54.690838 43.335228, -54.713268 43.332630, -54.735698 43.330030, -54.758128 43.327427, -54.780558 43.324821, -54.802989 43.322214, -54.825419 43.319603, -54.847850 43.316990, -54.870281 43.314375, -54.892712 43.311757, -54.915142 43.309136, -54.937573 43.306513, -54.960004 43.303888, -54.982435 43.301260, -55.004866 43.298629, -55.027297 43.295996, -55.049728 43.293360, -55.072158 43.290722, -55.094589 43.288081, -55.117019 43.285438, -55.139450 43.282792, -55.161880 43.280143, -55.184310 43.277492, -55.206739 43.274839, -55.229169 43.272182, -55.251598 43.269524, -55.274027 43.266862, -55.296456 43.264198, -55.318884 43.261532, -55.341312 43.258863, -55.363740 43.256191, -55.386167 43.253517, -55.408594 43.250840, -55.431020 43.248161, -55.453446 43.245479, -55.475872 43.242794, -55.498297 43.240107, -55.520721 43.237417, -55.543145 43.234725, -55.565569 43.232030, -55.587992 43.229332, -55.610414 43.226632, -55.632836 43.223929, -55.655257 43.221223, -55.677678 43.218515, -55.700097 43.215804, -55.722517 43.213091, -55.744935 43.210375, -55.767353 43.207656, -55.789770 43.204935, -55.812186 43.202211, -55.834601 43.199484, -55.857016 43.196755, -55.879430 43.194023, -55.901843 43.191289, -55.924255 43.188552, -55.946666 43.185812, -55.969076 43.183070, -55.991486 43.180325, -56.013894 43.177577, -56.036301 43.174826, -56.058708 43.172073, -56.081113 43.169318, -56.103518 43.166559, -56.125921 43.163798, -56.148323 43.161034, -56.170724 43.158268, -56.193124 43.155499, -56.215523 43.152727, -56.237921 43.149953, -56.260318 43.147175, -56.282713 43.144396, -56.305107 43.141613, -56.327500 43.138828, -56.349892 43.136040, -56.372282 43.133250, -56.394671 43.130456, -56.417059 43.127660, -56.439445 43.124862, -56.461830 43.122060, -56.484214 43.119256, -56.506596 43.116450, -56.528977 43.113640, -56.551356 43.110828, -56.573734 43.108013, -56.596111 43.105196, -56.618485 43.102375, -56.640859 43.099552, -56.663231 43.096726, -56.685601 43.093898, -56.707969 43.091067, -56.730336 43.088233, -56.752702 43.085396, -56.775066 43.082557, -56.797428 43.079715, -56.819788 43.076870, -56.842146 43.074023, -56.864503 43.071173, -56.886858 43.068320, -56.909212 43.065464, -56.931563 43.062605, -56.953913 43.059744, -56.976261 43.056880, -56.998607 43.054014, -57.020951 43.051144, -57.043293 43.048272, -57.065633 43.045397, -57.087972 43.042520, -57.110308 43.039639, -57.132642 43.036756, -57.154975 43.033870, -57.177305 43.030982, -57.199633 43.028090, -57.221959 43.025196, -57.244283 43.022299, -57.266605 43.019400, -57.288925 43.016497, -57.311243 43.013592, -57.333558 43.010684, -57.355871 43.007773, -57.378182 43.004860, -57.400491 43.001944, -57.422797 42.999025, -57.445102 42.996103, -57.467404 42.993178, -57.489703 42.990251, -57.512000 42.987321, -57.534295 42.984388, -57.556588 42.981453, -57.578878 42.978514, -57.601165 42.975573, -57.623450 42.972629, -57.645733 42.969682, -57.668013 42.966733, -57.690291 42.963781, -57.712566 42.960826, -57.734838 42.957868, -57.757108 42.954907, -57.779376 42.951944, -57.801640 42.948978, -57.823902 42.946009, -57.846162 42.943037, -57.868418 42.940062, -57.890672 42.937085, -57.912924 42.934105, -57.935172 42.931122, -57.957418 42.928136, -57.979661 42.925148, -58.001901 42.922156, -58.024138 42.919162, -58.046372 42.916165, -58.068604 42.913166, -58.090832 42.910163, -58.113058 42.907158, -58.135281 42.904150, -58.157501 42.901139, -58.179717 42.898126, -58.201931 42.895109, -58.224142 42.892090, -58.246350 42.889068, -58.268554 42.886043, -58.290756 42.883015, -58.312954 42.879985, -58.335149 42.876952, -58.357341 42.873915, -58.379530 42.870877, -58.401716 42.867835, -58.423898 42.864790, -58.446078 42.861743, -58.468254 42.858693, -58.490426 42.855640, -58.512596 42.852585, -58.534762 42.849526, -58.556924 42.846465, -58.579084 42.843401, -58.601240 42.840334, -58.623392 42.837264, -58.645541 42.834191, -58.667687 42.831116, -58.689829 42.828038, -58.711968 42.824957, -58.734103 42.821873, -58.756234 42.818787, -58.778362 42.815697, -58.800487 42.812605, -58.822608 42.809510, -58.844725 42.806412, -58.866838 42.803312, -58.888948 42.800208, -58.911054 42.797102, -58.933157 42.793993, -58.955255 42.790881, -58.977350 42.787766, -58.999442 42.784649, -59.021529 42.781528, -59.043613 42.778405, -59.065692 42.775279, -59.087768 42.772151, -59.109840 42.769019, -59.131908 42.765885, -59.153972 42.762748, -59.176032 42.759608, -59.198089 42.756465, -59.220141 42.753319, -59.242189 42.750171, -59.264233 42.747020, -59.286273 42.743866, -59.308309 42.740709, -59.330341 42.737549, -59.352369 42.734387, -59.374393 42.731221, -59.396412 42.728053, -59.418427 42.724882, -59.440438 42.721709, -59.462445 42.718532, -59.484448 42.715353, -59.506446 42.712171, -59.528440 42.708986, -59.550430 42.705798, -59.572415 42.702607, -59.594397 42.699414, -59.616373 42.696218, -59.638345 42.693019, -59.660313 42.689817, -59.682277 42.686612, -59.704236 42.683405, -59.726190 42.680195, -59.748140 42.676982, -59.770085 42.673766, -59.792026 42.670547, -59.813963 42.667326, -59.835894 42.664102, -59.857821 42.660875, -59.879744 42.657645, -59.901662 42.654412, -59.923575 42.651177, -59.945483 42.647939, -59.967387 42.644698, -59.989286 42.641454, -60.011180 42.638207, -60.033069 42.634958, -60.054954 42.631706, -60.076834 42.628451, -60.098709 42.625193, -60.120579 42.621932, -60.142444 42.618669, -60.164304 42.615403, -60.186159 42.612134, -60.208010 42.608862, -60.229855 42.605588, -60.251695 42.602310, -60.273531 42.599030, -60.295361 42.595747, -60.317186 42.592462, -60.339006 42.589173, -60.360821 42.585882, -60.382631 42.582588, -60.404436 42.579291, -60.426236 42.575992, -60.448030 42.572689, -60.469819 42.569384, -60.491603 42.566076, -60.513382 42.562766, -60.535155 42.559452, -60.556923 42.556136, -60.578686 42.552817, -60.600444 42.549495, -60.622196 42.546170, -60.643942 42.542843, -60.665684 42.539513, -60.687419 42.536180, -60.709150 42.532844, -60.730875 42.529506, -60.752594 42.526165, -60.774308 42.522821, -60.796017 42.519474, -60.817719 42.516125, -60.839417 42.512773, -60.861108 42.509418, -60.882794 42.506060, -60.904475 42.502699, -60.926149 42.499336, -60.947818 42.495970, -60.969482 42.492601, -60.991139 42.489230, -61.012791 42.485856, -61.034437 42.482479, -61.056078 42.479099, -61.077712 42.475717, -61.099341 42.472331, -61.120964 42.468943, -61.142581 42.465553, -61.164192 42.462159, -61.185797 42.458763, -61.207396 42.455364, -61.228989 42.451963, -61.250576 42.448558, -61.272157 42.445151, -61.293733 42.441741, -61.315302 42.438329, -61.336865 42.434913, -61.358422 42.431495, -61.379973 42.428075, -61.401517 42.424651, -61.423056 42.421225, -61.444588 42.417796, -61.466115 42.414365, -61.487635 42.410930, -61.509148 42.407493, -61.530656 42.404053, -61.552157 42.400611, -61.573652 42.397166, -61.595141 42.393718, -61.616623 42.390267, -61.638099 42.386814, -61.659568 42.383358, -61.681031 42.379900, -61.702488 42.376438, -61.723938 42.372974, -61.745382 42.369507, -61.766819 42.366038, -61.788250 42.362566, -61.809674 42.359091, -61.831091 42.355614, -61.852502 42.352133, -61.873907 42.348651, -61.895305 42.345165, -61.916696 42.341677, -61.938080 42.338186, -61.959458 42.334693, -61.980829 42.331196, -62.002194 42.327697, -62.023551 42.324196, -62.044902 42.320692, -62.066246 42.317185, -62.087584 42.313675, -62.108914 42.310163, -62.130238 42.306648, -62.151554 42.303131, -62.172864 42.299611, -62.194167 42.296088, -62.215463 42.292562, -62.236752 42.289034, -62.258034 42.285504, -62.279309 42.281970, -62.300577 42.278434, -62.321838 42.274896, -62.343092 42.271354, -62.364339 42.267810, -62.385578 42.264264, -62.406811 42.260715, -62.428036 42.257163, -62.449254 42.253609, -62.470465 42.250052, -62.491669 42.246492, -62.512866 42.242930, -62.534055 42.239365, -62.555237 42.235798, -62.576412 42.232227, -62.597579 42.228655, -62.618740 42.225080, -62.639892 42.221502, -62.661038 42.217921, -62.682176 42.214338, -62.703306 42.210753, -62.724429 42.207164, -62.745545 42.203574, -62.766653 42.199980, -62.787754 42.196384, -62.808847 42.192786, -62.829932 42.189185, -62.851010 42.185581, -62.872081 42.181975, -62.893144 42.178366, -62.914199 42.174754, -62.935246 42.171140, -62.956286 42.167524, -62.977318 42.163905, -62.998343 42.160283, -63.019359 42.156659, -63.040368 42.153032, -63.061370 42.149403, -63.082363 42.145771, -63.103348 42.142137, -63.124326 42.138500, -63.145296 42.134861, -63.166258 42.131219, -63.187212 42.127574, -63.208158 42.123927, -63.229096 42.120278, -63.250026 42.116626, -63.270949 42.112971, -63.291863 42.109314, -63.312769 42.105655, -63.333667 42.101993, -63.354557 42.098328, -63.375439 42.094661, -63.396313 42.090991, -63.417179 42.087319, -63.438037 42.083645, -63.458886 42.079968, -63.479727 42.076288, -63.500560 42.072606, -63.521385 42.068922, -63.542202 42.065235, -63.563010 42.061545, -63.583810 42.057854, -63.604601 42.054159, -63.625385 42.050462, -63.646160 42.046763, -63.666926 42.043061, -63.687684 42.039357, -63.708434 42.035651, -63.729175 42.031941, -63.749908 42.028230, -63.770633 42.024516, -63.791348 42.020800, -63.812056 42.017081, -63.832754 42.013359, -63.853445 42.009636, -63.874126 42.005910, -63.894799 42.002181, -63.915464 41.998450, -63.936119 41.994717, -63.956767 41.990981, -63.977405 41.987243, -63.998035 41.983502, -64.018656 41.979759, -64.039268 41.976014, -64.059871 41.972266, -64.080466 41.968516, -64.101052 41.964763, -64.121629 41.961008, -64.142197 41.957251, -64.162756 41.953491, -64.183307 41.949729, -64.203848 41.945965, -64.224381 41.942198, -64.244904 41.938429, -64.265419 41.934657, -64.285925 41.930883, -64.306421 41.927107, -64.326909 41.923329, -64.347387 41.919548, -64.367857 41.915764, -64.388317 41.911979, -64.408768 41.908191, -64.429210 41.904401, -64.449643 41.900608, -64.470067 41.896813, -64.490482 41.893016, -64.510887 41.889217, -64.531283 41.885415, -64.551670 41.881611, -64.572048 41.877804, -64.592416 41.873995, -64.612775 41.870184, -64.633125 41.866371, -64.653465 41.862555, -64.673796 41.858738, -64.694117 41.854917, -64.714429 41.851095, -64.734732 41.847270, -64.755025 41.843443, -64.775309 41.839614, -64.795583 41.835782, -64.815848 41.831949, -64.836103 41.828113, -64.856349 41.824274, -64.876585 41.820434, -64.896811 41.816591, -64.917028 41.812746, -64.937235 41.808899, -64.957433 41.805049, -64.977620 41.801198, -64.997799 41.797344, -65.017967 41.793488, -65.038126 41.789629, -65.058275 41.785769, -65.078414 41.781906, -65.098543 41.778041, -65.118662 41.774174, -65.138772 41.770305, -65.158872 41.766433, -65.178962 41.762560, -65.199042 41.758684, -65.219112 41.754806, -65.239172 41.750926, -65.259223 41.747043, -65.279263 41.743159, -65.299293 41.739272, -65.319313 41.735383, -65.339323 41.731492, -65.359324 41.727599, -65.379314 41.723704, -65.399294 41.719806, -65.419264 41.715907, -65.439223 41.712005, -65.459173 41.708101, -65.479112 41.704195, -65.499041 41.700287, -65.518960 41.696377, -65.538869 41.692465, -65.558768 41.688550, -65.578656 41.684634, -65.598534 41.680715, -65.618401 41.676795, -65.638259 41.672872, -65.658106 41.668947, -65.677942 41.665020, -65.697768 41.661091, -65.717584 41.657160, -65.737390 41.653227, -65.757184 41.649292, -65.776969 41.645355, -65.796743 41.641416, -65.816506 41.637474, -65.836259 41.633531, -65.856002 41.629586, -65.875733 41.625638, -65.895455 41.621689, -65.915165 41.617737, -65.934865 41.613784, -65.954554 41.609828, -65.974233 41.605871, -65.993901 41.601911, -66.013558 41.597950, -66.033205 41.593987, -66.052841 41.590021, -66.072466 41.586054, -66.092080 41.582084, -66.111684 41.578113, -66.131276 41.574139, -66.150858 41.570164, -66.170429 41.566187, -66.189989 41.562207, -66.209539 41.558226, -66.229077 41.554243, -66.248604 41.550258, -66.268121 41.546271, -66.287626 41.542282, -66.307121 41.538291, -66.326604 41.534298, -66.346076 41.530303, -66.365538 41.526307, -66.384988 41.522308, -66.404427 41.518308, -66.423855 41.514305, -66.443272 41.510301, -66.462678 41.506295, -66.482073 41.502287, -66.501456 41.498277, -66.520829 41.494265, -66.540190 41.490251, -66.559540 41.486236, -66.578878 41.482218, -66.598206 41.478199, -66.617522 41.474178, -66.636826 41.470155, -66.656120 41.466130, -66.675402 41.462103, -66.694672 41.458075, -66.713932 41.454045, -66.733179 41.450012, -66.752416 41.445978, -66.771641 41.441943, -66.790854 41.437905, -66.810056 41.433866, -66.829247 41.429825, -66.848426 41.425782, -66.867593 41.421737, -66.886749 41.417690, -66.905894 41.413642, -66.925026 41.409592, -66.944148 41.405540, -66.963257 41.401487, -66.982355 41.397431, -67.001441 41.393374, -67.020516 41.389315, -67.039578 41.385255, -67.058629 41.381192, -67.077669 41.377128, -67.096696 41.373062, -67.115712 41.368995, -67.134716 41.364926, -67.153708 41.360855, -67.172688 41.356782, -67.191657 41.352708, -67.210613 41.348632, -67.229558 41.344554, -67.248491 41.340475, -67.267412 41.336394, -67.286321 41.332311, -67.305218 41.328226, -67.324102 41.324140, -67.342975 41.320053, -67.361836 41.315963, -67.380685 41.311872, -67.399522 41.307779, -67.418347 41.303685, -67.437159 41.299589, -67.455960 41.295492, -67.474748 41.291392, -67.493524 41.287291, -67.512289 41.283189, -67.531040 41.279085, -67.549780 41.274979, -67.568508 41.270872, -67.587223 41.266763, -67.605926 41.262653, -67.624616 41.258541, -67.643295 41.254427, -67.661961 41.250312, -67.680614 41.246196, -67.699256 41.242077, -67.717885 41.237958, -67.736501 41.233836, -67.755106 41.229713, -67.773697 41.225589, -67.792277 41.221463, -67.810844 41.217336, -67.829398 41.213207, -67.847940 41.209076, -67.866469 41.204944, -67.884986 41.200811, -67.903491 41.196676, -67.921982 41.192539, -67.940462 41.188401, -67.958928 41.184262, -67.977382 41.180121, -67.995823 41.175978, -68.014252 41.171835, -68.032668 41.167689, -68.051071 41.163542, -68.069462 41.159394, -68.087840 41.155245, -68.106205 41.151093, -68.124557 41.146941, -68.142897 41.142787, -68.161223 41.138632, -68.179537 41.134475, -68.197838 41.130317, -68.216127 41.126157, -68.234402 41.121996, -68.252664 41.117834, -68.270914 41.113670, -68.289151 41.109505, -68.307374 41.105338, -68.325585 41.101170, -68.343783 41.097001, -68.361968 41.092831, -68.380139 41.088659, -68.398298 41.084485, -68.416444 41.080311, -68.434577 41.076135, -68.452696 41.071958, -68.470803 41.067779, -68.488896 41.063599, -68.506976 41.059418, -68.525043 41.055235, -68.543097 41.051051, -68.561138 41.046866, -68.579165 41.042680, -68.597180 41.038492, -68.615181 41.034303, -68.633168 41.030113, -68.651143 41.025921, -68.669104 41.021729, -68.687052 41.017535, -68.704987 41.013339, -68.722908 41.009143, -68.740816 41.004945, -68.758710 41.000746, -68.776591 40.996546, -68.794459 40.992344, -68.812313 40.988142, -68.830154 40.983938, -68.847981 40.979733, -68.865795 40.975527, -68.883596 40.971319, -68.901383 40.967111, -68.919156 40.962901, -68.936916 40.958690, -68.954662 40.954478, -68.972395 40.950264, -68.990114 40.946050, -69.007819 40.941834, -69.025511 40.937618, -69.043189 40.933400, -69.060854 40.929181, -69.078504 40.924961, -69.096141 40.920740, -69.113765 40.916517, -69.131374 40.912294, -69.148970 40.908069, -69.166552 40.903844, -69.184121 40.899617, -69.201675 40.895389, -69.219216 40.891160, -69.236743 40.886930, -69.254256 40.882699, -69.271755 40.878467, -69.289240 40.874234, -69.306712 40.870000, -69.324169 40.865765, -69.341613 40.861528, -69.359042 40.857291, -69.376458 40.853053, -69.393859 40.848813, -69.411247 40.844573, -69.428620 40.840332, -69.445980 40.836089, -69.463325 40.831846, -69.480657 40.827602, -69.497974 40.823357, -69.515277 40.819110, -69.532566 40.814863, -69.549841 40.810615, -69.567102 40.806366, -69.584349 40.802116, -69.601581 40.797865, -69.618800 40.793613, -69.636004 40.789360, -69.653193 40.785106, -69.670369 40.780851, -69.687530 40.776596, -69.704677 40.772339, -69.721810 40.768081, -69.738928 40.763823, -69.756032 40.759564, -69.773122 40.755304, -69.790197 40.751043, -69.807258 40.746781, -69.824305 40.742518, -69.841337 40.738255, -69.858354 40.733990, -69.875358 40.729725, -69.892346 40.725459, -69.909321 40.721192, -69.926281 40.716924, -69.943226 40.712655, -69.960157 40.708386, -69.977073 40.704116, -69.993974 40.699845, -70.010862 40.695573, -70.027734 40.691300, -70.044592 40.687027, -70.061435 40.682752, -70.078264 40.678478, -70.095078 40.674202, -70.111877 40.669925, -70.128662 40.665648, -70.145431 40.661370, -70.162187 40.657091, -70.178927 40.652812, -70.195653 40.648532, -70.212363 40.644251, -70.229060 40.639969, -70.245741 40.635687, -70.262407 40.631404, -70.279059 40.627120, -70.295696 40.622836, -70.312318 40.618551, -70.328925 40.614265, -70.345517 40.609978, -70.362094 40.605691, -70.378657 40.601404, -70.395204 40.597115, -70.411736 40.592826, -70.428254 40.588536, -70.444756 40.584246, -70.461244 40.579955, -70.477716 40.575663, -70.494174 40.571371, -70.510616 40.567078, -70.527043 40.562785, -70.543455 40.558491, -70.559852 40.554196, -70.576234 40.549901, -70.592601 40.545606, -70.608953 40.541309, -70.625289 40.537012, -70.641611 40.532715, -70.657917 40.528417, -70.674208 40.524118, -70.690484 40.519819, -70.706744 40.515520, -70.722989 40.511219, -70.739219 40.506919, -70.755434 40.502618, -70.771633 40.498316, -70.787817 40.494014, -70.803986 40.489711, -70.820139 40.485408, -70.836277 40.481104, -70.852400 40.476800, -70.868507 40.472495, -70.884599 40.468190, -70.900675 40.463885, -70.916736 40.459579, -70.932782 40.455273, -70.948812 40.450966, -70.964826 40.446658, -70.980826 40.442351, -70.996809 40.438043, -71.012777 40.433734, -71.028729 40.429425, -71.044666 40.425116, -71.060588 40.420806, -71.076493 40.416496, -71.092384 40.412185, -71.108258 40.407875, -71.124117 40.403563, -71.139960 40.399252, -71.155788 40.394940, -71.171600 40.390627, -71.187396 40.386315, -71.203176 40.382002, -71.218941 40.377688, -71.234690 40.373375, -71.250423 40.369061, -71.266141 40.364747, -71.281842 40.360432, -71.297528 40.356117, -71.313198 40.351802, -71.328852 40.347487, -71.344491 40.343171, -71.360113 40.338855, -71.375720 40.334539, -71.391311 40.330222, -71.406886 40.325905, -71.422445 40.321588, -71.437988 40.317271, -71.453515 40.312954, -71.469026 40.308636, -71.484521 40.304318, -71.500000 40.300000, -71.515596 40.295762, -71.531384 40.291697, -71.547360 40.287805, -71.563521 40.284083, -71.579863 40.280529, -71.596385 40.277140, -71.613083 40.273916, -71.629953 40.270852, -71.646993 40.267949, -71.664200 40.265202, -71.681570 40.262611, -71.699101 40.260174, -71.716789 40.257887, -71.734631 40.255750, -71.752625 40.253759, -71.770767 40.251914, -71.789055 40.250211, -71.807484 40.248649, -71.826053 40.247226, -71.844757 40.245940, -71.863595 40.244788, -71.882562 40.243769, -71.901656 40.242880, -71.920874 40.242120, -71.940212 40.241486, -71.959668 40.240977, -71.979239 40.240590, -71.998920 40.240323, -72.018711 40.240175, -72.038606 40.240143, -72.058604 40.240225, -72.078701 40.240419, -72.098894 40.240723, -72.119180 40.241136, -72.139556 40.241654, -72.160018 40.242277, -72.180564 40.243002, -72.201191 40.243827, -72.221895 40.244750, -72.242673 40.245769, -72.263523 40.246882, -72.284441 40.248087, -72.305424 40.249382, -72.326468 40.250765, -72.347572 40.252234, -72.368731 40.253787, -72.389943 40.255423, -72.411204 40.257138, -72.432511 40.258931, -72.453861 40.260801, -72.475251 40.262745, -72.496678 40.264760, -72.518139 40.266846, -72.539630 40.269001, -72.561148 40.271221, -72.582690 40.273506, -72.604254 40.275853, -72.625835 40.278260, -72.647431 40.280726, -72.669038 40.283248, -72.690653 40.285824, -72.712273 40.288453, -72.733895 40.291133, -72.755516 40.293861, -72.777132 40.296635, -72.798740 40.299455, -72.820337 40.302317, -72.841919 40.305220, -72.863484 40.308161, -72.885029 40.311140, -72.906549 40.314154, -72.928042 40.317200, -72.949505 40.320278, -72.970933 40.323385, -72.992325 40.326519, -73.013676 40.329679, -73.034984 40.332861, -73.056245 40.336066, -73.077455 40.339290, -73.098612 40.342531, -73.119713 40.345788, -73.140753 40.349059, -73.161730 40.352342, -73.182641 40.355635, -73.203481 40.358936, -73.224248 40.362243, -73.244938 40.365555, -73.265549 40.368868, -73.286076 40.372183, -73.306517 40.375495, -73.326867 40.378805, -73.347125 40.382109, -73.367285 40.385406, -73.387346 40.388694, -73.407303 40.391971, -73.427154 40.395235, -73.446894 40.398484, -73.466521 40.401717, -73.486031 40.404931, -73.505421 40.408125, -73.524687 40.411297, -73.543826 40.414445, -73.562835 40.417567, -73.581710 40.420660, -73.600447 40.423725, -73.619045 40.426757, -73.637498 40.429756, -73.655803 40.432720, -73.673958 40.435646, -73.691959 40.438533, -73.709802 40.441379, -73.727484 40.444183, -73.745001 40.446942, -73.762350 40.449654, -73.779528 40.452318, -73.796532 40.454931, -73.813357 40.457493, -73.830000 40.460000, -73.845339 40.463531, -73.859546 40.469217, -73.872708 40.476855, -73.884909 40.486244, -73.896234 40.497183, -73.906768 40.509469, -73.916595 40.522902, -73.925800 40.537279, -73.934466 40.552398, -73.942677 40.568057, -73.950519 40.584056, -73.958074 40.600191, -73.965427 40.616261, -73.972661 40.632064, -73.979862 40.647398, -73.987112 40.662060, -73.994496 40.675849, -74.002097 40.688563, -74.010000 40.700000)
