LINESTRING (-1.400000 50.910000, -1.387361 50.903351, -1.374725 50.896701, -1.362093 50.890049, -1.349464 50.883396, -1.336839 50.876741, -1.324218 50.870085, -1.311600 50.863428, -1.298986 50.856770, -1.286375 50.850110, -1.273768 50.843449, -1.261165 50.836786, -1.248565 50.830122, -1.235969 50.823457, -1.223377 50.816790, -1.210788 50.810122, -1.198202 50.803453, -1.185620 50.796782, -1.173042 50.790110, -1.160468 50.783436, -1.147897 50.776761, -1.135329 50.770085, -1.122765 50.763408, -1.110205 50.756729, -1.097648 50.750049, -1.085095 50.743367, -1.072546 50.736684, -1.060000 50.730000, -1.065255 50.720012, -1.070508 50.710025, -1.075759 50.700037, -1.081008 50.690048, -1.086254 50.680060, -1.091499 50.670071, -1.096741 50.660082, -1.101980 50.650093, -1.107218 50.640103, -1.112453 50.630113, -1.117686 50.620123, -1.122917 50.610133, -1.128146 50.600143, -1.133372 50.590152, -1.138596 50.580161, -1.143818 50.570170, -1.149038 50.560179, -1.154255 50.550187, -1.159471 50.540195, -1.164684 50.530203, -1.169895 50.520211, -1.175103 50.510219, -1.180310 50.500226, -1.185514 50.490233, -1.190716 50.480240, -1.195916 50.470246, -1.201114 50.460253, -1.206309 50.450259, -1.211502 50.440265, -1.216694 50.430270, -1.221882 50.420276, -1.227069 50.410281, -1.232254 50.400286, -1.237436 50.390290, -1.242616 50.380295, -1.247794 50.370299, -1.252970 50.360303, -1.258144 50.350307, -1.263315 50.340310, -1.268484 50.330314, -1.273651 50.320317, -1.278816 50.310320, -1.283979 50.300322, -1.289140 50.290325, -1.294298 50.280327, -1.299454 50.270329, -1.304608 50.260331, -1.309760 50.250332, -1.314910 50.240334, -1.320058 50.230335, -1.325203 50.220335, -1.330346 50.210336, -1.335487 50.200336, -1.340626 50.190336, -1.345763 50.180336, -1.350898 50.170336, -1.356030 50.160336, -1.361161 50.150335, -1.366289 50.140334, -1.371415 50.130333, -1.376539 50.120331, -1.381661 50.110329, -1.386780 50.100328, -1.391898 50.090325, -1.397013 50.080323, -1.402127 50.070321, -1.407238 50.060318, -1.412347 50.050315, -1.417454 50.040311, -1.422558 50.030308, -1.427661 50.020304, -1.432761 50.010300, -1.437860 50.000296, -1.442956 49.990292, -1.448050 49.980287, -1.453142 49.970283, -1.458232 49.960277, -1.463320 49.950272, -1.468405 49.940267, -1.473489 49.930261, -1.478570 49.920255, -1.483650 49.910249, -1.488727 49.900243, -1.493802 49.890236, -1.498875 49.880229, -1.503946 49.870222, -1.509015 49.860215, -1.514081 49.850208, -1.519146 49.840200, -1.524209 49.830192, -1.529269 49.820184, -1.534327 49.810175, -1.539384 49.800167, -1.544438 49.790158, -1.549490 49.780149, -1.554540 49.770140, -1.559588 49.760130, -1.564633 49.750121, -1.569677 49.740111, -1.574719 49.730101, -1.579758 49.720090, -1.584796 49.710080, -1.589831 49.700069, -1.594864 49.690058, -1.599896 49.680047, -1.604925 49.670036, -1.609952 49.660024, -1.614977 49.650012, -1.620000 49.640000, -1.636288 49.640268, -1.652577 49.640533, -1.668866 49.640797, -1.685155 49.641058, -1.701444 49.641316, -1.717734 49.641573, -1.734023 49.641827, -1.750313 49.642079, -1.766603 49.642329, -1.782893 49.642576, -1.799183 49.642821, -1.815473 49.643064, -1.831764 49.643304, -1.848054 49.643542, -1.864345 49.643778, -1.880636 49.644012, -1.896927 49.644243, -1.913219 49.644472, -1.929510 49.644699, -1.945802 49.644923, -1.962094 49.645145, -1.978385 49.645365, -1.994678 49.645583, -2.010970 49.645798, -2.027262 49.646011, -2.043555 49.646222, -2.059847 49.646430, -2.076140 49.646636, -2.092433 49.646840, -2.108726 49.647042, -2.125019 49.647241, -2.141312 49.647438, -2.157606 49.647633, -2.173899 49.647825, -2.190193 49.648015, -2.206487 49.648203, -2.222781 49.648389, -2.239075 49.648572, -2.255369 49.648753, -2.271663 49.648932, -2.287958 49.649108, -2.304252 49.649282, -2.320547 49.649454, -2.336842 49.649624, -2.353137 49.649791, -2.369432 49.649956, -2.385727 49.650119, -2.402022 49.650279, -2.418317 49.650437, -2.434613 49.650593, -2.450908 49.650747, -2.467204 49.650898, -2.483500 49.651047, -2.499796 49.651194, -2.516091 49.651338, -2.532387 49.651480, -2.548684 49.651620, -2.564980 49.651758, -2.581276 49.651893, -2.597573 49.652026, -2.613869 49.652157, -2.630166 49.652285, -2.646462 49.652411, -2.662759 49.652535, -2.679056 49.652657, -2.695353 49.652776, -2.711650 49.652893, -2.727947 49.653008, -2.744244 49.653120, -2.760541 49.653230, -2.776838 49.653338, -2.793136 49.653443, -2.809433 49.653547, -2.825731 49.653648, -2.842028 49.653746, -2.858326 49.653843, -2.874624 49.653937, -2.890921 49.654029, -2.907219 49.654118, -2.923517 49.654205, -2.939815 49.654290, -2.956113 49.654373, -2.972411 49.654453, -2.988709 49.654531, -3.005007 49.654607, -3.021305 49.654681, -3.037604 49.654752, -3.053902 49.654821, -3.070200 49.654888, -3.086499 49.654952, -3.102797 49.655014, -3.119095 49.655074, -3.135394 49.655131, -3.151693 49.655187, -3.167991 49.655239, -3.184290 49.655290, -3.200588 49.655338, -3.216887 49.655384, -3.233186 49.655428, -3.249484 49.655470, -3.265783 49.655509, -3.282082 49.655546, -3.298381 49.655580, -3.314680 49.655613, -3.330979 49.655643, -3.347277 49.655671, -3.363576 49.655696, -3.379875 49.655719, -3.396174 49.655740, -3.412473 49.655759, -3.428772 49.655775, -3.445071 49.655789, -3.461370 49.655801, -3.477669 49.655810, -3.493968 49.655818, -3.510267 49.655822, -3.526566 49.655825, -3.542865 49.655825, -3.559164 49.655823, -3.575463 49.655819, -3.591762 49.655812, -3.608061 49.655804, -3.624360 49.655792, -3.640659 49.655779, -3.656958 49.655763, -3.673257 49.655745, -3.689555 49.655725, -3.705854 49.655703, -3.722153 49.655678, -3.738452 49.655651, -3.754751 49.655621, -3.771050 49.655589, -3.787349 49.655555, -3.803647 49.655519, -3.819946 49.655480, -3.836245 49.655440, -3.852544 49.655396, -3.868842 49.655351, -3.885141 49.655303, -3.901440 49.655253, -3.917738 49.655201, -3.934037 49.655146, -3.950335 49.655089, -3.966634 49.655030, -3.982932 49.654969, -3.999231 49.654905, -4.015529 49.654839, -4.031827 49.654771, -4.048125 49.654700, -4.064424 49.654627, -4.080722 49.654552, -4.097020 49.654475, -4.113318 49.654395, -4.129616 49.654313, -4.145914 49.654228, -4.162212 49.654142, -4.178510 49.654053, -4.194807 49.653962, -4.211105 49.653868, -4.227403 49.653772, -4.243700 49.653674, -4.259998 49.653574, -4.276295 49.653471, -4.292593 49.653366, -4.308890 49.653259, -4.325187 49.653150, -4.341484 49.653038, -4.357781 49.652924, -4.374078 49.652807, -4.390375 49.652689, -4.406672 49.652568, -4.422969 49.652445, -4.439266 49.652319, -4.455562 49.652191, -4.471859 49.652061, -4.488155 49.651929, -4.504452 49.651794, -4.520748 49.651657, -4.537044 49.651518, -4.553340 49.651377, -4.569636 49.651233, -4.585932 49.651087, -4.602228 49.650938, -4.618523 49.650788, -4.634819 49.650635, -4.651114 49.650479, -4.667410 49.650322, -4.683705 49.650162, -4.700000 49.650000, -4.713349 49.656113, -4.726701 49.662225, -4.740056 49.668336, -4.753415 49.674445, -4.766777 49.680552, -4.780142 49.686658, -4.793511 49.692762, -4.806883 49.698865, -4.820258 49.704966, -4.833637 49.711066, -4.847019 49.717164, -4.860405 49.723261, -4.873794 49.729356, -4.887186 49.735449, -4.900581 49.741541, -4.913980 49.747631, -4.927383 49.753720, -4.940789 49.759808, -4.954198 49.765893, -4.967610 49.771978, -4.981026 49.778060, -4.994445 49.784141, -5.007868 49.790221, -5.021293 49.796299, -5.034723 49.802375, -5.048155 49.808450, -5.061591 49.814524, -5.075031 49.820595, -5.088474 49.826666, -5.101920 49.832734, -5.115369 49.838801, -5.128822 49.844867, -5.142279 49.850931, -5.155738 49.856994, -5.169201 49.863054, -5.182668 49.869114, -5.196137 49.875172, -5.209611 49.881228, -5.223087 49.887283, -5.236567 49.893336, -5.250050 49.899387, -5.263537 49.905437, -5.277027 49.911486, -5.290521 49.917532, -5.304017 49.923578, -5.317518 49.929621, -5.331021 49.935664, -5.344528 49.941704, -5.358039 49.947743, -5.371552 49.953781, -5.385070 49.959816, -5.398590 49.965851, -5.412114 49.971883, -5.425641 49.977915, -5.439172 49.983944, -5.452706 49.989972, -5.466244 49.995999, -5.479785 50.002024, -5.493329 50.008047, -5.506877 50.014068, -5.520428 50.020089, -5.533982 50.026107, -5.547540 50.032124, -5.561101 50.038140, -5.574666 50.044153, -5.588234 50.050166, -5.601806 50.056176, -5.615380 50.062185, -5.628959 50.068193, -5.642540 50.074199, -5.656125 50.080203, -5.669714 50.086206, -5.683306 50.092207, -5.696901 50.098206, -5.710500 50.104204, -5.724102 50.110201, -5.737707 50.116196, -5.751316 50.122189, -5.764929 50.128180, -5.778544 50.134170, -5.792164 50.140159, -5.805786 50.146146, -5.819412 50.152131, -5.833041 50.158114, -5.846674 50.164096, -5.860310 50.170077, -5.873950 50.176056, -5.887593 50.182033, -5.901239 50.188009, -5.914889 50.193983, -5.928543 50.199955, -5.942199 50.205926, -5.955859 50.211895, -5.969523 50.217863, -5.983190 50.223829, -5.996860 50.229793, -6.010534 50.235756, -6.024211 50.241718, -6.037892 50.247677, -6.051576 50.253635, -6.065263 50.259592, -6.078954 50.265546, -6.092648 50.271500, -6.106346 50.277451, -6.120047 50.283401, -6.133752 50.289350, -6.147460 50.295296, -6.161171 50.301242, -6.174886 50.307185, -6.188604 50.313127, -6.202326 50.319067, -6.216051 50.325006, -6.229780 50.330943, -6.243512 50.336879, -6.257247 50.342812, -6.270986 50.348745, -6.284728 50.354675, -6.298474 50.360604, -6.312223 50.366532, -6.325976 50.372457, -6.339732 50.378381, -6.353492 50.384304, -6.367254 50.390225, -6.381021 50.396144, -6.394791 50.402062, -6.408564 50.407978, -6.422340 50.413892, -6.436121 50.419805, -6.449904 50.425716, -6.463691 50.431625, -6.477481 50.437533, -6.491275 50.443440, -6.505073 50.449344, -6.518873 50.455247, -6.532678 50.461148, -6.546485 50.467048, -6.560296 50.472946, -6.574111 50.478843, -6.587929 50.484737, -6.601750 50.490631, -6.615575 50.496522, -6.629404 50.502412, -6.643235 50.508300, -6.657071 50.514187, -6.670909 50.520072, -6.684751 50.525955, -6.698597 50.531837, -6.712446 50.537717, -6.726298 50.543595, -6.740154 50.549472, -6.754014 50.555347, -6.767877 50.561221, -6.781743 50.567092, -6.795613 50.572963, -6.809486 50.578831, -6.823363 50.584698, -6.837243 50.590563, -6.851126 50.596427, -6.865013 50.602289, -6.878904 50.608149, -6.892798 50.614008, -6.906695 50.619865, -6.920596 50.625720, -6.934500 50.631574, -6.948408 50.637426, -6.962320 50.643276, -6.976234 50.649125, -6.990152 50.654972, -7.004074 50.660817, -7.017999 50.666661, -7.031928 50.672503, -7.045860 50.678343, -7.059795 50.684182, -7.073734 50.690019, -7.087677 50.695855, -7.101623 50.701688, -7.115572 50.707520, -7.129525 50.713351, -7.143482 50.719180, -7.157441 50.725007, -7.171405 50.730832, -7.185371 50.736656, -7.199342 50.742478, -7.213315 50.748298, -7.227293 50.754117, -7.241273 50.759934, -7.255257 50.765750, -7.269245 50.771563, -7.283236 50.777376, -7.297231 50.783186, -7.311229 50.788995, -7.325230 50.794802, -7.339235 50.800607, -7.353244 50.806411, -7.367256 50.812213, -7.381271 50.818013, -7.395290 50.823812, -7.409312 50.829609, -7.423338 50.835404, -7.437368 50.841198, -7.451401 50.846990, -7.465437 50.852780, -7.479477 50.858568, -7.493520 50.864355, -7.507567 50.870140, -7.521617 50.875924, -7.535671 50.881706, -7.549728 50.887486, -7.563789 50.893264, -7.577853 50.899041, -7.591921 50.904816, -7.605992 50.910589, -7.620067 50.916361, -7.634145 50.922131, -7.648227 50.927899, -7.662312 50.933666, -7.676401 50.939431, -7.690493 50.945194, -7.704589 50.950956, -7.718688 50.956715, -7.732790 50.962474, -7.746896 50.968230, -7.761006 50.973985, -7.775119 50.979738, -7.789236 50.985489, -7.803356 50.991239, -7.817480 50.996987, -7.831607 51.002733, -7.845737 51.008477, -7.859872 51.014220, -7.874009 51.019961, -7.888150 51.025701, -7.902295 51.031438, -7.916443 51.037174, -7.930595 51.042908, -7.944750 51.048641, -7.958909 51.054372, -7.973071 51.060101, -7.987236 51.065828, -8.001406 51.071554, -8.015578 51.077278, -8.029755 51.083000, -8.043934 51.088721, -8.058117 51.094440, -8.072304 51.100157, -8.086494 51.105872, -8.100688 51.111586, -8.114885 51.117298, -8.129086 51.123008, -8.143290 51.128717, -8.157498 51.134424, -8.171709 51.140129, -8.185924 51.145832, -8.200142 51.151534, -8.214364 51.157234, -8.228590 51.162932, -8.242818 51.168628, -8.257051 51.174323, -8.271287 51.180016, -8.285526 51.185708, -8.299769 51.191397, -8.314015 51.197085, -8.328265 51.202771, -8.342519 51.208455, -8.356776 51.214138, -8.371036 51.219819, -8.385300 51.225498, -8.399568 51.231176, -8.413839 51.236851, -8.428113 51.242525, -8.442391 51.248198, -8.456673 51.253868, -8.470958 51.259537, -8.485247 51.265204, -8.499539 51.270869, -8.513835 51.276533, -8.528134 51.282194, -8.542437 51.287855, -8.556743 51.293513, -8.571053 51.299169, -8.585366 51.304824, -8.599683 51.310477, -8.614004 51.316129, -8.628327 51.321778, -8.642655 51.327426, -8.656986 51.333072, -8.671320 51.338717, -8.685658 51.344359, -8.700000 51.350000, -8.692534 51.359446, -8.685065 51.368892, -8.677592 51.378338, -8.670117 51.387783, -8.662639 51.397228, -8.655157 51.406672, -8.647672 51.416115, -8.640185 51.425558, -8.632694 51.435001, -8.625200 51.444443, -8.617703 51.453885, -8.610203 51.463326, -8.602700 51.472767, -8.595193 51.482207, -8.587684 51.491647, -8.580171 51.501086, -8.572656 51.510525, -8.565137 51.519963, -8.557615 51.529401, -8.550090 51.538839, -8.542562 51.548276, -8.535030 51.557712, -8.527496 51.567148, -8.519959 51.576583, -8.512418 51.586018, -8.504874 51.595453, -8.497327 51.604887, -8.489777 51.614320, -8.482224 51.623753, -8.474668 51.633186, -8.467108 51.642618, -8.459546 51.652050, -8.451980 51.661481, -8.444411 51.670911, -8.436839 51.680341, -8.429264 51.689771, -8.421685 51.699200, -8.414104 51.708629, -8.406519 51.718057, -8.398931 51.727485, -8.391340 51.736912, -8.383746 51.746339, -8.376148 51.755765, -8.368548 51.765191, -8.360944 51.774616, -8.353337 51.784041, -8.345727 51.793465, -8.338114 51.802889, -8.330498 51.812312, -8.322878 51.821735, -8.315255 51.831157, -8.307629 51.840579, -8.300000 51.850000, -8.306493 51.840328, -8.312984 51.830655, -8.319471 51.820983, -8.325956 51.811309, -8.332438 51.801636, -8.338917 51.791962, -8.345394 51.782288, -8.351867 51.772613, -8.358338 51.762938, -8.364806 51.753263, -8.371272 51.743587, -8.377734 51.733911, -8.384194 51.724235, -8.390651 51.714558, -8.397105 51.704881, -8.403557 51.695204, -8.410006 51.685526, -8.416452 51.675848, -8.422895 51.666169, -8.429335 51.656490, -8.435773 51.646811, -8.442208 51.637132, -8.448641 51.627452, -8.455070 51.617772, -8.461497 51.608091, -8.467921 51.598410, -8.474342 51.588729, -8.480761 51.579047, -8.487177 51.569365, -8.493590 51.559683, -8.500000 51.550000, -8.516679 51.547858, -8.533357 51.545713, -8.550034 51.543567, -8.566708 51.541417, -8.583381 51.539266, -8.600053 51.537112, -8.616723 51.534956, -8.633391 51.532797, -8.650058 51.530636, -8.666724 51.528473, -8.683387 51.526307, -8.700049 51.524139, -8.716710 51.521968, -8.733369 51.519796, -8.750026 51.517620, -8.766682 51.515443, -8.783336 51.513263, -8.799988 51.511081, -8.816639 51.508896, -8.833289 51.506709, -8.849936 51.504520, -8.866583 51.502328, -8.883227 51.500134, -8.899870 51.497938, -8.916511 51.495739, -8.933151 51.493538, -8.949789 51.491334, -8.966426 51.489129, -8.983061 51.486921, -8.999694 51.484710, -9.016325 51.482497, -9.032956 51.480282, -9.049584 51.478064, -9.066211 51.475844, -9.082836 51.473622, -9.099460 51.471398, -9.116082 51.469171, -9.132702 51.466941, -9.149321 51.464710, -9.165938 51.462476, -9.182553 51.460239, -9.199167 51.458001, -9.215779 51.455760, -9.232390 51.453516, -9.248999 51.451270, -9.265606 51.449022, -9.282212 51.446772, -9.298816 51.444519, -9.315418 51.442264, -9.332019 51.440006, -9.348618 51.437747, -9.365215 51.435484, -9.381811 51.433220, -9.398405 51.430953, -9.414998 51.428684, -9.431589 51.426412, -9.448178 51.424138, -9.464765 51.421862, -9.481351 51.419584, -9.497936 51.417303, -9.514518 51.415020, -9.531099 51.412734, -9.547678 51.410446, -9.564256 51.408156, -9.580832 51.405863, -9.597406 51.403568, -9.613979 51.401271, -9.630550 51.398971, -9.647119 51.396669, -9.663687 51.394365, -9.680253 51.392059, -9.696817 51.389750, -9.713380 51.387438, -9.729941 51.385125, -9.746500 51.382809, -9.763058 51.380490, -9.779614 51.378170, -9.796168 51.375847, -9.812720 51.373522, -9.829271 51.371194, -9.845821 51.368864, -9.862368 51.366532, -9.878914 51.364197, -9.895458 51.361860, -9.912000 51.359521, -9.928541 51.357179, -9.945080 51.354835, -9.961618 51.352489, -9.978153 51.350140, -9.994687 51.347790, -10.011220 51.345436, -10.027750 51.343081, -10.044279 51.340723, -10.060806 51.338363, -10.077332 51.336000, -10.093856 51.333635, -10.110378 51.331268, -10.126898 51.328899, -10.143417 51.326527, -10.159934 51.324153, -10.176449 51.321776, -10.192962 51.319397, -10.209474 51.317016, -10.225984 51.314633, -10.242493 51.312247, -10.258999 51.309859, -10.275504 51.307468, -10.292007 51.305076, -10.308509 51.302681, -10.325009 51.300283, -10.341507 51.297884, -10.358003 51.295482, -10.374498 51.293077, -10.390991 51.290671, -10.407482 51.288262, -10.423971 51.285850, -10.440459 51.283437, -10.456945 51.281021, -10.473429 51.278603, -10.489912 51.276182, -10.506392 51.273759, -10.522871 51.271334, -10.539349 51.268907, -10.555824 51.266477, -10.572298 51.264045, -10.588770 51.261610, -10.605240 51.259174, -10.621709 51.256735, -10.638175 51.254293, -10.654641 51.251850, -10.671104 51.249404, -10.687565 51.246955, -10.704025 51.244505, -10.720483 51.242052, -10.736939 51.239597, -10.753394 51.237139, -10.769847 51.234679, -10.786298 51.232217, -10.802747 51.229753, -10.819194 51.227286, -10.835640 51.224817, -10.852084 51.222346, -10.868526 51.219872, -10.884967 51.217396, -10.901405 51.214918, -10.917842 51.212437, -10.934277 51.209954, -10.950711 51.207469, -10.967142 51.204982, -10.983572 51.202492, -11.000000 51.200000, -11.016673 51.198235, -11.033346 51.196467, -11.050017 51.194696, -11.066686 51.192924, -11.083355 51.191149, -11.100022 51.189372, -11.116688 51.187592, -11.133352 51.185810, -11.150015 51.184025, -11.166677 51.182239, -11.183338 51.180450, -11.199997 51.178658, -11.216655 51.176864, -11.233312 51.175068, -11.249968 51.173269, -11.266622 51.171468, -11.283275 51.169665, -11.299926 51.167859, -11.316576 51.166051, -11.333225 51.164241, -11.349873 51.162428, -11.366519 51.160613, -11.383164 51.158795, -11.399808 51.156975, -11.416450 51.155153, -11.433091 51.153329, -11.449731 51.151502, -11.466370 51.149672, -11.483007 51.147841, -11.499643 51.146007, -11.516277 51.144170, -11.532910 51.142331, -11.549542 51.140490, -11.566172 51.138647, -11.582802 51.136801, -11.599429 51.134953, -11.616056 51.133102, -11.632681 51.131249, -11.649305 51.129394, -11.665928 51.127536, -11.682549 51.125676, -11.699168 51.123814, -11.715787 51.121949, -11.732404 51.120082, -11.749020 51.118213, -11.765634 51.116341, -11.782247 51.114467, -11.798859 51.112591, -11.815470 51.110712, -11.832079 51.108831, -11.848686 51.106947, -11.865293 51.105061, -11.881898 51.103173, -11.898501 51.101282, -11.915104 51.099389, -11.931705 51.097494, -11.948304 51.095597, -11.964902 51.093697, -11.981499 51.091794, -11.998095 51.089890, -12.014689 51.087983, -12.031281 51.086073, -12.047873 51.084161, -12.064463 51.082247, -12.081051 51.080331, -12.097639 51.078412, -12.114224 51.076491, -12.130809 51.074568, -12.147392 51.072642, -12.163974 51.070714, -12.180554 51.068783, -12.197133 51.066850, -12.213711 51.064915, -12.230287 51.062978, -12.246861 51.061038, -12.263435 51.059095, -12.280007 51.057151, -12.296578 51.055204, -12.313147 51.053255, -12.329715 51.051303, -12.346281 51.049349, -12.362846 51.047393, -12.379410 51.045434, -12.395972 51.043473, -12.412533 51.041510, -12.429092 51.039544, -12.445650 51.037576, -12.462207 51.035606, -12.478762 51.033633, -12.495316 51.031658, -12.511868 51.029681, -12.528419 51.027701, -12.544969 51.025719, -12.561517 51.023735, -12.578063 51.021748, -12.594609 51.019759, -12.611153 51.017768, -12.627695 51.015774, -12.644236 51.013778, -12.660776 51.011780, -12.677314 51.009779, -12.693851 51.007776, -12.710386 51.005771, -12.726920 51.003763, -12.743452 51.001753, -12.759983 50.999741, -12.776513 50.997726, -12.793041 50.995709, -12.809568 50.993690, -12.826093 50.991668, -12.842617 50.989644, -12.859139 50.987617, -12.875660 50.985589, -12.892180 50.983558, -12.908698 50.981524, -12.925214 50.979489, -12.941730 50.977451, -12.958243 50.975410, -12.974756 50.973368, -12.991266 50.971323, -13.007776 50.969275, -13.024284 50.967226, -13.040790 50.965174, -13.057295 50.963119, -13.073799 50.961063, -13.090301 50.959004, -13.106801 50.956943, -13.123300 50.954879, -13.139798 50.952813, -13.156294 50.950745, -13.172789 50.948674, -13.189282 50.946601, -13.205774 50.944526, -13.222264 50.942449, -13.238753 50.940369, -13.255241 50.938287, -13.271726 50.936202, -13.288211 50.934115, -13.304694 50.932026, -13.321175 50.929935, -13.337655 50.927841, -13.354134 50.925745, -13.370611 50.923646, -13.387086 50.921546, -13.403560 50.919443, -13.420033 50.917337, -13.436504 50.915230, -13.452973 50.913120, -13.469441 50.911007, -13.485908 50.908893, -13.502373 50.906776, -13.518837 50.904656, -13.535299 50.902535, -13.551759 50.900411, -13.568218 50.898285, -13.584676 50.896156, -13.601132 50.894025, -13.617586 50.891892, -13.634039 50.889757, -13.650491 50.887619, -13.666941 50.885479, -13.683389 50.883336, -13.699836 50.881192, -13.716282 50.879045, -13.732726 50.876895, -13.749168 50.874744, -13.765609 50.872590, -13.782049 50.870433, -13.798487 50.868275, -13.814923 50.866114, -13.831358 50.863951, -13.847791 50.861785, -13.864223 50.859617, -13.880653 50.857447, -13.897082 50.855275, -13.913509 50.853100, -13.929935 50.850923, -13.946359 50.848744, -13.962781 50.846562, -13.979202 50.844378, -13.995622 50.842192, -14.012040 50.840003, -14.028456 50.837812, -14.044871 50.835619, -14.061285 50.833424, -14.077696 50.831226, -14.094107 50.829026, -14.110515 50.826824, -14.126922 50.824619, -14.143328 50.822412, -14.159732 50.820203, -14.176135 50.817991, -14.192536 50.815777, -14.208935 50.813561, -14.225333 50.811343, -14.241729 50.809122, -14.258124 50.806899, -14.274517 50.804673, -14.290909 50.802446, -14.307299 50.800216, -14.323687 50.797984, -14.340074 50.795749, -14.356459 50.793512, -14.372843 50.791273, -14.389225 50.789032, -14.405606 50.786788, -14.421985 50.784542, -14.438362 50.782294, -14.454738 50.780043, -14.471113 50.777790, -14.487485 50.775535, -14.503856 50.773277, -14.520226 50.771018, -14.536594 50.768756, -14.552960 50.766491, -14.569325 50.764225, -14.585689 50.761956, -14.602050 50.759684, -14.618410 50.757411, -14.634769 50.755135, -14.651126 50.752857, -14.667481 50.750577, -14.683835 50.748294, -14.700187 50.746009, -14.716537 50.743722, -14.732886 50.741432, -14.749233 50.739140, -14.765579 50.736846, -14.781923 50.734550, -14.798266 50.732251, -14.814607 50.729950, -14.830946 50.727647, -14.847284 50.725342, -14.863620 50.723034, -14.879954 50.720724, -14.896287 50.718411, -14.912618 50.716097, -14.928948 50.713780, -14.945276 50.711461, -14.961602 50.709139, -14.977927 50.706815, -14.994250 50.704489, -15.010572 50.702161, -15.026892 50.699830, -15.043210 50.697497, -15.059527 50.695162, -15.075842 50.692825, -15.092155 50.690485, -15.108467 50.688143, -15.124777 50.685799, -15.141086 50.683452, -15.157393 50.681104, -15.173698 50.678752, -15.190002 50.676399, -15.206304 50.674043, -15.222604 50.671686, -15.238903 50.669325, -15.255200 50.666963, -15.271495 50.664598, -15.287789 50.662231, -15.304081 50.659862, -15.320372 50.657490, -15.336660 50.655117, -15.352948 50.652740, -15.369233 50.650362, -15.385517 50.647981, -15.401799 50.645599, -15.418080 50.643213, -15.434359 50.640826, -15.450636 50.638436, -15.466912 50.636044, -15.483186 50.633650, -15.499458 50.631254, -15.515729 50.628855, -15.531998 50.626454, -15.548265 50.624050, -15.564531 50.621645, -15.580795 50.619237, -15.597057 50.616827, -15.613318 50.614415, -15.629577 50.612000, -15.645835 50.609583, -15.662090 50.607164, -15.678344 50.604743, -15.694597 50.602319, -15.710847 50.599893, -15.727096 50.597465, -15.743344 50.595034, -15.759589 50.592602, -15.775833 50.590167, -15.792075 50.587729, -15.808316 50.585290, -15.824555 50.582848, -15.840792 50.580404, -15.857028 50.577958, -15.873262 50.575510, -15.889494 50.573059, -15.905724 50.570606, -15.921953 50.568150, -15.938180 50.565693, -15.954405 50.563233, -15.970629 50.560771, -15.986851 50.558307, -16.003071 50.555840, -16.019290 50.553371, -16.035507 50.550900, -16.051722 50.548427, -16.067936 50.545952, -16.084147 50.543474, -16.100358 50.540994, -16.116566 50.538511, -16.132773 50.536027, -16.148978 50.533540, -16.165181 50.531051, -16.181382 50.528560, -16.197582 50.526066, -16.213780 50.523570, -16.229977 50.521072, -16.246172 50.518572, -16.262365 50.516069, -16.278556 50.513565, -16.294745 50.511058, -16.310933 50.508548, -16.327119 50.506037, -16.343304 50.503523, -16.359486 50.501007, -16.375667 50.498489, -16.391847 50.495968, -16.408024 50.493446, -16.424200 50.490921, -16.440374 50.488393, -16.456546 50.485864, -16.472717 50.483332, -16.488886 50.480798, -16.505053 50.478262, -16.521218 50.475724, -16.537382 50.473183, -16.553543 50.470640, -16.569704 50.468095, -16.585862 50.465548, -16.602019 50.462998, -16.618174 50.460446, -16.634327 50.457892, -16.650478 50.455336, -16.666628 50.452777, -16.682776 50.450217, -16.698922 50.447653, -16.715067 50.445088, -16.731209 50.442521, -16.747350 50.439951, -16.763489 50.437379, -16.779627 50.434805, -16.795762 50.432228, -16.811896 50.429650, -16.828029 50.427069, -16.844159 50.424486, -16.860288 50.421901, -16.876414 50.419313, -16.892540 50.416723, -16.908663 50.414131, -16.924785 50.411537, -16.940904 50.408940, -16.957022 50.406342, -16.973139 50.403741, -16.989253 50.401138, -17.005366 50.398532, -17.021477 50.395925, -17.037586 50.393315, -17.053694 50.390703, -17.069799 50.388088, -17.085903 50.385472, -17.102005 50.382853, -17.118106 50.380232, -17.134204 50.377609, -17.150301 50.374984, -17.166396 50.372356, -17.182489 50.369726, -17.198580 50.367094, -17.214670 50.364460, -17.230758 50.361823, -17.246844 50.359185, -17.262928 50.356544, -17.279011 50.353901, -17.295091 50.351255, -17.311170 50.348608, -17.327247 50.345958, -17.343323 50.343306, -17.359396 50.340652, -17.375468 50.337995, -17.391538 50.335337, -17.407606 50.332676, -17.423672 50.330013, -17.439737 50.327347, -17.455799 50.324680, -17.471860 50.322010, -17.487919 50.319338, -17.503977 50.316664, -17.520032 50.313988, -17.536086 50.311309, -17.552138 50.308628, -17.568188 50.305945, -17.584236 50.303260, -17.600282 50.300573, -17.616327 50.297883, -17.632370 50.295191, -17.648411 50.292497, -17.664450 50.289801, -17.680487 50.287102, -17.696523 50.284402, -17.712557 50.281699, -17.728588 50.278994, -17.744619 50.276287, -17.760647 50.273577, -17.776673 50.270865, -17.792698 50.268151, -17.808721 50.265435, -17.824741 50.262717, -17.840761 50.259997, -17.856778 50.257274, -17.872793 50.254549, -17.888807 50.251822, -17.904819 50.249093, -17.920829 50.246361, -17.936837 50.243627, -17.952843 50.240892, -17.968847 50.238153, -17.984850 50.235413, -18.000851 50.232671, -18.016850 50.229926, -18.032847 50.227179, -18.048842 50.224430, -18.064835 50.221679, -18.080827 50.218925, -18.096817 50.216170, -18.112804 50.213412, -18.128790 50.210652, -18.144775 50.207890, -18.160757 50.205125, -18.176737 50.202358, -18.192716 50.199590, -18.208693 50.196819, -18.224668 50.194045, -18.240641 50.191270, -18.256612 50.188492, -18.272581 50.185713, -18.288548 50.182931, -18.304514 50.180147, -18.320478 50.177360, -18.336440 50.174572, -18.352400 50.171781, -18.368358 50.168988, -18.384314 50.166193, -18.400268 50.163396, -18.416221 50.160596, -18.432172 50.157795, -18.448120 50.154991, -18.464067 50.152185, -18.480012 50.149377, -18.495956 50.146566, -18.511897 50.143754, -18.527836 50.140939, -18.543774 50.138122, -18.559710 50.135303, -18.575643 50.132482, -18.591575 50.129658, -18.607505 50.126833, -18.623433 50.124005, -18.639360 50.121175, -18.655284 50.118343, -18.671207 50.115508, -18.687127 50.112672, -18.703046 50.109833, -18.718963 50.106992, -18.734878 50.104149, -18.750791 50.101304, -18.766702 50.098457, -18.782611 50.095607, -18.798519 50.092755, -18.814424 50.089901, -18.830328 50.087045, -18.846229 50.084187, -18.862129 50.081327, -18.878027 50.078464, -18.893923 50.075599, -18.909817 50.072732, -18.925709 50.069863, -18.941600 50.066992, -18.957488 50.064118, -18.973375 50.061243, -18.989259 50.058365, -19.005142 50.055485, -19.021023 50.052603, -19.036902 50.049718, -19.052779 50.046832, -19.068654 50.043943, -19.084527 50.041053, -19.100398 50.038160, -19.116267 50.035265, -19.132135 50.032367, -19.148000 50.029468, -19.163864 50.026566, -19.179725 50.023662, -19.195585 50.020756, -19.211443 50.017848, -19.227299 50.014938, -19.243153 50.012026, -19.259005 50.009111, -19.274855 50.006194, -19.290703 50.003275, -19.306549 50.000354, -19.322394 49.997431, -19.338236 49.994506, -19.354077 49.991578, -19.369915 49.988649, -19.385752 49.985717, -19.401587 49.982783, -19.417419 49.979847, -19.433250 49.976908, -19.449079 49.973968, -19.464906 49.971025, -19.480731 49.968081, -19.496554 49.965134, -19.512375 49.962185, -19.528195 49.959233, -19.544012 49.956280, -19.559827 49.953324, -19.575641 49.950367, -19.591452 49.947407, -19.607262 49.944445, -19.623069 49.941481, -19.638875 49.938515, -19.654679 49.935546, -19.670480 49.932576, -19.686280 49.929603, -19.702078 49.926628, -19.717874 49.923651, -19.733668 49.920672, -19.749460 49.917691, -19.765250 49.914707, -19.781038 49.911722, -19.796824 49.908734, -19.812608 49.905744, -19.828390 49.902752, -19.844170 49.899758, -19.859949 49.896762, -19.875725 49.893763, -19.891499 49.890763, -19.907272 49.887760, -19.923042 49.884755, -19.938811 49.881748, -19.954577 49.878739, -19.970342 49.875728, -19.986104 49.872714, -20.001865 49.869699, -20.017624 49.866681, -20.033380 49.863661, -20.049135 49.860639, -20.064888 49.857615, -20.080638 49.854589, -20.096387 49.851561, -20.112134 49.848530, -20.127879 49.845498, -20.143622 49.842463, -20.159363 49.839426, -20.175101 49.836387, -20.190838 49.833346, -20.206573 49.830303, -20.222306 49.827257, -20.238037 49.824210, -20.253766 49.821160, -20.269493 49.818108, -20.285218 49.815054, -20.300941 49.811998, -20.316662 49.808940, -20.332381 49.805880, -20.348099 49.802818, -20.363814 49.799753, -20.379527 49.796686, -20.395238 49.793618, -20.410947 49.790547, -20.426654 49.787474, -20.442359 49.784399, -20.458062 49.781321, -20.473764 49.778242, -20.489463 49.775160, -20.505160 49.772077, -20.520855 49.768991, -20.536548 49.765903, -20.552239 49.762813, -20.567928 49.759721, -20.583616 49.756627, -20.599301 49.753530, -20.614984 49.750432, -20.630665 49.747331, -20.646344 49.744229, -20.662021 49.741124, -20.677696 49.738017, -20.693370 49.734908, -20.709041 49.731797, -20.724710 49.728683, -20.740377 49.725568, -20.756042 49.722450, -20.771705 49.719331, -20.787366 49.716209, -20.803025 49.713085, -20.818682 49.709959, -20.834337 49.706831, -20.849990 49.703701, -20.865641 49.700569, -20.881290 49.697434, -20.896937 49.694298, -20.912582 49.691159, -20.928225 49.688019, -20.943866 49.684876, -20.959505 49.681731, -20.975141 49.678584, -20.990776 49.675435, -21.006409 49.672283, -21.022040 49.669130, -21.037668 49.665975, -21.053295 49.662817, -21.068920 49.659657, -21.084542 49.656496, -21.100163 49.653332, -21.115782 49.650166, -21.131398 49.646998, -21.147013 49.643828, -21.162625 49.640655, -21.178236 49.637481, -21.193844 49.634305, -21.209450 49.631126, -21.225055 49.627945, -21.240657 49.624763, -21.256257 49.621578, -21.271855 49.618391, -21.287452 49.615202, -21.303046 49.612011, -21.318638 49.608817, -21.334228 49.605622, -21.349816 49.602425, -21.365402 49.599225, -21.380986 49.596024, -21.396568 49.592820, -21.412147 49.589614, -21.427725 49.586406, -21.443301 49.583196, -21.458875 49.579984, -21.474446 49.576770, -21.490016 49.573554, -21.505583 49.570336, -21.521149 49.567115, -21.536712 49.563893, -21.552273 49.560668, -21.567833 49.557441, -21.583390 49.554213, -21.598945 49.550982, -21.614498 49.547749, -21.630049 49.544514, -21.645598 49.541277, -21.661145 49.538038, -21.676690 49.534796, -21.692233 49.531553, -21.707774 49.528308, -21.723312 49.525060, -21.738849 49.521811, -21.754384 49.518559, -21.769916 49.515305, -21.785447 49.512049, -21.800975 49.508791, -21.816501 49.505532, -21.832025 49.502269, -21.847548 49.499005, -21.863068 49.495739, -21.878586 49.492471, -21.894102 49.489200, -21.909616 49.485928, -21.925127 49.482654, -21.940637 49.479377, -21.956145 49.476098, -21.971650 49.472818, -21.987154 49.469535, -22.002655 49.466250, -22.018154 49.462963, -22.033652 49.459674, -22.049147 49.456383, -22.064640 49.453090, -22.080131 49.449795, -22.095620 49.446497, -22.111107 49.443198, -22.126591 49.439896, -22.142074 49.436593, -22.157555 49.433287, -22.173033 49.429980, -22.188510 49.426670, -22.203984 49.423358, -22.219456 49.420045, -22.234926 49.416729, -22.250394 49.413411, -22.265860 49.410091, -22.281324 49.406769, -22.296786 49.403444, -22.312246 49.400118, -22.327703 49.396790, -22.343159 49.393460, -22.358612 49.390127, -22.374063 49.386793, -22.389512 49.383456, -22.404960 49.380118, -22.420405 49.376777, -22.435847 49.373435, -22.451288 49.370090, -22.466727 49.366743, -22.482164 49.363394, -22.497598 49.360043, -22.513030 49.356690, -22.528461 49.353335, -22.543889 49.349978, -22.559315 49.346619, -22.574739 49.343258, -22.590161 49.339895, -22.605580 49.336530, -22.620998 49.333162, -22.636414 49.329793, -22.651827 49.326421, -22.667238 49.323048, -22.682648 49.319673, -22.698055 49.316295, -22.713460 49.312915, -22.728862 49.309534, -22.744263 49.306150, -22.759662 49.302764, -22.775058 49.299376, -22.790453 49.295987, -22.805845 49.292595, -22.821235 49.289201, -22.836623 49.285805, -22.852009 49.282407, -22.867393 49.279007, -22.882774 49.275605, -22.898154 49.272201, -22.913531 49.268794, -22.928907 49.265386, -22.944280 49.261976, -22.959651 49.258564, -22.975020 49.255149, -22.990387 49.251733, -23.005751 49.248314, -23.021114 49.244894, -23.036474 49.241471, -23.051833 49.238047, -23.067189 49.234620, -23.082543 49.231192, -23.097895 49.227761, -23.113244 49.224328, -23.128592 49.220894, -23.143937 49.217457, -23.159281 49.214018, -23.174622 49.210578, -23.189961 49.207135, -23.205298 49.203690, -23.220633 49.200243, -23.235966 49.196794, -23.251296 49.193343, -23.266624 49.189890, -23.281951 49.186435, -23.297275 49.182978, -23.312597 49.179519, -23.327917 49.176058, -23.343234 49.172595, -23.358550 49.169130, -23.373863 49.165662, -23.389175 49.162193, -23.404484 49.158722, -23.419791 49.155249, -23.435095 49.151774, -23.450398 49.148296, -23.465699 49.144817, -23.480997 49.141336, -23.496293 49.137852, -23.511587 49.134367, -23.526879 49.130880, -23.542169 49.127390, -23.557457 49.123899, -23.572742 49.120405, -23.588025 49.116910, -23.603306 49.113412, -23.618585 49.109913, -23.633862 49.106411, -23.649137 49.102908, -23.664409 49.099402, -23.679680 49.095895, -23.694948 49.092385, -23.710214 49.088874, -23.725478 49.085360, -23.740740 49.081844, -23.755999 49.078327, -23.771257 49.074807, -23.786512 49.071286, -23.801765 49.067762, -23.817016 49.064236, -23.832265 49.060709, -23.847511 49.057179, -23.862756 49.053647, -23.877998 49.050114, -23.893238 49.046578, -23.908476 49.043040, -23.923712 49.039500, -23.938945 49.035959, -23.954177 49.032415, -23.969406 49.028869, -23.984633 49.025322, -23.999858 49.021772, -24.015081 49.018220, -24.030301 49.014666, -24.045520 49.011111, -24.060736 49.007553, -24.075950 49.003993, -24.091162 49.000431, -24.106371 48.996868, -24.121579 48.993302, -24.136784 48.989734, -24.151987 48.986164, -24.167188 48.982593, -24.182387 48.979019, -24.197584 48.975443, -24.212778 48.971866, -24.227970 48.968286, -24.243160 48.964704, -24.258348 48.961120, -24.273534 48.957535, -24.288718 48.953947, -24.303899 48.950357, -24.319078 48.946766, -24.334255 48.943172, -24.349430 48.939576, -24.364602 48.935979, -24.379773 48.932379, -24.394941 48.928777, -24.410107 48.925174, -24.425271 48.921568, -24.440433 48.917961, -24.455592 48.914351, -24.470749 48.910740, -24.485904 48.907126, -24.501057 48.903510, -24.516208 48.899893, -24.531356 48.896273, -24.546503 48.892652, -24.561647 48.889028, -24.576789 48.885403, -24.591928 48.881776, -24.607066 48.878146, -24.622201 48.874515, -24.637334 48.870881, -24.652465 48.867246, -24.667594 48.863609, -24.682721 48.859969, -24.697845 48.856328, -24.712967 48.852685, -24.728087 48.849040, -24.743205 48.845392, -24.758320 48.841743, -24.773433 48.838092, -24.788545 48.834439, -24.803653 48.830784, -24.818760 48.827127, -24.833865 48.823467, -24.848967 48.819806, -24.864067 48.816143, -24.879165 48.812478, -24.894261 48.808811, -24.909354 48.805142, -24.924445 48.801472, -24.939534 48.797799, -24.954621 48.794124, -24.969706 48.790447, -24.984788 48.786768, -24.999868 48.783088, -25.014946 48.779405, -25.030022 48.775720, -25.045096 48.772033, -25.060167 48.768345, -25.075236 48.764654, -25.090303 48.760962, -25.105368 48.757267, -25.120430 48.753571, -25.135491 48.749872, -25.150549 48.746172, -25.165605 48.742470, -25.180658 48.738765, -25.195710 48.735059, -25.210759 48.731351, -25.225806 48.727641, -25.240850 48.723928, -25.255893 48.720214, -25.270933 48.716498, -25.285971 48.712780, -25.301007 48.709060, -25.316041 48.705338, -25.331072 48.701614, -25.346101 48.697889, -25.361128 48.694161, -25.376153 48.690431, -25.391175 48.686699, -25.406196 48.682966, -25.421214 48.679230, -25.436230 48.675492, -25.451243 48.671753, -25.466255 48.668011, -25.481264 48.664268, -25.496271 48.660523, -25.511275 48.656775, -25.526278 48.653026, -25.541278 48.649275, -25.556276 48.645522, -25.571272 48.641767, -25.586265 48.638009, -25.601256 48.634250, -25.616245 48.630490, -25.631232 48.626727, -25.646217 48.622962, -25.661199 48.619195, -25.676179 48.615426, -25.691157 48.611656, -25.706133 48.607883, -25.721106 48.604108, -25.736077 48.600332, -25.751046 48.596554, -25.766013 48.592773, -25.780977 48.588991, -25.795939 48.585207, -25.810899 48.581420, -25.825857 48.577632, -25.840813 48.573842, -25.855766 48.570050, -25.870717 48.566256, -25.885665 48.562460, -25.900612 48.558663, -25.915556 48.554863, -25.930498 48.551061, -25.945438 48.547258, -25.960375 48.543452, -25.975311 48.539645, -25.990244 48.535835, -26.005174 48.532024, -26.020103 48.528211, -26.035029 48.524395, -26.049953 48.520578, -26.064875 48.516759, -26.079795 48.512938, -26.094712 48.509115, -26.109627 48.505291, -26.124540 48.501464, -26.139450 48.497635, -26.154358 48.493805, -26.169264 48.489972, -26.184168 48.486138, -26.199070 48.482301, -26.213969 48.478463, -26.228866 48.474623, -26.243761 48.470780, -26.258653 48.466936, -26.273543 48.463090, -26.288431 48.459242, -26.303317 48.455393, -26.318200 48.451541, -26.333082 48.447687, -26.347961 48.443832, -26.362837 48.439974, -26.377712 48.436115, -26.392584 48.432253, -26.407454 48.428390, -26.422321 48.424525, -26.437187 48.420658, -26.452050 48.416789, -26.466911 48.412918, -26.481769 48.409045, -26.496626 48.405170, -26.511480 48.401294, -26.526331 48.397415, -26.541181 48.393535, -26.556028 48.389652, -26.570873 48.385768, -26.585716 48.381882, -26.600556 48.377994, -26.615395 48.374104, -26.630231 48.370212, -26.645064 48.366318, -26.659896 48.362422, -26.674725 48.358524, -26.689552 48.354625, -26.704376 48.350723, -26.719198 48.346820, -26.734018 48.342915, -26.748836 48.339008, -26.763652 48.335099, -26.778465 48.331188, -26.793276 48.327275, -26.808085 48.323360, -26.822891 48.319443, -26.837695 48.315525, -26.852497 48.311604, -26.867297 48.307682, -26.882094 48.303758, -26.896889 48.299831, -26.911682 48.295903, -26.926472 48.291973, -26.941260 48.288041, -26.956046 48.284108, -26.970830 48.280172, -26.985611 48.276234, -27.000390 48.272295, -27.015167 48.268354, -27.029942 48.264410, -27.044714 48.260465, -27.059484 48.256518, -27.074252 48.252569, -27.089017 48.248619, -27.103780 48.244666, -27.118541 48.240711, -27.133300 48.236755, -27.148056 48.232797, -27.162810 48.228836, -27.177562 48.224874, -27.192311 48.220910, -27.207058 48.216944, -27.221803 48.212976, -27.236546 48.209007, -27.251286 48.205035, -27.266024 48.201062, -27.280760 48.197086, -27.295493 48.193109, -27.310224 48.189130, -27.324953 48.185149, -27.339680 48.181166, -27.354404 48.177182, -27.369126 48.173195, -27.383845 48.169207, -27.398563 48.165216, -27.413278 48.161224, -27.427991 48.157230, -27.442701 48.153234, -27.457410 48.149236, -27.472116 48.145236, -27.486819 48.141234, -27.501521 48.137231, -27.516220 48.133226, -27.530916 48.129218, -27.545611 48.125209, -27.560303 48.121198, -27.574993 48.117185, -27.589681 48.113171, -27.604366 48.109154, -27.619049 48.105135, -27.633730 48.101115, -27.648408 48.097093, -27.663084 48.093069, -27.677758 48.089043, -27.692429 48.085015, -27.707099 48.080985, -27.721766 48.076954, -27.736430 48.072920, -27.751093 48.068885, -27.765753 48.064848, -27.780410 48.060809, -27.795066 48.056768, -27.809719 48.052725, -27.824370 48.048681, -27.839018 48.044634, -27.853664 48.040586, -27.868308 48.036535, -27.882950 48.032483, -27.897589 48.028430, -27.912226 48.024374, -27.926861 48.020316, -27.941493 48.016257, -27.956124 48.012195, -27.970751 48.008132, -27.985377 48.004067, -28.000000 48.000000, -28.015370 47.997456, -28.030738 47.994909, -28.046105 47.992361, -28.061470 47.989810, -28.076833 47.987258, -28.092196 47.984703, -28.107556 47.982147, -28.122915 47.979588, -28.138273 47.977027, -28.153629 47.974464, -28.168983 47.971899, -28.184336 47.969333, -28.199688 47.966764, -28.215038 47.964193, -28.230386 47.961620, -28.245733 47.959045, -28.261078 47.956467, -28.276422 47.953888, -28.291764 47.951307, -28.307105 47.948724, -28.322444 47.946139, -28.337782 47.943551, -28.353118 47.940962, -28.368453 47.938371, -28.383786 47.935777, -28.399117 47.933182, -28.414447 47.930584, -28.429776 47.927985, -28.445103 47.925383, -28.460428 47.922779, -28.475752 47.920174, -28.491074 47.917566, -28.506395 47.914956, -28.521714 47.912344, -28.537032 47.909730, -28.552348 47.907115, -28.567662 47.904497, -28.582975 47.901877, -28.598287 47.899255, -28.613596 47.896631, -28.628905 47.894005, -28.644212 47.891377, -28.659517 47.888747, -28.674820 47.886114, -28.690123 47.883480, -28.705423 47.880844, -28.720722 47.878206, -28.736020 47.875565, -28.751315 47.872923, -28.766610 47.870279, -28.781903 47.867632, -28.797194 47.864984, -28.812483 47.862334, -28.827771 47.859681, -28.843058 47.857027, -28.858343 47.854370, -28.873626 47.851712, -28.888908 47.849051, -28.904188 47.846388, -28.919467 47.843724, -28.934744 47.841057, -28.950020 47.838388, -28.965294 47.835718, -28.980566 47.833045, -28.995837 47.830370, -29.011106 47.827693, -29.026374 47.825015, -29.041640 47.822334, -29.056904 47.819651, -29.072167 47.816966, -29.087429 47.814279, -29.102688 47.811590, -29.117946 47.808899, -29.133203 47.806206, -29.148458 47.803511, -29.163712 47.800814, -29.178963 47.798115, -29.194214 47.795414, -29.209462 47.792711, -29.224709 47.790006, -29.239955 47.787299, -29.255199 47.784590, -29.270441 47.781878, -29.285682 47.779165, -29.300921 47.776450, -29.316159 47.773733, -29.331395 47.771014, -29.346629 47.768292, -29.361862 47.765569, -29.377093 47.762844, -29.392323 47.760117, -29.407551 47.757387, -29.422777 47.754656, -29.438002 47.751923, -29.453225 47.749187, -29.468446 47.746450, -29.483666 47.743711, -29.498885 47.740969, -29.514102 47.738226, -29.529317 47.735481, -29.544530 47.732733, -29.559742 47.729984, -29.574953 47.727232, -29.590161 47.724479, -29.605369 47.721723, -29.620574 47.718966, -29.635778 47.716206, -29.650980 47.713445, -29.666181 47.710681, -29.681380 47.707916, -29.696578 47.705149, -29.711774 47.702379, -29.726968 47.699607, -29.742160 47.696834, -29.757351 47.694058, -29.772541 47.691281, -29.787729 47.688501, -29.802915 47.685720, -29.818099 47.682936, -29.833282 47.680151, -29.848463 47.677363, -29.863643 47.674574, -29.878821 47.671782, -29.893998 47.668989, -29.909172 47.666193, -29.924346 47.663396, -29.939517 47.660596, -29.954687 47.657794, -29.969855 47.654991, -29.985022 47.652185, -30.000187 47.649378, -30.015350 47.646568, -30.030512 47.643757, -30.045672 47.640943, -30.060831 47.638128, -30.075988 47.635310, -30.091143 47.632491, -30.106297 47.629669, -30.121449 47.626846, -30.136599 47.624020, -30.151748 47.621193, -30.166895 47.618363, -30.182040 47.615532, -30.197184 47.612698, -30.212326 47.609863, -30.227466 47.607025, -30.242605 47.604186, -30.257742 47.601344, -30.272878 47.598501, -30.288012 47.595655, -30.303144 47.592808, -30.318275 47.589958, -30.333404 47.587107, -30.348531 47.584254, -30.363657 47.581398, -30.378781 47.578541, -30.393903 47.575682, -30.409024 47.572820, -30.424143 47.569957, -30.439260 47.567092, -30.454376 47.564224, -30.469490 47.561355, -30.484603 47.558484, -30.499713 47.555610, -30.514822 47.552735, -30.529930 47.549858, -30.545036 47.546979, -30.560140 47.544097, -30.575242 47.541214, -30.590343 47.538329, -30.605442 47.535442, -30.620540 47.532553, -30.635636 47.529662, -30.650730 47.526769, -30.665822 47.523874, -30.680913 47.520977, -30.696002 47.518078, -30.711090 47.515176, -30.726176 47.512274, -30.741260 47.509369, -30.756342 47.506462, -30.771423 47.503553, -30.786502 47.500642, -30.801580 47.497729, -30.816656 47.494814, -30.831730 47.491897, -30.846802 47.488978, -30.861873 47.486058, -30.876942 47.483135, -30.892010 47.480210, -30.907075 47.477283, -30.922139 47.474355, -30.937202 47.471424, -30.952262 47.468492, -30.967322 47.465557, -30.982379 47.462620, -30.997435 47.459682, -31.012489 47.456741, -31.027541 47.453799, -31.042591 47.450854, -31.057640 47.447908, -31.072688 47.444960, -31.087733 47.442009, -31.102777 47.439057, -31.117819 47.436103, -31.132860 47.433146, -31.147898 47.430188, -31.162936 47.427228, -31.177971 47.424266, -31.193005 47.421302, -31.208037 47.418336, -31.223067 47.415368, -31.238096 47.412398, -31.253123 47.409426, -31.268148 47.406452, -31.283171 47.403476, -31.298193 47.400498, -31.313213 47.397518, -31.328232 47.394536, -31.343249 47.391553, -31.358264 47.388567, -31.373277 47.385579, -31.388289 47.382590, -31.403299 47.379598, -31.418307 47.376605, -31.433313 47.373609, -31.448318 47.370612, -31.463321 47.367612, -31.478323 47.364611, -31.493323 47.361607, -31.508321 47.358602, -31.523317 47.355595, -31.538311 47.352586, -31.553304 47.349575, -31.568295 47.346561, -31.583285 47.343546, -31.598273 47.340529, -31.613259 47.337510, -31.628243 47.334489, -31.643226 47.331467, -31.658206 47.328442, -31.673186 47.325415, -31.688163 47.322386, -31.703139 47.319355, -31.718113 47.316323, -31.733085 47.313288, -31.748056 47.310252, -31.763025 47.307213, -31.777992 47.304173, -31.792957 47.301130, -31.807921 47.298086, -31.822883 47.295040, -31.837843 47.291992, -31.852801 47.288941, -31.867758 47.285889, -31.882713 47.282835, -31.897667 47.279779, -31.912618 47.276721, -31.927568 47.273661, -31.942516 47.270599, -31.957463 47.267536, -31.972407 47.264470, -31.987350 47.261402, -32.002292 47.258333, -32.017231 47.255261, -32.032169 47.252188, -32.047105 47.249112, -32.062039 47.246035, -32.076972 47.242955, -32.091903 47.239874, -32.106832 47.236791, -32.121759 47.233706, -32.136685 47.230619, -32.151608 47.227530, -32.166531 47.224439, -32.181451 47.221346, -32.196370 47.218251, -32.211286 47.215154, -32.226202 47.212056, -32.241115 47.208955, -32.256027 47.205852, -32.270937 47.202748, -32.285845 47.199642, -32.300751 47.196533, -32.315656 47.193423, -32.330559 47.190311, -32.345460 47.187196, -32.360359 47.184080, -32.375257 47.180962, -32.390153 47.177842, -32.405047 47.174720, -32.419940 47.171597, -32.434830 47.168471, -32.449719 47.165343, -32.464607 47.162214, -32.479492 47.159082, -32.494376 47.155949, -32.509258 47.152813, -32.524138 47.149676, -32.539016 47.146537, -32.553893 47.143395, -32.568768 47.140252, -32.583641 47.137107, -32.598512 47.133960, -32.613382 47.130811, -32.628250 47.127661, -32.643116 47.124508, -32.657980 47.121353, -32.672843 47.118197, -32.687703 47.115038, -32.702562 47.111878, -32.717420 47.108716, -32.732275 47.105551, -32.747129 47.102385, -32.761981 47.099217, -32.776831 47.096047, -32.791679 47.092875, -32.806526 47.089701, -32.821371 47.086525, -32.836214 47.083348, -32.851055 47.080168, -32.865895 47.076987, -32.880733 47.073803, -32.895569 47.070618, -32.910403 47.067431, -32.925236 47.064241, -32.940066 47.061050, -32.954895 47.057857, -32.969722 47.054662, -32.984548 47.051465, -32.999371 47.048267, -33.014193 47.045066, -33.029013 47.041863, -33.043831 47.038659, -33.058648 47.035453, -33.073463 47.032244, -33.088276 47.029034, -33.103087 47.025822, -33.117896 47.022608, -33.132704 47.019392, -33.147509 47.016174, -33.162313 47.012954, -33.177116 47.009733, -33.191916 47.006509, -33.206715 47.003284, -33.221512 47.000056, -33.236307 46.996827, -33.251100 46.993596, -33.265891 46.990363, -33.280681 46.987128, -33.295469 46.983891, -33.310255 46.980652, -33.325039 46.977411, -33.339822 46.974168, -33.354603 46.970924, -33.369382 46.967677, -33.384159 46.964429, -33.398934 46.961179, -33.413708 46.957927, -33.428480 46.954673, -33.443249 46.951417, -33.458018 46.948159, -33.472784 46.944899, -33.487549 46.941638, -33.502311 46.938374, -33.517072 46.935109, -33.531832 46.931841, -33.546589 46.928572, -33.561344 46.925301, -33.576098 46.922028, -33.590850 46.918753, -33.605600 46.915476, -33.620349 46.912198, -33.635095 46.908917, -33.649840 46.905635, -33.664583 46.902350, -33.679324 46.899064, -33.694063 46.895776, -33.708801 46.892486, -33.723537 46.889194, -33.738271 46.885900, -33.753003 46.882604, -33.767733 46.879307, -33.782461 46.876007, -33.797188 46.872706, -33.811913 46.869402, -33.826636 46.866097, -33.841357 46.862790, -33.856077 46.859481, -33.870794 46.856170, -33.885510 46.852858, -33.900224 46.849543, -33.914936 46.846227, -33.929646 46.842908, -33.944355 46.839588, -33.959062 46.836266, -33.973766 46.832942, -33.988469 46.829616, -34.003171 46.826288, -34.017870 46.822959, -34.032568 46.819627, -34.047263 46.816294, -34.061957 46.812958, -34.076650 46.809621, -34.091340 46.806282, -34.106028 46.802941, -34.120715 46.799598, -34.135400 46.796254, -34.150083 46.792907, -34.164764 46.789558, -34.179443 46.786208, -34.194121 46.782856, -34.208796 46.779502, -34.223470 46.776146, -34.238142 46.772788, -34.252813 46.769428, -34.267481 46.766067, -34.282148 46.762703, -34.296812 46.759338, -34.311475 46.755971, -34.326136 46.752602, -34.340795 46.749231, -34.355453 46.745858, -34.370108 46.742483, -34.384762 46.739107, -34.399414 46.735728, -34.414064 46.732348, -34.428712 46.728966, -34.443358 46.725582, -34.458003 46.722196, -34.472646 46.718808, -34.487286 46.715418, -34.501925 46.712027, -34.516563 46.708633, -34.531198 46.705238, -34.545831 46.701841, -34.560463 46.698442, -34.575093 46.695041, -34.589721 46.691638, -34.604347 46.688234, -34.618971 46.684827, -34.633594 46.681419, -34.648214 46.678009, -34.662833 46.674597, -34.677450 46.671183, -34.692065 46.667767, -34.706678 46.664350, -34.721289 46.660930, -34.735899 46.657509, -34.750507 46.654086, -34.765112 46.650661, -34.779716 46.647234, -34.794318 46.643805, -34.808919 46.640374, -34.823517 46.636942, -34.838114 46.633508, -34.852708 46.630071, -34.867301 46.626633, -34.881892 46.623193, -34.896481 46.619752, -34.911068 46.616308, -34.925654 46.612863, -34.940237 46.609415, -34.954819 46.605966, -34.969399 46.602515, -34.983977 46.599062, -34.998553 46.595608, -35.013127 46.592151, -35.027700 46.588693, -35.042270 46.585232, -35.056839 46.581770, -35.071406 46.578306, -35.085971 46.574840, -35.100534 46.571373, -35.115095 46.567903, -35.129654 46.564432, -35.144212 46.560959, -35.158768 46.557484, -35.173321 46.554007, -35.187873 46.550528, -35.202423 46.547047, -35.216972 46.543565, -35.231518 46.540081, -35.246062 46.536594, -35.260605 46.533106, -35.275146 46.529617, -35.289684 46.526125, -35.304221 46.522631, -35.318757 46.519136, -35.333290 46.515639, -35.347821 46.512140, -35.362351 46.508639, -35.376878 46.505136, -35.391404 46.501632, -35.405928 46.498125, -35.420450 46.494617, -35.434970 46.491107, -35.449488 46.487595, -35.464005 46.484082, -35.478519 46.480566, -35.493032 46.477049, -35.507543 46.473529, -35.522051 46.470008, -35.536558 46.466485, -35.551064 46.462961, -35.565567 46.459434, -35.580068 46.455906, -35.594568 46.452375, -35.609065 46.448843, -35.623561 46.445310, -35.638055 46.441774, -35.652547 46.438236, -35.667037 46.434697, -35.681525 46.431156, -35.696011 46.427613, -35.710496 46.424068, -35.724978 46.420521, -35.739459 46.416972, -35.753938 46.413422, -35.768415 46.409870, -35.782890 46.406316, -35.797363 46.402760, -35.811834 46.399202, -35.826303 46.395643, -35.840771 46.392082, -35.855236 46.388518, -35.869700 46.384953, -35.884162 46.381387, -35.898622 46.377818, -35.913080 46.374248, -35.927536 46.370675, -35.941990 46.367101, -35.956442 46.363525, -35.970893 46.359948, -35.985341 46.356368, -35.999788 46.352787, -36.014233 46.349204, -36.028676 46.345619, -36.043117 46.342032, -36.057556 46.338443, -36.071993 46.334853, -36.086428 46.331260, -36.100862 46.327666, -36.115293 46.324070, -36.129723 46.320473, -36.144150 46.316873, -36.158576 46.313272, -36.173000 46.309669, -36.187422 46.306064, -36.201842 46.302457, -36.216260 46.298848, -36.230677 46.295238, -36.245091 46.291626, -36.259504 46.288012, -36.273914 46.284396, -36.288323 46.280778, -36.302730 46.277159, -36.317135 46.273538, -36.331537 46.269914, -36.345939 46.266290, -36.360338 46.262663, -36.374735 46.259034, -36.389130 46.255404, -36.403524 46.251772, -36.417915 46.248138, -36.432305 46.244502, -36.446693 46.240865, -36.461079 46.237225, -36.475462 46.233584, -36.489844 46.229941, -36.504225 46.226297, -36.518603 46.222650, -36.532979 46.219002, -36.547353 46.215352, -36.561726 46.211700, -36.576096 46.208046, -36.590465 46.204390, -36.604832 46.200733, -36.619197 46.197074, -36.633559 46.193413, -36.647920 46.189750, -36.662279 46.186086, -36.676637 46.182419, -36.690992 46.178751, -36.705345 46.175081, -36.719697 46.171409, -36.734046 46.167736, -36.748394 46.164061, -36.762739 46.160383, -36.777083 46.156704, -36.791425 46.153024, -36.805765 46.149341, -36.820103 46.145657, -36.834439 46.141971, -36.848773 46.138283, -36.863105 46.134593, -36.877435 46.130902, -36.891764 46.127209, -36.906090 46.123514, -36.920415 46.119817, -36.934737 46.116118, -36.949058 46.112418, -36.963377 46.108716, -36.977694 46.105012, -36.992009 46.101306, -37.006322 46.097598, -37.020633 46.093889, -37.034942 46.090178, -37.049249 46.086465, -37.063554 46.082750, -37.077858 46.079034, -37.092159 46.075315, -37.106459 46.071595, -37.120756 46.067873, -37.135052 46.064150, -37.149345 46.060424, -37.163637 46.056697, -37.177927 46.052968, -37.192215 46.049238, -37.206501 46.045505, -37.220785 46.041771, -37.235067 46.038035, -37.249347 46.034297, -37.263626 46.030557, -37.277902 46.026816, -37.292177 46.023073, -37.306449 46.019328, -37.320720 46.015581, -37.334988 46.011832, -37.349255 46.008082, -37.363520 46.004330, -37.377782 46.000576, -37.392043 45.996820, -37.406302 45.993063, -37.420559 45.989304, -37.434814 45.985543, -37.449067 45.981780, -37.463319 45.978016, -37.477568 45.974250, -37.491815 45.970481, -37.506060 45.966712, -37.520304 45.962940, -37.534545 45.959167, -37.548785 45.955392, -37.563023 45.951615, -37.577258 45.947836, -37.591492 45.944056, -37.605724 45.940274, -37.619954 45.936490, -37.634181 45.932704, -37.648407 45.928916, -37.662631 45.925127, -37.676853 45.921336, -37.691074 45.917543, -37.705292 45.913749, -37.719508 45.909953, -37.733722 45.906155, -37.747935 45.902355, -37.762145 45.898553, -37.776354 45.894750, -37.790560 45.890945, -37.804765 45.887138, -37.818967 45.883329, -37.833168 45.879519, -37.847367 45.875707, -37.861563 45.871893, -37.875758 45.868077, -37.889951 45.864260, -37.904142 45.860441, -37.918331 45.856620, -37.932518 45.852797, -37.946703 45.848973, -37.960886 45.845146, -37.975067 45.841319, -37.989247 45.837489, -38.003424 45.833657, -38.017599 45.829824, -38.031773 45.825989, -38.045944 45.822152, -38.060113 45.818314, -38.074281 45.814474, -38.088446 45.810632, -38.102610 45.806788, -38.116772 45.802943, -38.130931 45.799095, -38.145089 45.795247, -38.159245 45.791396, -38.173399 45.787543, -38.187551 45.783689, -38.201700 45.779833, -38.215848 45.775976, -38.229994 45.772116, -38.244138 45.768255, -38.258280 45.764392, -38.272421 45.760527, -38.286559 45.756661, -38.300695 45.752793, -38.314829 45.748923, -38.328961 45.745051, -38.343092 45.741178, -38.357220 45.737303, -38.371346 45.733426, -38.385471 45.729547, -38.399593 45.725667, -38.413714 45.721785, -38.427832 45.717901, -38.441949 45.714015, -38.456064 45.710128, -38.470176 45.706239, -38.484287 45.702348, -38.498396 45.698456, -38.512502 45.694561, -38.526607 45.690665, -38.540710 45.686768, -38.554811 45.682868, -38.568910 45.678967, -38.583007 45.675064, -38.597102 45.671159, -38.611195 45.667253, -38.625286 45.663345, -38.639375 45.659435, -38.653462 45.655523, -38.667547 45.651610, -38.681630 45.647695, -38.695711 45.643778, -38.709791 45.639860, -38.723868 45.635939, -38.737943 45.632017, -38.752016 45.628094, -38.766088 45.624168, -38.780157 45.620241, -38.794225 45.616312, -38.808290 45.612382, -38.822353 45.608449, -38.836415 45.604515, -38.850474 45.600579, -38.864532 45.596642, -38.878587 45.592703, -38.892641 45.588762, -38.906693 45.584819, -38.920742 45.580875, -38.934790 45.576929, -38.948836 45.572981, -38.962879 45.569031, -38.976921 45.565080, -38.990961 45.561127, -39.004999 45.557172, -39.019035 45.553216, -39.033068 45.549257, -39.047100 45.545298, -39.061130 45.541336, -39.075158 45.537373, -39.089184 45.533408, -39.103208 45.529441, -39.117230 45.525472, -39.131250 45.521502, -39.145268 45.517530, -39.159284 45.513557, -39.173298 45.509581, -39.187310 45.505604, -39.201320 45.501626, -39.215328 45.497645, -39.229334 45.493663, -39.243339 45.489679, -39.257341 45.485693, -39.271341 45.481706, -39.285339 45.477717, -39.299335 45.473726, -39.313330 45.469734, -39.327322 45.465740, -39.341312 45.461744, -39.355300 45.457746, -39.369287 45.453747, -39.383271 45.449746, -39.397253 45.445743, -39.411234 45.441739, -39.425212 45.437733, -39.439188 45.433725, -39.453163 45.429716, -39.467135 45.425704, -39.481106 45.421692, -39.495074 45.417677, -39.509041 45.413661, -39.523005 45.409643, -39.536968 45.405623, -39.550928 45.401601, -39.564887 45.397578, -39.578843 45.393554, -39.592798 45.389527, -39.606750 45.385499, -39.620701 45.381469, -39.634649 45.377437, -39.648596 45.373404, -39.662541 45.369369, -39.676483 45.365332, -39.690424 45.361294, -39.704362 45.357254, -39.718299 45.353212, -39.732234 45.349168, -39.746166 45.345123, -39.760097 45.341076, -39.774026 45.337028, -39.787952 45.332978, -39.801877 45.328926, -39.815800 45.324872, -39.829720 45.320817, -39.843639 45.316760, -39.857556 45.312701, -39.871470 45.308640, -39.885383 45.304578, -39.899294 45.300515, -39.913203 45.296449, -39.927109 45.292382, -39.941014 45.288313, -39.954917 45.284243, -39.968818 45.280170, -39.982716 45.276096, -39.996613 45.272021, -40.010508 45.267944, -40.024401 45.263865, -40.038291 45.259784, -40.052180 45.255702, -40.066067 45.251618, -40.079952 45.247532, -40.093834 45.243445, -40.107715 45.239356, -40.121594 45.235265, -40.135471 45.231172, -40.149346 45.227078, -40.163218 45.222982, -40.177089 45.218885, -40.190958 45.214786, -40.204825 45.210685, -40.218690 45.206583, -40.232552 45.202478, -40.246413 45.198373, -40.260272 45.194265, -40.274129 45.190156, -40.287984 45.186045, -40.301836 45.181932, -40.315687 45.177818, -40.329536 45.173702, -40.343383 45.169585, -40.357227 45.165465, -40.371070 45.161345, -40.384911 45.157222, -40.398750 45.153098, -40.412587 45.148972, -40.426421 45.144844, -40.440254 45.140715, -40.454085 45.136584, -40.467914 45.132451, -40.481740 45.128317, -40.495565 45.124181, -40.509388 45.120043, -40.523208 45.115904, -40.537027 45.111763, -40.550844 45.107621, -40.564659 45.103476, -40.578471 45.099330, -40.592282 45.095183, -40.606091 45.091034, -40.619897 45.086883, -40.633702 45.082730, -40.647505 45.078576, -40.661305 45.074420, -40.675104 45.070262, -40.688901 45.066103, -40.702695 45.061942, -40.716488 45.057779, -40.730279 45.053615, -40.744067 45.049449, -40.757854 45.045282, -40.771639 45.041113, -40.785421 45.036942, -40.799202 45.032769, -40.812980 45.028595, -40.826757 45.024419, -40.840531 45.020242, -40.854304 45.016063, -40.868075 45.011882, -40.881843 45.007699, -40.895610 45.003515, -40.909374 44.999329, -40.923137 44.995142, -40.936897 44.990953, -40.950655 44.986762, -40.964412 44.982570, -40.978166 44.978376, -40.991919 44.974180, -41.005669 44.969983, -41.019418 44.965784, -41.033164 44.961583, -41.046908 44.957381, -41.060651 44.953177, -41.074391 44.948971, -41.088129 44.944764, -41.101866 44.940555, -41.115600 44.936345, -41.129332 44.932133, -41.143063 44.927919, -41.156791 44.923703, -41.170517 44.919486, -41.184241 44.915268, -41.197964 44.911047, -41.211684 44.906825, -41.225402 44.902602, -41.239118 44.898376, -41.252832 44.894149, -41.266545 44.889921, -41.280255 44.885690, -41.293963 44.881459, -41.307669 44.877225, -41.321373 44.872990, -41.335075 44.868753, -41.348775 44.864515, -41.362473 44.860275, -41.376169 44.856033, -41.389863 44.851790, -41.403555 44.847545, -41.417245 44.843298, -41.430933 44.839050, -41.444619 44.834800, -41.458303 44.830548, -41.471985 44.826295, -41.485664 44.822040, -41.499342 44.817784, -41.513018 44.813526, -41.526692 44.809266, -41.540364 44.805005, -41.554033 44.800742, -41.567701 44.796477, -41.581367 44.792211, -41.595031 44.787943, -41.608692 44.783674, -41.622352 44.779403, -41.636010 44.775130, -41.649665 44.770856, -41.663319 44.766580, -41.676970 44.762302, -41.690620 44.758023, -41.704267 44.753742, -41.717913 44.749460, -41.731556 44.745176, -41.745198 44.740890, -41.758837 44.736603, -41.772475 44.732314, -41.786110 44.728023, -41.799743 44.723731, -41.813375 44.719437, -41.827004 44.715142, -41.840631 44.710844, -41.854257 44.706546, -41.867880 44.702245, -41.881501 44.697943, -41.895120 44.693640, -41.908737 44.689335, -41.922353 44.685028, -41.935966 44.680720, -41.949577 44.676410, -41.963186 44.672098, -41.976793 44.667785, -41.990398 44.663470, -42.004001 44.659153, -42.017602 44.654835, -42.031201 44.650515, -42.044798 44.646194, -42.058393 44.641871, -42.071986 44.637547, -42.085576 44.633220, -42.099165 44.628893, -42.112752 44.624563, -42.126337 44.620232, -42.139920 44.615900, -42.153500 44.611565, -42.167079 44.607230, -42.180656 44.602892, -42.194230 44.598553, -42.207803 44.594213, -42.221373 44.589870, -42.234942 44.585526, -42.248509 44.581181, -42.262073 44.576834, -42.275635 44.572485, -42.289196 44.568135, -42.302754 44.563783, -42.316311 44.559429, -42.329865 44.555074, -42.343417 44.550718, -42.356968 44.546359, -42.370516 44.541999, -42.384062 44.537638, -42.397606 44.533275, -42.411148 44.528910, -42.424689 44.524544, -42.438227 44.520176, -42.451763 44.515806, -42.465297 44.511435, -42.478829 44.507063, -42.492359 44.502688, -42.505887 44.498312, -42.519413 44.493935, -42.532937 44.489556, -42.546459 44.485175, -42.559978 44.480793, -42.573496 44.476409, -42.587012 44.472023, -42.600526 44.467636, -42.614037 44.463248, -42.627547 44.458857, -42.641055 44.454466, -42.654560 44.450072, -42.668064 44.445677, -42.681565 44.441281, -42.695065 44.436882, -42.708562 44.432483, -42.722058 44.428081, -42.735551 44.423678, -42.749043 44.419274, -42.762532 44.414867, -42.776019 44.410460, -42.789505 44.406050, -42.802988 44.401639, -42.816469 44.397227, -42.829948 44.392813, -42.843426 44.388397, -42.856901 44.383980, -42.870374 44.379561, -42.883845 44.375141, -42.897314 44.370719, -42.910781 44.366295, -42.924246 44.361870, -42.937709 44.357443, -42.951170 44.353015, -42.964628 44.348585, -42.978085 44.344153, -42.991540 44.339720, -43.004993 44.335286, -43.018443 44.330850, -43.031892 44.326412, -43.045339 44.321972, -43.058783 44.317531, -43.072226 44.313089, -43.085666 44.308645, -43.099105 44.304199, -43.112541 44.299752, -43.125976 44.295303, -43.139408 44.290853, -43.152839 44.286401, -43.166267 44.281947, -43.179693 44.277492, -43.193117 44.273035, -43.206540 44.268577, -43.219960 44.264117, -43.233378 44.259656, -43.246794 44.255193, -43.260208 44.250728, -43.273620 44.246262, -43.287030 44.241794, -43.300438 44.237325, -43.313844 44.232854, -43.327248 44.228382, -43.340650 44.223908, -43.354050 44.219432, -43.367447 44.214955, -43.380843 44.210476, -43.394237 44.205996, -43.407628 44.201514, -43.421018 44.197031, -43.434406 44.192546, -43.447791 44.188060, -43.461175 44.183572, -43.474556 44.179082, -43.487936 44.174591, -43.501313 44.170098, -43.514688 44.165604, -43.528062 44.161108, -43.541433 44.156610, -43.554802 44.152111, -43.568169 44.147611, -43.581534 44.143109, -43.594898 44.138605, -43.608259 44.134100, -43.621618 44.129593, -43.634975 44.125085, -43.648330 44.120575, -43.661683 44.116064, -43.675034 44.111551, -43.688382 44.107036, -43.701729 44.102520, -43.715074 44.098002, -43.728417 44.093483, -43.741757 44.088962, -43.755096 44.084440, -43.768433 44.079916, -43.781767 44.075391, -43.795100 44.070864, -43.808430 44.066335, -43.821759 44.061805, -43.835085 44.057274, -43.848409 44.052740, -43.861732 44.048206, -43.875052 44.043669, -43.888370 44.039132, -43.901687 44.034592, -43.915001 44.030051, -43.928313 44.025509, -43.941623 44.020965, -43.954931 44.016419, -43.968237 44.011872, -43.981541 44.007324, -43.994843 44.002774, -44.008143 43.998222, -44.021441 43.993669, -44.034736 43.989114, -44.048030 43.984557, -44.061322 43.980000, -44.074612 43.975440, -44.087899 43.970879, -44.101185 43.966317, -44.114468 43.961753, -44.127750 43.957187, -44.141029 43.952620, -44.154307 43.948051, -44.167582 43.943481, -44.180856 43.938909, -44.194127 43.934336, -44.207396 43.929761, -44.220663 43.925185, -44.233929 43.920607, -44.247192 43.916028, -44.260453 43.911447, -44.273712 43.906864, -44.286969 43.902280, -44.300224 43.897695, -44.313477 43.893108, -44.326728 43.888519, -44.339977 43.883929, -44.353224 43.879337, -44.366468 43.874744, -44.379711 43.870150, -44.392952 43.865553, -44.406190 43.860955, -44.419427 43.856356, -44.432662 43.851755, -44.445894 43.847153, -44.459125 43.842549, -44.472353 43.837944, -44.485579 43.833337, -44.498804 43.828728, -44.512026 43.824118, -44.525246 43.819507, -44.538465 43.814894, -44.551681 43.810279, -44.564895 43.805663, -44.578107 43.801046, -44.591317 43.796426, -44.604525 43.791806, -44.617731 43.787184, -44.630935 43.782560, -44.644137 43.777935, -44.657337 43.773308, -44.670534 43.768680, -44.683730 43.764050, -44.696924 43.759419, -44.710116 43.754786, -44.723305 43.750152, -44.736493 43.745516, -44.749678 43.740878, -44.762862 43.736240, -44.776043 43.731599, -44.789223 43.726957, -44.802400 43.722314, -44.815575 43.717669, -44.828749 43.713023, -44.841920 43.708375, -44.855089 43.703725, -44.868256 43.699074, -44.881421 43.694422, -44.894585 43.689768, -44.907746 43.685112, -44.920905 43.680455, -44.934061 43.675797, -44.947216 43.671137, -44.960369 43.666475, -44.973520 43.661812, -44.986669 43.657148, -44.999816 43.652482, -45.012960 43.647814, -45.026103 43.643145, -45.039243 43.638474, -45.052382 43.633802, -45.065519 43.629129, -45.078653 43.624454, -45.091785 43.619777, -45.104916 43.615099, -45.118044 43.610419, -45.131170 43.605738, -45.144295 43.601056, -45.157417 43.596371, -45.170537 43.591686, -45.183655 43.586999, -45.196771 43.582310, -45.209885 43.577620, -45.222997 43.572928, -45.236107 43.568235, -45.249215 43.563541, -45.262321 43.558845, -45.275425 43.554147, -45.288527 43.549448, -45.301626 43.544747, -45.314724 43.540045, -45.327820 43.535342, -45.340913 43.530637, -45.354005 43.525930, -45.367094 43.521222, -45.380182 43.516513, -45.393267 43.511802, -45.406351 43.507089, -45.419432 43.502375, -45.432511 43.497659, -45.445589 43.492942, -45.458664 43.488224, -45.471737 43.483504, -45.484808 43.478782, -45.497877 43.474060, -45.510944 43.469335, -45.524009 43.464609, -45.537072 43.459882, -45.550133 43.455153, -45.563192 43.450422, -45.576249 43.445691, -45.589304 43.440957, -45.602357 43.436222, -45.615407 43.431486, -45.628456 43.426748, -45.641503 43.422009, -45.654547 43.417268, -45.667590 43.412526, -45.680630 43.407782, -45.693669 43.403037, -45.706705 43.398290, -45.719739 43.393542, -45.732772 43.388792, -45.745802 43.384041, -45.758830 43.379288, -45.771856 43.374534, -45.784881 43.369779, -45.797903 43.365022, -45.810923 43.360263, -45.823941 43.355503, -45.836957 43.350742, -45.849971 43.345979, -45.862983 43.341214, -45.875992 43.336448, -45.889000 43.331681, -45.902006 43.326912, -45.915010 43.322142, -45.928011 43.317370, -45.941011 43.312596, -45.954009 43.307822, -45.967004 43.303045, -45.979998 43.298268, -45.992989 43.293489, -46.005979 43.288708, -46.018966 43.283926, -46.031951 43.279142, -46.044935 43.274357, -46.057916 43.269571, -46.070895 43.264783, -46.083872 43.259993, -46.096848 43.255202, -46.109821 43.250410, -46.122792 43.245616, -46.135761 43.240821, -46.148728 43.236024, -46.161693 43.231226, -46.174655 43.226426, -46.187616 43.221625, -46.200575 43.216822, -46.213532 43.212018, -46.226487 43.207212, -46.239439 43.202405, -46.252390 43.197597, -46.265339 43.192787, -46.278285 43.187976, -46.291230 43.183163, -46.304172 43.178348, -46.317113 43.173533, -46.330051 43.168715, -46.342987 43.163897, -46.355922 43.159077, -46.368854 43.154255, -46.381784 43.149432, -46.394712 43.144607, -46.407638 43.139781, -46.420563 43.134954, -46.433485 43.130125, -46.446405 43.125295, -46.459323 43.120463, -46.472239 43.115630, -46.485152 43.110795, -46.498064 43.105959, -46.510974 43.101121, -46.523882 43.096282, -46.536788 43.091442, -46.549691 43.086600, -46.562593 43.081756, -46.575493 43.076911, -46.588390 43.072065, -46.601286 43.067217, -46.614179 43.062368, -46.627071 43.057517, -46.639960 43.052665, -46.652848 43.047812, -46.665733 43.042957, -46.678616 43.038100, -46.691498 43.033243, -46.704377 43.028383, -46.717254 43.023522, -46.730129 43.018660, -46.743002 43.013797, -46.755873 43.008931, -46.768742 43.004065, -46.781609 42.999197, -46.794474 42.994328, -46.807337 42.989457, -46.820198 42.984584, -46.833057 42.979711, -46.845914 42.974835, -46.858768 42.969959, -46.871621 42.965081, -46.884472 42.960201, -46.897321 42.955320, -46.910167 42.950438, -46.923012 42.945554, -46.935854 42.940669, -46.948695 42.935782, -46.961533 42.930894, -46.974370 42.926005, -46.987204 42.921114, -47.000036 42.916221, -47.012867 42.911327, -47.025695 42.906432, -47.038521 42.901535, -47.051345 42.896637, -47.064167 42.891738, -47.076988 42.886837, -47.089806 42.881934, -47.102622 42.877030, -47.115436 42.872125, -47.128248 42.867218, -47.141058 42.862310, -47.153865 42.857401, -47.166671 42.852490, -47.179475 42.847577, -47.192277 42.842663, -47.205077 42.837748, -47.217874 42.832831, -47.230670 42.827913, -47.243464 42.822994, -47.256255 42.818073, -47.269045 42.813150, -47.281832 42.808227, -47.294618 42.803301, -47.307401 42.798375, -47.320183 42.793446, -47.332962 42.788517, -47.345739 42.783586, -47.358515 42.778654, -47.371288 42.773720, -47.384059 42.768785, -47.396829 42.763848, -47.409596 42.758910, -47.422361 42.753971, -47.435124 42.749030, -47.447885 42.744087, -47.460644 42.739144, -47.473401 42.734199, -47.486156 42.729252, -47.498909 42.724304, -47.511660 42.719355, -47.524409 42.714404, -47.537156 42.709452, -47.549900 42.704498, -47.562643 42.699543, -47.575384 42.694587, -47.588122 42.689629, -47.600859 42.684670, -47.613594 42.679709, -47.626326 42.674747, -47.639057 42.669783, -47.651785 42.664819, -47.664512 42.659852, -47.677236 42.654885, -47.689959 42.649915, -47.702679 42.644945, -47.715398 42.639973, -47.728114 42.635000, -47.740828 42.630025, -47.753540 42.625049, -47.766251 42.620071, -47.778959 42.615092, -47.791665 42.610112, -47.804369 42.605130, -47.817071 42.600147, -47.829771 42.595162, -47.842469 42.590176, -47.855165 42.585189, -47.867859 42.580200, -47.880551 42.575210, -47.893241 42.570219, -47.905929 42.565226, -47.918615 42.560231, -47.931299 42.555235, -47.943981 42.550238, -47.956660 42.545240, -47.969338 42.540240, -47.982014 42.535238, -47.994687 42.530236, -48.007359 42.525231, -48.020029 42.520226, -48.032696 42.515219, -48.045362 42.510210, -48.058025 42.505201, -48.070687 42.500190, -48.083346 42.495177, -48.096004 42.490163, -48.108659 42.485148, -48.121312 42.480131, -48.133964 42.475113, -48.146613 42.470094, -48.159260 42.465073, -48.171906 42.460050, -48.184549 42.455027, -48.197190 42.450002, -48.209829 42.444975, -48.222466 42.439947, -48.235101 42.434918, -48.247734 42.429888, -48.260365 42.424856, -48.272994 42.419822, -48.285621 42.414787, -48.298246 42.409751, -48.310869 42.404714, -48.323490 42.399675, -48.336109 42.394635, -48.348726 42.389593, -48.361341 42.384550, -48.373954 42.379505, -48.386564 42.374459, -48.399173 42.369412, -48.411780 42.364364, -48.424385 42.359314, -48.436987 42.354262, -48.449588 42.349210, -48.462187 42.344155, -48.474783 42.339100, -48.487378 42.334043, -48.499970 42.328985, -48.512561 42.323925, -48.525149 42.318864, -48.537736 42.313802, -48.550320 42.308738, -48.562903 42.303673, -48.575483 42.298606, -48.588061 42.293539, -48.600638 42.288469, -48.613212 42.283399, -48.625784 42.278327, -48.638355 42.273253, -48.650923 42.268179, -48.663489 42.263102, -48.676053 42.258025, -48.688616 42.252946, -48.701176 42.247866, -48.713734 42.242784, -48.726290 42.237701, -48.738844 42.232617, -48.751396 42.227531, -48.763946 42.222444, -48.776494 42.217356, -48.789040 42.212266, -48.801584 42.207175, -48.814126 42.202082, -48.826666 42.196988, -48.839204 42.191893, -48.851740 42.186796, -48.864274 42.181698, -48.876806 42.176599, -48.889335 42.171498, -48.901863 42.166396, -48.914389 42.161292, -48.926913 42.156188, -48.939434 42.151081, -48.951954 42.145974, -48.964472 42.140865, -48.976988 42.135755, -48.989501 42.130643, -49.002013 42.125530, -49.014523 42.120416, -49.027030 42.115300, -49.039536 42.110183, -49.052039 42.105065, -49.064541 42.099945, -49.077040 42.094824, -49.089538 42.089701, -49.102033 42.084577, -49.114527 42.079452, -49.127018 42.074326, -49.139508 42.069198, -49.151995 42.064068, -49.164481 42.058938, -49.176964 42.053806, -49.189445 42.048672, -49.201925 42.043538, -49.214402 42.038402, -49.226877 42.033264, -49.239351 42.028126, -49.251822 42.022985, -49.264291 42.017844, -49.276758 42.012701, -49.289224 42.007557, -49.301687 42.002412, -49.314148 41.997265, -49.326607 41.992117, -49.339064 41.986967, -49.351519 41.981816, -49.363973 41.976664, -49.376424 41.971510, -49.388873 41.966356, -49.401320 41.961199, -49.413765 41.956042, -49.426208 41.950883, -49.438649 41.945722, -49.451088 41.940561, -49.463525 41.935398, -49.475960 41.930234, -49.488393 41.925068, -49.500824 41.919901, -49.513253 41.914733, -49.525680 41.909563, -49.538105 41.904392, -49.550528 41.899220, -49.562949 41.894046, -49.575368 41.888871, -49.587785 41.883694, -49.600200 41.878517, -49.612612 41.873338, -49.625023 41.868157, -49.637432 41.862976, -49.649839 41.857793, -49.662244 41.852608, -49.674647 41.847422, -49.687047 41.842235, -49.699446 41.837047, -49.711843 41.831857, -49.724238 41.826666, -49.736630 41.821474, -49.749021 41.816280, -49.761410 41.811085, -49.773797 41.805889, -49.786181 41.800691, -49.798564 41.795492, -49.810945 41.790292, -49.823324 41.785090, -49.835700 41.779887, -49.848075 41.774683, -49.860448 41.769477, -49.872818 41.764270, -49.885187 41.759062, -49.897553 41.753852, -49.909918 41.748641, -49.922281 41.743429, -49.934641 41.738215, -49.947000 41.733000)
