LINESTRING (-1.300000 50.760000, -1.298808 50.760129, -1.297606 50.760265, -1.296394 50.760408, -1.295173 50.760557, -1.293941 50.760712, -1.292701 50.760873, -1.291451 50.761040, -1.290193 50.761212, -1.288925 50.761391, -1.287649 50.761574, -1.286364 50.761764, -1.285070 50.761958, -1.283769 50.762158, -1.282459 50.762362, -1.281141 50.762571, -1.279816 50.762785, -1.278483 50.763003, -1.277142 50.763226, -1.275794 50.763453, -1.274438 50.763684, -1.273076 50.763918, -1.271707 50.764157, -1.270331 50.764399, -1.268948 50.764645, -1.267560 50.764894, -1.266164 50.765146, -1.264763 50.765401, -1.263356 50.765660, -1.261943 50.765921, -1.260524 50.766184, -1.259100 50.766451, -1.257670 50.766719, -1.256236 50.766990, -1.254796 50.767263, -1.253351 50.767537, -1.251902 50.767814, -1.250448 50.768092, -1.248990 50.768371, -1.247528 50.768652, -1.246061 50.768935, -1.244591 50.769218, -1.243116 50.769502, -1.241639 50.769787, -1.240157 50.770072, -1.238673 50.770358, -1.237185 50.770645, -1.235694 50.770932, -1.234200 50.771218, -1.232704 50.771505, -1.231205 50.771791, -1.229704 50.772077, -1.228201 50.772363, -1.226695 50.772648, -1.225188 50.772932, -1.223678 50.773215, -1.222168 50.773497, -1.220656 50.773778, -1.219142 50.774058, -1.217628 50.774336, -1.216112 50.774612, -1.214596 50.774887, -1.213079 50.775159, -1.211561 50.775430, -1.210043 50.775699, -1.208525 50.775965, -1.207007 50.776228, -1.205489 50.776489, -1.203971 50.776747, -1.202454 50.777003, -1.200938 50.777255, -1.199422 50.777504, -1.197907 50.777749, -1.196393 50.777992, -1.194880 50.778230, -1.193369 50.778465, -1.191859 50.778696, -1.190351 50.778922, -1.188845 50.779145, -1.187340 50.779363, -1.185838 50.779577, -1.184338 50.779786, -1.182841 50.779990, -1.181346 50.780190, -1.179854 50.780384, -1.178365 50.780573, -1.176880 50.780757, -1.175397 50.780935, -1.173918 50.781108, -1.172442 50.781275, -1.170970 50.781436, -1.169502 50.781591, -1.168038 50.781740, -1.166578 50.781882, -1.165123 50.782018, -1.163672 50.782148, -1.162226 50.782270, -1.160784 50.782386, -1.159348 50.782495, -1.157916 50.782596, -1.156490 50.782690, -1.155070 50.782777, -1.153655 50.782856, -1.152245 50.782927, -1.150842 50.782991, -1.149445 50.783046, -1.148054 50.783093, -1.146669 50.783132, -1.145291 50.783162, -1.143920 50.783184, -1.142555 50.783197, -1.141198 50.783201, -1.139847 50.783197, -1.138504 50.783182, -1.137169 50.783159, -1.135841 50.783126, -1.134521 50.783084, -1.133209 50.783032, -1.131905 50.782970, -1.130609 50.782897, -1.129322 50.782815, -1.128043 50.782723, -1.126773 50.782620, -1.125512 50.782506, -1.124260 50.782382, -1.123017 50.782246, -1.121784 50.782100, -1.120560 50.781943, -1.119346 50.781774, -1.118142 50.781594, -1.116947 50.781402, -1.115763 50.781198, -1.114589 50.780983, -1.113426 50.780756, -1.112273 50.780516, -1.111131 50.780264, -1.110000 50.780000, -1.108879 50.779719, -1.107765 50.779415, -1.106658 50.779089, -1.105558 50.778741, -1.104465 50.778372, -1.103379 50.777982, -1.102300 50.777572, -1.101229 50.777141, -1.100165 50.776691, -1.099109 50.776221, -1.098061 50.775731, -1.097021 50.775223, -1.095988 50.774697, -1.094964 50.774152, -1.093948 50.773590, -1.092940 50.773010, -1.091941 50.772414, -1.090951 50.771801, -1.089969 50.771171, -1.088996 50.770526, -1.088032 50.769865, -1.087077 50.769189, -1.086131 50.768498, -1.085194 50.767792, -1.084267 50.767073, -1.083349 50.766340, -1.082441 50.765593, -1.081543 50.764833, -1.080655 50.764061, -1.079777 50.763276, -1.078909 50.762479, -1.078051 50.761671, -1.077203 50.760852, -1.076366 50.760021, -1.075540 50.759181, -1.074724 50.758330, -1.073919 50.757469, -1.073125 50.756599, -1.072342 50.755720, -1.071570 50.754832, -1.070810 50.753935, -1.070061 50.753031, -1.069323 50.752119, -1.068597 50.751200, -1.067883 50.750274, -1.067181 50.749341, -1.066491 50.748403, -1.065813 50.747458, -1.065147 50.746508, -1.064493 50.745553, -1.063852 50.744593, -1.063223 50.743628, -1.062608 50.742660, -1.062004 50.741688, -1.061414 50.740713, -1.060837 50.739735, -1.060273 50.738754, -1.059723 50.737771, -1.059185 50.736786, -1.058662 50.735799, -1.058151 50.734812, -1.057655 50.733824, -1.057172 50.732835, -1.056704 50.731846, -1.056249 50.730858, -1.055809 50.729870, -1.055383 50.728883, -1.054971 50.727898, -1.054574 50.726914, -1.054192 50.725932, -1.053824 50.724953, -1.053472 50.723977, -1.053134 50.723004, -1.052811 50.722034, -1.052504 50.721069, -1.052212 50.720107, -1.051935 50.719150, -1.051674 50.718199, -1.051429 50.717252, -1.051200 50.716311, -1.050986 50.715377, -1.050789 50.714448, -1.050608 50.713527, -1.050443 50.712613, -1.050294 50.711706, -1.050162 50.710807, -1.050046 50.709916, -1.049948 50.709034, -1.049866 50.708161, -1.049801 50.707297, -1.049753 50.706443, -1.049723 50.705598, -1.049709 50.704765, -1.049714 50.703942, -1.049735 50.703130, -1.049775 50.702329, -1.049832 50.701540, -1.049907 50.700764, -1.050000 50.700000, -1.050116 50.699244, -1.050259 50.698484, -1.050429 50.697720, -1.050625 50.696954, -1.050848 50.696184, -1.051096 50.695412, -1.051370 50.694636, -1.051669 50.693858, -1.051993 50.693077, -1.052341 50.692294, -1.052712 50.691509, -1.053107 50.690722, -1.053525 50.689932, -1.053966 50.689141, -1.054429 50.688347, -1.054914 50.687553, -1.055420 50.686756, -1.055947 50.685959, -1.056494 50.685160, -1.057062 50.684360, -1.057650 50.683559, -1.058257 50.682757, -1.058883 50.681955, -1.059528 50.681152, -1.060191 50.680348, -1.060872 50.679545, -1.061570 50.678741, -1.062285 50.677937, -1.063017 50.677133, -1.063765 50.676329, -1.064529 50.675526, -1.065308 50.674724, -1.066103 50.673922, -1.066912 50.673120, -1.067735 50.672320, -1.068572 50.671520, -1.069422 50.670722, -1.070286 50.669925, -1.071162 50.669130, -1.072051 50.668336, -1.072951 50.667544, -1.073863 50.666753, -1.074785 50.665965, -1.075719 50.665179, -1.076662 50.664395, -1.077616 50.663613, -1.078579 50.662834, -1.079551 50.662057, -1.080532 50.661283, -1.081521 50.660512, -1.082517 50.659745, -1.083522 50.658980, -1.084533 50.658218, -1.085551 50.657460, -1.086575 50.656706, -1.087606 50.655955, -1.088641 50.655208, -1.089682 50.654465, -1.090727 50.653726, -1.091777 50.652992, -1.092831 50.652262, -1.093888 50.651536, -1.094948 50.650815, -1.096011 50.650098, -1.097076 50.649387, -1.098143 50.648680, -1.099212 50.647979, -1.100281 50.647283, -1.101352 50.646592, -1.102422 50.645907, -1.103493 50.645228, -1.104563 50.644554, -1.105632 50.643887, -1.106700 50.643225, -1.107767 50.642570, -1.108831 50.641921, -1.109893 50.641279, -1.110952 50.640643, -1.112007 50.640014, -1.113059 50.639392, -1.114107 50.638777, -1.115151 50.638169, -1.116190 50.637568, -1.117223 50.636975, -1.118251 50.636389, -1.119272 50.635811, -1.120288 50.635241, -1.121296 50.634679, -1.122298 50.634125, -1.123291 50.633579, -1.124277 50.633042, -1.125254 50.632513, -1.126222 50.631992, -1.127182 50.631481, -1.128131 50.630978, -1.129071 50.630484, -1.130000 50.630000, -1.130932 50.629515, -1.131874 50.629024, -1.132825 50.628528, -1.133785 50.628026, -1.134754 50.627518, -1.135731 50.627005, -1.136718 50.626487, -1.137713 50.625964, -1.138717 50.625436, -1.139730 50.624903, -1.140750 50.624366, -1.141779 50.623824, -1.142816 50.623278, -1.143861 50.622727, -1.144914 50.622173, -1.145975 50.621615, -1.147043 50.621053, -1.148119 50.620487, -1.149203 50.619918, -1.150294 50.619346, -1.151392 50.618771, -1.152497 50.618192, -1.153609 50.617611, -1.154729 50.617027, -1.155854 50.616441, -1.156987 50.615852, -1.158126 50.615261, -1.159272 50.614668, -1.160424 50.614072, -1.161583 50.613475, -1.162747 50.612877, -1.163918 50.612277, -1.165094 50.611675, -1.166277 50.611072, -1.167465 50.610468, -1.168658 50.609864, -1.169857 50.609258, -1.171062 50.608652, -1.172272 50.608045, -1.173487 50.607438, -1.174707 50.606831, -1.175932 50.606223, -1.177161 50.605616, -1.178396 50.605009, -1.179635 50.604402, -1.180879 50.603796, -1.182127 50.603191, -1.183379 50.602586, -1.184636 50.601983, -1.185896 50.601380, -1.187161 50.600779, -1.188429 50.600179, -1.189701 50.599581, -1.190977 50.598984, -1.192256 50.598390, -1.193539 50.597797, -1.194825 50.597206, -1.196114 50.596618, -1.197407 50.596032, -1.198702 50.595449, -1.200000 50.594869, -1.201301 50.594291, -1.202605 50.593716, -1.203911 50.593145, -1.205219 50.592577, -1.206530 50.592012, -1.207843 50.591451, -1.209159 50.590894, -1.210476 50.590341, -1.211795 50.589792, -1.213116 50.589246, -1.214439 50.588706, -1.215763 50.588170, -1.217088 50.587638, -1.218415 50.587111, -1.219743 50.586589, -1.221073 50.586073, -1.222403 50.585561, -1.223734 50.585055, -1.225066 50.584554, -1.226399 50.584059, -1.227732 50.583570, -1.229066 50.583087, -1.230401 50.582610, -1.231735 50.582139, -1.233070 50.581675, -1.234404 50.581217, -1.235739 50.580766, -1.237073 50.580321, -1.238407 50.579884, -1.239741 50.579454, -1.241074 50.579031, -1.242407 50.578615, -1.243739 50.578208, -1.245070 50.577807, -1.246400 50.577415, -1.247730 50.577031, -1.249058 50.576655, -1.250384 50.576287, -1.251710 50.575928, -1.253034 50.575577, -1.254356 50.575235, -1.255677 50.574902, -1.256996 50.574578, -1.258313 50.574264, -1.259628 50.573958, -1.260940 50.573662, -1.262251 50.573376, -1.263559 50.573099, -1.264865 50.572833, -1.266169 50.572576, -1.267469 50.572330, -1.268767 50.572094, -1.270062 50.571869, -1.271354 50.571654, -1.272643 50.571450, -1.273929 50.571258, -1.275211 50.571076, -1.276490 50.570905, -1.277766 50.570746, -1.279038 50.570599, -1.280306 50.570463, -1.281570 50.570339, -1.282830 50.570227, -1.284087 50.570127, -1.285339 50.570039, -1.286587 50.569964, -1.287830 50.569901, -1.289069 50.569852, -1.290303 50.569815, -1.291533 50.569791, -1.292758 50.569780, -1.293978 50.569782, -1.295193 50.569798, -1.296403 50.569828, -1.297607 50.569871, -1.298806 50.569929, -1.300000 50.570000, -1.301199 50.570080, -1.302405 50.570164, -1.303618 50.570251, -1.304837 50.570342, -1.306063 50.570436, -1.307295 50.570533, -1.308534 50.570633, -1.309778 50.570737, -1.311029 50.570844, -1.312286 50.570955, -1.313549 50.571069, -1.314817 50.571186, -1.316092 50.571306, -1.317372 50.571429, -1.318658 50.571556, -1.319950 50.571686, -1.321247 50.571820, -1.322549 50.571956, -1.323857 50.572096, -1.325170 50.572239, -1.326489 50.572385, -1.327812 50.572535, -1.329140 50.572687, -1.330474 50.572843, -1.331812 50.573002, -1.333155 50.573164, -1.334502 50.573329, -1.335855 50.573498, -1.337212 50.573670, -1.338573 50.573844, -1.339938 50.574022, -1.341308 50.574203, -1.342683 50.574387, -1.344061 50.574575, -1.345443 50.574765, -1.346830 50.574958, -1.348220 50.575155, -1.349614 50.575354, -1.351012 50.575557, -1.352413 50.575763, -1.353818 50.575972, -1.355226 50.576183, -1.356638 50.576398, -1.358054 50.576616, -1.359472 50.576837, -1.360894 50.577061, -1.362318 50.577288, -1.363746 50.577518, -1.365177 50.577751, -1.366610 50.577987, -1.368047 50.578225, -1.369486 50.578467, -1.370927 50.578712, -1.372371 50.578960, -1.373818 50.579210, -1.375267 50.579464, -1.376718 50.579721, -1.378171 50.579980, -1.379627 50.580242, -1.381084 50.580508, -1.382544 50.580776, -1.384005 50.581047, -1.385468 50.581321, -1.386933 50.581597, -1.388400 50.581877, -1.389868 50.582159, -1.391337 50.582445, -1.392808 50.582733, -1.394280 50.583024, -1.395754 50.583318, -1.397229 50.583614, -1.398704 50.583914, -1.400181 50.584216, -1.401659 50.584521, -1.403137 50.584829, -1.404616 50.585139, -1.406096 50.585453, -1.407577 50.585769, -1.409058 50.586088, -1.410539 50.586409, -1.412021 50.586734, -1.413503 50.587061, -1.414985 50.587391, -1.416468 50.587723, -1.417950 50.588058, -1.419432 50.588396, -1.420915 50.588737, -1.422396 50.589080, -1.423878 50.589426, -1.425359 50.589774, -1.426840 50.590126, -1.428321 50.590480, -1.429800 50.590836, -1.431279 50.591195, -1.432757 50.591557, -1.434235 50.591922, -1.435711 50.592289, -1.437187 50.592658, -1.438661 50.593030, -1.440134 50.593405, -1.441606 50.593783, -1.443076 50.594163, -1.444545 50.594545, -1.446013 50.594930, -1.447479 50.595318, -1.448943 50.595708, -1.450406 50.596101, -1.451866 50.596496, -1.453325 50.596894, -1.454782 50.597294, -1.456237 50.597697, -1.457689 50.598102, -1.459140 50.598510, -1.460588 50.598920, -1.462033 50.599333, -1.463476 50.599748, -1.464917 50.600165, -1.466355 50.600585, -1.467790 50.601008, -1.469223 50.601433, -1.470652 50.601860, -1.472079 50.602290, -1.473503 50.602722, -1.474923 50.603157, -1.476340 50.603594, -1.477754 50.604033, -1.479165 50.604475, -1.480572 50.604919, -1.481976 50.605365, -1.483376 50.605814, -1.484772 50.606265, -1.486165 50.606719, -1.487553 50.607175, -1.488938 50.607633, -1.490319 50.608093, -1.491696 50.608556, -1.493068 50.609021, -1.494437 50.609488, -1.495801 50.609958, -1.497160 50.610430, -1.498515 50.610904, -1.499866 50.611381, -1.501211 50.611860, -1.502553 50.612341, -1.503889 50.612824, -1.505220 50.613309, -1.506547 50.613797, -1.507868 50.614287, -1.509184 50.614779, -1.510495 50.615273, -1.511801 50.615770, -1.513101 50.616269, -1.514396 50.616770, -1.515685 50.617273, -1.516969 50.617778, -1.518246 50.618285, -1.519519 50.618795, -1.520785 50.619306, -1.522045 50.619820, -1.523299 50.620336, -1.524548 50.620854, -1.525790 50.621374, -1.527025 50.621897, -1.528255 50.622421, -1.529478 50.622948, -1.530694 50.623476, -1.531904 50.624007, -1.533107 50.624539, -1.534303 50.625074, -1.535493 50.625611, -1.536675 50.626150, -1.537851 50.626691, -1.539019 50.627234, -1.540181 50.627779, -1.541335 50.628326, -1.542481 50.628875, -1.543621 50.629426, -1.544753 50.629978, -1.545877 50.630533, -1.546993 50.631090, -1.548102 50.631649, -1.549203 50.632210, -1.550297 50.632773, -1.551382 50.633338, -1.552459 50.633904, -1.553528 50.634473, -1.554589 50.635043, -1.555641 50.635616, -1.556685 50.636190, -1.557721 50.636767, -1.558748 50.637345, -1.559766 50.637925, -1.560776 50.638507, -1.561777 50.639091, -1.562769 50.639676, -1.563752 50.640264, -1.564726 50.640853, -1.565691 50.641444, -1.566647 50.642037, -1.567594 50.642632, -1.568531 50.643229, -1.569459 50.643827, -1.570377 50.644428, -1.571285 50.645030, -1.572184 50.645634, -1.573073 50.646239, -1.573953 50.646847, -1.574822 50.647456, -1.575682 50.648067, -1.576531 50.648680, -1.577370 50.649294, -1.578199 50.649910, -1.579017 50.650528, -1.579825 50.651148, -1.580623 50.651769, -1.581410 50.652393, -1.582186 50.653017, -1.582952 50.653644, -1.583707 50.654272, -1.584451 50.654902, -1.585184 50.655533, -1.585906 50.656166, -1.586616 50.656801, -1.587316 50.657438, -1.588004 50.658076, -1.588681 50.658716, -1.589346 50.659357, -1.590000 50.660000, -1.590616 50.660641, -1.591175 50.661283, -1.591679 50.661927, -1.592128 50.662572, -1.592522 50.663218, -1.592863 50.663866, -1.593151 50.664514, -1.593387 50.665164, -1.593571 50.665815, -1.593705 50.666467, -1.593789 50.667119, -1.593823 50.667773, -1.593809 50.668427, -1.593747 50.669082, -1.593638 50.669738, -1.593483 50.670394, -1.593281 50.671051, -1.593035 50.671708, -1.592744 50.672366, -1.592410 50.673024, -1.592033 50.673682, -1.591614 50.674341, -1.591153 50.674999, -1.590651 50.675658, -1.590110 50.676317, -1.589529 50.676975, -1.588909 50.677634, -1.588252 50.678292, -1.587557 50.678951, -1.586826 50.679608, -1.586059 50.680266, -1.585257 50.680923, -1.584421 50.681580, -1.583551 50.682236, -1.582648 50.682891, -1.581712 50.683546, -1.580746 50.684200, -1.579748 50.684853, -1.578721 50.685505, -1.577664 50.686157, -1.576578 50.686807, -1.575465 50.687456, -1.574324 50.688105, -1.573156 50.688752, -1.571963 50.689397, -1.570745 50.690042, -1.569502 50.690685, -1.568236 50.691327, -1.566947 50.691967, -1.565635 50.692605, -1.564302 50.693242, -1.562948 50.693877, -1.561574 50.694511, -1.560181 50.695142, -1.558769 50.695772, -1.557339 50.696400, -1.555891 50.697026, -1.554427 50.697649, -1.552948 50.698271, -1.551453 50.698890, -1.549944 50.699507, -1.548421 50.700122, -1.546885 50.700734, -1.545336 50.701344, -1.543777 50.701951, -1.542206 50.702556, -1.540625 50.703158, -1.539035 50.703757, -1.537436 50.704354, -1.535829 50.704948, -1.534215 50.705539, -1.532594 50.706127, -1.530967 50.706711, -1.529336 50.707293, -1.527700 50.707872, -1.526060 50.708447, -1.524417 50.709019, -1.522772 50.709588, -1.521125 50.710153, -1.519477 50.710715, -1.517829 50.711274, -1.516182 50.711829, -1.514536 50.712380, -1.512892 50.712927, -1.511251 50.713471, -1.509613 50.714011, -1.507980 50.714546, -1.506351 50.715078, -1.504728 50.715606, -1.503111 50.716130, -1.501501 50.716650, -1.499899 50.717165, -1.498305 50.717676, -1.496720 50.718183, -1.495145 50.718685, -1.493581 50.719183, -1.492028 50.719677, -1.490487 50.720166, -1.488959 50.720650, -1.487444 50.721129, -1.485943 50.721604, -1.484458 50.722074, -1.482987 50.722539, -1.481533 50.722999, -1.480096 50.723454, -1.478677 50.723904, -1.477276 50.724348, -1.475895 50.724788, -1.474533 50.725222, -1.473191 50.725651, -1.471872 50.726075, -1.470574 50.726493, -1.469298 50.726905, -1.468046 50.727312, -1.466819 50.727714, -1.465616 50.728109, -1.464439 50.728499, -1.463288 50.728883, -1.462164 50.729261, -1.461068 50.729634, -1.460000 50.730000, -1.458938 50.730362, -1.457863 50.730722, -1.456774 50.731078, -1.455672 50.731432, -1.454558 50.731782, -1.453431 50.732130, -1.452292 50.732474, -1.451141 50.732816, -1.449977 50.733155, -1.448802 50.733492, -1.447616 50.733825, -1.446418 50.734156, -1.445210 50.734484, -1.443990 50.734810, -1.442760 50.735133, -1.441520 50.735453, -1.440269 50.735771, -1.439009 50.736086, -1.437739 50.736398, -1.436459 50.736709, -1.435170 50.737016, -1.433872 50.737322, -1.432565 50.737625, -1.431249 50.737925, -1.429925 50.738224, -1.428593 50.738520, -1.427253 50.738813, -1.425905 50.739105, -1.424550 50.739394, -1.423187 50.739681, -1.421817 50.739966, -1.420440 50.740249, -1.419056 50.740530, -1.417666 50.740808, -1.416270 50.741085, -1.414868 50.741360, -1.413459 50.741632, -1.412046 50.741903, -1.410627 50.742172, -1.409202 50.742439, -1.407773 50.742704, -1.406339 50.742968, -1.404901 50.743229, -1.403458 50.743489, -1.402011 50.743747, -1.400560 50.744003, -1.399106 50.744258, -1.397648 50.744511, -1.396187 50.744763, -1.394723 50.745013, -1.393256 50.745261, -1.391786 50.745508, -1.390315 50.745754, -1.388841 50.745997, -1.387365 50.746240, -1.385887 50.746481, -1.384408 50.746721, -1.382928 50.746960, -1.381447 50.747197, -1.379964 50.747433, -1.378482 50.747667, -1.376999 50.747901, -1.375515 50.748133, -1.374032 50.748364, -1.372549 50.748594, -1.371066 50.748823, -1.369584 50.749051, -1.368103 50.749278, -1.366623 50.749504, -1.365145 50.749729, -1.363668 50.749953, -1.362193 50.750176, -1.360720 50.750398, -1.359249 50.750620, -1.357780 50.750840, -1.356314 50.751060, -1.354851 50.751279, -1.353391 50.751498, -1.351934 50.751715, -1.350481 50.751933, -1.349031 50.752149, -1.347586 50.752365, -1.346144 50.752580, -1.344707 50.752795, -1.343275 50.753009, -1.341847 50.753223, -1.340425 50.753436, -1.339007 50.753649, -1.337595 50.753862, -1.336189 50.754074, -1.334789 50.754286, -1.333395 50.754497, -1.332007 50.754709, -1.330625 50.754920, -1.329251 50.755131, -1.327883 50.755341, -1.326523 50.755552, -1.325170 50.755763, -1.323824 50.755973, -1.322487 50.756183, -1.321157 50.756394, -1.319836 50.756604, -1.318523 50.756815, -1.317219 50.757025, -1.315924 50.757236, -1.314638 50.757447, -1.313362 50.757658, -1.312095 50.757869, -1.310838 50.758081, -1.309591 50.758292, -1.308354 50.758505, -1.307127 50.758717, -1.305911 50.758930, -1.304707 50.759143, -1.303513 50.759356, -1.302330 50.759570, -1.301159 50.759785, -1.300000 50.760000)
