LINESTRING (10.750000 59.910000, 10.716903 59.887497, 10.683850 59.864987, 10.650842 59.842468, 10.617879 59.819940, 10.584960 59.797405, 10.552086 59.774861, 10.519256 59.752309, 10.486471 59.729749, 10.453729 59.707180, 10.421032 59.684604, 10.388379 59.662019, 10.355770 59.639427, 10.323205 59.616826, 10.290683 59.594217, 10.258205 59.571600, 10.225771 59.548975, 10.193381 59.526342, 10.161034 59.503702, 10.128730 59.481053, 10.096469 59.458396, 10.064252 59.435731, 10.032078 59.413058, 9.999947 59.390378, 9.967859 59.367689, 9.935814 59.344993, 9.903812 59.322289, 9.871852 59.299577, 9.839935 59.276857, 9.808061 59.254129, 9.776229 59.231394, 9.744439 59.208651, 9.712692 59.185900, 9.680987 59.163141, 9.649325 59.140375, 9.617704 59.117601, 9.586125 59.094819, 9.554589 59.072030, 9.523094 59.049232, 9.491641 59.026428, 9.460229 59.003616, 9.428859 58.980796, 9.397531 58.957968, 9.366244 58.935133, 9.334999 58.912291, 9.303795 58.889441, 9.272632 58.866583, 9.241510 58.843718, 9.210430 58.820845, 9.179390 58.797965, 9.148391 58.775078, 9.117433 58.752183, 9.086516 58.729281, 9.055640 58.706371, 9.024804 58.683454, 8.994008 58.660530, 8.963253 58.637598, 8.932539 58.614659, 8.901864 58.591712, 8.871230 58.568759, 8.840636 58.545798, 8.810083 58.522830, 8.779569 58.499854, 8.749095 58.476871, 8.718661 58.453881, 8.688266 58.430884, 8.657912 58.407880, 8.627597 58.384869, 8.597321 58.361850, 8.567085 58.338824, 8.536888 58.315791, 8.506731 58.292751, 8.476613 58.269704, 8.446534 58.246650, 8.416494 58.223589, 8.386493 58.200521, 8.356532 58.177446, 8.326609 58.154363, 8.296724 58.131274, 8.266879 58.108178, 8.237072 58.085075, 8.207304 58.061964, 8.177574 58.038847, 8.147883 58.015723, 8.118230 57.992592, 8.088615 57.969455, 8.059039 57.946310, 8.029500 57.923158, 8.000000 57.900000, 7.949316 57.892072, 7.898655 57.884124, 7.848016 57.876156, 7.797400 57.868167, 7.746806 57.860159, 7.696235 57.852130, 7.645686 57.844082, 7.595160 57.836013, 7.544657 57.827924, 7.494176 57.819815, 7.443718 57.811686, 7.393283 57.803537, 7.342870 57.795368, 7.292481 57.787179, 7.242114 57.778970, 7.191770 57.770741, 7.141449 57.762492, 7.091151 57.754224, 7.040877 57.745935, 6.990625 57.737626, 6.940396 57.729298, 6.890191 57.720949, 6.840008 57.712581, 6.789849 57.704193, 6.739713 57.695785, 6.689601 57.687357, 6.639512 57.678910, 6.589446 57.670443, 6.539404 57.661956, 6.489385 57.653449, 6.439389 57.644922, 6.389417 57.636376, 6.339469 57.627810, 6.289544 57.619225, 6.239642 57.610619, 6.189765 57.601994, 6.139911 57.593350, 6.090081 57.584686, 6.040274 57.576002, 5.990492 57.567299, 5.940733 57.558576, 5.890998 57.549833, 5.841287 57.541071, 5.791600 57.532290, 5.741936 57.523489, 5.692297 57.514668, 5.642682 57.505828, 5.593091 57.496969, 5.543524 57.488090, 5.493981 57.479191, 5.444462 57.470274, 5.394967 57.461337, 5.345497 57.452380, 5.296051 57.443404, 5.246629 57.434409, 5.197232 57.425394, 5.147859 57.416360, 5.098510 57.407307, 5.049185 57.398235, 4.999886 57.389143, 4.950610 57.380032, 4.901359 57.370902, 4.852133 57.361753, 4.802931 57.352584, 4.753754 57.343396, 4.704601 57.334189, 4.655473 57.324963, 4.606370 57.315718, 4.557291 57.306454, 4.508238 57.297170, 4.459209 57.287868, 4.410204 57.278546, 4.361225 57.269205, 4.312270 57.259846, 4.263341 57.250467, 4.214436 57.241069, 4.165556 57.231653, 4.116702 57.222217, 4.067872 57.212762, 4.019067 57.203289, 3.970287 57.193796, 3.921533 57.184285, 3.872803 57.174755, 3.824099 57.165206, 3.775420 57.155638, 3.726766 57.146051, 3.678137 57.136445, 3.629534 57.126821, 3.580956 57.117178, 3.532403 57.107516, 3.483876 57.097835, 3.435373 57.088136, 3.386897 57.078417, 3.338445 57.068680, 3.290020 57.058925, 3.241619 57.049151, 3.193244 57.039358, 3.144895 57.029546, 3.096571 57.019716, 3.048273 57.009867, 3.000000 57.000000, 2.996757 57.028126, 2.993509 57.056251, 2.990257 57.084377, 2.986999 57.112502, 2.983737 57.140627, 2.980469 57.168753, 2.977196 57.196878, 2.973919 57.225003, 2.970636 57.253128, 2.967349 57.281253, 2.964056 57.309378, 2.960759 57.337502, 2.957456 57.365627, 2.954149 57.393752, 2.950836 57.421876, 2.947518 57.450000, 2.944195 57.478125, 2.940867 57.506249, 2.937534 57.534373, 2.934195 57.562497, 2.930852 57.590621, 2.927503 57.618745, 2.924149 57.646869, 2.920790 57.674992, 2.917426 57.703116, 2.914056 57.731239, 2.910681 57.759363, 2.907301 57.787486, 2.903916 57.815609, 2.900525 57.843733, 2.897129 57.871856, 2.893728 57.899979, 2.890322 57.928101, 2.886910 57.956224, 2.883492 57.984347, 2.880070 58.012470, 2.876642 58.040592, 2.873208 58.068714, 2.869770 58.096837, 2.866325 58.124959, 2.862876 58.153081, 2.859421 58.181203, 2.855960 58.209325, 2.852494 58.237447, 2.849022 58.265569, 2.845545 58.293690, 2.842063 58.321812, 2.838574 58.349933, 2.835081 58.378055, 2.831581 58.406176, 2.828076 58.434297, 2.824566 58.462418, 2.821050 58.490539, 2.817528 58.518660, 2.814001 58.546781, 2.810468 58.574902, 2.806929 58.603022, 2.803384 58.631143, 2.799834 58.659263, 2.796278 58.687384, 2.792717 58.715504, 2.789149 58.743624, 2.785576 58.771744, 2.781997 58.799864, 2.778412 58.827984, 2.774822 58.856103, 2.771226 58.884223, 2.767623 58.912343, 2.764015 58.940462, 2.760401 58.968581, 2.756781 58.996701, 2.753155 59.024820, 2.749524 59.052939, 2.745886 59.081058, 2.742242 59.109176, 2.738592 59.137295, 2.734937 59.165414, 2.731275 59.193532, 2.727607 59.221651, 2.723934 59.249769, 2.720254 59.277887, 2.716568 59.306005, 2.712876 59.334123, 2.709178 59.362241, 2.705473 59.390359, 2.701763 59.418477, 2.698046 59.446594, 2.694324 59.474712, 2.690595 59.502829, 2.686860 59.530946, 2.683118 59.559063, 2.679370 59.587180, 2.675616 59.615297, 2.671856 59.643414, 2.668090 59.671531, 2.664317 59.699648, 2.660538 59.727764, 2.656752 59.755880, 2.652960 59.783997, 2.649162 59.812113, 2.645357 59.840229, 2.641546 59.868345, 2.637728 59.896461, 2.633904 59.924576, 2.630073 59.952692, 2.626236 59.980808, 2.622393 60.008923, 2.618543 60.037038, 2.614686 60.065153, 2.610823 60.093269, 2.606953 60.121383, 2.603076 60.149498, 2.599193 60.177613, 2.595303 60.205728, 2.591407 60.233842, 2.587503 60.261957, 2.583594 60.290071, 2.579677 60.318185, 2.575754 60.346299, 2.571824 60.374413, 2.567887 60.402527, 2.563943 60.430640, 2.559992 60.458754, 2.556035 60.486867, 2.552071 60.514981, 2.548099 60.543094, 2.544121 60.571207, 2.540136 60.599320, 2.536145 60.627433, 2.532146 60.655546, 2.528140 60.683658, 2.524127 60.711771, 2.520107 60.739883, 2.516080 60.767995, 2.512046 60.796108, 2.508005 60.824220, 2.503957 60.852332, 2.499901 60.880443, 2.495839 60.908555, 2.491769 60.936666, 2.487692 60.964778, 2.483608 60.992889, 2.479517 61.021000, 2.475418 61.049111, 2.471312 61.077222, 2.467199 61.105333, 2.463079 61.133444, 2.458951 61.161554, 2.454816 61.189665, 2.450673 61.217775, 2.446523 61.245885, 2.442366 61.273995, 2.438201 61.302105, 2.434029 61.330215, 2.429849 61.358325, 2.425662 61.386434, 2.421467 61.414543, 2.417264 61.442653, 2.413054 61.470762, 2.408837 61.498871, 2.404611 61.526980, 2.400379 61.555088, 2.396138 61.583197, 2.391890 61.611306, 2.387634 61.639414, 2.383370 61.667522, 2.379099 61.695630, 2.374819 61.723738, 2.370532 61.751846, 2.366237 61.779954, 2.361935 61.808061, 2.357624 61.836169, 2.353305 61.864276, 2.348979 61.892383, 2.344644 61.920490, 2.340302 61.948597, 2.335951 61.976704, 2.331593 62.004810, 2.327226 62.032917, 2.322852 62.061023, 2.318469 62.089129, 2.314078 62.117235, 2.309679 62.145341, 2.305272 62.173447, 2.300857 62.201553, 2.296433 62.229658, 2.292002 62.257763, 2.287561 62.285869, 2.283113 62.313974, 2.278656 62.342079, 2.274191 62.370183, 2.269718 62.398288, 2.265236 62.426392, 2.260746 62.454497, 2.256247 62.482601, 2.251740 62.510705, 2.247224 62.538809, 2.242700 62.566913, 2.238167 62.595016, 2.233626 62.623120, 2.229076 62.651223, 2.224517 62.679326, 2.219950 62.707429, 2.215374 62.735532, 2.210789 62.763635, 2.206196 62.791738, 2.201593 62.819840, 2.196982 62.847942, 2.192363 62.876044, 2.187734 62.904146, 2.183096 62.932248, 2.178450 62.960350, 2.173794 62.988451, 2.169130 63.016553, 2.164456 63.044654, 2.159774 63.072755, 2.155083 63.100856, 2.150382 63.128957, 2.145672 63.157057, 2.140954 63.185158, 2.136226 63.213258, 2.131488 63.241358, 2.126742 63.269458, 2.121986 63.297558, 2.117221 63.325657, 2.112447 63.353757, 2.107664 63.381856, 2.102871 63.409955, 2.098068 63.438054, 2.093257 63.466153, 2.088435 63.494252, 2.083605 63.522351, 2.078764 63.550449, 2.073915 63.578547, 2.069055 63.606645, 2.064186 63.634743, 2.059307 63.662841, 2.054419 63.690938, 2.049521 63.719036, 2.044613 63.747133, 2.039696 63.775230, 2.034768 63.803327, 2.029831 63.831423, 2.024884 63.859520, 2.019927 63.887616, 2.014960 63.915712, 2.009984 63.943808, 2.004997 63.971904, 2.000000 64.000000, 1.937006 63.994269, 1.874038 63.988511, 1.811096 63.982726, 1.748179 63.976914, 1.685290 63.971074, 1.622426 63.965207, 1.559589 63.959313, 1.496778 63.953392, 1.433994 63.947444, 1.371237 63.941468, 1.308506 63.935466, 1.245803 63.929436, 1.183126 63.923379, 1.120477 63.917295, 1.057855 63.911184, 0.995260 63.905047, 0.932692 63.898882, 0.870153 63.892690, 0.807640 63.886471, 0.745156 63.880225, 0.682699 63.873952, 0.620271 63.867653, 0.557870 63.861326, 0.495497 63.854973, 0.433153 63.848593, 0.370837 63.842186, 0.308549 63.835752, 0.246290 63.829291, 0.184060 63.822804, 0.121858 63.816290, 0.059686 63.809749, -0.002458 63.803181, -0.064573 63.796587, -0.126659 63.789966, -0.188716 63.783318, -0.250743 63.776644, -0.312741 63.769943, -0.374710 63.763216, -0.436649 63.756462, -0.498558 63.749681, -0.560437 63.742874, -0.622287 63.736041, -0.684106 63.729181, -0.745896 63.722294, -0.807656 63.715381, -0.869385 63.708442, -0.931084 63.701476, -0.992752 63.694484, -1.054390 63.687466, -1.115998 63.680421, -1.177574 63.673350, -1.239120 63.666252, -1.300636 63.659129, -1.362120 63.651979, -1.423573 63.644803, -1.484995 63.637600, -1.546386 63.630372, -1.607745 63.623117, -1.669074 63.615836, -1.730370 63.608529, -1.791635 63.601196, -1.852869 63.593837, -1.914071 63.586452, -1.975241 63.579041, -2.036379 63.571603, -2.097485 63.564140, -2.158559 63.556651, -2.219601 63.549136, -2.280610 63.541595, -2.341588 63.534028, -2.402533 63.526435, -2.463445 63.518816, -2.524325 63.511172, -2.585172 63.503502, -2.645987 63.495805, -2.706768 63.488084, -2.767517 63.480336, -2.828233 63.472563, -2.888916 63.464764, -2.949565 63.456939, -3.010182 63.449089, -3.070765 63.441213, -3.131315 63.433311, -3.191831 63.425384, -3.252314 63.417431, -3.312763 63.409453, -3.373179 63.401449, -3.433561 63.393420, -3.493909 63.385365, -3.554223 63.377285, -3.614503 63.369179, -3.674749 63.361048, -3.734961 63.352892, -3.795138 63.344710, -3.855282 63.336503, -3.915391 63.328271, -3.975466 63.320013, -4.035506 63.311730, -4.095511 63.303422, -4.155482 63.295089, -4.215418 63.286730, -4.275320 63.278346, -4.335186 63.269938, -4.395018 63.261504, -4.454814 63.253045, -4.514576 63.244561, -4.574302 63.236051, -4.633993 63.227517, -4.693649 63.218958, -4.753270 63.210374, -4.812855 63.201765, -4.872404 63.193131, -4.931918 63.184472, -4.991397 63.175788, -5.050840 63.167080, -5.110247 63.158346, -5.169618 63.149588, -5.228953 63.140805, -5.288252 63.131997, -5.347515 63.123165, -5.406743 63.114308, -5.465934 63.105426, -5.525088 63.096519, -5.584207 63.087588, -5.643289 63.078632, -5.702335 63.069652, -5.761344 63.060647, -5.820317 63.051618, -5.879253 63.042564, -5.938152 63.033485, -5.997015 63.024382, -6.055841 63.015255, -6.114630 63.006103, -6.173382 62.996927, -6.232097 62.987727, -6.290776 62.978502, -6.349417 62.969253, -6.408021 62.959980, -6.466587 62.950682, -6.525117 62.941360, -6.583609 62.932014, -6.642064 62.922644, -6.700481 62.913250, -6.758861 62.903831, -6.817204 62.894388, -6.875508 62.884922, -6.933775 62.875431, -6.992005 62.865916, -7.050196 62.856377, -7.108350 62.846815, -7.166466 62.837228, -7.224544 62.827617, -7.282584 62.817983, -7.340586 62.808324, -7.398550 62.798642, -7.456475 62.788936, -7.514363 62.779206, -7.572212 62.769452, -7.630023 62.759675, -7.687795 62.749874, -7.745529 62.740049, -7.803225 62.730200, -7.860882 62.720328, -7.918501 62.710432, -7.976081 62.700513, -8.033622 62.690570, -8.091125 62.680604, -8.148588 62.670614, -8.206013 62.660600, -8.263400 62.650563, -8.320747 62.640503, -8.378055 62.630419, -8.435324 62.620312, -8.492555 62.610181, -8.549746 62.600027, -8.606898 62.589850, -8.664011 62.579650, -8.721084 62.569426, -8.778119 62.559179, -8.835114 62.548909, -8.892069 62.538616, -8.948986 62.528299, -9.005863 62.517959, -9.062700 62.507597, -9.119498 62.497211, -9.176256 62.486802, -9.232974 62.476370, -9.289653 62.465915, -9.346293 62.455438, -9.402892 62.444937, -9.459452 62.434413, -9.515972 62.423867, -9.572451 62.413297, -9.628892 62.402705, -9.685292 62.392090, -9.741652 62.381452, -9.797972 62.370791, -9.854252 62.360108, -9.910492 62.349402, -9.966692 62.338673, -10.022851 62.327922, -10.078971 62.317148, -10.135050 62.306351, -10.191088 62.295532, -10.247087 62.284690, -10.303045 62.273826, -10.358963 62.262940, -10.414840 62.252030, -10.470677 62.241099, -10.526473 62.230145, -10.582229 62.219168, -10.637944 62.208170, -10.693619 62.197148, -10.749253 62.186105, -10.804846 62.175039, -10.860398 62.163951, -10.915910 62.152841, -10.971381 62.141709, -11.026811 62.130554, -11.082201 62.119378, -11.137549 62.108179, -11.192857 62.096958, -11.248123 62.085715, -11.303349 62.074450, -11.358534 62.063163, -11.413677 62.051854, -11.468780 62.040523, -11.523842 62.029170, -11.578862 62.017796, -11.633841 62.006399, -11.688779 61.994981, -11.743676 61.983540, -11.798532 61.972078, -11.853346 61.960594, -11.908120 61.949089, -11.962851 61.937561, -12.017542 61.926012, -12.072191 61.914442, -12.126799 61.902849, -12.181365 61.891236, -12.235890 61.879600, -12.290373 61.867943, -12.344815 61.856264, -12.399216 61.844564, -12.453575 61.832843, -12.507892 61.821100, -12.562168 61.809335, -12.616402 61.797550, -12.670595 61.785743, -12.724746 61.773914, -12.778855 61.762064, -12.832922 61.750193, -12.886948 61.738301, -12.940932 61.726387, -12.994874 61.714452, -13.048775 61.702497, -13.102634 61.690519, -13.156450 61.678521, -13.210226 61.666502, -13.263959 61.654461, -13.317650 61.642400, -13.371299 61.630318, -13.424907 61.618214, -13.478472 61.606090, -13.531996 61.593945, -13.585478 61.581778, -13.638917 61.569591, -13.692315 61.557383, -13.745670 61.545154, -13.798984 61.532905, -13.852255 61.520635, -13.905485 61.508343, -13.958672 61.496032, -14.011817 61.483699, -14.064920 61.471346, -14.117981 61.458972, -14.171000 61.446578, -14.223977 61.434163, -14.276911 61.421727, -14.329803 61.409271, -14.382653 61.396795, -14.435461 61.384298, -14.488226 61.371780, -14.540950 61.359242, -14.593631 61.346684, -14.646269 61.334105, -14.698866 61.321506, -14.751420 61.308887, -14.803932 61.296247, -14.856401 61.283588, -14.908828 61.270907, -14.961213 61.258207, -15.013555 61.245487, -15.065855 61.232746, -15.118113 61.219985, -15.170328 61.207205, -15.222501 61.194404, -15.274632 61.181583, -15.326720 61.168742, -15.378765 61.155881, -15.430768 61.143000, -15.482729 61.130099, -15.534647 61.117178, -15.586523 61.104238, -15.638357 61.091277, -15.690147 61.078297, -15.741896 61.065297, -15.793602 61.052277, -15.845265 61.039237, -15.896886 61.026178, -15.948464 61.013099, -16.000000 61.000000, -16.057787 61.003531, -16.115588 61.007036, -16.173401 61.010517, -16.231226 61.013974, -16.289064 61.017405, -16.346915 61.020812, -16.404778 61.024194, -16.462653 61.027552, -16.520541 61.030884, -16.578441 61.034192, -16.636352 61.037475, -16.694276 61.040733, -16.752211 61.043967, -16.810159 61.047175, -16.868118 61.050359, -16.926088 61.053518, -16.984070 61.056652, -17.042064 61.059761, -17.100068 61.062845, -17.158084 61.065905, -17.216112 61.068939, -17.274150 61.071949, -17.332199 61.074934, -17.390259 61.077893, -17.448330 61.080828, -17.506412 61.083738, -17.564505 61.086624, -17.622607 61.089484, -17.680721 61.092319, -17.738845 61.095129, -17.796979 61.097915, -17.855123 61.100675, -17.913277 61.103410, -17.971441 61.106121, -18.029616 61.108806, -18.087800 61.111467, -18.145994 61.114102, -18.204197 61.116713, -18.262410 61.119298, -18.320633 61.121859, -18.378865 61.124394, -18.437106 61.126904, -18.495356 61.129390, -18.553616 61.131850, -18.611884 61.134285, -18.670162 61.136695, -18.728448 61.139081, -18.786744 61.141441, -18.845047 61.143776, -18.903360 61.146086, -18.961681 61.148370, -19.020010 61.150630, -19.078347 61.152865, -19.136693 61.155074, -19.195047 61.157259, -19.253409 61.159418, -19.311779 61.161552, -19.370157 61.163661, -19.428542 61.165745, -19.486936 61.167804, -19.545336 61.169837, -19.603744 61.171846, -19.662160 61.173829, -19.720583 61.175787, -19.779013 61.177720, -19.837450 61.179628, -19.895895 61.181511, -19.954346 61.183368, -20.012804 61.185200, -20.071269 61.187008, -20.129740 61.188789, -20.188218 61.190546, -20.246703 61.192278, -20.305194 61.193984, -20.363691 61.195665, -20.422194 61.197321, -20.480704 61.198951, -20.539219 61.200557, -20.597741 61.202137, -20.656268 61.203692, -20.714801 61.205222, -20.773340 61.206726, -20.831884 61.208205, -20.890433 61.209659, -20.948988 61.211088, -21.007549 61.212491, -21.066114 61.213869, -21.124685 61.215222, -21.183260 61.216550, -21.241840 61.217852, -21.300426 61.219129, -21.359016 61.220381, -21.417610 61.221608, -21.476209 61.222809, -21.534812 61.223985, -21.593420 61.225135, -21.652032 61.226261, -21.710648 61.227361, -21.769269 61.228436, -21.827893 61.229485, -21.886521 61.230509, -21.945153 61.231508, -22.003788 61.232481, -22.062427 61.233430, -22.121070 61.234352, -22.179716 61.235250, -22.238365 61.236122, -22.297018 61.236969, -22.355673 61.237791, -22.414332 61.238587, -22.472993 61.239358, -22.531658 61.240103, -22.590325 61.240824, -22.648994 61.241519, -22.707667 61.242188, -22.766341 61.242832, -22.825018 61.243451, -22.883698 61.244045, -22.942379 61.244613, -23.001063 61.245156, -23.059748 61.245673, -23.118436 61.246165, -23.177125 61.246632, -23.235816 61.247074, -23.294508 61.247490, -23.353202 61.247880, -23.411898 61.248246, -23.470595 61.248586, -23.529293 61.248900, -23.587992 61.249190, -23.646692 61.249454, -23.705393 61.249692, -23.764095 61.249905, -23.822798 61.250093, -23.881501 61.250256, -23.940205 61.250393, -23.998909 61.250505, -24.057614 61.250591, -24.116319 61.250652, -24.175024 61.250688, -24.233729 61.250698, -24.292435 61.250683, -24.351140 61.250643, -24.409845 61.250577, -24.468549 61.250486, -24.527254 61.250369, -24.585957 61.250227, -24.644661 61.250060, -24.703363 61.249867, -24.762065 61.249649, -24.820766 61.249406, -24.879466 61.249137, -24.938165 61.248843, -24.996862 61.248524, -25.055559 61.248179, -25.114254 61.247809, -25.172948 61.247413, -25.231640 61.246993, -25.290331 61.246546, -25.349020 61.246075, -25.407707 61.245578, -25.466392 61.245056, -25.525075 61.244508, -25.583756 61.243935, -25.642435 61.243337, -25.701112 61.242713, -25.759786 61.242064, -25.818458 61.241390, -25.877127 61.240690, -25.935794 61.239965, -25.994457 61.239215, -26.053118 61.238439, -26.111776 61.237638, -26.170431 61.236812, -26.229083 61.235960, -26.287732 61.235083, -26.346377 61.234181, -26.405019 61.233253, -26.463658 61.232300, -26.522292 61.231322, -26.580923 61.230318, -26.639551 61.229289, -26.698174 61.228235, -26.756794 61.227156, -26.815409 61.226051, -26.874020 61.224921, -26.932627 61.223765, -26.991230 61.222585, -27.049828 61.221379, -27.108422 61.220148, -27.167011 61.218891, -27.225595 61.217609, -27.284175 61.216302, -27.342749 61.214970, -27.401319 61.213612, -27.459883 61.212229, -27.518442 61.210821, -27.576996 61.209388, -27.635545 61.207929, -27.694088 61.206445, -27.752626 61.204936, -27.811158 61.203401, -27.869684 61.201842, -27.928204 61.200257, -27.986718 61.198647, -28.045227 61.197011, -28.103729 61.195351, -28.162225 61.193665, -28.220715 61.191954, -28.279198 61.190218, -28.337675 61.188456, -28.396145 61.186670, -28.454609 61.184858, -28.513065 61.183021, -28.571515 61.181158, -28.629958 61.179271, -28.688394 61.177359, -28.746823 61.175421, -28.805245 61.173458, -28.863659 61.171470, -28.922066 61.169457, -28.980465 61.167418, -29.038857 61.165355, -29.097241 61.163266, -29.155617 61.161152, -29.213985 61.159014, -29.272346 61.156850, -29.330698 61.154660, -29.389043 61.152446, -29.447379 61.150207, -29.505706 61.147942, -29.564026 61.145653, -29.622336 61.143338, -29.680639 61.140999, -29.738932 61.138634, -29.797217 61.136244, -29.855493 61.133829, -29.913760 61.131389, -29.972017 61.128924, -30.030266 61.126434, -30.088506 61.123919, -30.146736 61.121379, -30.204957 61.118814, -30.263168 61.116224, -30.321370 61.113608, -30.379562 61.110968, -30.437744 61.108303, -30.495916 61.105613, -30.554079 61.102898, -30.612231 61.100158, -30.670373 61.097393, -30.728505 61.094603, -30.786627 61.091788, -30.844739 61.088948, -30.902840 61.086083, -30.960930 61.083193, -31.019010 61.080278, -31.077079 61.077339, -31.135137 61.074374, -31.193184 61.071385, -31.251220 61.068370, -31.309245 61.065331, -31.367259 61.062267, -31.425262 61.059178, -31.483253 61.056064, -31.541233 61.052925, -31.599202 61.049762, -31.657158 61.046573, -31.715103 61.043360, -31.773037 61.040122, -31.830958 61.036859, -31.888867 61.033572, -31.946765 61.030259, -32.004650 61.026922, -32.062523 61.023560, -32.120384 61.020173, -32.178232 61.016762, -32.236068 61.013326, -32.293891 61.009865, -32.351702 61.006379, -32.409499 61.002868, -32.467285 60.999333, -32.525057 60.995773, -32.582816 60.992189, -32.640562 60.988579, -32.698295 60.984945, -32.756014 60.981287, -32.813721 60.977603, -32.871414 60.973896, -32.929093 60.970163, -32.986759 60.966406, -33.044411 60.962624, -33.102049 60.958817, -33.159674 60.954986, -33.217285 60.951131, -33.274881 60.947251, -33.332464 60.943346, -33.390032 60.939416, -33.447586 60.935462, -33.505126 60.931484, -33.562652 60.927481, -33.620162 60.923454, -33.677659 60.919402, -33.735140 60.915325, -33.792607 60.911224, -33.850059 60.907098, -33.907496 60.902949, -33.964919 60.898774, -34.022326 60.894575, -34.079718 60.890352, -34.137094 60.886104, -34.194456 60.881832, -34.251802 60.877535, -34.309132 60.873214, -34.366447 60.868869, -34.423746 60.864499, -34.481030 60.860105, -34.538298 60.855687, -34.595550 60.851244, -34.652786 60.846777, -34.710005 60.842286, -34.767209 60.837770, -34.824397 60.833230, -34.881568 60.828666, -34.938723 60.824077, -34.995861 60.819464, -35.052983 60.814827, -35.110089 60.810166, -35.167178 60.805480, -35.224249 60.800770, -35.281305 60.796036, -35.338343 60.791278, -35.395364 60.786496, -35.452368 60.781689, -35.509355 60.776859, -35.566325 60.772004, -35.623278 60.767125, -35.680213 60.762222, -35.737130 60.757295, -35.794031 60.752344, -35.850913 60.747368, -35.907778 60.742369, -35.964625 60.737345, -36.021454 60.732298, -36.078266 60.727226, -36.135059 60.722131, -36.191835 60.717011, -36.248592 60.711868, -36.305331 60.706700, -36.362052 60.701509, -36.418754 60.696293, -36.475438 60.691054, -36.532103 60.685790, -36.588750 60.680503, -36.645378 60.675192, -36.701988 60.669857, -36.758579 60.664498, -36.815150 60.659115, -36.871703 60.653709, -36.928237 60.648278, -36.984752 60.642824, -37.041247 60.637346, -37.097724 60.631844, -37.154181 60.626318, -37.210618 60.620769, -37.267037 60.615195, -37.323435 60.609598, -37.379814 60.603978, -37.436174 60.598333, -37.492513 60.592665, -37.548833 60.586973, -37.605133 60.581258, -37.661413 60.575519, -37.717673 60.569756, -37.773913 60.563970, -37.830132 60.558160, -37.886332 60.552326, -37.942511 60.546469, -37.998670 60.540588, -38.054808 60.534684, -38.110926 60.528756, -38.167023 60.522804, -38.223100 60.516829, -38.279155 60.510831, -38.335191 60.504809, -38.391205 60.498763, -38.447198 60.492694, -38.503170 60.486602, -38.559121 60.480486, -38.615051 60.474347, -38.670960 60.468185, -38.726848 60.461999, -38.782714 60.455789, -38.838559 60.449556, -38.894382 60.443300, -38.950184 60.437021, -39.005965 60.430718, -39.061723 60.424392, -39.117460 60.418043, -39.173175 60.411670, -39.228868 60.405275, -39.284540 60.398855, -39.340189 60.392413, -39.395816 60.385948, -39.451421 60.379459, -39.507004 60.372947, -39.562565 60.366412, -39.618103 60.359854, -39.673619 60.353273, -39.729113 60.346668, -39.784584 60.340041, -39.840032 60.333390, -39.895458 60.326717, -39.950861 60.320020, -40.006241 60.313300, -40.061599 60.306557, -40.116934 60.299791, -40.172245 60.293003, -40.227534 60.286191, -40.282800 60.279356, -40.338042 60.272499, -40.393262 60.265618, -40.448458 60.258715, -40.503630 60.251788, -40.558780 60.244839, -40.613906 60.237867, -40.669008 60.230872, -40.724087 60.223854, -40.779142 60.216813, -40.834174 60.209750, -40.889182 60.202664, -40.944166 60.195555, -40.999126 60.188423, -41.054062 60.181269, -41.108975 60.174092, -41.163863 60.166892, -41.218727 60.159669, -41.273567 60.152424, -41.328383 60.145156, -41.383175 60.137866, -41.437942 60.130553, -41.492685 60.123217, -41.547404 60.115859, -41.602098 60.108478, -41.656767 60.101075, -41.711412 60.093649, -41.766032 60.086200, -41.820628 60.078729, -41.875198 60.071236, -41.929744 60.063720, -41.984265 60.056182, -42.038761 60.048621, -42.093232 60.041038, -42.147678 60.033432, -42.202099 60.025804, -42.256495 60.018154, -42.310866 60.010482, -42.365211 60.002787, -42.419531 59.995069, -42.473825 59.987330, -42.528095 59.979568, -42.582338 59.971784, -42.636557 59.963978, -42.690749 59.956149, -42.744916 59.948298, -42.799057 59.940425, -42.853173 59.932530, -42.907263 59.924613, -42.961327 59.916674, -43.015365 59.908712, -43.069377 59.900729, -43.123363 59.892723, -43.177323 59.884695, -43.231257 59.876645, -43.285164 59.868573, -43.339046 59.860480, -43.392901 59.852364, -43.446730 59.844226, -43.500533 59.836066, -43.554309 59.827885, -43.608059 59.819681, -43.661782 59.811455, -43.715479 59.803208, -43.769149 59.794939, -43.822793 59.786648, -43.876410 59.778335, -43.930000 59.770000, -43.982657 59.761055, -44.035286 59.752088, -44.087887 59.743101, -44.140459 59.734092, -44.193003 59.725063, -44.245518 59.716013, -44.298006 59.706941, -44.350464 59.697849, -44.402894 59.688736, -44.455296 59.679602, -44.507669 59.670447, -44.560013 59.661271, -44.612329 59.652074, -44.664616 59.642857, -44.716874 59.633619, -44.769104 59.624360, -44.821304 59.615080, -44.873476 59.605779, -44.925619 59.596458, -44.977733 59.587116, -45.029818 59.577753, -45.081874 59.568370, -45.133900 59.558966, -45.185898 59.549542, -45.237867 59.540096, -45.289806 59.530631, -45.341717 59.521144, -45.393598 59.511637, -45.445450 59.502110, -45.497272 59.492562, -45.549065 59.482994, -45.600829 59.473405, -45.652564 59.463796, -45.704269 59.454166, -45.755944 59.444516, -45.807590 59.434845, -45.859206 59.425154, -45.910793 59.415443, -45.962351 59.405711, -46.013878 59.395959, -46.065376 59.386187, -46.116844 59.376395, -46.168283 59.366582, -46.219692 59.356749, -46.271070 59.346896, -46.322420 59.337022, -46.373739 59.327129, -46.425028 59.317215, -46.476287 59.307281, -46.527517 59.297327, -46.578716 59.287353, -46.629885 59.277359, -46.681025 59.267345, -46.732134 59.257311, -46.783213 59.247256, -46.834262 59.237182, -46.885281 59.227088, -46.936269 59.216974, -46.987228 59.206839, -47.038156 59.196685, -47.089053 59.186511, -47.139921 59.176318, -47.190758 59.166104, -47.241565 59.155870, -47.292341 59.145617, -47.343087 59.135344, -47.393802 59.125051, -47.444487 59.114738, -47.495141 59.104406, -47.545765 59.094054, -47.596358 59.083682, -47.646921 59.073290, -47.697453 59.062879, -47.747954 59.052448, -47.798425 59.041998, -47.848865 59.031528, -47.899274 59.021038, -47.949652 59.010529, -48.000000 59.000000, -48.041372 59.018329, -48.082788 59.036644, -48.124248 59.054947, -48.165753 59.073236, -48.207301 59.091512, -48.248894 59.109774, -48.290531 59.128023, -48.332213 59.146259, -48.373939 59.164482, -48.415709 59.182691, -48.457524 59.200887, -48.499384 59.219069, -48.541288 59.237238, -48.583237 59.255393, -48.625230 59.273535, -48.667269 59.291663, -48.709352 59.309778, -48.751480 59.327879, -48.793652 59.345967, -48.835870 59.364040, -48.878133 59.382101, -48.920441 59.400147, -48.962793 59.418180, -49.005191 59.436199, -49.047634 59.454205, -49.090123 59.472196, -49.132656 59.490174, -49.175235 59.508138, -49.217859 59.526088, -49.260529 59.544025, -49.303244 59.561947, -49.346005 59.579856, -49.388811 59.597750, -49.431662 59.615631, -49.474559 59.633497, -49.517502 59.651350, -49.560491 59.669188, -49.603525 59.687012, -49.646606 59.704823, -49.689732 59.722619, -49.732904 59.740401, -49.776121 59.758169, -49.819385 59.775922, -49.862695 59.793662, -49.906051 59.811387, -49.949453 59.829098, -49.992902 59.846794, -50.036396 59.864477, -50.079937 59.882145, -50.123524 59.899798, -50.167157 59.917437, -50.210837 59.935062, -50.254563 59.952672, -50.298335 59.970268, -50.342155 59.987849, -50.386020 60.005416, -50.429933 60.022968, -50.473892 60.040506, -50.517897 60.058029, -50.561950 60.075537, -50.606049 60.093031, -50.650195 60.110510, -50.694388 60.127974, -50.738627 60.145424, -50.782914 60.162859, -50.827248 60.180279, -50.871629 60.197684, -50.916056 60.215074, -50.960531 60.232450, -51.005053 60.249810, -51.049623 60.267156, -51.094239 60.284487, -51.138903 60.301803, -51.183614 60.319103, -51.228373 60.336389, -51.273179 60.353660, -51.318033 60.370915, -51.362934 60.388156, -51.407882 60.405381, -51.452878 60.422591, -51.497922 60.439786, -51.543013 60.456966, -51.588153 60.474131, -51.633339 60.491280, -51.678574 60.508414, -51.723857 60.525533, -51.769187 60.542636, -51.814565 60.559724, -51.859992 60.576797, -51.905466 60.593854, -51.950988 60.610896, -51.996559 60.627922, -52.042177 60.644932, -52.087844 60.661928, -52.133559 60.678907, -52.179322 60.695871, -52.225134 60.712820, -52.270993 60.729752, -52.316902 60.746669, -52.362858 60.763571, -52.408863 60.780457, -52.454917 60.797326, -52.501019 60.814181, -52.547169 60.831019, -52.593368 60.847841, -52.639616 60.864648, -52.685913 60.881439, -52.732258 60.898213, -52.778652 60.914972, -52.825094 60.931715, -52.871586 60.948442, -52.918127 60.965153, -52.964716 60.981848, -53.011354 60.998526, -53.058041 61.015189, -53.104778 61.031835, -53.151563 61.048466, -53.198398 61.065080, -53.245281 61.081678, -53.292214 61.098259, -53.339196 61.114824, -53.386227 61.131373, -53.433308 61.147906, -53.480437 61.164422, -53.527617 61.180922, -53.574845 61.197406, -53.622123 61.213873, -53.669451 61.230323, -53.716828 61.246757, -53.764254 61.263175, -53.811730 61.279576, -53.859256 61.295960, -53.906831 61.312328, -53.954456 61.328679, -54.002131 61.345013, -54.049855 61.361331, -54.097629 61.377632, -54.145453 61.393916, -54.193327 61.410183, -54.241251 61.426434, -54.289224 61.442667, -54.337248 61.458884, -54.385322 61.475084, -54.433445 61.491267, -54.481619 61.507433, -54.529843 61.523582, -54.578116 61.539714, -54.626440 61.555829, -54.674815 61.571926, -54.723239 61.588007, -54.771714 61.604071, -54.820239 61.620117, -54.868814 61.636146, -54.917439 61.652158, -54.966115 61.668153, -55.014842 61.684130, -55.063618 61.700090, -55.112446 61.716033, -55.161323 61.731958, -55.210252 61.747866, -55.259230 61.763756, -55.308260 61.779629, -55.357340 61.795485, -55.406471 61.811323, -55.455652 61.827143, -55.504884 61.842946, -55.554167 61.858731, -55.603500 61.874499, -55.652885 61.890248, -55.702320 61.905981, -55.751806 61.921695, -55.801343 61.937392, -55.850931 61.953071, -55.900570 61.968732, -55.950259 61.984375, -56.000000 62.000000, -55.983761 62.027145, -55.967493 62.054287, -55.951196 62.081428, -55.934869 62.108567, -55.918514 62.135704, -55.902129 62.162839, -55.885715 62.189972, -55.869271 62.217103, -55.852798 62.244232, -55.836295 62.271359, -55.819762 62.298484, -55.803199 62.325607, -55.786607 62.352729, -55.769984 62.379848, -55.753331 62.406965, -55.736648 62.434081, -55.719935 62.461194, -55.703192 62.488305, -55.686418 62.515414, -55.669613 62.542522, -55.652778 62.569627, -55.635912 62.596730, -55.619016 62.623831, -55.602088 62.650931, -55.585130 62.678028, -55.568140 62.705123, -55.551119 62.732216, -55.534067 62.759307, -55.516984 62.786396, -55.499869 62.813482, -55.482723 62.840567, -55.465545 62.867650, -55.448335 62.894730, -55.431094 62.921809, -55.413820 62.948885, -55.396515 62.975959, -55.379177 63.003031, -55.361808 63.030101, -55.344406 63.057169, -55.326971 63.084235, -55.309504 63.111299, -55.292005 63.138360, -55.274473 63.165419, -55.256908 63.192476, -55.239310 63.219531, -55.221680 63.246584, -55.204016 63.273635, -55.186319 63.300683, -55.168589 63.327729, -55.150826 63.354773, -55.133029 63.381815, -55.115198 63.408854, -55.097334 63.435892, -55.079436 63.462927, -55.061505 63.489960, -55.043539 63.516990, -55.025539 63.544018, -55.007505 63.571045, -54.989437 63.598068, -54.971335 63.625090, -54.953198 63.652109, -54.935026 63.679126, -54.916820 63.706141, -54.898579 63.733153, -54.880303 63.760163, -54.861992 63.787171, -54.843646 63.814176, -54.825265 63.841179, -54.806849 63.868180, -54.788397 63.895179, -54.769910 63.922175, -54.751387 63.949168, -54.732828 63.976160, -54.714233 64.003149, -54.695603 64.030135, -54.676936 64.057119, -54.658233 64.084101, -54.639494 64.111081, -54.620719 64.138058, -54.601907 64.165032, -54.583058 64.192004, -54.564173 64.218974, -54.545251 64.245941, -54.526291 64.272906, -54.507295 64.299868, -54.488262 64.326828, -54.469191 64.353786, -54.450083 64.380740, -54.430937 64.407693, -54.411754 64.434643, -54.392533 64.461590, -54.373274 64.488535, -54.353977 64.515477, -54.334642 64.542417, -54.315269 64.569355, -54.295857 64.596289, -54.276407 64.623222, -54.256919 64.650151, -54.237391 64.677078, -54.217825 64.704003, -54.198220 64.730925, -54.178576 64.757844, -54.158893 64.784761, -54.139170 64.811675, -54.119408 64.838587, -54.099606 64.865495, -54.079765 64.892402, -54.059884 64.919305, -54.039962 64.946206, -54.020001 64.973104, -54.000000 65.000000, -54.014205 65.027594, -54.028439 65.055187, -54.042703 65.082778, -54.056996 65.110368, -54.071319 65.137957, -54.085672 65.165544, -54.100055 65.193130, -54.114467 65.220715, -54.128910 65.248298, -54.143383 65.275880, -54.157887 65.303460, -54.172420 65.331039, -54.186985 65.358617, -54.201579 65.386193, -54.216205 65.413768, -54.230861 65.441341, -54.245548 65.468913, -54.260267 65.496484, -54.275016 65.524053, -54.289796 65.551620, -54.304608 65.579187, -54.319451 65.606751, -54.334326 65.634315, -54.349233 65.661877, -54.364171 65.689437, -54.379141 65.716996, -54.394143 65.744554, -54.409177 65.772110, -54.424243 65.799664, -54.439341 65.827217, -54.454472 65.854769, -54.469636 65.882319, -54.484832 65.909867, -54.500060 65.937414, -54.515322 65.964960, -54.530616 65.992504, -54.545944 66.020046, -54.561304 66.047587, -54.576698 66.075127, -54.592126 66.102665, -54.607586 66.130201, -54.623081 66.157736, -54.638609 66.185269, -54.654171 66.212801, -54.669767 66.240331, -54.685397 66.267860, -54.701061 66.295387, -54.716760 66.322912, -54.732493 66.350436, -54.748260 66.377958, -54.764063 66.405479, -54.779900 66.432998, -54.795772 66.460515, -54.811679 66.488031, -54.827621 66.515545, -54.843598 66.543058, -54.859611 66.570569, -54.875659 66.598078, -54.891743 66.625586, -54.907863 66.653092, -54.924019 66.680596, -54.940211 66.708099, -54.956438 66.735600, -54.972703 66.763100, -54.989003 66.790597, -55.005340 66.818093, -55.021714 66.845588, -55.038124 66.873080, -55.054572 66.900571, -55.071056 66.928060, -55.087578 66.955548, -55.104137 66.983034, -55.120733 67.010518, -55.137367 67.038000, -55.154038 67.065481, -55.170748 67.092960, -55.187495 67.120437, -55.204281 67.147912, -55.221105 67.175386, -55.237967 67.202857, -55.254868 67.230327, -55.271807 67.257796, -55.288785 67.285262, -55.305802 67.312727, -55.322858 67.340190, -55.339953 67.367651, -55.357088 67.395110, -55.374262 67.422567, -55.391476 67.450023, -55.408730 67.477477, -55.426023 67.504929, -55.443357 67.532379, -55.460730 67.559827, -55.478145 67.587273, -55.495599 67.614718, -55.513094 67.642160, -55.530630 67.669601, -55.548207 67.697040, -55.565826 67.724477, -55.583485 67.751912, -55.601186 67.779345, -55.618928 67.806776, -55.636712 67.834205, -55.654537 67.861633, -55.672405 67.889058, -55.690315 67.916481, -55.708267 67.943903, -55.726262 67.971322, -55.744299 67.998740, -55.762379 68.026156, -55.780502 68.053569, -55.798669 68.080981, -55.816878 68.108390, -55.835131 68.135798, -55.853427 68.163203, -55.871767 68.190607, -55.890151 68.218009, -55.908579 68.245408, -55.927051 68.272805, -55.945568 68.300201, -55.964129 68.327594, -55.982735 68.354985, -56.001386 68.382375, -56.020081 68.409762, -56.038822 68.437147, -56.057609 68.464530, -56.076441 68.491910, -56.095318 68.519289, -56.114242 68.546666, -56.133212 68.574040, -56.152227 68.601412, -56.171290 68.628782, -56.190399 68.656150, -56.209554 68.683516, -56.228757 68.710880, -56.248007 68.738241, -56.267304 68.765601, -56.286648 68.792958, -56.306041 68.820313, -56.325481 68.847665, -56.344969 68.875016, -56.364505 68.902364, -56.384090 68.929710, -56.403723 68.957053, -56.423405 68.984395, -56.443136 69.011734, -56.462916 69.039071, -56.482746 69.066405, -56.502625 69.093738, -56.522553 69.121068, -56.542532 69.148395, -56.562561 69.175721, -56.582640 69.203044, -56.602769 69.230364, -56.622949 69.257683, -56.643180 69.284999, -56.663462 69.312312, -56.683796 69.339624, -56.704181 69.366932, -56.724617 69.394239, -56.745105 69.421543, -56.765646 69.448844, -56.786239 69.476144, -56.806884 69.503440, -56.827582 69.530735, -56.848333 69.558026, -56.869137 69.585316, -56.889994 69.612603, -56.910904 69.639887, -56.931869 69.667169, -56.952887 69.694449, -56.973960 69.721725, -56.995087 69.749000, -57.016268 69.776272, -57.037505 69.803541, -57.058796 69.830808, -57.080143 69.858072, -57.101545 69.885333, -57.123002 69.912592, -57.144516 69.939849, -57.166086 69.967103, -57.187712 69.994354, -57.209395 70.021602, -57.231134 70.048848, -57.252931 70.076091, -57.274784 70.103332, -57.296696 70.130570, -57.318665 70.157805, -57.340691 70.185038, -57.362777 70.212268, -57.384920 70.239495, -57.407122 70.266719, -57.429383 70.293941, -57.451704 70.321159, -57.474083 70.348376, -57.496522 70.375589, -57.519021 70.402799, -57.541581 70.430007, -57.564200 70.457212, -57.586880 70.484414, -57.609621 70.511614, -57.632423 70.538810, -57.655287 70.566004, -57.678211 70.593194, -57.701198 70.620382, -57.724247 70.647567, -57.747358 70.674749, -57.770532 70.701928, -57.793769 70.729104, -57.817069 70.756278, -57.840432 70.783448, -57.863859 70.810615, -57.887350 70.837779, -57.910905 70.864941, -57.934524 70.892099, -57.958209 70.919254, -57.981958 70.946407, -58.005772 70.973556, -58.029652 71.000702, -58.053598 71.027845, -58.077610 71.054985, -58.101688 71.082122, -58.125833 71.109256, -58.150045 71.136386, -58.174324 71.163514, -58.198670 71.190638, -58.223084 71.217760, -58.247566 71.244878, -58.272117 71.271992, -58.296736 71.299104, -58.321424 71.326212, -58.346182 71.353318, -58.371009 71.380420, -58.395905 71.407518, -58.420872 71.434614, -58.445909 71.461706, -58.471017 71.488794, -58.496196 71.515880, -58.521446 71.542962, -58.546768 71.570041, -58.572162 71.597116, -58.597628 71.624188, -58.623167 71.651257, -58.648778 71.678322, -58.674463 71.705384, -58.700221 71.732442, -58.726052 71.759497, -58.751958 71.786549, -58.777939 71.813596, -58.803994 71.840641, -58.830124 71.867682, -58.856330 71.894719, -58.882611 71.921753, -58.908969 71.948783, -58.935403 71.975810, -58.961914 72.002833, -58.988501 72.029852, -59.015167 72.056868, -59.041910 72.083880, -59.068731 72.110889, -59.095630 72.137894, -59.122608 72.164895, -59.149666 72.191892, -59.176803 72.218886, -59.204020 72.245876, -59.231317 72.272862, -59.258694 72.299845, -59.286153 72.326823, -59.313692 72.353798, -59.341314 72.380769, -59.369017 72.407736, -59.396803 72.434699, -59.424671 72.461658, -59.452623 72.488614, -59.480658 72.515565, -59.508777 72.542513, -59.536980 72.569457, -59.565267 72.596396, -59.593640 72.623332, -59.622098 72.650263, -59.650642 72.677191, -59.679272 72.704114, -59.707988 72.731034, -59.736792 72.757949, -59.765683 72.784860, -59.794661 72.811768, -59.823728 72.838671, -59.852883 72.865569, -59.882127 72.892464, -59.911460 72.919354, -59.940883 72.946240, -59.970396 72.973122, -60.000000 73.000000, -60.090831 73.009445, -60.181759 73.018850, -60.272785 73.028214, -60.363909 73.037538, -60.455130 73.046821, -60.546447 73.056064, -60.637861 73.065267, -60.729371 73.074428, -60.820977 73.083549, -60.912679 73.092629, -61.004477 73.101668, -61.096369 73.110666, -61.188357 73.119624, -61.280439 73.128540, -61.372615 73.137415, -61.464886 73.146249, -61.557250 73.155041, -61.649708 73.163792, -61.742258 73.172502, -61.834902 73.181170, -61.927638 73.189797, -62.020467 73.198382, -62.113387 73.206926, -62.206399 73.215427, -62.299503 73.223887, -62.392697 73.232306, -62.485982 73.240682, -62.579358 73.249016, -62.672823 73.257308, -62.766379 73.265558, -62.860024 73.273766, -62.953757 73.281932, -63.047580 73.290055, -63.141491 73.298137, -63.235490 73.306175, -63.329577 73.314171, -63.423752 73.322125, -63.518013 73.330036, -63.612361 73.337905, -63.706796 73.345730, -63.801316 73.353513, -63.895923 73.361253, -63.990614 73.368951, -64.085391 73.376605, -64.180252 73.384216, -64.275197 73.391784, -64.370227 73.399309, -64.465340 73.406791, -64.560536 73.414230, -64.655814 73.421625, -64.751176 73.428977, -64.846619 73.436285, -64.942144 73.443550, -65.037750 73.450772, -65.133437 73.457950, -65.229205 73.465084, -65.325052 73.472174, -65.420980 73.479221, -65.516987 73.486224, -65.613072 73.493183, -65.709237 73.500098, -65.805479 73.506969, -65.901799 73.513796, -65.998197 73.520579, -66.094671 73.527318, -66.191222 73.534013, -66.287849 73.540663, -66.384552 73.547269, -66.481330 73.553831, -66.578183 73.560348, -66.675110 73.566821, -66.772112 73.573249, -66.869187 73.579633, -66.966335 73.585972, -67.063556 73.592266, -67.160849 73.598516, -67.258214 73.604721, -67.355651 73.610881, -67.453158 73.616996, -67.550736 73.623066, -67.648385 73.629091, -67.746103 73.635072, -67.843890 73.641007, -67.941746 73.646897, -68.039670 73.652741, -68.137662 73.658541, -68.235722 73.664295, -68.333848 73.670004, -68.432041 73.675668, -68.530300 73.681286, -68.628625 73.686858, -68.727014 73.692386, -68.825469 73.697867, -68.923987 73.703303, -69.022569 73.708693, -69.121215 73.714038, -69.219923 73.719337, -69.318693 73.724590, -69.417526 73.729797, -69.516419 73.734958, -69.615373 73.740074, -69.714388 73.745143, -69.813462 73.750167, -69.912596 73.755144, -70.011789 73.760076, -70.111040 73.764961, -70.210349 73.769800, -70.309715 73.774593, -70.409138 73.779339, -70.508618 73.784039, -70.608153 73.788693, -70.707744 73.793301, -70.807390 73.797862, -70.907090 73.802376, -71.006843 73.806844, -71.106650 73.811266, -71.206510 73.815641, -71.306422 73.819969, -71.406386 73.824251, -71.506401 73.828486, -71.606467 73.832675, -71.706583 73.836816, -71.806749 73.840911, -71.906964 73.844959, -72.007227 73.848960, -72.107539 73.852914, -72.207898 73.856821, -72.308304 73.860682, -72.408756 73.864495, -72.509255 73.868261, -72.609799 73.871980, -72.710388 73.875652, -72.811021 73.879277, -72.911698 73.882855, -73.012418 73.886386, -73.113181 73.889869, -73.213986 73.893305, -73.314832 73.896694, -73.415720 73.900035, -73.516648 73.903329, -73.617616 73.906576, -73.718623 73.909775, -73.819669 73.912927, -73.920754 73.916031, -74.021876 73.919088, -74.123035 73.922098, -74.224231 73.925060, -74.325463 73.927974, -74.426731 73.930841, -74.528033 73.933660, -74.629370 73.936431, -74.730740 73.939155, -74.832144 73.941831, -74.933580 73.944459, -75.035048 73.947040, -75.136548 73.949573, -75.238078 73.952058, -75.339639 73.954495, -75.441230 73.956884, -75.542850 73.959226, -75.644498 73.961519, -75.746175 73.963765, -75.847879 73.965963, -75.949609 73.968113, -76.051366 73.970215, -76.153149 73.972269, -76.254957 73.974274, -76.356789 73.976232, -76.458646 73.978142, -76.560525 73.980004, -76.662428 73.981818, -76.764352 73.983584, -76.866299 73.985301, -76.968266 73.986971, -77.070254 73.988592, -77.172261 73.990166, -77.274288 73.991691, -77.376333 73.993168, -77.478396 73.994596, -77.580477 73.995977, -77.682575 73.997309, -77.784689 73.998593, -77.886818 73.999829, -77.988963 74.001017, -78.091122 74.002156, -78.193295 74.003247, -78.295481 74.004290, -78.397680 74.005285, -78.499891 74.006231, -78.602113 74.007129, -78.704347 74.007979, -78.806590 74.008780, -78.908844 74.009533, -79.011106 74.010238, -79.113377 74.010894, -79.215656 74.011502, -79.317942 74.012062, -79.420234 74.012573, -79.522533 74.013036, -79.624837 74.013451, -79.727146 74.013817, -79.829460 74.014135, -79.931777 74.014404, -80.034097 74.014626, -80.136419 74.014798, -80.238744 74.014923, -80.341069 74.014999, -80.443396 74.015026, -80.545722 74.015005, -80.648048 74.014936, -80.750372 74.014819, -80.852695 74.014653, -80.955016 74.014439, -81.057333 74.014176, -81.159647 74.013865, -81.261957 74.013506, -81.364262 74.013098, -81.466561 74.012642, -81.568855 74.012137, -81.671142 74.011584, -81.773422 74.010983, -81.875694 74.010334, -81.977957 74.009636, -82.080212 74.008889, -82.182457 74.008095, -82.284692 74.007252, -82.386916 74.006361, -82.489129 74.005421, -82.591329 74.004434, -82.693517 74.003398, -82.795692 74.002313, -82.897853 74.001181, -83.000000 74.000000, -83.095092 73.989684, -83.190064 73.979326, -83.284917 73.968927, -83.379650 73.958486, -83.474262 73.948003, -83.568754 73.937479, -83.663125 73.926914, -83.757375 73.916307, -83.851504 73.905659, -83.945512 73.894970, -84.039398 73.884240, -84.133162 73.873469, -84.226804 73.862657, -84.320324 73.851804, -84.413721 73.840910, -84.506996 73.829976, -84.600147 73.819001, -84.693176 73.807986, -84.786081 73.796930, -84.878862 73.785835, -84.971520 73.774698, -85.064054 73.763522, -85.156464 73.752306, -85.248750 73.741049, -85.340911 73.729753, -85.432947 73.718417, -85.524859 73.707041, -85.616646 73.695626, -85.708307 73.684171, -85.799843 73.672676, -85.891254 73.661142, -85.982539 73.649569, -86.073698 73.637957, -86.164731 73.626305, -86.255638 73.614614, -86.346419 73.602885, -86.437073 73.591116, -86.527601 73.579309, -86.618002 73.567463, -86.708276 73.555578, -86.798423 73.543655, -86.888443 73.531693, -86.978336 73.519693, -87.068101 73.507654, -87.157739 73.495577, -87.247249 73.483463, -87.336632 73.471310, -87.425886 73.459119, -87.515013 73.446890, -87.604011 73.434623, -87.692882 73.422319, -87.781624 73.409977, -87.870237 73.397598, -87.958722 73.385181, -88.047078 73.372726, -88.135306 73.360234, -88.223405 73.347706, -88.311374 73.335140, -88.399215 73.322536, -88.486927 73.309896, -88.574510 73.297219, -88.661963 73.284506, -88.749287 73.271755, -88.836482 73.258968, -88.923547 73.246145, -89.010482 73.233284, -89.097288 73.220388, -89.183965 73.207455, -89.270511 73.194486, -89.356928 73.181481, -89.443215 73.168440, -89.529372 73.155363, -89.615399 73.142250, -89.701296 73.129101, -89.787062 73.115916, -89.872699 73.102696, -89.958206 73.089441, -90.043582 73.076149, -90.128828 73.062823, -90.213944 73.049461, -90.298929 73.036064, -90.383785 73.022632, -90.468509 73.009165, -90.553104 72.995663, -90.637568 72.982126, -90.721901 72.968554, -90.806104 72.954947, -90.890176 72.941306, -90.974118 72.927631, -91.057930 72.913920, -91.141610 72.900176, -91.225161 72.886397, -91.308580 72.872584, -91.391869 72.858737, -91.475028 72.844856, -91.558056 72.830941, -91.640953 72.816991, -91.723720 72.803009, -91.806356 72.788992, -91.888861 72.774942, -91.971236 72.760858, -92.053481 72.746741, -92.135595 72.732590, -92.217578 72.718406, -92.299431 72.704189, -92.381153 72.689939, -92.462745 72.675656, -92.544207 72.661339, -92.625538 72.646990, -92.706738 72.632608, -92.787808 72.618193, -92.868748 72.603746, -92.949558 72.589266, -93.030237 72.574754, -93.110786 72.560209, -93.191204 72.545632, -93.271493 72.531022, -93.351651 72.516381, -93.431680 72.501707, -93.511578 72.487001, -93.591346 72.472264, -93.670984 72.457494, -93.750493 72.442693, -93.829871 72.427860, -93.909120 72.412996, -93.988239 72.398100, -94.067228 72.383172, -94.146087 72.368213, -94.224817 72.353223, -94.303418 72.338202, -94.381889 72.323150, -94.460230 72.308066, -94.538443 72.292952, -94.616526 72.277806, -94.694479 72.262630, -94.772304 72.247424, -94.850000 72.232186, -94.927566 72.216918, -95.005004 72.201620, -95.082313 72.186291, -95.159493 72.170931, -95.236544 72.155542, -95.313467 72.140122, -95.390262 72.124672, -95.466927 72.109193, -95.543465 72.093683, -95.619874 72.078143, -95.696155 72.062574, -95.772308 72.046975, -95.848334 72.031346, -95.924231 72.015688, -96.000000 72.000000, -95.998822 71.971917, -95.997647 71.943834, -95.996476 71.915751, -95.995309 71.887668, -95.994145 71.859585, -95.992984 71.831502, -95.991827 71.803419, -95.990674 71.775336, -95.989523 71.747253, -95.988377 71.719170, -95.987233 71.691087, -95.986093 71.663004, -95.984957 71.634921, -95.983823 71.606838, -95.982693 71.578755, -95.981567 71.550672, -95.980443 71.522588, -95.979323 71.494505, -95.978207 71.466422, -95.977093 71.438339, -95.975983 71.410256, -95.974876 71.382173, -95.973772 71.354090, -95.972671 71.326007, -95.971574 71.297924, -95.970480 71.269840, -95.969389 71.241757, -95.968301 71.213674, -95.967216 71.185591, -95.966134 71.157508, -95.965056 71.129425, -95.963980 71.101341, -95.962908 71.073258, -95.961838 71.045175, -95.960772 71.017092, -95.959709 70.989009, -95.958648 70.960925, -95.957591 70.932842, -95.956537 70.904759, -95.955486 70.876676, -95.954437 70.848592, -95.953392 70.820509, -95.952350 70.792426, -95.951310 70.764343, -95.950273 70.736259, -95.949240 70.708176, -95.948209 70.680093, -95.947181 70.652010, -95.946156 70.623926, -95.945134 70.595843, -95.944115 70.567760, -95.943098 70.539676, -95.942084 70.511593, -95.941073 70.483510, -95.940065 70.455427, -95.939060 70.427343, -95.938058 70.399260, -95.937058 70.371177, -95.936061 70.343093, -95.935066 70.315010, -95.934075 70.286927, -95.933086 70.258843, -95.932100 70.230760, -95.931116 70.202676, -95.930135 70.174593, -95.929157 70.146510, -95.928182 70.118426, -95.927209 70.090343, -95.926239 70.062260, -95.925271 70.034176, -95.924306 70.006093, -95.923344 69.978009, -95.922384 69.949926, -95.921426 69.921843, -95.920472 69.893759, -95.919520 69.865676, -95.918570 69.837592, -95.917623 69.809509, -95.916678 69.781425, -95.915736 69.753342, -95.914797 69.725258, -95.913860 69.697175, -95.912925 69.669092, -95.911993 69.641008, -95.911063 69.612925, -95.910136 69.584841, -95.909212 69.556758, -95.908289 69.528674, -95.907369 69.500591, -95.906452 69.472507, -95.905537 69.444424, -95.904624 69.416340, -95.903714 69.388257, -95.902806 69.360173, -95.901900 69.332090, -95.900997 69.304006, -95.900096 69.275922, -95.899197 69.247839, -95.898301 69.219755, -95.897407 69.191672, -95.896516 69.163588, -95.895626 69.135505, -95.894739 69.107421, -95.893854 69.079338, -95.892972 69.051254, -95.892092 69.023170, -95.891214 68.995087, -95.890338 68.967003, -95.889464 68.938920, -95.888593 68.910836, -95.887724 68.882753, -95.886857 68.854669, -95.885992 68.826585, -95.885130 68.798502, -95.884269 68.770418, -95.883411 68.742335, -95.882555 68.714251, -95.881701 68.686167, -95.880850 68.658084, -95.880000 68.630000, -95.955799 68.629387, -96.031593 68.628741, -96.107383 68.628060, -96.183168 68.627346, -96.258948 68.626597, -96.334723 68.625814, -96.410492 68.624998, -96.486256 68.624147, -96.562014 68.623262, -96.637766 68.622344, -96.713512 68.621391, -96.789251 68.620404, -96.864983 68.619384, -96.940709 68.618329, -97.016427 68.617241, -97.092137 68.616118, -97.167840 68.614962, -97.243535 68.613771, -97.319222 68.612547, -97.394901 68.611288, -97.470571 68.609996, -97.546232 68.608670, -97.621884 68.607310, -97.697526 68.605915, -97.773160 68.604487, -97.848783 68.603026, -97.924397 68.601530, -98.000000 68.600000, -98.072975 68.609027, -98.146009 68.618022, -98.219101 68.626986, -98.292251 68.635918, -98.365460 68.644819, -98.438727 68.653687, -98.512052 68.662524, -98.585434 68.671329, -98.658875 68.680102, -98.732373 68.688843, -98.805928 68.697553, -98.879540 68.706230, -98.953210 68.714875, -99.026937 68.723488, -99.100720 68.732069, -99.174560 68.740618, -99.248457 68.749135, -99.322410 68.757620, -99.396419 68.766072, -99.470485 68.774492, -99.544606 68.782880, -99.618783 68.791235, -99.693016 68.799558, -99.767305 68.807848, -99.841649 68.816106, -99.916048 68.824332, -99.990502 68.832525, -100.065011 68.840685, -100.139574 68.848812, -100.214192 68.856907, -100.288865 68.864969, -100.363592 68.872999, -100.438373 68.880996, -100.513208 68.888959, -100.588097 68.896890, -100.663040 68.904788, -100.738035 68.912654, -100.813085 68.920486, -100.888187 68.928285, -100.963342 68.936051, -101.038551 68.943784, -101.113811 68.951484, -101.189125 68.959151, -101.264490 68.966784, -101.339908 68.974384, -101.415377 68.981951, -101.490899 68.989485, -101.566472 68.996985, -101.642096 69.004452, -101.717772 69.011886, -101.793499 69.019286, -101.869277 69.026653, -101.945105 69.033986, -102.020984 69.041285, -102.096913 69.048551, -102.172893 69.055784, -102.248923 69.062983, -102.325002 69.070148, -102.401131 69.077279, -102.477310 69.084376, -102.553538 69.091440, -102.629815 69.098470, -102.706140 69.105466, -102.782515 69.112428, -102.858938 69.119356, -102.935410 69.126251, -103.011929 69.133111, -103.088497 69.139937, -103.165112 69.146729, -103.241775 69.153487, -103.318485 69.160211, -103.395243 69.166901, -103.472047 69.173556, -103.548899 69.180178, -103.625797 69.186765, -103.702741 69.193317, -103.779731 69.199836, -103.856768 69.206320, -103.933850 69.212769, -104.010978 69.219184, -104.088152 69.225565, -104.165370 69.231911, -104.242634 69.238223, -104.319942 69.244500, -104.397295 69.250743, -104.474692 69.256951, -104.552134 69.263124, -104.629619 69.269263, -104.707148 69.275367, -104.784721 69.281436, -104.862337 69.287470, -104.939996 69.293470, -105.017699 69.299435, -105.095443 69.305365, -105.173231 69.311260, -105.251060 69.317120, -105.328932 69.322945, -105.406845 69.328735, -105.484800 69.334490, -105.562797 69.340210, -105.640835 69.345895, -105.718913 69.351545, -105.797033 69.357160, -105.875193 69.362740, -105.953393 69.368284, -106.031633 69.373793, -106.109913 69.379267, -106.188233 69.384706, -106.266592 69.390110, -106.344991 69.395478, -106.423428 69.400810, -106.501904 69.406108, -106.580419 69.411370, -106.658972 69.416596, -106.737563 69.421787, -106.816191 69.426943, -106.894858 69.432063, -106.973561 69.437148, -107.052302 69.442196, -107.131080 69.447210, -107.209894 69.452188, -107.288744 69.457130, -107.367631 69.462036, -107.446554 69.466907, -107.525513 69.471742, -107.604507 69.476541, -107.683536 69.481304, -107.762600 69.486032, -107.841699 69.490724, -107.920832 69.495380, -108.000000 69.500000, -108.071443 69.487010, -108.142798 69.473990, -108.214068 69.460942, -108.285250 69.447864, -108.356346 69.434757, -108.427355 69.421621, -108.498277 69.408457, -108.569113 69.395263, -108.639862 69.382041, -108.710524 69.368790, -108.781099 69.355510, -108.851587 69.342202, -108.921988 69.328865, -108.992302 69.315499, -109.062530 69.302105, -109.132670 69.288683, -109.202724 69.275232, -109.272691 69.261753, -109.342570 69.248245, -109.412363 69.234710, -109.482068 69.221146, -109.551687 69.207554, -109.621218 69.193934, -109.690663 69.180286, -109.760020 69.166610, -109.829291 69.152907, -109.898474 69.139175, -109.967571 69.125416, -110.036580 69.111629, -110.105502 69.097814, -110.174337 69.083972, -110.243086 69.070102, -110.311747 69.056205, -110.380321 69.042281, -110.448808 69.028328, -110.517207 69.014349, -110.585520 69.000342, -110.653746 68.986309, -110.721885 68.972248, -110.789937 68.958159, -110.857901 68.944044, -110.925779 68.929902, -110.993570 68.915733, -111.061274 68.901537, -111.128890 68.887314, -111.196420 68.873064, -111.263863 68.858788, -111.331219 68.844485, -111.398488 68.830156, -111.465670 68.815799, -111.532765 68.801417, -111.599774 68.787007, -111.666695 68.772572, -111.733530 68.758110, -111.800277 68.743622, -111.866938 68.729107, -111.933513 68.714567, -112.000000 68.700000, -112.070758 68.711731, -112.141591 68.723433, -112.212498 68.735105, -112.283479 68.746747, -112.354534 68.758360, -112.425663 68.769943, -112.496866 68.781496, -112.568143 68.793019, -112.639494 68.804512, -112.710919 68.815975, -112.782417 68.827408, -112.853989 68.838811, -112.925634 68.850184, -112.997353 68.861527, -113.069146 68.872840, -113.141011 68.884122, -113.212950 68.895374, -113.284962 68.906595, -113.357047 68.917787, -113.429205 68.928947, -113.501436 68.940077, -113.573740 68.951177, -113.646116 68.962246, -113.718566 68.973284, -113.791087 68.984292, -113.863681 68.995269, -113.936348 69.006215, -114.009087 69.017130, -114.081898 69.028014, -114.154781 69.038867, -114.227736 69.049690, -114.300763 69.060481, -114.373862 69.071241, -114.447032 69.081970, -114.520275 69.092668, -114.593588 69.103335, -114.666973 69.113970, -114.740430 69.124574, -114.813958 69.135146, -114.887557 69.145687, -114.961226 69.156197, -115.034967 69.166675, -115.108779 69.177122, -115.182661 69.187537, -115.256614 69.197920, -115.330637 69.208271, -115.404731 69.218591, -115.478895 69.228879, -115.553129 69.239135, -115.627433 69.249359, -115.701807 69.259552, -115.776251 69.269712, -115.850764 69.279840, -115.925347 69.289936, -116.000000 69.300000, -116.039055 69.324361, -116.078197 69.348714, -116.117428 69.373057, -116.156748 69.397392, -116.196157 69.421718, -116.235655 69.446035, -116.275242 69.470343, -116.314919 69.494642, -116.354686 69.518932, -116.394544 69.543212, -116.434492 69.567484, -116.474531 69.591747, -116.514662 69.616000, -116.554884 69.640244, -116.595198 69.664479, -116.635603 69.688705, -116.676102 69.712921, -116.716693 69.737128, -116.757377 69.761326, -116.798154 69.785515, -116.839025 69.809693, -116.879989 69.833863, -116.921048 69.858023, -116.962202 69.882173, -117.003450 69.906314, -117.044793 69.930445, -117.086232 69.954567, -117.127766 69.978679, -117.169397 70.002781, -117.211124 70.026873, -117.252947 70.050956, -117.294868 70.075029, -117.336885 70.099092, -117.379000 70.123145, -117.421214 70.147188, -117.463525 70.171222, -117.505935 70.195245, -117.548444 70.219258, -117.591052 70.243261, -117.633759 70.267254, -117.676566 70.291237, -117.719474 70.315210, -117.762482 70.339173, -117.805590 70.363125, -117.848800 70.387067, -117.892111 70.410999, -117.935524 70.434920, -117.979039 70.458831, -118.022657 70.482731, -118.066377 70.506621, -118.110200 70.530501, -118.154127 70.554370, -118.198157 70.578228, -118.242292 70.602075, -118.286531 70.625912, -118.330875 70.649739, -118.375324 70.673554, -118.419878 70.697359, -118.464538 70.721153, -118.509305 70.744936, -118.554178 70.768708, -118.599157 70.792469, -118.644244 70.816219, -118.689439 70.839958, -118.734741 70.863686, -118.780151 70.887403, -118.825671 70.911109, -118.871299 70.934804, -118.917036 70.958487, -118.962883 70.982159, -119.008840 71.005820, -119.054908 71.029469, -119.101086 71.053107, -119.147375 71.076733, -119.193776 71.100348, -119.240288 71.123952, -119.286913 71.147543, -119.333651 71.171124, -119.380501 71.194692, -119.427464 71.218249, -119.474542 71.241794, -119.521733 71.265327, -119.569038 71.288848, -119.616459 71.312358, -119.663994 71.335855, -119.711646 71.359341, -119.759413 71.382815, -119.807296 71.406276, -119.855296 71.429725, -119.903413 71.453162, -119.951648 71.476587, -120.000000 71.500000, -120.087168 71.494926, -120.174289 71.489811, -120.261364 71.484657, -120.348392 71.479463, -120.435372 71.474230, -120.522305 71.468956, -120.609190 71.463643, -120.696027 71.458290, -120.782815 71.452897, -120.869555 71.447465, -120.956245 71.441993, -121.042886 71.436482, -121.129477 71.430931, -121.216018 71.425341, -121.302508 71.419711, -121.388948 71.414042, -121.475336 71.408333, -121.561674 71.402586, -121.647959 71.396798, -121.734193 71.390972, -121.820375 71.385106, -121.906504 71.379201, -121.992580 71.373257, -122.078603 71.367274, -122.164572 71.361252, -122.250488 71.355191, -122.336350 71.349091, -122.422157 71.342951, -122.507910 71.336773, -122.593608 71.330556, -122.679251 71.324300, -122.764838 71.318006, -122.850370 71.311672, -122.935845 71.305300, -123.021264 71.298889, -123.106627 71.292440, -123.191932 71.285951, -123.277180 71.279425, -123.362371 71.272859, -123.447505 71.266256, -123.532580 71.259614, -123.617597 71.252933, -123.702555 71.246214, -123.787454 71.239457, -123.872295 71.232661, -123.957076 71.225827, -124.041797 71.218955, -124.126459 71.212045, -124.211060 71.205097, -124.295601 71.198111, -124.380081 71.191086, -124.464500 71.184024, -124.548858 71.176924, -124.633154 71.169785, -124.717389 71.162609, -124.801562 71.155395, -124.885673 71.148144, -124.969721 71.140854, -125.053706 71.133527, -125.137628 71.126163, -125.221487 71.118760, -125.305283 71.111320, -125.389015 71.103843, -125.472682 71.096328, -125.556286 71.088776, -125.639825 71.081186, -125.723300 71.073559, -125.806709 71.065895, -125.890053 71.058194, -125.973332 71.050455, -126.056545 71.042679, -126.139693 71.034866, -126.222774 71.027016, -126.305789 71.019129, -126.388737 71.011205, -126.471619 71.003244, -126.554433 70.995247, -126.637180 70.987212, -126.719860 70.979141, -126.802472 70.971033, -126.885016 70.962888, -126.967492 70.954706, -127.049900 70.946488, -127.132239 70.938234, -127.214509 70.929943, -127.296711 70.921615, -127.378843 70.913252, -127.460905 70.904851, -127.542898 70.896415, -127.624822 70.887942, -127.706675 70.879433, -127.788458 70.870888, -127.870170 70.862307, -127.951812 70.853689, -128.033383 70.845036, -128.114883 70.836347, -128.196311 70.827621, -128.277669 70.818860, -128.358954 70.810063, -128.440168 70.801231, -128.521310 70.792362, -128.602379 70.783458, -128.683376 70.774519, -128.764301 70.765543, -128.845153 70.756533, -128.925931 70.747486, -129.006637 70.738405, -129.087269 70.729288, -129.167828 70.720135, -129.248313 70.710948, -129.328724 70.701725, -129.409062 70.692467, -129.489325 70.683174, -129.569513 70.673845, -129.649627 70.664482, -129.729667 70.655084, -129.809631 70.645651, -129.889521 70.636183, -129.969335 70.626680, -130.049074 70.617143, -130.128737 70.607571, -130.208324 70.597964, -130.287836 70.588322, -130.367271 70.578646, -130.446631 70.568936, -130.525914 70.559191, -130.605120 70.549411, -130.684250 70.539597, -130.763303 70.529749, -130.842279 70.519867, -130.921178 70.509951, -131.000000 70.500000, -131.080067 70.509094, -131.160206 70.518152, -131.240417 70.527176, -131.320699 70.536164, -131.401052 70.545116, -131.481476 70.554033, -131.561970 70.562915, -131.642536 70.571761, -131.723172 70.580572, -131.803878 70.589347, -131.884654 70.598086, -131.965500 70.606790, -132.046415 70.615458, -132.127400 70.624090, -132.208455 70.632686, -132.289578 70.641246, -132.370771 70.649770, -132.452032 70.658259, -132.533361 70.666711, -132.614759 70.675127, -132.696225 70.683507, -132.777758 70.691851, -132.859360 70.700159, -132.941028 70.708430, -133.022764 70.716665, -133.104567 70.724864, -133.186437 70.733026, -133.268374 70.741152, -133.350377 70.749241, -133.432446 70.757294, -133.514581 70.765310, -133.596782 70.773289, -133.679048 70.781232, -133.761380 70.789138, -133.843776 70.797007, -133.926238 70.804839, -134.008764 70.812635, -134.091355 70.820393, -134.174009 70.828115, -134.256728 70.835799, -134.339510 70.843447, -134.422356 70.851057, -134.505265 70.858630, -134.588238 70.866166, -134.671273 70.873665, -134.754370 70.881127, -134.837530 70.888551, -134.920752 70.895938, -135.004035 70.903287, -135.087381 70.910599, -135.170787 70.917874, -135.254255 70.925111, -135.337783 70.932310, -135.421373 70.939472, -135.505022 70.946596, -135.588732 70.953682, -135.672501 70.960731, -135.756330 70.967741, -135.840218 70.974714, -135.924166 70.981649, -136.008172 70.988547, -136.092237 70.995406, -136.176360 71.002227, -136.260541 71.009010, -136.344780 71.015755, -136.429076 71.022462, -136.513430 71.029131, -136.597840 71.035762, -136.682307 71.042354, -136.766831 71.048908, -136.851411 71.055424, -136.936047 71.061901, -137.020738 71.068340, -137.105485 71.074741, -137.190287 71.081103, -137.275144 71.087426, -137.360055 71.093711, -137.445020 71.099957, -137.530040 71.106165, -137.615113 71.112334, -137.700239 71.118464, -137.785419 71.124556, -137.870651 71.130609, -137.955936 71.136623, -138.041273 71.142598, -138.126662 71.148534, -138.212103 71.154431, -138.297595 71.160290, -138.383138 71.166109, -138.468732 71.171889, -138.554377 71.177630, -138.640072 71.183332, -138.725816 71.188995, -138.811611 71.194619, -138.897454 71.200203, -138.983347 71.205748, -139.069288 71.211254, -139.155277 71.216721, -139.241315 71.222148, -139.327401 71.227536, -139.413534 71.232884, -139.499714 71.238193, -139.585941 71.243463, -139.672214 71.248693, -139.758534 71.253883, -139.844899 71.259034, -139.931311 71.264145, -140.017767 71.269216, -140.104269 71.274248, -140.190815 71.279240, -140.277405 71.284192, -140.364040 71.289105, -140.450718 71.293977, -140.537440 71.298810, -140.624204 71.303603, -140.711012 71.308356, -140.797862 71.313069, -140.884753 71.317742, -140.971687 71.322375, -141.058662 71.326968, -141.145678 71.331521, -141.232735 71.336034, -141.319832 71.340507, -141.406970 71.344939, -141.494147 71.349332, -141.581363 71.353684, -141.668619 71.357996, -141.755913 71.362268, -141.843246 71.366499, -141.930617 71.370690, -142.018026 71.374841, -142.105472 71.378951, -142.192955 71.383021, -142.280475 71.387051, -142.368031 71.391040, -142.455624 71.394989, -142.543252 71.398897, -142.630915 71.402764, -142.718613 71.406591, -142.806346 71.410378, -142.894113 71.414123, -142.981914 71.417829, -143.069749 71.421493, -143.157617 71.425117, -143.245518 71.428700, -143.333452 71.432243, -143.421417 71.435744, -143.509415 71.439205, -143.597444 71.442625, -143.685504 71.446005, -143.773595 71.449343, -143.861716 71.452641, -143.949867 71.455897, -144.038048 71.459113, -144.126259 71.462288, -144.214498 71.465422, -144.302766 71.468515, -144.391062 71.471567, -144.479386 71.474578, -144.567738 71.477547, -144.656116 71.480476, -144.744522 71.483364, -144.832954 71.486211, -144.921412 71.489016, -145.009896 71.491781, -145.098405 71.494504, -145.186939 71.497186, -145.275497 71.499827, -145.364080 71.502427, -145.452686 71.504985, -145.541316 71.507503, -145.629970 71.509979, -145.718646 71.512414, -145.807344 71.514807, -145.896064 71.517159, -145.984806 71.519470, -146.073569 71.521740, -146.162353 71.523968, -146.251157 71.526155, -146.339982 71.528300, -146.428826 71.530404, -146.517689 71.532467, -146.606572 71.534488, -146.695473 71.536468, -146.784392 71.538406, -146.873329 71.540303, -146.962284 71.542159, -147.051256 71.543973, -147.140244 71.545745, -147.229249 71.547476, -147.318269 71.549166, -147.407305 71.550814, -147.496357 71.552420, -147.585423 71.553985, -147.674503 71.555508, -147.763598 71.556990, -147.852706 71.558430, -147.941827 71.559828, -148.030961 71.561185, -148.120108 71.562500, -148.209267 71.563774, -148.298437 71.565006, -148.387619 71.566196, -148.476812 71.567345, -148.566015 71.568452, -148.655228 71.569518, -148.744451 71.570542, -148.833684 71.571524, -148.922925 71.572464, -149.012175 71.573363, -149.101434 71.574220, -149.190700 71.575035, -149.279973 71.575809, -149.369254 71.576541, -149.458541 71.577231, -149.547835 71.577879, -149.637134 71.578486, -149.726439 71.579051, -149.815749 71.579574, -149.905063 71.580056, -149.994382 71.580495, -150.083705 71.580893, -150.173032 71.581250, -150.262361 71.581564, -150.351693 71.581837, -150.441028 71.582068, -150.530365 71.582257, -150.619703 71.582405, -150.709042 71.582511, -150.798383 71.582575, -150.887723 71.582597, -150.977064 71.582577, -151.066404 71.582516, -151.155743 71.582413, -151.245082 71.582268, -151.334419 71.582082, -151.423753 71.581854, -151.513086 71.581584, -151.602416 71.581272, -151.691742 71.580918, -151.781065 71.580523, -151.870385 71.580086, -151.959699 71.579607, -152.049010 71.579087, -152.138315 71.578524, -152.227615 71.577920, -152.316909 71.577275, -152.406196 71.576587, -152.495477 71.575858, -152.584751 71.575087, -152.674018 71.574275, -152.763277 71.573421, -152.852527 71.572525, -152.941769 71.571587, -153.031003 71.570608, -153.120226 71.569587, -153.209440 71.568524, -153.298644 71.567420, -153.387838 71.566274, -153.477020 71.565086, -153.566191 71.563857, -153.655351 71.562586, -153.744498 71.561273, -153.833633 71.559919, -153.922755 71.558523, -154.011864 71.557086, -154.100960 71.555607, -154.190041 71.554087, -154.279108 71.552524, -154.368160 71.550921, -154.457198 71.549276, -154.546219 71.547589, -154.635225 71.545861, -154.724214 71.544091, -154.813187 71.542280, -154.902143 71.540427, -154.991081 71.538533, -155.080002 71.536597, -155.168904 71.534620, -155.257788 71.532602, -155.346653 71.530542, -155.435498 71.528440, -155.524324 71.526298, -155.613130 71.524114, -155.701915 71.521888, -155.790679 71.519621, -155.879423 71.517313, -155.968144 71.514964, -156.056844 71.512573, -156.145521 71.510141, -156.234176 71.507667, -156.322808 71.505153, -156.411416 71.502597, -156.500000 71.500000, -156.574171 71.484471, -156.648222 71.468914, -156.722153 71.453328, -156.795964 71.437713, -156.869655 71.422069, -156.943227 71.406397, -157.016679 71.390696, -157.090011 71.374967, -157.163224 71.359210, -157.236317 71.343424, -157.309291 71.327610, -157.382146 71.311768, -157.454882 71.295898, -157.527499 71.280000, -157.599997 71.264073, -157.672376 71.248120, -157.744636 71.232138, -157.816778 71.216128, -157.888801 71.200091, -157.960706 71.184026, -158.032492 71.167934, -158.104160 71.151815, -158.175710 71.135668, -158.247142 71.119493, -158.318456 71.103292, -158.389652 71.087063, -158.460731 71.070807, -158.531692 71.054525, -158.602535 71.038215, -158.673261 71.021878, -158.743870 71.005515, -158.814361 70.989125, -158.884736 70.972708, -158.954993 70.956265, -159.025134 70.939795, -159.095158 70.923298, -159.165066 70.906776, -159.234857 70.890227, -159.304531 70.873651, -159.374090 70.857050, -159.443532 70.840422, -159.512858 70.823768, -159.582068 70.807089, -159.651163 70.790383, -159.720142 70.773652, -159.789006 70.756895, -159.857754 70.740112, -159.926386 70.723303, -159.994904 70.706469, -160.063307 70.689609, -160.131595 70.672724, -160.199768 70.655814, -160.267826 70.638878, -160.335770 70.621917, -160.403600 70.604931, -160.471315 70.587920, -160.538917 70.570883, -160.606404 70.553822, -160.673777 70.536736, -160.741037 70.519625, -160.808183 70.502489, -160.875216 70.485328, -160.942136 70.468143, -161.008942 70.450933, -161.075636 70.433699, -161.142216 70.416440, -161.208684 70.399157, -161.275039 70.381849, -161.341282 70.364517, -161.407412 70.347162, -161.473431 70.329781, -161.539337 70.312377, -161.605131 70.294949, -161.670814 70.277497, -161.736385 70.260021, -161.801845 70.242521, -161.867193 70.224998, -161.932430 70.207450, -161.997556 70.189879, -162.062571 70.172285, -162.127476 70.154667, -162.192270 70.137026, -162.256953 70.119361, -162.321526 70.101673, -162.385990 70.083961, -162.450343 70.066227, -162.514586 70.048469, -162.578720 70.030689, -162.642744 70.012885, -162.706658 69.995058, -162.770464 69.977209, -162.834160 69.959336, -162.897748 69.941441, -162.961227 69.923523, -163.024597 69.905583, -163.087859 69.887620, -163.151012 69.869634, -163.214057 69.851626, -163.276995 69.833596, -163.339824 69.815543, -163.402546 69.797468, -163.465160 69.779371, -163.527667 69.761252, -163.590067 69.743110, -163.652359 69.724947, -163.714545 69.706761, -163.776624 69.688554, -163.838597 69.670325, -163.900463 69.652074, -163.962223 69.633801, -164.023876 69.615506, -164.085424 69.597190, -164.146866 69.578853, -164.208203 69.560494, -164.269434 69.542113, -164.330559 69.523711, -164.391580 69.505288, -164.452495 69.486843, -164.513306 69.468377, -164.574013 69.449890, -164.634614 69.431382, -164.695112 69.412853, -164.755505 69.394303, -164.815794 69.375732, -164.875980 69.357140, -164.936062 69.338527, -164.996040 69.319893, -165.055915 69.301239, -165.115687 69.282564, -165.175356 69.263869, -165.234922 69.245153, -165.294385 69.226416, -165.353746 69.207659, -165.413005 69.188882, -165.472161 69.170084, -165.531216 69.151266, -165.590169 69.132428, -165.649020 69.113570, -165.707769 69.094691, -165.766417 69.075793, -165.824964 69.056875, -165.883410 69.037936, -165.941755 69.018978, -166.000000 69.000000, -166.020616 68.972846, -166.041182 68.945689, -166.061696 68.918530, -166.082161 68.891368, -166.102575 68.864204, -166.122939 68.837038, -166.143254 68.809869, -166.163519 68.782697, -166.183734 68.755523, -166.203900 68.728347, -166.224017 68.701169, -166.244085 68.673988, -166.264104 68.646804, -166.284075 68.619619, -166.303998 68.592431, -166.323872 68.565240, -166.343698 68.538047, -166.363477 68.510852, -166.383208 68.483655, -166.402891 68.456455, -166.422527 68.429253, -166.442116 68.402049, -166.461659 68.374842, -166.481154 68.347633, -166.500603 68.320422, -166.520005 68.293209, -166.539361 68.265993, -166.558671 68.238775, -166.577935 68.211555, -166.597154 68.184333, -166.616326 68.157108, -166.635454 68.129881, -166.654536 68.102652, -166.673573 68.075421, -166.692565 68.048188, -166.711513 68.020952, -166.730416 67.993714, -166.749274 67.966474, -166.768088 67.939232, -166.786858 67.911988, -166.805584 67.884742, -166.824267 67.857493, -166.842905 67.830243, -166.861501 67.802990, -166.880053 67.775735, -166.898562 67.748478, -166.917027 67.721219, -166.935450 67.693958, -166.953831 67.666695, -166.972169 67.639430, -166.990464 67.612163, -167.008717 67.584893, -167.026928 67.557622, -167.045097 67.530348, -167.063225 67.503073, -167.081311 67.475796, -167.099355 67.448516, -167.117358 67.421235, -167.135320 67.393951, -167.153240 67.366666, -167.171120 67.339378, -167.188959 67.312089, -167.206758 67.284797, -167.224516 67.257504, -167.242234 67.230208, -167.259911 67.202911, -167.277549 67.175612, -167.295146 67.148311, -167.312704 67.121008, -167.330222 67.093703, -167.347701 67.066396, -167.365141 67.039087, -167.382541 67.011776, -167.399902 66.984463, -167.417224 66.957149, -167.434508 66.929832, -167.451753 66.902514, -167.468959 66.875194, -167.486127 66.847872, -167.503257 66.820548, -167.520348 66.793222, -167.537402 66.765895, -167.554418 66.738565, -167.571396 66.711234, -167.588336 66.683901, -167.605239 66.656566, -167.622105 66.629229, -167.638933 66.601891, -167.655725 66.574551, -167.672479 66.547208, -167.689197 66.519865, -167.705877 66.492519, -167.722522 66.465172, -167.739130 66.437822, -167.755701 66.410471, -167.772237 66.383119, -167.788736 66.355764, -167.805199 66.328408, -167.821627 66.301050, -167.838019 66.273690, -167.854375 66.246329, -167.870696 66.218966, -167.886981 66.191601, -167.903232 66.164235, -167.919447 66.136866, -167.935627 66.109496, -167.951772 66.082125, -167.967883 66.054752, -167.983959 66.027377, -168.000000 66.000000, -167.958507 65.977615, -167.917087 65.955218, -167.875739 65.932810, -167.834464 65.910392, -167.793261 65.887962, -167.752130 65.865521, -167.711071 65.843069, -167.670083 65.820606, -167.629167 65.798133, -167.588323 65.775648, -167.547549 65.753152, -167.506847 65.730646, -167.466215 65.708129, -167.425655 65.685601, -167.385165 65.663062, -167.344745 65.640513, -167.304395 65.617953, -167.264116 65.595382, -167.223906 65.572800, -167.183766 65.550208, -167.143696 65.527606, -167.103695 65.504993, -167.063763 65.482369, -167.023901 65.459735, -166.984107 65.437090, -166.944382 65.414435, -166.904726 65.391769, -166.865138 65.369094, -166.825619 65.346407, -166.786168 65.323711, -166.746784 65.301004, -166.707469 65.278287, -166.668221 65.255560, -166.629041 65.232822, -166.589928 65.210075, -166.550882 65.187317, -166.511903 65.164549, -166.472991 65.141771, -166.434146 65.118983, -166.395368 65.096185, -166.356656 65.073376, -166.318010 65.050558, -166.279430 65.027730, -166.240917 65.004892, -166.202469 64.982044, -166.164087 64.959187, -166.125770 64.936319, -166.087519 64.913442, -166.049332 64.890554, -166.011211 64.867658, -165.973155 64.844751, -165.935164 64.821834, -165.897237 64.798908, -165.859375 64.775973, -165.821577 64.753027, -165.783843 64.730072, -165.746173 64.707108, -165.708567 64.684134, -165.671025 64.661150, -165.633546 64.638157, -165.596130 64.615154, -165.558778 64.592142, -165.521489 64.569121, -165.484264 64.546090, -165.447100 64.523050, -165.410000 64.500000)
