LINESTRING (-4.140000 50.370000, -4.160755 50.371870, -4.181513 50.373736, -4.202271 50.375598, -4.223032 50.377457, -4.243794 50.379312, -4.264557 50.381163, -4.285323 50.383011, -4.306089 50.384855, -4.326858 50.386695, -4.347628 50.388532, -4.368400 50.390364, -4.389173 50.392194, -4.409948 50.394019, -4.430724 50.395841, -4.451502 50.397659, -4.472282 50.399473, -4.493063 50.401284, -4.513846 50.403091, -4.534631 50.404894, -4.555417 50.406693, -4.576204 50.408489, -4.596993 50.410281, -4.617784 50.412070, -4.638576 50.413855, -4.659370 50.415636, -4.680166 50.417413, -4.700963 50.419186, -4.721761 50.420956, -4.742561 50.422722, -4.763363 50.424485, -4.784166 50.426244, -4.804971 50.427999, -4.825777 50.429750, -4.846585 50.431498, -4.867394 50.433242, -4.888205 50.434982, -4.909018 50.436718, -4.929832 50.438451, -4.950647 50.440180, -4.971464 50.441905, -4.992283 50.443627, -5.013103 50.445345, -5.033924 50.447059, -5.054747 50.448770, -5.075572 50.450476, -5.096398 50.452180, -5.117225 50.453879, -5.138054 50.455574, -5.158885 50.457266, -5.179717 50.458955, -5.200550 50.460639, -5.221385 50.462320, -5.242222 50.463997, -5.263060 50.465670, -5.283899 50.467340, -5.304740 50.469006, -5.325582 50.470668, -5.346426 50.472326, -5.367271 50.473981, -5.388118 50.475632, -5.408966 50.477279, -5.429816 50.478923, -5.450667 50.480562, -5.471519 50.482199, -5.492373 50.483831, -5.513229 50.485460, -5.534086 50.487084, -5.554944 50.488706, -5.575804 50.490323, -5.596665 50.491937, -5.617527 50.493547, -5.638391 50.495153, -5.659257 50.496756, -5.680123 50.498354, -5.700992 50.499949, -5.721861 50.501541, -5.742732 50.503128, -5.763605 50.504712, -5.784478 50.506292, -5.805354 50.507869, -5.826230 50.509441, -5.847108 50.511010, -5.867988 50.512576, -5.888868 50.514137, -5.909751 50.515695, -5.930634 50.517249, -5.951519 50.518799, -5.972405 50.520346, -5.993293 50.521889, -6.014182 50.523428, -6.035072 50.524963, -6.055964 50.526494, -6.076857 50.528022, -6.097751 50.529546, -6.118647 50.531067, -6.139544 50.532583, -6.160443 50.534096, -6.181343 50.535605, -6.202244 50.537111, -6.223146 50.538613, -6.244050 50.540111, -6.264955 50.541605, -6.285862 50.543095, -6.306769 50.544582, -6.327678 50.546065, -6.348589 50.547544, -6.369501 50.549019, -6.390414 50.550491, -6.411328 50.551959, -6.432243 50.553423, -6.453160 50.554884, -6.474079 50.556341, -6.494998 50.557794, -6.515919 50.559243, -6.536841 50.560688, -6.557764 50.562130, -6.578689 50.563568, -6.599615 50.565002, -6.620542 50.566433, -6.641471 50.567860, -6.662400 50.569283, -6.683331 50.570702, -6.704263 50.572117, -6.725197 50.573529, -6.746132 50.574937, -6.767068 50.576341, -6.788005 50.577742, -6.808943 50.579138, -6.829883 50.580531, -6.850824 50.581921, -6.871766 50.583306, -6.892710 50.584688, -6.913654 50.586066, -6.934600 50.587440, -6.955547 50.588810, -6.976496 50.590177, -6.997445 50.591540, -7.018396 50.592899, -7.039348 50.594255, -7.060301 50.595606, -7.081256 50.596954, -7.102211 50.598298, -7.123168 50.599639, -7.144126 50.600975, -7.165085 50.602308, -7.186045 50.603637, -7.207007 50.604963, -7.227969 50.606284, -7.248933 50.607602, -7.269898 50.608916, -7.290865 50.610226, -7.311832 50.611533, -7.332800 50.612836, -7.353770 50.614135, -7.374741 50.615430, -7.395713 50.616721, -7.416686 50.618009, -7.437660 50.619293, -7.458636 50.620573, -7.479612 50.621850, -7.500590 50.623122, -7.521569 50.624391, -7.542549 50.625656, -7.563530 50.626918, -7.584512 50.628175, -7.605496 50.629429, -7.626480 50.630679, -7.647466 50.631925, -7.668452 50.633168, -7.689440 50.634407, -7.710429 50.635642, -7.731419 50.636873, -7.752410 50.638100, -7.773403 50.639324, -7.794396 50.640544, -7.815390 50.641760, -7.836386 50.642972, -7.857382 50.644181, -7.878380 50.645385, -7.899379 50.646586, -7.920378 50.647784, -7.941379 50.648977, -7.962381 50.650167, -7.983384 50.651353, -8.004388 50.652535, -8.025393 50.653713, -8.046399 50.654888, -8.067406 50.656059, -8.088415 50.657226, -8.109424 50.658389, -8.130434 50.659548, -8.151446 50.660704, -8.172458 50.661856, -8.193471 50.663004, -8.214486 50.664149, -8.235501 50.665289, -8.256518 50.666426, -8.277535 50.667559, -8.298554 50.668688, -8.319573 50.669814, -8.340594 50.670936, -8.361615 50.672053, -8.382638 50.673168, -8.403661 50.674278, -8.424686 50.675384, -8.445711 50.676487, -8.466738 50.677586, -8.487765 50.678681, -8.508794 50.679773, -8.529823 50.680861, -8.550854 50.681944, -8.571885 50.683025, -8.592917 50.684101, -8.613951 50.685173, -8.634985 50.686242, -8.656020 50.687307, -8.677056 50.688368, -8.698094 50.689426, -8.719132 50.690479, -8.740171 50.691529, -8.761211 50.692575, -8.782251 50.693617, -8.803293 50.694656, -8.824336 50.695690, -8.845380 50.696721, -8.866424 50.697748, -8.887470 50.698772, -8.908516 50.699791, -8.929564 50.700807, -8.950612 50.701819, -8.971661 50.702827, -8.992711 50.703831, -9.013762 50.704832, -9.034814 50.705828, -9.055867 50.706821, -9.076920 50.707811, -9.097975 50.708796, -9.119030 50.709778, -9.140087 50.710755, -9.161144 50.711729, -9.182202 50.712700, -9.203261 50.713666, -9.224321 50.714629, -9.245381 50.715587, -9.266443 50.716542, -9.287505 50.717494, -9.308568 50.718441, -9.329632 50.719385, -9.350697 50.720325, -9.371763 50.721261, -9.392830 50.722193, -9.413897 50.723121, -9.434965 50.724046, -9.456035 50.724967, -9.477105 50.725884, -9.498175 50.726797, -9.519247 50.727707, -9.540319 50.728613, -9.561392 50.729514, -9.582466 50.730413, -9.603541 50.731307, -9.624617 50.732197, -9.645693 50.733084, -9.666771 50.733967, -9.687849 50.734846, -9.708927 50.735721, -9.730007 50.736593, -9.751087 50.737461, -9.772168 50.738324, -9.793250 50.739185, -9.814333 50.740041, -9.835417 50.740893, -9.856501 50.741742, -9.877586 50.742587, -9.898672 50.743428, -9.919758 50.744265, -9.940845 50.745099, -9.961933 50.745928, -9.983022 50.746754, -10.004112 50.747576, -10.025202 50.748395, -10.046293 50.749209, -10.067384 50.750020, -10.088477 50.750827, -10.109570 50.751630, -10.130664 50.752429, -10.151759 50.753224, -10.172854 50.754016, -10.193950 50.754804, -10.215047 50.755588, -10.236144 50.756368, -10.257242 50.757145, -10.278341 50.757917, -10.299441 50.758686, -10.320541 50.759451, -10.341642 50.760212, -10.362743 50.760970, -10.383846 50.761723, -10.404949 50.762473, -10.426052 50.763219, -10.447157 50.763961, -10.468262 50.764699, -10.489367 50.765434, -10.510473 50.766165, -10.531580 50.766891, -10.552688 50.767615, -10.573796 50.768334, -10.594905 50.769049, -10.616015 50.769761, -10.637125 50.770469, -10.658236 50.771173, -10.679347 50.771873, -10.700459 50.772570, -10.721572 50.773262, -10.742685 50.773951, -10.763799 50.774636, -10.784914 50.775317, -10.806029 50.775995, -10.827145 50.776668, -10.848261 50.777338, -10.869378 50.778004, -10.890496 50.778666, -10.911614 50.779324, -10.932733 50.779979, -10.953852 50.780629, -10.974972 50.781276, -10.996093 50.781919, -11.017214 50.782559, -11.038336 50.783194, -11.059458 50.783826, -11.080581 50.784454, -11.101704 50.785078, -11.122828 50.785698, -11.143953 50.786314, -11.165078 50.786927, -11.186204 50.787535, -11.207330 50.788140, -11.228457 50.788741, -11.249584 50.789339, -11.270712 50.789932, -11.291840 50.790522, -11.312969 50.791108, -11.334098 50.791690, -11.355228 50.792268, -11.376359 50.792842, -11.397490 50.793413, -11.418621 50.793979, -11.439753 50.794542, -11.460886 50.795101, -11.482019 50.795657, -11.503152 50.796208, -11.524286 50.796756, -11.545421 50.797300, -11.566556 50.797840, -11.587691 50.798376, -11.608827 50.798908, -11.629964 50.799437, -11.651101 50.799962, -11.672238 50.800483, -11.693376 50.801000, -11.714514 50.801513, -11.735653 50.802022, -11.756792 50.802528, -11.777932 50.803030, -11.799072 50.803528, -11.820213 50.804022, -11.841354 50.804513, -11.862495 50.804999, -11.883637 50.805482, -11.904780 50.805961, -11.925923 50.806436, -11.947066 50.806907, -11.968209 50.807374, -11.989354 50.807838, -12.010498 50.808298, -12.031643 50.808754, -12.052788 50.809206, -12.073934 50.809654, -12.095080 50.810099, -12.116227 50.810540, -12.137374 50.810976, -12.158521 50.811409, -12.179669 50.811839, -12.200817 50.812264, -12.221965 50.812686, -12.243114 50.813103, -12.264263 50.813517, -12.285413 50.813927, -12.306563 50.814334, -12.327713 50.814736, -12.348864 50.815135, -12.370015 50.815530, -12.391167 50.815921, -12.412318 50.816308, -12.433470 50.816691, -12.454623 50.817071, -12.475776 50.817446, -12.496929 50.817818, -12.518082 50.818186, -12.539236 50.818550, -12.560390 50.818911, -12.581545 50.819267, -12.602700 50.819620, -12.623855 50.819969, -12.645010 50.820314, -12.666166 50.820655, -12.687322 50.820993, -12.708478 50.821326, -12.729635 50.821656, -12.750792 50.821982, -12.771949 50.822304, -12.793107 50.822623, -12.814265 50.822937, -12.835423 50.823248, -12.856581 50.823555, -12.877740 50.823858, -12.898899 50.824157, -12.920058 50.824452, -12.941217 50.824744, -12.962377 50.825031, -12.983537 50.825315, -13.004697 50.825595, -13.025858 50.825872, -13.047019 50.826144, -13.068180 50.826412, -13.089341 50.826677, -13.110502 50.826938, -13.131664 50.827195, -13.152826 50.827448, -13.173988 50.827698, -13.195151 50.827944, -13.216313 50.828185, -13.237476 50.828423, -13.258639 50.828657, -13.279802 50.828888, -13.300966 50.829114, -13.322129 50.829337, -13.343293 50.829556, -13.364457 50.829771, -13.385622 50.829982, -13.406786 50.830189, -13.427951 50.830392, -13.449116 50.830592, -13.470281 50.830788, -13.491446 50.830980, -13.512611 50.831168, -13.533777 50.831353, -13.554942 50.831533, -13.576108 50.831710, -13.597274 50.831883, -13.618440 50.832052, -13.639607 50.832217, -13.660773 50.832378, -13.681940 50.832536, -13.703106 50.832689, -13.724273 50.832839, -13.745440 50.832985, -13.766607 50.833128, -13.787775 50.833266, -13.808942 50.833401, -13.830110 50.833531, -13.851277 50.833658, -13.872445 50.833781, -13.893613 50.833901, -13.914781 50.834016, -13.935949 50.834128, -13.957117 50.834235, -13.978285 50.834339, -13.999454 50.834440, -14.020622 50.834536, -14.041791 50.834628, -14.062959 50.834717, -14.084128 50.834802, -14.105297 50.834883, -14.126465 50.834960, -14.147634 50.835033, -14.168803 50.835103, -14.189972 50.835168, -14.211141 50.835230, -14.232311 50.835288, -14.253480 50.835342, -14.274649 50.835392, -14.295818 50.835439, -14.316988 50.835482, -14.338157 50.835520, -14.359326 50.835555, -14.380496 50.835587, -14.401665 50.835614, -14.422835 50.835637, -14.444004 50.835657, -14.465174 50.835673, -14.486343 50.835685, -14.507513 50.835693, -14.528682 50.835698, -14.549852 50.835698, -14.571021 50.835695, -14.592191 50.835688, -14.613360 50.835677, -14.634530 50.835662, -14.655699 50.835643, -14.676869 50.835621, -14.698038 50.835595, -14.719208 50.835564, -14.740377 50.835531, -14.761547 50.835493, -14.782716 50.835451, -14.803885 50.835406, -14.825054 50.835356, -14.846224 50.835303, -14.867393 50.835246, -14.888562 50.835186, -14.909731 50.835121, -14.930900 50.835053, -14.952069 50.834981, -14.973238 50.834904, -14.994407 50.834825, -15.015575 50.834741, -15.036744 50.834653, -15.057912 50.834562, -15.079081 50.834467, -15.100249 50.834368, -15.121418 50.834265, -15.142586 50.834158, -15.163754 50.834048, -15.184922 50.833933, -15.206090 50.833815, -15.227257 50.833693, -15.248425 50.833567, -15.269593 50.833437, -15.290760 50.833304, -15.311927 50.833167, -15.333095 50.833025, -15.354262 50.832880, -15.375429 50.832732, -15.396595 50.832579, -15.417762 50.832422, -15.438928 50.832262, -15.460095 50.832098, -15.481261 50.831930, -15.502427 50.831758, -15.523593 50.831583, -15.544759 50.831403, -15.565924 50.831220, -15.587090 50.831033, -15.608255 50.830842, -15.629420 50.830647, -15.650585 50.830448, -15.671749 50.830246, -15.692914 50.830040, -15.714078 50.829830, -15.735242 50.829616, -15.756406 50.829398, -15.777570 50.829176, -15.798734 50.828951, -15.819897 50.828722, -15.841060 50.828489, -15.862223 50.828252, -15.883386 50.828011, -15.904548 50.827767, -15.925710 50.827518, -15.946872 50.827266, -15.968034 50.827010, -15.989196 50.826750, -16.010357 50.826487, -16.031518 50.826219, -16.052679 50.825948, -16.073839 50.825673, -16.095000 50.825394, -16.116160 50.825111, -16.137319 50.824824, -16.158479 50.824534, -16.179638 50.824239, -16.200797 50.823941, -16.221956 50.823639, -16.243115 50.823334, -16.264273 50.823024, -16.285431 50.822711, -16.306588 50.822393, -16.327746 50.822072, -16.348903 50.821747, -16.370059 50.821419, -16.391216 50.821086, -16.412372 50.820750, -16.433528 50.820410, -16.454683 50.820065, -16.475838 50.819718, -16.496993 50.819366, -16.518148 50.819010, -16.539302 50.818651, -16.560456 50.818288, -16.581610 50.817921, -16.602763 50.817550, -16.623916 50.817176, -16.645068 50.816797, -16.666221 50.816415, -16.687373 50.816029, -16.708524 50.815639, -16.729675 50.815245, -16.750826 50.814848, -16.771977 50.814446, -16.793127 50.814041, -16.814276 50.813632, -16.835426 50.813219, -16.856575 50.812802, -16.877723 50.812382, -16.898871 50.811957, -16.920019 50.811529, -16.941167 50.811097, -16.962314 50.810662, -16.983460 50.810222, -17.004607 50.809778, -17.025753 50.809331, -17.046898 50.808880, -17.068043 50.808425, -17.089188 50.807966, -17.110332 50.807504, -17.131476 50.807038, -17.152619 50.806567, -17.173762 50.806093, -17.194904 50.805615, -17.216046 50.805134, -17.237188 50.804648, -17.258329 50.804159, -17.279470 50.803666, -17.300610 50.803169, -17.321750 50.802668, -17.342890 50.802164, -17.364028 50.801655, -17.385167 50.801143, -17.406305 50.800627, -17.427442 50.800107, -17.448579 50.799583, -17.469716 50.799056, -17.490852 50.798525, -17.511988 50.797989, -17.533123 50.797450, -17.554258 50.796908, -17.575392 50.796361, -17.596525 50.795811, -17.617659 50.795256, -17.638791 50.794698, -17.659923 50.794137, -17.681055 50.793571, -17.702186 50.793001, -17.723317 50.792428, -17.744447 50.791851, -17.765576 50.791270, -17.786705 50.790685, -17.807834 50.790097, -17.828962 50.789504, -17.850089 50.788908, -17.871216 50.788308, -17.892343 50.787704, -17.913468 50.787096, -17.934594 50.786485, -17.955718 50.785870, -17.976842 50.785250, -17.997966 50.784628, -18.019089 50.784001, -18.040212 50.783370, -18.061333 50.782736, -18.082455 50.782098, -18.103575 50.781456, -18.124696 50.780810, -18.145815 50.780160, -18.166934 50.779507, -18.188052 50.778850, -18.209170 50.778189, -18.230287 50.777524, -18.251404 50.776855, -18.272520 50.776182, -18.293635 50.775506, -18.314750 50.774826, -18.335864 50.774142, -18.356978 50.773454, -18.378091 50.772763, -18.399203 50.772067, -18.420315 50.771368, -18.441426 50.770665, -18.462536 50.769958, -18.483646 50.769248, -18.504755 50.768533, -18.525863 50.767815, -18.546971 50.767093, -18.568078 50.766367, -18.589185 50.765638, -18.610290 50.764904, -18.631396 50.764167, -18.652500 50.763426, -18.673604 50.762681, -18.694707 50.761932, -18.715810 50.761180, -18.736911 50.760423, -18.758012 50.759663, -18.779113 50.758899, -18.800213 50.758132, -18.821312 50.757360, -18.842410 50.756585, -18.863508 50.755805, -18.884605 50.755022, -18.905701 50.754236, -18.926796 50.753445, -18.947891 50.752651, -18.968985 50.751853, -18.990079 50.751051, -19.011171 50.750245, -19.032263 50.749435, -19.053354 50.748622, -19.074445 50.747805, -19.095534 50.746984, -19.116623 50.746159, -19.137712 50.745330, -19.158799 50.744498, -19.179886 50.743661, -19.200972 50.742821, -19.222057 50.741978, -19.243141 50.741130, -19.264225 50.740278, -19.285308 50.739423, -19.306390 50.738564, -19.327472 50.737701, -19.348552 50.736835, -19.369632 50.735964, -19.390711 50.735090, -19.411789 50.734212, -19.432867 50.733330, -19.453943 50.732445, -19.475019 50.731555, -19.496094 50.730662, -19.517168 50.729765, -19.538242 50.728864, -19.559314 50.727959, -19.580386 50.727051, -19.601457 50.726139, -19.622527 50.725223, -19.643597 50.724303, -19.664665 50.723379, -19.685733 50.722452, -19.706800 50.721521, -19.727866 50.720586, -19.748931 50.719647, -19.769995 50.718704, -19.791059 50.717758, -19.812121 50.716808, -19.833183 50.715854, -19.854244 50.714896, -19.875304 50.713934, -19.896363 50.712969, -19.917421 50.712000, -19.938479 50.711027, -19.959535 50.710050, -19.980591 50.709070, -20.001646 50.708085, -20.022700 50.707097, -20.043753 50.706105, -20.064805 50.705109, -20.085856 50.704110, -20.106906 50.703107, -20.127956 50.702100, -20.149004 50.701089, -20.170052 50.700074, -20.191099 50.699056, -20.212144 50.698033, -20.233189 50.697007, -20.254233 50.695978, -20.275276 50.694944, -20.296318 50.693907, -20.317359 50.692865, -20.338400 50.691820, -20.359439 50.690772, -20.380477 50.689719, -20.401515 50.688663, -20.422551 50.687603, -20.443587 50.686539, -20.464621 50.685471, -20.485655 50.684400, -20.506687 50.683324, -20.527719 50.682245, -20.548750 50.681163, -20.569779 50.680076, -20.590808 50.678986, -20.611836 50.677891, -20.632863 50.676794, -20.653888 50.675692, -20.674913 50.674586, -20.695937 50.673477, -20.716960 50.672364, -20.737982 50.671247, -20.759002 50.670126, -20.780022 50.669002, -20.801041 50.667874, -20.822059 50.666742, -20.843075 50.665606, -20.864091 50.664466, -20.885106 50.663323, -20.906120 50.662176, -20.927132 50.661025, -20.948144 50.659871, -20.969155 50.658712, -20.990164 50.657550, -21.011173 50.656384, -21.032180 50.655214, -21.053187 50.654041, -21.074192 50.652863, -21.095196 50.651682, -21.116200 50.650497, -21.137202 50.649309, -21.158203 50.648116, -21.179203 50.646920, -21.200202 50.645720, -21.221200 50.644516, -21.242197 50.643309, -21.263193 50.642098, -21.284187 50.640883, -21.305181 50.639664, -21.326173 50.638441, -21.347165 50.637215, -21.368155 50.635985, -21.389144 50.634751, -21.410132 50.633513, -21.431119 50.632272, -21.452105 50.631026, -21.473090 50.629777, -21.494074 50.628525, -21.515056 50.627268, -21.536038 50.626008, -21.557018 50.624744, -21.577997 50.623476, -21.598975 50.622204, -21.619952 50.620929, -21.640928 50.619650, -21.661902 50.618367, -21.682876 50.617080, -21.703848 50.615790, -21.724819 50.614496, -21.745789 50.613198, -21.766758 50.611896, -21.787726 50.610590, -21.808693 50.609281, -21.829658 50.607968, -21.850622 50.606651, -21.871585 50.605331, -21.892547 50.604007, -21.913508 50.602679, -21.934467 50.601347, -21.955425 50.600011, -21.976382 50.598672, -21.997338 50.597329, -22.018293 50.595982, -22.039247 50.594631, -22.060199 50.593277, -22.081150 50.591919, -22.102100 50.590557, -22.123048 50.589191, -22.143996 50.587822, -22.164942 50.586449, -22.185887 50.585072, -22.206831 50.583691, -22.227773 50.582307, -22.248715 50.580919, -22.269655 50.579527, -22.290594 50.578131, -22.311531 50.576731, -22.332468 50.575328, -22.353403 50.573921, -22.374337 50.572511, -22.395269 50.571096, -22.416200 50.569678, -22.437130 50.568256, -22.458059 50.566830, -22.478987 50.565401, -22.499913 50.563968, -22.520838 50.562531, -22.541762 50.561090, -22.562684 50.559646, -22.583605 50.558197, -22.604525 50.556745, -22.625444 50.555290, -22.646361 50.553830, -22.667277 50.552367, -22.688192 50.550900, -22.709105 50.549429, -22.730017 50.547955, -22.750928 50.546477, -22.771837 50.544995, -22.792746 50.543509, -22.813652 50.542020, -22.834558 50.540527, -22.855462 50.539030, -22.876365 50.537529, -22.897266 50.536025, -22.918167 50.534517, -22.939065 50.533005, -22.959963 50.531489, -22.980859 50.529970, -23.001754 50.528447, -23.022647 50.526920, -23.043539 50.525390, -23.064430 50.523855, -23.085319 50.522317, -23.106207 50.520775, -23.127094 50.519230, -23.147979 50.517681, -23.168863 50.516128, -23.189746 50.514571, -23.210627 50.513011, -23.231507 50.511446, -23.252385 50.509879, -23.273262 50.508307, -23.294138 50.506732, -23.315012 50.505152, -23.335885 50.503570, -23.356756 50.501983, -23.377626 50.500393, -23.398495 50.498799, -23.419362 50.497201, -23.440228 50.495599, -23.461092 50.493994, -23.481955 50.492385, -23.502817 50.490773, -23.523677 50.489156, -23.544535 50.487536, -23.565393 50.485912, -23.586248 50.484285, -23.607103 50.482653, -23.627956 50.481018, -23.648807 50.479379, -23.669657 50.477737, -23.690506 50.476091, -23.711353 50.474441, -23.732199 50.472787, -23.753043 50.471130, -23.773886 50.469469, -23.794727 50.467804, -23.815567 50.466135, -23.836405 50.464463, -23.857242 50.462787, -23.878077 50.461107, -23.898911 50.459424, -23.919744 50.457737, -23.940574 50.456046, -23.961404 50.454351, -23.982232 50.452653, -24.003058 50.450951, -24.023883 50.449245, -24.044707 50.447536, -24.065529 50.445822, -24.086349 50.444106, -24.107168 50.442385, -24.127985 50.440661, -24.148801 50.438933, -24.169616 50.437201, -24.190428 50.435465, -24.211240 50.433726, -24.232050 50.431983, -24.252858 50.430237, -24.273664 50.428487, -24.294470 50.426732, -24.315273 50.424975, -24.336075 50.423213, -24.356876 50.421448, -24.377675 50.419679, -24.398472 50.417907, -24.419268 50.416131, -24.440062 50.414351, -24.460855 50.412567, -24.481646 50.410780, -24.502436 50.408988, -24.523224 50.407194, -24.544010 50.405395, -24.564795 50.403593, -24.585579 50.401787, -24.606360 50.399977, -24.627140 50.398164, -24.647919 50.396347, -24.668696 50.394526, -24.689471 50.392702, -24.710245 50.390874, -24.731017 50.389042, -24.751788 50.387207, -24.772557 50.385367, -24.793324 50.383525, -24.814090 50.381678, -24.834854 50.379828, -24.855616 50.377974, -24.876377 50.376116, -24.897136 50.374255, -24.917894 50.372390, -24.938650 50.370521, -24.959404 50.368648, -24.980157 50.366772, -25.000908 50.364892, -25.021657 50.363009, -25.042405 50.361122, -25.063151 50.359231, -25.083895 50.357336, -25.104638 50.355438, -25.125379 50.353536, -25.146118 50.351630, -25.166856 50.349721, -25.187592 50.347808, -25.208327 50.345891, -25.229059 50.343971, -25.249790 50.342046, -25.270520 50.340119, -25.291248 50.338187, -25.311974 50.336252, -25.332698 50.334313, -25.353421 50.332371, -25.374141 50.330424, -25.394861 50.328474, -25.415578 50.326521, -25.436294 50.324564, -25.457008 50.322603, -25.477721 50.320638, -25.498431 50.318670, -25.519140 50.316698, -25.539848 50.314722, -25.560553 50.312743, -25.581257 50.310760, -25.601959 50.308773, -25.622659 50.306783, -25.643358 50.304789, -25.664055 50.302791, -25.684750 50.300790, -25.705443 50.298785, -25.726135 50.296776, -25.746825 50.294764, -25.767513 50.292747, -25.788200 50.290728, -25.808884 50.288704, -25.829567 50.286677, -25.850248 50.284646, -25.870928 50.282612, -25.891605 50.280574, -25.912281 50.278532, -25.932955 50.276487, -25.953627 50.274438, -25.974298 50.272385, -25.994966 50.270328, -26.015633 50.268268, -26.036298 50.266205, -26.056962 50.264137, -26.077623 50.262066, -26.098283 50.259991, -26.118941 50.257913, -26.139597 50.255831, -26.160251 50.253745, -26.180904 50.251656, -26.201555 50.249563, -26.222204 50.247466, -26.242851 50.245366, -26.263496 50.243262, -26.284139 50.241154, -26.304781 50.239043, -26.325421 50.236928, -26.346059 50.234809, -26.366695 50.232687, -26.387329 50.230561, -26.407961 50.228431, -26.428592 50.226298, -26.449221 50.224161, -26.469847 50.222020, -26.490472 50.219876, -26.511096 50.217728, -26.531717 50.215577, -26.552336 50.213422, -26.572954 50.211263, -26.593570 50.209100, -26.614184 50.206934, -26.634795 50.204765, -26.655406 50.202591, -26.676014 50.200414, -26.696620 50.198233, -26.717225 50.196049, -26.737827 50.193861, -26.758428 50.191670, -26.779027 50.189474, -26.799623 50.187275, -26.820218 50.185073, -26.840812 50.182867, -26.861403 50.180657, -26.881992 50.178443, -26.902579 50.176226, -26.923165 50.174005, -26.943748 50.171781, -26.964330 50.169553, -26.984910 50.167321, -27.005487 50.165086, -27.026063 50.162847, -27.046637 50.160605, -27.067209 50.158358, -27.087779 50.156109, -27.108347 50.153855, -27.128914 50.151598, -27.149478 50.149337, -27.170040 50.147073, -27.190600 50.144805, -27.211159 50.142533, -27.231715 50.140258, -27.252270 50.137979, -27.272822 50.135697, -27.293373 50.133411, -27.313921 50.131121, -27.334468 50.128828, -27.355013 50.126531, -27.375555 50.124230, -27.396096 50.121926, -27.416635 50.119618, -27.437172 50.117306, -27.457706 50.114991, -27.478239 50.112672, -27.498770 50.110350, -27.519299 50.108024, -27.539825 50.105695, -27.560350 50.103361, -27.580873 50.101025, -27.601394 50.098684, -27.621913 50.096340, -27.642429 50.093992, -27.662944 50.091641, -27.683457 50.089286, -27.703968 50.086928, -27.724476 50.084565, -27.744983 50.082200, -27.765488 50.079830, -27.785990 50.077457, -27.806491 50.075081, -27.826990 50.072701, -27.847486 50.070317, -27.867981 50.067929, -27.888473 50.065538, -27.908963 50.063144, -27.929452 50.060746, -27.949938 50.058344, -27.970422 50.055938, -27.990905 50.053529, -28.011385 50.051117, -28.031863 50.048700, -28.052339 50.046280, -28.072813 50.043857, -28.093285 50.041430, -28.113754 50.038999, -28.134222 50.036565, -28.154688 50.034127, -28.175151 50.031686, -28.195613 50.029241, -28.216072 50.026792, -28.236530 50.024340, -28.256985 50.021884, -28.277438 50.019424, -28.297889 50.016961, -28.318338 50.014495, -28.338785 50.012025, -28.359230 50.009551, -28.379672 50.007073, -28.400113 50.004592, -28.420551 50.002108, -28.440988 49.999620, -28.461422 49.997128, -28.481854 49.994633, -28.502284 49.992134, -28.522712 49.989631, -28.543137 49.987125, -28.563561 49.984615, -28.583982 49.982102, -28.604402 49.979585, -28.624819 49.977065, -28.645234 49.974541, -28.665647 49.972013, -28.686057 49.969482, -28.706466 49.966947, -28.726872 49.964409, -28.747277 49.961867, -28.767679 49.959321, -28.788079 49.956772, -28.808477 49.954219, -28.828872 49.951663, -28.849266 49.949103, -28.869657 49.946540, -28.890046 49.943973, -28.910433 49.941402, -28.930818 49.938828, -28.951201 49.936251, -28.971581 49.933669, -28.991959 49.931085, -29.012335 49.928496, -29.032709 49.925904, -29.053081 49.923309, -29.073450 49.920710, -29.093818 49.918107, -29.114183 49.915501, -29.134545 49.912891, -29.154906 49.910277, -29.175265 49.907661, -29.195621 49.905040, -29.215975 49.902416, -29.236327 49.899788, -29.256676 49.897157, -29.277024 49.894522, -29.297369 49.891884, -29.317712 49.889242, -29.338052 49.886597, -29.358391 49.883948, -29.378727 49.881295, -29.399061 49.878639, -29.419393 49.875980, -29.439722 49.873316, -29.460050 49.870650, -29.480375 49.867979, -29.500698 49.865305, -29.521018 49.862628, -29.541336 49.859947, -29.561652 49.857263, -29.581966 49.854574, -29.602278 49.851883, -29.622587 49.849188, -29.642894 49.846489, -29.663199 49.843787, -29.683501 49.841081, -29.703801 49.838372, -29.724099 49.835659, -29.744395 49.832942, -29.764688 49.830222, -29.784979 49.827499, -29.805268 49.824772, -29.825554 49.822041, -29.845838 49.819307, -29.866120 49.816569, -29.886400 49.813828, -29.906677 49.811083, -29.926952 49.808335, -29.947225 49.805583, -29.967495 49.802828, -29.987763 49.800069, -30.008029 49.797306, -30.028292 49.794540, -30.048554 49.791771, -30.068812 49.788998, -30.089069 49.786221, -30.109323 49.783441, -30.129575 49.780657, -30.149824 49.777870, -30.170072 49.775080, -30.190316 49.772285, -30.210559 49.769488, -30.230799 49.766686, -30.251037 49.763882, -30.271272 49.761073, -30.291506 49.758261, -30.311736 49.755446, -30.331965 49.752627, -30.352191 49.749805, -30.372415 49.746979, -30.392636 49.744149, -30.412855 49.741316, -30.433072 49.738480, -30.453286 49.735640, -30.473498 49.732796, -30.493707 49.729949, -30.513915 49.727099, -30.534119 49.724245, -30.554322 49.721387, -30.574522 49.718526, -30.594720 49.715661, -30.614915 49.712793, -30.635108 49.709922, -30.655298 49.707047, -30.675486 49.704168, -30.695672 49.701286, -30.715855 49.698400, -30.736036 49.695511, -30.756215 49.692618, -30.776391 49.689722, -30.796565 49.686822, -30.816736 49.683919, -30.836905 49.681012, -30.857071 49.678102, -30.877235 49.675189, -30.897397 49.672271, -30.917556 49.669351, -30.937713 49.666426, -30.957868 49.663499, -30.978020 49.660568, -30.998169 49.657633, -31.018316 49.654695, -31.038461 49.651753, -31.058603 49.648808, -31.078743 49.645859, -31.098880 49.642907, -31.119015 49.639951, -31.139148 49.636992, -31.159278 49.634030, -31.179405 49.631063, -31.199530 49.628094, -31.219653 49.625121, -31.239773 49.622144, -31.259891 49.619164, -31.280006 49.616181, -31.300119 49.613193, -31.320229 49.610203, -31.340337 49.607209, -31.360443 49.604211, -31.380546 49.601210, -31.400646 49.598206, -31.420744 49.595198, -31.440839 49.592187, -31.460932 49.589172, -31.481023 49.586153, -31.501111 49.583132, -31.521197 49.580106, -31.541280 49.577077, -31.561360 49.574045, -31.581438 49.571009, -31.601514 49.567970, -31.621587 49.564927, -31.641658 49.561881, -31.661726 49.558832, -31.681791 49.555779, -31.701854 49.552722, -31.721915 49.549662, -31.741973 49.546598, -31.762028 49.543531, -31.782081 49.540461, -31.802132 49.537387, -31.822180 49.534310, -31.842225 49.531229, -31.862268 49.528145, -31.882308 49.525057, -31.902346 49.521966, -31.922381 49.518871, -31.942414 49.515773, -31.962444 49.512671, -31.982472 49.509566, -32.002497 49.506458, -32.022520 49.503346, -32.042540 49.500230, -32.062557 49.497111, -32.082572 49.493989, -32.102585 49.490863, -32.122594 49.487734, -32.142602 49.484601, -32.162606 49.481465, -32.182608 49.478326, -32.202608 49.475183, -32.222605 49.472036, -32.242599 49.468886, -32.262591 49.465733, -32.282581 49.462576, -32.302567 49.459416, -32.322551 49.456252, -32.342533 49.453085, -32.362512 49.449914, -32.382488 49.446740, -32.402462 49.443563, -32.422433 49.440382, -32.442402 49.437198, -32.462368 49.434010, -32.482331 49.430819, -32.502292 49.427624, -32.522250 49.424426, -32.542206 49.421224, -32.562159 49.418019, -32.582109 49.414811, -32.602057 49.411599, -32.622002 49.408384, -32.641945 49.405165, -32.661885 49.401943, -32.681822 49.398717, -32.701757 49.395489, -32.721689 49.392256, -32.741618 49.389020, -32.761545 49.385781, -32.781469 49.382538, -32.801391 49.379292, -32.821310 49.376043, -32.841226 49.372790, -32.861140 49.369533, -32.881051 49.366274, -32.900959 49.363010, -32.920865 49.359744, -32.940768 49.356474, -32.960669 49.353200, -32.980567 49.349924, -33.000462 49.346643, -33.020354 49.343360, -33.040244 49.340072, -33.060131 49.336782, -33.080016 49.333488, -33.099898 49.330191, -33.119777 49.326890, -33.139653 49.323586, -33.159527 49.320278, -33.179398 49.316967, -33.199267 49.313653, -33.219133 49.310335, -33.238996 49.307014, -33.258856 49.303689, -33.278714 49.300361, -33.298569 49.297030, -33.318422 49.293695, -33.338271 49.290357, -33.358119 49.287015, -33.377963 49.283670, -33.397805 49.280322, -33.417644 49.276970, -33.437480 49.273615, -33.457313 49.270256, -33.477144 49.266894, -33.496973 49.263529, -33.516798 49.260160, -33.536621 49.256788, -33.556441 49.253412, -33.576258 49.250033, -33.596073 49.246651, -33.615885 49.243265, -33.635694 49.239876, -33.655500 49.236484, -33.675304 49.233088, -33.695105 49.229689, -33.714903 49.226286, -33.734699 49.222880, -33.754492 49.219471, -33.774282 49.216058, -33.794069 49.212642, -33.813854 49.209222, -33.833636 49.205799, -33.853415 49.202373, -33.873192 49.198943, -33.892965 49.195510, -33.912736 49.192074, -33.932504 49.188634, -33.952270 49.185191, -33.972032 49.181744, -33.991792 49.178294, -34.011550 49.174841, -34.031304 49.171384, -34.051056 49.167924, -34.070804 49.164461, -34.090551 49.160994, -34.110294 49.157524, -34.130035 49.154050, -34.149772 49.150573, -34.169507 49.147093, -34.189240 49.143610, -34.208969 49.140123, -34.228696 49.136632, -34.248420 49.133139, -34.268141 49.129642, -34.287860 49.126141, -34.307575 49.122637, -34.327288 49.119130, -34.346998 49.115620, -34.366705 49.112106, -34.386410 49.108589, -34.406111 49.105068, -34.425810 49.101544, -34.445506 49.098017, -34.465199 49.094487, -34.484890 49.090953, -34.504578 49.087415, -34.524262 49.083875, -34.543944 49.080331, -34.563624 49.076783, -34.583300 49.073233, -34.602974 49.069679, -34.622644 49.066121, -34.642312 49.062561, -34.661978 49.058997, -34.681640 49.055429, -34.701299 49.051859, -34.720956 49.048285, -34.740610 49.044707, -34.760261 49.041126, -34.779909 49.037542, -34.799554 49.033955, -34.819197 49.030364, -34.838837 49.026770, -34.858473 49.023173, -34.878107 49.019572, -34.897739 49.015968, -34.917367 49.012361, -34.936992 49.008750, -34.956615 49.005136, -34.976235 49.001518, -34.995852 48.997898, -35.015466 48.994274, -35.035077 48.990646, -35.054685 48.987016, -35.074291 48.983382, -35.093894 48.979744, -35.113493 48.976104, -35.133090 48.972460, -35.152684 48.968813, -35.172275 48.965162, -35.191864 48.961508, -35.211449 48.957851, -35.231032 48.954190, -35.250611 48.950526, -35.270188 48.946859, -35.289762 48.943189, -35.309333 48.939515, -35.328901 48.935838, -35.348467 48.932157, -35.368029 48.928474, -35.387589 48.924787, -35.407145 48.921096, -35.426699 48.917403, -35.446250 48.913706, -35.465798 48.910006, -35.485343 48.906302, -35.504885 48.902595, -35.524424 48.898885, -35.543961 48.895172, -35.563494 48.891455, -35.583025 48.887735, -35.602552 48.884011, -35.622077 48.880285, -35.641599 48.876555, -35.661118 48.872822, -35.680634 48.869085, -35.700147 48.865345, -35.719657 48.861602, -35.739164 48.857856, -35.758669 48.854106, -35.778170 48.850353, -35.797668 48.846597, -35.817164 48.842837, -35.836657 48.839074, -35.856146 48.835308, -35.875633 48.831539, -35.895117 48.827766, -35.914598 48.823990, -35.934076 48.820211, -35.953551 48.816428, -35.973023 48.812642, -35.992492 48.808853, -36.011958 48.805061, -36.031421 48.801265, -36.050882 48.797466, -36.070339 48.793664, -36.089793 48.789858, -36.109245 48.786050, -36.128693 48.782238, -36.148139 48.778422, -36.167581 48.774604, -36.187021 48.770782, -36.206458 48.766957, -36.225891 48.763128, -36.245322 48.759297, -36.264750 48.755462, -36.284175 48.751624, -36.303597 48.747782, -36.323015 48.743938, -36.342431 48.740090, -36.361844 48.736238, -36.381254 48.732384, -36.400661 48.728526, -36.420065 48.724665, -36.439466 48.720801, -36.458864 48.716933, -36.478259 48.713062, -36.497651 48.709188, -36.517040 48.705311, -36.536426 48.701431, -36.555809 48.697547, -36.575190 48.693660, -36.594567 48.689769, -36.613941 48.685876, -36.633312 48.681979, -36.652680 48.678079, -36.672045 48.674176, -36.691407 48.670269, -36.710766 48.666359, -36.730122 48.662446, -36.749475 48.658530, -36.768826 48.654611, -36.788173 48.650688, -36.807517 48.646762, -36.826858 48.642833, -36.846196 48.638900, -36.865531 48.634965, -36.884863 48.631026, -36.904192 48.627083, -36.923518 48.623138, -36.942841 48.619189, -36.962161 48.615238, -36.981478 48.611282, -37.000791 48.607324, -37.020102 48.603363, -37.039410 48.599398, -37.058715 48.595430, -37.078017 48.591459, -37.097315 48.587484, -37.116611 48.583506, -37.135904 48.579526, -37.155193 48.575541, -37.174480 48.571554, -37.193763 48.567563, -37.213044 48.563570, -37.232321 48.559573, -37.251596 48.555572, -37.270867 48.551569, -37.290135 48.547562, -37.309400 48.543552, -37.328662 48.539539, -37.347922 48.535523, -37.367178 48.531504, -37.386431 48.527481, -37.405681 48.523455, -37.424927 48.519426, -37.444171 48.515393, -37.463412 48.511358, -37.482650 48.507319, -37.501884 48.503277, -37.521116 48.499232, -37.540344 48.495184, -37.559570 48.491132, -37.578792 48.487077, -37.598011 48.483019, -37.617228 48.478958, -37.636441 48.474894, -37.655651 48.470826, -37.674858 48.466755, -37.694061 48.462681, -37.713262 48.458604, -37.732460 48.454524, -37.751655 48.450440, -37.770846 48.446354, -37.790034 48.442264, -37.809220 48.438171, -37.828402 48.434074, -37.847581 48.429975, -37.866757 48.425872, -37.885930 48.421766, -37.905100 48.417657, -37.924267 48.413545, -37.943430 48.409430, -37.962591 48.405311, -37.981748 48.401189, -38.000903 48.397064, -38.020054 48.392936, -38.039202 48.388805, -38.058347 48.384670, -38.077489 48.380533, -38.096628 48.376392, -38.115764 48.372248, -38.134896 48.368101, -38.154026 48.363950, -38.173152 48.359797, -38.192275 48.355640, -38.211395 48.351480, -38.230512 48.347317, -38.249626 48.343151, -38.268737 48.338982, -38.287844 48.334809, -38.306949 48.330633, -38.326050 48.326454, -38.345148 48.322272, -38.364243 48.318087, -38.383335 48.313899, -38.402424 48.309707, -38.421510 48.305513, -38.440592 48.301315, -38.459672 48.297114, -38.478748 48.292910, -38.497821 48.288703, -38.516891 48.284492, -38.535958 48.280278, -38.555022 48.276062, -38.574082 48.271842, -38.593139 48.267619, -38.612194 48.263393, -38.631245 48.259163, -38.650293 48.254931, -38.669337 48.250695, -38.688379 48.246456, -38.707417 48.242214, -38.726453 48.237969, -38.745485 48.233721, -38.764514 48.229470, -38.783540 48.225215, -38.802562 48.220958, -38.821582 48.216697, -38.840598 48.212433, -38.859611 48.208166, -38.878621 48.203896, -38.897628 48.199623, -38.916632 48.195346, -38.935632 48.191067, -38.954629 48.186784, -38.973623 48.182498, -38.992614 48.178209, -39.011602 48.173917, -39.030587 48.169622, -39.049568 48.165324, -39.068546 48.161022, -39.087521 48.156718, -39.106493 48.152410, -39.125462 48.148099, -39.144427 48.143785, -39.163390 48.139468, -39.182349 48.135148, -39.201305 48.130825, -39.220257 48.126498, -39.239207 48.122169, -39.258153 48.117836, -39.277096 48.113500, -39.296036 48.109161, -39.314973 48.104819, -39.333906 48.100474, -39.352837 48.096126, -39.371764 48.091775, -39.390688 48.087420, -39.409608 48.083063, -39.428526 48.078702, -39.447440 48.074339, -39.466351 48.069972, -39.485259 48.065602, -39.504164 48.061229, -39.523065 48.056853, -39.541964 48.052473, -39.560859 48.048091, -39.579750 48.043706, -39.598639 48.039317, -39.617524 48.034926, -39.636406 48.030531, -39.655285 48.026133, -39.674161 48.021732, -39.693034 48.017328, -39.711903 48.012921, -39.730769 48.008511, -39.749632 48.004098, -39.768491 47.999681, -39.787348 47.995262, -39.806201 47.990839, -39.825051 47.986414, -39.843897 47.981985, -39.862741 47.977553, -39.881581 47.973118, -39.900418 47.968680, -39.919251 47.964239, -39.938082 47.959795, -39.956909 47.955348, -39.975733 47.950898, -39.994554 47.946445, -40.013371 47.941988, -40.032186 47.937529, -40.050997 47.933066, -40.069804 47.928601, -40.088609 47.924132, -40.107410 47.919660, -40.126208 47.915185, -40.145003 47.910707, -40.163794 47.906226, -40.182583 47.901742, -40.201368 47.897255, -40.220149 47.892765, -40.238928 47.888272, -40.257703 47.883776, -40.276475 47.879276, -40.295244 47.874774, -40.314009 47.870269, -40.332771 47.865760, -40.351530 47.861249, -40.370286 47.856734, -40.389038 47.852216, -40.407787 47.847695, -40.426533 47.843172, -40.445276 47.838645, -40.464015 47.834115, -40.482751 47.829582, -40.501484 47.825046, -40.520213 47.820507, -40.538939 47.815965, -40.557662 47.811420, -40.576382 47.806872, -40.595098 47.802321, -40.613811 47.797766, -40.632521 47.793209, -40.651228 47.788649, -40.669931 47.784085, -40.688631 47.779519, -40.707328 47.774950, -40.726021 47.770377, -40.744711 47.765802, -40.763398 47.761223, -40.782081 47.756641, -40.800762 47.752057, -40.819438 47.747469, -40.838112 47.742879, -40.856782 47.738285, -40.875449 47.733688, -40.894113 47.729088, -40.912774 47.724486, -40.931431 47.719880, -40.950085 47.715271, -40.968735 47.710659, -40.987382 47.706044, -41.006026 47.701427, -41.024667 47.696806, -41.043304 47.692182, -41.061938 47.687555, -41.080569 47.682925, -41.099197 47.678292, -41.117821 47.673656, -41.136441 47.669017, -41.155059 47.664375, -41.173673 47.659730, -41.192284 47.655082, -41.210892 47.650431, -41.229496 47.645777, -41.248097 47.641120, -41.266694 47.636460, -41.285289 47.631797, -41.303880 47.627130, -41.322467 47.622461, -41.341051 47.617789, -41.359632 47.613114, -41.378210 47.608436, -41.396785 47.603755, -41.415356 47.599071, -41.433923 47.594384, -41.452488 47.589694, -41.471049 47.585001, -41.489606 47.580305, -41.508161 47.575606, -41.526712 47.570904, -41.545260 47.566199, -41.563804 47.561491, -41.582345 47.556780, -41.600883 47.552066, -41.619417 47.547349, -41.637948 47.542629, -41.656476 47.537906, -41.675000 47.533180, -41.693521 47.528451, -41.712039 47.523719, -41.730553 47.518984, -41.749064 47.514246, -41.767572 47.509506, -41.786076 47.504762, -41.804577 47.500015, -41.823075 47.495265, -41.841569 47.490512, -41.860060 47.485757, -41.878548 47.480998, -41.897032 47.476236, -41.915513 47.471472, -41.933990 47.466704, -41.952465 47.461934, -41.970935 47.457160, -41.989403 47.452384, -42.007867 47.447604, -42.026328 47.442822, -42.044785 47.438036, -42.063239 47.433248, -42.081690 47.428457, -42.100137 47.423662, -42.118581 47.418865, -42.137022 47.414065, -42.155459 47.409262, -42.173893 47.404456, -42.192323 47.399647, -42.210751 47.394835, -42.229174 47.390020, -42.247595 47.385202, -42.266012 47.380381, -42.284426 47.375557, -42.302836 47.370731, -42.321243 47.365901, -42.339646 47.361068, -42.358047 47.356233, -42.376443 47.351394, -42.394837 47.346553, -42.413227 47.341708, -42.431614 47.336861, -42.449997 47.332011, -42.468377 47.327157, -42.486753 47.322301, -42.505127 47.317442, -42.523496 47.312580, -42.541863 47.307715, -42.560226 47.302847, -42.578586 47.297976, -42.596942 47.293102, -42.615295 47.288226, -42.633644 47.283346, -42.651990 47.278464, -42.670333 47.273578, -42.688672 47.268690, -42.707008 47.263798, -42.725341 47.258904, -42.743670 47.254007, -42.761996 47.249107, -42.780318 47.244204, -42.798637 47.239298, -42.816953 47.234389, -42.835265 47.229477, -42.853574 47.224562, -42.871879 47.219645, -42.890182 47.214724, -42.908480 47.209801, -42.926775 47.204874, -42.945067 47.199945, -42.963356 47.195013, -42.981641 47.190078, -42.999922 47.185140, -43.018201 47.180199, -43.036475 47.175255, -43.054747 47.170308, -43.073015 47.165359, -43.091280 47.160406, -43.109541 47.155451, -43.127799 47.150492, -43.146053 47.145531, -43.164304 47.140567, -43.182552 47.135600, -43.200796 47.130630, -43.219036 47.125657, -43.237274 47.120681, -43.255508 47.115703, -43.273738 47.110721, -43.291965 47.105737, -43.310189 47.100750, -43.328409 47.095759, -43.346626 47.090766, -43.364840 47.085770, -43.383050 47.080772, -43.401256 47.075770, -43.419460 47.070765, -43.437659 47.065758, -43.455856 47.060747, -43.474049 47.055734, -43.492238 47.050718, -43.510424 47.045699, -43.528607 47.040677, -43.546786 47.035652, -43.564962 47.030625, -43.583134 47.025594, -43.601303 47.020561, -43.619469 47.015524, -43.637631 47.010485, -43.655790 47.005443, -43.673945 47.000398, -43.692097 46.995350, -43.710245 46.990300, -43.728390 46.985246, -43.746532 46.980190, -43.764670 46.975131, -43.782805 46.970069, -43.800936 46.965004, -43.819064 46.959936, -43.837188 46.954865, -43.855309 46.949792, -43.873427 46.944715, -43.891541 46.939636, -43.909651 46.934554, -43.927758 46.929469, -43.945862 46.924381, -43.963963 46.919290, -43.982059 46.914197, -44.000153 46.909101, -44.018243 46.904001, -44.036329 46.898899, -44.054413 46.893794, -44.072492 46.888687, -44.090568 46.883576, -44.108641 46.878463, -44.126711 46.873346, -44.144776 46.868227, -44.162839 46.863105, -44.180898 46.857980, -44.198953 46.852853, -44.217006 46.847722, -44.235054 46.842589, -44.253099 46.837453, -44.271141 46.832314, -44.289179 46.827172, -44.307214 46.822027, -44.325246 46.816880, -44.343274 46.811729, -44.361298 46.806576, -44.379319 46.801420, -44.397337 46.796261, -44.415351 46.791100, -44.433361 46.785935, -44.451369 46.780768, -44.469372 46.775598, -44.487373 46.770425, -44.505370 46.765249, -44.523363 46.760070, -44.541353 46.754889, -44.559339 46.749705, -44.577322 46.744518, -44.595302 46.739328, -44.613278 46.734135, -44.631251 46.728940, -44.649220 46.723741, -44.667185 46.718540, -44.685148 46.713336, -44.703106 46.708129, -44.721062 46.702920, -44.739014 46.697708, -44.756962 46.692492, -44.774907 46.687274, -44.792848 46.682054, -44.810786 46.676830, -44.828721 46.671604, -44.846652 46.666374, -44.864579 46.661143, -44.882503 46.655908, -44.900424 46.650670, -44.918341 46.645430, -44.936255 46.640187, -44.954165 46.634941, -44.972072 46.629692, -44.989975 46.624440, -45.007875 46.619186, -45.025771 46.613929, -45.043664 46.608669, -45.061553 46.603406, -45.079439 46.598141, -45.097321 46.592872, -45.115200 46.587601, -45.133076 46.582327, -45.150948 46.577051, -45.168816 46.571771, -45.186681 46.566489, -45.204543 46.561204, -45.222401 46.555916, -45.240255 46.550626, -45.258106 46.545332, -45.275954 46.540036, -45.293798 46.534737, -45.311639 46.529436, -45.329476 46.524131, -45.347310 46.518824, -45.365140 46.513514, -45.382967 46.508201, -45.400790 46.502886, -45.418609 46.497568, -45.436426 46.492247, -45.454238 46.486923, -45.472048 46.481596, -45.489854 46.476267, -45.507656 46.470935, -45.525455 46.465600, -45.543250 46.460262, -45.561042 46.454922, -45.578830 46.449579, -45.596615 46.444233, -45.614396 46.438884, -45.632174 46.433533, -45.649949 46.428179, -45.667719 46.422822, -45.685487 46.417462, -45.703251 46.412100, -45.721011 46.406734, -45.738768 46.401367, -45.756521 46.395996, -45.774271 46.390622, -45.792018 46.385246, -45.809761 46.379867, -45.827500 46.374486, -45.845236 46.369101, -45.862968 46.363714, -45.880697 46.358324, -45.898423 46.352932, -45.916145 46.347536, -45.933863 46.342138, -45.951578 46.336738, -45.969290 46.331334, -45.986997 46.325928, -46.004702 46.320519, -46.022403 46.315107, -46.040100 46.309692, -46.057794 46.304275, -46.075485 46.298855, -46.093172 46.293433, -46.110855 46.288007, -46.128535 46.282579, -46.146211 46.277148, -46.163884 46.271715, -46.181554 46.266278, -46.199220 46.260839, -46.216882 46.255398, -46.234541 46.249953, -46.252196 46.244506, -46.269848 46.239056, -46.287496 46.233603, -46.305141 46.228148, -46.322783 46.222690, -46.340421 46.217229, -46.358055 46.211766, -46.375686 46.206300, -46.393313 46.200831, -46.410937 46.195359, -46.428557 46.189885, -46.446174 46.184408, -46.463787 46.178928, -46.481397 46.173446, -46.499003 46.167961, -46.516606 46.162473, -46.534205 46.156982, -46.551801 46.151489, -46.569393 46.145993, -46.586982 46.140495, -46.604567 46.134993, -46.622149 46.129489, -46.639727 46.123983, -46.657302 46.118473, -46.674873 46.112961, -46.692440 46.107446, -46.710004 46.101929, -46.727565 46.096409, -46.745122 46.090886, -46.762676 46.085360, -46.780226 46.079832, -46.797772 46.074301, -46.815315 46.068768, -46.832855 46.063231, -46.850390 46.057692, -46.867923 46.052151, -46.885452 46.046606, -46.902977 46.041059, -46.920499 46.035510, -46.938017 46.029957, -46.955532 46.024402, -46.973044 46.018845, -46.990551 46.013284, -47.008056 46.007721, -47.025556 46.002155, -47.043054 45.996587, -47.060547 45.991016, -47.078038 45.985442, -47.095524 45.979866, -47.113007 45.974287, -47.130487 45.968705, -47.147963 45.963121, -47.165436 45.957534, -47.182905 45.951944, -47.200370 45.946351, -47.217832 45.940756, -47.235291 45.935159, -47.252746 45.929558, -47.270197 45.923955, -47.287645 45.918350, -47.305089 45.912741, -47.322530 45.907130, -47.339968 45.901517, -47.357401 45.895900, -47.374832 45.890281, -47.392258 45.884660, -47.409682 45.879036, -47.427101 45.873409, -47.444518 45.867779, -47.461930 45.862147, -47.479339 45.856512, -47.496745 45.850875, -47.514147 45.845235, -47.531545 45.839592, -47.548940 45.833947, -47.566332 45.828298, -47.583720 45.822648, -47.601104 45.816995, -47.618485 45.811339, -47.635862 45.805680, -47.653236 45.800019, -47.670606 45.794355, -47.687973 45.788689, -47.705336 45.783019, -47.722696 45.777348, -47.740052 45.771673, -47.757405 45.765996, -47.774754 45.760317, -47.792099 45.754635, -47.809442 45.748950, -47.826780 45.743262, -47.844115 45.737572, -47.861446 45.731879, -47.878774 45.726184, -47.896099 45.720486, -47.913419 45.714785, -47.930737 45.709082, -47.948050 45.703376, -47.965361 45.697668, -47.982667 45.691957, -47.999971 45.686243, -48.017270 45.680527, -48.034566 45.674808, -48.051859 45.669087, -48.069148 45.663363, -48.086433 45.657636, -48.103715 45.651907, -48.120994 45.646175, -48.138268 45.640440, -48.155540 45.634703, -48.172808 45.628963, -48.190072 45.623221, -48.207332 45.617476, -48.224590 45.611729, -48.241843 45.605978, -48.259093 45.600226, -48.276340 45.594470, -48.293583 45.588713, -48.310822 45.582952, -48.328058 45.577189, -48.345291 45.571423, -48.362520 45.565655, -48.379745 45.559884, -48.396967 45.554111, -48.414185 45.548335, -48.431400 45.542556, -48.448611 45.536775, -48.465819 45.530991, -48.483023 45.525205, -48.500223 45.519416, -48.517420 45.513624, -48.534614 45.507830, -48.551804 45.502033, -48.568990 45.496234, -48.586173 45.490432, -48.603352 45.484628, -48.620528 45.478821, -48.637700 45.473011, -48.654869 45.467199, -48.672034 45.461384, -48.689196 45.455567, -48.706354 45.449747, -48.723508 45.443925, -48.740659 45.438100, -48.757807 45.432272, -48.774951 45.426442, -48.792091 45.420609, -48.809228 45.414774, -48.826361 45.408936, -48.843491 45.403096, -48.860617 45.397253, -48.877740 45.391408, -48.894859 45.385559, -48.911974 45.379709, -48.929087 45.373856, -48.946195 45.368000, -48.963300 45.362142, -48.980401 45.356281, -48.997499 45.350418, -49.014594 45.344552, -49.031684 45.338683, -49.048772 45.332812, -49.065855 45.326939, -49.082935 45.321062, -49.100012 45.315184, -49.117085 45.309303, -49.134155 45.303419, -49.151220 45.297532, -49.168283 45.291644, -49.185342 45.285752, -49.202397 45.279858, -49.219449 45.273962, -49.236497 45.268063, -49.253542 45.262161, -49.270583 45.256257, -49.287621 45.250351, -49.304655 45.244442, -49.321685 45.238530, -49.338712 45.232616, -49.355736 45.226699, -49.372756 45.220780, -49.389772 45.214858, -49.406785 45.208934, -49.423794 45.203007, -49.440800 45.197078, -49.457802 45.191146, -49.474801 45.185211, -49.491796 45.179274, -49.508787 45.173335, -49.525775 45.167393, -49.542760 45.161449, -49.559741 45.155502, -49.576718 45.149552, -49.593692 45.143600, -49.610662 45.137646, -49.627629 45.131689, -49.644592 45.125729, -49.661552 45.119767, -49.678508 45.113802, -49.695460 45.107835, -49.712409 45.101866, -49.729355 45.095894, -49.746297 45.089919, -49.763235 45.083942, -49.780170 45.077962, -49.797101 45.071980, -49.814029 45.065996, -49.830953 45.060008, -49.847874 45.054019, -49.864791 45.048027, -49.881704 45.042032, -49.898614 45.036035, -49.915521 45.030035, -49.932424 45.024033, -49.949323 45.018029, -49.966219 45.012022, -49.983111 45.006012, -50.000000 45.000000, -50.014590 44.995670, -50.029197 44.991340, -50.043823 44.987009, -50.058466 44.982678, -50.073127 44.978347, -50.087806 44.974015, -50.102502 44.969683, -50.117217 44.965350, -50.131949 44.961017, -50.146698 44.956684, -50.161465 44.952351, -50.176250 44.948017, -50.191052 44.943682, -50.205871 44.939348, -50.220708 44.935012, -50.235563 44.930677, -50.250434 44.926341, -50.265323 44.922004, -50.280230 44.917668, -50.295153 44.913330, -50.310094 44.908993, -50.325052 44.904655, -50.340027 44.900316, -50.355019 44.895977, -50.370028 44.891637, -50.385054 44.887298, -50.400097 44.882957, -50.415157 44.878616, -50.430233 44.874275, -50.445327 44.869933, -50.460437 44.865591, -50.475565 44.861248, -50.490708 44.856905, -50.505869 44.852561, -50.521046 44.848217, -50.536240 44.843872, -50.551450 44.839527, -50.566677 44.835181, -50.581921 44.830835, -50.597181 44.826488, -50.612457 44.822141, -50.627750 44.817793, -50.643059 44.813445, -50.658384 44.809096, -50.673726 44.804747, -50.689083 44.800397, -50.704457 44.796046, -50.719848 44.791695, -50.735254 44.787344, -50.750676 44.782992, -50.766115 44.778639, -50.781569 44.774286, -50.797039 44.769932, -50.812525 44.765577, -50.828028 44.761222, -50.843545 44.756867, -50.859079 44.752510, -50.874629 44.748154, -50.890194 44.743796, -50.905775 44.739438, -50.921371 44.735080, -50.936984 44.730721, -50.952611 44.726361, -50.968255 44.722000, -50.983914 44.717639, -50.999588 44.713278, -51.015278 44.708915, -51.030983 44.704552, -51.046703 44.700189, -51.062439 44.695825, -51.078190 44.691460, -51.093956 44.687094, -51.109737 44.682728, -51.125534 44.678362, -51.141346 44.673994, -51.157172 44.669626, -51.173014 44.665257, -51.188871 44.660888, -51.204743 44.656518, -51.220629 44.652147, -51.236531 44.647776, -51.252447 44.643404, -51.268379 44.639031, -51.284324 44.634657, -51.300285 44.630283, -51.316261 44.625908, -51.332251 44.621533, -51.348255 44.617157, -51.364275 44.612780, -51.380309 44.608402, -51.396357 44.604024, -51.412420 44.599645, -51.428497 44.595265, -51.444588 44.590884, -51.460694 44.586503, -51.476815 44.582121, -51.492949 44.577738, -51.509098 44.573355, -51.525261 44.568971, -51.541438 44.564586, -51.557629 44.560200, -51.573835 44.555814, -51.590054 44.551427, -51.606287 44.547039, -51.622535 44.542651, -51.638796 44.538261, -51.655071 44.533871, -51.671360 44.529480, -51.687663 44.525089, -51.703980 44.520696, -51.720310 44.516303, -51.736654 44.511909, -51.753012 44.507515, -51.769383 44.503119, -51.785768 44.498723, -51.802167 44.494326, -51.818579 44.489928, -51.835004 44.485529, -51.851443 44.481130, -51.867896 44.476730, -51.884361 44.472329, -51.900840 44.467927, -51.917333 44.463525, -51.933838 44.459121, -51.950357 44.454717, -51.966889 44.450312, -51.983434 44.445906, -51.999992 44.441500, -52.016563 44.437093, -52.033147 44.432684, -52.049745 44.428275, -52.066355 44.423866, -52.082978 44.419455, -52.099614 44.415043, -52.116262 44.410631, -52.132924 44.406218, -52.149598 44.401804, -52.166285 44.397389, -52.182984 44.392974, -52.199697 44.388557, -52.216422 44.384140, -52.233159 44.379722, -52.249909 44.375303, -52.266671 44.370883, -52.283446 44.366463, -52.300233 44.362041, -52.317033 44.357619, -52.333845 44.353196, -52.350669 44.348772, -52.367505 44.344347, -52.384354 44.339921, -52.401215 44.335495, -52.418088 44.331067, -52.434973 44.326639, -52.451870 44.322210, -52.468779 44.317780, -52.485700 44.313349, -52.502633 44.308917, -52.519578 44.304485, -52.536535 44.300051, -52.553504 44.295617, -52.570484 44.291182, -52.587476 44.286746, -52.604480 44.282309, -52.621496 44.277871, -52.638523 44.273433, -52.655562 44.268993, -52.672612 44.264553, -52.689674 44.260111, -52.706748 44.255669, -52.723833 44.251226, -52.740929 44.246782, -52.758036 44.242337, -52.775155 44.237892, -52.792286 44.233445, -52.809427 44.228998, -52.826580 44.224549, -52.843744 44.220100, -52.860919 44.215650, -52.878105 44.211199, -52.895302 44.206747, -52.912510 44.202294, -52.929729 44.197841, -52.946959 44.193386, -52.964200 44.188931, -52.981452 44.184474, -52.998715 44.180017, -53.015988 44.175559, -53.033273 44.171100, -53.050568 44.166640, -53.067873 44.162179, -53.085189 44.157718, -53.102516 44.153255, -53.119854 44.148792, -53.137202 44.144327, -53.154560 44.139862, -53.171929 44.135396, -53.189308 44.130929, -53.206698 44.126461, -53.224098 44.121992, -53.241508 44.117522, -53.258929 44.113051, -53.276359 44.108580, -53.293800 44.104107, -53.311251 44.099634, -53.328713 44.095160, -53.346184 44.090685, -53.363665 44.086209, -53.381156 44.081732, -53.398657 44.077254, -53.416168 44.072775, -53.433689 44.068295, -53.451220 44.063815, -53.468760 44.059333, -53.486311 44.054851, -53.503871 44.050368, -53.521440 44.045884, -53.539020 44.041398, -53.556608 44.036913, -53.574207 44.032426, -53.591815 44.027938, -53.609432 44.023449, -53.627059 44.018960, -53.644695 44.014469, -53.662341 44.009978, -53.679996 44.005486, -53.697660 44.000993, -53.715334 43.996499, -53.733016 43.992004, -53.750708 43.987508, -53.768409 43.983011, -53.786119 43.978514, -53.803838 43.974015, -53.821566 43.969516, -53.839303 43.965016, -53.857049 43.960515, -53.874804 43.956013, -53.892568 43.951510, -53.910341 43.947006, -53.928122 43.942501, -53.945912 43.937996, -53.963711 43.933489, -53.981518 43.928982, -53.999334 43.924474, -54.017159 43.919965, -54.034992 43.915455, -54.052834 43.910944, -54.070684 43.906432, -54.088543 43.901919, -54.106410 43.897406, -54.124285 43.892892, -54.142169 43.888376, -54.160061 43.883860, -54.177961 43.879343, -54.195869 43.874826, -54.213786 43.870307, -54.231711 43.865787, -54.249643 43.861267, -54.267584 43.856746, -54.285533 43.852223, -54.303490 43.847700, -54.321454 43.843177, -54.339427 43.838652, -54.357407 43.834126, -54.375395 43.829600, -54.393391 43.825073, -54.411395 43.820545, -54.429406 43.816016, -54.447425 43.811486, -54.465452 43.806955, -54.483486 43.802424, -54.501527 43.797891, -54.519577 43.793358, -54.537633 43.788824, -54.555697 43.784289, -54.573769 43.779754, -54.591847 43.775217, -54.609934 43.770680, -54.628027 43.766142, -54.646127 43.761603, -54.664235 43.757063, -54.682350 43.752522, -54.700472 43.747981, -54.718601 43.743439, -54.736737 43.738896, -54.754880 43.734352, -54.773030 43.729807, -54.791186 43.725262, -54.809350 43.720716, -54.827521 43.716168, -54.845698 43.711621, -54.863882 43.707072, -54.882073 43.702522, -54.900270 43.697972, -54.918474 43.693421, -54.936685 43.688869, -54.954902 43.684317, -54.973125 43.679763, -54.991356 43.675209, -55.009592 43.670654, -55.027835 43.666099, -55.046084 43.661542, -55.064340 43.656985, -55.082602 43.652427, -55.100870 43.647868, -55.119144 43.643309, -55.137425 43.638748, -55.155711 43.634187, -55.174004 43.629626, -55.192303 43.625063, -55.210607 43.620500, -55.228918 43.615936, -55.247234 43.611371, -55.265557 43.606806, -55.283885 43.602240, -55.302219 43.597673, -55.320559 43.593105, -55.338904 43.588537, -55.357256 43.583968, -55.375612 43.579398, -55.393975 43.574828, -55.412343 43.570256, -55.430716 43.565685, -55.449095 43.561112, -55.467480 43.556539, -55.485870 43.551965, -55.504265 43.547390, -55.522665 43.542815, -55.541071 43.538239, -55.559482 43.533662, -55.577898 43.529085, -55.596320 43.524507, -55.614746 43.519928, -55.633178 43.515349, -55.651615 43.510769, -55.670056 43.506188, -55.688503 43.501607, -55.706954 43.497025, -55.725411 43.492442, -55.743872 43.487859, -55.762338 43.483275, -55.780809 43.478691, -55.799284 43.474106, -55.817765 43.469520, -55.836250 43.464934, -55.854739 43.460347, -55.873233 43.455759, -55.891732 43.451171, -55.910235 43.446583, -55.928742 43.441993, -55.947254 43.437403, -55.965770 43.432813, -55.984291 43.428222, -56.002816 43.423630, -56.021345 43.419038, -56.039878 43.414445, -56.058416 43.409852, -56.076957 43.405258, -56.095503 43.400663, -56.114053 43.396068, -56.132607 43.391473, -56.151164 43.386877, -56.169726 43.382280, -56.188292 43.377683, -56.206861 43.373085, -56.225434 43.368487, -56.244011 43.363888, -56.262592 43.359289, -56.281176 43.354689, -56.299764 43.350089, -56.318356 43.345489, -56.336951 43.340887, -56.355550 43.336286, -56.374152 43.331684, -56.392757 43.327081, -56.411367 43.322478, -56.429979 43.317874, -56.448595 43.313270, -56.467214 43.308666, -56.485836 43.304061, -56.504461 43.299456, -56.523090 43.294850, -56.541722 43.290244, -56.560357 43.285637, -56.578994 43.281030, -56.597635 43.276423, -56.616279 43.271815, -56.634926 43.267207, -56.653576 43.262598, -56.672228 43.257989, -56.690883 43.253379, -56.709541 43.248770, -56.728202 43.244159, -56.746866 43.239549, -56.765532 43.234938, -56.784201 43.230327, -56.802872 43.225715, -56.821546 43.221103, -56.840222 43.216491, -56.858901 43.211878, -56.877582 43.207265, -56.896265 43.202652, -56.914951 43.198039, -56.933639 43.193425, -56.952329 43.188811, -56.971022 43.184196, -56.989716 43.179581, -57.008413 43.174966, -57.027112 43.170351, -57.045813 43.165736, -57.064516 43.161120, -57.083221 43.156504, -57.101927 43.151887, -57.120636 43.147271, -57.139346 43.142654, -57.158059 43.138037, -57.176773 43.133420, -57.195488 43.128802, -57.214206 43.124185, -57.232925 43.119567, -57.251645 43.114949, -57.270368 43.110330, -57.289091 43.105712, -57.307816 43.101093, -57.326543 43.096475, -57.345271 43.091856, -57.364000 43.087237, -57.382731 43.082617, -57.401463 43.077998, -57.420196 43.073379, -57.438930 43.068759, -57.457666 43.064139, -57.476402 43.059519, -57.495140 43.054899, -57.513879 43.050279, -57.532618 43.045659, -57.551359 43.041039, -57.570100 43.036419, -57.588843 43.031798, -57.607586 43.027178, -57.626330 43.022557, -57.645074 43.017937, -57.663820 43.013316, -57.682566 43.008696, -57.701312 43.004075, -57.720060 42.999455, -57.738807 42.994834, -57.757556 42.990213, -57.776304 42.985593, -57.795054 42.980972, -57.813803 42.976352, -57.832553 42.971731, -57.851303 42.967111, -57.870053 42.962490, -57.888804 42.957870, -57.907555 42.953250, -57.926306 42.948629, -57.945057 42.944009, -57.963808 42.939389, -57.982559 42.934769, -58.001310 42.930149, -58.020061 42.925530, -58.038812 42.920910, -58.057562 42.916291, -58.076313 42.911671, -58.095063 42.907052, -58.113813 42.902433, -58.132563 42.897814, -58.151312 42.893195, -58.170061 42.888577, -58.188809 42.883958, -58.207557 42.879340, -58.226305 42.874722, -58.245052 42.870105, -58.263798 42.865487, -58.282544 42.860870, -58.301289 42.856253, -58.320033 42.851636, -58.338776 42.847020, -58.357519 42.842403, -58.376261 42.837787, -58.395002 42.833172, -58.413742 42.828556, -58.432481 42.823941, -58.451219 42.819326, -58.469956 42.814712, -58.488692 42.810098, -58.507426 42.805484, -58.526160 42.800870, -58.544892 42.796257, -58.563624 42.791645, -58.582353 42.787032, -58.601082 42.782420, -58.619809 42.777809, -58.638535 42.773198, -58.657259 42.768587, -58.675981 42.763977, -58.694703 42.759367, -58.713422 42.754757, -58.732140 42.750148, -58.750856 42.745540, -58.769571 42.740931, -58.788284 42.736324, -58.806995 42.731717, -58.825704 42.727110, -58.844412 42.722504, -58.863117 42.717898, -58.881821 42.713293, -58.900522 42.708689, -58.919222 42.704085, -58.937919 42.699481, -58.956614 42.694879, -58.975307 42.690276, -58.993998 42.685675, -59.012687 42.681073, -59.031373 42.676473, -59.050057 42.671873, -59.068739 42.667274, -59.087419 42.662675, -59.106095 42.658077, -59.124770 42.653480, -59.143442 42.648883, -59.162111 42.644287, -59.180778 42.639692, -59.199442 42.635097, -59.218103 42.630504, -59.236762 42.625910, -59.255418 42.621318, -59.274071 42.616726, -59.292721 42.612135, -59.311368 42.607545, -59.330013 42.602956, -59.348654 42.598367, -59.367293 42.593779, -59.385928 42.589192, -59.404560 42.584606, -59.423189 42.580021, -59.441815 42.575436, -59.460438 42.570852, -59.479057 42.566270, -59.497674 42.561688, -59.516286 42.557106, -59.534896 42.552526, -59.553502 42.547947, -59.572104 42.543368, -59.590703 42.538791, -59.609299 42.534214, -59.627891 42.529639, -59.646479 42.525064, -59.665064 42.520490, -59.683644 42.515918, -59.702222 42.511346, -59.720795 42.506775, -59.739364 42.502206, -59.757930 42.497637, -59.776492 42.493069, -59.795049 42.488503, -59.813603 42.483937, -59.832153 42.479372, -59.850698 42.474809, -59.869240 42.470247, -59.887777 42.465686, -59.906310 42.461125, -59.924839 42.456566, -59.943364 42.452009, -59.961884 42.447452, -59.980400 42.442896, -59.998911 42.438342, -60.017418 42.433789, -60.035921 42.429237, -60.054419 42.424686, -60.072912 42.420136, -60.091401 42.415588, -60.109885 42.411041, -60.128365 42.406495, -60.146839 42.401951, -60.165309 42.397407, -60.183775 42.392865, -60.202235 42.388325, -60.220690 42.383785, -60.239141 42.379247, -60.257586 42.374711, -60.276026 42.370175, -60.294462 42.365641, -60.312892 42.361109, -60.331317 42.356577, -60.349737 42.352047, -60.368152 42.347519, -60.386561 42.342992, -60.404965 42.338466, -60.423364 42.333942, -60.441757 42.329420, -60.460145 42.324899, -60.478527 42.320379, -60.496904 42.315861, -60.515276 42.311344, -60.533641 42.306829, -60.552002 42.302315, -60.570356 42.297803, -60.588705 42.293293, -60.607048 42.288784, -60.625385 42.284276, -60.643716 42.279771, -60.662041 42.275267, -60.680361 42.270764, -60.698674 42.266263, -60.716982 42.261764, -60.735283 42.257267, -60.753579 42.252771, -60.771868 42.248277, -60.790151 42.243784, -60.808428 42.239293, -60.826698 42.234804, -60.844963 42.230317, -60.863221 42.225832, -60.881472 42.221348, -60.899717 42.216866, -60.917956 42.212386, -60.936188 42.207908, -60.954414 42.203431, -60.972633 42.198956, -60.990845 42.194484, -61.009051 42.190013, -61.027250 42.185543, -61.045442 42.181076, -61.063628 42.176611, -61.081807 42.172148, -61.099978 42.167686, -61.118143 42.163227, -61.136301 42.158769, -61.154452 42.154314, -61.172596 42.149860, -61.190733 42.145409, -61.208863 42.140959, -61.226986 42.136511, -61.245101 42.132066, -61.263209 42.127623, -61.281310 42.123181, -61.299404 42.118742, -61.317490 42.114305, -61.335569 42.109870, -61.353640 42.105437, -61.371704 42.101006, -61.389760 42.096577, -61.407809 42.092151, -61.425850 42.087727, -61.443884 42.083304, -61.461909 42.078885, -61.479928 42.074467, -61.497938 42.070051, -61.515941 42.065638, -61.533935 42.061227, -61.551922 42.056819, -61.569901 42.052412, -61.587872 42.048008, -61.605835 42.043607, -61.623789 42.039207, -61.641736 42.034810, -61.659675 42.030416, -61.677605 42.026023, -61.695527 42.021634, -61.713441 42.017246, -61.731347 42.012861, -61.749244 42.008478, -61.767133 42.004098, -61.785014 41.999721, -61.802886 41.995345, -61.820749 41.990973, -61.838604 41.986603, -61.856451 41.982235, -61.874288 41.977870, -61.892117 41.973507, -61.909938 41.969147, -61.927749 41.964790, -61.945552 41.960435, -61.963346 41.956083, -61.981131 41.951734, -61.998908 41.947387, -62.016675 41.943042, -62.034433 41.938701, -62.052183 41.934362, -62.069923 41.930026, -62.087654 41.925693, -62.105376 41.921362, -62.123088 41.917034, -62.140792 41.912709, -62.158486 41.908386, -62.176171 41.904067, -62.193846 41.899750, -62.211513 41.895436, -62.229169 41.891125, -62.246816 41.886817, -62.264454 41.882512, -62.282082 41.878209, -62.299701 41.873910, -62.317310 41.869613, -62.334909 41.865319, -62.352498 41.861029, -62.370078 41.856741, -62.387648 41.852456, -62.405208 41.848174, -62.422758 41.843896, -62.440298 41.839620, -62.457829 41.835347, -62.475349 41.831078, -62.492859 41.826811, -62.510359 41.822548, -62.527849 41.818287, -62.545329 41.814030, -62.562799 41.809776, -62.580258 41.805525, -62.597707 41.801277, -62.615146 41.797033, -62.632574 41.792792, -62.649992 41.788554, -62.667399 41.784319, -62.684796 41.780087, -62.702183 41.775859, -62.719559 41.771634, -62.736924 41.767412, -62.754279 41.763193, -62.771623 41.758978, -62.788956 41.754767, -62.806278 41.750558, -62.823590 41.746353, -62.840890 41.742152, -62.858180 41.737953, -62.875459 41.733759, -62.892727 41.729567, -62.909984 41.725380, -62.927230 41.721195, -62.944464 41.717014, -62.961688 41.712837, -62.978900 41.708663, -62.996101 41.704493, -63.013291 41.700326, -63.030470 41.696163, -63.047637 41.692004, -63.064793 41.687848, -63.081937 41.683695, -63.099070 41.679547, -63.116192 41.675402, -63.133302 41.671261, -63.150400 41.667123, -63.167487 41.662989, -63.184562 41.658859, -63.201625 41.654733, -63.218677 41.650610, -63.235717 41.646491, -63.252745 41.642376, -63.269761 41.638265, -63.286765 41.634157, -63.303757 41.630054, -63.320737 41.625954, -63.337706 41.621858, -63.354662 41.617766, -63.371606 41.613678, -63.388538 41.609594, -63.405458 41.605514, -63.422365 41.601438, -63.439260 41.597366, -63.456143 41.593298, -63.473014 41.589233, -63.489872 41.585173, -63.506718 41.581117, -63.523551 41.577065, -63.540372 41.573017, -63.557180 41.568973, -63.573976 41.564934, -63.590759 41.560898, -63.607529 41.556867, -63.624287 41.552840, -63.641032 41.548817, -63.657764 41.544798, -63.674483 41.540783, -63.691189 41.536773, -63.707883 41.532767, -63.724563 41.528765, -63.741231 41.524767, -63.757886 41.520774, -63.774527 41.516785, -63.791155 41.512801, -63.807771 41.508821, -63.824373 41.504845, -63.840961 41.500873, -63.857537 41.496906, -63.874099 41.492944, -63.890648 41.488986, -63.907183 41.485032, -63.923705 41.481083, -63.940214 41.477138, -63.956709 41.473198, -63.973191 41.469263, -63.989658 41.465332, -64.006113 41.461405, -64.022553 41.457484, -64.038980 41.453566, -64.055393 41.449654, -64.071793 41.445746, -64.088178 41.441843, -64.104550 41.437944, -64.120908 41.434050, -64.137252 41.430161, -64.153582 41.426276, -64.169897 41.422397, -64.186199 41.418522, -64.202487 41.414652, -64.218760 41.410787, -64.235020 41.406926, -64.251265 41.403070, -64.267496 41.399220, -64.283712 41.395374, -64.299914 41.391533, -64.316102 41.387697, -64.332276 41.383866, -64.348435 41.380040, -64.364579 41.376218, -64.380709 41.372402, -64.396824 41.368591, -64.412925 41.364785, -64.429011 41.360984, -64.445082 41.357188, -64.461139 41.353397, -64.477181 41.349611, -64.493208 41.345830, -64.509220 41.342055, -64.525217 41.338284, -64.541199 41.334519, -64.557167 41.330759, -64.573119 41.327004, -64.589056 41.323254, -64.604979 41.319510, -64.620886 41.315771, -64.636778 41.312037, -64.652654 41.308308, -64.668516 41.304585, -64.684362 41.300867, -64.700193 41.297155, -64.716008 41.293448, -64.731808 41.289746, -64.747593 41.286050, -64.763362 41.282359, -64.779115 41.278673, -64.794853 41.274993, -64.810576 41.271319, -64.826282 41.267650, -64.841973 41.263987, -64.857649 41.260329, -64.873308 41.256676, -64.888952 41.253030, -64.904580 41.249388, -64.920192 41.245753, -64.935788 41.242123, -64.951368 41.238499, -64.966933 41.234880, -64.982481 41.231267, -64.998013 41.227660, -65.013529 41.224059, -65.029029 41.220463, -65.044512 41.216873, -65.059980 41.213289, -65.075431 41.209711, -65.090865 41.206139, -65.106284 41.202572, -65.121686 41.199011, -65.137072 41.195456, -65.152441 41.191907, -65.167793 41.188364, -65.183130 41.184827, -65.198449 41.181296, -65.213752 41.177771, -65.229038 41.174252, -65.244308 41.170739, -65.259561 41.167232, -65.274797 41.163731, -65.290016 41.160236, -65.305218 41.156747, -65.320404 41.153264, -65.335572 41.149788, -65.350724 41.146317, -65.365858 41.142853, -65.380976 41.139395, -65.396076 41.135943, -65.411159 41.132497, -65.426225 41.129058, -65.441274 41.125625, -65.456306 41.122198, -65.471320 41.118777, -65.486317 41.115363, -65.501297 41.111955, -65.516259 41.108554, -65.531204 41.105158, -65.546132 41.101770, -65.561041 41.098387, -65.575934 41.095011, -65.590808 41.091642, -65.605666 41.088279, -65.620505 41.084923, -65.635327 41.081573, -65.650131 41.078229, -65.664917 41.074893, -65.679685 41.071562, -65.694435 41.068239, -65.709168 41.064922, -65.723883 41.061611, -65.738579 41.058307, -65.753258 41.055010, -65.767918 41.051720, -65.782561 41.048436, -65.797185 41.045159, -65.811791 41.041889, -65.826379 41.038626, -65.840949 41.035369, -65.855500 41.032119, -65.870033 41.028876, -65.884548 41.025640, -65.899044 41.022411, -65.913522 41.019189, -65.927982 41.015973, -65.942423 41.012765, -65.956845 41.009563, -65.971249 41.006368, -65.985634 41.003181, -66.000000 41.000000, -66.014393 40.996881, -66.028850 40.993881, -66.043371 40.990997, -66.057955 40.988230, -66.072602 40.985579, -66.087311 40.983042, -66.102082 40.980619, -66.116914 40.978309, -66.131807 40.976112, -66.146760 40.974026, -66.161773 40.972050, -66.176845 40.970185, -66.191977 40.968428, -66.207166 40.966780, -66.222414 40.965239, -66.237719 40.963804, -66.253081 40.962475, -66.268499 40.961251, -66.283973 40.960131, -66.299503 40.959115, -66.315088 40.958200, -66.330727 40.957388, -66.346420 40.956676, -66.362167 40.956064, -66.377967 40.955552, -66.393819 40.955137, -66.409723 40.954821, -66.425679 40.954601, -66.441686 40.954477, -66.457744 40.954448, -66.473852 40.954514, -66.490009 40.954672, -66.506215 40.954924, -66.522470 40.955268, -66.538773 40.955702, -66.555124 40.956227, -66.571522 40.956841, -66.587967 40.957544, -66.604457 40.958335, -66.620994 40.959213, -66.637575 40.960177, -66.654201 40.961226, -66.670872 40.962360, -66.687586 40.963578, -66.704343 40.964878, -66.721143 40.966261, -66.737985 40.967726, -66.754869 40.969270, -66.771794 40.970895, -66.788760 40.972599, -66.805765 40.974380, -66.822811 40.976239, -66.839896 40.978175, -66.857019 40.980186, -66.874181 40.982273, -66.891380 40.984433, -66.908616 40.986667, -66.925889 40.988973, -66.943198 40.991351, -66.960543 40.993800, -66.977923 40.996319, -66.995338 40.998907, -67.012786 41.001564, -67.030269 41.004289, -67.047784 41.007081, -67.065332 41.009938, -67.082912 41.012861, -67.100524 41.015849, -67.118166 41.018900, -67.135839 41.022015, -67.153542 41.025191, -67.171275 41.028429, -67.189036 41.031727, -67.206826 41.035085, -67.224644 41.038502, -67.242489 41.041977, -67.260361 41.045510, -67.278260 41.049099, -67.296184 41.052744, -67.314133 41.056444, -67.332108 41.060198, -67.350106 41.064005, -67.368129 41.067865, -67.386174 41.071777, -67.404242 41.075740, -67.422332 41.079753, -67.440444 41.083816, -67.458577 41.087927, -67.476730 41.092086, -67.494903 41.096292, -67.513096 41.100544, -67.531307 41.104842, -67.549537 41.109184, -67.567785 41.113571, -67.586050 41.118000, -67.604332 41.122472, -67.622629 41.126985, -67.640943 41.131539, -67.659272 41.136133, -67.677615 41.140767, -67.695972 41.145438, -67.714342 41.150147, -67.732726 41.154893, -67.751122 41.159675, -67.769529 41.164492, -67.787948 41.169344, -67.806377 41.174229, -67.824817 41.179148, -67.843266 41.184098, -67.861724 41.189079, -67.880191 41.194091, -67.898665 41.199133, -67.917147 41.204204, -67.935635 41.209303, -67.954130 41.214429, -67.972630 41.219582, -67.991135 41.224761, -68.009645 41.229964, -68.028158 41.235192, -68.046675 41.240444, -68.065195 41.245718, -68.083717 41.251014, -68.102240 41.256331, -68.120765 41.261669, -68.139290 41.267026, -68.157814 41.272402, -68.176338 41.277796, -68.194861 41.283207, -68.213382 41.288634, -68.231900 41.294078, -68.250416 41.299536, -68.268927 41.305008, -68.287435 41.310494, -68.305938 41.315992, -68.324435 41.321502, -68.342926 41.327023, -68.361411 41.332554, -68.379888 41.338094, -68.398358 41.343644, -68.416819 41.349201, -68.435271 41.354765, -68.453714 41.360336, -68.472147 41.365912, -68.490568 41.371493, -68.508979 41.377078, -68.527377 41.382666, -68.545763 41.388257, -68.564135 41.393850, -68.582494 41.399443, -68.600838 41.405037, -68.619168 41.410630, -68.637481 41.416222, -68.655778 41.421811, -68.674059 41.427398, -68.692322 41.432981, -68.710567 41.438559, -68.728793 41.444132, -68.747000 41.449699, -68.765186 41.455260, -68.783353 41.460813, -68.801498 41.466357, -68.819621 41.471893, -68.837721 41.477418, -68.855799 41.482933, -68.873853 41.488437, -68.891882 41.493929, -68.909887 41.499407, -68.927866 41.504872, -68.945818 41.510323, -68.963744 41.515758, -68.981642 41.521177, -68.999512 41.526580, -69.017354 41.531965, -69.035166 41.537332, -69.052947 41.542679, -69.070698 41.548007, -69.088418 41.553315, -69.106106 41.558601, -69.123761 41.563865, -69.141383 41.569106, -69.158971 41.574323, -69.176524 41.579517, -69.194042 41.584685, -69.211524 41.589827, -69.228970 41.594942, -69.246378 41.600030, -69.263749 41.605090, -69.281081 41.610121, -69.298374 41.615122, -69.315627 41.620093, -69.332840 41.625032, -69.350011 41.629940, -69.367141 41.634815, -69.384228 41.639656, -69.401273 41.644463, -69.418273 41.649235, -69.435229 41.653971, -69.452140 41.658671, -69.469005 41.663334, -69.485824 41.667958, -69.502596 41.672544, -69.519320 41.677090, -69.535995 41.681596, -69.552622 41.686061, -69.569198 41.690483, -69.585725 41.694864, -69.602200 41.699201, -69.618623 41.703494, -69.634994 41.707742, -69.651312 41.711945, -69.667576 41.716101, -69.683785 41.720210, -69.699939 41.724271, -69.716038 41.728284, -69.732080 41.732248, -69.748065 41.736161, -69.763992 41.740023, -69.779860 41.743834, -69.795669 41.747593, -69.811418 41.751298, -69.827107 41.754950, -69.842734 41.758547, -69.858299 41.762089, -69.873802 41.765574, -69.889241 41.769003, -69.904617 41.772374, -69.919927 41.775687, -69.935172 41.778941, -69.950352 41.782135, -69.965464 41.785268, -69.980509 41.788340, -69.995486 41.791350, -70.010393 41.794297, -70.025232 41.797181, -70.040000 41.800000, -70.054769 41.802862, -70.069885 41.805921, -70.085326 41.809168, -70.101074 41.812592, -70.117108 41.816184, -70.133407 41.819932, -70.149952 41.823829, -70.166723 41.827862, -70.183699 41.832023, -70.200861 41.836301, -70.218187 41.840687, -70.235658 41.845170, -70.253254 41.849740, -70.270954 41.854388, -70.288738 41.859104, -70.306586 41.863877, -70.324477 41.868698, -70.342392 41.873557, -70.360309 41.878444, -70.378209 41.883348, -70.396070 41.888262, -70.413874 41.893173, -70.431598 41.898073, -70.449224 41.902952, -70.466730 41.907800, -70.484096 41.912608, -70.501301 41.917364, -70.518325 41.922060, -70.535147 41.926686, -70.551747 41.931232, -70.568105 41.935689, -70.584199 41.940046, -70.600010 41.944294, -70.615515 41.948423, -70.630696 41.952423, -70.645531 41.956286, -70.660000 41.960000)
