MULTILINESTRING ((-73.990000 45.460000, -73.991250 45.459822, -73.992500 45.459644, -73.993751 45.459465, -73.995001 45.459287, -73.996251 45.459109, -73.997501 45.458931, -73.998751 45.458752, -74.000002 45.458574, -74.001252 45.458396, -74.002502 45.458217, -74.003752 45.458039, -74.005002 45.457861, -74.006252 45.457682, -74.007502 45.457504, -74.008752 45.457326, -74.010003 45.457147, -74.011253 45.456969, -74.012503 45.456790, -74.013753 45.456612, -74.015003 45.456433, -74.016253 45.456255, -74.017503 45.456077, -74.018753 45.455898, -74.020003 45.455720, -74.021253 45.455541, -74.022503 45.455362, -74.023753 45.455184, -74.025003 45.455005, -74.026253 45.454827, -74.027503 45.454648, -74.028753 45.454470, -74.030003 45.454291, -74.031253 45.454112, -74.032503 45.453934, -74.033753 45.453755, -74.035003 45.453576, -74.036253 45.453398, -74.037503 45.453219, -74.038753 45.453040, -74.040003 45.452862, -74.041252 45.452683, -74.042502 45.452504, -74.043752 45.452325, -74.045002 45.452146, -74.046252 45.451968, -74.047502 45.451789, -74.048752 45.451610, -74.050002 45.451431, -74.051251 45.451252, -74.052501 45.451073, -74.053751 45.450895, -74.055001 45.450716, -74.056251 45.450537, -74.057500 45.450358, -74.058750 45.450179, -74.060000 45.450000, -74.061182 45.450348, -74.062364 45.450695, -74.063546 45.451043, -74.064728 45.451391, -74.065910 45.451738, -74.067092 45.452086, -74.068274 45.452433, -74.069456 45.452781, -74.070638 45.453129, -74.071820 45.453476, -74.073003 45.453824, -74.074185 45.454171, -74.075367 45.454519, -74.076549 45.454866, -74.077731 45.455214, -74.078913 45.455561, -74.080096 45.455909, -74.081278 45.456256, -74.082460 45.456603, -74.083642 45.456951, -74.084825 45.457298, -74.086007 45.457646, -74.087189 45.457993, -74.088371 45.458340, -74.089554 45.458688, -74.090736 45.459035, -74.091919 45.459383, -74.093101 45.459730, -74.094283 45.460077, -74.095466 45.460425, -74.096648 45.460772, -74.097830 45.461119, -74.099013 45.461466, -74.100195 45.461814, -74.101378 45.462161, -74.102560 45.462508, -74.103743 45.462855, -74.104925 45.463203, -74.106108 45.463550, -74.107290 45.463897, -74.108473 45.464244, -74.109656 45.464591, -74.110838 45.464938, -74.112021 45.465286, -74.113203 45.465633, -74.114386 45.465980, -74.115569 45.466327, -74.116751 45.466674, -74.117934 45.467021, -74.119117 45.467368, -74.120299 45.467715, -74.121482 45.468062, -74.122665 45.468409, -74.123848 45.468756, -74.125030 45.469103, -74.126213 45.469450, -74.127396 45.469797, -74.128579 45.470144, -74.129762 45.470491, -74.130944 45.470838, -74.132127 45.471185, -74.133310 45.471532, -74.134493 45.471879, -74.135676 45.472226, -74.136859 45.472573, -74.138042 45.472919, -74.139225 45.473266, -74.140408 45.473613, -74.141591 45.473960, -74.142774 45.474307, -74.143957 45.474654, -74.145140 45.475000, -74.146323 45.475347, -74.147506 45.475694, -74.148689 45.476041, -74.149872 45.476387, -74.151055 45.476734, -74.152238 45.477081, -74.153421 45.477428, -74.154604 45.477774, -74.155787 45.478121, -74.156971 45.478468, -74.158154 45.478814, -74.159337 45.479161, -74.160520 45.479508, -74.161703 45.479854, -74.162887 45.480201, -74.164070 45.480547, -74.165253 45.480894, -74.166436 45.481241, -74.167620 45.481587, -74.168803 45.481934, -74.169986 45.482280, -74.171170 45.482627, -74.172353 45.482973, -74.173536 45.483320, -74.174720 45.483666, -74.175903 45.484013, -74.177086 45.484359, -74.178270 45.484706, -74.179453 45.485052, -74.180637 45.485399, -74.181820 45.485745, -74.183004 45.486091, -74.184187 45.486438, -74.185371 45.486784, -74.186554 45.487130, -74.187738 45.487477, -74.188921 45.487823, -74.190105 45.488169, -74.191288 45.488516, -74.192472 45.488862, -74.193656 45.489208, -74.194839 45.489555, -74.196023 45.489901, -74.197207 45.490247, -74.198390 45.490593, -74.199574 45.490940, -74.200758 45.491286, -74.201941 45.491632, -74.203125 45.491978, -74.204309 45.492324, -74.205492 45.492671, -74.206676 45.493017, -74.207860 45.493363, -74.209044 45.493709, -74.210228 45.494055, -74.211411 45.494401, -74.212595 45.494747, -74.213779 45.495094, -74.214963 45.495440, -74.216147 45.495786, -74.217331 45.496132, -74.218515 45.496478, -74.219699 45.496824, -74.220883 45.497170, -74.222067 45.497516, -74.223251 45.497862, -74.224435 45.498208, -74.225619 45.498554, -74.226803 45.498900, -74.227987 45.499246, -74.229171 45.499592, -74.230355 45.499937, -74.231539 45.500283, -74.232723 45.500629, -74.233907 45.500975, -74.235091 45.501321, -74.236275 45.501667, -74.237459 45.502013, -74.238643 45.502358, -74.239828 45.502704, -74.241012 45.503050, -74.242196 45.503396, -74.243380 45.503742, -74.244565 45.504087, -74.245749 45.504433, -74.246933 45.504779, -74.248117 45.505125, -74.249302 45.505470, -74.250486 45.505816, -74.251670 45.506162, -74.252855 45.506507, -74.254039 45.506853, -74.255223 45.507199, -74.256408 45.507544, -74.257592 45.507890, -74.258776 45.508236, -74.259961 45.508581, -74.261145 45.508927, -74.262330 45.509272, -74.263514 45.509618, -74.264699 45.509964, -74.265883 45.510309, -74.267068 45.510655, -74.268252 45.511000, -74.269437 45.511346, -74.270621 45.511691, -74.271806 45.512037, -74.272991 45.512382, -74.274175 45.512728, -74.275360 45.513073, -74.276544 45.513419, -74.277729 45.513764, -74.278914 45.514109, -74.280098 45.514455, -74.281283 45.514800, -74.282468 45.515146, -74.283652 45.515491, -74.284837 45.515836, -74.286022 45.516182, -74.287207 45.516527, -74.288391 45.516872, -74.289576 45.517218, -74.290761 45.517563, -74.291946 45.517908, -74.293131 45.518253, -74.294315 45.518599, -74.295500 45.518944, -74.296685 45.519289, -74.297870 45.519634, -74.299055 45.519979, -74.300240 45.520325, -74.301425 45.520670, -74.302610 45.521015, -74.303795 45.521360, -74.304980 45.521705, -74.306165 45.522050, -74.307350 45.522396, -74.308535 45.522741, -74.309720 45.523086, -74.310905 45.523431, -74.312090 45.523776, -74.313275 45.524121, -74.314460 45.524466, -74.315645 45.524811, -74.316830 45.525156, -74.318015 45.525501, -74.319201 45.525846, -74.320386 45.526191, -74.321571 45.526536, -74.322756 45.526881, -74.323941 45.527226, -74.325127 45.527571, -74.326312 45.527916, -74.327497 45.528261, -74.328682 45.528606, -74.329868 45.528951, -74.331053 45.529295, -74.332238 45.529640, -74.333424 45.529985, -74.334609 45.530330, -74.335794 45.530675, -74.336980 45.531020, -74.338165 45.531364, -74.339350 45.531709, -74.340536 45.532054, -74.341721 45.532399, -74.342907 45.532743, -74.344092 45.533088, -74.345278 45.533433, -74.346463 45.533778, -74.347649 45.534122, -74.348834 45.534467, -74.350020 45.534812, -74.351205 45.535156, -74.352391 45.535501, -74.353576 45.535846, -74.354762 45.536190, -74.355947 45.536535, -74.357133 45.536879, -74.358319 45.537224, -74.359504 45.537569, -74.360690 45.537913, -74.361876 45.538258, -74.363061 45.538602, -74.364247 45.538947, -74.365433 45.539291, -74.366619 45.539636, -74.367804 45.539980, -74.368990 45.540325, -74.370176 45.540669, -74.371362 45.541014, -74.372547 45.541358, -74.373733 45.541703, -74.374919 45.542047, -74.376105 45.542391, -74.377291 45.542736, -74.378477 45.543080, -74.379663 45.543425, -74.380848 45.543769, -74.382034 45.544113, -74.383220 45.544458, -74.384406 45.544802, -74.385592 45.545146, -74.386778 45.545491, -74.387964 45.545835, -74.389150 45.546179, -74.390336 45.546523, -74.391522 45.546868, -74.392708 45.547212, -74.393894 45.547556, -74.395080 45.547900, -74.396267 45.548245, -74.397453 45.548589, -74.398639 45.548933, -74.399825 45.549277, -74.401011 45.549621, -74.402197 45.549965, -74.403383 45.550309, -74.404570 45.550654, -74.405756 45.550998, -74.406942 45.551342, -74.408128 45.551686, -74.409315 45.552030, -74.410501 45.552374, -74.411687 45.552718, -74.412873 45.553062, -74.414060 45.553406, -74.415246 45.553750, -74.416432 45.554094, -74.417619 45.554438, -74.418805 45.554782, -74.419991 45.555126, -74.421178 45.555470, -74.422364 45.555814, -74.423551 45.556158, -74.424737 45.556502, -74.425924 45.556845, -74.427110 45.557189, -74.428297 45.557533, -74.429483 45.557877, -74.430670 45.558221, -74.431856 45.558565, -74.433043 45.558909, -74.434229 45.559252, -74.435416 45.559596, -74.436602 45.559940, -74.437789 45.560284, -74.438976 45.560627, -74.440162 45.560971, -74.441349 45.561315, -74.442536 45.561659, -74.443722 45.562002, -74.444909 45.562346, -74.446096 45.562690, -74.447282 45.563033, -74.448469 45.563377, -74.449656 45.563721, -74.450843 45.564064, -74.452029 45.564408, -74.453216 45.564752, -74.454403 45.565095, -74.455590 45.565439, -74.456777 45.565782, -74.457963 45.566126, -74.459150 45.566469, -74.460337 45.566813, -74.461524 45.567157, -74.462711 45.567500, -74.463898 45.567844, -74.465085 45.568187, -74.466272 45.568530, -74.467459 45.568874, -74.468646 45.569217, -74.469833 45.569561, -74.471020 45.569904, -74.472207 45.570248, -74.473394 45.570591, -74.474581 45.570934, -74.475768 45.571278, -74.476955 45.571621, -74.478142 45.571965, -74.479329 45.572308, -74.480516 45.572651, -74.481703 45.572995, -74.482891 45.573338, -74.484078 45.573681, -74.485265 45.574024, -74.486452 45.574368, -74.487639 45.574711, -74.488827 45.575054, -74.490014 45.575397, -74.491201 45.575741, -74.492388 45.576084, -74.493576 45.576427, -74.494763 45.576770, -74.495950 45.577113, -74.497138 45.577456, -74.498325 45.577800, -74.499512 45.578143, -74.500700 45.578486, -74.501887 45.578829, -74.503074 45.579172, -74.504262 45.579515, -74.505449 45.579858, -74.506637 45.580201, -74.507824 45.580544, -74.509012 45.580887, -74.510199 45.581230, -74.511387 45.581573, -74.512574 45.581916, -74.513762 45.582259, -74.514949 45.582602, -74.516137 45.582945, -74.517324 45.583288, -74.518512 45.583631, -74.519700 45.583974, -74.520887 45.584317, -74.522075 45.584660, -74.523263 45.585003, -74.524450 45.585346, -74.525638 45.585688, -74.526826 45.586031, -74.528013 45.586374, -74.529201 45.586717, -74.530389 45.587060, -74.531576 45.587403, -74.532764 45.587745, -74.533952 45.588088, -74.535140 45.588431, -74.536328 45.588774, -74.537515 45.589116, -74.538703 45.589459, -74.539891 45.589802, -74.541079 45.590145, -74.542267 45.590487, -74.543455 45.590830, -74.544643 45.591173, -74.545831 45.591515, -74.547019 45.591858, -74.548206 45.592200, -74.549394 45.592543, -74.550582 45.592886, -74.551770 45.593228, -74.552958 45.593571, -74.554146 45.593913, -74.555335 45.594256, -74.556523 45.594599, -74.557711 45.594941, -74.558899 45.595284, -74.560087 45.595626, -74.561275 45.595969, -74.562463 45.596311, -74.563651 45.596653, -74.564839 45.596996, -74.566028 45.597338, -74.567216 45.597681, -74.568404 45.598023, -74.569592 45.598366, -74.570780 45.598708, -74.571969 45.599050, -74.573157 45.599393, -74.574345 45.599735, -74.575533 45.600077, -74.576722 45.600420, -74.577910 45.600762, -74.579098 45.601104, -74.580287 45.601447, -74.581475 45.601789, -74.582663 45.602131, -74.583852 45.602473, -74.585040 45.602816, -74.586229 45.603158, -74.587417 45.603500, -74.588606 45.603842, -74.589794 45.604185, -74.590982 45.604527, -74.592171 45.604869, -74.593359 45.605211, -74.594548 45.605553, -74.595736 45.605895, -74.596925 45.606237, -74.598114 45.606580, -74.599302 45.606922, -74.600491 45.607264, -74.601679 45.607606, -74.602868 45.607948, -74.604057 45.608290, -74.605245 45.608632, -74.606434 45.608974, -74.607623 45.609316, -74.608811 45.609658, -74.610000 45.610000, -74.609583 45.610833, -74.609167 45.611667, -74.608750 45.612500, -74.608334 45.613333, -74.607917 45.614167, -74.607501 45.615000, -74.607084 45.615833, -74.606667 45.616667, -74.606251 45.617500, -74.605834 45.618333, -74.605418 45.619167, -74.605001 45.620000, -74.604584 45.620833, -74.604168 45.621667, -74.603751 45.622500, -74.603334 45.623333, -74.602917 45.624167, -74.602501 45.625000, -74.602084 45.625833, -74.601667 45.626667, -74.601250 45.627500, -74.600834 45.628333, -74.600417 45.629167, -74.600000 45.630000, -74.601244 45.629774, -74.602487 45.629548, -74.603731 45.629321, -74.604974 45.629095, -74.606218 45.628869, -74.607461 45.628642, -74.608704 45.628416, -74.609948 45.628190, -74.611191 45.627963, -74.612435 45.627737, -74.613678 45.627511, -74.614922 45.627284, -74.616165 45.627058, -74.617408 45.626831, -74.618652 45.626605, -74.619895 45.626379, -74.621139 45.626152, -74.622382 45.625926, -74.623625 45.625699, -74.624869 45.625473, -74.626112 45.625246, -74.627355 45.625020, -74.628599 45.624793, -74.629842 45.624567, -74.631085 45.624340, -74.632328 45.624113, -74.633572 45.623887, -74.634815 45.623660, -74.636058 45.623434, -74.637302 45.623207, -74.638545 45.622980, -74.639788 45.622754, -74.641031 45.622527, -74.642274 45.622300, -74.643518 45.622074, -74.644761 45.621847, -74.646004 45.621620, -74.647247 45.621393, -74.648490 45.621167, -74.649733 45.620940, -74.650976 45.620713, -74.652220 45.620486, -74.653463 45.620260, -74.654706 45.620033, -74.655949 45.619806, -74.657192 45.619579, -74.658435 45.619352, -74.659678 45.619125, -74.660921 45.618898, -74.662164 45.618672, -74.663407 45.618445, -74.664650 45.618218, -74.665893 45.617991, -74.667136 45.617764, -74.668379 45.617537, -74.669622 45.617310, -74.670865 45.617083, -74.672108 45.616856, -74.673351 45.616629, -74.674594 45.616402, -74.675837 45.616175, -74.677080 45.615948, -74.678323 45.615721, -74.679566 45.615494, -74.680808 45.615266, -74.682051 45.615039, -74.683294 45.614812, -74.684537 45.614585, -74.685780 45.614358, -74.687023 45.614131, -74.688266 45.613904, -74.689508 45.613676, -74.690751 45.613449, -74.691994 45.613222, -74.693237 45.612995, -74.694480 45.612767, -74.695722 45.612540, -74.696965 45.612313, -74.698208 45.612086, -74.699451 45.611858, -74.700693 45.611631, -74.701936 45.611404, -74.703179 45.611176, -74.704421 45.610949, -74.705664 45.610722, -74.706907 45.610494, -74.708149 45.610267, -74.709392 45.610039, -74.710635 45.609812, -74.711877 45.609584, -74.713120 45.609357, -74.714363 45.609130, -74.715605 45.608902, -74.716848 45.608675, -74.718090 45.608447, -74.719333 45.608220, -74.720576 45.607992, -74.721818 45.607764, -74.723061 45.607537, -74.724303 45.607309, -74.725546 45.607082, -74.726788 45.606854, -74.728031 45.606627, -74.729273 45.606399, -74.730516 45.606171, -74.731758 45.605944, -74.733001 45.605716, -74.734243 45.605488, -74.735485 45.605261, -74.736728 45.605033, -74.737970 45.604805, -74.739213 45.604577, -74.740455 45.604350, -74.741698 45.604122, -74.742940 45.603894, -74.744182 45.603666, -74.745425 45.603439, -74.746667 45.603211, -74.747909 45.602983, -74.749152 45.602755, -74.750394 45.602527, -74.751636 45.602299, -74.752879 45.602071, -74.754121 45.601844, -74.755363 45.601616, -74.756605 45.601388, -74.757848 45.601160, -74.759090 45.600932, -74.760332 45.600704, -74.761574 45.600476, -74.762817 45.600248, -74.764059 45.600020, -74.765301 45.599792, -74.766543 45.599564, -74.767785 45.599336, -74.769028 45.599108, -74.770270 45.598880, -74.771512 45.598652, -74.772754 45.598423, -74.773996 45.598195, -74.775238 45.597967, -74.776480 45.597739, -74.777723 45.597511, -74.778965 45.597283, -74.780207 45.597055, -74.781449 45.596826, -74.782691 45.596598, -74.783933 45.596370, -74.785175 45.596142, -74.786417 45.595913, -74.787659 45.595685, -74.788901 45.595457, -74.790143 45.595229, -74.791385 45.595000, -74.792627 45.594772, -74.793869 45.594544, -74.795111 45.594315, -74.796353 45.594087, -74.797595 45.593859, -74.798837 45.593630, -74.800079 45.593402, -74.801320 45.593173, -74.802562 45.592945, -74.803804 45.592717, -74.805046 45.592488, -74.806288 45.592260, -74.807530 45.592031, -74.808772 45.591803, -74.810014 45.591574, -74.811255 45.591346, -74.812497 45.591117, -74.813739 45.590889, -74.814981 45.590660, -74.816223 45.590432, -74.817464 45.590203, -74.818706 45.589974, -74.819948 45.589746, -74.821190 45.589517, -74.822431 45.589288, -74.823673 45.589060, -74.824915 45.588831, -74.826157 45.588602, -74.827398 45.588374, -74.828640 45.588145, -74.829882 45.587916, -74.831123 45.587688, -74.832365 45.587459, -74.833607 45.587230, -74.834848 45.587001, -74.836090 45.586773, -74.837331 45.586544, -74.838573 45.586315, -74.839815 45.586086, -74.841056 45.585857, -74.842298 45.585628, -74.843539 45.585400, -74.844781 45.585171, -74.846022 45.584942, -74.847264 45.584713, -74.848505 45.584484, -74.849747 45.584255, -74.850988 45.584026, -74.852230 45.583797, -74.853471 45.583568, -74.854713 45.583339, -74.855954 45.583110, -74.857196 45.582881, -74.858437 45.582652, -74.859679 45.582423, -74.860920 45.582194, -74.862162 45.581965, -74.863403 45.581736, -74.864644 45.581507, -74.865886 45.581278, -74.867127 45.581049, -74.868368 45.580819, -74.869610 45.580590, -74.870851 45.580361, -74.872092 45.580132, -74.873334 45.579903, -74.874575 45.579674, -74.875816 45.579444, -74.877058 45.579215, -74.878299 45.578986, -74.879540 45.578757, -74.880782 45.578527, -74.882023 45.578298, -74.883264 45.578069, -74.884505 45.577839, -74.885746 45.577610, -74.886988 45.577381, -74.888229 45.577151, -74.889470 45.576922, -74.890711 45.576693, -74.891952 45.576463, -74.893194 45.576234, -74.894435 45.576005, -74.895676 45.575775, -74.896917 45.575546, -74.898158 45.575316, -74.899399 45.575087, -74.900640 45.574857, -74.901881 45.574628, -74.903122 45.574398, -74.904364 45.574169, -74.905605 45.573939, -74.906846 45.573710, -74.908087 45.573480, -74.909328 45.573250, -74.910569 45.573021, -74.911810 45.572791, -74.913051 45.572562, -74.914292 45.572332, -74.915533 45.572102, -74.916774 45.571873, -74.918015 45.571643, -74.919256 45.571413, -74.920496 45.571184, -74.921737 45.570954, -74.922978 45.570724, -74.924219 45.570494, -74.925460 45.570265, -74.926701 45.570035, -74.927942 45.569805, -74.929183 45.569575, -74.930424 45.569346, -74.931664 45.569116, -74.932905 45.568886, -74.934146 45.568656, -74.935387 45.568426, -74.936628 45.568196, -74.937868 45.567966, -74.939109 45.567737, -74.940350 45.567507, -74.941591 45.567277, -74.942832 45.567047, -74.944072 45.566817, -74.945313 45.566587, -74.946554 45.566357, -74.947794 45.566127, -74.949035 45.565897, -74.950276 45.565667, -74.951517 45.565437, -74.952757 45.565207, -74.953998 45.564977, -74.955238 45.564747, -74.956479 45.564517, -74.957720 45.564286, -74.958960 45.564056, -74.960201 45.563826, -74.961442 45.563596, -74.962682 45.563366, -74.963923 45.563136, -74.965163 45.562906, -74.966404 45.562675, -74.967644 45.562445, -74.968885 45.562215, -74.970126 45.561985, -74.971366 45.561754, -74.972607 45.561524, -74.973847 45.561294, -74.975088 45.561064, -74.976328 45.560833, -74.977568 45.560603, -74.978809 45.560373, -74.980049 45.560142, -74.981290 45.559912, -74.982530 45.559682, -74.983771 45.559451, -74.985011 45.559221, -74.986251 45.558990, -74.987492 45.558760, -74.988732 45.558530, -74.989973 45.558299, -74.991213 45.558069, -74.992453 45.557838, -74.993694 45.557608, -74.994934 45.557377, -74.996174 45.557147, -74.997415 45.556916, -74.998655 45.556686, -74.999895 45.556455, -75.001135 45.556224, -75.002376 45.555994, -75.003616 45.555763, -75.004856 45.555533, -75.006096 45.555302, -75.007337 45.555071, -75.008577 45.554841, -75.009817 45.554610, -75.011057 45.554379, -75.012297 45.554149, -75.013538 45.553918, -75.014778 45.553687, -75.016018 45.553456, -75.017258 45.553226, -75.018498 45.552995, -75.019738 45.552764, -75.020978 45.552533, -75.022219 45.552303, -75.023459 45.552072, -75.024699 45.551841, -75.025939 45.551610, -75.027179 45.551379, -75.028419 45.551148, -75.029659 45.550918, -75.030899 45.550687, -75.032139 45.550456, -75.033379 45.550225, -75.034619 45.549994, -75.035859 45.549763, -75.037099 45.549532, -75.038339 45.549301, -75.039579 45.549070, -75.040819 45.548839, -75.042059 45.548608, -75.043299 45.548377, -75.044539 45.548146, -75.045778 45.547915, -75.047018 45.547684, -75.048258 45.547453, -75.049498 45.547222, -75.050738 45.546990, -75.051978 45.546759, -75.053218 45.546528, -75.054458 45.546297, -75.055697 45.546066, -75.056937 45.545835, -75.058177 45.545604, -75.059417 45.545372, -75.060657 45.545141, -75.061896 45.544910, -75.063136 45.544679, -75.064376 45.544447, -75.065616 45.544216, -75.066855 45.543985, -75.068095 45.543754, -75.069335 45.543522, -75.070575 45.543291, -75.071814 45.543060, -75.073054 45.542828, -75.074294 45.542597, -75.075533 45.542366, -75.076773 45.542134, -75.078013 45.541903, -75.079252 45.541671, -75.080492 45.541440, -75.081731 45.541208, -75.082971 45.540977, -75.084211 45.540745, -75.085450 45.540514, -75.086690 45.540283, -75.087929 45.540051, -75.089169 45.539819, -75.090408 45.539588, -75.091648 45.539356, -75.092887 45.539125, -75.094127 45.538893, -75.095366 45.538662, -75.096606 45.538430, -75.097845 45.538198, -75.099085 45.537967, -75.100324 45.537735, -75.101564 45.537503, -75.102803 45.537272, -75.104043 45.537040, -75.105282 45.536808, -75.106521 45.536577, -75.107761 45.536345, -75.109000 45.536113, -75.110240 45.535882, -75.111479 45.535650, -75.112718 45.535418, -75.113958 45.535186, -75.115197 45.534954, -75.116436 45.534723, -75.117676 45.534491, -75.118915 45.534259, -75.120154 45.534027, -75.121394 45.533795, -75.122633 45.533563, -75.123872 45.533331, -75.125111 45.533099, -75.126351 45.532868, -75.127590 45.532636, -75.128829 45.532404, -75.130068 45.532172, -75.131307 45.531940, -75.132547 45.531708, -75.133786 45.531476, -75.135025 45.531244, -75.136264 45.531012, -75.137503 45.530780, -75.138742 45.530548, -75.139982 45.530315, -75.141221 45.530083, -75.142460 45.529851, -75.143699 45.529619, -75.144938 45.529387, -75.146177 45.529155, -75.147416 45.528923, -75.148655 45.528691, -75.149894 45.528458, -75.151133 45.528226, -75.152372 45.527994, -75.153611 45.527762, -75.154850 45.527529, -75.156089 45.527297, -75.157328 45.527065, -75.158567 45.526833, -75.159806 45.526600, -75.161045 45.526368, -75.162284 45.526136, -75.163523 45.525903, -75.164762 45.525671, -75.166001 45.525439, -75.167240 45.525206, -75.168479 45.524974, -75.169718 45.524742, -75.170957 45.524509, -75.172195 45.524277, -75.173434 45.524044, -75.174673 45.523812, -75.175912 45.523579, -75.177151 45.523347, -75.178390 45.523114, -75.179628 45.522882, -75.180867 45.522649, -75.182106 45.522417, -75.183345 45.522184, -75.184584 45.521952, -75.185822 45.521719, -75.187061 45.521487, -75.188300 45.521254, -75.189538 45.521021, -75.190777 45.520789, -75.192016 45.520556, -75.193255 45.520324, -75.194493 45.520091, -75.195732 45.519858, -75.196971 45.519626, -75.198209 45.519393, -75.199448 45.519160, -75.200687 45.518927, -75.201925 45.518695, -75.203164 45.518462, -75.204402 45.518229, -75.205641 45.517996, -75.206880 45.517764, -75.208118 45.517531, -75.209357 45.517298, -75.210595 45.517065, -75.211834 45.516832, -75.213072 45.516599, -75.214311 45.516366, -75.215549 45.516134, -75.216788 45.515901, -75.218026 45.515668, -75.219265 45.515435, -75.220503 45.515202, -75.221742 45.514969, -75.222980 45.514736, -75.224219 45.514503, -75.225457 45.514270, -75.226695 45.514037, -75.227934 45.513804, -75.229172 45.513571, -75.230411 45.513338, -75.231649 45.513105, -75.232887 45.512872, -75.234126 45.512639, -75.235364 45.512406, -75.236602 45.512172, -75.237841 45.511939, -75.239079 45.511706, -75.240317 45.511473, -75.241556 45.511240, -75.242794 45.511007, -75.244032 45.510773, -75.245270 45.510540, -75.246509 45.510307, -75.247747 45.510074, -75.248985 45.509840, -75.250223 45.509607, -75.251462 45.509374, -75.252700 45.509141, -75.253938 45.508907, -75.255176 45.508674, -75.256414 45.508441, -75.257652 45.508207, -75.258891 45.507974, -75.260129 45.507741, -75.261367 45.507507, -75.262605 45.507274, -75.263843 45.507040, -75.265081 45.506807, -75.266319 45.506574, -75.267557 45.506340, -75.268795 45.506107, -75.270033 45.505873, -75.271271 45.505640, -75.272509 45.505406, -75.273748 45.505173, -75.274986 45.504939, -75.276224 45.504706, -75.277462 45.504472, -75.278700 45.504238, -75.279937 45.504005, -75.281175 45.503771, -75.282413 45.503538, -75.283651 45.503304, -75.284889 45.503070, -75.286127 45.502837, -75.287365 45.502603, -75.288603 45.502369, -75.289841 45.502136, -75.291079 45.501902, -75.292317 45.501668, -75.293555 45.501435, -75.294792 45.501201, -75.296030 45.500967, -75.297268 45.500733, -75.298506 45.500499, -75.299744 45.500266, -75.300981 45.500032, -75.302219 45.499798, -75.303457 45.499564, -75.304695 45.499330, -75.305933 45.499096, -75.307170 45.498863, -75.308408 45.498629, -75.309646 45.498395, -75.310883 45.498161, -75.312121 45.497927, -75.313359 45.497693, -75.314597 45.497459, -75.315834 45.497225, -75.317072 45.496991, -75.318310 45.496757, -75.319547 45.496523, -75.320785 45.496289, -75.322022 45.496055, -75.323260 45.495821, -75.324498 45.495587, -75.325735 45.495353, -75.326973 45.495119, -75.328210 45.494885, -75.329448 45.494650, -75.330686 45.494416, -75.331923 45.494182, -75.333161 45.493948, -75.334398 45.493714, -75.335636 45.493480, -75.336873 45.493245, -75.338111 45.493011, -75.339348 45.492777, -75.340586 45.492543, -75.341823 45.492308, -75.343060 45.492074, -75.344298 45.491840, -75.345535 45.491606, -75.346773 45.491371, -75.348010 45.491137, -75.349248 45.490903, -75.350485 45.490668, -75.351722 45.490434, -75.352960 45.490200, -75.354197 45.489965, -75.355434 45.489731, -75.356672 45.489496, -75.357909 45.489262, -75.359146 45.489028, -75.360384 45.488793, -75.361621 45.488559, -75.362858 45.488324, -75.364096 45.488090, -75.365333 45.487855, -75.366570 45.487621, -75.367807 45.487386, -75.369045 45.487151, -75.370282 45.486917, -75.371519 45.486682, -75.372756 45.486448, -75.373993 45.486213, -75.375231 45.485979, -75.376468 45.485744, -75.377705 45.485509, -75.378942 45.485275, -75.380179 45.485040, -75.381416 45.484805, -75.382653 45.484571, -75.383891 45.484336, -75.385128 45.484101, -75.386365 45.483866, -75.387602 45.483632, -75.388839 45.483397, -75.390076 45.483162, -75.391313 45.482927, -75.392550 45.482693, -75.393787 45.482458, -75.395024 45.482223, -75.396261 45.481988, -75.397498 45.481753, -75.398735 45.481518, -75.399972 45.481283, -75.401209 45.481049, -75.402446 45.480814, -75.403683 45.480579, -75.404920 45.480344, -75.406157 45.480109, -75.407394 45.479874, -75.408631 45.479639, -75.409867 45.479404, -75.411104 45.479169, -75.412341 45.478934, -75.413578 45.478699, -75.414815 45.478464, -75.416052 45.478229, -75.417289 45.477994, -75.418525 45.477759, -75.419762 45.477524, -75.420999 45.477288, -75.422236 45.477053, -75.423473 45.476818, -75.424709 45.476583, -75.425946 45.476348, -75.427183 45.476113, -75.428420 45.475877, -75.429656 45.475642, -75.430893 45.475407, -75.432130 45.475172, -75.433366 45.474937, -75.434603 45.474701, -75.435840 45.474466, -75.437076 45.474231, -75.438313 45.473995, -75.439550 45.473760, -75.440786 45.473525, -75.442023 45.473289, -75.443260 45.473054, -75.444496 45.472819, -75.445733 45.472583, -75.446969 45.472348, -75.448206 45.472113, -75.449443 45.471877, -75.450679 45.471642, -75.451916 45.471406, -75.453152 45.471171, -75.454389 45.470935, -75.455625 45.470700, -75.456862 45.470464, -75.458098 45.470229, -75.459335 45.469993, -75.460571 45.469758, -75.461808 45.469522, -75.463044 45.469287, -75.464280 45.469051, -75.465517 45.468816, -75.466753 45.468580, -75.467990 45.468344, -75.469226 45.468109, -75.470463 45.467873, -75.471699 45.467637, -75.472935 45.467402, -75.474172 45.467166, -75.475408 45.466930, -75.476644 45.466695, -75.477881 45.466459, -75.479117 45.466223, -75.480353 45.465987, -75.481590 45.465752, -75.482826 45.465516, -75.484062 45.465280, -75.485298 45.465044, -75.486535 45.464808, -75.487771 45.464573, -75.489007 45.464337, -75.490243 45.464101, -75.491479 45.463865, -75.492716 45.463629, -75.493952 45.463393, -75.495188 45.463157, -75.496424 45.462921, -75.497660 45.462686, -75.498897 45.462450, -75.500133 45.462214, -75.501369 45.461978, -75.502605 45.461742, -75.503841 45.461506, -75.505077 45.461270, -75.506313 45.461034, -75.507549 45.460798, -75.508785 45.460562, -75.510021 45.460325, -75.511257 45.460089, -75.512493 45.459853, -75.513730 45.459617, -75.514966 45.459381, -75.516202 45.459145, -75.517438 45.458909, -75.518673 45.458673, -75.519909 45.458436, -75.521145 45.458200, -75.522381 45.457964, -75.523617 45.457728, -75.524853 45.457492, -75.526089 45.457255, -75.527325 45.457019, -75.528561 45.456783, -75.529797 45.456547, -75.531033 45.456310, -75.532269 45.456074, -75.533504 45.455838, -75.534740 45.455601, -75.535976 45.455365, -75.537212 45.455129, -75.538448 45.454892, -75.539684 45.454656, -75.540919 45.454419, -75.542155 45.454183, -75.543391 45.453947, -75.544627 45.453710, -75.545862 45.453474, -75.547098 45.453237, -75.548334 45.453001, -75.549570 45.452764, -75.550805 45.452528, -75.552041 45.452291, -75.553277 45.452055, -75.554512 45.451818, -75.555748 45.451581, -75.556984 45.451345, -75.558219 45.451108, -75.559455 45.450872, -75.560691 45.450635, -75.561926 45.450398, -75.563162 45.450162, -75.564398 45.449925, -75.565633 45.449689, -75.566869 45.449452, -75.568104 45.449215, -75.569340 45.448978, -75.570575 45.448742, -75.571811 45.448505, -75.573046 45.448268, -75.574282 45.448031, -75.575518 45.447795, -75.576753 45.447558, -75.577988 45.447321, -75.579224 45.447084, -75.580459 45.446847, -75.581695 45.446611, -75.582930 45.446374, -75.584166 45.446137, -75.585401 45.445900, -75.586637 45.445663, -75.587872 45.445426, -75.589107 45.445189, -75.590343 45.444952, -75.591578 45.444715, -75.592813 45.444478, -75.594049 45.444241, -75.595284 45.444004, -75.596520 45.443767, -75.597755 45.443530, -75.598990 45.443293, -75.600225 45.443056, -75.601461 45.442819, -75.602696 45.442582, -75.603931 45.442345, -75.605167 45.442108, -75.606402 45.441871, -75.607637 45.441634, -75.608872 45.441397, -75.610107 45.441160, -75.611343 45.440922, -75.612578 45.440685, -75.613813 45.440448, -75.615048 45.440211, -75.616283 45.439974, -75.617519 45.439736, -75.618754 45.439499, -75.619989 45.439262, -75.621224 45.439025, -75.622459 45.438787, -75.623694 45.438550, -75.624929 45.438313, -75.626164 45.438075, -75.627399 45.437838, -75.628634 45.437601, -75.629869 45.437363, -75.631105 45.437126, -75.632340 45.436889, -75.633575 45.436651, -75.634810 45.436414, -75.636045 45.436176, -75.637280 45.435939, -75.638515 45.435701, -75.639750 45.435464, -75.640984 45.435226, -75.642219 45.434989, -75.643454 45.434751, -75.644689 45.434514, -75.645924 45.434276, -75.647159 45.434039, -75.648394 45.433801, -75.649629 45.433564, -75.650864 45.433326, -75.652099 45.433089, -75.653333 45.432851, -75.654568 45.432613, -75.655803 45.432376, -75.657038 45.432138, -75.658273 45.431900, -75.659508 45.431663, -75.660742 45.431425, -75.661977 45.431187, -75.663212 45.430950, -75.664447 45.430712, -75.665681 45.430474, -75.666916 45.430236, -75.668151 45.429999, -75.669386 45.429761, -75.670620 45.429523, -75.671855 45.429285, -75.673090 45.429047, -75.674324 45.428809, -75.675559 45.428572, -75.676794 45.428334, -75.678028 45.428096, -75.679263 45.427858, -75.680498 45.427620, -75.681732 45.427382, -75.682967 45.427144, -75.684201 45.426906, -75.685436 45.426668, -75.686671 45.426430, -75.687905 45.426192, -75.689140 45.425954, -75.690374 45.425716, -75.691609 45.425478, -75.692843 45.425240, -75.694078 45.425002, -75.695312 45.424764, -75.696547 45.424526, -75.697781 45.424288, -75.699016 45.424050, -75.700250 45.423812, -75.701485 45.423574, -75.702719 45.423335, -75.703953 45.423097, -75.705188 45.422859, -75.706422 45.422621, -75.707657 45.422383, -75.708891 45.422145, -75.710125 45.421906, -75.711360 45.421668, -75.712594 45.421430, -75.713828 45.421192, -75.715063 45.420953, -75.716297 45.420715, -75.717531 45.420477, -75.718766 45.420238, -75.720000 45.420000, -75.721277 45.420044, -75.722555 45.420088, -75.723832 45.420132, -75.725110 45.420176, -75.726387 45.420220, -75.727665 45.420264, -75.728942 45.420308, -75.730219 45.420352, -75.731497 45.420396, -75.732774 45.420440, -75.734052 45.420484, -75.735329 45.420528, -75.736607 45.420572, -75.737884 45.420616, -75.739162 45.420660, -75.740439 45.420703, -75.741717 45.420747, -75.742994 45.420791, -75.744271 45.420835, -75.745549 45.420879, -75.746826 45.420923, -75.748104 45.420966, -75.749381 45.421010, -75.750659 45.421054, -75.751936 45.421098, -75.753214 45.421141, -75.754491 45.421185, -75.755769 45.421229, -75.757046 45.421272, -75.758324 45.421316, -75.759601 45.421360, -75.760879 45.421403, -75.762156 45.421447, -75.763434 45.421490, -75.764711 45.421534, -75.765989 45.421578, -75.767266 45.421621, -75.768544 45.421665, -75.769821 45.421708, -75.771099 45.421752, -75.772376 45.421795, -75.773654 45.421839, -75.774931 45.421882, -75.776209 45.421926, -75.777486 45.421969, -75.778764 45.422013, -75.780041 45.422056, -75.781319 45.422099, -75.782596 45.422143, -75.783874 45.422186, -75.785151 45.422230, -75.786429 45.422273, -75.787706 45.422316, -75.788984 45.422360, -75.790261 45.422403, -75.791539 45.422446, -75.792816 45.422489, -75.794094 45.422533, -75.795372 45.422576, -75.796649 45.422619, -75.797927 45.422662, -75.799204 45.422706, -75.800482 45.422749, -75.801759 45.422792, -75.803037 45.422835, -75.804314 45.422878, -75.805592 45.422921, -75.806869 45.422964, -75.808147 45.423008, -75.809425 45.423051, -75.810702 45.423094, -75.811980 45.423137, -75.813257 45.423180, -75.814535 45.423223, -75.815812 45.423266, -75.817090 45.423309, -75.818368 45.423352, -75.819645 45.423395, -75.820923 45.423438, -75.822200 45.423481, -75.823478 45.423524, -75.824755 45.423567, -75.826033 45.423610, -75.827311 45.423652, -75.828588 45.423695, -75.829866 45.423738, -75.831143 45.423781, -75.832421 45.423824, -75.833699 45.423867, -75.834976 45.423909, -75.836254 45.423952, -75.837531 45.423995, -75.838809 45.424038, -75.840087 45.424081, -75.841364 45.424123, -75.842642 45.424166, -75.843919 45.424209, -75.845197 45.424251, -75.846475 45.424294, -75.847752 45.424337, -75.849030 45.424379, -75.850308 45.424422, -75.851585 45.424465, -75.852863 45.424507, -75.854140 45.424550, -75.855418 45.424592, -75.856696 45.424635, -75.857973 45.424678, -75.859251 45.424720, -75.860529 45.424763, -75.861806 45.424805, -75.863084 45.424848, -75.864362 45.424890, -75.865639 45.424933, -75.866917 45.424975, -75.868195 45.425017, -75.869472 45.425060, -75.870750 45.425102, -75.872027 45.425145, -75.873305 45.425187, -75.874583 45.425229, -75.875860 45.425272, -75.877138 45.425314, -75.878416 45.425356, -75.879693 45.425399, -75.880971 45.425441, -75.882249 45.425483, -75.883526 45.425526, -75.884804 45.425568, -75.886082 45.425610, -75.887360 45.425652, -75.888637 45.425694, -75.889915 45.425737, -75.891193 45.425779, -75.892470 45.425821, -75.893748 45.425863, -75.895026 45.425905, -75.896303 45.425947, -75.897581 45.425989, -75.898859 45.426032, -75.900136 45.426074, -75.901414 45.426116, -75.902692 45.426158, -75.903970 45.426200, -75.905247 45.426242, -75.906525 45.426284, -75.907803 45.426326, -75.909080 45.426368, -75.910358 45.426410, -75.911636 45.426452, -75.912914 45.426494, -75.914191 45.426536, -75.915469 45.426577, -75.916747 45.426619, -75.918024 45.426661, -75.919302 45.426703, -75.920580 45.426745, -75.921858 45.426787, -75.923135 45.426829, -75.924413 45.426870, -75.925691 45.426912, -75.926969 45.426954, -75.928246 45.426996, -75.929524 45.427038, -75.930802 45.427079, -75.932079 45.427121, -75.933357 45.427163, -75.934635 45.427204, -75.935913 45.427246, -75.937190 45.427288, -75.938468 45.427329, -75.939746 45.427371, -75.941024 45.427413, -75.942302 45.427454, -75.943579 45.427496, -75.944857 45.427537, -75.946135 45.427579, -75.947413 45.427621, -75.948690 45.427662, -75.949968 45.427704, -75.951246 45.427745, -75.952524 45.427787, -75.953801 45.427828, -75.955079 45.427870, -75.956357 45.427911, -75.957635 45.427952, -75.958913 45.427994, -75.960190 45.428035, -75.961468 45.428077, -75.962746 45.428118, -75.964024 45.428159, -75.965302 45.428201, -75.966579 45.428242, -75.967857 45.428283, -75.969135 45.428325, -75.970413 45.428366, -75.971691 45.428407, -75.972968 45.428449, -75.974246 45.428490, -75.975524 45.428531, -75.976802 45.428572, -75.978080 45.428614, -75.979357 45.428655, -75.980635 45.428696, -75.981913 45.428737, -75.983191 45.428778, -75.984469 45.428819, -75.985747 45.428860, -75.987024 45.428902, -75.988302 45.428943, -75.989580 45.428984, -75.990858 45.429025, -75.992136 45.429066, -75.993414 45.429107, -75.994691 45.429148, -75.995969 45.429189, -75.997247 45.429230, -75.998525 45.429271, -75.999803 45.429312, -76.001081 45.429353, -76.002358 45.429394, -76.003636 45.429435, -76.004914 45.429476, -76.006192 45.429517, -76.007470 45.429557, -76.008748 45.429598, -76.010026 45.429639, -76.011303 45.429680, -76.012581 45.429721, -76.013859 45.429762, -76.015137 45.429802, -76.016415 45.429843, -76.017693 45.429884, -76.018971 45.429925, -76.020248 45.429965, -76.021526 45.430006, -76.022804 45.430047, -76.024082 45.430088, -76.025360 45.430128, -76.026638 45.430169, -76.027916 45.430210, -76.029194 45.430250, -76.030472 45.430291, -76.031749 45.430331, -76.033027 45.430372, -76.034305 45.430413, -76.035583 45.430453, -76.036861 45.430494, -76.038139 45.430534, -76.039417 45.430575, -76.040695 45.430615, -76.041973 45.430656, -76.043251 45.430696, -76.044528 45.430737, -76.045806 45.430777, -76.047084 45.430818, -76.048362 45.430858, -76.049640 45.430898, -76.050918 45.430939, -76.052196 45.430979, -76.053474 45.431020, -76.054752 45.431060, -76.056030 45.431100, -76.057308 45.431141, -76.058586 45.431181, -76.059864 45.431221, -76.061141 45.431262, -76.062419 45.431302, -76.063697 45.431342, -76.064975 45.431382, -76.066253 45.431423, -76.067531 45.431463, -76.068809 45.431503, -76.070087 45.431543, -76.071365 45.431583, -76.072643 45.431623, -76.073921 45.431664, -76.075199 45.431704, -76.076477 45.431744, -76.077755 45.431784, -76.079033 45.431824, -76.080311 45.431864, -76.081589 45.431904, -76.082867 45.431944, -76.084145 45.431984, -76.085423 45.432024, -76.086701 45.432064, -76.087978 45.432104, -76.089256 45.432144, -76.090534 45.432184, -76.091812 45.432224, -76.093090 45.432264, -76.094368 45.432304, -76.095646 45.432344, -76.096924 45.432384, -76.098202 45.432424, -76.099480 45.432463, -76.100758 45.432503, -76.102036 45.432543, -76.103314 45.432583, -76.104592 45.432623, -76.105870 45.432663, -76.107148 45.432702, -76.108426 45.432742, -76.109704 45.432782, -76.110982 45.432821, -76.112260 45.432861, -76.113538 45.432901, -76.114816 45.432941, -76.116094 45.432980, -76.117372 45.433020, -76.118650 45.433060, -76.119928 45.433099, -76.121206 45.433139, -76.122484 45.433178, -76.123762 45.433218, -76.125040 45.433258, -76.126318 45.433297, -76.127597 45.433337, -76.128875 45.433376, -76.130153 45.433416, -76.131431 45.433455, -76.132709 45.433495, -76.133987 45.433534, -76.135265 45.433574, -76.136543 45.433613, -76.137821 45.433652, -76.139099 45.433692, -76.140377 45.433731, -76.141655 45.433771, -76.142933 45.433810, -76.144211 45.433849, -76.145489 45.433889, -76.146767 45.433928, -76.148045 45.433967, -76.149323 45.434007, -76.150601 45.434046, -76.151879 45.434085, -76.153157 45.434125, -76.154435 45.434164, -76.155714 45.434203, -76.156992 45.434242, -76.158270 45.434281, -76.159548 45.434321, -76.160826 45.434360, -76.162104 45.434399, -76.163382 45.434438, -76.164660 45.434477, -76.165938 45.434516, -76.167216 45.434555, -76.168494 45.434594, -76.169772 45.434634, -76.171051 45.434673, -76.172329 45.434712, -76.173607 45.434751, -76.174885 45.434790, -76.176163 45.434829, -76.177441 45.434868, -76.178719 45.434907, -76.179997 45.434946, -76.181275 45.434985, -76.182553 45.435023, -76.183831 45.435062, -76.185110 45.435101, -76.186388 45.435140, -76.187666 45.435179, -76.188944 45.435218, -76.190222 45.435257, -76.191500 45.435296, -76.192778 45.435334, -76.194056 45.435373, -76.195335 45.435412, -76.196613 45.435451, -76.197891 45.435490, -76.199169 45.435528, -76.200447 45.435567, -76.201725 45.435606, -76.203003 45.435644, -76.204281 45.435683, -76.205560 45.435722, -76.206838 45.435760, -76.208116 45.435799, -76.209394 45.435838, -76.210672 45.435876, -76.211950 45.435915, -76.213228 45.435954, -76.214507 45.435992, -76.215785 45.436031, -76.217063 45.436069, -76.218341 45.436108, -76.219619 45.436146, -76.220897 45.436185, -76.222175 45.436223, -76.223454 45.436262, -76.224732 45.436300, -76.226010 45.436339, -76.227288 45.436377, -76.228566 45.436415, -76.229844 45.436454, -76.231123 45.436492, -76.232401 45.436531, -76.233679 45.436569, -76.234957 45.436607, -76.236235 45.436646, -76.237514 45.436684, -76.238792 45.436722, -76.240070 45.436761, -76.241348 45.436799, -76.242626 45.436837, -76.243904 45.436875, -76.245183 45.436914, -76.246461 45.436952, -76.247739 45.436990, -76.249017 45.437028, -76.250295 45.437066, -76.251574 45.437105, -76.252852 45.437143, -76.254130 45.437181, -76.255408 45.437219, -76.256686 45.437257, -76.257965 45.437295, -76.259243 45.437333, -76.260521 45.437371, -76.261799 45.437409, -76.263077 45.437447, -76.264356 45.437485, -76.265634 45.437523, -76.266912 45.437561, -76.268190 45.437599, -76.269469 45.437637, -76.270747 45.437675, -76.272025 45.437713, -76.273303 45.437751, -76.274581 45.437789, -76.275860 45.437827, -76.277138 45.437865, -76.278416 45.437903, -76.279694 45.437940, -76.280973 45.437978, -76.282251 45.438016, -76.283529 45.438054, -76.284807 45.438092, -76.286086 45.438129, -76.287364 45.438167, -76.288642 45.438205, -76.289920 45.438243, -76.291199 45.438280, -76.292477 45.438318, -76.293755 45.438356, -76.295033 45.438393, -76.296312 45.438431, -76.297590 45.438469, -76.298868 45.438506, -76.300146 45.438544, -76.301425 45.438582, -76.302703 45.438619, -76.303981 45.438657, -76.305259 45.438694, -76.306538 45.438732, -76.307816 45.438769, -76.309094 45.438807, -76.310373 45.438844, -76.311651 45.438882, -76.312929 45.438919, -76.314207 45.438957, -76.315486 45.438994, -76.316764 45.439032, -76.318042 45.439069, -76.319321 45.439107, -76.320599 45.439144, -76.321877 45.439181, -76.323155 45.439219, -76.324434 45.439256, -76.325712 45.439293, -76.326990 45.439331, -76.328269 45.439368, -76.329547 45.439405, -76.330825 45.439443, -76.332104 45.439480, -76.333382 45.439517, -76.334660 45.439554, -76.335938 45.439592, -76.337217 45.439629, -76.338495 45.439666, -76.339773 45.439703, -76.341052 45.439740, -76.342330 45.439777, -76.343608 45.439815, -76.344887 45.439852, -76.346165 45.439889, -76.347443 45.439926, -76.348722 45.439963, -76.350000 45.440000, -76.351088 45.440474, -76.352177 45.440947, -76.353265 45.441421, -76.354354 45.441895, -76.355442 45.442369, -76.356530 45.442842, -76.357619 45.443316, -76.358707 45.443790, -76.359796 45.444263, -76.360884 45.444737, -76.361973 45.445210, -76.363061 45.445684, -76.364150 45.446158, -76.365239 45.446631, -76.366327 45.447105, -76.367416 45.447578, -76.368504 45.448052, -76.369593 45.448526, -76.370682 45.448999, -76.371771 45.449473, -76.372859 45.449946, -76.373948 45.450420, -76.375037 45.450893, -76.376126 45.451367, -76.377214 45.451840, -76.378303 45.452314, -76.379392 45.452787, -76.380481 45.453261, -76.381570 45.453734, -76.382659 45.454207, -76.383747 45.454681, -76.384836 45.455154, -76.385925 45.455628, -76.387014 45.456101, -76.388103 45.456574, -76.389192 45.457048, -76.390281 45.457521, -76.391370 45.457994, -76.392459 45.458468, -76.393548 45.458941, -76.394637 45.459414, -76.395727 45.459888, -76.396816 45.460361, -76.397905 45.460834, -76.398994 45.461308, -76.400083 45.461781, -76.401172 45.462254, -76.402262 45.462727, -76.403351 45.463201, -76.404440 45.463674, -76.405529 45.464147, -76.406619 45.464620, -76.407708 45.465093, -76.408797 45.465567, -76.409887 45.466040, -76.410976 45.466513, -76.412065 45.466986, -76.413155 45.467459, -76.414244 45.467932, -76.415334 45.468405, -76.416423 45.468879, -76.417512 45.469352, -76.418602 45.469825, -76.419691 45.470298, -76.420781 45.470771, -76.421870 45.471244, -76.422960 45.471717, -76.424050 45.472190, -76.425139 45.472663, -76.426229 45.473136, -76.427318 45.473609, -76.428408 45.474082, -76.429498 45.474555, -76.430587 45.475028, -76.431677 45.475501, -76.432767 45.475974, -76.433857 45.476447, -76.434946 45.476920, -76.436036 45.477393, -76.437126 45.477866, -76.438216 45.478339, -76.439306 45.478811, -76.440395 45.479284, -76.441485 45.479757, -76.442575 45.480230, -76.443665 45.480703, -76.444755 45.481176, -76.445845 45.481649, -76.446935 45.482121, -76.448025 45.482594, -76.449115 45.483067, -76.450205 45.483540, -76.451295 45.484013, -76.452385 45.484485, -76.453475 45.484958, -76.454565 45.485431, -76.455655 45.485904, -76.456745 45.486376, -76.457836 45.486849, -76.458926 45.487322, -76.460016 45.487794, -76.461106 45.488267, -76.462196 45.488740, -76.463287 45.489212, -76.464377 45.489685, -76.465467 45.490158, -76.466557 45.490630, -76.467648 45.491103, -76.468738 45.491576, -76.469828 45.492048, -76.470919 45.492521, -76.472009 45.492993, -76.473100 45.493466, -76.474190 45.493939, -76.475280 45.494411, -76.476371 45.494884, -76.477461 45.495356, -76.478552 45.495829, -76.479642 45.496301, -76.480733 45.496774, -76.481823 45.497246, -76.482914 45.497719, -76.484005 45.498191, -76.485095 45.498664, -76.486186 45.499136, -76.487276 45.499608, -76.488367 45.500081, -76.489458 45.500553, -76.490548 45.501026, -76.491639 45.501498, -76.492730 45.501970, -76.493821 45.502443, -76.494911 45.502915, -76.496002 45.503388, -76.497093 45.503860, -76.498184 45.504332, -76.499275 45.504805, -76.500366 45.505277, -76.501456 45.505749, -76.502547 45.506221, -76.503638 45.506694, -76.504729 45.507166, -76.505820 45.507638, -76.506911 45.508110, -76.508002 45.508583, -76.509093 45.509055, -76.510184 45.509527, -76.511275 45.509999, -76.512366 45.510472, -76.513457 45.510944, -76.514548 45.511416, -76.515639 45.511888, -76.516731 45.512360, -76.517822 45.512832, -76.518913 45.513305, -76.520004 45.513777, -76.521095 45.514249, -76.522187 45.514721, -76.523278 45.515193, -76.524369 45.515665, -76.525460 45.516137, -76.526552 45.516609, -76.527643 45.517081, -76.528734 45.517553, -76.529826 45.518025, -76.530917 45.518497, -76.532008 45.518969, -76.533100 45.519441, -76.534191 45.519913, -76.535283 45.520385, -76.536374 45.520857, -76.537466 45.521329, -76.538557 45.521801, -76.539649 45.522273, -76.540740 45.522745, -76.541832 45.523217, -76.542923 45.523689, -76.544015 45.524161, -76.545107 45.524633, -76.546198 45.525105, -76.547290 45.525576, -76.548381 45.526048, -76.549473 45.526520, -76.550565 45.526992, -76.551657 45.527464, -76.552748 45.527936, -76.553840 45.528407, -76.554932 45.528879, -76.556024 45.529351, -76.557115 45.529823, -76.558207 45.530294, -76.559299 45.530766, -76.560391 45.531238, -76.561483 45.531710, -76.562575 45.532181, -76.563667 45.532653, -76.564759 45.533125, -76.565851 45.533596, -76.566943 45.534068, -76.568035 45.534540, -76.569127 45.535011, -76.570219 45.535483, -76.571311 45.535955, -76.572403 45.536426, -76.573495 45.536898, -76.574587 45.537370, -76.575679 45.537841, -76.576771 45.538313, -76.577863 45.538784, -76.578955 45.539256, -76.580048 45.539727, -76.581140 45.540199, -76.582232 45.540671, -76.583324 45.541142, -76.584417 45.541614, -76.585509 45.542085, -76.586601 45.542557, -76.587694 45.543028, -76.588786 45.543499, -76.589878 45.543971, -76.590971 45.544442, -76.592063 45.544914, -76.593155 45.545385, -76.594248 45.545857, -76.595340 45.546328, -76.596433 45.546799, -76.597525 45.547271, -76.598618 45.547742, -76.599710 45.548214, -76.600803 45.548685, -76.601895 45.549156, -76.602988 45.549628, -76.604081 45.550099, -76.605173 45.550570, -76.606266 45.551042, -76.607359 45.551513, -76.608451 45.551984, -76.609544 45.552455, -76.610637 45.552927, -76.611729 45.553398, -76.612822 45.553869, -76.613915 45.554340, -76.615008 45.554812, -76.616100 45.555283, -76.617193 45.555754, -76.618286 45.556225, -76.619379 45.556696, -76.620472 45.557168, -76.621565 45.557639, -76.622658 45.558110, -76.623751 45.558581, -76.624843 45.559052, -76.625936 45.559523, -76.627029 45.559994, -76.628122 45.560465, -76.629215 45.560936, -76.630308 45.561408, -76.631402 45.561879, -76.632495 45.562350, -76.633588 45.562821, -76.634681 45.563292, -76.635774 45.563763, -76.636867 45.564234, -76.637960 45.564705, -76.639053 45.565176, -76.640147 45.565647, -76.641240 45.566118, -76.642333 45.566589, -76.643426 45.567060, -76.644520 45.567531, -76.645613 45.568001, -76.646706 45.568472, -76.647800 45.568943, -76.648893 45.569414, -76.649986 45.569885, -76.651080 45.570356, -76.652173 45.570827, -76.653267 45.571298, -76.654360 45.571769, -76.655453 45.572239, -76.656547 45.572710, -76.657640 45.573181, -76.658734 45.573652, -76.659827 45.574123, -76.660921 45.574593, -76.662015 45.575064, -76.663108 45.575535, -76.664202 45.576006, -76.665295 45.576476, -76.666389 45.576947, -76.667483 45.577418, -76.668576 45.577889, -76.669670 45.578359, -76.670764 45.578830, -76.671858 45.579301, -76.672951 45.579771, -76.674045 45.580242, -76.675139 45.580713, -76.676233 45.581183, -76.677326 45.581654, -76.678420 45.582124, -76.679514 45.582595, -76.680608 45.583066, -76.681702 45.583536, -76.682796 45.584007, -76.683890 45.584477, -76.684984 45.584948, -76.686078 45.585418, -76.687172 45.585889, -76.688266 45.586359, -76.689360 45.586830, -76.690454 45.587300, -76.691548 45.587771, -76.692642 45.588241, -76.693736 45.588712, -76.694830 45.589182, -76.695924 45.589653, -76.697018 45.590123, -76.698113 45.590594, -76.699207 45.591064, -76.700301 45.591535, -76.701395 45.592005, -76.702490 45.592475, -76.703584 45.592946, -76.704678 45.593416, -76.705772 45.593886, -76.706867 45.594357, -76.707961 45.594827, -76.709055 45.595297, -76.710150 45.595768, -76.711244 45.596238, -76.712339 45.596708, -76.713433 45.597179, -76.714527 45.597649, -76.715622 45.598119, -76.716716 45.598589, -76.717811 45.599060, -76.718905 45.599530, -76.720000 45.600000), (-76.720000 45.600000, -76.721175 45.600354, -76.722350 45.600708, -76.723526 45.601062, -76.724701 45.601416, -76.725876 45.601770, -76.727052 45.602124, -76.728227 45.602477, -76.729402 45.602831, -76.730577 45.603185, -76.731753 45.603539, -76.732928 45.603893, -76.734104 45.604247, -76.735279 45.604601, -76.736454 45.604954, -76.737630 45.605308, -76.738805 45.605662, -76.739981 45.606016, -76.741156 45.606369, -76.742332 45.606723, -76.743507 45.607077, -76.744683 45.607431, -76.745858 45.607784, -76.747034 45.608138, -76.748209 45.608492, -76.749385 45.608845, -76.750560 45.609199, -76.751736 45.609553, -76.752912 45.609906, -76.754087 45.610260, -76.755263 45.610614, -76.756439 45.610967, -76.757614 45.611321, -76.758790 45.611674, -76.759966 45.612028, -76.761141 45.612381, -76.762317 45.612735, -76.763493 45.613089, -76.764669 45.613442, -76.765844 45.613796, -76.767020 45.614149, -76.768196 45.614503, -76.769372 45.614856, -76.770548 45.615209, -76.771724 45.615563, -76.772900 45.615916, -76.774075 45.616270, -76.775251 45.616623, -76.776427 45.616977, -76.777603 45.617330, -76.778779 45.617683, -76.779955 45.618037, -76.781131 45.618390, -76.782307 45.618743, -76.783483 45.619097, -76.784659 45.619450, -76.785835 45.619803, -76.787011 45.620157, -76.788187 45.620510, -76.789363 45.620863, -76.790539 45.621216, -76.791715 45.621570, -76.792892 45.621923, -76.794068 45.622276, -76.795244 45.622629, -76.796420 45.622982, -76.797596 45.623336, -76.798772 45.623689, -76.799949 45.624042, -76.801125 45.624395, -76.802301 45.624748, -76.803477 45.625101, -76.804654 45.625454, -76.805830 45.625807, -76.807006 45.626161, -76.808183 45.626514, -76.809359 45.626867, -76.810535 45.627220, -76.811712 45.627573, -76.812888 45.627926, -76.814064 45.628279, -76.815241 45.628632, -76.816417 45.628985, -76.817594 45.629338, -76.818770 45.629691, -76.819946 45.630044, -76.821123 45.630397, -76.822299 45.630749, -76.823476 45.631102, -76.824652 45.631455, -76.825829 45.631808, -76.827006 45.632161, -76.828182 45.632514, -76.829359 45.632867, -76.830535 45.633220, -76.831712 45.633572, -76.832889 45.633925, -76.834065 45.634278, -76.835242 45.634631, -76.836419 45.634984, -76.837595 45.635336, -76.838772 45.635689, -76.839949 45.636042, -76.841125 45.636395, -76.842302 45.636747, -76.843479 45.637100, -76.844656 45.637453, -76.845832 45.637805, -76.847009 45.638158, -76.848186 45.638511, -76.849363 45.638863, -76.850540 45.639216, -76.851717 45.639569, -76.852893 45.639921, -76.854070 45.640274, -76.855247 45.640626, -76.856424 45.640979, -76.857601 45.641332, -76.858778 45.641684, -76.859955 45.642037, -76.861132 45.642389, -76.862309 45.642742, -76.863486 45.643094, -76.864663 45.643447, -76.865840 45.643799, -76.867017 45.644152, -76.868194 45.644504, -76.869371 45.644857, -76.870548 45.645209, -76.871726 45.645561, -76.872903 45.645914, -76.874080 45.646266, -76.875257 45.646619, -76.876434 45.646971, -76.877611 45.647323, -76.878789 45.647676, -76.879966 45.648028, -76.881143 45.648380, -76.882320 45.648733, -76.883497 45.649085, -76.884675 45.649437, -76.885852 45.649789, -76.887029 45.650142, -76.888207 45.650494, -76.889384 45.650846, -76.890561 45.651198, -76.891739 45.651551, -76.892916 45.651903, -76.894094 45.652255, -76.895271 45.652607, -76.896448 45.652959, -76.897626 45.653311, -76.898803 45.653664, -76.899981 45.654016, -76.901158 45.654368, -76.902336 45.654720, -76.903513 45.655072, -76.904691 45.655424, -76.905868 45.655776, -76.907046 45.656128, -76.908223 45.656480, -76.909401 45.656832, -76.910579 45.657184, -76.911756 45.657536, -76.912934 45.657888, -76.914112 45.658240, -76.915289 45.658592, -76.916467 45.658944, -76.917645 45.659296, -76.918822 45.659648, -76.920000 45.660000, -76.920814 45.660695, -76.921628 45.661389, -76.922442 45.662084, -76.923256 45.662778, -76.924069 45.663473, -76.924883 45.664167, -76.925697 45.664862, -76.926511 45.665557, -76.927325 45.666251, -76.928139 45.666946, -76.928954 45.667640, -76.929768 45.668335, -76.930582 45.669029, -76.931396 45.669724, -76.932210 45.670418, -76.933024 45.671113, -76.933838 45.671807, -76.934652 45.672502, -76.935467 45.673196, -76.936281 45.673891, -76.937095 45.674585, -76.937909 45.675280, -76.938724 45.675974, -76.939538 45.676668, -76.940352 45.677363, -76.941167 45.678057, -76.941981 45.678752, -76.942796 45.679446, -76.943610 45.680141, -76.944424 45.680835, -76.945239 45.681529, -76.946053 45.682224, -76.946868 45.682918, -76.947682 45.683613, -76.948497 45.684307, -76.949312 45.685001, -76.950126 45.685696, -76.950941 45.686390, -76.951755 45.687085, -76.952570 45.687779, -76.953385 45.688473, -76.954199 45.689168, -76.955014 45.689862, -76.955829 45.690556, -76.956643 45.691251, -76.957458 45.691945, -76.958273 45.692639, -76.959088 45.693334, -76.959903 45.694028, -76.960717 45.694722, -76.961532 45.695416, -76.962347 45.696111, -76.963162 45.696805, -76.963977 45.697499, -76.964792 45.698194, -76.965607 45.698888, -76.966422 45.699582, -76.967237 45.700276, -76.968052 45.700971, -76.968867 45.701665, -76.969682 45.702359, -76.970497 45.703053, -76.971312 45.703748, -76.972127 45.704442, -76.972943 45.705136, -76.973758 45.705830, -76.974573 45.706524, -76.975388 45.707219, -76.976203 45.707913, -76.977019 45.708607, -76.977834 45.709301, -76.978649 45.709995, -76.979465 45.710690, -76.980280 45.711384, -76.981095 45.712078, -76.981911 45.712772, -76.982726 45.713466, -76.983541 45.714160, -76.984357 45.714854, -76.985172 45.715549, -76.985988 45.716243, -76.986803 45.716937, -76.987619 45.717631, -76.988434 45.718325, -76.989250 45.719019, -76.990065 45.719713, -76.990881 45.720407, -76.991697 45.721101, -76.992512 45.721795, -76.993328 45.722490, -76.994144 45.723184, -76.994959 45.723878, -76.995775 45.724572, -76.996591 45.725266, -76.997406 45.725960, -76.998222 45.726654, -76.999038 45.727348, -76.999854 45.728042, -77.000670 45.728736, -77.001486 45.729430, -77.002301 45.730124, -77.003117 45.730818, -77.003933 45.731512, -77.004749 45.732206, -77.005565 45.732900, -77.006381 45.733594, -77.007197 45.734288, -77.008013 45.734982, -77.008829 45.735676, -77.009645 45.736370, -77.010461 45.737064, -77.011277 45.737758, -77.012094 45.738452, -77.012910 45.739145, -77.013726 45.739839, -77.014542 45.740533, -77.015358 45.741227, -77.016174 45.741921, -77.016991 45.742615, -77.017807 45.743309, -77.018623 45.744003, -77.019440 45.744697, -77.020256 45.745391, -77.021072 45.746084, -77.021889 45.746778, -77.022705 45.747472, -77.023521 45.748166, -77.024338 45.748860, -77.025154 45.749554, -77.025971 45.750248, -77.026787 45.750941, -77.027604 45.751635, -77.028420 45.752329, -77.029237 45.753023, -77.030053 45.753717, -77.030870 45.754410, -77.031687 45.755104, -77.032503 45.755798, -77.033320 45.756492, -77.034137 45.757186, -77.034953 45.757879, -77.035770 45.758573, -77.036587 45.759267, -77.037403 45.759961, -77.038220 45.760654, -77.039037 45.761348, -77.039854 45.762042, -77.040671 45.762736, -77.041487 45.763429, -77.042304 45.764123, -77.043121 45.764817, -77.043938 45.765510, -77.044755 45.766204, -77.045572 45.766898, -77.046389 45.767592, -77.047206 45.768285, -77.048023 45.768979, -77.048840 45.769673, -77.049657 45.770366, -77.050474 45.771060, -77.051291 45.771754, -77.052108 45.772447, -77.052926 45.773141, -77.053743 45.773835, -77.054560 45.774528, -77.055377 45.775222, -77.056194 45.775915, -77.057012 45.776609, -77.057829 45.777303, -77.058646 45.777996, -77.059463 45.778690, -77.060281 45.779383, -77.061098 45.780077, -77.061915 45.780771, -77.062733 45.781464, -77.063550 45.782158, -77.064368 45.782851, -77.065185 45.783545, -77.066002 45.784238, -77.066820 45.784932, -77.067637 45.785626, -77.068455 45.786319, -77.069273 45.787013, -77.070090 45.787706, -77.070908 45.788400, -77.071725 45.789093, -77.072543 45.789787, -77.073361 45.790480, -77.074178 45.791174, -77.074996 45.791867, -77.075814 45.792561, -77.076631 45.793254, -77.077449 45.793948, -77.078267 45.794641, -77.079085 45.795334, -77.079902 45.796028, -77.080720 45.796721, -77.081538 45.797415, -77.082356 45.798108, -77.083174 45.798802, -77.083992 45.799495, -77.084810 45.800189, -77.085628 45.800882, -77.086446 45.801575, -77.087264 45.802269, -77.088082 45.802962, -77.088900 45.803656, -77.089718 45.804349, -77.090536 45.805042, -77.091354 45.805736, -77.092172 45.806429, -77.092990 45.807122, -77.093808 45.807816, -77.094626 45.808509, -77.095445 45.809202, -77.096263 45.809896, -77.097081 45.810589, -77.097899 45.811282, -77.098718 45.811976, -77.099536 45.812669, -77.100354 45.813362, -77.101173 45.814056, -77.101991 45.814749, -77.102809 45.815442, -77.103628 45.816136, -77.104446 45.816829, -77.105265 45.817522, -77.106083 45.818215, -77.106902 45.818909, -77.107720 45.819602, -77.108539 45.820295, -77.109357 45.820988, -77.110176 45.821682, -77.110994 45.822375, -77.111813 45.823068, -77.112631 45.823761, -77.113450 45.824455, -77.114269 45.825148, -77.115087 45.825841, -77.115906 45.826534, -77.116725 45.827227, -77.117544 45.827920, -77.118362 45.828614, -77.119181 45.829307, -77.120000 45.830000, -77.121111 45.830445, -77.122221 45.830889, -77.123332 45.831334, -77.124443 45.831779, -77.125554 45.832223, -77.126665 45.832668, -77.127775 45.833113, -77.128886 45.833557, -77.129997 45.834002, -77.131108 45.834446, -77.132219 45.834891, -77.133330 45.835335, -77.134441 45.835780, -77.135552 45.836225, -77.136663 45.836669, -77.137774 45.837114, -77.138885 45.837558, -77.139996 45.838003, -77.141107 45.838447, -77.142218 45.838892, -77.143329 45.839336, -77.144440 45.839781, -77.145551 45.840225, -77.146662 45.840669, -77.147773 45.841114, -77.148885 45.841558, -77.149996 45.842003, -77.151107 45.842447, -77.152218 45.842891, -77.153329 45.843336, -77.154441 45.843780, -77.155552 45.844224, -77.156663 45.844669, -77.157774 45.845113, -77.158886 45.845557, -77.159997 45.846002, -77.161108 45.846446, -77.162220 45.846890, -77.163331 45.847335, -77.164443 45.847779, -77.165554 45.848223, -77.166666 45.848667, -77.167777 45.849112, -77.168888 45.849556, -77.170000 45.850000))
