LINESTRING (-90.880000 32.350000, -90.880149 32.350890, -90.880299 32.351780, -90.880448 32.352670, -90.880597 32.353560, -90.880747 32.354451, -90.880896 32.355341, -90.881045 32.356231, -90.881195 32.357121, -90.881344 32.358011, -90.881494 32.358901, -90.881643 32.359791, -90.881792 32.360681, -90.881942 32.361571, -90.882091 32.362462, -90.882241 32.363352, -90.882390 32.364242, -90.882539 32.365132, -90.882689 32.366022, -90.882838 32.366912, -90.882987 32.367802, -90.883137 32.368692, -90.883286 32.369582, -90.883436 32.370473, -90.883585 32.371363, -90.883735 32.372253, -90.883884 32.373143, -90.884033 32.374033, -90.884183 32.374923, -90.884332 32.375813, -90.884482 32.376703, -90.884631 32.377593, -90.884781 32.378484, -90.884930 32.379374, -90.885079 32.380264, -90.885229 32.381154, -90.885378 32.382044, -90.885528 32.382934, -90.885677 32.383824, -90.885827 32.384714, -90.885976 32.385604, -90.886126 32.386495, -90.886275 32.387385, -90.886425 32.388275, -90.886574 32.389165, -90.886724 32.390055, -90.886873 32.390945, -90.887022 32.391835, -90.887172 32.392725, -90.887321 32.393615, -90.887471 32.394506, -90.887620 32.395396, -90.887770 32.396286, -90.887919 32.397176, -90.888069 32.398066, -90.888218 32.398956, -90.888368 32.399846, -90.888517 32.400736, -90.888667 32.401626, -90.888816 32.402517, -90.888966 32.403407, -90.889116 32.404297, -90.889265 32.405187, -90.889415 32.406077, -90.889564 32.406967, -90.889714 32.407857, -90.889863 32.408747, -90.890013 32.409637, -90.890162 32.410527, -90.890312 32.411418, -90.890461 32.412308, -90.890611 32.413198, -90.890760 32.414088, -90.890910 32.414978, -90.891060 32.415868, -90.891209 32.416758, -90.891359 32.417648, -90.891508 32.418538, -90.891658 32.419428, -90.891807 32.420319, -90.891957 32.421209, -90.892107 32.422099, -90.892256 32.422989, -90.892406 32.423879, -90.892555 32.424769, -90.892705 32.425659, -90.892855 32.426549, -90.893004 32.427439, -90.893154 32.428329, -90.893303 32.429220, -90.893453 32.430110, -90.893603 32.431000, -90.893752 32.431890, -90.893902 32.432780, -90.894051 32.433670, -90.894201 32.434560, -90.894351 32.435450, -90.894500 32.436340, -90.894650 32.437230, -90.894800 32.438121, -90.894949 32.439011, -90.895099 32.439901, -90.895249 32.440791, -90.895398 32.441681, -90.895548 32.442571, -90.895697 32.443461, -90.895847 32.444351, -90.895997 32.445241, -90.896146 32.446131, -90.896296 32.447022, -90.896446 32.447912, -90.896595 32.448802, -90.896745 32.449692, -90.896895 32.450582, -90.897044 32.451472, -90.897194 32.452362, -90.897344 32.453252, -90.897494 32.454142, -90.897643 32.455032, -90.897793 32.455922, -90.897943 32.456813, -90.898092 32.457703, -90.898242 32.458593, -90.898392 32.459483, -90.898541 32.460373, -90.898691 32.461263, -90.898841 32.462153, -90.898991 32.463043, -90.899140 32.463933, -90.899290 32.464823, -90.899440 32.465714, -90.899589 32.466604, -90.899739 32.467494, -90.899889 32.468384, -90.900039 32.469274, -90.900188 32.470164, -90.900338 32.471054, -90.900488 32.471944, -90.900638 32.472834, -90.900787 32.473724, -90.900937 32.474614, -90.901087 32.475505, -90.901237 32.476395, -90.901386 32.477285, -90.901536 32.478175, -90.901686 32.479065, -90.901836 32.479955, -90.901986 32.480845, -90.902135 32.481735, -90.902285 32.482625, -90.902435 32.483515, -90.902585 32.484405, -90.902735 32.485296, -90.902884 32.486186, -90.903034 32.487076, -90.903184 32.487966, -90.903334 32.488856, -90.903484 32.489746, -90.903633 32.490636, -90.903783 32.491526, -90.903933 32.492416, -90.904083 32.493306, -90.904233 32.494196, -90.904382 32.495086, -90.904532 32.495977, -90.904682 32.496867, -90.904832 32.497757, -90.904982 32.498647, -90.905132 32.499537, -90.905281 32.500427, -90.905431 32.501317, -90.905581 32.502207, -90.905731 32.503097, -90.905881 32.503987, -90.906031 32.504877, -90.906181 32.505768, -90.906330 32.506658, -90.906480 32.507548, -90.906630 32.508438, -90.906780 32.509328, -90.906930 32.510218, -90.907080 32.511108, -90.907230 32.511998, -90.907380 32.512888, -90.907529 32.513778, -90.907679 32.514668, -90.907829 32.515558, -90.907979 32.516449, -90.908129 32.517339, -90.908279 32.518229, -90.908429 32.519119, -90.908579 32.520009, -90.908729 32.520899, -90.908879 32.521789, -90.909028 32.522679, -90.909178 32.523569, -90.909328 32.524459, -90.909478 32.525349, -90.909628 32.526239, -90.909778 32.527129, -90.909928 32.528020, -90.910078 32.528910, -90.910228 32.529800, -90.910378 32.530690, -90.910528 32.531580, -90.910678 32.532470, -90.910828 32.533360, -90.910978 32.534250, -90.911128 32.535140, -90.911278 32.536030, -90.911428 32.536920, -90.911578 32.537810, -90.911727 32.538701, -90.911877 32.539591, -90.912027 32.540481, -90.912177 32.541371, -90.912327 32.542261, -90.912477 32.543151, -90.912627 32.544041, -90.912777 32.544931, -90.912927 32.545821, -90.913077 32.546711, -90.913227 32.547601, -90.913377 32.548491, -90.913527 32.549381, -90.913677 32.550272, -90.913827 32.551162, -90.913977 32.552052, -90.914127 32.552942, -90.914277 32.553832, -90.914427 32.554722, -90.914577 32.555612, -90.914728 32.556502, -90.914878 32.557392, -90.915028 32.558282, -90.915178 32.559172, -90.915328 32.560062, -90.915478 32.560952, -90.915628 32.561842, -90.915778 32.562733, -90.915928 32.563623, -90.916078 32.564513, -90.916228 32.565403, -90.916378 32.566293, -90.916528 32.567183, -90.916678 32.568073, -90.916828 32.568963, -90.916978 32.569853, -90.917128 32.570743, -90.917278 32.571633, -90.917429 32.572523, -90.917579 32.573413, -90.917729 32.574303, -90.917879 32.575194, -90.918029 32.576084, -90.918179 32.576974, -90.918329 32.577864, -90.918479 32.578754, -90.918629 32.579644, -90.918779 32.580534, -90.918930 32.581424, -90.919080 32.582314, -90.919230 32.583204, -90.919380 32.584094, -90.919530 32.584984, -90.919680 32.585874, -90.919830 32.586764, -90.919980 32.587655, -90.920131 32.588545, -90.920281 32.589435, -90.920431 32.590325, -90.920581 32.591215, -90.920731 32.592105, -90.920881 32.592995, -90.921031 32.593885, -90.921182 32.594775, -90.921332 32.595665, -90.921482 32.596555, -90.921632 32.597445, -90.921782 32.598335, -90.921932 32.599225, -90.922083 32.600115, -90.922233 32.601006, -90.922383 32.601896, -90.922533 32.602786, -90.922683 32.603676, -90.922834 32.604566, -90.922984 32.605456, -90.923134 32.606346, -90.923284 32.607236, -90.923434 32.608126, -90.923585 32.609016, -90.923735 32.609906, -90.923885 32.610796, -90.924035 32.611686, -90.924185 32.612576, -90.924336 32.613466, -90.924486 32.614356, -90.924636 32.615247, -90.924786 32.616137, -90.924937 32.617027, -90.925087 32.617917, -90.925237 32.618807, -90.925387 32.619697, -90.925537 32.620587, -90.925688 32.621477, -90.925838 32.622367, -90.925988 32.623257, -90.926138 32.624147, -90.926289 32.625037, -90.926439 32.625927, -90.926589 32.626817, -90.926740 32.627707, -90.926890 32.628597, -90.927040 32.629488, -90.927190 32.630378, -90.927341 32.631268, -90.927491 32.632158, -90.927641 32.633048, -90.927792 32.633938, -90.927942 32.634828, -90.928092 32.635718, -90.928242 32.636608, -90.928393 32.637498, -90.928543 32.638388, -90.928693 32.639278, -90.928844 32.640168, -90.928994 32.641058, -90.929144 32.641948, -90.929295 32.642838, -90.929445 32.643728, -90.929595 32.644619, -90.929746 32.645509, -90.929896 32.646399, -90.930046 32.647289, -90.930197 32.648179, -90.930347 32.649069, -90.930497 32.649959, -90.930648 32.650849, -90.930798 32.651739, -90.930948 32.652629, -90.931099 32.653519, -90.931249 32.654409, -90.931399 32.655299, -90.931550 32.656189, -90.931700 32.657079, -90.931850 32.657969, -90.932001 32.658859, -90.932151 32.659749, -90.932302 32.660640, -90.932452 32.661530, -90.932602 32.662420, -90.932753 32.663310, -90.932903 32.664200, -90.933054 32.665090, -90.933204 32.665980, -90.933354 32.666870, -90.933505 32.667760, -90.933655 32.668650, -90.933806 32.669540, -90.933956 32.670430, -90.934106 32.671320, -90.934257 32.672210, -90.934407 32.673100, -90.934558 32.673990, -90.934708 32.674880, -90.934858 32.675770, -90.935009 32.676660, -90.935159 32.677550, -90.935310 32.678441, -90.935460 32.679331, -90.935611 32.680221, -90.935761 32.681111, -90.935912 32.682001, -90.936062 32.682891, -90.936213 32.683781, -90.936363 32.684671, -90.936513 32.685561, -90.936664 32.686451, -90.936814 32.687341, -90.936965 32.688231, -90.937115 32.689121, -90.937266 32.690011, -90.937416 32.690901, -90.937567 32.691791, -90.937717 32.692681, -90.937868 32.693571, -90.938018 32.694461, -90.938169 32.695351, -90.938319 32.696242, -90.938470 32.697132, -90.938620 32.698022, -90.938771 32.698912, -90.938921 32.699802, -90.939072 32.700692, -90.939222 32.701582, -90.939373 32.702472, -90.939523 32.703362, -90.939674 32.704252, -90.939824 32.705142, -90.939975 32.706032, -90.940125 32.706922, -90.940276 32.707812, -90.940427 32.708702, -90.940577 32.709592, -90.940728 32.710482, -90.940878 32.711372, -90.941029 32.712262, -90.941179 32.713152, -90.941330 32.714042, -90.941480 32.714932, -90.941631 32.715822, -90.941782 32.716713, -90.941932 32.717603, -90.942083 32.718493, -90.942233 32.719383, -90.942384 32.720273, -90.942534 32.721163, -90.942685 32.722053, -90.942836 32.722943, -90.942986 32.723833, -90.943137 32.724723, -90.943287 32.725613, -90.943438 32.726503, -90.943589 32.727393, -90.943739 32.728283, -90.943890 32.729173, -90.944040 32.730063, -90.944191 32.730953, -90.944342 32.731843, -90.944492 32.732733, -90.944643 32.733623, -90.944794 32.734513, -90.944944 32.735403, -90.945095 32.736293, -90.945245 32.737183, -90.945396 32.738073, -90.945547 32.738964, -90.945697 32.739854, -90.945848 32.740744, -90.945999 32.741634, -90.946149 32.742524, -90.946300 32.743414, -90.946451 32.744304, -90.946601 32.745194, -90.946752 32.746084, -90.946903 32.746974, -90.947053 32.747864, -90.947204 32.748754, -90.947355 32.749644, -90.947505 32.750534, -90.947656 32.751424, -90.947807 32.752314, -90.947957 32.753204, -90.948108 32.754094, -90.948259 32.754984, -90.948409 32.755874, -90.948560 32.756764, -90.948711 32.757654, -90.948862 32.758544, -90.949012 32.759434, -90.949163 32.760324, -90.949314 32.761214, -90.949464 32.762104, -90.949615 32.762994, -90.949766 32.763885, -90.949917 32.764775, -90.950067 32.765665, -90.950218 32.766555, -90.950369 32.767445, -90.950520 32.768335, -90.950670 32.769225, -90.950821 32.770115, -90.950972 32.771005, -90.951123 32.771895, -90.951273 32.772785, -90.951424 32.773675, -90.951575 32.774565, -90.951726 32.775455, -90.951876 32.776345, -90.952027 32.777235, -90.952178 32.778125, -90.952329 32.779015, -90.952480 32.779905, -90.952630 32.780795, -90.952781 32.781685, -90.952932 32.782575, -90.953083 32.783465, -90.953234 32.784355, -90.953384 32.785245, -90.953535 32.786135, -90.953686 32.787025, -90.953837 32.787915, -90.953988 32.788805, -90.954138 32.789695, -90.954289 32.790585, -90.954440 32.791475, -90.954591 32.792365, -90.954742 32.793255, -90.954892 32.794146, -90.955043 32.795036, -90.955194 32.795926, -90.955345 32.796816, -90.955496 32.797706, -90.955647 32.798596, -90.955798 32.799486, -90.955948 32.800376, -90.956099 32.801266, -90.956250 32.802156, -90.956401 32.803046, -90.956552 32.803936, -90.956703 32.804826, -90.956854 32.805716, -90.957004 32.806606, -90.957155 32.807496, -90.957306 32.808386, -90.957457 32.809276, -90.957608 32.810166, -90.957759 32.811056, -90.957910 32.811946, -90.958061 32.812836, -90.958212 32.813726, -90.958362 32.814616, -90.958513 32.815506, -90.958664 32.816396, -90.958815 32.817286, -90.958966 32.818176, -90.959117 32.819066, -90.959268 32.819956, -90.959419 32.820846, -90.959570 32.821736, -90.959721 32.822626, -90.959872 32.823516, -90.960022 32.824406, -90.960173 32.825296, -90.960324 32.826186, -90.960475 32.827076, -90.960626 32.827966, -90.960777 32.828856, -90.960928 32.829746, -90.961079 32.830636, -90.961230 32.831526, -90.961381 32.832416, -90.961532 32.833307, -90.961683 32.834197, -90.961834 32.835087, -90.961985 32.835977, -90.962136 32.836867, -90.962287 32.837757, -90.962438 32.838647, -90.962589 32.839537, -90.962740 32.840427, -90.962891 32.841317, -90.963042 32.842207, -90.963193 32.843097, -90.963344 32.843987, -90.963495 32.844877, -90.963646 32.845767, -90.963797 32.846657, -90.963948 32.847547, -90.964099 32.848437, -90.964250 32.849327, -90.964401 32.850217, -90.964552 32.851107, -90.964703 32.851997, -90.964854 32.852887, -90.965005 32.853777, -90.965156 32.854667, -90.965307 32.855557, -90.965458 32.856447, -90.965609 32.857337, -90.965760 32.858227, -90.965911 32.859117, -90.966062 32.860007, -90.966213 32.860897, -90.966364 32.861787, -90.966515 32.862677, -90.966667 32.863567, -90.966818 32.864457, -90.966969 32.865347, -90.967120 32.866237, -90.967271 32.867127, -90.967422 32.868017, -90.967573 32.868907, -90.967724 32.869797, -90.967875 32.870687, -90.968026 32.871577, -90.968177 32.872467, -90.968328 32.873357, -90.968480 32.874247, -90.968631 32.875137, -90.968782 32.876027, -90.968933 32.876917, -90.969084 32.877807, -90.969235 32.878697, -90.969386 32.879587, -90.969537 32.880477, -90.969689 32.881367, -90.969840 32.882257, -90.969991 32.883147, -90.970142 32.884037, -90.970293 32.884927, -90.970444 32.885817, -90.970595 32.886707, -90.970746 32.887597, -90.970898 32.888487, -90.971049 32.889377, -90.971200 32.890267, -90.971351 32.891157, -90.971502 32.892047, -90.971653 32.892937, -90.971805 32.893827, -90.971956 32.894717, -90.972107 32.895607, -90.972258 32.896497, -90.972409 32.897387, -90.972560 32.898277, -90.972712 32.899167, -90.972863 32.900057, -90.973014 32.900947, -90.973165 32.901837, -90.973316 32.902727, -90.973468 32.903617, -90.973619 32.904507, -90.973770 32.905397, -90.973921 32.906287, -90.974073 32.907177, -90.974224 32.908067, -90.974375 32.908957, -90.974526 32.909847, -90.974677 32.910737, -90.974829 32.911627, -90.974980 32.912517, -90.975131 32.913407, -90.975282 32.914297, -90.975434 32.915187, -90.975585 32.916077, -90.975736 32.916967, -90.975887 32.917857, -90.976039 32.918747, -90.976190 32.919637, -90.976341 32.920527, -90.976492 32.921417, -90.976644 32.922307, -90.976795 32.923197, -90.976946 32.924087, -90.977097 32.924977, -90.977249 32.925867, -90.977400 32.926757, -90.977551 32.927647, -90.977703 32.928537, -90.977854 32.929427, -90.978005 32.930317, -90.978156 32.931207, -90.978308 32.932097, -90.978459 32.932987, -90.978610 32.933877, -90.978762 32.934767, -90.978913 32.935657, -90.979064 32.936547, -90.979216 32.937437, -90.979367 32.938327, -90.979518 32.939217, -90.979670 32.940107, -90.979821 32.940997, -90.979972 32.941887, -90.980124 32.942777, -90.980275 32.943667, -90.980426 32.944557, -90.980578 32.945447, -90.980729 32.946337, -90.980880 32.947227, -90.981032 32.948117, -90.981183 32.949007, -90.981334 32.949897, -90.981486 32.950787, -90.981637 32.951677, -90.981788 32.952567, -90.981940 32.953457, -90.982091 32.954347, -90.982243 32.955237, -90.982394 32.956127, -90.982545 32.957017, -90.982697 32.957907, -90.982848 32.958797, -90.983000 32.959687, -90.983151 32.960577, -90.983302 32.961467, -90.983454 32.962357, -90.983605 32.963247, -90.983757 32.964137, -90.983908 32.965027, -90.984059 32.965917, -90.984211 32.966807, -90.984362 32.967697, -90.984514 32.968587, -90.984665 32.969477, -90.984817 32.970367, -90.984968 32.971257, -90.985119 32.972147, -90.985271 32.973037, -90.985422 32.973927, -90.985574 32.974817, -90.985725 32.975707, -90.985877 32.976597, -90.986028 32.977487, -90.986180 32.978377, -90.986331 32.979267, -90.986482 32.980157, -90.986634 32.981047, -90.986785 32.981937, -90.986937 32.982827, -90.987088 32.983717, -90.987240 32.984607, -90.987391 32.985497, -90.987543 32.986387, -90.987694 32.987277, -90.987846 32.988167, -90.987997 32.989057, -90.988149 32.989947, -90.988300 32.990837, -90.988452 32.991727, -90.988603 32.992617, -90.988755 32.993507, -90.988906 32.994397, -90.989058 32.995287, -90.989209 32.996177, -90.989361 32.997067, -90.989512 32.997957, -90.989664 32.998847, -90.989815 32.999737, -90.989967 33.000627, -90.990119 33.001517, -90.990270 33.002407, -90.990422 33.003297, -90.990573 33.004187, -90.990725 33.005077, -90.990876 33.005967, -90.991028 33.006857, -90.991179 33.007747, -90.991331 33.008637, -90.991483 33.009527, -90.991634 33.010417, -90.991786 33.011307, -90.991937 33.012197, -90.992089 33.013087, -90.992240 33.013977, -90.992392 33.014866, -90.992544 33.015756, -90.992695 33.016646, -90.992847 33.017536, -90.992998 33.018426, -90.993150 33.019316, -90.993302 33.020206, -90.993453 33.021096, -90.993605 33.021986, -90.993756 33.022876, -90.993908 33.023766, -90.994060 33.024656, -90.994211 33.025546, -90.994363 33.026436, -90.994514 33.027326, -90.994666 33.028216, -90.994818 33.029106, -90.994969 33.029996, -90.995121 33.030886, -90.995273 33.031776, -90.995424 33.032666, -90.995576 33.033556, -90.995728 33.034446, -90.995879 33.035336, -90.996031 33.036226, -90.996183 33.037116, -90.996334 33.038006, -90.996486 33.038896, -90.996638 33.039786, -90.996789 33.040676, -90.996941 33.041566, -90.997093 33.042456, -90.997244 33.043346, -90.997396 33.044236, -90.997548 33.045126, -90.997699 33.046016, -90.997851 33.046906, -90.998003 33.047796, -90.998154 33.048686, -90.998306 33.049576, -90.998458 33.050466, -90.998610 33.051356, -90.998761 33.052246, -90.998913 33.053136, -90.999065 33.054025, -90.999216 33.054915, -90.999368 33.055805, -90.999520 33.056695, -90.999672 33.057585, -90.999823 33.058475, -90.999975 33.059365, -91.000127 33.060255, -91.000279 33.061145, -91.000430 33.062035, -91.000582 33.062925, -91.000734 33.063815, -91.000886 33.064705, -91.001037 33.065595, -91.001189 33.066485, -91.001341 33.067375, -91.001493 33.068265, -91.001644 33.069155, -91.001796 33.070045, -91.001948 33.070935, -91.002100 33.071825, -91.002252 33.072715, -91.002403 33.073605, -91.002555 33.074495, -91.002707 33.075385, -91.002859 33.076275, -91.003010 33.077165, -91.003162 33.078055, -91.003314 33.078945, -91.003466 33.079835, -91.003618 33.080725, -91.003770 33.081615, -91.003921 33.082505, -91.004073 33.083395, -91.004225 33.084284, -91.004377 33.085174, -91.004529 33.086064, -91.004680 33.086954, -91.004832 33.087844, -91.004984 33.088734, -91.005136 33.089624, -91.005288 33.090514, -91.005440 33.091404, -91.005592 33.092294, -91.005743 33.093184, -91.005895 33.094074, -91.006047 33.094964, -91.006199 33.095854, -91.006351 33.096744, -91.006503 33.097634, -91.006655 33.098524, -91.006806 33.099414, -91.006958 33.100304, -91.007110 33.101194, -91.007262 33.102084, -91.007414 33.102974, -91.007566 33.103864, -91.007718 33.104754, -91.007870 33.105644, -91.008022 33.106534, -91.008173 33.107424, -91.008325 33.108314, -91.008477 33.109203, -91.008629 33.110093, -91.008781 33.110983, -91.008933 33.111873, -91.009085 33.112763, -91.009237 33.113653, -91.009389 33.114543, -91.009541 33.115433, -91.009693 33.116323, -91.009845 33.117213, -91.009997 33.118103, -91.010148 33.118993, -91.010300 33.119883, -91.010452 33.120773, -91.010604 33.121663, -91.010756 33.122553, -91.010908 33.123443, -91.011060 33.124333, -91.011212 33.125223, -91.011364 33.126113, -91.011516 33.127003, -91.011668 33.127893, -91.011820 33.128783, -91.011972 33.129673, -91.012124 33.130563, -91.012276 33.131452, -91.012428 33.132342, -91.012580 33.133232, -91.012732 33.134122, -91.012884 33.135012, -91.013036 33.135902, -91.013188 33.136792, -91.013340 33.137682, -91.013492 33.138572, -91.013644 33.139462, -91.013796 33.140352, -91.013948 33.141242, -91.014100 33.142132, -91.014252 33.143022, -91.014404 33.143912, -91.014556 33.144802, -91.014708 33.145692, -91.014860 33.146582, -91.015012 33.147472, -91.015164 33.148362, -91.015316 33.149252, -91.015468 33.150142, -91.015620 33.151031, -91.015773 33.151921, -91.015925 33.152811, -91.016077 33.153701, -91.016229 33.154591, -91.016381 33.155481, -91.016533 33.156371, -91.016685 33.157261, -91.016837 33.158151, -91.016989 33.159041, -91.017141 33.159931, -91.017293 33.160821, -91.017445 33.161711, -91.017597 33.162601, -91.017750 33.163491, -91.017902 33.164381, -91.018054 33.165271, -91.018206 33.166161, -91.018358 33.167051, -91.018510 33.167941, -91.018662 33.168831, -91.018814 33.169720, -91.018966 33.170610, -91.019119 33.171500, -91.019271 33.172390, -91.019423 33.173280, -91.019575 33.174170, -91.019727 33.175060, -91.019879 33.175950, -91.020031 33.176840, -91.020184 33.177730, -91.020336 33.178620, -91.020488 33.179510, -91.020640 33.180400, -91.020792 33.181290, -91.020944 33.182180, -91.021096 33.183070, -91.021249 33.183960, -91.021401 33.184850, -91.021553 33.185740, -91.021705 33.186629, -91.021857 33.187519, -91.022010 33.188409, -91.022162 33.189299, -91.022314 33.190189, -91.022466 33.191079, -91.022618 33.191969, -91.022771 33.192859, -91.022923 33.193749, -91.023075 33.194639, -91.023227 33.195529, -91.023379 33.196419, -91.023532 33.197309, -91.023684 33.198199, -91.023836 33.199089, -91.023988 33.199979, -91.024140 33.200869, -91.024293 33.201759, -91.024445 33.202648, -91.024597 33.203538, -91.024749 33.204428, -91.024902 33.205318, -91.025054 33.206208, -91.025206 33.207098, -91.025358 33.207988, -91.025511 33.208878, -91.025663 33.209768, -91.025815 33.210658, -91.025967 33.211548, -91.026120 33.212438, -91.026272 33.213328, -91.026424 33.214218, -91.026577 33.215108, -91.026729 33.215998, -91.026881 33.216888, -91.027033 33.217777, -91.027186 33.218667, -91.027338 33.219557, -91.027490 33.220447, -91.027643 33.221337, -91.027795 33.222227, -91.027947 33.223117, -91.028099 33.224007, -91.028252 33.224897, -91.028404 33.225787, -91.028556 33.226677, -91.028709 33.227567, -91.028861 33.228457, -91.029013 33.229347, -91.029166 33.230237, -91.029318 33.231127, -91.029470 33.232016, -91.029623 33.232906, -91.029775 33.233796, -91.029927 33.234686, -91.030080 33.235576, -91.030232 33.236466, -91.030384 33.237356, -91.030537 33.238246, -91.030689 33.239136, -91.030842 33.240026, -91.030994 33.240916, -91.031146 33.241806, -91.031299 33.242696, -91.031451 33.243586, -91.031603 33.244476, -91.031756 33.245365, -91.031908 33.246255, -91.032061 33.247145, -91.032213 33.248035, -91.032365 33.248925, -91.032518 33.249815, -91.032670 33.250705, -91.032823 33.251595, -91.032975 33.252485, -91.033127 33.253375, -91.033280 33.254265, -91.033432 33.255155, -91.033585 33.256045, -91.033737 33.256935, -91.033889 33.257825, -91.034042 33.258714, -91.034194 33.259604, -91.034347 33.260494, -91.034499 33.261384, -91.034652 33.262274, -91.034804 33.263164, -91.034956 33.264054, -91.035109 33.264944, -91.035261 33.265834, -91.035414 33.266724, -91.035566 33.267614, -91.035719 33.268504, -91.035871 33.269394, -91.036024 33.270284, -91.036176 33.271173, -91.036329 33.272063, -91.036481 33.272953, -91.036634 33.273843, -91.036786 33.274733, -91.036939 33.275623, -91.037091 33.276513, -91.037244 33.277403, -91.037396 33.278293, -91.037549 33.279183, -91.037701 33.280073, -91.037854 33.280963, -91.038006 33.281853, -91.038159 33.282743, -91.038311 33.283632, -91.038464 33.284522, -91.038616 33.285412, -91.038769 33.286302, -91.038921 33.287192, -91.039074 33.288082, -91.039226 33.288972, -91.039379 33.289862, -91.039531 33.290752, -91.039684 33.291642, -91.039836 33.292532, -91.039989 33.293422, -91.040142 33.294312, -91.040294 33.295201, -91.040447 33.296091, -91.040599 33.296981, -91.040752 33.297871, -91.040904 33.298761, -91.041057 33.299651, -91.041210 33.300541, -91.041362 33.301431, -91.041515 33.302321, -91.041667 33.303211, -91.041820 33.304101, -91.041972 33.304991, -91.042125 33.305881, -91.042278 33.306770, -91.042430 33.307660, -91.042583 33.308550, -91.042735 33.309440, -91.042888 33.310330, -91.043041 33.311220, -91.043193 33.312110, -91.043346 33.313000, -91.043499 33.313890, -91.043651 33.314780, -91.043804 33.315670, -91.043956 33.316560, -91.044109 33.317449, -91.044262 33.318339, -91.044414 33.319229, -91.044567 33.320119, -91.044720 33.321009, -91.044872 33.321899, -91.045025 33.322789, -91.045178 33.323679, -91.045330 33.324569, -91.045483 33.325459, -91.045636 33.326349, -91.045788 33.327239, -91.045941 33.328128, -91.046094 33.329018, -91.046246 33.329908, -91.046399 33.330798, -91.046552 33.331688, -91.046704 33.332578, -91.046857 33.333468, -91.047010 33.334358, -91.047162 33.335248, -91.047315 33.336138, -91.047468 33.337028, -91.047620 33.337918, -91.047773 33.338807, -91.047926 33.339697, -91.048079 33.340587, -91.048231 33.341477, -91.048384 33.342367, -91.048537 33.343257, -91.048689 33.344147, -91.048842 33.345037, -91.048995 33.345927, -91.049148 33.346817, -91.049300 33.347707, -91.049453 33.348597, -91.049606 33.349486, -91.049759 33.350376, -91.049911 33.351266, -91.050064 33.352156, -91.050217 33.353046, -91.050370 33.353936, -91.050522 33.354826, -91.050675 33.355716, -91.050828 33.356606, -91.050981 33.357496, -91.051134 33.358386, -91.051286 33.359275, -91.051439 33.360165, -91.051592 33.361055, -91.051745 33.361945, -91.051897 33.362835, -91.052050 33.363725, -91.052203 33.364615, -91.052356 33.365505, -91.052509 33.366395, -91.052662 33.367285, -91.052814 33.368175, -91.052967 33.369064, -91.053120 33.369954, -91.053273 33.370844, -91.053426 33.371734, -91.053578 33.372624, -91.053731 33.373514, -91.053884 33.374404, -91.054037 33.375294, -91.054190 33.376184, -91.054343 33.377074, -91.054495 33.377964, -91.054648 33.378853, -91.054801 33.379743, -91.054954 33.380633, -91.055107 33.381523, -91.055260 33.382413, -91.055413 33.383303, -91.055565 33.384193, -91.055718 33.385083, -91.055871 33.385973, -91.056024 33.386863, -91.056177 33.387752, -91.056330 33.388642, -91.056483 33.389532, -91.056636 33.390422, -91.056789 33.391312, -91.056941 33.392202, -91.057094 33.393092, -91.057247 33.393982, -91.057400 33.394872, -91.057553 33.395762, -91.057706 33.396651, -91.057859 33.397541, -91.058012 33.398431, -91.058165 33.399321, -91.058318 33.400211, -91.058471 33.401101, -91.058623 33.401991, -91.058776 33.402881, -91.058929 33.403771, -91.059082 33.404661, -91.059235 33.405551, -91.059388 33.406440, -91.059541 33.407330, -91.059694 33.408220, -91.059847 33.409110, -91.060000 33.410000, -91.059648 33.410850, -91.059297 33.411700, -91.058945 33.412549, -91.058593 33.413399, -91.058241 33.414249, -91.057890 33.415099, -91.057538 33.415949, -91.057186 33.416798, -91.056835 33.417648, -91.056483 33.418498, -91.056131 33.419348, -91.055779 33.420198, -91.055427 33.421047, -91.055076 33.421897, -91.054724 33.422747, -91.054372 33.423597, -91.054020 33.424446, -91.053668 33.425296, -91.053317 33.426146, -91.052965 33.426996, -91.052613 33.427846, -91.052261 33.428695, -91.051909 33.429545, -91.051557 33.430395, -91.051206 33.431245, -91.050854 33.432094, -91.050502 33.432944, -91.050150 33.433794, -91.049798 33.434644, -91.049446 33.435493, -91.049094 33.436343, -91.048742 33.437193, -91.048391 33.438043, -91.048039 33.438893, -91.047687 33.439742, -91.047335 33.440592, -91.046983 33.441442, -91.046631 33.442292, -91.046279 33.443141, -91.045927 33.443991, -91.045575 33.444841, -91.045223 33.445691, -91.044871 33.446540, -91.044519 33.447390, -91.044167 33.448240, -91.043815 33.449090, -91.043463 33.449939, -91.043111 33.450789, -91.042759 33.451639, -91.042407 33.452489, -91.042055 33.453338, -91.041703 33.454188, -91.041351 33.455038, -91.040999 33.455888, -91.040647 33.456737, -91.040295 33.457587, -91.039943 33.458437, -91.039590 33.459287, -91.039238 33.460136, -91.038886 33.460986, -91.038534 33.461836, -91.038182 33.462686, -91.037830 33.463535, -91.037478 33.464385, -91.037126 33.465235, -91.036773 33.466084, -91.036421 33.466934, -91.036069 33.467784, -91.035717 33.468634, -91.035365 33.469483, -91.035013 33.470333, -91.034661 33.471183, -91.034308 33.472033, -91.033956 33.472882, -91.033604 33.473732, -91.033252 33.474582, -91.032899 33.475431, -91.032547 33.476281, -91.032195 33.477131, -91.031843 33.477981, -91.031491 33.478830, -91.031138 33.479680, -91.030786 33.480530, -91.030434 33.481380, -91.030082 33.482229, -91.029729 33.483079, -91.029377 33.483929, -91.029025 33.484778, -91.028672 33.485628, -91.028320 33.486478, -91.027968 33.487327, -91.027615 33.488177, -91.027263 33.489027, -91.026911 33.489877, -91.026558 33.490726, -91.026206 33.491576, -91.025854 33.492426, -91.025501 33.493275, -91.025149 33.494125, -91.024797 33.494975, -91.024444 33.495824, -91.024092 33.496674, -91.023739 33.497524, -91.023387 33.498374, -91.023035 33.499223, -91.022682 33.500073, -91.022330 33.500923, -91.021977 33.501772, -91.021625 33.502622, -91.021272 33.503472, -91.020920 33.504321, -91.020568 33.505171, -91.020215 33.506021, -91.019863 33.506870, -91.019510 33.507720, -91.019158 33.508570, -91.018805 33.509420, -91.018453 33.510269, -91.018100 33.511119, -91.017748 33.511969, -91.017395 33.512818, -91.017043 33.513668, -91.016690 33.514518, -91.016338 33.515367, -91.015985 33.516217, -91.015632 33.517067, -91.015280 33.517916, -91.014927 33.518766, -91.014575 33.519616, -91.014222 33.520465, -91.013870 33.521315, -91.013517 33.522165, -91.013164 33.523014, -91.012812 33.523864, -91.012459 33.524714, -91.012106 33.525563, -91.011754 33.526413, -91.011401 33.527263, -91.011049 33.528112, -91.010696 33.528962, -91.010343 33.529812, -91.009991 33.530661, -91.009638 33.531511, -91.009285 33.532361, -91.008933 33.533210, -91.008580 33.534060, -91.008227 33.534910, -91.007874 33.535759, -91.007522 33.536609, -91.007169 33.537458, -91.006816 33.538308, -91.006464 33.539158, -91.006111 33.540007, -91.005758 33.540857, -91.005405 33.541707, -91.005053 33.542556, -91.004700 33.543406, -91.004347 33.544256, -91.003994 33.545105, -91.003641 33.545955, -91.003289 33.546805, -91.002936 33.547654, -91.002583 33.548504, -91.002230 33.549353, -91.001877 33.550203, -91.001524 33.551053, -91.001172 33.551902, -91.000819 33.552752, -91.000466 33.553602, -91.000113 33.554451, -90.999760 33.555301, -90.999407 33.556150, -90.999054 33.557000, -90.998702 33.557850, -90.998349 33.558699, -90.997996 33.559549, -90.997643 33.560399, -90.997290 33.561248, -90.996937 33.562098, -90.996584 33.562947, -90.996231 33.563797, -90.995878 33.564647, -90.995525 33.565496, -90.995172 33.566346, -90.994819 33.567196, -90.994466 33.568045, -90.994113 33.568895, -90.993760 33.569744, -90.993407 33.570594, -90.993054 33.571444, -90.992701 33.572293, -90.992348 33.573143, -90.991995 33.573992, -90.991642 33.574842, -90.991289 33.575692, -90.990936 33.576541, -90.990583 33.577391, -90.990230 33.578240, -90.989877 33.579090, -90.989524 33.579940, -90.989171 33.580789, -90.988818 33.581639, -90.988465 33.582488, -90.988112 33.583338, -90.987759 33.584188, -90.987405 33.585037, -90.987052 33.585887, -90.986699 33.586736, -90.986346 33.587586, -90.985993 33.588436, -90.985640 33.589285, -90.985287 33.590135, -90.984934 33.590984, -90.984580 33.591834, -90.984227 33.592683, -90.983874 33.593533, -90.983521 33.594383, -90.983168 33.595232, -90.982814 33.596082, -90.982461 33.596931, -90.982108 33.597781, -90.981755 33.598631, -90.981402 33.599480, -90.981048 33.600330, -90.980695 33.601179, -90.980342 33.602029, -90.979989 33.602878, -90.979635 33.603728, -90.979282 33.604578, -90.978929 33.605427, -90.978575 33.606277, -90.978222 33.607126, -90.977869 33.607976, -90.977516 33.608825, -90.977162 33.609675, -90.976809 33.610525, -90.976456 33.611374, -90.976102 33.612224, -90.975749 33.613073, -90.975396 33.613923, -90.975042 33.614772, -90.974689 33.615622, -90.974335 33.616471, -90.973982 33.617321, -90.973629 33.618171, -90.973275 33.619020, -90.972922 33.619870, -90.972569 33.620719, -90.972215 33.621569, -90.971862 33.622418, -90.971508 33.623268, -90.971155 33.624117, -90.970801 33.624967, -90.970448 33.625816, -90.970095 33.626666, -90.969741 33.627516, -90.969388 33.628365, -90.969034 33.629215, -90.968681 33.630064, -90.968327 33.630914, -90.967974 33.631763, -90.967620 33.632613, -90.967267 33.633462, -90.966913 33.634312, -90.966560 33.635161, -90.966206 33.636011, -90.965853 33.636860, -90.965499 33.637710, -90.965145 33.638560, -90.964792 33.639409, -90.964438 33.640259, -90.964085 33.641108, -90.963731 33.641958, -90.963378 33.642807, -90.963024 33.643657, -90.962670 33.644506, -90.962317 33.645356, -90.961963 33.646205, -90.961610 33.647055, -90.961256 33.647904, -90.960902 33.648754, -90.960549 33.649603, -90.960195 33.650453, -90.959841 33.651302, -90.959488 33.652152, -90.959134 33.653001, -90.958780 33.653851, -90.958427 33.654700, -90.958073 33.655550, -90.957719 33.656399, -90.957366 33.657249, -90.957012 33.658098, -90.956658 33.658948, -90.956304 33.659797, -90.955951 33.660647, -90.955597 33.661496, -90.955243 33.662346, -90.954889 33.663195, -90.954536 33.664045, -90.954182 33.664894, -90.953828 33.665744, -90.953474 33.666593, -90.953121 33.667443, -90.952767 33.668292, -90.952413 33.669142, -90.952059 33.669991, -90.951705 33.670841, -90.951352 33.671690, -90.950998 33.672540, -90.950644 33.673389, -90.950290 33.674239, -90.949936 33.675088, -90.949582 33.675938, -90.949229 33.676787, -90.948875 33.677637, -90.948521 33.678486, -90.948167 33.679336, -90.947813 33.680185, -90.947459 33.681035, -90.947105 33.681884, -90.946751 33.682734, -90.946397 33.683583, -90.946043 33.684433, -90.945689 33.685282, -90.945336 33.686132, -90.944982 33.686981, -90.944628 33.687830, -90.944274 33.688680, -90.943920 33.689529, -90.943566 33.690379, -90.943212 33.691228, -90.942858 33.692078, -90.942504 33.692927, -90.942150 33.693777, -90.941796 33.694626, -90.941442 33.695476, -90.941088 33.696325, -90.940734 33.697175, -90.940380 33.698024, -90.940026 33.698874, -90.939672 33.699723, -90.939317 33.700572, -90.938963 33.701422, -90.938609 33.702271, -90.938255 33.703121, -90.937901 33.703970, -90.937547 33.704820, -90.937193 33.705669, -90.936839 33.706519, -90.936485 33.707368, -90.936131 33.708217, -90.935776 33.709067, -90.935422 33.709916, -90.935068 33.710766, -90.934714 33.711615, -90.934360 33.712465, -90.934006 33.713314, -90.933652 33.714164, -90.933297 33.715013, -90.932943 33.715862, -90.932589 33.716712, -90.932235 33.717561, -90.931881 33.718411, -90.931526 33.719260, -90.931172 33.720110, -90.930818 33.720959, -90.930464 33.721809, -90.930109 33.722658, -90.929755 33.723507, -90.929401 33.724357, -90.929047 33.725206, -90.928692 33.726056, -90.928338 33.726905, -90.927984 33.727754, -90.927630 33.728604, -90.927275 33.729453, -90.926921 33.730303, -90.926567 33.731152, -90.926212 33.732002, -90.925858 33.732851, -90.925504 33.733700, -90.925149 33.734550, -90.924795 33.735399, -90.924441 33.736249, -90.924086 33.737098, -90.923732 33.737947, -90.923378 33.738797, -90.923023 33.739646, -90.922669 33.740496, -90.922314 33.741345, -90.921960 33.742195, -90.921606 33.743044, -90.921251 33.743893, -90.920897 33.744743, -90.920542 33.745592, -90.920188 33.746442, -90.919833 33.747291, -90.919479 33.748140, -90.919124 33.748990, -90.918770 33.749839, -90.918416 33.750689, -90.918061 33.751538, -90.917707 33.752387, -90.917352 33.753237, -90.916998 33.754086, -90.916643 33.754936, -90.916289 33.755785, -90.915934 33.756634, -90.915579 33.757484, -90.915225 33.758333, -90.914870 33.759182, -90.914516 33.760032, -90.914161 33.760881, -90.913807 33.761731, -90.913452 33.762580, -90.913098 33.763429, -90.912743 33.764279, -90.912388 33.765128, -90.912034 33.765977, -90.911679 33.766827, -90.911325 33.767676, -90.910970 33.768526, -90.910615 33.769375, -90.910261 33.770224, -90.909906 33.771074, -90.909551 33.771923, -90.909197 33.772772, -90.908842 33.773622, -90.908487 33.774471, -90.908133 33.775321, -90.907778 33.776170, -90.907423 33.777019, -90.907069 33.777869, -90.906714 33.778718, -90.906359 33.779567, -90.906005 33.780417, -90.905650 33.781266, -90.905295 33.782115, -90.904940 33.782965, -90.904586 33.783814, -90.904231 33.784664, -90.903876 33.785513, -90.903521 33.786362, -90.903167 33.787212, -90.902812 33.788061, -90.902457 33.788910, -90.902102 33.789760, -90.901747 33.790609, -90.901393 33.791458, -90.901038 33.792308, -90.900683 33.793157, -90.900328 33.794006, -90.899973 33.794856, -90.899618 33.795705, -90.899264 33.796554, -90.898909 33.797404, -90.898554 33.798253, -90.898199 33.799102, -90.897844 33.799952, -90.897489 33.800801, -90.897134 33.801650, -90.896779 33.802500, -90.896424 33.803349, -90.896070 33.804198, -90.895715 33.805048, -90.895360 33.805897, -90.895005 33.806746, -90.894650 33.807596, -90.894295 33.808445, -90.893940 33.809294, -90.893585 33.810144, -90.893230 33.810993, -90.892875 33.811842, -90.892520 33.812692, -90.892165 33.813541, -90.891810 33.814390, -90.891455 33.815240, -90.891100 33.816089, -90.890745 33.816938, -90.890390 33.817788, -90.890035 33.818637, -90.889680 33.819486, -90.889325 33.820336, -90.888970 33.821185, -90.888615 33.822034, -90.888260 33.822884, -90.887905 33.823733, -90.887549 33.824582, -90.887194 33.825431, -90.886839 33.826281, -90.886484 33.827130, -90.886129 33.827979, -90.885774 33.828829, -90.885419 33.829678, -90.885064 33.830527, -90.884708 33.831377, -90.884353 33.832226, -90.883998 33.833075, -90.883643 33.833924, -90.883288 33.834774, -90.882933 33.835623, -90.882577 33.836472, -90.882222 33.837322, -90.881867 33.838171, -90.881512 33.839020, -90.881157 33.839869, -90.880801 33.840719, -90.880446 33.841568, -90.880091 33.842417, -90.879736 33.843267, -90.879380 33.844116, -90.879025 33.844965, -90.878670 33.845814, -90.878315 33.846664, -90.877959 33.847513, -90.877604 33.848362, -90.877249 33.849212, -90.876894 33.850061, -90.876538 33.850910, -90.876183 33.851759, -90.875828 33.852609, -90.875472 33.853458, -90.875117 33.854307, -90.874762 33.855157, -90.874406 33.856006, -90.874051 33.856855, -90.873696 33.857704, -90.873340 33.858554, -90.872985 33.859403, -90.872629 33.860252, -90.872274 33.861101, -90.871919 33.861951, -90.871563 33.862800, -90.871208 33.863649, -90.870852 33.864498, -90.870497 33.865348, -90.870142 33.866197, -90.869786 33.867046, -90.869431 33.867895, -90.869075 33.868745, -90.868720 33.869594, -90.868364 33.870443, -90.868009 33.871292, -90.867653 33.872142, -90.867298 33.872991, -90.866942 33.873840, -90.866587 33.874689, -90.866231 33.875539, -90.865876 33.876388, -90.865520 33.877237, -90.865165 33.878086, -90.864809 33.878936, -90.864454 33.879785, -90.864098 33.880634, -90.863743 33.881483, -90.863387 33.882333, -90.863031 33.883182, -90.862676 33.884031, -90.862320 33.884880, -90.861965 33.885730, -90.861609 33.886579, -90.861253 33.887428, -90.860898 33.888277, -90.860542 33.889127, -90.860187 33.889976, -90.859831 33.890825, -90.859475 33.891674, -90.859120 33.892523, -90.858764 33.893373, -90.858408 33.894222, -90.858053 33.895071, -90.857697 33.895920, -90.857341 33.896770, -90.856986 33.897619, -90.856630 33.898468, -90.856274 33.899317, -90.855918 33.900166, -90.855563 33.901016, -90.855207 33.901865, -90.854851 33.902714, -90.854496 33.903563, -90.854140 33.904413, -90.853784 33.905262, -90.853428 33.906111, -90.853073 33.906960, -90.852717 33.907809, -90.852361 33.908659, -90.852005 33.909508, -90.851649 33.910357, -90.851294 33.911206, -90.850938 33.912055, -90.850582 33.912905, -90.850226 33.913754, -90.849870 33.914603, -90.849514 33.915452, -90.849159 33.916301, -90.848803 33.917151, -90.848447 33.918000, -90.848091 33.918849, -90.847735 33.919698, -90.847379 33.920547, -90.847023 33.921397, -90.846667 33.922246, -90.846312 33.923095, -90.845956 33.923944, -90.845600 33.924793, -90.845244 33.925642, -90.844888 33.926492, -90.844532 33.927341, -90.844176 33.928190, -90.843820 33.929039, -90.843464 33.929888, -90.843108 33.930738, -90.842752 33.931587, -90.842396 33.932436, -90.842040 33.933285, -90.841684 33.934134, -90.841328 33.934983, -90.840972 33.935833, -90.840616 33.936682, -90.840260 33.937531, -90.839904 33.938380, -90.839548 33.939229, -90.839192 33.940078, -90.838836 33.940928, -90.838480 33.941777, -90.838124 33.942626, -90.837768 33.943475, -90.837412 33.944324, -90.837055 33.945173, -90.836699 33.946023, -90.836343 33.946872, -90.835987 33.947721, -90.835631 33.948570, -90.835275 33.949419, -90.834919 33.950268, -90.834563 33.951118, -90.834206 33.951967, -90.833850 33.952816, -90.833494 33.953665, -90.833138 33.954514, -90.832782 33.955363, -90.832426 33.956212, -90.832069 33.957062, -90.831713 33.957911, -90.831357 33.958760, -90.831001 33.959609, -90.830645 33.960458, -90.830288 33.961307, -90.829932 33.962157, -90.829576 33.963006, -90.829220 33.963855, -90.828863 33.964704, -90.828507 33.965553, -90.828151 33.966402, -90.827795 33.967251, -90.827438 33.968100, -90.827082 33.968950, -90.826726 33.969799, -90.826369 33.970648, -90.826013 33.971497, -90.825657 33.972346, -90.825300 33.973195, -90.824944 33.974044, -90.824588 33.974894, -90.824231 33.975743, -90.823875 33.976592, -90.823519 33.977441, -90.823162 33.978290, -90.822806 33.979139, -90.822450 33.979988, -90.822093 33.980837, -90.821737 33.981687, -90.821380 33.982536, -90.821024 33.983385, -90.820668 33.984234, -90.820311 33.985083, -90.819955 33.985932, -90.819598 33.986781, -90.819242 33.987630, -90.818885 33.988479, -90.818529 33.989329, -90.818172 33.990178, -90.817816 33.991027, -90.817459 33.991876, -90.817103 33.992725, -90.816746 33.993574, -90.816390 33.994423, -90.816033 33.995272, -90.815677 33.996121, -90.815320 33.996970, -90.814964 33.997820, -90.814607 33.998669, -90.814251 33.999518, -90.813894 34.000367, -90.813538 34.001216, -90.813181 34.002065, -90.812825 34.002914, -90.812468 34.003763, -90.812111 34.004612, -90.811755 34.005461, -90.811398 34.006310, -90.811042 34.007160, -90.810685 34.008009, -90.810328 34.008858, -90.809972 34.009707, -90.809615 34.010556, -90.809258 34.011405, -90.808902 34.012254, -90.808545 34.013103, -90.808188 34.013952, -90.807832 34.014801, -90.807475 34.015650, -90.807118 34.016499, -90.806762 34.017349, -90.806405 34.018198, -90.806048 34.019047, -90.805692 34.019896, -90.805335 34.020745, -90.804978 34.021594, -90.804621 34.022443, -90.804265 34.023292, -90.803908 34.024141, -90.803551 34.024990, -90.803194 34.025839, -90.802838 34.026688, -90.802481 34.027537, -90.802124 34.028386, -90.801767 34.029236, -90.801410 34.030085, -90.801054 34.030934, -90.800697 34.031783, -90.800340 34.032632, -90.799983 34.033481, -90.799626 34.034330, -90.799269 34.035179, -90.798913 34.036028, -90.798556 34.036877, -90.798199 34.037726, -90.797842 34.038575, -90.797485 34.039424, -90.797128 34.040273, -90.796771 34.041122, -90.796414 34.041971, -90.796057 34.042820, -90.795701 34.043669, -90.795344 34.044518, -90.794987 34.045367, -90.794630 34.046217, -90.794273 34.047066, -90.793916 34.047915, -90.793559 34.048764, -90.793202 34.049613, -90.792845 34.050462, -90.792488 34.051311, -90.792131 34.052160, -90.791774 34.053009, -90.791417 34.053858, -90.791060 34.054707, -90.790703 34.055556, -90.790346 34.056405, -90.789989 34.057254, -90.789632 34.058103, -90.789275 34.058952, -90.788918 34.059801, -90.788561 34.060650, -90.788204 34.061499, -90.787847 34.062348, -90.787489 34.063197, -90.787132 34.064046, -90.786775 34.064895, -90.786418 34.065744, -90.786061 34.066593, -90.785704 34.067442, -90.785347 34.068291, -90.784990 34.069140, -90.784633 34.069989, -90.784275 34.070838, -90.783918 34.071687, -90.783561 34.072536, -90.783204 34.073385, -90.782847 34.074234, -90.782490 34.075083, -90.782132 34.075932, -90.781775 34.076781, -90.781418 34.077630, -90.781061 34.078479, -90.780704 34.079328, -90.780346 34.080177, -90.779989 34.081026, -90.779632 34.081875, -90.779275 34.082724, -90.778917 34.083573, -90.778560 34.084422, -90.778203 34.085271, -90.777846 34.086120, -90.777488 34.086969, -90.777131 34.087818, -90.776774 34.088667, -90.776416 34.089516, -90.776059 34.090365, -90.775702 34.091214, -90.775344 34.092063, -90.774987 34.092912, -90.774630 34.093761, -90.774272 34.094610, -90.773915 34.095459, -90.773558 34.096308, -90.773200 34.097157, -90.772843 34.098006, -90.772486 34.098855, -90.772128 34.099704, -90.771771 34.100553, -90.771413 34.101402, -90.771056 34.102251, -90.770699 34.103100, -90.770341 34.103949, -90.769984 34.104798, -90.769626 34.105647, -90.769269 34.106496, -90.768911 34.107345, -90.768554 34.108194, -90.768196 34.109043, -90.767839 34.109892, -90.767481 34.110741, -90.767124 34.111590, -90.766766 34.112438, -90.766409 34.113287, -90.766051 34.114136, -90.765694 34.114985, -90.765336 34.115834, -90.764979 34.116683, -90.764621 34.117532, -90.764264 34.118381, -90.763906 34.119230, -90.763549 34.120079, -90.763191 34.120928, -90.762834 34.121777, -90.762476 34.122626, -90.762118 34.123475, -90.761761 34.124324, -90.761403 34.125173, -90.761046 34.126022, -90.760688 34.126871, -90.760330 34.127720, -90.759973 34.128569, -90.759615 34.129417, -90.759257 34.130266, -90.758900 34.131115, -90.758542 34.131964, -90.758184 34.132813, -90.757827 34.133662, -90.757469 34.134511, -90.757111 34.135360, -90.756754 34.136209, -90.756396 34.137058, -90.756038 34.137907, -90.755680 34.138756, -90.755323 34.139605, -90.754965 34.140454, -90.754607 34.141302, -90.754250 34.142151, -90.753892 34.143000, -90.753534 34.143849, -90.753176 34.144698, -90.752818 34.145547, -90.752461 34.146396, -90.752103 34.147245, -90.751745 34.148094, -90.751387 34.148943, -90.751029 34.149792, -90.750672 34.150641, -90.750314 34.151490, -90.749956 34.152338, -90.749598 34.153187, -90.749240 34.154036, -90.748882 34.154885, -90.748525 34.155734, -90.748167 34.156583, -90.747809 34.157432, -90.747451 34.158281, -90.747093 34.159130, -90.746735 34.159979, -90.746377 34.160827, -90.746019 34.161676, -90.745661 34.162525, -90.745303 34.163374, -90.744946 34.164223, -90.744588 34.165072, -90.744230 34.165921, -90.743872 34.166770, -90.743514 34.167619, -90.743156 34.168468, -90.742798 34.169316, -90.742440 34.170165, -90.742082 34.171014, -90.741724 34.171863, -90.741366 34.172712, -90.741008 34.173561, -90.740650 34.174410, -90.740292 34.175259, -90.739934 34.176108, -90.739576 34.176956, -90.739218 34.177805, -90.738860 34.178654, -90.738501 34.179503, -90.738143 34.180352, -90.737785 34.181201, -90.737427 34.182050, -90.737069 34.182899, -90.736711 34.183747, -90.736353 34.184596, -90.735995 34.185445, -90.735637 34.186294, -90.735279 34.187143, -90.734920 34.187992, -90.734562 34.188841, -90.734204 34.189689, -90.733846 34.190538, -90.733488 34.191387, -90.733130 34.192236, -90.732771 34.193085, -90.732413 34.193934, -90.732055 34.194783, -90.731697 34.195632, -90.731339 34.196480, -90.730980 34.197329, -90.730622 34.198178, -90.730264 34.199027, -90.729906 34.199876, -90.729547 34.200725, -90.729189 34.201573, -90.728831 34.202422, -90.728473 34.203271, -90.728114 34.204120, -90.727756 34.204969, -90.727398 34.205818, -90.727040 34.206667, -90.726681 34.207515, -90.726323 34.208364, -90.725965 34.209213, -90.725606 34.210062, -90.725248 34.210911, -90.724890 34.211760, -90.724531 34.212608, -90.724173 34.213457, -90.723815 34.214306, -90.723456 34.215155, -90.723098 34.216004, -90.722739 34.216853, -90.722381 34.217701, -90.722023 34.218550, -90.721664 34.219399, -90.721306 34.220248, -90.720947 34.221097, -90.720589 34.221946, -90.720231 34.222794, -90.719872 34.223643, -90.719514 34.224492, -90.719155 34.225341, -90.718797 34.226190, -90.718438 34.227039, -90.718080 34.227887, -90.717721 34.228736, -90.717363 34.229585, -90.717004 34.230434, -90.716646 34.231283, -90.716287 34.232131, -90.715929 34.232980, -90.715570 34.233829, -90.715212 34.234678, -90.714853 34.235527, -90.714495 34.236375, -90.714136 34.237224, -90.713777 34.238073, -90.713419 34.238922, -90.713060 34.239771, -90.712702 34.240619, -90.712343 34.241468, -90.711985 34.242317, -90.711626 34.243166, -90.711267 34.244015, -90.710909 34.244863, -90.710550 34.245712, -90.710191 34.246561, -90.709833 34.247410, -90.709474 34.248259, -90.709116 34.249107, -90.708757 34.249956, -90.708398 34.250805, -90.708039 34.251654, -90.707681 34.252503, -90.707322 34.253351, -90.706963 34.254200, -90.706605 34.255049, -90.706246 34.255898, -90.705887 34.256747, -90.705529 34.257595, -90.705170 34.258444, -90.704811 34.259293, -90.704452 34.260142, -90.704094 34.260990, -90.703735 34.261839, -90.703376 34.262688, -90.703017 34.263537, -90.702658 34.264386, -90.702300 34.265234, -90.701941 34.266083, -90.701582 34.266932, -90.701223 34.267781, -90.700864 34.268629, -90.700506 34.269478, -90.700147 34.270327, -90.699788 34.271176, -90.699429 34.272024, -90.699070 34.272873, -90.698711 34.273722, -90.698352 34.274571, -90.697994 34.275420, -90.697635 34.276268, -90.697276 34.277117, -90.696917 34.277966, -90.696558 34.278815, -90.696199 34.279663, -90.695840 34.280512, -90.695481 34.281361, -90.695122 34.282210, -90.694763 34.283058, -90.694404 34.283907, -90.694045 34.284756, -90.693686 34.285605, -90.693327 34.286453, -90.692968 34.287302, -90.692609 34.288151, -90.692250 34.289000, -90.691891 34.289848, -90.691532 34.290697, -90.691173 34.291546, -90.690814 34.292394, -90.690455 34.293243, -90.690096 34.294092, -90.689737 34.294941, -90.689378 34.295789, -90.689019 34.296638, -90.688660 34.297487, -90.688301 34.298336, -90.687942 34.299184, -90.687583 34.300033, -90.687224 34.300882, -90.686865 34.301731, -90.686505 34.302579, -90.686146 34.303428, -90.685787 34.304277, -90.685428 34.305125, -90.685069 34.305974, -90.684710 34.306823, -90.684351 34.307672, -90.683991 34.308520, -90.683632 34.309369, -90.683273 34.310218, -90.682914 34.311066, -90.682555 34.311915, -90.682196 34.312764, -90.681836 34.313613, -90.681477 34.314461, -90.681118 34.315310, -90.680759 34.316159, -90.680399 34.317007, -90.680040 34.317856, -90.679681 34.318705, -90.679322 34.319554, -90.678962 34.320402, -90.678603 34.321251, -90.678244 34.322100, -90.677885 34.322948, -90.677525 34.323797, -90.677166 34.324646, -90.676807 34.325494, -90.676447 34.326343, -90.676088 34.327192, -90.675729 34.328041, -90.675369 34.328889, -90.675010 34.329738, -90.674651 34.330587, -90.674291 34.331435, -90.673932 34.332284, -90.673573 34.333133, -90.673213 34.333981, -90.672854 34.334830, -90.672494 34.335679, -90.672135 34.336527, -90.671776 34.337376, -90.671416 34.338225, -90.671057 34.339074, -90.670697 34.339922, -90.670338 34.340771, -90.669978 34.341620, -90.669619 34.342468, -90.669259 34.343317, -90.668900 34.344166, -90.668540 34.345014, -90.668181 34.345863, -90.667822 34.346712, -90.667462 34.347560, -90.667102 34.348409, -90.666743 34.349258, -90.666383 34.350106, -90.666024 34.350955, -90.665664 34.351804, -90.665305 34.352652, -90.664945 34.353501, -90.664586 34.354350, -90.664226 34.355198, -90.663867 34.356047, -90.663507 34.356896, -90.663147 34.357744, -90.662788 34.358593, -90.662428 34.359442, -90.662069 34.360290, -90.661709 34.361139, -90.661349 34.361988, -90.660990 34.362836, -90.660630 34.363685, -90.660270 34.364533, -90.659911 34.365382, -90.659551 34.366231, -90.659192 34.367079, -90.658832 34.367928, -90.658472 34.368777, -90.658112 34.369625, -90.657753 34.370474, -90.657393 34.371323, -90.657033 34.372171, -90.656674 34.373020, -90.656314 34.373869, -90.655954 34.374717, -90.655594 34.375566, -90.655235 34.376414, -90.654875 34.377263, -90.654515 34.378112, -90.654155 34.378960, -90.653796 34.379809, -90.653436 34.380658, -90.653076 34.381506, -90.652716 34.382355, -90.652356 34.383203, -90.651997 34.384052, -90.651637 34.384901, -90.651277 34.385749, -90.650917 34.386598, -90.650557 34.387447, -90.650197 34.388295, -90.649838 34.389144, -90.649478 34.389992, -90.649118 34.390841, -90.648758 34.391690, -90.648398 34.392538, -90.648038 34.393387, -90.647678 34.394236, -90.647318 34.395084, -90.646958 34.395933, -90.646599 34.396781, -90.646239 34.397630, -90.645879 34.398479, -90.645519 34.399327, -90.645159 34.400176, -90.644799 34.401024, -90.644439 34.401873, -90.644079 34.402722, -90.643719 34.403570, -90.643359 34.404419, -90.642999 34.405267, -90.642639 34.406116, -90.642279 34.406965, -90.641919 34.407813, -90.641559 34.408662, -90.641199 34.409510, -90.640839 34.410359, -90.640479 34.411208, -90.640119 34.412056, -90.639759 34.412905, -90.639399 34.413753, -90.639039 34.414602, -90.638678 34.415451, -90.638318 34.416299, -90.637958 34.417148, -90.637598 34.417996, -90.637238 34.418845, -90.636878 34.419693, -90.636518 34.420542, -90.636158 34.421391, -90.635798 34.422239, -90.635437 34.423088, -90.635077 34.423936, -90.634717 34.424785, -90.634357 34.425633, -90.633997 34.426482, -90.633637 34.427331, -90.633276 34.428179, -90.632916 34.429028, -90.632556 34.429876, -90.632196 34.430725, -90.631835 34.431573, -90.631475 34.432422, -90.631115 34.433271, -90.630755 34.434119, -90.630395 34.434968, -90.630034 34.435816, -90.629674 34.436665, -90.629314 34.437513, -90.628953 34.438362, -90.628593 34.439211, -90.628233 34.440059, -90.627873 34.440908, -90.627512 34.441756, -90.627152 34.442605, -90.626792 34.443453, -90.626431 34.444302, -90.626071 34.445150, -90.625711 34.445999, -90.625350 34.446847, -90.624990 34.447696, -90.624629 34.448545, -90.624269 34.449393, -90.623909 34.450242, -90.623548 34.451090, -90.623188 34.451939, -90.622828 34.452787, -90.622467 34.453636, -90.622107 34.454484, -90.621746 34.455333, -90.621386 34.456181, -90.621025 34.457030, -90.620665 34.457879, -90.620305 34.458727, -90.619944 34.459576, -90.619584 34.460424, -90.619223 34.461273, -90.618863 34.462121, -90.618502 34.462970, -90.618142 34.463818, -90.617781 34.464667, -90.617421 34.465515, -90.617060 34.466364, -90.616700 34.467212, -90.616339 34.468061, -90.615978 34.468909, -90.615618 34.469758, -90.615257 34.470606, -90.614897 34.471455, -90.614536 34.472303, -90.614176 34.473152, -90.613815 34.474000, -90.613454 34.474849, -90.613094 34.475697, -90.612733 34.476546, -90.612373 34.477394, -90.612012 34.478243, -90.611651 34.479092, -90.611291 34.479940, -90.610930 34.480789, -90.610569 34.481637, -90.610209 34.482486, -90.609848 34.483334, -90.609487 34.484183, -90.609127 34.485031, -90.608766 34.485880, -90.608405 34.486728, -90.608045 34.487577, -90.607684 34.488425, -90.607323 34.489274, -90.606962 34.490122, -90.606602 34.490970, -90.606241 34.491819, -90.605880 34.492667, -90.605519 34.493516, -90.605159 34.494364, -90.604798 34.495213, -90.604437 34.496061, -90.604076 34.496910, -90.603716 34.497758, -90.603355 34.498607, -90.602994 34.499455, -90.602633 34.500304, -90.602272 34.501152, -90.601912 34.502001, -90.601551 34.502849, -90.601190 34.503698, -90.600829 34.504546, -90.600468 34.505395, -90.600107 34.506243, -90.599746 34.507092, -90.599386 34.507940, -90.599025 34.508789, -90.598664 34.509637, -90.598303 34.510486, -90.597942 34.511334, -90.597581 34.512182, -90.597220 34.513031, -90.596859 34.513879, -90.596498 34.514728, -90.596137 34.515576, -90.595776 34.516425, -90.595415 34.517273, -90.595054 34.518122, -90.594693 34.518970, -90.594332 34.519819, -90.593971 34.520667, -90.593610 34.521516, -90.593249 34.522364, -90.592888 34.523212, -90.592527 34.524061, -90.592166 34.524909, -90.591805 34.525758, -90.591444 34.526606, -90.591083 34.527455, -90.590722 34.528303, -90.590361 34.529152, -90.590000 34.530000, -90.589368 34.530733, -90.588736 34.531465, -90.588104 34.532198, -90.587472 34.532930, -90.586840 34.533663, -90.586208 34.534395, -90.585576 34.535128, -90.584943 34.535860, -90.584311 34.536593, -90.583679 34.537325, -90.583047 34.538058, -90.582415 34.538790, -90.581783 34.539523, -90.581151 34.540255, -90.580518 34.540988, -90.579886 34.541720, -90.579254 34.542453, -90.578622 34.543185, -90.577990 34.543917, -90.577357 34.544650, -90.576725 34.545382, -90.576093 34.546115, -90.575461 34.546847, -90.574828 34.547580, -90.574196 34.548312, -90.573564 34.549045, -90.572931 34.549777, -90.572299 34.550510, -90.571667 34.551242, -90.571034 34.551974, -90.570402 34.552707, -90.569770 34.553439, -90.569137 34.554172, -90.568505 34.554904, -90.567872 34.555637, -90.567240 34.556369, -90.566608 34.557101, -90.565975 34.557834, -90.565343 34.558566, -90.564710 34.559299, -90.564078 34.560031, -90.563445 34.560763, -90.562813 34.561496, -90.562180 34.562228, -90.561548 34.562961, -90.560915 34.563693, -90.560283 34.564425, -90.559650 34.565158, -90.559017 34.565890, -90.558385 34.566622, -90.557752 34.567355, -90.557120 34.568087, -90.556487 34.568820, -90.555855 34.569552, -90.555222 34.570284, -90.554589 34.571017, -90.553957 34.571749, -90.553324 34.572481, -90.552691 34.573214, -90.552059 34.573946, -90.551426 34.574678, -90.550793 34.575411, -90.550160 34.576143, -90.549528 34.576875, -90.548895 34.577608, -90.548262 34.578340, -90.547629 34.579072, -90.546997 34.579805, -90.546364 34.580537, -90.545731 34.581269, -90.545098 34.582001, -90.544465 34.582734, -90.543833 34.583466, -90.543200 34.584198, -90.542567 34.584931, -90.541934 34.585663, -90.541301 34.586395, -90.540668 34.587127, -90.540035 34.587860, -90.539403 34.588592, -90.538770 34.589324, -90.538137 34.590057, -90.537504 34.590789, -90.536871 34.591521, -90.536238 34.592253, -90.535605 34.592986, -90.534972 34.593718, -90.534339 34.594450, -90.533706 34.595182, -90.533073 34.595915, -90.532440 34.596647, -90.531807 34.597379, -90.531174 34.598111, -90.530541 34.598843, -90.529908 34.599576, -90.529274 34.600308, -90.528641 34.601040, -90.528008 34.601772, -90.527375 34.602505, -90.526742 34.603237, -90.526109 34.603969, -90.525476 34.604701, -90.524843 34.605433, -90.524209 34.606166, -90.523576 34.606898, -90.522943 34.607630, -90.522310 34.608362, -90.521677 34.609094, -90.521043 34.609826, -90.520410 34.610559, -90.519777 34.611291, -90.519144 34.612023, -90.518510 34.612755, -90.517877 34.613487, -90.517244 34.614219, -90.516610 34.614952, -90.515977 34.615684, -90.515344 34.616416, -90.514710 34.617148, -90.514077 34.617880, -90.513444 34.618612, -90.512810 34.619344, -90.512177 34.620077, -90.511543 34.620809, -90.510910 34.621541, -90.510277 34.622273, -90.509643 34.623005, -90.509010 34.623737, -90.508376 34.624469, -90.507743 34.625201, -90.507109 34.625933, -90.506476 34.626666, -90.505842 34.627398, -90.505209 34.628130, -90.504575 34.628862, -90.503942 34.629594, -90.503308 34.630326, -90.502675 34.631058, -90.502041 34.631790, -90.501408 34.632522, -90.500774 34.633254, -90.500140 34.633986, -90.499507 34.634718, -90.498873 34.635451, -90.498239 34.636183, -90.497606 34.636915, -90.496972 34.637647, -90.496339 34.638379, -90.495705 34.639111, -90.495071 34.639843, -90.494437 34.640575, -90.493804 34.641307, -90.493170 34.642039, -90.492536 34.642771, -90.491903 34.643503, -90.491269 34.644235, -90.490635 34.644967, -90.490001 34.645699, -90.489367 34.646431, -90.488734 34.647163, -90.488100 34.647895, -90.487466 34.648627, -90.486832 34.649359, -90.486198 34.650091, -90.485564 34.650823, -90.484931 34.651555, -90.484297 34.652287, -90.483663 34.653019, -90.483029 34.653751, -90.482395 34.654483, -90.481761 34.655215, -90.481127 34.655947, -90.480493 34.656679, -90.479859 34.657411, -90.479225 34.658143, -90.478591 34.658875, -90.477957 34.659607, -90.477323 34.660339, -90.476689 34.661071, -90.476055 34.661803, -90.475421 34.662534, -90.474787 34.663266, -90.474153 34.663998, -90.473519 34.664730, -90.472885 34.665462, -90.472251 34.666194, -90.471617 34.666926, -90.470983 34.667658, -90.470348 34.668390, -90.469714 34.669122, -90.469080 34.669854, -90.468446 34.670586, -90.467812 34.671318, -90.467178 34.672049, -90.466543 34.672781, -90.465909 34.673513, -90.465275 34.674245, -90.464641 34.674977, -90.464007 34.675709, -90.463372 34.676441, -90.462738 34.677173, -90.462104 34.677904, -90.461470 34.678636, -90.460835 34.679368, -90.460201 34.680100, -90.459567 34.680832, -90.458932 34.681564, -90.458298 34.682296, -90.457664 34.683027, -90.457029 34.683759, -90.456395 34.684491, -90.455760 34.685223, -90.455126 34.685955, -90.454492 34.686687, -90.453857 34.687419, -90.453223 34.688150, -90.452588 34.688882, -90.451954 34.689614, -90.451319 34.690346, -90.450685 34.691078, -90.450050 34.691809, -90.449416 34.692541, -90.448781 34.693273, -90.448147 34.694005, -90.447512 34.694737, -90.446878 34.695468, -90.446243 34.696200, -90.445609 34.696932, -90.444974 34.697664, -90.444340 34.698396, -90.443705 34.699127, -90.443070 34.699859, -90.442436 34.700591, -90.441801 34.701323, -90.441166 34.702054, -90.440532 34.702786, -90.439897 34.703518, -90.439263 34.704250, -90.438628 34.704981, -90.437993 34.705713, -90.437358 34.706445, -90.436724 34.707177, -90.436089 34.707908, -90.435454 34.708640, -90.434819 34.709372, -90.434185 34.710104, -90.433550 34.710835, -90.432915 34.711567, -90.432280 34.712299, -90.431646 34.713030, -90.431011 34.713762, -90.430376 34.714494, -90.429741 34.715226, -90.429106 34.715957, -90.428471 34.716689, -90.427836 34.717421, -90.427202 34.718152, -90.426567 34.718884, -90.425932 34.719616, -90.425297 34.720347, -90.424662 34.721079, -90.424027 34.721811, -90.423392 34.722542, -90.422757 34.723274, -90.422122 34.724006, -90.421487 34.724737, -90.420852 34.725469, -90.420217 34.726201, -90.419582 34.726932, -90.418947 34.727664, -90.418312 34.728396, -90.417677 34.729127, -90.417042 34.729859, -90.416407 34.730591, -90.415772 34.731322, -90.415136 34.732054, -90.414501 34.732785, -90.413866 34.733517, -90.413231 34.734249, -90.412596 34.734980, -90.411961 34.735712, -90.411326 34.736444, -90.410690 34.737175, -90.410055 34.737907, -90.409420 34.738638, -90.408785 34.739370, -90.408150 34.740102, -90.407514 34.740833, -90.406879 34.741565, -90.406244 34.742296, -90.405609 34.743028, -90.404973 34.743759, -90.404338 34.744491, -90.403703 34.745223, -90.403067 34.745954, -90.402432 34.746686, -90.401797 34.747417, -90.401161 34.748149, -90.400526 34.748880, -90.399891 34.749612, -90.399255 34.750343, -90.398620 34.751075, -90.397984 34.751807, -90.397349 34.752538, -90.396714 34.753270, -90.396078 34.754001, -90.395443 34.754733, -90.394807 34.755464, -90.394172 34.756196, -90.393536 34.756927, -90.392901 34.757659, -90.392265 34.758390, -90.391630 34.759122, -90.390994 34.759853, -90.390359 34.760585, -90.389723 34.761316, -90.389088 34.762048, -90.388452 34.762779, -90.387816 34.763511, -90.387181 34.764242, -90.386545 34.764974, -90.385910 34.765705, -90.385274 34.766437, -90.384638 34.767168, -90.384003 34.767900, -90.383367 34.768631, -90.382731 34.769362, -90.382096 34.770094, -90.381460 34.770825, -90.380824 34.771557, -90.380188 34.772288, -90.379553 34.773020, -90.378917 34.773751, -90.378281 34.774483, -90.377645 34.775214, -90.377010 34.775945, -90.376374 34.776677, -90.375738 34.777408, -90.375102 34.778140, -90.374466 34.778871, -90.373831 34.779603, -90.373195 34.780334, -90.372559 34.781065, -90.371923 34.781797, -90.371287 34.782528, -90.370651 34.783260, -90.370015 34.783991, -90.369379 34.784722, -90.368743 34.785454, -90.368108 34.786185, -90.367472 34.786916, -90.366836 34.787648, -90.366200 34.788379, -90.365564 34.789111, -90.364928 34.789842, -90.364292 34.790573, -90.363656 34.791305, -90.363020 34.792036, -90.362384 34.792767, -90.361748 34.793499, -90.361111 34.794230, -90.360475 34.794961, -90.359839 34.795693, -90.359203 34.796424, -90.358567 34.797155, -90.357931 34.797887, -90.357295 34.798618, -90.356659 34.799349, -90.356023 34.800081, -90.355386 34.800812, -90.354750 34.801543, -90.354114 34.802275, -90.353478 34.803006, -90.352842 34.803737, -90.352205 34.804469, -90.351569 34.805200, -90.350933 34.805931, -90.350297 34.806662, -90.349660 34.807394, -90.349024 34.808125, -90.348388 34.808856, -90.347752 34.809588, -90.347115 34.810319, -90.346479 34.811050, -90.345843 34.811781, -90.345206 34.812513, -90.344570 34.813244, -90.343934 34.813975, -90.343297 34.814706, -90.342661 34.815438, -90.342024 34.816169, -90.341388 34.816900, -90.340752 34.817631, -90.340115 34.818363, -90.339479 34.819094, -90.338842 34.819825, -90.338206 34.820556, -90.337569 34.821288, -90.336933 34.822019, -90.336296 34.822750, -90.335660 34.823481, -90.335023 34.824212, -90.334387 34.824944, -90.333750 34.825675, -90.333114 34.826406, -90.332477 34.827137, -90.331840 34.827868, -90.331204 34.828600, -90.330567 34.829331, -90.329931 34.830062, -90.329294 34.830793, -90.328657 34.831524, -90.328021 34.832256, -90.327384 34.832987, -90.326747 34.833718, -90.326111 34.834449, -90.325474 34.835180, -90.324837 34.835911, -90.324201 34.836643, -90.323564 34.837374, -90.322927 34.838105, -90.322290 34.838836, -90.321654 34.839567, -90.321017 34.840298, -90.320380 34.841029, -90.319743 34.841761, -90.319106 34.842492, -90.318470 34.843223, -90.317833 34.843954, -90.317196 34.844685, -90.316559 34.845416, -90.315922 34.846147, -90.315285 34.846878, -90.314648 34.847609, -90.314012 34.848341, -90.313375 34.849072, -90.312738 34.849803, -90.312101 34.850534, -90.311464 34.851265, -90.310827 34.851996, -90.310190 34.852727, -90.309553 34.853458, -90.308916 34.854189, -90.308279 34.854920, -90.307642 34.855651, -90.307005 34.856382, -90.306368 34.857114, -90.305731 34.857845, -90.305094 34.858576, -90.304457 34.859307, -90.303820 34.860038, -90.303183 34.860769, -90.302545 34.861500, -90.301908 34.862231, -90.301271 34.862962, -90.300634 34.863693, -90.299997 34.864424, -90.299360 34.865155, -90.298723 34.865886, -90.298085 34.866617, -90.297448 34.867348, -90.296811 34.868079, -90.296174 34.868810, -90.295537 34.869541, -90.294899 34.870272, -90.294262 34.871003, -90.293625 34.871734, -90.292988 34.872465, -90.292350 34.873196, -90.291713 34.873927, -90.291076 34.874658, -90.290438 34.875389, -90.289801 34.876120, -90.289164 34.876851, -90.288526 34.877582, -90.287889 34.878313, -90.287252 34.879044, -90.286614 34.879775, -90.285977 34.880506, -90.285339 34.881237, -90.284702 34.881968, -90.284065 34.882699, -90.283427 34.883430, -90.282790 34.884161, -90.282152 34.884891, -90.281515 34.885622, -90.280877 34.886353, -90.280240 34.887084, -90.279602 34.887815, -90.278965 34.888546, -90.278327 34.889277, -90.277690 34.890008, -90.277052 34.890739, -90.276415 34.891470, -90.275777 34.892201, -90.275139 34.892932, -90.274502 34.893662, -90.273864 34.894393, -90.273227 34.895124, -90.272589 34.895855, -90.271951 34.896586, -90.271314 34.897317, -90.270676 34.898048, -90.270038 34.898779, -90.269401 34.899509, -90.268763 34.900240, -90.268125 34.900971, -90.267487 34.901702, -90.266850 34.902433, -90.266212 34.903164, -90.265574 34.903895, -90.264936 34.904625, -90.264299 34.905356, -90.263661 34.906087, -90.263023 34.906818, -90.262385 34.907549, -90.261747 34.908280, -90.261110 34.909010, -90.260472 34.909741, -90.259834 34.910472, -90.259196 34.911203, -90.258558 34.911934, -90.257920 34.912665, -90.257282 34.913395, -90.256644 34.914126, -90.256006 34.914857, -90.255369 34.915588, -90.254731 34.916319, -90.254093 34.917049, -90.253455 34.917780, -90.252817 34.918511, -90.252179 34.919242, -90.251541 34.919972, -90.250903 34.920703, -90.250265 34.921434, -90.249627 34.922165, -90.248989 34.922895, -90.248350 34.923626, -90.247712 34.924357, -90.247074 34.925088, -90.246436 34.925819, -90.245798 34.926549, -90.245160 34.927280, -90.244522 34.928011, -90.243884 34.928741, -90.243246 34.929472, -90.242607 34.930203, -90.241969 34.930934, -90.241331 34.931664, -90.240693 34.932395, -90.240055 34.933126, -90.239416 34.933857, -90.238778 34.934587, -90.238140 34.935318, -90.237502 34.936049, -90.236863 34.936779, -90.236225 34.937510, -90.235587 34.938241, -90.234948 34.938971, -90.234310 34.939702, -90.233672 34.940433, -90.233033 34.941163, -90.232395 34.941894, -90.231757 34.942625, -90.231118 34.943355, -90.230480 34.944086, -90.229842 34.944817, -90.229203 34.945547, -90.228565 34.946278, -90.227926 34.947009, -90.227288 34.947739, -90.226649 34.948470, -90.226011 34.949201, -90.225373 34.949931, -90.224734 34.950662, -90.224096 34.951393, -90.223457 34.952123, -90.222818 34.952854, -90.222180 34.953584, -90.221541 34.954315, -90.220903 34.955046, -90.220264 34.955776, -90.219626 34.956507, -90.218987 34.957238, -90.218349 34.957968, -90.217710 34.958699, -90.217071 34.959429, -90.216433 34.960160, -90.215794 34.960891, -90.215155 34.961621, -90.214517 34.962352, -90.213878 34.963082, -90.213239 34.963813, -90.212601 34.964543, -90.211962 34.965274, -90.211323 34.966005, -90.210684 34.966735, -90.210046 34.967466, -90.209407 34.968196, -90.208768 34.968927, -90.208129 34.969657, -90.207491 34.970388, -90.206852 34.971118, -90.206213 34.971849, -90.205574 34.972579, -90.204935 34.973310, -90.204296 34.974041, -90.203658 34.974771, -90.203019 34.975502, -90.202380 34.976232, -90.201741 34.976963, -90.201102 34.977693, -90.200463 34.978424, -90.199824 34.979154, -90.199185 34.979885, -90.198546 34.980615, -90.197907 34.981346, -90.197268 34.982076, -90.196629 34.982807, -90.195990 34.983537, -90.195351 34.984268, -90.194712 34.984998, -90.194073 34.985729, -90.193434 34.986459, -90.192795 34.987189, -90.192156 34.987920, -90.191517 34.988650, -90.190878 34.989381, -90.190239 34.990111, -90.189600 34.990842, -90.188961 34.991572, -90.188321 34.992303, -90.187682 34.993033, -90.187043 34.993764, -90.186404 34.994494, -90.185765 34.995224, -90.185126 34.995955, -90.184486 34.996685, -90.183847 34.997416, -90.183208 34.998146, -90.182569 34.998877, -90.181929 34.999607, -90.181290 35.000337, -90.180651 35.001068, -90.180012 35.001798, -90.179372 35.002529, -90.178733 35.003259, -90.178094 35.003989, -90.177454 35.004720, -90.176815 35.005450, -90.176176 35.006180, -90.175536 35.006911, -90.174897 35.007641, -90.174258 35.008372, -90.173618 35.009102, -90.172979 35.009832, -90.172339 35.010563, -90.171700 35.011293, -90.171060 35.012023, -90.170421 35.012754, -90.169782 35.013484, -90.169142 35.014214, -90.168503 35.014945, -90.167863 35.015675, -90.167224 35.016405, -90.166584 35.017136, -90.165945 35.017866, -90.165305 35.018596, -90.164665 35.019327, -90.164026 35.020057, -90.163386 35.020787, -90.162747 35.021518, -90.162107 35.022248, -90.161467 35.022978, -90.160828 35.023709, -90.160188 35.024439, -90.159549 35.025169, -90.158909 35.025900, -90.158269 35.026630, -90.157630 35.027360, -90.156990 35.028090, -90.156350 35.028821, -90.155710 35.029551, -90.155071 35.030281, -90.154431 35.031011, -90.153791 35.031742, -90.153151 35.032472, -90.152512 35.033202, -90.151872 35.033932, -90.151232 35.034663, -90.150592 35.035393, -90.149952 35.036123, -90.149313 35.036853, -90.148673 35.037584, -90.148033 35.038314, -90.147393 35.039044, -90.146753 35.039774, -90.146113 35.040505, -90.145473 35.041235, -90.144833 35.041965, -90.144194 35.042695, -90.143554 35.043425, -90.142914 35.044156, -90.142274 35.044886, -90.141634 35.045616, -90.140994 35.046346, -90.140354 35.047076, -90.139714 35.047807, -90.139074 35.048537, -90.138434 35.049267, -90.137794 35.049997, -90.137154 35.050727, -90.136514 35.051458, -90.135873 35.052188, -90.135233 35.052918, -90.134593 35.053648, -90.133953 35.054378, -90.133313 35.055108, -90.132673 35.055839, -90.132033 35.056569, -90.131393 35.057299, -90.130752 35.058029, -90.130112 35.058759, -90.129472 35.059489, -90.128832 35.060219, -90.128192 35.060950, -90.127551 35.061680, -90.126911 35.062410, -90.126271 35.063140, -90.125631 35.063870, -90.124990 35.064600, -90.124350 35.065330, -90.123710 35.066060, -90.123070 35.066790, -90.122429 35.067521, -90.121789 35.068251, -90.121149 35.068981, -90.120508 35.069711, -90.119868 35.070441, -90.119228 35.071171, -90.118587 35.071901, -90.117947 35.072631, -90.117306 35.073361, -90.116666 35.074091, -90.116026 35.074821, -90.115385 35.075551, -90.114745 35.076281, -90.114104 35.077012, -90.113464 35.077742, -90.112823 35.078472, -90.112183 35.079202, -90.111542 35.079932, -90.110902 35.080662, -90.110261 35.081392, -90.109621 35.082122, -90.108980 35.082852, -90.108340 35.083582, -90.107699 35.084312, -90.107058 35.085042, -90.106418 35.085772, -90.105777 35.086502, -90.105137 35.087232, -90.104496 35.087962, -90.103855 35.088692, -90.103215 35.089422, -90.102574 35.090152, -90.101933 35.090882, -90.101293 35.091612, -90.100652 35.092342, -90.100011 35.093072, -90.099370 35.093802, -90.098730 35.094532, -90.098089 35.095262, -90.097448 35.095992, -90.096807 35.096722, -90.096167 35.097452, -90.095526 35.098182, -90.094885 35.098912, -90.094244 35.099642, -90.093603 35.100371, -90.092962 35.101101, -90.092322 35.101831, -90.091681 35.102561, -90.091040 35.103291, -90.090399 35.104021, -90.089758 35.104751, -90.089117 35.105481, -90.088476 35.106211, -90.087835 35.106941, -90.087194 35.107671, -90.086553 35.108401, -90.085912 35.109131, -90.085272 35.109861, -90.084631 35.110590, -90.083990 35.111320, -90.083349 35.112050, -90.082707 35.112780, -90.082066 35.113510, -90.081425 35.114240, -90.080784 35.114970, -90.080143 35.115700, -90.079502 35.116429, -90.078861 35.117159, -90.078220 35.117889, -90.077579 35.118619, -90.076938 35.119349, -90.076297 35.120079, -90.075655 35.120809, -90.075014 35.121539, -90.074373 35.122268, -90.073732 35.122998, -90.073091 35.123728, -90.072450 35.124458, -90.071808 35.125188, -90.071167 35.125918, -90.070526 35.126647, -90.069885 35.127377, -90.069243 35.128107, -90.068602 35.128837, -90.067961 35.129567, -90.067319 35.130296, -90.066678 35.131026, -90.066037 35.131756, -90.065395 35.132486, -90.064754 35.133216, -90.064113 35.133945, -90.063471 35.134675, -90.062830 35.135405, -90.062189 35.136135, -90.061547 35.136865, -90.060906 35.137594, -90.060264 35.138324, -90.059623 35.139054, -90.058982 35.139784, -90.058340 35.140513, -90.057699 35.141243, -90.057057 35.141973, -90.056416 35.142703, -90.055774 35.143432, -90.055133 35.144162, -90.054491 35.144892, -90.053849 35.145622, -90.053208 35.146351, -90.052566 35.147081, -90.051925 35.147811, -90.051283 35.148541, -90.050642 35.149270, -90.050000 35.150000, -90.050000 35.150896, -90.050000 35.151791, -90.050000 35.152687, -90.050000 35.153582, -90.050000 35.154478, -90.050000 35.155373, -90.050000 35.156269, -90.050000 35.157164, -90.050000 35.158060, -90.050000 35.158955, -90.050000 35.159851, -90.050000 35.160746, -90.050000 35.161642, -90.050000 35.162537, -90.050000 35.163433, -90.050000 35.164328, -90.050000 35.165224, -90.050000 35.166119, -90.050000 35.167015, -90.050000 35.167910, -90.050000 35.168806, -90.050000 35.169701, -90.050000 35.170597, -90.050000 35.171493, -90.050000 35.172388, -90.050000 35.173284, -90.050000 35.174179, -90.050000 35.175075, -90.050000 35.175970, -90.050000 35.176866, -90.050000 35.177761, -90.050000 35.178657, -90.050000 35.179552, -90.050000 35.180448, -90.050000 35.181343, -90.050000 35.182239, -90.050000 35.183134, -90.050000 35.184030, -90.050000 35.184925, -90.050000 35.185821, -90.050000 35.186716, -90.050000 35.187612, -90.050000 35.188507, -90.050000 35.189403, -90.050000 35.190299, -90.050000 35.191194, -90.050000 35.192090, -90.050000 35.192985, -90.050000 35.193881, -90.050000 35.194776, -90.050000 35.195672, -90.050000 35.196567, -90.050000 35.197463, -90.050000 35.198358, -90.050000 35.199254, -90.050000 35.200149, -90.050000 35.201045, -90.050000 35.201940, -90.050000 35.202836, -90.050000 35.203731, -90.050000 35.204627, -90.050000 35.205522, -90.050000 35.206418, -90.050000 35.207313, -90.050000 35.208209, -90.050000 35.209104, -90.050000 35.210000)
