LINESTRING (-109.466000 41.528000, -109.465817 41.525422, -109.465634 41.522844, -109.465451 41.520266, -109.465268 41.517688, -109.465084 41.515110, -109.464901 41.512532, -109.464718 41.509954, -109.464535 41.507376, -109.464352 41.504798, -109.464169 41.502220, -109.463986 41.499642, -109.463803 41.497064, -109.463620 41.494486, -109.463437 41.491908, -109.463255 41.489330, -109.463072 41.486752, -109.462889 41.484174, -109.462706 41.481596, -109.462523 41.479017, -109.462340 41.476439, -109.462157 41.473861, -109.461974 41.471283, -109.461792 41.468705, -109.461609 41.466127, -109.461426 41.463549, -109.461243 41.460971, -109.461061 41.458393, -109.460878 41.455815, -109.460695 41.453237, -109.460512 41.450659, -109.460330 41.448081, -109.460147 41.445503, -109.459964 41.442925, -109.459782 41.440347, -109.459599 41.437769, -109.459416 41.435191, -109.459234 41.432613, -109.459051 41.430035, -109.458869 41.427457, -109.458686 41.424879, -109.458503 41.422301, -109.458321 41.419723, -109.458138 41.417145, -109.457956 41.414567, -109.457773 41.411989, -109.457591 41.409411, -109.457408 41.406833, -109.457226 41.404254, -109.457044 41.401676, -109.456861 41.399098, -109.456679 41.396520, -109.456496 41.393942, -109.456314 41.391364, -109.456132 41.388786, -109.455949 41.386208, -109.455767 41.383630, -109.455585 41.381052, -109.455402 41.378474, -109.455220 41.375896, -109.455038 41.373318, -109.454855 41.370740, -109.454673 41.368162, -109.454491 41.365584, -109.454309 41.363006, -109.454127 41.360428, -109.453944 41.357850, -109.453762 41.355272, -109.453580 41.352694, -109.453398 41.350116, -109.453216 41.347538, -109.453034 41.344959, -109.452852 41.342381, -109.452669 41.339803, -109.452487 41.337225, -109.452305 41.334647, -109.452123 41.332069, -109.451941 41.329491, -109.451759 41.326913, -109.451577 41.324335, -109.451395 41.321757, -109.451213 41.319179, -109.451031 41.316601, -109.450849 41.314023, -109.450667 41.311445, -109.450485 41.308867, -109.450304 41.306289, -109.450122 41.303711, -109.449940 41.301133, -109.449758 41.298555, -109.449576 41.295977, -109.449394 41.293399, -109.449212 41.290820, -109.449031 41.288242, -109.448849 41.285664, -109.448667 41.283086, -109.448485 41.280508, -109.448304 41.277930, -109.448122 41.275352, -109.447940 41.272774, -109.447758 41.270196, -109.447577 41.267618, -109.447395 41.265040, -109.447213 41.262462, -109.447032 41.259884, -109.446850 41.257306, -109.446669 41.254728, -109.446487 41.252150, -109.446305 41.249572, -109.446124 41.246994, -109.445942 41.244415, -109.445761 41.241837, -109.445579 41.239259, -109.445398 41.236681, -109.445216 41.234103, -109.445035 41.231525, -109.444853 41.228947, -109.444672 41.226369, -109.444490 41.223791, -109.444309 41.221213, -109.444127 41.218635, -109.443946 41.216057, -109.443765 41.213479, -109.443583 41.210901, -109.443402 41.208323, -109.443221 41.205745, -109.443039 41.203167, -109.442858 41.200588, -109.442677 41.198010, -109.442495 41.195432, -109.442314 41.192854, -109.442133 41.190276, -109.441952 41.187698, -109.441770 41.185120, -109.441589 41.182542, -109.441408 41.179964, -109.441227 41.177386, -109.441046 41.174808, -109.440864 41.172230, -109.440683 41.169652, -109.440502 41.167074, -109.440321 41.164496, -109.440140 41.161918, -109.439959 41.159339, -109.439778 41.156761, -109.439597 41.154183, -109.439416 41.151605, -109.439235 41.149027, -109.439054 41.146449, -109.438873 41.143871, -109.438692 41.141293, -109.438511 41.138715, -109.438330 41.136137, -109.438149 41.133559, -109.437968 41.130981, -109.437787 41.128403, -109.437606 41.125825, -109.437425 41.123247, -109.437244 41.120668, -109.437063 41.118090, -109.436883 41.115512, -109.436702 41.112934, -109.436521 41.110356, -109.436340 41.107778, -109.436159 41.105200, -109.435979 41.102622, -109.435798 41.100044, -109.435617 41.097466, -109.435436 41.094888, -109.435256 41.092310, -109.435075 41.089732, -109.434894 41.087154, -109.434714 41.084575, -109.434533 41.081997, -109.434352 41.079419, -109.434172 41.076841, -109.433991 41.074263, -109.433810 41.071685, -109.433630 41.069107, -109.433449 41.066529, -109.433269 41.063951, -109.433088 41.061373, -109.432908 41.058795, -109.432727 41.056217, -109.432547 41.053639, -109.432366 41.051060, -109.432186 41.048482, -109.432005 41.045904, -109.431825 41.043326, -109.431644 41.040748, -109.431464 41.038170, -109.431283 41.035592, -109.431103 41.033014, -109.430923 41.030436, -109.430742 41.027858, -109.430562 41.025280, -109.430382 41.022702, -109.430201 41.020123, -109.430021 41.017545, -109.429841 41.014967, -109.429660 41.012389, -109.429480 41.009811, -109.429300 41.007233, -109.429120 41.004655, -109.428939 41.002077, -109.428759 40.999499, -109.428579 40.996921, -109.428399 40.994343, -109.428219 40.991765, -109.428039 40.989186, -109.427858 40.986608, -109.427678 40.984030, -109.427498 40.981452, -109.427318 40.978874, -109.427138 40.976296, -109.426958 40.973718, -109.426778 40.971140, -109.426598 40.968562, -109.426418 40.965984, -109.426238 40.963406, -109.426058 40.960828, -109.425878 40.958249, -109.425698 40.955671, -109.425518 40.953093, -109.425338 40.950515, -109.425158 40.947937, -109.424978 40.945359, -109.424798 40.942781, -109.424618 40.940203, -109.424438 40.937625, -109.424259 40.935047, -109.424079 40.932469, -109.423899 40.929890, -109.423719 40.927312, -109.423539 40.924734, -109.423360 40.922156, -109.423180 40.919578, -109.423000 40.917000, -109.419887 40.915966, -109.416774 40.914933, -109.413661 40.913899, -109.410549 40.912865, -109.407436 40.911831, -109.404324 40.910797, -109.401211 40.909763, -109.398099 40.908729, -109.394987 40.907695, -109.391875 40.906661, -109.388763 40.905626, -109.385651 40.904592, -109.382539 40.903557, -109.379427 40.902522, -109.376316 40.901488, -109.373204 40.900453, -109.370093 40.899418, -109.366981 40.898383, -109.363870 40.897348, -109.360759 40.896313, -109.357648 40.895277, -109.354537 40.894242, -109.351426 40.893207, -109.348315 40.892171, -109.345205 40.891136, -109.342094 40.890100, -109.338984 40.889064, -109.335873 40.888028, -109.332763 40.886993, -109.329653 40.885957, -109.326543 40.884920, -109.323433 40.883884, -109.320323 40.882848, -109.317213 40.881812, -109.314104 40.880775, -109.310994 40.879739, -109.307885 40.878702, -109.304775 40.877666, -109.301666 40.876629, -109.298557 40.875592, -109.295448 40.874555, -109.292339 40.873518, -109.289230 40.872481, -109.286121 40.871444, -109.283012 40.870407, -109.279904 40.869369, -109.276795 40.868332, -109.273687 40.867294, -109.270578 40.866257, -109.267470 40.865219, -109.264362 40.864181, -109.261254 40.863144, -109.258146 40.862106, -109.255038 40.861068, -109.251931 40.860030, -109.248823 40.858991, -109.245716 40.857953, -109.242608 40.856915, -109.239501 40.855876, -109.236394 40.854838, -109.233286 40.853799, -109.230179 40.852761, -109.227072 40.851722, -109.223966 40.850683, -109.220859 40.849644, -109.217752 40.848605, -109.214646 40.847566, -109.211539 40.846527, -109.208433 40.845488, -109.205327 40.844448, -109.202220 40.843409, -109.199114 40.842369, -109.196008 40.841330, -109.192902 40.840290, -109.189797 40.839250, -109.186691 40.838211, -109.183585 40.837171, -109.180480 40.836131, -109.177375 40.835091, -109.174269 40.834050, -109.171164 40.833010, -109.168059 40.831970, -109.164954 40.830930, -109.161849 40.829889, -109.158744 40.828848, -109.155640 40.827808, -109.152535 40.826767, -109.149431 40.825726, -109.146326 40.824685, -109.143222 40.823644, -109.140118 40.822603, -109.137013 40.821562, -109.133909 40.820521, -109.130806 40.819479, -109.127702 40.818438, -109.124598 40.817397, -109.121494 40.816355, -109.118391 40.815313, -109.115287 40.814272, -109.112184 40.813230, -109.109081 40.812188, -109.105978 40.811146, -109.102875 40.810104, -109.099772 40.809062, -109.096669 40.808019, -109.093566 40.806977, -109.090463 40.805935, -109.087361 40.804892, -109.084258 40.803850, -109.081156 40.802807, -109.078054 40.801764, -109.074952 40.800721, -109.071850 40.799678, -109.068748 40.798635, -109.065646 40.797592, -109.062544 40.796549, -109.059442 40.795506, -109.056341 40.794463, -109.053239 40.793419, -109.050138 40.792376, -109.047036 40.791332, -109.043935 40.790289, -109.040834 40.789245, -109.037733 40.788201, -109.034632 40.787157, -109.031532 40.786113, -109.028431 40.785069, -109.025330 40.784025, -109.022230 40.782981, -109.019129 40.781936, -109.016029 40.780892, -109.012929 40.779847, -109.009829 40.778803, -109.006729 40.777758, -109.003629 40.776713, -109.000529 40.775669, -108.997429 40.774624, -108.994329 40.773579, -108.991230 40.772534, -108.988131 40.771489, -108.985031 40.770443, -108.981932 40.769398, -108.978833 40.768353, -108.975734 40.767307, -108.972635 40.766262, -108.969536 40.765216, -108.966437 40.764170, -108.963339 40.763124, -108.960240 40.762078, -108.957141 40.761032, -108.954043 40.759986, -108.950945 40.758940, -108.947847 40.757894, -108.944749 40.756848, -108.941651 40.755801, -108.938553 40.754755, -108.935455 40.753708, -108.932357 40.752662, -108.929260 40.751615, -108.926162 40.750568, -108.923065 40.749521, -108.919968 40.748474, -108.916870 40.747427, -108.913773 40.746380, -108.910676 40.745333, -108.907579 40.744286, -108.904483 40.743238, -108.901386 40.742191, -108.898289 40.741143, -108.895193 40.740096, -108.892096 40.739048, -108.889000 40.738000, -108.890131 40.735582, -108.891263 40.733164, -108.892394 40.730746, -108.893525 40.728327, -108.894656 40.725909, -108.895787 40.723491, -108.896918 40.721073, -108.898049 40.718655, -108.899180 40.716236, -108.900310 40.713818, -108.901441 40.711400, -108.902571 40.708982, -108.903702 40.706563, -108.904832 40.704145, -108.905962 40.701727, -108.907092 40.699308, -108.908222 40.696890, -108.909352 40.694472, -108.910482 40.692054, -108.911612 40.689635, -108.912742 40.687217, -108.913872 40.684798, -108.915001 40.682380, -108.916131 40.679962, -108.917260 40.677543, -108.918389 40.675125, -108.919519 40.672706, -108.920648 40.670288, -108.921777 40.667870, -108.922906 40.665451, -108.924035 40.663033, -108.925164 40.660614, -108.926292 40.658196, -108.927421 40.655777, -108.928550 40.653359, -108.929678 40.650940, -108.930807 40.648522, -108.931935 40.646103, -108.933063 40.643684, -108.934191 40.641266, -108.935320 40.638847, -108.936448 40.636429, -108.937576 40.634010, -108.938703 40.631592, -108.939831 40.629173, -108.940959 40.626754, -108.942087 40.624336, -108.943214 40.621917, -108.944341 40.619498, -108.945469 40.617080, -108.946596 40.614661, -108.947723 40.612242, -108.948850 40.609824, -108.949978 40.607405, -108.951105 40.604986, -108.952231 40.602567, -108.953358 40.600149, -108.954485 40.597730, -108.955612 40.595311, -108.956738 40.592892, -108.957865 40.590473, -108.958991 40.588055, -108.960117 40.585636, -108.961244 40.583217, -108.962370 40.580798, -108.963496 40.578379, -108.964622 40.575960, -108.965748 40.573542, -108.966873 40.571123, -108.967999 40.568704, -108.969125 40.566285, -108.970250 40.563866, -108.971376 40.561447, -108.972501 40.559028, -108.973627 40.556609, -108.974752 40.554190, -108.975877 40.551771, -108.977002 40.549352, -108.978127 40.546933, -108.979252 40.544514, -108.980377 40.542095, -108.981502 40.539676, -108.982626 40.537257, -108.983751 40.534838, -108.984876 40.532419, -108.986000 40.530000, -108.988942 40.528714, -108.991885 40.527428, -108.994827 40.526143, -108.997769 40.524857, -109.000711 40.523571, -109.003653 40.522284, -109.006595 40.520998, -109.009536 40.519712, -109.012478 40.518426, -109.015419 40.517139, -109.018360 40.515853, -109.021302 40.514566, -109.024243 40.513279, -109.027184 40.511993, -109.030124 40.510706, -109.033065 40.509419, -109.036006 40.508132, -109.038946 40.506845, -109.041887 40.505558, -109.044827 40.504271, -109.047767 40.502984, -109.050707 40.501696, -109.053647 40.500409, -109.056587 40.499121, -109.059527 40.497834, -109.062466 40.496546, -109.065406 40.495259, -109.068345 40.493971, -109.071284 40.492683, -109.074224 40.491395, -109.077163 40.490107, -109.080101 40.488819, -109.083040 40.487531, -109.085979 40.486243, -109.088918 40.484954, -109.091856 40.483666, -109.094794 40.482378, -109.097733 40.481089, -109.100671 40.479801, -109.103609 40.478512, -109.106547 40.477223, -109.109484 40.475934, -109.112422 40.474646, -109.115360 40.473357, -109.118297 40.472068, -109.121235 40.470778, -109.124172 40.469489, -109.127109 40.468200, -109.130046 40.466911, -109.132983 40.465621, -109.135920 40.464332, -109.138856 40.463042, -109.141793 40.461753, -109.144729 40.460463, -109.147666 40.459173, -109.150602 40.457883, -109.153538 40.456593, -109.156474 40.455303, -109.159410 40.454013, -109.162345 40.452723, -109.165281 40.451433, -109.168217 40.450143, -109.171152 40.448852, -109.174087 40.447562, -109.177023 40.446271, -109.179958 40.444981, -109.182893 40.443690, -109.185828 40.442399, -109.188762 40.441109, -109.191697 40.439818, -109.194631 40.438527, -109.197566 40.437236, -109.200500 40.435945, -109.203434 40.434653, -109.206368 40.433362, -109.209302 40.432071, -109.212236 40.430779, -109.215170 40.429488, -109.218104 40.428196, -109.221037 40.426905, -109.223970 40.425613, -109.226904 40.424321, -109.229837 40.423029, -109.232770 40.421738, -109.235703 40.420446, -109.238636 40.419154, -109.241568 40.417861, -109.244501 40.416569, -109.247434 40.415277, -109.250366 40.413984, -109.253298 40.412692, -109.256230 40.411400, -109.259162 40.410107, -109.262094 40.408814, -109.265026 40.407522, -109.267958 40.406229, -109.270890 40.404936, -109.273821 40.403643, -109.276752 40.402350, -109.279684 40.401057, -109.282615 40.399764, -109.285546 40.398470, -109.288477 40.397177, -109.291408 40.395884, -109.294338 40.394590, -109.297269 40.393297, -109.300199 40.392003, -109.303130 40.390709, -109.306060 40.389415, -109.308990 40.388122, -109.311920 40.386828, -109.314850 40.385534, -109.317780 40.384240, -109.320709 40.382945, -109.323639 40.381651, -109.326568 40.380357, -109.329498 40.379063, -109.332427 40.377768, -109.335356 40.376474, -109.338285 40.375179, -109.341214 40.373884, -109.344143 40.372590, -109.347071 40.371295, -109.350000 40.370000, -109.351687 40.367764, -109.353373 40.365528, -109.355060 40.363292, -109.356746 40.361056, -109.358433 40.358820, -109.360119 40.356583, -109.361805 40.354347, -109.363491 40.352111, -109.365177 40.349875, -109.366863 40.347638, -109.368548 40.345402, -109.370234 40.343166, -109.371919 40.340930, -109.373604 40.338693, -109.375290 40.336457, -109.376975 40.334220, -109.378660 40.331984, -109.380345 40.329747, -109.382029 40.327511, -109.383714 40.325274, -109.385399 40.323038, -109.387083 40.320801, -109.388767 40.318565, -109.390451 40.316328, -109.392136 40.314092, -109.393819 40.311855, -109.395503 40.309618, -109.397187 40.307382, -109.398871 40.305145, -109.400554 40.302908, -109.402238 40.300671, -109.403921 40.298434, -109.405604 40.296198, -109.407287 40.293961, -109.408970 40.291724, -109.410653 40.289487, -109.412336 40.287250, -109.414018 40.285013, -109.415701 40.282776, -109.417383 40.280539, -109.419066 40.278302, -109.420748 40.276065, -109.422430 40.273828, -109.424112 40.271591, -109.425794 40.269354, -109.427475 40.267117, -109.429157 40.264880, -109.430839 40.262642, -109.432520 40.260405, -109.434201 40.258168, -109.435883 40.255931, -109.437564 40.253693, -109.439245 40.251456, -109.440925 40.249219, -109.442606 40.246981, -109.444287 40.244744, -109.445967 40.242507, -109.447648 40.240269, -109.449328 40.238032, -109.451008 40.235794, -109.452688 40.233557, -109.454368 40.231319, -109.456048 40.229082, -109.457728 40.226844, -109.459407 40.224606, -109.461087 40.222369, -109.462766 40.220131, -109.464446 40.217893, -109.466125 40.215656, -109.467804 40.213418, -109.469483 40.211180, -109.471162 40.208942, -109.472840 40.206705, -109.474519 40.204467, -109.476198 40.202229, -109.477876 40.199991, -109.479554 40.197753, -109.481233 40.195515, -109.482911 40.193277, -109.484589 40.191039, -109.486266 40.188801, -109.487944 40.186563, -109.489622 40.184325, -109.491299 40.182087, -109.492977 40.179849, -109.494654 40.177611, -109.496331 40.175373, -109.498008 40.173135, -109.499685 40.170897, -109.501362 40.168658, -109.503039 40.166420, -109.504716 40.164182, -109.506392 40.161944, -109.508069 40.159705, -109.509745 40.157467, -109.511421 40.155229, -109.513097 40.152990, -109.514773 40.150752, -109.516449 40.148513, -109.518125 40.146275, -109.519800 40.144037, -109.521476 40.141798, -109.523151 40.139559, -109.524827 40.137321, -109.526502 40.135082, -109.528177 40.132844, -109.529852 40.130605, -109.531527 40.128366, -109.533202 40.126128, -109.534876 40.123889, -109.536551 40.121650, -109.538225 40.119412, -109.539899 40.117173, -109.541574 40.114934, -109.543248 40.112695, -109.544922 40.110456, -109.546596 40.108218, -109.548269 40.105979, -109.549943 40.103740, -109.551617 40.101501, -109.553290 40.099262, -109.554963 40.097023, -109.556637 40.094784, -109.558310 40.092545, -109.559983 40.090306, -109.561656 40.088067, -109.563328 40.085828, -109.565001 40.083589, -109.566674 40.081349, -109.568346 40.079110, -109.570018 40.076871, -109.571691 40.074632, -109.573363 40.072393, -109.575035 40.070153, -109.576707 40.067914, -109.578378 40.065675, -109.580050 40.063435, -109.581722 40.061196, -109.583393 40.058957, -109.585065 40.056717, -109.586736 40.054478, -109.588407 40.052238, -109.590078 40.049999, -109.591749 40.047759, -109.593420 40.045520, -109.595090 40.043280, -109.596761 40.041041, -109.598431 40.038801, -109.600102 40.036561, -109.601772 40.034322, -109.603442 40.032082, -109.605112 40.029842, -109.606782 40.027603, -109.608452 40.025363, -109.610122 40.023123, -109.611791 40.020883, -109.613461 40.018643, -109.615130 40.016404, -109.616799 40.014164, -109.618468 40.011924, -109.620137 40.009684, -109.621806 40.007444, -109.623475 40.005204, -109.625144 40.002964, -109.626813 40.000724, -109.628481 39.998484, -109.630149 39.996244, -109.631818 39.994004, -109.633486 39.991764, -109.635154 39.989524, -109.636822 39.987283, -109.638490 39.985043, -109.640158 39.982803, -109.641825 39.980563, -109.643493 39.978323, -109.645160 39.976082, -109.646827 39.973842, -109.648495 39.971602, -109.650162 39.969361, -109.651829 39.967121, -109.653495 39.964880, -109.655162 39.962640, -109.656829 39.960400, -109.658495 39.958159, -109.660162 39.955919, -109.661828 39.953678, -109.663494 39.951438, -109.665160 39.949197, -109.666826 39.946956, -109.668492 39.944716, -109.670158 39.942475, -109.671824 39.940235, -109.673489 39.937994, -109.675155 39.935753, -109.676820 39.933512, -109.678485 39.931272, -109.680150 39.929031, -109.681815 39.926790, -109.683480 39.924549, -109.685145 39.922308, -109.686810 39.920068, -109.688474 39.917827, -109.690139 39.915586, -109.691803 39.913345, -109.693467 39.911104, -109.695131 39.908863, -109.696795 39.906622, -109.698459 39.904381, -109.700123 39.902140, -109.701787 39.899899, -109.703450 39.897657, -109.705114 39.895416, -109.706777 39.893175, -109.708441 39.890934, -109.710104 39.888693, -109.711767 39.886452, -109.713430 39.884210, -109.715092 39.881969, -109.716755 39.879728, -109.718418 39.877486, -109.720080 39.875245, -109.721743 39.873004, -109.723405 39.870762, -109.725067 39.868521, -109.726729 39.866279, -109.728391 39.864038, -109.730053 39.861796, -109.731715 39.859555, -109.733376 39.857313, -109.735038 39.855072, -109.736699 39.852830, -109.738361 39.850589, -109.740022 39.848347, -109.741683 39.846105, -109.743344 39.843864, -109.745005 39.841622, -109.746666 39.839380, -109.748326 39.837139, -109.749987 39.834897, -109.751647 39.832655, -109.753308 39.830413, -109.754968 39.828171, -109.756628 39.825929, -109.758288 39.823688, -109.759948 39.821446, -109.761608 39.819204, -109.763267 39.816962, -109.764927 39.814720, -109.766586 39.812478, -109.768246 39.810236, -109.769905 39.807994, -109.771564 39.805752, -109.773223 39.803509, -109.774882 39.801267, -109.776541 39.799025, -109.778199 39.796783, -109.779858 39.794541, -109.781517 39.792299, -109.783175 39.790056, -109.784833 39.787814, -109.786491 39.785572, -109.788149 39.783329, -109.789807 39.781087, -109.791465 39.778845, -109.793123 39.776602, -109.794781 39.774360, -109.796438 39.772117, -109.798095 39.769875, -109.799753 39.767632, -109.801410 39.765390, -109.803067 39.763147, -109.804724 39.760905, -109.806381 39.758662, -109.808038 39.756420, -109.809694 39.754177, -109.811351 39.751934, -109.813007 39.749692, -109.814664 39.747449, -109.816320 39.745206, -109.817976 39.742964, -109.819632 39.740721, -109.821288 39.738478, -109.822944 39.736235, -109.824599 39.733992, -109.826255 39.731750, -109.827910 39.729507, -109.829566 39.727264, -109.831221 39.725021, -109.832876 39.722778, -109.834531 39.720535, -109.836186 39.718292, -109.837841 39.716049, -109.839496 39.713806, -109.841150 39.711563, -109.842805 39.709320, -109.844459 39.707077, -109.846113 39.704833, -109.847768 39.702590, -109.849422 39.700347, -109.851076 39.698104, -109.852729 39.695861, -109.854383 39.693617, -109.856037 39.691374, -109.857690 39.689131, -109.859344 39.686887, -109.860997 39.684644, -109.862650 39.682401, -109.864303 39.680157, -109.865956 39.677914, -109.867609 39.675670, -109.869262 39.673427, -109.870915 39.671183, -109.872567 39.668940, -109.874220 39.666696, -109.875872 39.664453, -109.877524 39.662209, -109.879177 39.659966, -109.880829 39.657722, -109.882480 39.655478, -109.884132 39.653235, -109.885784 39.650991, -109.887436 39.648747, -109.889087 39.646503, -109.890738 39.644260, -109.892390 39.642016, -109.894041 39.639772, -109.895692 39.637528, -109.897343 39.635284, -109.898994 39.633040, -109.900645 39.630796, -109.902295 39.628553, -109.903946 39.626309, -109.905596 39.624065, -109.907246 39.621821, -109.908897 39.619577, -109.910547 39.617333, -109.912197 39.615088, -109.913847 39.612844, -109.915496 39.610600, -109.917146 39.608356, -109.918796 39.606112, -109.920445 39.603868, -109.922094 39.601623, -109.923744 39.599379, -109.925393 39.597135, -109.927042 39.594891, -109.928691 39.592646, -109.930340 39.590402, -109.931988 39.588158, -109.933637 39.585913, -109.935285 39.583669, -109.936934 39.581424, -109.938582 39.579180, -109.940230 39.576936, -109.941878 39.574691, -109.943526 39.572447, -109.945174 39.570202, -109.946822 39.567957, -109.948469 39.565713, -109.950117 39.563468, -109.951764 39.561224, -109.953412 39.558979, -109.955059 39.556734, -109.956706 39.554489, -109.958353 39.552245, -109.960000 39.550000, -109.960890 39.547512, -109.961781 39.545024, -109.962671 39.542536, -109.963561 39.540048, -109.964451 39.537560, -109.965342 39.535072, -109.966232 39.532584, -109.967122 39.530095, -109.968011 39.527607, -109.968901 39.525119, -109.969791 39.522631, -109.970681 39.520143, -109.971570 39.517655, -109.972460 39.515167, -109.973350 39.512679, -109.974239 39.510190, -109.975128 39.507702, -109.976018 39.505214, -109.976907 39.502726, -109.977796 39.500238, -109.978685 39.497750, -109.979574 39.495261, -109.980463 39.492773, -109.981352 39.490285, -109.982241 39.487797, -109.983130 39.485309, -109.984019 39.482820, -109.984907 39.480332, -109.985796 39.477844, -109.986685 39.475356, -109.987573 39.472867, -109.988462 39.470379, -109.989350 39.467891, -109.990238 39.465403, -109.991127 39.462914, -109.992015 39.460426, -109.992903 39.457938, -109.993791 39.455450, -109.994679 39.452961, -109.995567 39.450473, -109.996455 39.447985, -109.997343 39.445496, -109.998230 39.443008, -109.999118 39.440520, -110.000006 39.438031, -110.000893 39.435543, -110.001781 39.433055, -110.002668 39.430566, -110.003555 39.428078, -110.004443 39.425590, -110.005330 39.423101, -110.006217 39.420613, -110.007104 39.418124, -110.007991 39.415636, -110.008878 39.413148, -110.009765 39.410659, -110.010652 39.408171, -110.011539 39.405682, -110.012426 39.403194, -110.013312 39.400705, -110.014199 39.398217, -110.015085 39.395728, -110.015972 39.393240, -110.016858 39.390752, -110.017745 39.388263, -110.018631 39.385775, -110.019517 39.383286, -110.020403 39.380798, -110.021289 39.378309, -110.022175 39.375821, -110.023061 39.373332, -110.023947 39.370844, -110.024833 39.368355, -110.025719 39.365866, -110.026605 39.363378, -110.027490 39.360889, -110.028376 39.358401, -110.029261 39.355912, -110.030147 39.353424, -110.031032 39.350935, -110.031918 39.348447, -110.032803 39.345958, -110.033688 39.343469, -110.034573 39.340981, -110.035458 39.338492, -110.036343 39.336003, -110.037228 39.333515, -110.038113 39.331026, -110.038998 39.328538, -110.039883 39.326049, -110.040767 39.323560, -110.041652 39.321072, -110.042537 39.318583, -110.043421 39.316094, -110.044306 39.313606, -110.045190 39.311117, -110.046074 39.308628, -110.046959 39.306140, -110.047843 39.303651, -110.048727 39.301162, -110.049611 39.298673, -110.050495 39.296185, -110.051379 39.293696, -110.052263 39.291207, -110.053147 39.288718, -110.054031 39.286230, -110.054914 39.283741, -110.055798 39.281252, -110.056681 39.278763, -110.057565 39.276275, -110.058448 39.273786, -110.059332 39.271297, -110.060215 39.268808, -110.061098 39.266319, -110.061982 39.263831, -110.062865 39.261342, -110.063748 39.258853, -110.064631 39.256364, -110.065514 39.253875, -110.066397 39.251387, -110.067279 39.248898, -110.068162 39.246409, -110.069045 39.243920, -110.069928 39.241431, -110.070810 39.238942, -110.071693 39.236453, -110.072575 39.233964, -110.073457 39.231476, -110.074340 39.228987, -110.075222 39.226498, -110.076104 39.224009, -110.076986 39.221520, -110.077868 39.219031, -110.078750 39.216542, -110.079632 39.214053, -110.080514 39.211564, -110.081396 39.209075, -110.082278 39.206586, -110.083160 39.204097, -110.084041 39.201608, -110.084923 39.199119, -110.085804 39.196630, -110.086686 39.194141, -110.087567 39.191652, -110.088448 39.189163, -110.089330 39.186674, -110.090211 39.184185, -110.091092 39.181696, -110.091973 39.179207, -110.092854 39.176718, -110.093735 39.174229, -110.094616 39.171740, -110.095497 39.169251, -110.096378 39.166762, -110.097258 39.164273, -110.098139 39.161784, -110.099019 39.159295, -110.099900 39.156805, -110.100780 39.154316, -110.101661 39.151827, -110.102541 39.149338, -110.103421 39.146849, -110.104302 39.144360, -110.105182 39.141871, -110.106062 39.139382, -110.106942 39.136892, -110.107822 39.134403, -110.108702 39.131914, -110.109581 39.129425, -110.110461 39.126936, -110.111341 39.124447, -110.112221 39.121957, -110.113100 39.119468, -110.113980 39.116979, -110.114859 39.114490, -110.115739 39.112001, -110.116618 39.109511, -110.117497 39.107022, -110.118376 39.104533, -110.119255 39.102044, -110.120135 39.099554, -110.121014 39.097065, -110.121893 39.094576, -110.122771 39.092087, -110.123650 39.089597, -110.124529 39.087108, -110.125408 39.084619, -110.126286 39.082129, -110.127165 39.079640, -110.128043 39.077151, -110.128922 39.074662, -110.129800 39.072172, -110.130679 39.069683, -110.131557 39.067194, -110.132435 39.064704, -110.133313 39.062215, -110.134191 39.059726, -110.135069 39.057236, -110.135947 39.054747, -110.136825 39.052257, -110.137703 39.049768, -110.138581 39.047279, -110.139459 39.044789, -110.140336 39.042300, -110.141214 39.039810, -110.142091 39.037321, -110.142969 39.034832, -110.143846 39.032342, -110.144724 39.029853, -110.145601 39.027363, -110.146478 39.024874, -110.147355 39.022384, -110.148232 39.019895, -110.149109 39.017405, -110.149986 39.014916, -110.150863 39.012427, -110.151740 39.009937, -110.152617 39.007448, -110.153494 39.004958, -110.154370 39.002469, -110.155247 38.999979, -110.156124 38.997490, -110.157000 38.995000, -110.156081 38.992521, -110.155163 38.990042, -110.154244 38.987563, -110.153325 38.985083, -110.152407 38.982604, -110.151488 38.980125, -110.150570 38.977646, -110.149652 38.975167, -110.148733 38.972687, -110.147815 38.970208, -110.146897 38.967729, -110.145979 38.965250, -110.145061 38.962770, -110.144143 38.960291, -110.143225 38.957812, -110.142307 38.955333, -110.141389 38.952853, -110.140472 38.950374, -110.139554 38.947895, -110.138637 38.945416, -110.137719 38.942936, -110.136802 38.940457, -110.135884 38.937978, -110.134967 38.935498, -110.134050 38.933019, -110.133133 38.930540, -110.132215 38.928060, -110.131298 38.925581, -110.130381 38.923102, -110.129465 38.920622, -110.128548 38.918143, -110.127631 38.915663, -110.126714 38.913184, -110.125797 38.910705, -110.124881 38.908225, -110.123964 38.905746, -110.123048 38.903266, -110.122131 38.900787, -110.121215 38.898308, -110.120299 38.895828, -110.119383 38.893349, -110.118466 38.890869, -110.117550 38.888390, -110.116634 38.885910, -110.115718 38.883431, -110.114803 38.880951, -110.113887 38.878472, -110.112971 38.875992, -110.112055 38.873513, -110.111140 38.871033, -110.110224 38.868554, -110.109308 38.866074, -110.108393 38.863595, -110.107478 38.861115, -110.106562 38.858636, -110.105647 38.856156, -110.104732 38.853677, -110.103817 38.851197, -110.102902 38.848718, -110.101987 38.846238, -110.101072 38.843758, -110.100157 38.841279, -110.099242 38.838799, -110.098327 38.836320, -110.097413 38.833840, -110.096498 38.831360, -110.095583 38.828881, -110.094669 38.826401, -110.093755 38.823921, -110.092840 38.821442, -110.091926 38.818962, -110.091012 38.816483, -110.090097 38.814003, -110.089183 38.811523, -110.088269 38.809043, -110.087355 38.806564, -110.086441 38.804084, -110.085528 38.801604, -110.084614 38.799125, -110.083700 38.796645, -110.082786 38.794165, -110.081873 38.791685, -110.080959 38.789206, -110.080046 38.786726, -110.079132 38.784246, -110.078219 38.781766, -110.077306 38.779287, -110.076393 38.776807, -110.075479 38.774327, -110.074566 38.771847, -110.073653 38.769368, -110.072740 38.766888, -110.071827 38.764408, -110.070915 38.761928, -110.070002 38.759448, -110.069089 38.756968, -110.068176 38.754489, -110.067264 38.752009, -110.066351 38.749529, -110.065439 38.747049, -110.064526 38.744569, -110.063614 38.742089, -110.062702 38.739609, -110.061790 38.737130, -110.060878 38.734650, -110.059965 38.732170, -110.059053 38.729690, -110.058141 38.727210, -110.057230 38.724730, -110.056318 38.722250, -110.055406 38.719770, -110.054494 38.717290, -110.053583 38.714810, -110.052671 38.712330, -110.051760 38.709850, -110.050848 38.707370, -110.049937 38.704890, -110.049025 38.702410, -110.048114 38.699930, -110.047203 38.697450, -110.046292 38.694970, -110.045381 38.692490, -110.044470 38.690010, -110.043559 38.687530, -110.042648 38.685050, -110.041737 38.682570, -110.040826 38.680090, -110.039916 38.677610, -110.039005 38.675130, -110.038095 38.672650, -110.037184 38.670170, -110.036274 38.667690, -110.035363 38.665210, -110.034453 38.662730, -110.033543 38.660249, -110.032633 38.657769, -110.031722 38.655289, -110.030812 38.652809, -110.029902 38.650329, -110.028992 38.647849, -110.028083 38.645369, -110.027173 38.642888, -110.026263 38.640408, -110.025353 38.637928, -110.024444 38.635448, -110.023534 38.632968, -110.022625 38.630488, -110.021715 38.628007, -110.020806 38.625527, -110.019897 38.623047, -110.018987 38.620567, -110.018078 38.618086, -110.017169 38.615606, -110.016260 38.613126, -110.015351 38.610646, -110.014442 38.608165, -110.013533 38.605685, -110.012624 38.603205, -110.011716 38.600725, -110.010807 38.598244, -110.009898 38.595764, -110.008990 38.593284, -110.008081 38.590803, -110.007173 38.588323, -110.006265 38.585843, -110.005356 38.583362, -110.004448 38.580882, -110.003540 38.578402, -110.002632 38.575921, -110.001724 38.573441, -110.000816 38.570961, -109.999908 38.568480, -109.999000 38.566000, -109.998208 38.563510, -109.997416 38.561021, -109.996624 38.558531, -109.995832 38.556041, -109.995040 38.553552, -109.994248 38.551062, -109.993456 38.548572, -109.992664 38.546082, -109.991872 38.543593, -109.991081 38.541103, -109.990289 38.538613, -109.989498 38.536124, -109.988706 38.533634, -109.987915 38.531144, -109.987123 38.528654, -109.986332 38.526165, -109.985541 38.523675, -109.984749 38.521185, -109.983958 38.518695, -109.983167 38.516206, -109.982376 38.513716, -109.981585 38.511226, -109.980794 38.508736, -109.980003 38.506246, -109.979212 38.503757, -109.978422 38.501267, -109.977631 38.498777, -109.976840 38.496287, -109.976049 38.493797, -109.975259 38.491308, -109.974468 38.488818, -109.973678 38.486328, -109.972888 38.483838, -109.972097 38.481348, -109.971307 38.478858, -109.970517 38.476369, -109.969726 38.473879, -109.968936 38.471389, -109.968146 38.468899, -109.967356 38.466409, -109.966566 38.463919, -109.965776 38.461429, -109.964986 38.458939, -109.964197 38.456450, -109.963407 38.453960, -109.962617 38.451470, -109.961827 38.448980, -109.961038 38.446490, -109.960248 38.444000, -109.959459 38.441510, -109.958669 38.439020, -109.957880 38.436530, -109.957091 38.434040, -109.956301 38.431550, -109.955512 38.429060, -109.954723 38.426570, -109.953934 38.424080, -109.953145 38.421590, -109.952356 38.419100, -109.951567 38.416610, -109.950778 38.414120, -109.949989 38.411630, -109.949201 38.409140, -109.948412 38.406650, -109.947623 38.404160, -109.946835 38.401670, -109.946046 38.399180, -109.945257 38.396690, -109.944469 38.394200, -109.943681 38.391710, -109.942892 38.389220, -109.942104 38.386730, -109.941316 38.384240, -109.940528 38.381750, -109.939739 38.379260, -109.938951 38.376770, -109.938163 38.374280, -109.937375 38.371790, -109.936587 38.369300, -109.935800 38.366810, -109.935012 38.364320, -109.934224 38.361829, -109.933436 38.359339, -109.932649 38.356849, -109.931861 38.354359, -109.931074 38.351869, -109.930286 38.349379, -109.929499 38.346889, -109.928711 38.344399, -109.927924 38.341909, -109.927137 38.339418, -109.926350 38.336928, -109.925562 38.334438, -109.924775 38.331948, -109.923988 38.329458, -109.923201 38.326968, -109.922414 38.324477, -109.921627 38.321987, -109.920841 38.319497, -109.920054 38.317007, -109.919267 38.314517, -109.918481 38.312026, -109.917694 38.309536, -109.916907 38.307046, -109.916121 38.304556, -109.915334 38.302066, -109.914548 38.299575, -109.913762 38.297085, -109.912975 38.294595, -109.912189 38.292105, -109.911403 38.289614, -109.910617 38.287124, -109.909831 38.284634, -109.909045 38.282144, -109.908259 38.279653, -109.907473 38.277163, -109.906687 38.274673, -109.905901 38.272182, -109.905115 38.269692, -109.904330 38.267202, -109.903544 38.264712, -109.902759 38.262221, -109.901973 38.259731, -109.901188 38.257241, -109.900402 38.254750, -109.899617 38.252260, -109.898831 38.249770, -109.898046 38.247279, -109.897261 38.244789, -109.896476 38.242299, -109.895691 38.239808, -109.894906 38.237318, -109.894121 38.234827, -109.893336 38.232337, -109.892551 38.229847, -109.891766 38.227356, -109.890981 38.224866, -109.890197 38.222376, -109.889412 38.219885, -109.888627 38.217395, -109.887843 38.214904, -109.887058 38.212414, -109.886274 38.209924, -109.885489 38.207433, -109.884705 38.204943, -109.883921 38.202452, -109.883136 38.199962, -109.882352 38.197471, -109.881568 38.194981, -109.880784 38.192490, -109.880000 38.190000, -109.881419 38.187678, -109.882837 38.185355, -109.884255 38.183033, -109.885674 38.180710, -109.887092 38.178388, -109.888510 38.176065, -109.889928 38.173743, -109.891346 38.171420, -109.892764 38.169098, -109.894181 38.166775, -109.895599 38.164453, -109.897017 38.162130, -109.898434 38.159807, -109.899852 38.157485, -109.901269 38.155162, -109.902686 38.152840, -109.904103 38.150517, -109.905520 38.148194, -109.906937 38.145871, -109.908354 38.143549, -109.909771 38.141226, -109.911187 38.138903, -109.912604 38.136580, -109.914020 38.134258, -109.915437 38.131935, -109.916853 38.129612, -109.918269 38.127289, -109.919685 38.124966, -109.921101 38.122643, -109.922517 38.120321, -109.923933 38.117998, -109.925349 38.115675, -109.926765 38.113352, -109.928180 38.111029, -109.929596 38.108706, -109.931011 38.106383, -109.932426 38.104060, -109.933842 38.101737, -109.935257 38.099414, -109.936672 38.097091, -109.938087 38.094768, -109.939502 38.092445, -109.940916 38.090121, -109.942331 38.087798, -109.943746 38.085475, -109.945160 38.083152, -109.946574 38.080829, -109.947989 38.078506, -109.949403 38.076182, -109.950817 38.073859, -109.952231 38.071536, -109.953645 38.069213, -109.955059 38.066889, -109.956473 38.064566, -109.957886 38.062243, -109.959300 38.059919, -109.960714 38.057596, -109.962127 38.055273, -109.963540 38.052949, -109.964954 38.050626, -109.966367 38.048302, -109.967780 38.045979, -109.969193 38.043656, -109.970606 38.041332, -109.972018 38.039009, -109.973431 38.036685, -109.974844 38.034362, -109.976256 38.032038, -109.977669 38.029714, -109.979081 38.027391, -109.980493 38.025067, -109.981905 38.022744, -109.983317 38.020420, -109.984729 38.018096, -109.986141 38.015773, -109.987553 38.013449, -109.988965 38.011125, -109.990377 38.008802, -109.991788 38.006478, -109.993199 38.004154, -109.994611 38.001831, -109.996022 37.999507, -109.997433 37.997183, -109.998844 37.994859, -110.000255 37.992535, -110.001666 37.990211, -110.003077 37.987888, -110.004488 37.985564, -110.005898 37.983240, -110.007309 37.980916, -110.008720 37.978592, -110.010130 37.976268, -110.011540 37.973944, -110.012950 37.971620, -110.014360 37.969296, -110.015770 37.966972, -110.017180 37.964648, -110.018590 37.962324, -110.020000 37.960000, -110.023164 37.959398, -110.026327 37.958795, -110.029491 37.958192, -110.032654 37.957590, -110.035818 37.956987, -110.038981 37.956384, -110.042144 37.955781, -110.045307 37.955178, -110.048471 37.954575, -110.051634 37.953972, -110.054797 37.953368, -110.057960 37.952765, -110.061123 37.952162, -110.064286 37.951558, -110.067449 37.950954, -110.070611 37.950351, -110.073774 37.949747, -110.076937 37.949143, -110.080100 37.948539, -110.083262 37.947935, -110.086425 37.947331, -110.089587 37.946727, -110.092750 37.946122, -110.095912 37.945518, -110.099075 37.944913, -110.102237 37.944309, -110.105399 37.943704, -110.108561 37.943099, -110.111723 37.942495, -110.114886 37.941890, -110.118048 37.941285, -110.121210 37.940680, -110.124372 37.940075, -110.127533 37.939469, -110.130695 37.938864, -110.133857 37.938259, -110.137019 37.937653, -110.140180 37.937047, -110.143342 37.936442, -110.146504 37.935836, -110.149665 37.935230, -110.152827 37.934624, -110.155988 37.934018, -110.159149 37.933412, -110.162311 37.932806, -110.165472 37.932200, -110.168633 37.931593, -110.171794 37.930987, -110.174956 37.930380, -110.178117 37.929774, -110.181278 37.929167, -110.184439 37.928560, -110.187599 37.927954, -110.190760 37.927347, -110.193921 37.926740, -110.197082 37.926133, -110.200243 37.925525, -110.203403 37.924918, -110.206564 37.924311, -110.209724 37.923703, -110.212885 37.923096, -110.216045 37.922488, -110.219206 37.921880, -110.222366 37.921273, -110.225526 37.920665, -110.228686 37.920057, -110.231847 37.919449, -110.235007 37.918841, -110.238167 37.918233, -110.241327 37.917624, -110.244487 37.917016, -110.247647 37.916407, -110.250806 37.915799, -110.253966 37.915190, -110.257126 37.914582, -110.260286 37.913973, -110.263445 37.913364, -110.266605 37.912755, -110.269765 37.912146, -110.272924 37.911537, -110.276083 37.910928, -110.279243 37.910318, -110.282402 37.909709, -110.285561 37.909099, -110.288721 37.908490, -110.291880 37.907880, -110.295039 37.907270, -110.298198 37.906661, -110.301357 37.906051, -110.304516 37.905441, -110.307675 37.904831, -110.310834 37.904221, -110.313993 37.903610, -110.317151 37.903000, -110.320310 37.902390, -110.323469 37.901779, -110.326627 37.901169, -110.329786 37.900558, -110.332944 37.899947, -110.336103 37.899336, -110.339261 37.898726, -110.342420 37.898115, -110.345578 37.897503, -110.348736 37.896892, -110.351894 37.896281, -110.355052 37.895670, -110.358210 37.895058, -110.361368 37.894447, -110.364526 37.893835, -110.367684 37.893224, -110.370842 37.892612, -110.374000 37.892000, -110.375674 37.889781, -110.377348 37.887563, -110.379021 37.885344, -110.380695 37.883125, -110.382368 37.880906, -110.384041 37.878687, -110.385715 37.876468, -110.387388 37.874250, -110.389061 37.872031, -110.390734 37.869812, -110.392406 37.867593, -110.394079 37.865374, -110.395752 37.863155, -110.397424 37.860936, -110.399097 37.858717, -110.400769 37.856498, -110.402441 37.854278, -110.404113 37.852059, -110.405785 37.849840, -110.407457 37.847621, -110.409129 37.845402, -110.410801 37.843183, -110.412472 37.840963, -110.414144 37.838744, -110.415815 37.836525, -110.417486 37.834305, -110.419158 37.832086, -110.420829 37.829867, -110.422500 37.827647, -110.424170 37.825428, -110.425841 37.823209, -110.427512 37.820989, -110.429183 37.818770, -110.430853 37.816550, -110.432523 37.814331, -110.434194 37.812111, -110.435864 37.809891, -110.437534 37.807672, -110.439204 37.805452, -110.440874 37.803233, -110.442544 37.801013, -110.444213 37.798793, -110.445883 37.796573, -110.447552 37.794354, -110.449222 37.792134, -110.450891 37.789914, -110.452560 37.787694, -110.454229 37.785475, -110.455898 37.783255, -110.457567 37.781035, -110.459236 37.778815, -110.460905 37.776595, -110.462573 37.774375, -110.464242 37.772155, -110.465910 37.769935, -110.467578 37.767715, -110.469247 37.765495, -110.470915 37.763275, -110.472583 37.761055, -110.474251 37.758835, -110.475918 37.756615, -110.477586 37.754394, -110.479254 37.752174, -110.480921 37.749954, -110.482588 37.747734, -110.484256 37.745514, -110.485923 37.743293, -110.487590 37.741073, -110.489257 37.738853, -110.490924 37.736632, -110.492591 37.734412, -110.494257 37.732191, -110.495924 37.729971, -110.497590 37.727751, -110.499257 37.725530, -110.500923 37.723310, -110.502589 37.721089, -110.504255 37.718869, -110.505921 37.716648, -110.507587 37.714427, -110.509253 37.712207, -110.510919 37.709986, -110.512584 37.707766, -110.514250 37.705545, -110.515915 37.703324, -110.517580 37.701103, -110.519245 37.698883, -110.520911 37.696662, -110.522576 37.694441, -110.524240 37.692220, -110.525905 37.689999, -110.527570 37.687779, -110.529234 37.685558, -110.530899 37.683337, -110.532563 37.681116, -110.534228 37.678895, -110.535892 37.676674, -110.537556 37.674453, -110.539220 37.672232, -110.540884 37.670011, -110.542548 37.667790, -110.544211 37.665569, -110.545875 37.663347, -110.547538 37.661126, -110.549202 37.658905, -110.550865 37.656684, -110.552528 37.654463, -110.554191 37.652242, -110.555854 37.650020, -110.557517 37.647799, -110.559180 37.645578, -110.560843 37.643356, -110.562505 37.641135, -110.564168 37.638914, -110.565830 37.636692, -110.567492 37.634471, -110.569155 37.632249, -110.570817 37.630028, -110.572479 37.627806, -110.574141 37.625585, -110.575802 37.623363, -110.577464 37.621142, -110.579126 37.618920, -110.580787 37.616698, -110.582449 37.614477, -110.584110 37.612255, -110.585771 37.610033, -110.587432 37.607812, -110.589093 37.605590, -110.590754 37.603368, -110.592415 37.601147, -110.594076 37.598925, -110.595736 37.596703, -110.597397 37.594481, -110.599057 37.592259, -110.600717 37.590037, -110.602378 37.587815, -110.604038 37.585593, -110.605698 37.583371, -110.607358 37.581149, -110.609018 37.578927, -110.610677 37.576705, -110.612337 37.574483, -110.613996 37.572261, -110.615656 37.570039, -110.617315 37.567817, -110.618974 37.565595, -110.620633 37.563373, -110.622292 37.561151, -110.623951 37.558928, -110.625610 37.556706, -110.627269 37.554484, -110.628928 37.552262, -110.630586 37.550039, -110.632245 37.547817, -110.633903 37.545595, -110.635561 37.543372, -110.637219 37.541150, -110.638877 37.538927, -110.640535 37.536705, -110.642193 37.534482, -110.643851 37.532260, -110.645508 37.530037, -110.647166 37.527815, -110.648823 37.525592, -110.650481 37.523370, -110.652138 37.521147, -110.653795 37.518924, -110.655452 37.516702, -110.657109 37.514479, -110.658766 37.512256, -110.660423 37.510034, -110.662079 37.507811, -110.663736 37.505588, -110.665392 37.503365, -110.667049 37.501142, -110.668705 37.498920, -110.670361 37.496697, -110.672017 37.494474, -110.673673 37.492251, -110.675329 37.490028, -110.676985 37.487805, -110.678640 37.485582, -110.680296 37.483359, -110.681951 37.481136, -110.683607 37.478913, -110.685262 37.476690, -110.686917 37.474467, -110.688572 37.472244, -110.690227 37.470021, -110.691882 37.467797, -110.693537 37.465574, -110.695192 37.463351, -110.696846 37.461128, -110.698501 37.458904, -110.700155 37.456681, -110.701809 37.454458, -110.703464 37.452235, -110.705118 37.450011, -110.706772 37.447788, -110.708426 37.445564, -110.710079 37.443341, -110.711733 37.441118, -110.713387 37.438894, -110.715040 37.436671, -110.716693 37.434447, -110.718347 37.432224, -110.720000 37.430000, -110.722520 37.428376, -110.725041 37.426752, -110.727561 37.425128, -110.730081 37.423504, -110.732600 37.421879, -110.735120 37.420255, -110.737640 37.418631, -110.740159 37.417006, -110.742679 37.415382, -110.745198 37.413757, -110.747717 37.412133, -110.750236 37.410508, -110.752755 37.408883, -110.755274 37.407259, -110.757793 37.405634, -110.760312 37.404009, -110.762830 37.402384, -110.765349 37.400759, -110.767867 37.399134, -110.770385 37.397509, -110.772903 37.395884, -110.775422 37.394259, -110.777939 37.392634, -110.780457 37.391008, -110.782975 37.389383, -110.785492 37.387758, -110.788010 37.386132, -110.790527 37.384507, -110.793045 37.382881, -110.795562 37.381256, -110.798079 37.379630, -110.800596 37.378004, -110.803112 37.376379, -110.805629 37.374753, -110.808146 37.373127, -110.810662 37.371501, -110.813179 37.369875, -110.815695 37.368249, -110.818211 37.366623, -110.820727 37.364997, -110.823243 37.363371, -110.825759 37.361744, -110.828275 37.360118, -110.830790 37.358492, -110.833306 37.356865, -110.835821 37.355239, -110.838336 37.353612, -110.840852 37.351986, -110.843367 37.350359, -110.845882 37.348733, -110.848396 37.347106, -110.850911 37.345479, -110.853426 37.343852, -110.855940 37.342226, -110.858455 37.340599, -110.860969 37.338972, -110.863483 37.337345, -110.865997 37.335718, -110.868511 37.334090, -110.871025 37.332463, -110.873539 37.330836, -110.876053 37.329209, -110.878566 37.327581, -110.881080 37.325954, -110.883593 37.324327, -110.886106 37.322699, -110.888619 37.321071, -110.891132 37.319444, -110.893645 37.317816, -110.896158 37.316188, -110.898670 37.314561, -110.901183 37.312933, -110.903695 37.311305, -110.906208 37.309677, -110.908720 37.308049, -110.911232 37.306421, -110.913744 37.304793, -110.916256 37.303165, -110.918768 37.301537, -110.921280 37.299908, -110.923791 37.298280, -110.926303 37.296652, -110.928814 37.295023, -110.931325 37.293395, -110.933836 37.291766, -110.936347 37.290138, -110.938858 37.288509, -110.941369 37.286881, -110.943880 37.285252, -110.946391 37.283623, -110.948901 37.281994, -110.951411 37.280365, -110.953922 37.278736, -110.956432 37.277107, -110.958942 37.275478, -110.961452 37.273849, -110.963962 37.272220, -110.966471 37.270591, -110.968981 37.268962, -110.971491 37.267332, -110.974000 37.265703, -110.976509 37.264074, -110.979019 37.262444, -110.981528 37.260815, -110.984037 37.259185, -110.986545 37.257555, -110.989054 37.255926, -110.991563 37.254296, -110.994071 37.252666, -110.996580 37.251036, -110.999088 37.249406, -111.001596 37.247776, -111.004104 37.246146, -111.006612 37.244516, -111.009120 37.242886, -111.011628 37.241256, -111.014136 37.239626, -111.016643 37.237996, -111.019151 37.236365, -111.021658 37.234735, -111.024165 37.233105, -111.026673 37.231474, -111.029180 37.229844, -111.031686 37.228213, -111.034193 37.226582, -111.036700 37.224952, -111.039207 37.223321, -111.041713 37.221690, -111.044219 37.220059, -111.046726 37.218428, -111.049232 37.216798, -111.051738 37.215167, -111.054244 37.213535, -111.056750 37.211904, -111.059255 37.210273, -111.061761 37.208642, -111.064267 37.207011, -111.066772 37.205379, -111.069277 37.203748, -111.071782 37.202117, -111.074287 37.200485, -111.076792 37.198854, -111.079297 37.197222, -111.081802 37.195590, -111.084307 37.193959, -111.086811 37.192327, -111.089316 37.190695, -111.091820 37.189063, -111.094324 37.187431, -111.096828 37.185800, -111.099332 37.184168, -111.101836 37.182535, -111.104340 37.180903, -111.106844 37.179271, -111.109347 37.177639, -111.111851 37.176007, -111.114354 37.174374, -111.116857 37.172742, -111.119360 37.171110, -111.121863 37.169477, -111.124366 37.167845, -111.126869 37.166212, -111.129372 37.164579, -111.131874 37.162947, -111.134377 37.161314, -111.136879 37.159681, -111.139381 37.158048, -111.141883 37.156415, -111.144386 37.154782, -111.146887 37.153149, -111.149389 37.151516, -111.151891 37.149883, -111.154393 37.148250, -111.156894 37.146617, -111.159396 37.144984, -111.161897 37.143350, -111.164398 37.141717, -111.166899 37.140084, -111.169400 37.138450, -111.171901 37.136817, -111.174402 37.135183, -111.176902 37.133549, -111.179403 37.131916, -111.181903 37.130282, -111.184404 37.128648, -111.186904 37.127014, -111.189404 37.125380, -111.191904 37.123746, -111.194404 37.122112, -111.196903 37.120478, -111.199403 37.118844, -111.201903 37.117210, -111.204402 37.115576, -111.206901 37.113942, -111.209401 37.112307, -111.211900 37.110673, -111.214399 37.109039, -111.216898 37.107404, -111.219397 37.105770, -111.221895 37.104135, -111.224394 37.102500, -111.226892 37.100866, -111.229391 37.099231, -111.231889 37.097596, -111.234387 37.095961, -111.236885 37.094326, -111.239383 37.092691, -111.241881 37.091056, -111.244379 37.089421, -111.246876 37.087786, -111.249374 37.086151, -111.251871 37.084516, -111.254368 37.082881, -111.256866 37.081245, -111.259363 37.079610, -111.261860 37.077975, -111.264357 37.076339, -111.266853 37.074704, -111.269350 37.073068, -111.271847 37.071432, -111.274343 37.069797, -111.276839 37.068161, -111.279336 37.066525, -111.281832 37.064889, -111.284328 37.063253, -111.286824 37.061618, -111.289319 37.059982, -111.291815 37.058346, -111.294311 37.056709, -111.296806 37.055073, -111.299301 37.053437, -111.301797 37.051801, -111.304292 37.050165, -111.306787 37.048528, -111.309282 37.046892, -111.311777 37.045255, -111.314271 37.043619, -111.316766 37.041982, -111.319260 37.040346, -111.321755 37.038709, -111.324249 37.037072, -111.326743 37.035435, -111.329237 37.033799, -111.331731 37.032162, -111.334225 37.030525, -111.336719 37.028888, -111.339212 37.027251, -111.341706 37.025614, -111.344199 37.023977, -111.346693 37.022339, -111.349186 37.020702, -111.351679 37.019065, -111.354172 37.017427, -111.356665 37.015790, -111.359158 37.014153, -111.361650 37.012515, -111.364143 37.010878, -111.366635 37.009240, -111.369128 37.007602, -111.371620 37.005965, -111.374112 37.004327, -111.376604 37.002689, -111.379096 37.001051, -111.381588 36.999413, -111.384080 36.997775, -111.386571 36.996137, -111.389063 36.994499, -111.391554 36.992861, -111.394045 36.991223, -111.396536 36.989585, -111.399027 36.987946, -111.401518 36.986308, -111.404009 36.984670, -111.406500 36.983031, -111.408991 36.981393, -111.411481 36.979754, -111.413972 36.978115, -111.416462 36.976477, -111.418952 36.974838, -111.421442 36.973199, -111.423932 36.971561, -111.426422 36.969922, -111.428912 36.968283, -111.431401 36.966644, -111.433891 36.965005, -111.436380 36.963366, -111.438870 36.961727, -111.441359 36.960087, -111.443848 36.958448, -111.446337 36.956809, -111.448826 36.955170, -111.451315 36.953530, -111.453804 36.951891, -111.456292 36.950251, -111.458781 36.948612, -111.461269 36.946972, -111.463757 36.945333, -111.466246 36.943693, -111.468734 36.942053, -111.471222 36.940413, -111.473709 36.938774, -111.476197 36.937134, -111.478685 36.935494, -111.481172 36.933854, -111.483660 36.932214, -111.486147 36.930573, -111.488634 36.928933, -111.491121 36.927293, -111.493608 36.925653, -111.496095 36.924013, -111.498582 36.922372, -111.501069 36.920732, -111.503555 36.919091, -111.506042 36.917451, -111.508528 36.915810, -111.511014 36.914170, -111.513500 36.912529, -111.515986 36.910888, -111.518472 36.909247, -111.520958 36.907607, -111.523444 36.905966, -111.525929 36.904325, -111.528415 36.902684, -111.530900 36.901043, -111.533385 36.899402, -111.535871 36.897761, -111.538356 36.896119, -111.540841 36.894478, -111.543325 36.892837, -111.545810 36.891195, -111.548295 36.889554, -111.550779 36.887913, -111.553264 36.886271, -111.555748 36.884630, -111.558232 36.882988, -111.560716 36.881346, -111.563200 36.879705, -111.565684 36.878063, -111.568168 36.876421, -111.570652 36.874779, -111.573135 36.873137, -111.575619 36.871495, -111.578102 36.869853, -111.580585 36.868211, -111.583069 36.866569, -111.585552 36.864927, -111.588034 36.863285, -111.590517 36.861642, -111.593000 36.860000, -111.593777 36.857497, -111.594555 36.854994, -111.595332 36.852491, -111.596109 36.849988, -111.596886 36.847484, -111.597663 36.844981, -111.598440 36.842478, -111.599217 36.839975, -111.599994 36.837472, -111.600771 36.834969, -111.601548 36.832466, -111.602325 36.829962, -111.603101 36.827459, -111.603878 36.824956, -111.604655 36.822453, -111.605431 36.819950, -111.606208 36.817447, -111.606984 36.814943, -111.607761 36.812440, -111.608537 36.809937, -111.609313 36.807434, -111.610090 36.804931, -111.610866 36.802427, -111.611642 36.799924, -111.612418 36.797421, -111.613194 36.794918, -111.613970 36.792415, -111.614746 36.789911, -111.615522 36.787408, -111.616298 36.784905, -111.617074 36.782402, -111.617849 36.779898, -111.618625 36.777395, -111.619401 36.774892, -111.620176 36.772389, -111.620952 36.769885, -111.621727 36.767382, -111.622503 36.764879, -111.623278 36.762375, -111.624054 36.759872, -111.624829 36.757369, -111.625604 36.754866, -111.626379 36.752362, -111.627155 36.749859, -111.627930 36.747356, -111.628705 36.744852, -111.629480 36.742349, -111.630255 36.739846, -111.631030 36.737342, -111.631804 36.734839, -111.632579 36.732336, -111.633354 36.729832, -111.634129 36.727329, -111.634903 36.724825, -111.635678 36.722322, -111.636452 36.719819, -111.637227 36.717315, -111.638001 36.714812, -111.638776 36.712309, -111.639550 36.709805, -111.640324 36.707302, -111.641099 36.704798, -111.641873 36.702295, -111.642647 36.699792, -111.643421 36.697288, -111.644195 36.694785, -111.644969 36.692281, -111.645743 36.689778, -111.646517 36.687274, -111.647291 36.684771, -111.648065 36.682268, -111.648838 36.679764, -111.649612 36.677261, -111.650386 36.674757, -111.651159 36.672254, -111.651933 36.669750, -111.652706 36.667247, -111.653480 36.664743, -111.654253 36.662240, -111.655026 36.659736, -111.655800 36.657233, -111.656573 36.654729, -111.657346 36.652226, -111.658119 36.649722, -111.658892 36.647219, -111.659665 36.644715, -111.660438 36.642212, -111.661211 36.639708, -111.661984 36.637205, -111.662757 36.634701, -111.663530 36.632197, -111.664302 36.629694, -111.665075 36.627190, -111.665848 36.624687, -111.666620 36.622183, -111.667393 36.619680, -111.668165 36.617176, -111.668938 36.614672, -111.669710 36.612169, -111.670482 36.609665, -111.671255 36.607162, -111.672027 36.604658, -111.672799 36.602154, -111.673571 36.599651, -111.674343 36.597147, -111.675115 36.594644, -111.675887 36.592140, -111.676659 36.589636, -111.677431 36.587133, -111.678203 36.584629, -111.678975 36.582125, -111.679747 36.579622, -111.680518 36.577118, -111.681290 36.574614, -111.682061 36.572111, -111.682833 36.569607, -111.683604 36.567103, -111.684376 36.564600, -111.685147 36.562096, -111.685919 36.559592, -111.686690 36.557089, -111.687461 36.554585, -111.688232 36.552081, -111.689003 36.549578, -111.689774 36.547074, -111.690545 36.544570, -111.691316 36.542066, -111.692087 36.539563, -111.692858 36.537059, -111.693629 36.534555, -111.694400 36.532051, -111.695171 36.529548, -111.695941 36.527044, -111.696712 36.524540, -111.697482 36.522036, -111.698253 36.519533, -111.699023 36.517029, -111.699794 36.514525, -111.700564 36.512021, -111.701335 36.509517, -111.702105 36.507014, -111.702875 36.504510, -111.703645 36.502006, -111.704415 36.499502, -111.705186 36.496998, -111.705956 36.494495, -111.706726 36.491991, -111.707495 36.489487, -111.708265 36.486983, -111.709035 36.484479, -111.709805 36.481975, -111.710575 36.479471, -111.711344 36.476968, -111.712114 36.474464, -111.712884 36.471960, -111.713653 36.469456, -111.714423 36.466952, -111.715192 36.464448, -111.715961 36.461944, -111.716731 36.459440, -111.717500 36.456937, -111.718269 36.454433, -111.719038 36.451929, -111.719808 36.449425, -111.720577 36.446921, -111.721346 36.444417, -111.722115 36.441913, -111.722884 36.439409, -111.723653 36.436905, -111.724421 36.434401, -111.725190 36.431897, -111.725959 36.429393, -111.726728 36.426889, -111.727496 36.424385, -111.728265 36.421881, -111.729033 36.419378, -111.729802 36.416874, -111.730570 36.414370, -111.731339 36.411866, -111.732107 36.409362, -111.732875 36.406858, -111.733644 36.404354, -111.734412 36.401850, -111.735180 36.399346, -111.735948 36.396842, -111.736716 36.394338, -111.737484 36.391834, -111.738252 36.389329, -111.739020 36.386825, -111.739788 36.384321, -111.740556 36.381817, -111.741323 36.379313, -111.742091 36.376809, -111.742859 36.374305, -111.743626 36.371801, -111.744394 36.369297, -111.745161 36.366793, -111.745929 36.364289, -111.746696 36.361785, -111.747463 36.359281, -111.748231 36.356777, -111.748998 36.354273, -111.749765 36.351768, -111.750532 36.349264, -111.751300 36.346760, -111.752067 36.344256, -111.752834 36.341752, -111.753601 36.339248, -111.754367 36.336744, -111.755134 36.334240, -111.755901 36.331735, -111.756668 36.329231, -111.757435 36.326727, -111.758201 36.324223, -111.758968 36.321719, -111.759734 36.319215, -111.760501 36.316710, -111.761267 36.314206, -111.762034 36.311702, -111.762800 36.309198, -111.763567 36.306694, -111.764333 36.304190, -111.765099 36.301685, -111.765865 36.299181, -111.766631 36.296677, -111.767397 36.294173, -111.768163 36.291668, -111.768929 36.289164, -111.769695 36.286660, -111.770461 36.284156, -111.771227 36.281652, -111.771993 36.279147, -111.772758 36.276643, -111.773524 36.274139, -111.774290 36.271635, -111.775055 36.269130, -111.775821 36.266626, -111.776586 36.264122, -111.777352 36.261617, -111.778117 36.259113, -111.778883 36.256609, -111.779648 36.254105, -111.780413 36.251600, -111.781178 36.249096, -111.781943 36.246592, -111.782708 36.244087, -111.783474 36.241583, -111.784239 36.239079, -111.785003 36.236574, -111.785768 36.234070, -111.786533 36.231566, -111.787298 36.229061, -111.788063 36.226557, -111.788827 36.224053, -111.789592 36.221548, -111.790357 36.219044, -111.791121 36.216540, -111.791886 36.214035, -111.792650 36.211531, -111.793415 36.209026, -111.794179 36.206522, -111.794943 36.204018, -111.795708 36.201513, -111.796472 36.199009, -111.797236 36.196504, -111.798000 36.194000, -111.800983 36.193084, -111.803967 36.192167, -111.806950 36.191251, -111.809933 36.190334, -111.812917 36.189418, -111.815900 36.188501, -111.818883 36.187584, -111.821866 36.186667, -111.824849 36.185750, -111.827831 36.184833, -111.830814 36.183916, -111.833797 36.182999, -111.836780 36.182082, -111.839762 36.181164, -111.842745 36.180247, -111.845727 36.179330, -111.848709 36.178412, -111.851692 36.177495, -111.854674 36.176577, -111.857656 36.175659, -111.860638 36.174741, -111.863620 36.173823, -111.866602 36.172905, -111.869584 36.171987, -111.872566 36.171069, -111.875547 36.170151, -111.878529 36.169233, -111.881510 36.168314, -111.884492 36.167396, -111.887473 36.166478, -111.890455 36.165559, -111.893436 36.164640, -111.896417 36.163722, -111.899398 36.162803, -111.902380 36.161884, -111.905361 36.160965, -111.908341 36.160046, -111.911322 36.159127, -111.914303 36.158208, -111.917284 36.157289, -111.920265 36.156369, -111.923245 36.155450, -111.926226 36.154530, -111.929206 36.153611, -111.932187 36.152691, -111.935167 36.151772, -111.938147 36.150852, -111.941127 36.149932, -111.944107 36.149012, -111.947087 36.148092, -111.950067 36.147172, -111.953047 36.146252, -111.956027 36.145332, -111.959007 36.144412, -111.961987 36.143491, -111.964966 36.142571, -111.967946 36.141650, -111.970925 36.140730, -111.973905 36.139809, -111.976884 36.138889, -111.979863 36.137968, -111.982842 36.137047, -111.985821 36.136126, -111.988801 36.135205, -111.991780 36.134284, -111.994758 36.133363, -111.997737 36.132442, -112.000716 36.131520, -112.003695 36.130599, -112.006673 36.129677, -112.009652 36.128756, -112.012630 36.127834, -112.015609 36.126913, -112.018587 36.125991, -112.021566 36.125069, -112.024544 36.124147, -112.027522 36.123225, -112.030500 36.122303, -112.033478 36.121381, -112.036456 36.120459, -112.039434 36.119537, -112.042412 36.118614, -112.045389 36.117692, -112.048367 36.116770, -112.051345 36.115847, -112.054322 36.114924, -112.057300 36.114002, -112.060277 36.113079, -112.063254 36.112156, -112.066231 36.111233, -112.069209 36.110310, -112.072186 36.109387, -112.075163 36.108464, -112.078140 36.107541, -112.081117 36.106618, -112.084093 36.105694, -112.087070 36.104771, -112.090047 36.103847, -112.093023 36.102924, -112.096000 36.102000, -112.099032 36.101190, -112.102064 36.100380, -112.105096 36.099570, -112.108128 36.098760, -112.111160 36.097950, -112.114192 36.097140, -112.117224 36.096330, -112.120255 36.095519, -112.123287 36.094709, -112.126319 36.093899, -112.129350 36.093088, -112.132382 36.092277, -112.135413 36.091467, -112.138444 36.090656, -112.141476 36.089845, -112.144507 36.089034, -112.147538 36.088223, -112.150569 36.087412, -112.153600 36.086601, -112.156631 36.085789, -112.159662 36.084978, -112.162693 36.084167, -112.165724 36.083355, -112.168754 36.082544, -112.171785 36.081732, -112.174816 36.080920, -112.177846 36.080109, -112.180877 36.079297, -112.183907 36.078485, -112.186937 36.077673, -112.189968 36.076861, -112.192998 36.076048, -112.196028 36.075236, -112.199058 36.074424, -112.202088 36.073611, -112.205118 36.072799, -112.208148 36.071986, -112.211178 36.071174, -112.214208 36.070361, -112.217237 36.069548, -112.220267 36.068735, -112.223297 36.067923, -112.226326 36.067110, -112.229356 36.066296, -112.232385 36.065483, -112.235414 36.064670, -112.238444 36.063857, -112.241473 36.063043, -112.244502 36.062230, -112.247531 36.061416, -112.250560 36.060603, -112.253589 36.059789, -112.256618 36.058975, -112.259647 36.058161, -112.262676 36.057348, -112.265704 36.056534, -112.268733 36.055719, -112.271762 36.054905, -112.274790 36.054091, -112.277819 36.053277, -112.280847 36.052462, -112.283875 36.051648, -112.286904 36.050833, -112.289932 36.050019, -112.292960 36.049204, -112.295988 36.048389, -112.299016 36.047574, -112.302044 36.046760, -112.305072 36.045945, -112.308100 36.045130, -112.311127 36.044314, -112.314155 36.043499, -112.317183 36.042684, -112.320210 36.041869, -112.323238 36.041053, -112.326265 36.040238, -112.329293 36.039422, -112.332320 36.038606, -112.335347 36.037791, -112.338375 36.036975, -112.341402 36.036159, -112.344429 36.035343, -112.347456 36.034527, -112.350483 36.033711, -112.353510 36.032894, -112.356537 36.032078, -112.359563 36.031262, -112.362590 36.030445, -112.365617 36.029629, -112.368643 36.028812, -112.371670 36.027996, -112.374696 36.027179, -112.377723 36.026362, -112.380749 36.025545, -112.383775 36.024728, -112.386801 36.023911, -112.389828 36.023094, -112.392854 36.022277, -112.395880 36.021460, -112.398906 36.020642, -112.401931 36.019825, -112.404957 36.019007, -112.407983 36.018190, -112.411009 36.017372, -112.414034 36.016554, -112.417060 36.015737, -112.420085 36.014919, -112.423111 36.014101, -112.426136 36.013283, -112.429162 36.012465, -112.432187 36.011646, -112.435212 36.010828, -112.438237 36.010010, -112.441262 36.009191, -112.444287 36.008373, -112.447312 36.007554, -112.450337 36.006736, -112.453362 36.005917, -112.456387 36.005098, -112.459411 36.004279, -112.462436 36.003460, -112.465461 36.002641, -112.468485 36.001822, -112.471510 36.001003, -112.474534 36.000184, -112.477558 35.999365, -112.480583 35.998545, -112.483607 35.997726, -112.486631 35.996906, -112.489655 35.996086, -112.492679 35.995267, -112.495703 35.994447, -112.498727 35.993627, -112.501751 35.992807, -112.504774 35.991987, -112.507798 35.991167, -112.510822 35.990347, -112.513845 35.989527, -112.516869 35.988706, -112.519892 35.987886, -112.522916 35.987066, -112.525939 35.986245, -112.528962 35.985424, -112.531985 35.984604, -112.535008 35.983783, -112.538031 35.982962, -112.541054 35.982141, -112.544077 35.981320, -112.547100 35.980499, -112.550123 35.979678, -112.553146 35.978857, -112.556169 35.978036, -112.559191 35.977214, -112.562214 35.976393, -112.565236 35.975571, -112.568259 35.974750, -112.571281 35.973928, -112.574303 35.973106, -112.577326 35.972284, -112.580348 35.971462, -112.583370 35.970640, -112.586392 35.969818, -112.589414 35.968996, -112.592436 35.968174, -112.595458 35.967352, -112.598480 35.966529, -112.601501 35.965707, -112.604523 35.964885, -112.607545 35.964062, -112.610566 35.963239, -112.613588 35.962417, -112.616609 35.961594, -112.619630 35.960771, -112.622652 35.959948, -112.625673 35.959125, -112.628694 35.958302, -112.631715 35.957479, -112.634736 35.956655, -112.637757 35.955832, -112.640778 35.955009, -112.643799 35.954185, -112.646820 35.953361, -112.649841 35.952538, -112.652861 35.951714, -112.655882 35.950890, -112.658902 35.950066, -112.661923 35.949242, -112.664943 35.948418, -112.667964 35.947594, -112.670984 35.946770, -112.674004 35.945946, -112.677024 35.945122, -112.680044 35.944297, -112.683064 35.943473, -112.686084 35.942648, -112.689104 35.941824, -112.692124 35.940999, -112.695144 35.940174, -112.698164 35.939349, -112.701183 35.938524, -112.704203 35.937699, -112.707223 35.936874, -112.710242 35.936049, -112.713261 35.935224, -112.716281 35.934399, -112.719300 35.933573, -112.722319 35.932748, -112.725338 35.931922, -112.728357 35.931097, -112.731377 35.930271, -112.734395 35.929445, -112.737414 35.928619, -112.740433 35.927793, -112.743452 35.926967, -112.746471 35.926141, -112.749489 35.925315, -112.752508 35.924489, -112.755527 35.923663, -112.758545 35.922836, -112.761563 35.922010, -112.764582 35.921183, -112.767600 35.920357, -112.770618 35.919530, -112.773636 35.918703, -112.776654 35.917877, -112.779672 35.917050, -112.782690 35.916223, -112.785708 35.915396, -112.788726 35.914569, -112.791744 35.913741, -112.794762 35.912914, -112.797779 35.912087, -112.800797 35.911259, -112.803814 35.910432, -112.806832 35.909604, -112.809849 35.908777, -112.812867 35.907949, -112.815884 35.907121, -112.818901 35.906293, -112.821918 35.905465, -112.824935 35.904637, -112.827952 35.903809, -112.830969 35.902981, -112.833986 35.902153, -112.837003 35.901324, -112.840020 35.900496, -112.843036 35.899667, -112.846053 35.898839, -112.849070 35.898010, -112.852086 35.897182, -112.855103 35.896353, -112.858119 35.895524, -112.861135 35.894695, -112.864151 35.893866, -112.867168 35.893037, -112.870184 35.892208, -112.873200 35.891379, -112.876216 35.890549, -112.879232 35.889720, -112.882248 35.888890, -112.885263 35.888061, -112.888279 35.887231, -112.891295 35.886402, -112.894311 35.885572, -112.897326 35.884742, -112.900342 35.883912, -112.903357 35.883082, -112.906372 35.882252, -112.909388 35.881422, -112.912403 35.880592, -112.915418 35.879761, -112.918433 35.878931, -112.921448 35.878101, -112.924463 35.877270, -112.927478 35.876439, -112.930493 35.875609, -112.933508 35.874778, -112.936523 35.873947, -112.939537 35.873116, -112.942552 35.872285, -112.945566 35.871454, -112.948581 35.870623, -112.951595 35.869792, -112.954610 35.868961, -112.957624 35.868129, -112.960638 35.867298, -112.963652 35.866466, -112.966667 35.865635, -112.969681 35.864803, -112.972695 35.863972, -112.975708 35.863140, -112.978722 35.862308, -112.981736 35.861476, -112.984750 35.860644, -112.987763 35.859812, -112.990777 35.858980, -112.993791 35.858147, -112.996804 35.857315, -112.999818 35.856483, -113.002831 35.855650, -113.005844 35.854818, -113.008857 35.853985, -113.011871 35.853152, -113.014884 35.852320, -113.017897 35.851487, -113.020910 35.850654, -113.023923 35.849821, -113.026935 35.848988, -113.029948 35.848155, -113.032961 35.847321, -113.035973 35.846488, -113.038986 35.845655, -113.041999 35.844821, -113.045011 35.843988, -113.048023 35.843154, -113.051036 35.842320, -113.054048 35.841487, -113.057060 35.840653, -113.060072 35.839819, -113.063084 35.838985, -113.066097 35.838151, -113.069108 35.837317, -113.072120 35.836483, -113.075132 35.835648, -113.078144 35.834814, -113.081156 35.833980, -113.084167 35.833145, -113.087179 35.832310, -113.090190 35.831476, -113.093202 35.830641, -113.096213 35.829806, -113.099225 35.828971, -113.102236 35.828136, -113.105247 35.827301, -113.108258 35.826466, -113.111269 35.825631, -113.114280 35.824796, -113.117291 35.823961, -113.120302 35.823125, -113.123313 35.822290, -113.126324 35.821454, -113.129334 35.820618, -113.132345 35.819783, -113.135355 35.818947, -113.138366 35.818111, -113.141376 35.817275, -113.144387 35.816439, -113.147397 35.815603, -113.150407 35.814767, -113.153417 35.813931, -113.156428 35.813094, -113.159438 35.812258, -113.162448 35.811422, -113.165458 35.810585, -113.168467 35.809748, -113.171477 35.808912, -113.174487 35.808075, -113.177497 35.807238, -113.180506 35.806401, -113.183516 35.805564, -113.186525 35.804727, -113.189535 35.803890, -113.192544 35.803053, -113.195553 35.802216, -113.198563 35.801378, -113.201572 35.800541, -113.204581 35.799703, -113.207590 35.798866, -113.210599 35.798028, -113.213608 35.797190, -113.216617 35.796353, -113.219625 35.795515, -113.222634 35.794677, -113.225643 35.793839, -113.228651 35.793001, -113.231660 35.792162, -113.234668 35.791324, -113.237677 35.790486, -113.240685 35.789647, -113.243693 35.788809, -113.246702 35.787970, -113.249710 35.787132, -113.252718 35.786293, -113.255726 35.785454, -113.258734 35.784616, -113.261742 35.783777, -113.264749 35.782938, -113.267757 35.782098, -113.270765 35.781259, -113.273773 35.780420, -113.276780 35.779581, -113.279788 35.778741, -113.282795 35.777902, -113.285803 35.777062, -113.288810 35.776223, -113.291817 35.775383, -113.294824 35.774543, -113.297831 35.773704, -113.300838 35.772864, -113.303846 35.772024, -113.306852 35.771184, -113.309859 35.770344, -113.312866 35.769503, -113.315873 35.768663, -113.318880 35.767823, -113.321886 35.766982, -113.324893 35.766142, -113.327899 35.765301, -113.330906 35.764461, -113.333912 35.763620, -113.336918 35.762779, -113.339925 35.761938, -113.342931 35.761097, -113.345937 35.760256, -113.348943 35.759415, -113.351949 35.758574, -113.354955 35.757733, -113.357961 35.756891, -113.360967 35.756050, -113.363972 35.755208, -113.366978 35.754367, -113.369984 35.753525, -113.372989 35.752684, -113.375995 35.751842, -113.379000 35.751000, -113.381460 35.752631, -113.383920 35.754262, -113.386380 35.755894, -113.388840 35.757525, -113.391301 35.759156, -113.393761 35.760787, -113.396221 35.762418, -113.398682 35.764049, -113.401143 35.765679, -113.403604 35.767310, -113.406065 35.768941, -113.408526 35.770572, -113.410987 35.772202, -113.413448 35.773833, -113.415909 35.775464, -113.418371 35.777094, -113.420832 35.778724, -113.423294 35.780355, -113.425756 35.781985, -113.428217 35.783616, -113.430679 35.785246, -113.433141 35.786876, -113.435603 35.788506, -113.438066 35.790136, -113.440528 35.791766, -113.442990 35.793396, -113.445453 35.795026, -113.447916 35.796656, -113.450378 35.798286, -113.452841 35.799916, -113.455304 35.801546, -113.457767 35.803175, -113.460230 35.804805, -113.462694 35.806434, -113.465157 35.808064, -113.467620 35.809694, -113.470084 35.811323, -113.472548 35.812952, -113.475011 35.814582, -113.477475 35.816211, -113.479939 35.817840, -113.482403 35.819469, -113.484867 35.821099, -113.487332 35.822728, -113.489796 35.824357, -113.492260 35.825986, -113.494725 35.827615, -113.497190 35.829244, -113.499654 35.830872, -113.502119 35.832501, -113.504584 35.834130, -113.507049 35.835759, -113.509514 35.837387, -113.511980 35.839016, -113.514445 35.840644, -113.516910 35.842273, -113.519376 35.843901, -113.521842 35.845530, -113.524307 35.847158, -113.526773 35.848786, -113.529239 35.850415, -113.531705 35.852043, -113.534172 35.853671, -113.536638 35.855299, -113.539104 35.856927, -113.541571 35.858555, -113.544037 35.860183, -113.546504 35.861811, -113.548971 35.863439, -113.551438 35.865066, -113.553905 35.866694, -113.556372 35.868322, -113.558839 35.869950, -113.561306 35.871577, -113.563774 35.873205, -113.566241 35.874832, -113.568709 35.876460, -113.571176 35.878087, -113.573644 35.879714, -113.576112 35.881342, -113.578580 35.882969, -113.581048 35.884596, -113.583516 35.886223, -113.585985 35.887850, -113.588453 35.889477, -113.590922 35.891104, -113.593390 35.892731, -113.595859 35.894358, -113.598328 35.895985, -113.600797 35.897612, -113.603266 35.899238, -113.605735 35.900865, -113.608204 35.902492, -113.610673 35.904118, -113.613143 35.905745, -113.615612 35.907371, -113.618082 35.908998, -113.620552 35.910624, -113.623021 35.912250, -113.625491 35.913877, -113.627961 35.915503, -113.630431 35.917129, -113.632902 35.918755, -113.635372 35.920381, -113.637842 35.922007, -113.640313 35.923633, -113.642784 35.925259, -113.645254 35.926885, -113.647725 35.928511, -113.650196 35.930136, -113.652667 35.931762, -113.655138 35.933388, -113.657610 35.935013, -113.660081 35.936639, -113.662552 35.938265, -113.665024 35.939890, -113.667496 35.941515, -113.669967 35.943141, -113.672439 35.944766, -113.674911 35.946391, -113.677383 35.948017, -113.679855 35.949642, -113.682328 35.951267, -113.684800 35.952892, -113.687273 35.954517, -113.689745 35.956142, -113.692218 35.957767, -113.694691 35.959392, -113.697163 35.961016, -113.699636 35.962641, -113.702110 35.964266, -113.704583 35.965890, -113.707056 35.967515, -113.709529 35.969140, -113.712003 35.970764, -113.714476 35.972389, -113.716950 35.974013, -113.719424 35.975637, -113.721898 35.977262, -113.724372 35.978886, -113.726846 35.980510, -113.729320 35.982134, -113.731794 35.983758, -113.734269 35.985382, -113.736743 35.987006, -113.739218 35.988630, -113.741693 35.990254, -113.744167 35.991878, -113.746642 35.993502, -113.749117 35.995125, -113.751592 35.996749, -113.754068 35.998373, -113.756543 35.999996, -113.759018 36.001620, -113.761494 36.003243, -113.763970 36.004867, -113.766445 36.006490, -113.768921 36.008114, -113.771397 36.009737, -113.773873 36.011360, -113.776349 36.012983, -113.778825 36.014606, -113.781302 36.016229, -113.783778 36.017852, -113.786255 36.019475, -113.788731 36.021098, -113.791208 36.022721, -113.793685 36.024344, -113.796162 36.025967, -113.798639 36.027589, -113.801116 36.029212, -113.803593 36.030835, -113.806071 36.032457, -113.808548 36.034080, -113.811026 36.035702, -113.813504 36.037325, -113.815981 36.038947, -113.818459 36.040569, -113.820937 36.042192, -113.823415 36.043814, -113.825893 36.045436, -113.828372 36.047058, -113.830850 36.048680, -113.833329 36.050302, -113.835807 36.051924, -113.838286 36.053546, -113.840765 36.055168, -113.843243 36.056790, -113.845722 36.058411, -113.848202 36.060033, -113.850681 36.061655, -113.853160 36.063276, -113.855639 36.064898, -113.858119 36.066519, -113.860599 36.068141, -113.863078 36.069762, -113.865558 36.071384, -113.868038 36.073005, -113.870518 36.074626, -113.872998 36.076247, -113.875478 36.077868, -113.877959 36.079490, -113.880439 36.081111, -113.882920 36.082732, -113.885400 36.084352, -113.887881 36.085973, -113.890362 36.087594, -113.892843 36.089215, -113.895324 36.090836, -113.897805 36.092456, -113.900286 36.094077, -113.902768 36.095698, -113.905249 36.097318, -113.907731 36.098939, -113.910212 36.100559, -113.912694 36.102179, -113.915176 36.103800, -113.917658 36.105420, -113.920140 36.107040, -113.922622 36.108660, -113.925104 36.110280, -113.927587 36.111900, -113.930069 36.113520, -113.932552 36.115140, -113.935034 36.116760, -113.937517 36.118380, -113.940000 36.120000, -113.942228 36.121845, -113.944456 36.123690, -113.946685 36.125535, -113.948913 36.127380, -113.951142 36.129225, -113.953371 36.131070, -113.955600 36.132915, -113.957828 36.134760, -113.960058 36.136605, -113.962287 36.138450, -113.964516 36.140295, -113.966745 36.142139, -113.968975 36.143984, -113.971204 36.145829, -113.973434 36.147673, -113.975664 36.149518, -113.977894 36.151362, -113.980124 36.153207, -113.982354 36.155051, -113.984584 36.156896, -113.986814 36.158740, -113.989044 36.160584, -113.991275 36.162429, -113.993506 36.164273, -113.995736 36.166117, -113.997967 36.167961, -114.000198 36.169805, -114.002429 36.171649, -114.004660 36.173493, -114.006891 36.175337, -114.009123 36.177181, -114.011354 36.179025, -114.013586 36.180869, -114.015817 36.182713, -114.018049 36.184557, -114.020281 36.186400, -114.022513 36.188244, -114.024745 36.190088, -114.026977 36.191931, -114.029210 36.193775, -114.031442 36.195618, -114.033674 36.197462, -114.035907 36.199305, -114.038140 36.201149, -114.040373 36.202992, -114.042605 36.204835, -114.044838 36.206679, -114.047072 36.208522, -114.049305 36.210365, -114.051538 36.212208, -114.053772 36.214051, -114.056005 36.215894, -114.058239 36.217737, -114.060473 36.219580, -114.062706 36.221423, -114.064940 36.223266, -114.067174 36.225109, -114.069409 36.226952, -114.071643 36.228795, -114.073877 36.230637, -114.076112 36.232480, -114.078346 36.234323, -114.080581 36.236165, -114.082816 36.238008, -114.085051 36.239850, -114.087286 36.241693, -114.089521 36.243535, -114.091756 36.245378, -114.093992 36.247220, -114.096227 36.249062, -114.098463 36.250905, -114.100698 36.252747, -114.102934 36.254589, -114.105170 36.256431, -114.107406 36.258273, -114.109642 36.260115, -114.111878 36.261958, -114.114114 36.263799, -114.116351 36.265641, -114.118587 36.267483, -114.120824 36.269325, -114.123061 36.271167, -114.125297 36.273009, -114.127534 36.274851, -114.129771 36.276692, -114.132008 36.278534, -114.134246 36.280375, -114.136483 36.282217, -114.138720 36.284059, -114.140958 36.285900, -114.143196 36.287742, -114.145433 36.289583, -114.147671 36.291424, -114.149909 36.293266, -114.152147 36.295107, -114.154386 36.296948, -114.156624 36.298789, -114.158862 36.300630, -114.161101 36.302472, -114.163339 36.304313, -114.165578 36.306154, -114.167817 36.307995, -114.170056 36.309836, -114.172295 36.311676, -114.174534 36.313517, -114.176773 36.315358, -114.179013 36.317199, -114.181252 36.319040, -114.183492 36.320880, -114.185731 36.322721, -114.187971 36.324562, -114.190211 36.326402, -114.192451 36.328243, -114.194691 36.330083, -114.196931 36.331924, -114.199171 36.333764, -114.201412 36.335604, -114.203652 36.337445, -114.205893 36.339285, -114.208134 36.341125, -114.210375 36.342965, -114.212615 36.344806, -114.214857 36.346646, -114.217098 36.348486, -114.219339 36.350326, -114.221580 36.352166, -114.223822 36.354006, -114.226063 36.355846, -114.228305 36.357685, -114.230547 36.359525, -114.232789 36.361365, -114.235031 36.363205, -114.237273 36.365044, -114.239515 36.366884, -114.241757 36.368724, -114.244000 36.370563, -114.246242 36.372403, -114.248485 36.374242, -114.250728 36.376082, -114.252970 36.377921, -114.255213 36.379760, -114.257456 36.381600, -114.259700 36.383439, -114.261943 36.385278, -114.264186 36.387117, -114.266430 36.388957, -114.268673 36.390796, -114.270917 36.392635, -114.273161 36.394474, -114.275405 36.396313, -114.277649 36.398152, -114.279893 36.399991, -114.282137 36.401829, -114.284381 36.403668, -114.286626 36.405507, -114.288870 36.407346, -114.291115 36.409184, -114.293360 36.411023, -114.295605 36.412862, -114.297850 36.414700, -114.300095 36.416539, -114.302340 36.418377, -114.304585 36.420216, -114.306831 36.422054, -114.309076 36.423892, -114.311322 36.425731, -114.313567 36.427569, -114.315813 36.429407, -114.318059 36.431245, -114.320305 36.433083, -114.322551 36.434922, -114.324798 36.436760, -114.327044 36.438598, -114.329290 36.440436, -114.331537 36.442273, -114.333784 36.444111, -114.336030 36.445949, -114.338277 36.447787, -114.340524 36.449625, -114.342771 36.451462, -114.345019 36.453300, -114.347266 36.455138, -114.349513 36.456975, -114.351761 36.458813, -114.354008 36.460650, -114.356256 36.462488, -114.358504 36.464325, -114.360752 36.466163, -114.363000 36.468000)
