LINESTRING (4.600000 10.190000, 4.600429 10.188011, 4.600858 10.186023, 4.601287 10.184034, 4.601716 10.182045, 4.602144 10.180056, 4.602573 10.178068, 4.603002 10.176079, 4.603431 10.174090, 4.603860 10.172102, 4.604289 10.170113, 4.604718 10.168124, 4.605146 10.166136, 4.605575 10.164147, 4.606004 10.162158, 4.606433 10.160169, 4.606862 10.158181, 4.607290 10.156192, 4.607719 10.154203, 4.608148 10.152215, 4.608577 10.150226, 4.609006 10.148237, 4.609434 10.146248, 4.609863 10.144260, 4.610292 10.142271, 4.610721 10.140282, 4.611149 10.138294, 4.611578 10.136305, 4.612007 10.134316, 4.612436 10.132327, 4.612864 10.130339, 4.613293 10.128350, 4.613722 10.126361, 4.614151 10.124373, 4.614579 10.122384, 4.615008 10.120395, 4.615437 10.118406, 4.615865 10.116418, 4.616294 10.114429, 4.616723 10.112440, 4.617152 10.110451, 4.617580 10.108463, 4.618009 10.106474, 4.618438 10.104485, 4.618866 10.102497, 4.619295 10.100508, 4.619724 10.098519, 4.620152 10.096530, 4.620581 10.094542, 4.621009 10.092553, 4.621438 10.090564, 4.621867 10.088575, 4.622295 10.086587, 4.622724 10.084598, 4.623153 10.082609, 4.623581 10.080620, 4.624010 10.078632, 4.624438 10.076643, 4.624867 10.074654, 4.625296 10.072666, 4.625724 10.070677, 4.626153 10.068688, 4.626581 10.066699, 4.627010 10.064711, 4.627438 10.062722, 4.627867 10.060733, 4.628295 10.058744, 4.628724 10.056756, 4.629153 10.054767, 4.629581 10.052778, 4.630010 10.050789, 4.630438 10.048801, 4.630867 10.046812, 4.631295 10.044823, 4.631724 10.042834, 4.632152 10.040846, 4.632581 10.038857, 4.633009 10.036868, 4.633438 10.034879, 4.633866 10.032891, 4.634295 10.030902, 4.634723 10.028913, 4.635151 10.026924, 4.635580 10.024936, 4.636008 10.022947, 4.636437 10.020958, 4.636865 10.018969, 4.637294 10.016981, 4.637722 10.014992, 4.638151 10.013003, 4.638579 10.011014, 4.639007 10.009026, 4.639436 10.007037, 4.639864 10.005048, 4.640293 10.003059, 4.640721 10.001071, 4.641149 9.999082, 4.641578 9.997093, 4.642006 9.995104, 4.642435 9.993116, 4.642863 9.991127, 4.643291 9.989138, 4.643720 9.987149, 4.644148 9.985161, 4.644576 9.983172, 4.645005 9.981183, 4.645433 9.979194, 4.645861 9.977206, 4.646290 9.975217, 4.646718 9.973228, 4.647146 9.971239, 4.647575 9.969251, 4.648003 9.967262, 4.648431 9.965273, 4.648859 9.963284, 4.649288 9.961296, 4.649716 9.959307, 4.650144 9.957318, 4.650573 9.955329, 4.651001 9.953340, 4.651429 9.951352, 4.651857 9.949363, 4.652286 9.947374, 4.652714 9.945385, 4.653142 9.943397, 4.653570 9.941408, 4.653999 9.939419, 4.654427 9.937430, 4.654855 9.935441, 4.655283 9.933453, 4.655711 9.931464, 4.656140 9.929475, 4.656568 9.927486, 4.656996 9.925498, 4.657424 9.923509, 4.657852 9.921520, 4.658281 9.919531, 4.658709 9.917543, 4.659137 9.915554, 4.659565 9.913565, 4.659993 9.911576, 4.660421 9.909587, 4.660850 9.907599, 4.661278 9.905610, 4.661706 9.903621, 4.662134 9.901632, 4.662562 9.899643, 4.662990 9.897655, 4.663418 9.895666, 4.663847 9.893677, 4.664275 9.891688, 4.664703 9.889700, 4.665131 9.887711, 4.665559 9.885722, 4.665987 9.883733, 4.666415 9.881744, 4.666843 9.879756, 4.667271 9.877767, 4.667699 9.875778, 4.668127 9.873789, 4.668555 9.871800, 4.668983 9.869812, 4.669412 9.867823, 4.669840 9.865834, 4.670268 9.863845, 4.670696 9.861857, 4.671124 9.859868, 4.671552 9.857879, 4.671980 9.855890, 4.672408 9.853901, 4.672836 9.851913, 4.673264 9.849924, 4.673692 9.847935, 4.674120 9.845946, 4.674548 9.843957, 4.674976 9.841969, 4.675404 9.839980, 4.675832 9.837991, 4.676260 9.836002, 4.676687 9.834013, 4.677115 9.832025, 4.677543 9.830036, 4.677971 9.828047, 4.678399 9.826058, 4.678827 9.824069, 4.679255 9.822081, 4.679683 9.820092, 4.680111 9.818103, 4.680539 9.816114, 4.680967 9.814125, 4.681395 9.812136, 4.681823 9.810148, 4.682250 9.808159, 4.682678 9.806170, 4.683106 9.804181, 4.683534 9.802192, 4.683962 9.800204, 4.684390 9.798215, 4.684818 9.796226, 4.685246 9.794237, 4.685673 9.792248, 4.686101 9.790260, 4.686529 9.788271, 4.686957 9.786282, 4.687385 9.784293, 4.687813 9.782304, 4.688240 9.780316, 4.688668 9.778327, 4.689096 9.776338, 4.689524 9.774349, 4.689952 9.772360, 4.690379 9.770371, 4.690807 9.768383, 4.691235 9.766394, 4.691663 9.764405, 4.692091 9.762416, 4.692518 9.760427, 4.692946 9.758439, 4.693374 9.756450, 4.693802 9.754461, 4.694229 9.752472, 4.694657 9.750483, 4.695085 9.748494, 4.695513 9.746506, 4.695940 9.744517, 4.696368 9.742528, 4.696796 9.740539, 4.697223 9.738550, 4.697651 9.736561, 4.698079 9.734573, 4.698507 9.732584, 4.698934 9.730595, 4.699362 9.728606, 4.699790 9.726617, 4.700217 9.724628, 4.700645 9.722640, 4.701073 9.720651, 4.701500 9.718662, 4.701928 9.716673, 4.702356 9.714684, 4.702783 9.712695, 4.703211 9.710707, 4.703638 9.708718, 4.704066 9.706729, 4.704494 9.704740, 4.704921 9.702751, 4.705349 9.700762, 4.705777 9.698774, 4.706204 9.696785, 4.706632 9.694796, 4.707059 9.692807, 4.707487 9.690818, 4.707915 9.688829, 4.708342 9.686841, 4.708770 9.684852, 4.709197 9.682863, 4.709625 9.680874, 4.710052 9.678885, 4.710480 9.676896, 4.710907 9.674908, 4.711335 9.672919, 4.711763 9.670930, 4.712190 9.668941, 4.712618 9.666952, 4.713045 9.664963, 4.713473 9.662974, 4.713900 9.660986, 4.714328 9.658997, 4.714755 9.657008, 4.715183 9.655019, 4.715610 9.653030, 4.716038 9.651041, 4.716465 9.649053, 4.716893 9.647064, 4.717320 9.645075, 4.717748 9.643086, 4.718175 9.641097, 4.718602 9.639108, 4.719030 9.637119, 4.719457 9.635131, 4.719885 9.633142, 4.720312 9.631153, 4.720740 9.629164, 4.721167 9.627175, 4.721595 9.625186, 4.722022 9.623197, 4.722449 9.621209, 4.722877 9.619220, 4.723304 9.617231, 4.723732 9.615242, 4.724159 9.613253, 4.724586 9.611264, 4.725014 9.609275, 4.725441 9.607287, 4.725869 9.605298, 4.726296 9.603309, 4.726723 9.601320, 4.727151 9.599331, 4.727578 9.597342, 4.728005 9.595353, 4.728433 9.593365, 4.728860 9.591376, 4.729287 9.589387, 4.729715 9.587398, 4.730142 9.585409, 4.730569 9.583420, 4.730997 9.581431, 4.731424 9.579442, 4.731851 9.577454, 4.732278 9.575465, 4.732706 9.573476, 4.733133 9.571487, 4.733560 9.569498, 4.733988 9.567509, 4.734415 9.565520, 4.734842 9.563531, 4.735269 9.561543, 4.735697 9.559554, 4.736124 9.557565, 4.736551 9.555576, 4.736978 9.553587, 4.737406 9.551598, 4.737833 9.549609, 4.738260 9.547620, 4.738687 9.545632, 4.739115 9.543643, 4.739542 9.541654, 4.739969 9.539665, 4.740396 9.537676, 4.740823 9.535687, 4.741251 9.533698, 4.741678 9.531709, 4.742105 9.529721, 4.742532 9.527732, 4.742959 9.525743, 4.743386 9.523754, 4.743814 9.521765, 4.744241 9.519776, 4.744668 9.517787, 4.745095 9.515798, 4.745522 9.513809, 4.745949 9.511821, 4.746377 9.509832, 4.746804 9.507843, 4.747231 9.505854, 4.747658 9.503865, 4.748085 9.501876, 4.748512 9.499887, 4.748939 9.497898, 4.749366 9.495909, 4.749793 9.493921, 4.750220 9.491932, 4.750648 9.489943, 4.751075 9.487954, 4.751502 9.485965, 4.751929 9.483976, 4.752356 9.481987, 4.752783 9.479998, 4.753210 9.478009, 4.753637 9.476021, 4.754064 9.474032, 4.754491 9.472043, 4.754918 9.470054, 4.755345 9.468065, 4.755772 9.466076, 4.756199 9.464087, 4.756626 9.462098, 4.757053 9.460109, 4.757480 9.458120, 4.757907 9.456132, 4.758334 9.454143, 4.758761 9.452154, 4.759188 9.450165, 4.759615 9.448176, 4.760042 9.446187, 4.760469 9.444198, 4.760896 9.442209, 4.761323 9.440220, 4.761750 9.438231, 4.762177 9.436243, 4.762604 9.434254, 4.763031 9.432265, 4.763458 9.430276, 4.763885 9.428287, 4.764312 9.426298, 4.764739 9.424309, 4.765165 9.422320, 4.765592 9.420331, 4.766019 9.418342, 4.766446 9.416353, 4.766873 9.414365, 4.767300 9.412376, 4.767727 9.410387, 4.768154 9.408398, 4.768581 9.406409, 4.769007 9.404420, 4.769434 9.402431, 4.769861 9.400442, 4.770288 9.398453, 4.770715 9.396464, 4.771142 9.394475, 4.771569 9.392486, 4.771995 9.390498, 4.772422 9.388509, 4.772849 9.386520, 4.773276 9.384531, 4.773703 9.382542, 4.774130 9.380553, 4.774556 9.378564, 4.774983 9.376575, 4.775410 9.374586, 4.775837 9.372597, 4.776264 9.370608, 4.776690 9.368619, 4.777117 9.366630, 4.777544 9.364642, 4.777971 9.362653, 4.778397 9.360664, 4.778824 9.358675, 4.779251 9.356686, 4.779678 9.354697, 4.780104 9.352708, 4.780531 9.350719, 4.780958 9.348730, 4.781385 9.346741, 4.781811 9.344752, 4.782238 9.342763, 4.782665 9.340774, 4.783091 9.338786, 4.783518 9.336797, 4.783945 9.334808, 4.784372 9.332819, 4.784798 9.330830, 4.785225 9.328841, 4.785652 9.326852, 4.786078 9.324863, 4.786505 9.322874, 4.786932 9.320885, 4.787358 9.318896, 4.787785 9.316907, 4.788212 9.314918, 4.788638 9.312929, 4.789065 9.310940, 4.789492 9.308951, 4.789918 9.306963, 4.790345 9.304974, 4.790771 9.302985, 4.791198 9.300996, 4.791625 9.299007, 4.792051 9.297018, 4.792478 9.295029, 4.792904 9.293040, 4.793331 9.291051, 4.793758 9.289062, 4.794184 9.287073, 4.794611 9.285084, 4.795037 9.283095, 4.795464 9.281106, 4.795890 9.279117, 4.796317 9.277128, 4.796744 9.275139, 4.797170 9.273150, 4.797597 9.271162, 4.798023 9.269173, 4.798450 9.267184, 4.798876 9.265195, 4.799303 9.263206, 4.799729 9.261217, 4.800156 9.259228, 4.800582 9.257239, 4.801009 9.255250, 4.801435 9.253261, 4.801862 9.251272, 4.802288 9.249283, 4.802715 9.247294, 4.803141 9.245305, 4.803568 9.243316, 4.803994 9.241327, 4.804421 9.239338, 4.804847 9.237349, 4.805274 9.235360, 4.805700 9.233371, 4.806127 9.231382, 4.806553 9.229394, 4.806979 9.227405, 4.807406 9.225416, 4.807832 9.223427, 4.808259 9.221438, 4.808685 9.219449, 4.809112 9.217460, 4.809538 9.215471, 4.809964 9.213482, 4.810391 9.211493, 4.810817 9.209504, 4.811244 9.207515, 4.811670 9.205526, 4.812096 9.203537, 4.812523 9.201548, 4.812949 9.199559, 4.813375 9.197570, 4.813802 9.195581, 4.814228 9.193592, 4.814655 9.191603, 4.815081 9.189614, 4.815507 9.187625, 4.815934 9.185636, 4.816360 9.183647, 4.816786 9.181658, 4.817213 9.179669, 4.817639 9.177680, 4.818065 9.175691, 4.818491 9.173702, 4.818918 9.171713, 4.819344 9.169725, 4.819770 9.167736, 4.820197 9.165747, 4.820623 9.163758, 4.821049 9.161769, 4.821475 9.159780, 4.821902 9.157791, 4.822328 9.155802, 4.822754 9.153813, 4.823181 9.151824, 4.823607 9.149835, 4.824033 9.147846, 4.824459 9.145857, 4.824886 9.143868, 4.825312 9.141879, 4.825738 9.139890, 4.826164 9.137901, 4.826590 9.135912, 4.827017 9.133923, 4.827443 9.131934, 4.827869 9.129945, 4.828295 9.127956, 4.828721 9.125967, 4.829148 9.123978, 4.829574 9.121989, 4.830000 9.120000, 4.831690 9.118840, 4.833380 9.117680, 4.835071 9.116520, 4.836761 9.115361, 4.838451 9.114201, 4.840141 9.113041, 4.841831 9.111881, 4.843521 9.110721, 4.845212 9.109561, 4.846902 9.108401, 4.848592 9.107241, 4.850282 9.106082, 4.851972 9.104922, 4.853662 9.103762, 4.855352 9.102602, 4.857042 9.101442, 4.858732 9.100282, 4.860422 9.099122, 4.862112 9.097962, 4.863802 9.096802, 4.865492 9.095642, 4.867182 9.094482, 4.868872 9.093322, 4.870562 9.092162, 4.872252 9.091002, 4.873942 9.089842, 4.875632 9.088682, 4.877322 9.087522, 4.879012 9.086362, 4.880702 9.085202, 4.882392 9.084042, 4.884082 9.082882, 4.885772 9.081722, 4.887461 9.080562, 4.889151 9.079401, 4.890841 9.078241, 4.892531 9.077081, 4.894221 9.075921, 4.895911 9.074761, 4.897600 9.073601, 4.899290 9.072441, 4.900980 9.071281, 4.902670 9.070120, 4.904359 9.068960, 4.906049 9.067800, 4.907739 9.066640, 4.909429 9.065480, 4.911118 9.064320, 4.912808 9.063159, 4.914498 9.061999, 4.916187 9.060839, 4.917877 9.059679, 4.919567 9.058518, 4.921256 9.057358, 4.922946 9.056198, 4.924636 9.055038, 4.926325 9.053877, 4.928015 9.052717, 4.929704 9.051557, 4.931394 9.050397, 4.933084 9.049236, 4.934773 9.048076, 4.936463 9.046916, 4.938152 9.045755, 4.939842 9.044595, 4.941531 9.043435, 4.943221 9.042274, 4.944910 9.041114, 4.946600 9.039954, 4.948289 9.038793, 4.949979 9.037633, 4.951668 9.036473, 4.953357 9.035312, 4.955047 9.034152, 4.956736 9.032991, 4.958426 9.031831, 4.960115 9.030671, 4.961804 9.029510, 4.963494 9.028350, 4.965183 9.027189, 4.966873 9.026029, 4.968562 9.024868, 4.970251 9.023708, 4.971941 9.022547, 4.973630 9.021387, 4.975319 9.020227, 4.977008 9.019066, 4.978698 9.017906, 4.980387 9.016745, 4.982076 9.015584, 4.983765 9.014424, 4.985455 9.013263, 4.987144 9.012103, 4.988833 9.010942, 4.990522 9.009782, 4.992211 9.008621, 4.993901 9.007461, 4.995590 9.006300, 4.997279 9.005139, 4.998968 9.003979, 5.000657 9.002818, 5.002346 9.001658, 5.004035 9.000497, 5.005725 8.999336, 5.007414 8.998176, 5.009103 8.997015, 5.010792 8.995855, 5.012481 8.994694, 5.014170 8.993533, 5.015859 8.992373, 5.017548 8.991212, 5.019237 8.990051, 5.020926 8.988890, 5.022615 8.987730, 5.024304 8.986569, 5.025993 8.985408, 5.027682 8.984248, 5.029371 8.983087, 5.031060 8.981926, 5.032749 8.980765, 5.034438 8.979605, 5.036126 8.978444, 5.037815 8.977283, 5.039504 8.976122, 5.041193 8.974962, 5.042882 8.973801, 5.044571 8.972640, 5.046260 8.971479, 5.047948 8.970318, 5.049637 8.969157, 5.051326 8.967997, 5.053015 8.966836, 5.054704 8.965675, 5.056392 8.964514, 5.058081 8.963353, 5.059770 8.962192, 5.061459 8.961032, 5.063147 8.959871, 5.064836 8.958710, 5.066525 8.957549, 5.068214 8.956388, 5.069902 8.955227, 5.071591 8.954066, 5.073280 8.952905, 5.074968 8.951744, 5.076657 8.950583, 5.078346 8.949422, 5.080034 8.948261, 5.081723 8.947100, 5.083411 8.945939, 5.085100 8.944778, 5.086789 8.943617, 5.088477 8.942456, 5.090166 8.941295, 5.091854 8.940134, 5.093543 8.938973, 5.095231 8.937812, 5.096920 8.936651, 5.098608 8.935490, 5.100297 8.934329, 5.101985 8.933168, 5.103674 8.932007, 5.105362 8.930846, 5.107051 8.929685, 5.108739 8.928524, 5.110428 8.927363, 5.112116 8.926202, 5.113804 8.925040, 5.115493 8.923879, 5.117181 8.922718, 5.118870 8.921557, 5.120558 8.920396, 5.122246 8.919235, 5.123935 8.918074, 5.125623 8.916912, 5.127311 8.915751, 5.129000 8.914590, 5.130688 8.913429, 5.132376 8.912268, 5.134064 8.911107, 5.135753 8.909945, 5.137441 8.908784, 5.139129 8.907623, 5.140817 8.906462, 5.142506 8.905300, 5.144194 8.904139, 5.145882 8.902978, 5.147570 8.901817, 5.149258 8.900655, 5.150947 8.899494, 5.152635 8.898333, 5.154323 8.897171, 5.156011 8.896010, 5.157699 8.894849, 5.159387 8.893688, 5.161075 8.892526, 5.162764 8.891365, 5.164452 8.890204, 5.166140 8.889042, 5.167828 8.887881, 5.169516 8.886719, 5.171204 8.885558, 5.172892 8.884397, 5.174580 8.883235, 5.176268 8.882074, 5.177956 8.880912, 5.179644 8.879751, 5.181332 8.878590, 5.183020 8.877428, 5.184708 8.876267, 5.186396 8.875105, 5.188084 8.873944, 5.189772 8.872782, 5.191460 8.871621, 5.193147 8.870460, 5.194835 8.869298, 5.196523 8.868137, 5.198211 8.866975, 5.199899 8.865814, 5.201587 8.864652, 5.203275 8.863491, 5.204962 8.862329, 5.206650 8.861167, 5.208338 8.860006, 5.210026 8.858844, 5.211714 8.857683, 5.213401 8.856521, 5.215089 8.855360, 5.216777 8.854198, 5.218465 8.853037, 5.220152 8.851875, 5.221840 8.850713, 5.223528 8.849552, 5.225216 8.848390, 5.226903 8.847228, 5.228591 8.846067, 5.230279 8.844905, 5.231966 8.843744, 5.233654 8.842582, 5.235342 8.841420, 5.237029 8.840259, 5.238717 8.839097, 5.240404 8.837935, 5.242092 8.836774, 5.243780 8.835612, 5.245467 8.834450, 5.247155 8.833288, 5.248842 8.832127, 5.250530 8.830965, 5.252217 8.829803, 5.253905 8.828641, 5.255592 8.827480, 5.257280 8.826318, 5.258967 8.825156, 5.260655 8.823994, 5.262342 8.822833, 5.264030 8.821671, 5.265717 8.820509, 5.267405 8.819347, 5.269092 8.818185, 5.270779 8.817024, 5.272467 8.815862, 5.274154 8.814700, 5.275842 8.813538, 5.277529 8.812376, 5.279216 8.811214, 5.280904 8.810053, 5.282591 8.808891, 5.284278 8.807729, 5.285966 8.806567, 5.287653 8.805405, 5.289340 8.804243, 5.291028 8.803081, 5.292715 8.801919, 5.294402 8.800757, 5.296089 8.799595, 5.297777 8.798433, 5.299464 8.797272, 5.301151 8.796110, 5.302838 8.794948, 5.304526 8.793786, 5.306213 8.792624, 5.307900 8.791462, 5.309587 8.790300, 5.311274 8.789138, 5.312961 8.787976, 5.314649 8.786814, 5.316336 8.785652, 5.318023 8.784490, 5.319710 8.783328, 5.321397 8.782166, 5.323084 8.781003, 5.324771 8.779841, 5.326458 8.778679, 5.328145 8.777517, 5.329832 8.776355, 5.331519 8.775193, 5.333206 8.774031, 5.334893 8.772869, 5.336580 8.771707, 5.338267 8.770545, 5.339954 8.769383, 5.341641 8.768220, 5.343328 8.767058, 5.345015 8.765896, 5.346702 8.764734, 5.348389 8.763572, 5.350076 8.762410, 5.351763 8.761247, 5.353450 8.760085, 5.355137 8.758923, 5.356824 8.757761, 5.358510 8.756599, 5.360197 8.755436, 5.361884 8.754274, 5.363571 8.753112, 5.365258 8.751950, 5.366945 8.750787, 5.368631 8.749625, 5.370318 8.748463, 5.372005 8.747301, 5.373692 8.746138, 5.375379 8.744976, 5.377065 8.743814, 5.378752 8.742652, 5.380439 8.741489, 5.382125 8.740327, 5.383812 8.739165, 5.385499 8.738002, 5.387186 8.736840, 5.388872 8.735678, 5.390559 8.734515, 5.392246 8.733353, 5.393932 8.732191, 5.395619 8.731028, 5.397305 8.729866, 5.398992 8.728703, 5.400679 8.727541, 5.402365 8.726379, 5.404052 8.725216, 5.405738 8.724054, 5.407425 8.722891, 5.409111 8.721729, 5.410798 8.720566, 5.412485 8.719404, 5.414171 8.718242, 5.415858 8.717079, 5.417544 8.715917, 5.419231 8.714754, 5.420917 8.713592, 5.422603 8.712429, 5.424290 8.711267, 5.425976 8.710104, 5.427663 8.708942, 5.429349 8.707779, 5.431036 8.706617, 5.432722 8.705454, 5.434408 8.704292, 5.436095 8.703129, 5.437781 8.701966, 5.439468 8.700804, 5.441154 8.699641, 5.442840 8.698479, 5.444527 8.697316, 5.446213 8.696153, 5.447899 8.694991, 5.449585 8.693828, 5.451272 8.692666, 5.452958 8.691503, 5.454644 8.690340, 5.456331 8.689178, 5.458017 8.688015, 5.459703 8.686852, 5.461389 8.685690, 5.463075 8.684527, 5.464762 8.683364, 5.466448 8.682202, 5.468134 8.681039, 5.469820 8.679876, 5.471506 8.678714, 5.473193 8.677551, 5.474879 8.676388, 5.476565 8.675225, 5.478251 8.674063, 5.479937 8.672900, 5.481623 8.671737, 5.483309 8.670574, 5.484995 8.669412, 5.486681 8.668249, 5.488367 8.667086, 5.490053 8.665923, 5.491740 8.664761, 5.493426 8.663598, 5.495112 8.662435, 5.496798 8.661272, 5.498484 8.660109, 5.500170 8.658946, 5.501856 8.657784, 5.503541 8.656621, 5.505227 8.655458, 5.506913 8.654295, 5.508599 8.653132, 5.510285 8.651969, 5.511971 8.650806, 5.513657 8.649644, 5.515343 8.648481, 5.517029 8.647318, 5.518715 8.646155, 5.520401 8.644992, 5.522086 8.643829, 5.523772 8.642666, 5.525458 8.641503, 5.527144 8.640340, 5.528830 8.639177, 5.530515 8.638014, 5.532201 8.636851, 5.533887 8.635688, 5.535573 8.634525, 5.537259 8.633362, 5.538944 8.632199, 5.540630 8.631036, 5.542316 8.629873, 5.544001 8.628710, 5.545687 8.627547, 5.547373 8.626384, 5.549059 8.625221, 5.550744 8.624058, 5.552430 8.622895, 5.554116 8.621732, 5.555801 8.620569, 5.557487 8.619406, 5.559172 8.618243, 5.560858 8.617080, 5.562544 8.615916, 5.564229 8.614753, 5.565915 8.613590, 5.567600 8.612427, 5.569286 8.611264, 5.570971 8.610101, 5.572657 8.608938, 5.574343 8.607774, 5.576028 8.606611, 5.577714 8.605448, 5.579399 8.604285, 5.581085 8.603122, 5.582770 8.601959, 5.584455 8.600795, 5.586141 8.599632, 5.587826 8.598469, 5.589512 8.597306, 5.591197 8.596143, 5.592883 8.594979, 5.594568 8.593816, 5.596253 8.592653, 5.597939 8.591490, 5.599624 8.590326, 5.601310 8.589163, 5.602995 8.588000, 5.604680 8.586836, 5.606366 8.585673, 5.608051 8.584510, 5.609736 8.583346, 5.611421 8.582183, 5.613107 8.581020, 5.614792 8.579857, 5.616477 8.578693, 5.618163 8.577530, 5.619848 8.576366, 5.621533 8.575203, 5.623218 8.574040, 5.624904 8.572876, 5.626589 8.571713, 5.628274 8.570550, 5.629959 8.569386, 5.631644 8.568223, 5.633329 8.567059, 5.635015 8.565896, 5.636700 8.564733, 5.638385 8.563569, 5.640070 8.562406, 5.641755 8.561242, 5.643440 8.560079, 5.645125 8.558915, 5.646810 8.557752, 5.648495 8.556588, 5.650181 8.555425, 5.651866 8.554261, 5.653551 8.553098, 5.655236 8.551934, 5.656921 8.550771, 5.658606 8.549607, 5.660291 8.548444, 5.661976 8.547280, 5.663661 8.546117, 5.665346 8.544953, 5.667031 8.543790, 5.668716 8.542626, 5.670400 8.541462, 5.672085 8.540299, 5.673770 8.539135, 5.675455 8.537972, 5.677140 8.536808, 5.678825 8.535644, 5.680510 8.534481, 5.682195 8.533317, 5.683880 8.532154, 5.685564 8.530990, 5.687249 8.529826, 5.688934 8.528663, 5.690619 8.527499, 5.692304 8.526335, 5.693989 8.525172, 5.695673 8.524008, 5.697358 8.522844, 5.699043 8.521681, 5.700728 8.520517, 5.702412 8.519353, 5.704097 8.518189, 5.705782 8.517026, 5.707467 8.515862, 5.709151 8.514698, 5.710836 8.513534, 5.712521 8.512371, 5.714205 8.511207, 5.715890 8.510043, 5.717575 8.508879, 5.719259 8.507716, 5.720944 8.506552, 5.722628 8.505388, 5.724313 8.504224, 5.725998 8.503060, 5.727682 8.501897, 5.729367 8.500733, 5.731051 8.499569, 5.732736 8.498405, 5.734421 8.497241, 5.736105 8.496077, 5.737790 8.494914, 5.739474 8.493750, 5.741159 8.492586, 5.742843 8.491422, 5.744528 8.490258, 5.746212 8.489094, 5.747897 8.487930, 5.749581 8.486766, 5.751265 8.485602, 5.752950 8.484438, 5.754634 8.483274, 5.756319 8.482111, 5.758003 8.480947, 5.759688 8.479783, 5.761372 8.478619, 5.763056 8.477455, 5.764741 8.476291, 5.766425 8.475127, 5.768109 8.473963, 5.769794 8.472799, 5.771478 8.471635, 5.773162 8.470471, 5.774847 8.469307, 5.776531 8.468143, 5.778215 8.466979, 5.779899 8.465815, 5.781584 8.464650, 5.783268 8.463486, 5.784952 8.462322, 5.786636 8.461158, 5.788321 8.459994, 5.790005 8.458830, 5.791689 8.457666, 5.793373 8.456502, 5.795057 8.455338, 5.796742 8.454174, 5.798426 8.453010, 5.800110 8.451845, 5.801794 8.450681, 5.803478 8.449517, 5.805162 8.448353, 5.806846 8.447189, 5.808531 8.446025, 5.810215 8.444861, 5.811899 8.443696, 5.813583 8.442532, 5.815267 8.441368, 5.816951 8.440204, 5.818635 8.439040, 5.820319 8.437875, 5.822003 8.436711, 5.823687 8.435547, 5.825371 8.434383, 5.827055 8.433218, 5.828739 8.432054, 5.830423 8.430890, 5.832107 8.429726, 5.833791 8.428561, 5.835475 8.427397, 5.837159 8.426233, 5.838843 8.425068, 5.840527 8.423904, 5.842210 8.422740, 5.843894 8.421576, 5.845578 8.420411, 5.847262 8.419247, 5.848946 8.418083, 5.850630 8.416918, 5.852314 8.415754, 5.853997 8.414589, 5.855681 8.413425, 5.857365 8.412261, 5.859049 8.411096, 5.860733 8.409932, 5.862416 8.408768, 5.864100 8.407603, 5.865784 8.406439, 5.867468 8.405274, 5.869151 8.404110, 5.870835 8.402945, 5.872519 8.401781, 5.874203 8.400617, 5.875886 8.399452, 5.877570 8.398288, 5.879254 8.397123, 5.880937 8.395959, 5.882621 8.394794, 5.884305 8.393630, 5.885988 8.392465, 5.887672 8.391301, 5.889355 8.390136, 5.891039 8.388972, 5.892723 8.387807, 5.894406 8.386643, 5.896090 8.385478, 5.897773 8.384314, 5.899457 8.383149, 5.901140 8.381984, 5.902824 8.380820, 5.904508 8.379655, 5.906191 8.378491, 5.907875 8.377326, 5.909558 8.376162, 5.911241 8.374997, 5.912925 8.373832, 5.914608 8.372668, 5.916292 8.371503, 5.917975 8.370338, 5.919659 8.369174, 5.921342 8.368009, 5.923026 8.366844, 5.924709 8.365680, 5.926392 8.364515, 5.928076 8.363350, 5.929759 8.362186, 5.931443 8.361021, 5.933126 8.359856, 5.934809 8.358692, 5.936493 8.357527, 5.938176 8.356362, 5.939859 8.355198, 5.941542 8.354033, 5.943226 8.352868, 5.944909 8.351703, 5.946592 8.350539, 5.948276 8.349374, 5.949959 8.348209, 5.951642 8.347044, 5.953325 8.345879, 5.955009 8.344715, 5.956692 8.343550, 5.958375 8.342385, 5.960058 8.341220, 5.961741 8.340055, 5.963424 8.338891, 5.965108 8.337726, 5.966791 8.336561, 5.968474 8.335396, 5.970157 8.334231, 5.971840 8.333066, 5.973523 8.331902, 5.975206 8.330737, 5.976889 8.329572, 5.978573 8.328407, 5.980256 8.327242, 5.981939 8.326077, 5.983622 8.324912, 5.985305 8.323747, 5.986988 8.322582, 5.988671 8.321417, 5.990354 8.320252, 5.992037 8.319088, 5.993720 8.317923, 5.995403 8.316758, 5.997086 8.315593, 5.998769 8.314428, 6.000452 8.313263, 6.002135 8.312098, 6.003818 8.310933, 6.005500 8.309768, 6.007183 8.308603, 6.008866 8.307438, 6.010549 8.306273, 6.012232 8.305108, 6.013915 8.303943, 6.015598 8.302778, 6.017281 8.301613, 6.018964 8.300447, 6.020646 8.299282, 6.022329 8.298117, 6.024012 8.296952, 6.025695 8.295787, 6.027378 8.294622, 6.029060 8.293457, 6.030743 8.292292, 6.032426 8.291127, 6.034109 8.289962, 6.035791 8.288796, 6.037474 8.287631, 6.039157 8.286466, 6.040840 8.285301, 6.042522 8.284136, 6.044205 8.282971, 6.045888 8.281806, 6.047570 8.280640, 6.049253 8.279475, 6.050936 8.278310, 6.052618 8.277145, 6.054301 8.275980, 6.055983 8.274814, 6.057666 8.273649, 6.059349 8.272484, 6.061031 8.271319, 6.062714 8.270153, 6.064396 8.268988, 6.066079 8.267823, 6.067762 8.266658, 6.069444 8.265492, 6.071127 8.264327, 6.072809 8.263162, 6.074492 8.261997, 6.076174 8.260831, 6.077857 8.259666, 6.079539 8.258501, 6.081222 8.257335, 6.082904 8.256170, 6.084587 8.255005, 6.086269 8.253839, 6.087951 8.252674, 6.089634 8.251509, 6.091316 8.250343, 6.092999 8.249178, 6.094681 8.248013, 6.096363 8.246847, 6.098046 8.245682, 6.099728 8.244516, 6.101411 8.243351, 6.103093 8.242186, 6.104775 8.241020, 6.106458 8.239855, 6.108140 8.238689, 6.109822 8.237524, 6.111504 8.236358, 6.113187 8.235193, 6.114869 8.234028, 6.116551 8.232862, 6.118233 8.231697, 6.119916 8.230531, 6.121598 8.229366, 6.123280 8.228200, 6.124962 8.227035, 6.126645 8.225869, 6.128327 8.224704, 6.130009 8.223538, 6.131691 8.222373, 6.133373 8.221207, 6.135055 8.220041, 6.136738 8.218876, 6.138420 8.217710, 6.140102 8.216545, 6.141784 8.215379, 6.143466 8.214214, 6.145148 8.213048, 6.146830 8.211882, 6.148512 8.210717, 6.150194 8.209551, 6.151876 8.208386, 6.153559 8.207220, 6.155241 8.206054, 6.156923 8.204889, 6.158605 8.203723, 6.160287 8.202557, 6.161969 8.201392, 6.163651 8.200226, 6.165333 8.199060, 6.167015 8.197895, 6.168697 8.196729, 6.170378 8.195563, 6.172060 8.194398, 6.173742 8.193232, 6.175424 8.192066, 6.177106 8.190901, 6.178788 8.189735, 6.180470 8.188569, 6.182152 8.187403, 6.183834 8.186238, 6.185516 8.185072, 6.187197 8.183906, 6.188879 8.182740, 6.190561 8.181575, 6.192243 8.180409, 6.193925 8.179243, 6.195607 8.178077, 6.197288 8.176911, 6.198970 8.175746, 6.200652 8.174580, 6.202334 8.173414, 6.204015 8.172248, 6.205697 8.171082, 6.207379 8.169917, 6.209061 8.168751, 6.210742 8.167585, 6.212424 8.166419, 6.214106 8.165253, 6.215787 8.164087, 6.217469 8.162921, 6.219151 8.161755, 6.220832 8.160590, 6.222514 8.159424, 6.224196 8.158258, 6.225877 8.157092, 6.227559 8.155926, 6.229240 8.154760, 6.230922 8.153594, 6.232604 8.152428, 6.234285 8.151262, 6.235967 8.150096, 6.237648 8.148930, 6.239330 8.147764, 6.241011 8.146598, 6.242693 8.145432, 6.244374 8.144266, 6.246056 8.143100, 6.247737 8.141934, 6.249419 8.140768, 6.251100 8.139602, 6.252782 8.138436, 6.254463 8.137270, 6.256145 8.136104, 6.257826 8.134938, 6.259508 8.133772, 6.261189 8.132606, 6.262870 8.131440, 6.264552 8.130274, 6.266233 8.129108, 6.267915 8.127942, 6.269596 8.126775, 6.271277 8.125609, 6.272959 8.124443, 6.274640 8.123277, 6.276321 8.122111, 6.278003 8.120945, 6.279684 8.119779, 6.281365 8.118613, 6.283047 8.117446, 6.284728 8.116280, 6.286409 8.115114, 6.288090 8.113948, 6.289772 8.112782, 6.291453 8.111616, 6.293134 8.110449, 6.294815 8.109283, 6.296497 8.108117, 6.298178 8.106951, 6.299859 8.105785, 6.301540 8.104618, 6.303221 8.103452, 6.304902 8.102286, 6.306584 8.101120, 6.308265 8.099953, 6.309946 8.098787, 6.311627 8.097621, 6.313308 8.096454, 6.314989 8.095288, 6.316670 8.094122, 6.318351 8.092956, 6.320033 8.091789, 6.321714 8.090623, 6.323395 8.089457, 6.325076 8.088290, 6.326757 8.087124, 6.328438 8.085958, 6.330119 8.084791, 6.331800 8.083625, 6.333481 8.082459, 6.335162 8.081292, 6.336843 8.080126, 6.338524 8.078959, 6.340205 8.077793, 6.341886 8.076627, 6.343567 8.075460, 6.345248 8.074294, 6.346928 8.073127, 6.348609 8.071961, 6.350290 8.070795, 6.351971 8.069628, 6.353652 8.068462, 6.355333 8.067295, 6.357014 8.066129, 6.358695 8.064962, 6.360375 8.063796, 6.362056 8.062629, 6.363737 8.061463, 6.365418 8.060296, 6.367099 8.059130, 6.368780 8.057963, 6.370460 8.056797, 6.372141 8.055630, 6.373822 8.054464, 6.375503 8.053297, 6.377183 8.052131, 6.378864 8.050964, 6.380545 8.049798, 6.382226 8.048631, 6.383906 8.047465, 6.385587 8.046298, 6.387268 8.045131, 6.388948 8.043965, 6.390629 8.042798, 6.392310 8.041632, 6.393990 8.040465, 6.395671 8.039298, 6.397352 8.038132, 6.399032 8.036965, 6.400713 8.035799, 6.402393 8.034632, 6.404074 8.033465, 6.405755 8.032299, 6.407435 8.031132, 6.409116 8.029965, 6.410796 8.028799, 6.412477 8.027632, 6.414157 8.026465, 6.415838 8.025299, 6.417518 8.024132, 6.419199 8.022965, 6.420879 8.021798, 6.422560 8.020632, 6.424240 8.019465, 6.425921 8.018298, 6.427601 8.017131, 6.429282 8.015965, 6.430962 8.014798, 6.432643 8.013631, 6.434323 8.012464, 6.436003 8.011298, 6.437684 8.010131, 6.439364 8.008964, 6.441045 8.007797, 6.442725 8.006631, 6.444405 8.005464, 6.446086 8.004297, 6.447766 8.003130, 6.449446 8.001963, 6.451127 8.000796, 6.452807 7.999630, 6.454487 7.998463, 6.456168 7.997296, 6.457848 7.996129, 6.459528 7.994962, 6.461208 7.993795, 6.462889 7.992628, 6.464569 7.991461, 6.466249 7.990295, 6.467929 7.989128, 6.469610 7.987961, 6.471290 7.986794, 6.472970 7.985627, 6.474650 7.984460, 6.476330 7.983293, 6.478010 7.982126, 6.479691 7.980959, 6.481371 7.979792, 6.483051 7.978625, 6.484731 7.977458, 6.486411 7.976291, 6.488091 7.975124, 6.489771 7.973957, 6.491451 7.972790, 6.493132 7.971623, 6.494812 7.970456, 6.496492 7.969289, 6.498172 7.968122, 6.499852 7.966955, 6.501532 7.965788, 6.503212 7.964621, 6.504892 7.963454, 6.506572 7.962287, 6.508252 7.961120, 6.509932 7.959953, 6.511612 7.958786, 6.513292 7.957619, 6.514972 7.956451, 6.516652 7.955284, 6.518332 7.954117, 6.520012 7.952950, 6.521691 7.951783, 6.523371 7.950616, 6.525051 7.949449, 6.526731 7.948282, 6.528411 7.947114, 6.530091 7.945947, 6.531771 7.944780, 6.533451 7.943613, 6.535130 7.942446, 6.536810 7.941279, 6.538490 7.940111, 6.540170 7.938944, 6.541850 7.937777, 6.543530 7.936610, 6.545209 7.935443, 6.546889 7.934275, 6.548569 7.933108, 6.550249 7.931941, 6.551928 7.930774, 6.553608 7.929606, 6.555288 7.928439, 6.556968 7.927272, 6.558647 7.926105, 6.560327 7.924937, 6.562007 7.923770, 6.563686 7.922603, 6.565366 7.921435, 6.567046 7.920268, 6.568725 7.919101, 6.570405 7.917934, 6.572085 7.916766, 6.573764 7.915599, 6.575444 7.914432, 6.577123 7.913264, 6.578803 7.912097, 6.580483 7.910930, 6.582162 7.909762, 6.583842 7.908595, 6.585521 7.907427, 6.587201 7.906260, 6.588880 7.905093, 6.590560 7.903925, 6.592239 7.902758, 6.593919 7.901590, 6.595598 7.900423, 6.597278 7.899256, 6.598957 7.898088, 6.600637 7.896921, 6.602316 7.895753, 6.603996 7.894586, 6.605675 7.893418, 6.607355 7.892251, 6.609034 7.891083, 6.610713 7.889916, 6.612393 7.888748, 6.614072 7.887581, 6.615752 7.886413, 6.617431 7.885246, 6.619110 7.884078, 6.620790 7.882911, 6.622469 7.881743, 6.624148 7.880576, 6.625828 7.879408, 6.627507 7.878241, 6.629186 7.877073, 6.630866 7.875906, 6.632545 7.874738, 6.634224 7.873570, 6.635904 7.872403, 6.637583 7.871235, 6.639262 7.870068, 6.640941 7.868900, 6.642621 7.867733, 6.644300 7.866565, 6.645979 7.865397, 6.647658 7.864230, 6.649337 7.863062, 6.651017 7.861894, 6.652696 7.860727, 6.654375 7.859559, 6.656054 7.858391, 6.657733 7.857224, 6.659412 7.856056, 6.661092 7.854888, 6.662771 7.853721, 6.664450 7.852553, 6.666129 7.851385, 6.667808 7.850218, 6.669487 7.849050, 6.671166 7.847882, 6.672845 7.846714, 6.674524 7.845547, 6.676203 7.844379, 6.677882 7.843211, 6.679561 7.842044, 6.681240 7.840876, 6.682919 7.839708, 6.684598 7.838540, 6.686277 7.837372, 6.687956 7.836205, 6.689635 7.835037, 6.691314 7.833869, 6.692993 7.832701, 6.694672 7.831533, 6.696351 7.830366, 6.698030 7.829198, 6.699709 7.828030, 6.701388 7.826862, 6.703067 7.825694, 6.704746 7.824526, 6.706424 7.823359, 6.708103 7.822191, 6.709782 7.821023, 6.711461 7.819855, 6.713140 7.818687, 6.714819 7.817519, 6.716498 7.816351, 6.718176 7.815183, 6.719855 7.814015, 6.721534 7.812848, 6.723213 7.811680, 6.724891 7.810512, 6.726570 7.809344, 6.728249 7.808176, 6.729928 7.807008, 6.731606 7.805840, 6.733285 7.804672, 6.734964 7.803504, 6.736643 7.802336, 6.738321 7.801168, 6.740000 7.800000, 6.740000 7.797971, 6.740000 7.795941, 6.740000 7.793912, 6.740000 7.791882, 6.740000 7.789853, 6.740000 7.787824, 6.740000 7.785794, 6.740000 7.783765, 6.740000 7.781735, 6.740000 7.779706, 6.740000 7.777676, 6.740000 7.775647, 6.740000 7.773618, 6.740000 7.771588, 6.740000 7.769559, 6.740000 7.767529, 6.740000 7.765500, 6.740000 7.763471, 6.740000 7.761441, 6.740000 7.759412, 6.740000 7.757382, 6.740000 7.755353, 6.740000 7.753324, 6.740000 7.751294, 6.740000 7.749265, 6.740000 7.747235, 6.740000 7.745206, 6.740000 7.743176, 6.740000 7.741147, 6.740000 7.739118, 6.740000 7.737088, 6.740000 7.735059, 6.740000 7.733029, 6.740000 7.731000, 6.740000 7.728971, 6.740000 7.726941, 6.740000 7.724912, 6.740000 7.722882, 6.740000 7.720853, 6.740000 7.718824, 6.740000 7.716794, 6.740000 7.714765, 6.740000 7.712735, 6.740000 7.710706, 6.740000 7.708676, 6.740000 7.706647, 6.740000 7.704618, 6.740000 7.702588, 6.740000 7.700559, 6.740000 7.698529, 6.740000 7.696500, 6.740000 7.694471, 6.740000 7.692441, 6.740000 7.690412, 6.740000 7.688382, 6.740000 7.686353, 6.740000 7.684324, 6.740000 7.682294, 6.740000 7.680265, 6.740000 7.678235, 6.740000 7.676206, 6.740000 7.674176, 6.740000 7.672147, 6.740000 7.670118, 6.740000 7.668088, 6.740000 7.666059, 6.740000 7.664029, 6.740000 7.662000, 6.740000 7.659971, 6.740000 7.657941, 6.740000 7.655912, 6.740000 7.653882, 6.740000 7.651853, 6.740000 7.649824, 6.740000 7.647794, 6.740000 7.645765, 6.740000 7.643735, 6.740000 7.641706, 6.740000 7.639676, 6.740000 7.637647, 6.740000 7.635618, 6.740000 7.633588, 6.740000 7.631559, 6.740000 7.629529, 6.740000 7.627500, 6.740000 7.625471, 6.740000 7.623441, 6.740000 7.621412, 6.740000 7.619382, 6.740000 7.617353, 6.740000 7.615324, 6.740000 7.613294, 6.740000 7.611265, 6.740000 7.609235, 6.740000 7.607206, 6.740000 7.605176, 6.740000 7.603147, 6.740000 7.601118, 6.740000 7.599088, 6.740000 7.597059, 6.740000 7.595029, 6.740000 7.593000, 6.740000 7.590971, 6.740000 7.588941, 6.740000 7.586912, 6.740000 7.584882, 6.740000 7.582853, 6.740000 7.580824, 6.740000 7.578794, 6.740000 7.576765, 6.740000 7.574735, 6.740000 7.572706, 6.740000 7.570676, 6.740000 7.568647, 6.740000 7.566618, 6.740000 7.564588, 6.740000 7.562559, 6.740000 7.560529, 6.740000 7.558500, 6.740000 7.556471, 6.740000 7.554441, 6.740000 7.552412, 6.740000 7.550382, 6.740000 7.548353, 6.740000 7.546324, 6.740000 7.544294, 6.740000 7.542265, 6.740000 7.540235, 6.740000 7.538206, 6.740000 7.536176, 6.740000 7.534147, 6.740000 7.532118, 6.740000 7.530088, 6.740000 7.528059, 6.740000 7.526029, 6.740000 7.524000, 6.740000 7.521971, 6.740000 7.519941, 6.740000 7.517912, 6.740000 7.515882, 6.740000 7.513853, 6.740000 7.511824, 6.740000 7.509794, 6.740000 7.507765, 6.740000 7.505735, 6.740000 7.503706, 6.740000 7.501676, 6.740000 7.499647, 6.740000 7.497618, 6.740000 7.495588, 6.740000 7.493559, 6.740000 7.491529, 6.740000 7.489500, 6.740000 7.487471, 6.740000 7.485441, 6.740000 7.483412, 6.740000 7.481382, 6.740000 7.479353, 6.740000 7.477324, 6.740000 7.475294, 6.740000 7.473265, 6.740000 7.471235, 6.740000 7.469206, 6.740000 7.467176, 6.740000 7.465147, 6.740000 7.463118, 6.740000 7.461088, 6.740000 7.459059, 6.740000 7.457029, 6.740000 7.455000, 6.740000 7.452971, 6.740000 7.450941, 6.740000 7.448912, 6.740000 7.446882, 6.740000 7.444853, 6.740000 7.442824, 6.740000 7.440794, 6.740000 7.438765, 6.740000 7.436735, 6.740000 7.434706, 6.740000 7.432676, 6.740000 7.430647, 6.740000 7.428618, 6.740000 7.426588, 6.740000 7.424559, 6.740000 7.422529, 6.740000 7.420500, 6.740000 7.418471, 6.740000 7.416441, 6.740000 7.414412, 6.740000 7.412382, 6.740000 7.410353, 6.740000 7.408324, 6.740000 7.406294, 6.740000 7.404265, 6.740000 7.402235, 6.740000 7.400206, 6.740000 7.398176, 6.740000 7.396147, 6.740000 7.394118, 6.740000 7.392088, 6.740000 7.390059, 6.740000 7.388029, 6.740000 7.386000, 6.740000 7.383971, 6.740000 7.381941, 6.740000 7.379912, 6.740000 7.377882, 6.740000 7.375853, 6.740000 7.373824, 6.740000 7.371794, 6.740000 7.369765, 6.740000 7.367735, 6.740000 7.365706, 6.740000 7.363676, 6.740000 7.361647, 6.740000 7.359618, 6.740000 7.357588, 6.740000 7.355559, 6.740000 7.353529, 6.740000 7.351500, 6.740000 7.349471, 6.740000 7.347441, 6.740000 7.345412, 6.740000 7.343382, 6.740000 7.341353, 6.740000 7.339324, 6.740000 7.337294, 6.740000 7.335265, 6.740000 7.333235, 6.740000 7.331206, 6.740000 7.329176, 6.740000 7.327147, 6.740000 7.325118, 6.740000 7.323088, 6.740000 7.321059, 6.740000 7.319029, 6.740000 7.317000, 6.740000 7.314971, 6.740000 7.312941, 6.740000 7.310912, 6.740000 7.308882, 6.740000 7.306853, 6.740000 7.304824, 6.740000 7.302794, 6.740000 7.300765, 6.740000 7.298735, 6.740000 7.296706, 6.740000 7.294676, 6.740000 7.292647, 6.740000 7.290618, 6.740000 7.288588, 6.740000 7.286559, 6.740000 7.284529, 6.740000 7.282500, 6.740000 7.280471, 6.740000 7.278441, 6.740000 7.276412, 6.740000 7.274382, 6.740000 7.272353, 6.740000 7.270324, 6.740000 7.268294, 6.740000 7.266265, 6.740000 7.264235, 6.740000 7.262206, 6.740000 7.260176, 6.740000 7.258147, 6.740000 7.256118, 6.740000 7.254088, 6.740000 7.252059, 6.740000 7.250029, 6.740000 7.248000, 6.740000 7.245971, 6.740000 7.243941, 6.740000 7.241912, 6.740000 7.239882, 6.740000 7.237853, 6.740000 7.235824, 6.740000 7.233794, 6.740000 7.231765, 6.740000 7.229735, 6.740000 7.227706, 6.740000 7.225676, 6.740000 7.223647, 6.740000 7.221618, 6.740000 7.219588, 6.740000 7.217559, 6.740000 7.215529, 6.740000 7.213500, 6.740000 7.211471, 6.740000 7.209441, 6.740000 7.207412, 6.740000 7.205382, 6.740000 7.203353, 6.740000 7.201324, 6.740000 7.199294, 6.740000 7.197265, 6.740000 7.195235, 6.740000 7.193206, 6.740000 7.191176, 6.740000 7.189147, 6.740000 7.187118, 6.740000 7.185088, 6.740000 7.183059, 6.740000 7.181029, 6.740000 7.179000, 6.740000 7.176971, 6.740000 7.174941, 6.740000 7.172912, 6.740000 7.170882, 6.740000 7.168853, 6.740000 7.166824, 6.740000 7.164794, 6.740000 7.162765, 6.740000 7.160735, 6.740000 7.158706, 6.740000 7.156676, 6.740000 7.154647, 6.740000 7.152618, 6.740000 7.150588, 6.740000 7.148559, 6.740000 7.146529, 6.740000 7.144500, 6.740000 7.142471, 6.740000 7.140441, 6.740000 7.138412, 6.740000 7.136382, 6.740000 7.134353, 6.740000 7.132324, 6.740000 7.130294, 6.740000 7.128265, 6.740000 7.126235, 6.740000 7.124206, 6.740000 7.122176, 6.740000 7.120147, 6.740000 7.118118, 6.740000 7.116088, 6.740000 7.114059, 6.740000 7.112029, 6.740000 7.110000, 6.740085 7.107970, 6.740169 7.105941, 6.740254 7.103911, 6.740339 7.101882, 6.740424 7.099852, 6.740508 7.097822, 6.740593 7.095793, 6.740678 7.093763, 6.740763 7.091734, 6.740847 7.089704, 6.740932 7.087674, 6.741017 7.085645, 6.741101 7.083615, 6.741186 7.081586, 6.741271 7.079556, 6.741356 7.077526, 6.741440 7.075497, 6.741525 7.073467, 6.741610 7.071438, 6.741695 7.069408, 6.741779 7.067379, 6.741864 7.065349, 6.741949 7.063319, 6.742033 7.061290, 6.742118 7.059260, 6.742203 7.057231, 6.742288 7.055201, 6.742372 7.053171, 6.742457 7.051142, 6.742542 7.049112, 6.742626 7.047083, 6.742711 7.045053, 6.742796 7.043023, 6.742881 7.040994, 6.742965 7.038964, 6.743050 7.036935, 6.743135 7.034905, 6.743219 7.032875, 6.743304 7.030846, 6.743389 7.028816, 6.743474 7.026787, 6.743558 7.024757, 6.743643 7.022727, 6.743728 7.020698, 6.743812 7.018668, 6.743897 7.016639, 6.743982 7.014609, 6.744066 7.012579, 6.744151 7.010550, 6.744236 7.008520, 6.744321 7.006491, 6.744405 7.004461, 6.744490 7.002431, 6.744575 7.000402, 6.744659 6.998372, 6.744744 6.996343, 6.744829 6.994313, 6.744913 6.992283, 6.744998 6.990254, 6.745083 6.988224, 6.745167 6.986195, 6.745252 6.984165, 6.745337 6.982135, 6.745422 6.980106, 6.745506 6.978076, 6.745591 6.976047, 6.745676 6.974017, 6.745760 6.971988, 6.745845 6.969958, 6.745930 6.967928, 6.746014 6.965899, 6.746099 6.963869, 6.746184 6.961840, 6.746268 6.959810, 6.746353 6.957780, 6.746438 6.955751, 6.746522 6.953721, 6.746607 6.951692, 6.746692 6.949662, 6.746776 6.947632, 6.746861 6.945603, 6.746946 6.943573, 6.747030 6.941544, 6.747115 6.939514, 6.747200 6.937484, 6.747285 6.935455, 6.747369 6.933425, 6.747454 6.931396, 6.747539 6.929366, 6.747623 6.927336, 6.747708 6.925307, 6.747793 6.923277, 6.747877 6.921248, 6.747962 6.919218, 6.748047 6.917188, 6.748131 6.915159, 6.748216 6.913129, 6.748301 6.911100, 6.748385 6.909070, 6.748470 6.907040, 6.748554 6.905011, 6.748639 6.902981, 6.748724 6.900952, 6.748808 6.898922, 6.748893 6.896892, 6.748978 6.894863, 6.749062 6.892833, 6.749147 6.890804, 6.749232 6.888774, 6.749316 6.886744, 6.749401 6.884715, 6.749486 6.882685, 6.749570 6.880656, 6.749655 6.878626, 6.749740 6.876596, 6.749824 6.874567, 6.749909 6.872537, 6.749994 6.870508, 6.750078 6.868478, 6.750163 6.866449, 6.750248 6.864419, 6.750332 6.862389, 6.750417 6.860360, 6.750502 6.858330, 6.750586 6.856301, 6.750671 6.854271, 6.750755 6.852241, 6.750840 6.850212, 6.750925 6.848182, 6.751009 6.846153, 6.751094 6.844123, 6.751179 6.842093, 6.751263 6.840064, 6.751348 6.838034, 6.751433 6.836005, 6.751517 6.833975, 6.751602 6.831945, 6.751686 6.829916, 6.751771 6.827886, 6.751856 6.825857, 6.751940 6.823827, 6.752025 6.821797, 6.752110 6.819768, 6.752194 6.817738, 6.752279 6.815709, 6.752364 6.813679, 6.752448 6.811649, 6.752533 6.809620, 6.752617 6.807590, 6.752702 6.805561, 6.752787 6.803531, 6.752871 6.801501, 6.752956 6.799472, 6.753041 6.797442, 6.753125 6.795413, 6.753210 6.793383, 6.753294 6.791353, 6.753379 6.789324, 6.753464 6.787294, 6.753548 6.785265, 6.753633 6.783235, 6.753717 6.781205, 6.753802 6.779176, 6.753887 6.777146, 6.753971 6.775117, 6.754056 6.773087, 6.754141 6.771057, 6.754225 6.769028, 6.754310 6.766998, 6.754394 6.764969, 6.754479 6.762939, 6.754564 6.760909, 6.754648 6.758880, 6.754733 6.756850, 6.754817 6.754821, 6.754902 6.752791, 6.754987 6.750761, 6.755071 6.748732, 6.755156 6.746702, 6.755240 6.744673, 6.755325 6.742643, 6.755410 6.740613, 6.755494 6.738584, 6.755579 6.736554, 6.755663 6.734525, 6.755748 6.732495, 6.755833 6.730466, 6.755917 6.728436, 6.756002 6.726406, 6.756086 6.724377, 6.756171 6.722347, 6.756256 6.720318, 6.756340 6.718288, 6.756425 6.716258, 6.756509 6.714229, 6.756594 6.712199, 6.756679 6.710170, 6.756763 6.708140, 6.756848 6.706110, 6.756932 6.704081, 6.757017 6.702051, 6.757102 6.700022, 6.757186 6.697992, 6.757271 6.695962, 6.757355 6.693933, 6.757440 6.691903, 6.757525 6.689874, 6.757609 6.687844, 6.757694 6.685814, 6.757778 6.683785, 6.757863 6.681755, 6.757947 6.679726, 6.758032 6.677696, 6.758117 6.675666, 6.758201 6.673637, 6.758286 6.671607, 6.758370 6.669578, 6.758455 6.667548, 6.758539 6.665518, 6.758624 6.663489, 6.758709 6.661459, 6.758793 6.659430, 6.758878 6.657400, 6.758962 6.655370, 6.759047 6.653341, 6.759132 6.651311, 6.759216 6.649282, 6.759301 6.647252, 6.759385 6.645222, 6.759470 6.643193, 6.759554 6.641163, 6.759639 6.639134, 6.759723 6.637104, 6.759808 6.635074, 6.759893 6.633045, 6.759977 6.631015, 6.760062 6.628986, 6.760146 6.626956, 6.760231 6.624926, 6.760315 6.622897, 6.760400 6.620867, 6.760485 6.618838, 6.760569 6.616808, 6.760654 6.614778, 6.760738 6.612749, 6.760823 6.610719, 6.760907 6.608690, 6.760992 6.606660, 6.761076 6.604630, 6.761161 6.602601, 6.761246 6.600571, 6.761330 6.598542, 6.761415 6.596512, 6.761499 6.594482, 6.761584 6.592453, 6.761668 6.590423, 6.761753 6.588394, 6.761837 6.586364, 6.761922 6.584334, 6.762007 6.582305, 6.762091 6.580275, 6.762176 6.578246, 6.762260 6.576216, 6.762345 6.574186, 6.762429 6.572157, 6.762514 6.570127, 6.762598 6.568098, 6.762683 6.566068, 6.762767 6.564038, 6.762852 6.562009, 6.762937 6.559979, 6.763021 6.557950, 6.763106 6.555920, 6.763190 6.553890, 6.763275 6.551861, 6.763359 6.549831, 6.763444 6.547802, 6.763528 6.545772, 6.763613 6.543742, 6.763697 6.541713, 6.763782 6.539683, 6.763866 6.537654, 6.763951 6.535624, 6.764036 6.533594, 6.764120 6.531565, 6.764205 6.529535, 6.764289 6.527506, 6.764374 6.525476, 6.764458 6.523446, 6.764543 6.521417, 6.764627 6.519387, 6.764712 6.517358, 6.764796 6.515328, 6.764881 6.513298, 6.764965 6.511269, 6.765050 6.509239, 6.765134 6.507210, 6.765219 6.505180, 6.765303 6.503150, 6.765388 6.501121, 6.765472 6.499091, 6.765557 6.497062, 6.765641 6.495032, 6.765726 6.493002, 6.765811 6.490973, 6.765895 6.488943, 6.765980 6.486914, 6.766064 6.484884, 6.766149 6.482854, 6.766233 6.480825, 6.766318 6.478795, 6.766402 6.476766, 6.766487 6.474736, 6.766571 6.472706, 6.766656 6.470677, 6.766740 6.468647, 6.766825 6.466618, 6.766909 6.464588, 6.766994 6.462558, 6.767078 6.460529, 6.767163 6.458499, 6.767247 6.456470, 6.767332 6.454440, 6.767416 6.452410, 6.767501 6.450381, 6.767585 6.448351, 6.767670 6.446322, 6.767754 6.444292, 6.767839 6.442262, 6.767923 6.440233, 6.768008 6.438203, 6.768092 6.436174, 6.768177 6.434144, 6.768261 6.432114, 6.768346 6.430085, 6.768430 6.428055, 6.768515 6.426026, 6.768599 6.423996, 6.768684 6.421966, 6.768768 6.419937, 6.768853 6.417907, 6.768937 6.415878, 6.769022 6.413848, 6.769106 6.411818, 6.769191 6.409789, 6.769275 6.407759, 6.769360 6.405730, 6.769444 6.403700, 6.769529 6.401670, 6.769613 6.399641, 6.769698 6.397611, 6.769782 6.395582, 6.769867 6.393552, 6.769951 6.391522, 6.770036 6.389493, 6.770120 6.387463, 6.770205 6.385434, 6.770289 6.383404, 6.770373 6.381374, 6.770458 6.379345, 6.770542 6.377315, 6.770627 6.375286, 6.770711 6.373256, 6.770796 6.371226, 6.770880 6.369197, 6.770965 6.367167, 6.771049 6.365138, 6.771134 6.363108, 6.771218 6.361078, 6.771303 6.359049, 6.771387 6.357019, 6.771472 6.354990, 6.771556 6.352960, 6.771641 6.350930, 6.771725 6.348901, 6.771810 6.346871, 6.771894 6.344842, 6.771978 6.342812, 6.772063 6.340782, 6.772147 6.338753, 6.772232 6.336723, 6.772316 6.334694, 6.772401 6.332664, 6.772485 6.330634, 6.772570 6.328605, 6.772654 6.326575, 6.772739 6.324546, 6.772823 6.322516, 6.772908 6.320486, 6.772992 6.318457, 6.773077 6.316427, 6.773161 6.314398, 6.773245 6.312368, 6.773330 6.310338, 6.773414 6.308309, 6.773499 6.306279, 6.773583 6.304250, 6.773668 6.302220, 6.773752 6.300190, 6.773837 6.298161, 6.773921 6.296131, 6.774006 6.294102, 6.774090 6.292072, 6.774174 6.290042, 6.774259 6.288013, 6.774343 6.285983, 6.774428 6.283954, 6.774512 6.281924, 6.774597 6.279894, 6.774681 6.277865, 6.774766 6.275835, 6.774850 6.273806, 6.774934 6.271776, 6.775019 6.269746, 6.775103 6.267717, 6.775188 6.265687, 6.775272 6.263658, 6.775357 6.261628, 6.775441 6.259598, 6.775526 6.257569, 6.775610 6.255539, 6.775694 6.253510, 6.775779 6.251480, 6.775863 6.249450, 6.775948 6.247421, 6.776032 6.245391, 6.776117 6.243362, 6.776201 6.241332, 6.776286 6.239302, 6.776370 6.237273, 6.776454 6.235243, 6.776539 6.233214, 6.776623 6.231184, 6.776708 6.229154, 6.776792 6.227125, 6.776877 6.225095, 6.776961 6.223066, 6.777045 6.221036, 6.777130 6.219006, 6.777214 6.216977, 6.777299 6.214947, 6.777383 6.212918, 6.777468 6.210888, 6.777552 6.208858, 6.777636 6.206829, 6.777721 6.204799, 6.777805 6.202770, 6.777890 6.200740, 6.777974 6.198710, 6.778058 6.196681, 6.778143 6.194651, 6.778227 6.192622, 6.778312 6.190592, 6.778396 6.188562, 6.778481 6.186533, 6.778565 6.184503, 6.778649 6.182474, 6.778734 6.180444, 6.778818 6.178414, 6.778903 6.176385, 6.778987 6.174355, 6.779071 6.172326, 6.779156 6.170296, 6.779240 6.168266, 6.779325 6.166237, 6.779409 6.164207, 6.779494 6.162178, 6.779578 6.160148, 6.779662 6.158118, 6.779747 6.156089, 6.779831 6.154059, 6.779916 6.152030, 6.780000 6.150000, 6.778966 6.151724, 6.777931 6.153448, 6.776897 6.155172, 6.775862 6.156897, 6.774828 6.158621, 6.773794 6.160345, 6.772759 6.162069, 6.771725 6.163793, 6.770690 6.165517, 6.769656 6.167242, 6.768621 6.168966, 6.767587 6.170690, 6.766552 6.172414, 6.765518 6.174138, 6.764483 6.175862, 6.763449 6.177586, 6.762414 6.179311, 6.761380 6.181035, 6.760345 6.182759, 6.759311 6.184483, 6.758276 6.186207, 6.757242 6.187931, 6.756207 6.189655, 6.755173 6.191379, 6.754138 6.193104, 6.753104 6.194828, 6.752069 6.196552, 6.751035 6.198276, 6.750000 6.200000, 6.749321 6.198083, 6.748641 6.196165, 6.747962 6.194248, 6.747283 6.192331, 6.746604 6.190414, 6.745924 6.188496, 6.745245 6.186579, 6.744566 6.184662, 6.743887 6.182745, 6.743208 6.180827, 6.742528 6.178910, 6.741849 6.176993, 6.741170 6.175076, 6.740491 6.173158, 6.739811 6.171241, 6.739132 6.169324, 6.738453 6.167406, 6.737774 6.165489, 6.737095 6.163572, 6.736416 6.161655, 6.735736 6.159737, 6.735057 6.157820, 6.734378 6.155903, 6.733699 6.153985, 6.733020 6.152068, 6.732341 6.150151, 6.731661 6.148234, 6.730982 6.146316, 6.730303 6.144399, 6.729624 6.142482, 6.728945 6.140564, 6.728266 6.138647, 6.727587 6.136730, 6.726908 6.134813, 6.726228 6.132895, 6.725549 6.130978, 6.724870 6.129061, 6.724191 6.127143, 6.723512 6.125226, 6.722833 6.123309, 6.722154 6.121391, 6.721475 6.119474, 6.720796 6.117557, 6.720117 6.115640, 6.719438 6.113722, 6.718759 6.111805, 6.718080 6.109888, 6.717401 6.107970, 6.716722 6.106053, 6.716042 6.104136, 6.715363 6.102218, 6.714684 6.100301, 6.714005 6.098384, 6.713326 6.096467, 6.712647 6.094549, 6.711968 6.092632, 6.711289 6.090715, 6.710610 6.088797, 6.709931 6.086880, 6.709252 6.084963, 6.708573 6.083045, 6.707894 6.081128, 6.707216 6.079211, 6.706537 6.077293, 6.705858 6.075376, 6.705179 6.073459, 6.704500 6.071541, 6.703821 6.069624, 6.703142 6.067707, 6.702463 6.065789, 6.701784 6.063872, 6.701105 6.061955, 6.700426 6.060038, 6.699747 6.058120, 6.699068 6.056203, 6.698389 6.054286, 6.697710 6.052368, 6.697032 6.050451, 6.696353 6.048534, 6.695674 6.046616, 6.694995 6.044699, 6.694316 6.042782, 6.693637 6.040864, 6.692958 6.038947, 6.692279 6.037030, 6.691601 6.035112, 6.690922 6.033195, 6.690243 6.031278, 6.689564 6.029360, 6.688885 6.027443, 6.688206 6.025526, 6.687528 6.023608, 6.686849 6.021691, 6.686170 6.019774, 6.685491 6.017856, 6.684812 6.015939, 6.684134 6.014021, 6.683455 6.012104, 6.682776 6.010187, 6.682097 6.008269, 6.681418 6.006352, 6.680740 6.004435, 6.680061 6.002517, 6.679382 6.000600, 6.678703 5.998683, 6.678024 5.996765, 6.677346 5.994848, 6.676667 5.992931, 6.675988 5.991013, 6.675309 5.989096, 6.674631 5.987179, 6.673952 5.985261, 6.673273 5.983344, 6.672595 5.981426, 6.671916 5.979509, 6.671237 5.977592, 6.670558 5.975674, 6.669880 5.973757, 6.669201 5.971840, 6.668522 5.969922, 6.667844 5.968005, 6.667165 5.966088, 6.666486 5.964170, 6.665808 5.962253, 6.665129 5.960335, 6.664450 5.958418, 6.663772 5.956501, 6.663093 5.954583, 6.662414 5.952666, 6.661736 5.950749, 6.661057 5.948831, 6.660378 5.946914, 6.659700 5.944997, 6.659021 5.943079, 6.658342 5.941162, 6.657664 5.939244, 6.656985 5.937327, 6.656307 5.935410, 6.655628 5.933492, 6.654949 5.931575, 6.654271 5.929657, 6.653592 5.927740, 6.652914 5.925823, 6.652235 5.923905, 6.651557 5.921988, 6.650878 5.920071, 6.650199 5.918153, 6.649521 5.916236, 6.648842 5.914318, 6.648164 5.912401, 6.647485 5.910484, 6.646807 5.908566, 6.646128 5.906649, 6.645450 5.904731, 6.644771 5.902814, 6.644092 5.900897, 6.643414 5.898979, 6.642735 5.897062, 6.642057 5.895144, 6.641378 5.893227, 6.640700 5.891310, 6.640021 5.889392, 6.639343 5.887475, 6.638664 5.885557, 6.637986 5.883640, 6.637308 5.881723, 6.636629 5.879805, 6.635951 5.877888, 6.635272 5.875970, 6.634594 5.874053, 6.633915 5.872136, 6.633237 5.870218, 6.632558 5.868301, 6.631880 5.866383, 6.631201 5.864466, 6.630523 5.862549, 6.629845 5.860631, 6.629166 5.858714, 6.628488 5.856796, 6.627809 5.854879, 6.627131 5.852962, 6.626453 5.851044, 6.625774 5.849127, 6.625096 5.847209, 6.624417 5.845292, 6.623739 5.843374, 6.623061 5.841457, 6.622382 5.839540, 6.621704 5.837622, 6.621025 5.835705, 6.620347 5.833787, 6.619669 5.831870, 6.618990 5.829952, 6.618312 5.828035, 6.617634 5.826118, 6.616955 5.824200, 6.616277 5.822283, 6.615599 5.820365, 6.614920 5.818448, 6.614242 5.816531, 6.613564 5.814613, 6.612885 5.812696, 6.612207 5.810778, 6.611529 5.808861, 6.610851 5.806943, 6.610172 5.805026, 6.609494 5.803108, 6.608816 5.801191, 6.608137 5.799274, 6.607459 5.797356, 6.606781 5.795439, 6.606103 5.793521, 6.605424 5.791604, 6.604746 5.789686, 6.604068 5.787769, 6.603390 5.785852, 6.602711 5.783934, 6.602033 5.782017, 6.601355 5.780099, 6.600677 5.778182, 6.599998 5.776264, 6.599320 5.774347, 6.598642 5.772429, 6.597964 5.770512, 6.597286 5.768594, 6.596607 5.766677, 6.595929 5.764760, 6.595251 5.762842, 6.594573 5.760925, 6.593895 5.759007, 6.593216 5.757090, 6.592538 5.755172, 6.591860 5.753255, 6.591182 5.751337, 6.590504 5.749420, 6.589826 5.747502, 6.589147 5.745585, 6.588469 5.743668, 6.587791 5.741750, 6.587113 5.739833, 6.586435 5.737915, 6.585757 5.735998, 6.585079 5.734080, 6.584401 5.732163, 6.583722 5.730245, 6.583044 5.728328, 6.582366 5.726410, 6.581688 5.724493, 6.581010 5.722575, 6.580332 5.720658, 6.579654 5.718741, 6.578976 5.716823, 6.578298 5.714906, 6.577620 5.712988, 6.576942 5.711071, 6.576264 5.709153, 6.575585 5.707236, 6.574907 5.705318, 6.574229 5.703401, 6.573551 5.701483, 6.572873 5.699566, 6.572195 5.697648, 6.571517 5.695731, 6.570839 5.693813, 6.570161 5.691896, 6.569483 5.689978, 6.568805 5.688061, 6.568127 5.686143, 6.567449 5.684226, 6.566771 5.682308, 6.566093 5.680391, 6.565415 5.678473, 6.564737 5.676556, 6.564059 5.674638, 6.563381 5.672721, 6.562703 5.670803, 6.562025 5.668886, 6.561347 5.666969, 6.560669 5.665051, 6.559991 5.663134, 6.559313 5.661216, 6.558635 5.659299, 6.557958 5.657381, 6.557280 5.655464, 6.556602 5.653546, 6.555924 5.651629, 6.555246 5.649711, 6.554568 5.647794, 6.553890 5.645876, 6.553212 5.643959, 6.552534 5.642041, 6.551856 5.640124, 6.551178 5.638206, 6.550500 5.636289, 6.549823 5.634371, 6.549145 5.632454, 6.548467 5.630536, 6.547789 5.628618, 6.547111 5.626701, 6.546433 5.624783, 6.545755 5.622866, 6.545078 5.620948, 6.544400 5.619031, 6.543722 5.617113, 6.543044 5.615196, 6.542366 5.613278, 6.541688 5.611361, 6.541010 5.609443, 6.540333 5.607526, 6.539655 5.605608, 6.538977 5.603691, 6.538299 5.601773, 6.537621 5.599856, 6.536944 5.597938, 6.536266 5.596021, 6.535588 5.594103, 6.534910 5.592186, 6.534232 5.590268, 6.533555 5.588351, 6.532877 5.586433, 6.532199 5.584516, 6.531521 5.582598, 6.530844 5.580681, 6.530166 5.578763, 6.529488 5.576845, 6.528810 5.574928, 6.528133 5.573010, 6.527455 5.571093, 6.526777 5.569175, 6.526099 5.567258, 6.525422 5.565340, 6.524744 5.563423, 6.524066 5.561505, 6.523389 5.559588, 6.522711 5.557670, 6.522033 5.555753, 6.521355 5.553835, 6.520678 5.551918, 6.520000 5.550000, 6.519035 5.548214, 6.518070 5.546429, 6.517105 5.544643, 6.516140 5.542858, 6.515175 5.541072, 6.514210 5.539287, 6.513245 5.537501, 6.512280 5.535716, 6.511315 5.533930, 6.510350 5.532145, 6.509384 5.530359, 6.508419 5.528574, 6.507454 5.526788, 6.506489 5.525003, 6.505524 5.523217, 6.504559 5.521432, 6.503595 5.519646, 6.502630 5.517861, 6.501665 5.516075, 6.500700 5.514290, 6.499735 5.512504, 6.498770 5.510719, 6.497805 5.508933, 6.496840 5.507148, 6.495875 5.505362, 6.494910 5.503576, 6.493945 5.501791, 6.492980 5.500005, 6.492015 5.498220, 6.491050 5.496434, 6.490085 5.494649, 6.489120 5.492863, 6.488156 5.491078, 6.487191 5.489292, 6.486226 5.487506, 6.485261 5.485721, 6.484296 5.483935, 6.483331 5.482150, 6.482366 5.480364, 6.481401 5.478579, 6.480437 5.476793, 6.479472 5.475008, 6.478507 5.473222, 6.477542 5.471436, 6.476577 5.469651, 6.475613 5.467865, 6.474648 5.466080, 6.473683 5.464294, 6.472718 5.462509, 6.471753 5.460723, 6.470789 5.458937, 6.469824 5.457152, 6.468859 5.455366, 6.467894 5.453581, 6.466929 5.451795, 6.465965 5.450009, 6.465000 5.448224, 6.464035 5.446438, 6.463070 5.444653, 6.462106 5.442867, 6.461141 5.441081, 6.460176 5.439296, 6.459212 5.437510, 6.458247 5.435725, 6.457282 5.433939, 6.456317 5.432153, 6.455353 5.430368, 6.454388 5.428582, 6.453423 5.426797, 6.452459 5.425011, 6.451494 5.423225, 6.450529 5.421440, 6.449565 5.419654, 6.448600 5.417869, 6.447635 5.416083, 6.446671 5.414297, 6.445706 5.412512, 6.444741 5.410726, 6.443777 5.408941, 6.442812 5.407155, 6.441848 5.405369, 6.440883 5.403584, 6.439918 5.401798, 6.438954 5.400012, 6.437989 5.398227, 6.437025 5.396441, 6.436060 5.394655, 6.435095 5.392870, 6.434131 5.391084, 6.433166 5.389299, 6.432202 5.387513, 6.431237 5.385727, 6.430273 5.383942, 6.429308 5.382156, 6.428344 5.380370, 6.427379 5.378585, 6.426415 5.376799, 6.425450 5.375013, 6.424486 5.373228, 6.423521 5.371442, 6.422557 5.369656, 6.421592 5.367871, 6.420628 5.366085, 6.419663 5.364299, 6.418699 5.362514, 6.417734 5.360728, 6.416770 5.358942, 6.415805 5.357157, 6.414841 5.355371, 6.413876 5.353585, 6.412912 5.351800, 6.411947 5.350014, 6.410983 5.348228, 6.410019 5.346443, 6.409054 5.344657, 6.408090 5.342871, 6.407125 5.341086, 6.406161 5.339300, 6.405196 5.337514, 6.404232 5.335729, 6.403268 5.333943, 6.402303 5.332157, 6.401339 5.330372, 6.400375 5.328586, 6.399410 5.326800, 6.398446 5.325015, 6.397481 5.323229, 6.396517 5.321443, 6.395553 5.319657, 6.394588 5.317872, 6.393624 5.316086, 6.392660 5.314300, 6.391695 5.312515, 6.390731 5.310729, 6.389767 5.308943, 6.388803 5.307157, 6.387838 5.305372, 6.386874 5.303586, 6.385910 5.301800, 6.384945 5.300015, 6.383981 5.298229, 6.383017 5.296443, 6.382053 5.294657, 6.381088 5.292872, 6.380124 5.291086, 6.379160 5.289300, 6.378196 5.287515, 6.377231 5.285729, 6.376267 5.283943, 6.375303 5.282157, 6.374339 5.280372, 6.373374 5.278586, 6.372410 5.276800, 6.371446 5.275014, 6.370482 5.273229, 6.369518 5.271443, 6.368553 5.269657, 6.367589 5.267871, 6.366625 5.266086, 6.365661 5.264300, 6.364697 5.262514, 6.363733 5.260729, 6.362768 5.258943, 6.361804 5.257157, 6.360840 5.255371, 6.359876 5.253586, 6.358912 5.251800, 6.357948 5.250014, 6.356984 5.248228, 6.356019 5.246442, 6.355055 5.244657, 6.354091 5.242871, 6.353127 5.241085, 6.352163 5.239299, 6.351199 5.237514, 6.350235 5.235728, 6.349271 5.233942, 6.348307 5.232156, 6.347343 5.230371, 6.346379 5.228585, 6.345415 5.226799, 6.344451 5.225013, 6.343486 5.223227, 6.342522 5.221442, 6.341558 5.219656, 6.340594 5.217870, 6.339630 5.216084, 6.338666 5.214299, 6.337702 5.212513, 6.336738 5.210727, 6.335774 5.208941, 6.334810 5.207155, 6.333846 5.205370, 6.332882 5.203584, 6.331918 5.201798, 6.330954 5.200012, 6.329990 5.198226, 6.329026 5.196441, 6.328063 5.194655, 6.327099 5.192869, 6.326135 5.191083, 6.325171 5.189297, 6.324207 5.187512, 6.323243 5.185726, 6.322279 5.183940, 6.321315 5.182154, 6.320351 5.180368, 6.319387 5.178583, 6.318423 5.176797, 6.317459 5.175011, 6.316495 5.173225, 6.315532 5.171439, 6.314568 5.169653, 6.313604 5.167868, 6.312640 5.166082, 6.311676 5.164296, 6.310712 5.162510, 6.309748 5.160724, 6.308785 5.158938, 6.307821 5.157153, 6.306857 5.155367, 6.305893 5.153581, 6.304929 5.151795, 6.303965 5.150009, 6.303002 5.148223, 6.302038 5.146438, 6.301074 5.144652, 6.300110 5.142866, 6.299146 5.141080, 6.298183 5.139294, 6.297219 5.137508, 6.296255 5.135723, 6.295291 5.133937, 6.294327 5.132151, 6.293364 5.130365, 6.292400 5.128579, 6.291436 5.126793, 6.290472 5.125007, 6.289509 5.123222, 6.288545 5.121436, 6.287581 5.119650, 6.286618 5.117864, 6.285654 5.116078, 6.284690 5.114292, 6.283726 5.112506, 6.282763 5.110720, 6.281799 5.108935, 6.280835 5.107149, 6.279872 5.105363, 6.278908 5.103577, 6.277944 5.101791, 6.276981 5.100005, 6.276017 5.098219, 6.275053 5.096433, 6.274090 5.094648, 6.273126 5.092862, 6.272162 5.091076, 6.271199 5.089290, 6.270235 5.087504, 6.269271 5.085718, 6.268308 5.083932, 6.267344 5.082146, 6.266381 5.080360, 6.265417 5.078575, 6.264453 5.076789, 6.263490 5.075003, 6.262526 5.073217, 6.261563 5.071431, 6.260599 5.069645, 6.259635 5.067859, 6.258672 5.066073, 6.257708 5.064287, 6.256745 5.062501, 6.255781 5.060715, 6.254818 5.058930, 6.253854 5.057144, 6.252891 5.055358, 6.251927 5.053572, 6.250964 5.051786, 6.250000 5.050000, 6.249513 5.048027, 6.249026 5.046054, 6.248539 5.044081, 6.248052 5.042108, 6.247565 5.040135, 6.247078 5.038163, 6.246591 5.036190, 6.246104 5.034217, 6.245617 5.032244, 6.245130 5.030271, 6.244643 5.028298, 6.244156 5.026325, 6.243669 5.024352, 6.243182 5.022379, 6.242695 5.020406, 6.242208 5.018433, 6.241721 5.016460, 6.241234 5.014488, 6.240747 5.012515, 6.240260 5.010542, 6.239773 5.008569, 6.239287 5.006596, 6.238800 5.004623, 6.238313 5.002650, 6.237826 5.000677, 6.237339 4.998704, 6.236852 4.996731, 6.236365 4.994758, 6.235878 4.992785, 6.235391 4.990813, 6.234904 4.988840, 6.234417 4.986867, 6.233930 4.984894, 6.233443 4.982921, 6.232957 4.980948, 6.232470 4.978975, 6.231983 4.977002, 6.231496 4.975029, 6.231009 4.973056, 6.230522 4.971083, 6.230035 4.969110, 6.229548 4.967137, 6.229061 4.965165, 6.228575 4.963192, 6.228088 4.961219, 6.227601 4.959246, 6.227114 4.957273, 6.226627 4.955300, 6.226140 4.953327, 6.225653 4.951354, 6.225166 4.949381, 6.224680 4.947408, 6.224193 4.945435, 6.223706 4.943462, 6.223219 4.941489, 6.222732 4.939517, 6.222245 4.937544, 6.221758 4.935571, 6.221272 4.933598, 6.220785 4.931625, 6.220298 4.929652, 6.219811 4.927679, 6.219324 4.925706, 6.218838 4.923733, 6.218351 4.921760, 6.217864 4.919787, 6.217377 4.917814, 6.216890 4.915841, 6.216403 4.913868, 6.215917 4.911895, 6.215430 4.909923, 6.214943 4.907950, 6.214456 4.905977, 6.213969 4.904004, 6.213483 4.902031, 6.212996 4.900058, 6.212509 4.898085, 6.212022 4.896112, 6.211536 4.894139, 6.211049 4.892166, 6.210562 4.890193, 6.210075 4.888220, 6.209588 4.886247, 6.209102 4.884274, 6.208615 4.882301, 6.208128 4.880328, 6.207641 4.878356, 6.207155 4.876383, 6.206668 4.874410, 6.206181 4.872437, 6.205694 4.870464, 6.205208 4.868491, 6.204721 4.866518, 6.204234 4.864545, 6.203747 4.862572, 6.203261 4.860599, 6.202774 4.858626, 6.202287 4.856653, 6.201801 4.854680, 6.201314 4.852707, 6.200827 4.850734, 6.200340 4.848761, 6.199854 4.846788, 6.199367 4.844816, 6.198880 4.842843, 6.198394 4.840870, 6.197907 4.838897, 6.197420 4.836924, 6.196933 4.834951, 6.196447 4.832978, 6.195960 4.831005, 6.195473 4.829032, 6.194987 4.827059, 6.194500 4.825086, 6.194013 4.823113, 6.193527 4.821140, 6.193040 4.819167, 6.192553 4.817194, 6.192067 4.815221, 6.191580 4.813248, 6.191093 4.811275, 6.190607 4.809302, 6.190120 4.807329, 6.189633 4.805357, 6.189147 4.803384, 6.188660 4.801411, 6.188173 4.799438, 6.187687 4.797465, 6.187200 4.795492, 6.186714 4.793519, 6.186227 4.791546, 6.185740 4.789573, 6.185254 4.787600, 6.184767 4.785627, 6.184280 4.783654, 6.183794 4.781681, 6.183307 4.779708, 6.182821 4.777735, 6.182334 4.775762, 6.181847 4.773789, 6.181361 4.771816, 6.180874 4.769843, 6.180388 4.767870, 6.179901 4.765897, 6.179414 4.763924, 6.178928 4.761951, 6.178441 4.759979, 6.177955 4.758006, 6.177468 4.756033, 6.176981 4.754060, 6.176495 4.752087, 6.176008 4.750114, 6.175522 4.748141, 6.175035 4.746168, 6.174549 4.744195, 6.174062 4.742222, 6.173576 4.740249, 6.173089 4.738276, 6.172602 4.736303, 6.172116 4.734330, 6.171629 4.732357, 6.171143 4.730384, 6.170656 4.728411, 6.170170 4.726438, 6.169683 4.724465, 6.169197 4.722492, 6.168710 4.720519, 6.168224 4.718546, 6.167737 4.716573, 6.167251 4.714600, 6.166764 4.712627, 6.166277 4.710654, 6.165791 4.708681, 6.165304 4.706708, 6.164818 4.704735, 6.164331 4.702763, 6.163845 4.700790, 6.163358 4.698817, 6.162872 4.696844, 6.162385 4.694871, 6.161899 4.692898, 6.161412 4.690925, 6.160926 4.688952, 6.160439 4.686979, 6.159953 4.685006, 6.159467 4.683033, 6.158980 4.681060, 6.158494 4.679087, 6.158007 4.677114, 6.157521 4.675141, 6.157034 4.673168, 6.156548 4.671195, 6.156061 4.669222, 6.155575 4.667249, 6.155088 4.665276, 6.154602 4.663303, 6.154115 4.661330, 6.153629 4.659357, 6.153143 4.657384, 6.152656 4.655411, 6.152170 4.653438, 6.151683 4.651465, 6.151197 4.649492, 6.150710 4.647519, 6.150224 4.645546, 6.149738 4.643573, 6.149251 4.641600, 6.148765 4.639627, 6.148278 4.637654, 6.147792 4.635681, 6.147305 4.633708, 6.146819 4.631735, 6.146333 4.629762, 6.145846 4.627789, 6.145360 4.625816, 6.144873 4.623843, 6.144387 4.621870, 6.143901 4.619897, 6.143414 4.617924, 6.142928 4.615951, 6.142442 4.613978, 6.141955 4.612005, 6.141469 4.610033, 6.140982 4.608060, 6.140496 4.606087, 6.140010 4.604114, 6.139523 4.602141, 6.139037 4.600168, 6.138551 4.598195, 6.138064 4.596222, 6.137578 4.594249, 6.137091 4.592276, 6.136605 4.590303, 6.136119 4.588330, 6.135632 4.586357, 6.135146 4.584384, 6.134660 4.582411, 6.134173 4.580438, 6.133687 4.578465, 6.133201 4.576492, 6.132714 4.574519, 6.132228 4.572546, 6.131742 4.570573, 6.131255 4.568600, 6.130769 4.566627, 6.130283 4.564654, 6.129796 4.562681, 6.129310 4.560708, 6.128824 4.558735, 6.128338 4.556762, 6.127851 4.554789, 6.127365 4.552816, 6.126879 4.550843, 6.126392 4.548870, 6.125906 4.546897, 6.125420 4.544924, 6.124934 4.542951, 6.124447 4.540978, 6.123961 4.539005, 6.123475 4.537032, 6.122988 4.535059, 6.122502 4.533086, 6.122016 4.531113, 6.121530 4.529140, 6.121043 4.527167, 6.120557 4.525194, 6.120071 4.523221, 6.119585 4.521248, 6.119098 4.519275, 6.118612 4.517302, 6.118126 4.515329, 6.117640 4.513356, 6.117153 4.511383, 6.116667 4.509410, 6.116181 4.507437, 6.115695 4.505464, 6.115208 4.503491, 6.114722 4.501518, 6.114236 4.499545, 6.113750 4.497572, 6.113263 4.495599, 6.112777 4.493626, 6.112291 4.491653, 6.111805 4.489680, 6.111319 4.487707, 6.110832 4.485734, 6.110346 4.483761, 6.109860 4.481788, 6.109374 4.479815, 6.108888 4.477842, 6.108401 4.475869, 6.107915 4.473896, 6.107429 4.471923, 6.106943 4.469950, 6.106457 4.467977, 6.105970 4.466004, 6.105484 4.464031, 6.104998 4.462058, 6.104512 4.460085, 6.104026 4.458112, 6.103540 4.456139, 6.103053 4.454166, 6.102567 4.452193, 6.102081 4.450220, 6.101595 4.448247, 6.101109 4.446274, 6.100623 4.444300, 6.100136 4.442327, 6.099650 4.440354, 6.099164 4.438381, 6.098678 4.436408, 6.098192 4.434435, 6.097706 4.432462, 6.097220 4.430489, 6.096733 4.428516, 6.096247 4.426543, 6.095761 4.424570, 6.095275 4.422597, 6.094789 4.420624, 6.094303 4.418651, 6.093817 4.416678, 6.093331 4.414705, 6.092844 4.412732, 6.092358 4.410759, 6.091872 4.408786, 6.091386 4.406813, 6.090900 4.404840, 6.090414 4.402867, 6.089928 4.400894, 6.089442 4.398921, 6.088956 4.396948, 6.088470 4.394975, 6.087983 4.393002, 6.087497 4.391029, 6.087011 4.389056, 6.086525 4.387083, 6.086039 4.385110, 6.085553 4.383137, 6.085067 4.381164, 6.084581 4.379191, 6.084095 4.377218, 6.083609 4.375245, 6.083123 4.373272, 6.082637 4.371299, 6.082151 4.369326, 6.081665 4.367353, 6.081178 4.365380, 6.080692 4.363407, 6.080206 4.361434, 6.079720 4.359461, 6.079234 4.357488, 6.078748 4.355515, 6.078262 4.353542, 6.077776 4.351568, 6.077290 4.349595, 6.076804 4.347622, 6.076318 4.345649, 6.075832 4.343676, 6.075346 4.341703, 6.074860 4.339730, 6.074374 4.337757, 6.073888 4.335784, 6.073402 4.333811, 6.072916 4.331838, 6.072430 4.329865, 6.071944 4.327892, 6.071458 4.325919, 6.070972 4.323946, 6.070486 4.321973, 6.070000 4.320000)
