LINESTRING (-7.990000 12.640000, -7.985571 12.642272, -7.981142 12.644543, -7.976712 12.646815, -7.972283 12.649086, -7.967853 12.651357, -7.963424 12.653628, -7.958994 12.655899, -7.954564 12.658171, -7.950134 12.660442, -7.945705 12.662712, -7.941275 12.664983, -7.936845 12.667254, -7.932414 12.669525, -7.927984 12.671795, -7.923554 12.674066, -7.919124 12.676336, -7.914693 12.678607, -7.910263 12.680877, -7.905832 12.683147, -7.901401 12.685418, -7.896970 12.687688, -7.892540 12.689958, -7.888109 12.692228, -7.883678 12.694498, -7.879247 12.696767, -7.874815 12.699037, -7.870384 12.701307, -7.865953 12.703576, -7.861522 12.705846, -7.857090 12.708115, -7.852658 12.710385, -7.848227 12.712654, -7.843795 12.714923, -7.839363 12.717192, -7.834931 12.719461, -7.830500 12.721730, -7.826067 12.723999, -7.821635 12.726268, -7.817203 12.728537, -7.812771 12.730806, -7.808339 12.733074, -7.803906 12.735343, -7.799474 12.737611, -7.795041 12.739880, -7.790608 12.742148, -7.786176 12.744416, -7.781743 12.746685, -7.777310 12.748953, -7.772877 12.751221, -7.768444 12.753489, -7.764011 12.755757, -7.759577 12.758025, -7.755144 12.760292, -7.750711 12.762560, -7.746277 12.764828, -7.741844 12.767095, -7.737410 12.769363, -7.732976 12.771630, -7.728543 12.773897, -7.724109 12.776164, -7.719675 12.778432, -7.715241 12.780699, -7.710807 12.782966, -7.706373 12.785233, -7.701938 12.787500, -7.697504 12.789766, -7.693070 12.792033, -7.688635 12.794300, -7.684201 12.796566, -7.679766 12.798833, -7.675331 12.801099, -7.670896 12.803366, -7.666461 12.805632, -7.662026 12.807898, -7.657591 12.810164, -7.653156 12.812430, -7.648721 12.814696, -7.644286 12.816962, -7.639850 12.819228, -7.635415 12.821494, -7.630979 12.823759, -7.626544 12.826025, -7.622108 12.828290, -7.617672 12.830556, -7.613236 12.832821, -7.608801 12.835087, -7.604365 12.837352, -7.599928 12.839617, -7.595492 12.841882, -7.591056 12.844147, -7.586620 12.846412, -7.582183 12.848677, -7.577747 12.850942, -7.573310 12.853206, -7.568874 12.855471, -7.564437 12.857736, -7.560000 12.860000, -7.555417 12.862026, -7.550834 12.864051, -7.546251 12.866076, -7.541667 12.868102, -7.537084 12.870127, -7.532500 12.872152, -7.527917 12.874177, -7.523333 12.876202, -7.518750 12.878227, -7.514166 12.880252, -7.509582 12.882277, -7.504998 12.884301, -7.500414 12.886326, -7.495830 12.888350, -7.491246 12.890375, -7.486662 12.892399, -7.482078 12.894423, -7.477493 12.896448, -7.472909 12.898472, -7.468324 12.900496, -7.463740 12.902520, -7.459155 12.904543, -7.454571 12.906567, -7.449986 12.908591, -7.445401 12.910615, -7.440816 12.912638, -7.436231 12.914662, -7.431646 12.916685, -7.427061 12.918708, -7.422476 12.920732, -7.417890 12.922755, -7.413305 12.924778, -7.408720 12.926801, -7.404134 12.928824, -7.399548 12.930846, -7.394963 12.932869, -7.390377 12.934892, -7.385791 12.936914, -7.381205 12.938937, -7.376619 12.940959, -7.372033 12.942982, -7.367447 12.945004, -7.362861 12.947026, -7.358275 12.949048, -7.353688 12.951070, -7.349102 12.953092, -7.344515 12.955114, -7.339929 12.957136, -7.335342 12.959158, -7.330756 12.961179, -7.326169 12.963201, -7.321582 12.965222, -7.316995 12.967244, -7.312408 12.969265, -7.307821 12.971286, -7.303234 12.973307, -7.298647 12.975328, -7.294059 12.977349, -7.289472 12.979370, -7.284884 12.981391, -7.280297 12.983412, -7.275709 12.985433, -7.271122 12.987453, -7.266534 12.989474, -7.261946 12.991494, -7.257358 12.993514, -7.252770 12.995535, -7.248182 12.997555, -7.243594 12.999575, -7.239006 13.001595, -7.234417 13.003615, -7.229829 13.005635, -7.225241 13.007654, -7.220652 13.009674, -7.216064 13.011694, -7.211475 13.013713, -7.206886 13.015733, -7.202297 13.017752, -7.197709 13.019771, -7.193120 13.021791, -7.188531 13.023810, -7.183941 13.025829, -7.179352 13.027848, -7.174763 13.029867, -7.170174 13.031886, -7.165584 13.033904, -7.160995 13.035923, -7.156405 13.037941, -7.151816 13.039960, -7.147226 13.041978, -7.142636 13.043997, -7.138046 13.046015, -7.133456 13.048033, -7.128866 13.050051, -7.124276 13.052069, -7.119686 13.054087, -7.115096 13.056105, -7.110506 13.058123, -7.105915 13.060140, -7.101325 13.062158, -7.096734 13.064175, -7.092144 13.066193, -7.087553 13.068210, -7.082962 13.070228, -7.078372 13.072245, -7.073781 13.074262, -7.069190 13.076279, -7.064599 13.078296, -7.060008 13.080313, -7.055416 13.082329, -7.050825 13.084346, -7.046234 13.086363, -7.041642 13.088379, -7.037051 13.090396, -7.032459 13.092412, -7.027868 13.094428, -7.023276 13.096445, -7.018684 13.098461, -7.014092 13.100477, -7.009500 13.102493, -7.004908 13.104509, -7.000316 13.106525, -6.995724 13.108540, -6.991132 13.110556, -6.986539 13.112571, -6.981947 13.114587, -6.977354 13.116602, -6.972762 13.118618, -6.968169 13.120633, -6.963577 13.122648, -6.958984 13.124663, -6.954391 13.126678, -6.949798 13.128693, -6.945205 13.130708, -6.940612 13.132723, -6.936019 13.134737, -6.931426 13.136752, -6.926832 13.138766, -6.922239 13.140781, -6.917645 13.142795, -6.913052 13.144809, -6.908458 13.146824, -6.903865 13.148838, -6.899271 13.150852, -6.894677 13.152866, -6.890083 13.154880, -6.885489 13.156893, -6.880895 13.158907, -6.876301 13.160921, -6.871707 13.162934, -6.867112 13.164948, -6.862518 13.166961, -6.857924 13.168974, -6.853329 13.170987, -6.848735 13.173001, -6.844140 13.175014, -6.839545 13.177027, -6.834950 13.179039, -6.830355 13.181052, -6.825760 13.183065, -6.821165 13.185078, -6.816570 13.187090, -6.811975 13.189103, -6.807380 13.191115, -6.802785 13.193127, -6.798189 13.195139, -6.793594 13.197152, -6.788998 13.199164, -6.784402 13.201176, -6.779807 13.203188, -6.775211 13.205199, -6.770615 13.207211, -6.766019 13.209223, -6.761423 13.211234, -6.756827 13.213246, -6.752231 13.215257, -6.747635 13.217269, -6.743038 13.219280, -6.738442 13.221291, -6.733845 13.223302, -6.729249 13.225313, -6.724652 13.227324, -6.720055 13.229335, -6.715459 13.231345, -6.710862 13.233356, -6.706265 13.235367, -6.701668 13.237377, -6.697071 13.239388, -6.692474 13.241398, -6.687876 13.243408, -6.683279 13.245418, -6.678682 13.247428, -6.674084 13.249438, -6.669487 13.251448, -6.664889 13.253458, -6.660291 13.255468, -6.655694 13.257478, -6.651096 13.259487, -6.646498 13.261497, -6.641900 13.263506, -6.637302 13.265516, -6.632704 13.267525, -6.628105 13.269534, -6.623507 13.271543, -6.618909 13.273552, -6.614310 13.275561, -6.609712 13.277570, -6.605113 13.279579, -6.600514 13.281587, -6.595916 13.283596, -6.591317 13.285604, -6.586718 13.287613, -6.582119 13.289621, -6.577520 13.291629, -6.572921 13.293638, -6.568321 13.295646, -6.563722 13.297654, -6.559123 13.299662, -6.554523 13.301670, -6.549924 13.303677, -6.545324 13.305685, -6.540725 13.307693, -6.536125 13.309700, -6.531525 13.311708, -6.526925 13.313715, -6.522325 13.315722, -6.517725 13.317729, -6.513125 13.319737, -6.508525 13.321744, -6.503924 13.323751, -6.499324 13.325757, -6.494724 13.327764, -6.490123 13.329771, -6.485523 13.331778, -6.480922 13.333784, -6.476321 13.335791, -6.471720 13.337797, -6.467119 13.339803, -6.462518 13.341809, -6.457917 13.343816, -6.453316 13.345822, -6.448715 13.347828, -6.444114 13.349833, -6.439512 13.351839, -6.434911 13.353845, -6.430310 13.355850, -6.425708 13.357856, -6.421106 13.359861, -6.416505 13.361867, -6.411903 13.363872, -6.407301 13.365877, -6.402699 13.367882, -6.398097 13.369888, -6.393495 13.371892, -6.388893 13.373897, -6.384290 13.375902, -6.379688 13.377907, -6.375086 13.379911, -6.370483 13.381916, -6.365880 13.383920, -6.361278 13.385925, -6.356675 13.387929, -6.352072 13.389933, -6.347469 13.391937, -6.342866 13.393942, -6.338263 13.395945, -6.333660 13.397949, -6.329057 13.399953, -6.324454 13.401957, -6.319850 13.403960, -6.315247 13.405964, -6.310644 13.407967, -6.306040 13.409971, -6.301436 13.411974, -6.296833 13.413977, -6.292229 13.415980, -6.287625 13.417984, -6.283021 13.419986, -6.278417 13.421989, -6.273813 13.423992, -6.269209 13.425995, -6.264604 13.427997, -6.260000 13.430000, -6.255665 13.432485, -6.251329 13.434971, -6.246994 13.437456, -6.242658 13.439941, -6.238323 13.442426, -6.233987 13.444911, -6.229651 13.447396, -6.225315 13.449881, -6.220979 13.452366, -6.216643 13.454851, -6.212307 13.457335, -6.207971 13.459820, -6.203634 13.462304, -6.199298 13.464789, -6.194961 13.467273, -6.190625 13.469758, -6.186288 13.472242, -6.181951 13.474726, -6.177614 13.477210, -6.173277 13.479694, -6.168940 13.482178, -6.164603 13.484662, -6.160266 13.487146, -6.155928 13.489629, -6.151591 13.492113, -6.147253 13.494596, -6.142916 13.497080, -6.138578 13.499563, -6.134240 13.502047, -6.129902 13.504530, -6.125564 13.507013, -6.121226 13.509496, -6.116888 13.511979, -6.112550 13.514462, -6.108211 13.516945, -6.103873 13.519428, -6.099534 13.521911, -6.095196 13.524393, -6.090857 13.526876, -6.086518 13.529358, -6.082179 13.531841, -6.077840 13.534323, -6.073501 13.536805, -6.069162 13.539288, -6.064823 13.541770, -6.060483 13.544252, -6.056144 13.546734, -6.051804 13.549216, -6.047465 13.551697, -6.043125 13.554179, -6.038785 13.556661, -6.034445 13.559143, -6.030105 13.561624, -6.025765 13.564105, -6.021425 13.566587, -6.017085 13.569068, -6.012745 13.571549, -6.008404 13.574031, -6.004064 13.576512, -5.999723 13.578993, -5.995382 13.581474, -5.991041 13.583954, -5.986701 13.586435, -5.982360 13.588916, -5.978018 13.591397, -5.973677 13.593877, -5.969336 13.596358, -5.964995 13.598838, -5.960653 13.601318, -5.956312 13.603799, -5.951970 13.606279, -5.947628 13.608759, -5.943287 13.611239, -5.938945 13.613719, -5.934603 13.616199, -5.930261 13.618679, -5.925918 13.621158, -5.921576 13.623638, -5.917234 13.626118, -5.912891 13.628597, -5.908549 13.631076, -5.904206 13.633556, -5.899864 13.636035, -5.895521 13.638514, -5.891178 13.640993, -5.886835 13.643472, -5.882492 13.645951, -5.878149 13.648430, -5.873805 13.650909, -5.869462 13.653388, -5.865119 13.655867, -5.860775 13.658345, -5.856431 13.660824, -5.852088 13.663302, -5.847744 13.665780, -5.843400 13.668259, -5.839056 13.670737, -5.834712 13.673215, -5.830368 13.675693, -5.826024 13.678171, -5.821679 13.680649, -5.817335 13.683127, -5.812990 13.685605, -5.808646 13.688082, -5.804301 13.690560, -5.799956 13.693038, -5.795611 13.695515, -5.791266 13.697992, -5.786921 13.700470, -5.782576 13.702947, -5.778231 13.705424, -5.773885 13.707901, -5.769540 13.710378, -5.765194 13.712855, -5.760849 13.715332, -5.756503 13.717809, -5.752157 13.720285, -5.747811 13.722762, -5.743465 13.725239, -5.739119 13.727715, -5.734773 13.730192, -5.730427 13.732668, -5.726080 13.735144, -5.721734 13.737620, -5.717387 13.740096, -5.713040 13.742572, -5.708694 13.745048, -5.704347 13.747524, -5.700000 13.750000, -5.695524 13.752259, -5.691047 13.754518, -5.686571 13.756777, -5.682094 13.759036, -5.677617 13.761295, -5.673140 13.763554, -5.668663 13.765813, -5.664186 13.768072, -5.659709 13.770330, -5.655232 13.772589, -5.650755 13.774847, -5.646278 13.777106, -5.641800 13.779364, -5.637323 13.781622, -5.632845 13.783880, -5.628367 13.786138, -5.623890 13.788396, -5.619412 13.790654, -5.614934 13.792912, -5.610456 13.795169, -5.605978 13.797427, -5.601499 13.799685, -5.597021 13.801942, -5.592543 13.804199, -5.588064 13.806457, -5.583586 13.808714, -5.579107 13.810971, -5.574628 13.813228, -5.570150 13.815485, -5.565671 13.817742, -5.561192 13.819999, -5.556713 13.822256, -5.552233 13.824512, -5.547754 13.826769, -5.543275 13.829025, -5.538795 13.831282, -5.534316 13.833538, -5.529836 13.835794, -5.525357 13.838050, -5.520877 13.840306, -5.516397 13.842562, -5.511917 13.844818, -5.507437 13.847074, -5.502957 13.849330, -5.498477 13.851586, -5.493996 13.853841, -5.489516 13.856097, -5.485036 13.858352, -5.480555 13.860607, -5.476074 13.862863, -5.471594 13.865118, -5.467113 13.867373, -5.462632 13.869628, -5.458151 13.871883, -5.453670 13.874138, -5.449189 13.876393, -5.444708 13.878647, -5.440226 13.880902, -5.435745 13.883156, -5.431263 13.885411, -5.426782 13.887665, -5.422300 13.889920, -5.417818 13.892174, -5.413336 13.894428, -5.408854 13.896682, -5.404372 13.898936, -5.399890 13.901190, -5.395408 13.903444, -5.390926 13.905697, -5.386443 13.907951, -5.381961 13.910204, -5.377478 13.912458, -5.372996 13.914711, -5.368513 13.916965, -5.364030 13.919218, -5.359547 13.921471, -5.355064 13.923724, -5.350581 13.925977, -5.346098 13.928230, -5.341615 13.930483, -5.337131 13.932735, -5.332648 13.934988, -5.328164 13.937241, -5.323681 13.939493, -5.319197 13.941745, -5.314713 13.943998, -5.310230 13.946250, -5.305746 13.948502, -5.301262 13.950754, -5.296777 13.953006, -5.292293 13.955258, -5.287809 13.957510, -5.283324 13.959762, -5.278840 13.962013, -5.274355 13.964265, -5.269871 13.966516, -5.265386 13.968768, -5.260901 13.971019, -5.256416 13.973270, -5.251931 13.975522, -5.247446 13.977773, -5.242961 13.980024, -5.238476 13.982275, -5.233990 13.984525, -5.229505 13.986776, -5.225019 13.989027, -5.220534 13.991278, -5.216048 13.993528, -5.211562 13.995778, -5.207076 13.998029, -5.202590 14.000279, -5.198104 14.002529, -5.193618 14.004779, -5.189132 14.007029, -5.184646 14.009279, -5.180159 14.011529, -5.175673 14.013779, -5.171186 14.016029, -5.166699 14.018278, -5.162213 14.020528, -5.157726 14.022777, -5.153239 14.025027, -5.148752 14.027276, -5.144265 14.029525, -5.139778 14.031774, -5.135290 14.034023, -5.130803 14.036272, -5.126315 14.038521, -5.121828 14.040770, -5.117340 14.043018, -5.112852 14.045267, -5.108365 14.047516, -5.103877 14.049764, -5.099389 14.052012, -5.094901 14.054261, -5.090413 14.056509, -5.085924 14.058757, -5.081436 14.061005, -5.076947 14.063253, -5.072459 14.065501, -5.067970 14.067749, -5.063482 14.069996, -5.058993 14.072244, -5.054504 14.074491, -5.050015 14.076739, -5.045526 14.078986, -5.041037 14.081234, -5.036548 14.083481, -5.032058 14.085728, -5.027569 14.087975, -5.023079 14.090222, -5.018590 14.092469, -5.014100 14.094715, -5.009610 14.096962, -5.005120 14.099209, -5.000631 14.101455, -4.996140 14.103702, -4.991650 14.105948, -4.987160 14.108194, -4.982670 14.110441, -4.978180 14.112687, -4.973689 14.114933, -4.969198 14.117179, -4.964708 14.119425, -4.960217 14.121670, -4.955726 14.123916, -4.951235 14.126162, -4.946744 14.128407, -4.942253 14.130653, -4.937762 14.132898, -4.933271 14.135143, -4.928779 14.137389, -4.924288 14.139634, -4.919796 14.141879, -4.915305 14.144124, -4.910813 14.146369, -4.906321 14.148613, -4.901829 14.150858, -4.897337 14.153103, -4.892845 14.155347, -4.888353 14.157592, -4.883861 14.159836, -4.879369 14.162080, -4.874876 14.164325, -4.870384 14.166569, -4.865891 14.168813, -4.861398 14.171057, -4.856906 14.173301, -4.852413 14.175544, -4.847920 14.177788, -4.843427 14.180032, -4.838934 14.182275, -4.834440 14.184519, -4.829947 14.186762, -4.825454 14.189005, -4.820960 14.191249, -4.816467 14.193492, -4.811973 14.195735, -4.807479 14.197978, -4.802985 14.200220, -4.798492 14.202463, -4.793998 14.204706, -4.789503 14.206949, -4.785009 14.209191, -4.780515 14.211434, -4.776021 14.213676, -4.771526 14.215918, -4.767032 14.218160, -4.762537 14.220402, -4.758042 14.222645, -4.753547 14.224886, -4.749052 14.227128, -4.744557 14.229370, -4.740062 14.231612, -4.735567 14.233853, -4.731072 14.236095, -4.726576 14.238336, -4.722081 14.240578, -4.717586 14.242819, -4.713090 14.245060, -4.708594 14.247301, -4.704098 14.249542, -4.699602 14.251783, -4.695106 14.254024, -4.690610 14.256265, -4.686114 14.258506, -4.681618 14.260746, -4.677122 14.262987, -4.672625 14.265227, -4.668129 14.267467, -4.663632 14.269708, -4.659135 14.271948, -4.654639 14.274188, -4.650142 14.276428, -4.645645 14.278668, -4.641148 14.280908, -4.636651 14.283147, -4.632153 14.285387, -4.627656 14.287627, -4.623159 14.289866, -4.618661 14.292106, -4.614163 14.294345, -4.609666 14.296584, -4.605168 14.298823, -4.600670 14.301062, -4.596172 14.303301, -4.591674 14.305540, -4.587176 14.307779, -4.582678 14.310018, -4.578180 14.312257, -4.573681 14.314495, -4.569183 14.316734, -4.564684 14.318972, -4.560185 14.321210, -4.555687 14.323449, -4.551188 14.325687, -4.546689 14.327925, -4.542190 14.330163, -4.537691 14.332401, -4.533191 14.334638, -4.528692 14.336876, -4.524193 14.339114, -4.519693 14.341351, -4.515194 14.343589, -4.510694 14.345826, -4.506194 14.348063, -4.501695 14.350301, -4.497195 14.352538, -4.492695 14.354775, -4.488194 14.357012, -4.483694 14.359249, -4.479194 14.361486, -4.474694 14.363722, -4.470193 14.365959, -4.465693 14.368195, -4.461192 14.370432, -4.456691 14.372668, -4.452190 14.374904, -4.447689 14.377141, -4.443188 14.379377, -4.438687 14.381613, -4.434186 14.383849, -4.429685 14.386085, -4.425184 14.388320, -4.420682 14.390556, -4.416181 14.392792, -4.411679 14.395027, -4.407177 14.397263, -4.402675 14.399498, -4.398173 14.401733, -4.393671 14.403968, -4.389169 14.406203, -4.384667 14.408438, -4.380165 14.410673, -4.375663 14.412908, -4.371160 14.415143, -4.366658 14.417378, -4.362155 14.419612, -4.357652 14.421847, -4.353149 14.424081, -4.348646 14.426315, -4.344143 14.428550, -4.339640 14.430784, -4.335137 14.433018, -4.330634 14.435252, -4.326131 14.437486, -4.321627 14.439720, -4.317124 14.441953, -4.312620 14.444187, -4.308116 14.446420, -4.303613 14.448654, -4.299109 14.450887, -4.294605 14.453121, -4.290101 14.455354, -4.285596 14.457587, -4.281092 14.459820, -4.276588 14.462053, -4.272083 14.464286, -4.267579 14.466519, -4.263074 14.468751, -4.258569 14.470984, -4.254065 14.473216, -4.249560 14.475449, -4.245055 14.477681, -4.240550 14.479913, -4.236045 14.482146, -4.231539 14.484378, -4.227034 14.486610, -4.222529 14.488842, -4.218023 14.491074, -4.213517 14.493305, -4.209012 14.495537, -4.204506 14.497769, -4.200000 14.500000, -4.197727 14.504388, -4.195455 14.508776, -4.193182 14.513165, -4.190909 14.517553, -4.188636 14.521941, -4.186363 14.526329, -4.184090 14.530717, -4.181817 14.535105, -4.179543 14.539493, -4.177270 14.543881, -4.174997 14.548269, -4.172723 14.552657, -4.170449 14.557045, -4.168176 14.561433, -4.165902 14.565821, -4.163628 14.570209, -4.161354 14.574597, -4.159080 14.578985, -4.156805 14.583373, -4.154531 14.587761, -4.152257 14.592148, -4.149982 14.596536, -4.147708 14.600924, -4.145433 14.605312, -4.143158 14.609699, -4.140883 14.614087, -4.138608 14.618475, -4.136333 14.622862, -4.134058 14.627250, -4.131783 14.631638, -4.129508 14.636025, -4.127232 14.640413, -4.124957 14.644800, -4.122681 14.649188, -4.120406 14.653575, -4.118130 14.657963, -4.115854 14.662350, -4.113578 14.666738, -4.111302 14.671125, -4.109026 14.675513, -4.106750 14.679900, -4.104473 14.684287, -4.102197 14.688675, -4.099920 14.693062, -4.097644 14.697449, -4.095367 14.701836, -4.093090 14.706224, -4.090814 14.710611, -4.088537 14.714998, -4.086260 14.719385, -4.083982 14.723772, -4.081705 14.728159, -4.079428 14.732546, -4.077150 14.736934, -4.074873 14.741321, -4.072595 14.745708, -4.070318 14.750095, -4.068040 14.754482, -4.065762 14.758869, -4.063484 14.763256, -4.061206 14.767642, -4.058928 14.772029, -4.056650 14.776416, -4.054371 14.780803, -4.052093 14.785190, -4.049814 14.789577, -4.047536 14.793963, -4.045257 14.798350, -4.042978 14.802737, -4.040699 14.807124, -4.038421 14.811510, -4.036141 14.815897, -4.033862 14.820284, -4.031583 14.824670, -4.029304 14.829057, -4.027024 14.833444, -4.024745 14.837830, -4.022465 14.842217, -4.020185 14.846603, -4.017906 14.850990, -4.015626 14.855376, -4.013346 14.859763, -4.011066 14.864149, -4.008785 14.868535, -4.006505 14.872922, -4.004225 14.877308, -4.001944 14.881694, -3.999664 14.886081, -3.997383 14.890467, -3.995103 14.894853, -3.992822 14.899240, -3.990541 14.903626, -3.988260 14.908012, -3.985979 14.912398, -3.983697 14.916784, -3.981416 14.921170, -3.979135 14.925557, -3.976853 14.929943, -3.974572 14.934329, -3.972290 14.938715, -3.970008 14.943101, -3.967727 14.947487, -3.965445 14.951873, -3.963163 14.956259, -3.960880 14.960645, -3.958598 14.965030, -3.956316 14.969416, -3.954033 14.973802, -3.951751 14.978188, -3.949468 14.982574, -3.947186 14.986960, -3.944903 14.991345, -3.942620 14.995731, -3.940337 15.000117, -3.938054 15.004503, -3.935771 15.008888, -3.933488 15.013274, -3.931204 15.017660, -3.928921 15.022045, -3.926637 15.026431, -3.924354 15.030816, -3.922070 15.035202, -3.919786 15.039587, -3.917502 15.043973, -3.915218 15.048358, -3.912934 15.052744, -3.910650 15.057129, -3.908366 15.061515, -3.906081 15.065900, -3.903797 15.070285, -3.901512 15.074671, -3.899228 15.079056, -3.896943 15.083441, -3.894658 15.087827, -3.892373 15.092212, -3.890088 15.096597, -3.887803 15.100982, -3.885518 15.105367, -3.883232 15.109753, -3.880947 15.114138, -3.878661 15.118523, -3.876376 15.122908, -3.874090 15.127293, -3.871804 15.131678, -3.869518 15.136063, -3.867233 15.140448, -3.864946 15.144833, -3.862660 15.149218, -3.860374 15.153603, -3.858088 15.157988, -3.855801 15.162373, -3.853515 15.166757, -3.851228 15.171142, -3.848941 15.175527, -3.846654 15.179912, -3.844367 15.184297, -3.842080 15.188681, -3.839793 15.193066, -3.837506 15.197451, -3.835219 15.201835, -3.832931 15.206220, -3.830644 15.210605, -3.828356 15.214989, -3.826069 15.219374, -3.823781 15.223758, -3.821493 15.228143, -3.819205 15.232527, -3.816917 15.236912, -3.814629 15.241296, -3.812341 15.245681, -3.810052 15.250065, -3.807764 15.254450, -3.805475 15.258834, -3.803187 15.263218, -3.800898 15.267603, -3.798609 15.271987, -3.796320 15.276371, -3.794031 15.280755, -3.791742 15.285140, -3.789453 15.289524, -3.787163 15.293908, -3.784874 15.298292, -3.782584 15.302676, -3.780295 15.307060, -3.778005 15.311445, -3.775715 15.315829, -3.773425 15.320213, -3.771135 15.324597, -3.768845 15.328981, -3.766555 15.333365, -3.764265 15.337749, -3.761975 15.342133, -3.759684 15.346516, -3.757394 15.350900, -3.755103 15.355284, -3.752812 15.359668, -3.750521 15.364052, -3.748230 15.368436, -3.745939 15.372819, -3.743648 15.377203, -3.741357 15.381587, -3.739066 15.385970, -3.736774 15.390354, -3.734483 15.394738, -3.732191 15.399121, -3.729899 15.403505, -3.727607 15.407889, -3.725316 15.412272, -3.723024 15.416656, -3.720731 15.421039, -3.718439 15.425423, -3.716147 15.429806, -3.713855 15.434190, -3.711562 15.438573, -3.709269 15.442956, -3.706977 15.447340, -3.704684 15.451723, -3.702391 15.456106, -3.700098 15.460490, -3.697805 15.464873, -3.695512 15.469256, -3.693219 15.473639, -3.690925 15.478023, -3.688632 15.482406, -3.686338 15.486789, -3.684045 15.491172, -3.681751 15.495555, -3.679457 15.499938, -3.677163 15.504321, -3.674869 15.508704, -3.672575 15.513087, -3.670281 15.517470, -3.667986 15.521853, -3.665692 15.526236, -3.663397 15.530619, -3.661103 15.535002, -3.658808 15.539385, -3.656513 15.543768, -3.654218 15.548150, -3.651923 15.552533, -3.649628 15.556916, -3.647333 15.561299, -3.645038 15.565682, -3.642742 15.570064, -3.640447 15.574447, -3.638151 15.578830, -3.635855 15.583212, -3.633560 15.587595, -3.631264 15.591977, -3.628968 15.596360, -3.626672 15.600742, -3.624375 15.605125, -3.622079 15.609507, -3.619783 15.613890, -3.617486 15.618272, -3.615190 15.622655, -3.612893 15.627037, -3.610596 15.631419, -3.608299 15.635802, -3.606002 15.640184, -3.603705 15.644566, -3.601408 15.648949, -3.599111 15.653331, -3.596813 15.657713, -3.594516 15.662095, -3.592218 15.666478, -3.589921 15.670860, -3.587623 15.675242, -3.585325 15.679624, -3.583027 15.684006, -3.580729 15.688388, -3.578431 15.692770, -3.576133 15.697152, -3.573834 15.701534, -3.571536 15.705916, -3.569237 15.710298, -3.566938 15.714680, -3.564640 15.719062, -3.562341 15.723444, -3.560042 15.727825, -3.557743 15.732207, -3.555444 15.736589, -3.553144 15.740971, -3.550845 15.745353, -3.548546 15.749734, -3.546246 15.754116, -3.543946 15.758498, -3.541647 15.762879, -3.539347 15.767261, -3.537047 15.771643, -3.534747 15.776024, -3.532447 15.780406, -3.530146 15.784787, -3.527846 15.789169, -3.525546 15.793550, -3.523245 15.797932, -3.520944 15.802313, -3.518644 15.806694, -3.516343 15.811076, -3.514042 15.815457, -3.511741 15.819838, -3.509440 15.824220, -3.507139 15.828601, -3.504837 15.832982, -3.502536 15.837364, -3.500234 15.841745, -3.497933 15.846126, -3.495631 15.850507, -3.493329 15.854888, -3.491027 15.859269, -3.488725 15.863650, -3.486423 15.868032, -3.484121 15.872413, -3.481818 15.876794, -3.479516 15.881175, -3.477213 15.885556, -3.474911 15.889936, -3.472608 15.894317, -3.470305 15.898698, -3.468002 15.903079, -3.465699 15.907460, -3.463396 15.911841, -3.461093 15.916222, -3.458789 15.920602, -3.456486 15.924983, -3.454182 15.929364, -3.451879 15.933745, -3.449575 15.938125, -3.447271 15.942506, -3.444967 15.946887, -3.442663 15.951267, -3.440359 15.955648, -3.438055 15.960028, -3.435750 15.964409, -3.433446 15.968789, -3.431141 15.973170, -3.428837 15.977550, -3.426532 15.981931, -3.424227 15.986311, -3.421922 15.990691, -3.419617 15.995072, -3.417312 15.999452, -3.415007 16.003832, -3.412701 16.008213, -3.410396 16.012593, -3.408090 16.016973, -3.405785 16.021353, -3.403479 16.025734, -3.401173 16.030114, -3.398867 16.034494, -3.396561 16.038874, -3.394255 16.043254, -3.391949 16.047634, -3.389642 16.052014, -3.387336 16.056394, -3.385029 16.060774, -3.382722 16.065154, -3.380416 16.069534, -3.378109 16.073914, -3.375802 16.078294, -3.373495 16.082674, -3.371188 16.087054, -3.368880 16.091433, -3.366573 16.095813, -3.364265 16.100193, -3.361958 16.104573, -3.359650 16.108952, -3.357342 16.113332, -3.355034 16.117712, -3.352726 16.122091, -3.350418 16.126471, -3.348110 16.130851, -3.345802 16.135230, -3.343493 16.139610, -3.341185 16.143989, -3.338876 16.148369, -3.336568 16.152748, -3.334259 16.157128, -3.331950 16.161507, -3.329641 16.165886, -3.327332 16.170266, -3.325022 16.174645, -3.322713 16.179024, -3.320404 16.183404, -3.318094 16.187783, -3.315785 16.192162, -3.313475 16.196541, -3.311165 16.200921, -3.308855 16.205300, -3.306545 16.209679, -3.304235 16.214058, -3.301925 16.218437, -3.299614 16.222816, -3.297304 16.227195, -3.294993 16.231574, -3.292683 16.235953, -3.290372 16.240332, -3.288061 16.244711, -3.285750 16.249090, -3.283439 16.253469, -3.281128 16.257848, -3.278816 16.262227, -3.276505 16.266605, -3.274194 16.270984, -3.271882 16.275363, -3.269570 16.279742, -3.267258 16.284120, -3.264947 16.288499, -3.262635 16.292878, -3.260322 16.297256, -3.258010 16.301635, -3.255698 16.306014, -3.253386 16.310392, -3.251073 16.314771, -3.248760 16.319149, -3.246448 16.323528, -3.244135 16.327906, -3.241822 16.332285, -3.239509 16.336663, -3.237196 16.341041, -3.234883 16.345420, -3.232569 16.349798, -3.230256 16.354177, -3.227942 16.358555, -3.225628 16.362933, -3.223315 16.367311, -3.221001 16.371690, -3.218687 16.376068, -3.216373 16.380446, -3.214059 16.384824, -3.211744 16.389202, -3.209430 16.393580, -3.207115 16.397958, -3.204801 16.402336, -3.202486 16.406714, -3.200171 16.411092, -3.197856 16.415470, -3.195541 16.419848, -3.193226 16.424226, -3.190911 16.428604, -3.188596 16.432982, -3.186280 16.437360, -3.183965 16.441737, -3.181649 16.446115, -3.179333 16.450493, -3.177018 16.454871, -3.174702 16.459248, -3.172386 16.463626, -3.170069 16.468004, -3.167753 16.472381, -3.165437 16.476759, -3.163120 16.481137, -3.160804 16.485514, -3.158487 16.489892, -3.156170 16.494269, -3.153853 16.498647, -3.151536 16.503024, -3.149219 16.507402, -3.146902 16.511779, -3.144585 16.516156, -3.142267 16.520534, -3.139950 16.524911, -3.137632 16.529288, -3.135315 16.533666, -3.132997 16.538043, -3.130679 16.542420, -3.128361 16.546797, -3.126043 16.551174, -3.123724 16.555552, -3.121406 16.559929, -3.119087 16.564306, -3.116769 16.568683, -3.114450 16.573060, -3.112131 16.577437, -3.109813 16.581814, -3.107494 16.586191, -3.105174 16.590568, -3.102855 16.594945, -3.100536 16.599322, -3.098216 16.603698, -3.095897 16.608075, -3.093577 16.612452, -3.091258 16.616829, -3.088938 16.621206, -3.086618 16.625582, -3.084298 16.629959, -3.081978 16.634336, -3.079657 16.638712, -3.077337 16.643089, -3.075016 16.647466, -3.072696 16.651842, -3.070375 16.656219, -3.068054 16.660595, -3.065734 16.664972, -3.063413 16.669348, -3.061091 16.673725, -3.058770 16.678101, -3.056449 16.682477, -3.054127 16.686854, -3.051806 16.691230, -3.049484 16.695607, -3.047163 16.699983, -3.044841 16.704359, -3.042519 16.708735, -3.040197 16.713112, -3.037874 16.717488, -3.035552 16.721864, -3.033230 16.726240, -3.030907 16.730616, -3.028585 16.734992, -3.026262 16.739368, -3.023939 16.743744, -3.021616 16.748120, -3.019293 16.752496, -3.016970 16.756872, -3.014647 16.761248, -3.012323 16.765624, -3.010000 16.770000, -3.004945 16.769187, -2.999889 16.768374, -2.994834 16.767560, -2.989779 16.766747, -2.984724 16.765933, -2.979668 16.765120, -2.974613 16.764306, -2.969558 16.763492, -2.964503 16.762678, -2.959448 16.761863, -2.954393 16.761049, -2.949338 16.760235, -2.944284 16.759420, -2.939229 16.758605, -2.934174 16.757791, -2.929119 16.756976, -2.924065 16.756161, -2.919010 16.755345, -2.913955 16.754530, -2.908901 16.753715, -2.903846 16.752899, -2.898792 16.752083, -2.893737 16.751267, -2.888683 16.750452, -2.883629 16.749635, -2.878574 16.748819, -2.873520 16.748003, -2.868466 16.747187, -2.863412 16.746370, -2.858358 16.745553, -2.853304 16.744737, -2.848250 16.743920, -2.843196 16.743103, -2.838142 16.742285, -2.833088 16.741468, -2.828034 16.740651, -2.822980 16.739833, -2.817926 16.739016, -2.812873 16.738198, -2.807819 16.737380, -2.802765 16.736562, -2.797712 16.735744, -2.792658 16.734925, -2.787605 16.734107, -2.782551 16.733289, -2.777498 16.732470, -2.772444 16.731651, -2.767391 16.730832, -2.762338 16.730013, -2.757284 16.729194, -2.752231 16.728375, -2.747178 16.727555, -2.742125 16.726736, -2.737072 16.725916, -2.732019 16.725097, -2.726966 16.724277, -2.721913 16.723457, -2.716860 16.722637, -2.711807 16.721816, -2.706754 16.720996, -2.701702 16.720176, -2.696649 16.719355, -2.691596 16.718534, -2.686544 16.717713, -2.681491 16.716892, -2.676438 16.716071, -2.671386 16.715250, -2.666333 16.714429, -2.661281 16.713607, -2.656229 16.712786, -2.651176 16.711964, -2.646124 16.711142, -2.641072 16.710320, -2.636019 16.709498, -2.630967 16.708676, -2.625915 16.707854, -2.620863 16.707031, -2.615811 16.706209, -2.610759 16.705386, -2.605707 16.704563, -2.600655 16.703740, -2.595603 16.702917, -2.590552 16.702094, -2.585500 16.701271, -2.580448 16.700447, -2.575396 16.699624, -2.570345 16.698800, -2.565293 16.697976, -2.560242 16.697152, -2.555190 16.696328, -2.550139 16.695504, -2.545087 16.694680, -2.540036 16.693855, -2.534985 16.693031, -2.529933 16.692206, -2.524882 16.691381, -2.519831 16.690556, -2.514780 16.689731, -2.509729 16.688906, -2.504677 16.688081, -2.499626 16.687256, -2.494575 16.686430, -2.489524 16.685605, -2.484474 16.684779, -2.479423 16.683953, -2.474372 16.683127, -2.469321 16.682301, -2.464270 16.681475, -2.459220 16.680648, -2.454169 16.679822, -2.449119 16.678995, -2.444068 16.678168, -2.439017 16.677341, -2.433967 16.676514, -2.428917 16.675687, -2.423866 16.674860, -2.418816 16.674033, -2.413766 16.673205, -2.408715 16.672378, -2.403665 16.671550, -2.398615 16.670722, -2.393565 16.669894, -2.388515 16.669066, -2.383465 16.668238, -2.378415 16.667410, -2.373365 16.666581, -2.368315 16.665753, -2.363265 16.664924, -2.358215 16.664095, -2.353166 16.663266, -2.348116 16.662437, -2.343066 16.661608, -2.338017 16.660779, -2.332967 16.659949, -2.327917 16.659120, -2.322868 16.658290, -2.317818 16.657460, -2.312769 16.656630, -2.307720 16.655800, -2.302670 16.654970, -2.297621 16.654140, -2.292572 16.653309, -2.287523 16.652479, -2.282473 16.651648, -2.277424 16.650817, -2.272375 16.649987, -2.267326 16.649156, -2.262277 16.648324, -2.257228 16.647493, -2.252179 16.646662, -2.247131 16.645830, -2.242082 16.644999, -2.237033 16.644167, -2.231984 16.643335, -2.226936 16.642503, -2.221887 16.641671, -2.216839 16.640839, -2.211790 16.640006, -2.206741 16.639174, -2.201693 16.638341, -2.196645 16.637509, -2.191596 16.636676, -2.186548 16.635843, -2.181500 16.635010, -2.176451 16.634176, -2.171403 16.633343, -2.166355 16.632510, -2.161307 16.631676, -2.156259 16.630842, -2.151211 16.630009, -2.146163 16.629175, -2.141115 16.628341, -2.136067 16.627506, -2.131019 16.626672, -2.125972 16.625838, -2.120924 16.625003, -2.115876 16.624168, -2.110828 16.623334, -2.105781 16.622499, -2.100733 16.621664, -2.095686 16.620828, -2.090638 16.619993, -2.085591 16.619158, -2.080543 16.618322, -2.075496 16.617487, -2.070449 16.616651, -2.065402 16.615815, -2.060354 16.614979, -2.055307 16.614143, -2.050260 16.613307, -2.045213 16.612470, -2.040166 16.611634, -2.035119 16.610797, -2.030072 16.609960, -2.025025 16.609123, -2.019978 16.608286, -2.014931 16.607449, -2.009885 16.606612, -2.004838 16.605775, -1.999791 16.604937, -1.994744 16.604100, -1.989698 16.603262, -1.984651 16.602424, -1.979605 16.601586, -1.974558 16.600748, -1.969512 16.599910, -1.964465 16.599072, -1.959419 16.598233, -1.954373 16.597394, -1.949327 16.596556, -1.944280 16.595717, -1.939234 16.594878, -1.934188 16.594039, -1.929142 16.593200, -1.924096 16.592361, -1.919050 16.591521, -1.914004 16.590682, -1.908958 16.589842, -1.903912 16.589002, -1.898866 16.588162, -1.893821 16.587322, -1.888775 16.586482, -1.883729 16.585642, -1.878684 16.584801, -1.873638 16.583961, -1.868593 16.583120, -1.863547 16.582279, -1.858502 16.581439, -1.853456 16.580598, -1.848411 16.579756, -1.843365 16.578915, -1.838320 16.578074, -1.833275 16.577232, -1.828230 16.576391, -1.823185 16.575549, -1.818140 16.574707, -1.813094 16.573865, -1.808049 16.573023, -1.803004 16.572181, -1.797960 16.571338, -1.792915 16.570496, -1.787870 16.569653, -1.782825 16.568811, -1.777780 16.567968, -1.772736 16.567125, -1.767691 16.566282, -1.762646 16.565439, -1.757602 16.564595, -1.752557 16.563752, -1.747513 16.562908, -1.742468 16.562065, -1.737424 16.561221, -1.732379 16.560377, -1.727335 16.559533, -1.722291 16.558689, -1.717247 16.557845, -1.712203 16.557000, -1.707158 16.556156, -1.702114 16.555311, -1.697070 16.554466, -1.692026 16.553621, -1.686982 16.552776, -1.681938 16.551931, -1.676894 16.551086, -1.671851 16.550241, -1.666807 16.549395, -1.661763 16.548549, -1.656719 16.547704, -1.651676 16.546858, -1.646632 16.546012, -1.641589 16.545166, -1.636545 16.544320, -1.631502 16.543473, -1.626458 16.542627, -1.621415 16.541780, -1.616372 16.540933, -1.611328 16.540087, -1.606285 16.539240, -1.601242 16.538393, -1.596199 16.537545, -1.591156 16.536698, -1.586112 16.535851, -1.581069 16.535003, -1.576026 16.534155, -1.570983 16.533308, -1.565941 16.532460, -1.560898 16.531612, -1.555855 16.530764, -1.550812 16.529915, -1.545769 16.529067, -1.540727 16.528218, -1.535684 16.527370, -1.530642 16.526521, -1.525599 16.525672, -1.520557 16.524823, -1.515514 16.523974, -1.510472 16.523125, -1.505429 16.522275, -1.500387 16.521426, -1.495345 16.520576, -1.490302 16.519726, -1.485260 16.518877, -1.480218 16.518027, -1.475176 16.517177, -1.470134 16.516326, -1.465092 16.515476, -1.460050 16.514625, -1.455008 16.513775, -1.449966 16.512924, -1.444924 16.512073, -1.439883 16.511222, -1.434841 16.510371, -1.429799 16.509520, -1.424758 16.508669, -1.419716 16.507817, -1.414674 16.506966, -1.409633 16.506114, -1.404591 16.505262, -1.399550 16.504411, -1.394509 16.503559, -1.389467 16.502706, -1.384426 16.501854, -1.379385 16.501002, -1.374343 16.500149, -1.369302 16.499297, -1.364261 16.498444, -1.359220 16.497591, -1.354179 16.496738, -1.349138 16.495885, -1.344097 16.495032, -1.339056 16.494178, -1.334015 16.493325, -1.328975 16.492471, -1.323934 16.491617, -1.318893 16.490764, -1.313852 16.489910, -1.308812 16.489056, -1.303771 16.488201, -1.298731 16.487347, -1.293690 16.486493, -1.288650 16.485638, -1.283609 16.484783, -1.278569 16.483929, -1.273529 16.483074, -1.268488 16.482219, -1.263448 16.481363, -1.258408 16.480508, -1.253368 16.479653, -1.248328 16.478797, -1.243288 16.477941, -1.238248 16.477086, -1.233208 16.476230, -1.228168 16.475374, -1.223128 16.474518, -1.218088 16.473661, -1.213048 16.472805, -1.208009 16.471949, -1.202969 16.471092, -1.197929 16.470235, -1.192890 16.469378, -1.187850 16.468521, -1.182810 16.467664, -1.177771 16.466807, -1.172732 16.465950, -1.167692 16.465092, -1.162653 16.464235, -1.157614 16.463377, -1.152574 16.462519, -1.147535 16.461661, -1.142496 16.460803, -1.137457 16.459945, -1.132418 16.459087, -1.127379 16.458228, -1.122340 16.457370, -1.117301 16.456511, -1.112262 16.455652, -1.107223 16.454793, -1.102184 16.453934, -1.097146 16.453075, -1.092107 16.452216, -1.087068 16.451357, -1.082030 16.450497, -1.076991 16.449637, -1.071952 16.448778, -1.066914 16.447918, -1.061875 16.447058, -1.056837 16.446198, -1.051799 16.445337, -1.046760 16.444477, -1.041722 16.443617, -1.036684 16.442756, -1.031646 16.441895, -1.026608 16.441035, -1.021569 16.440174, -1.016531 16.439312, -1.011493 16.438451, -1.006455 16.437590, -1.001418 16.436729, -0.996380 16.435867, -0.991342 16.435005, -0.986304 16.434144, -0.981266 16.433282, -0.976229 16.432420, -0.971191 16.431557, -0.966153 16.430695, -0.961116 16.429833, -0.956078 16.428970, -0.951041 16.428108, -0.946004 16.427245, -0.940966 16.426382, -0.935929 16.425519, -0.930892 16.424656, -0.925854 16.423793, -0.920817 16.422929, -0.915780 16.422066, -0.910743 16.421202, -0.905706 16.420339, -0.900669 16.419475, -0.895632 16.418611, -0.890595 16.417747, -0.885558 16.416882, -0.880521 16.416018, -0.875484 16.415154, -0.870448 16.414289, -0.865411 16.413425, -0.860374 16.412560, -0.855338 16.411695, -0.850301 16.410830, -0.845265 16.409965, -0.840228 16.409099, -0.835192 16.408234, -0.830155 16.407368, -0.825119 16.406503, -0.820083 16.405637, -0.815046 16.404771, -0.810010 16.403905, -0.804974 16.403039, -0.799938 16.402173, -0.794902 16.401306, -0.789866 16.400440, -0.784830 16.399573, -0.779794 16.398707, -0.774758 16.397840, -0.769722 16.396973, -0.764686 16.396106, -0.759651 16.395239, -0.754615 16.394371, -0.749579 16.393504, -0.744543 16.392636, -0.739508 16.391769, -0.734472 16.390901, -0.729437 16.390033, -0.724401 16.389165, -0.719366 16.388297, -0.714331 16.387429, -0.709295 16.386560, -0.704260 16.385692, -0.699225 16.384823, -0.694190 16.383954, -0.689155 16.383085, -0.684119 16.382216, -0.679084 16.381347, -0.674049 16.380478, -0.669014 16.379609, -0.663980 16.378739, -0.658945 16.377870, -0.653910 16.377000, -0.648875 16.376130, -0.643840 16.375260, -0.638806 16.374390, -0.633771 16.373520, -0.628736 16.372650, -0.623702 16.371779, -0.618667 16.370909, -0.613633 16.370038, -0.608599 16.369167, -0.603564 16.368296, -0.598530 16.367425, -0.593496 16.366554, -0.588461 16.365683, -0.583427 16.364811, -0.578393 16.363940, -0.573359 16.363068, -0.568325 16.362197, -0.563291 16.361325, -0.558257 16.360453, -0.553223 16.359581, -0.548189 16.358708, -0.543155 16.357836, -0.538121 16.356964, -0.533088 16.356091, -0.528054 16.355218, -0.523020 16.354346, -0.517987 16.353473, -0.512953 16.352600, -0.507920 16.351726, -0.502886 16.350853, -0.497853 16.349980, -0.492819 16.349106, -0.487786 16.348233, -0.482753 16.347359, -0.477720 16.346485, -0.472686 16.345611, -0.467653 16.344737, -0.462620 16.343862, -0.457587 16.342988, -0.452554 16.342114, -0.447521 16.341239, -0.442488 16.340364, -0.437455 16.339489, -0.432422 16.338614, -0.427390 16.337739, -0.422357 16.336864, -0.417324 16.335989, -0.412291 16.335113, -0.407259 16.334238, -0.402226 16.333362, -0.397194 16.332486, -0.392161 16.331610, -0.387129 16.330734, -0.382096 16.329858, -0.377064 16.328982, -0.372032 16.328106, -0.367000 16.327229, -0.361967 16.326352, -0.356935 16.325476, -0.351903 16.324599, -0.346871 16.323722, -0.341839 16.322845, -0.336807 16.321967, -0.331775 16.321090, -0.326743 16.320213, -0.321711 16.319335, -0.316680 16.318457, -0.311648 16.317579, -0.306616 16.316702, -0.301584 16.315823, -0.296553 16.314945, -0.291521 16.314067, -0.286490 16.313189, -0.281458 16.312310, -0.276427 16.311431, -0.271395 16.310553, -0.266364 16.309674, -0.261333 16.308795, -0.256301 16.307915, -0.251270 16.307036, -0.246239 16.306157, -0.241208 16.305277, -0.236177 16.304398, -0.231146 16.303518, -0.226115 16.302638, -0.221084 16.301758, -0.216053 16.300878, -0.211022 16.299998, -0.205991 16.299118, -0.200961 16.298237, -0.195930 16.297357, -0.190899 16.296476, -0.185869 16.295595, -0.180838 16.294714, -0.175807 16.293833, -0.170777 16.292952, -0.165746 16.292071, -0.160716 16.291189, -0.155686 16.290308, -0.150655 16.289426, -0.145625 16.288544, -0.140595 16.287662, -0.135565 16.286780, -0.130535 16.285898, -0.125505 16.285016, -0.120474 16.284134, -0.115444 16.283251, -0.110415 16.282369, -0.105385 16.281486, -0.100355 16.280603, -0.095325 16.279720, -0.090295 16.278837, -0.085265 16.277954, -0.080236 16.277071, -0.075206 16.276187, -0.070177 16.275304, -0.065147 16.274420, -0.060118 16.273536, -0.055088 16.272652, -0.050059 16.271768, -0.045029 16.270884, -0.040000 16.270000, -0.036657 16.266300, -0.033313 16.262601, -0.029970 16.258901, -0.026627 16.255202, -0.023285 16.251502, -0.019942 16.247802, -0.016599 16.244102, -0.013257 16.240402, -0.009915 16.236702, -0.006572 16.233002, -0.003230 16.229302, 0.000112 16.225602, 0.003454 16.221902, 0.006795 16.218202, 0.010137 16.214501, 0.013478 16.210801, 0.016820 16.207101, 0.020161 16.203400, 0.023502 16.199700, 0.026843 16.195999, 0.030184 16.192299, 0.033524 16.188598, 0.036865 16.184897, 0.040205 16.181197, 0.043546 16.177496, 0.046886 16.173795, 0.050226 16.170094, 0.053566 16.166393, 0.056906 16.162692, 0.060245 16.158991, 0.063585 16.155290, 0.066924 16.151589, 0.070264 16.147887, 0.073603 16.144186, 0.076942 16.140485, 0.080281 16.136783, 0.083620 16.133082, 0.086958 16.129381, 0.090297 16.125679, 0.093635 16.121977, 0.096974 16.118276, 0.100312 16.114574, 0.103650 16.110872, 0.106988 16.107171, 0.110326 16.103469, 0.113663 16.099767, 0.117001 16.096065, 0.120338 16.092363, 0.123676 16.088661, 0.127013 16.084959, 0.130350 16.081257, 0.133687 16.077555, 0.137024 16.073852, 0.140360 16.070150, 0.143697 16.066448, 0.147034 16.062745, 0.150370 16.059043, 0.153706 16.055340, 0.157042 16.051638, 0.160378 16.047935, 0.163714 16.044232, 0.167050 16.040530, 0.170385 16.036827, 0.173721 16.033124, 0.177056 16.029421, 0.180391 16.025718, 0.183726 16.022015, 0.187061 16.018312, 0.190396 16.014609, 0.193731 16.010906, 0.197065 16.007203, 0.200400 16.003500, 0.203734 15.999796, 0.207068 15.996093, 0.210403 15.992390, 0.213737 15.988686, 0.217070 15.984983, 0.220404 15.981279, 0.223738 15.977576, 0.227071 15.973872, 0.230405 15.970168, 0.233738 15.966465, 0.237071 15.962761, 0.240404 15.959057, 0.243737 15.955353, 0.247070 15.951649, 0.250402 15.947945, 0.253735 15.944241, 0.257067 15.940537, 0.260399 15.936833, 0.263731 15.933129, 0.267063 15.929424, 0.270395 15.925720, 0.273727 15.922016, 0.277059 15.918311, 0.280390 15.914607, 0.283722 15.910902, 0.287053 15.907198, 0.290384 15.903493, 0.293715 15.899788, 0.297046 15.896084, 0.300377 15.892379, 0.303707 15.888674, 0.307038 15.884969, 0.310368 15.881264, 0.313699 15.877559, 0.317029 15.873854, 0.320359 15.870149, 0.323689 15.866444, 0.327018 15.862739, 0.330348 15.859034, 0.333678 15.855328, 0.337007 15.851623, 0.340336 15.847918, 0.343666 15.844212, 0.346995 15.840507, 0.350324 15.836801, 0.353652 15.833096, 0.356981 15.829390, 0.360310 15.825684, 0.363638 15.821979, 0.366966 15.818273, 0.370295 15.814567, 0.373623 15.810861, 0.376951 15.807155, 0.380279 15.803449, 0.383606 15.799743, 0.386934 15.796037, 0.390261 15.792331, 0.393589 15.788625, 0.396916 15.784918, 0.400243 15.781212, 0.403570 15.777506, 0.406897 15.773799, 0.410224 15.770093, 0.413550 15.766387, 0.416877 15.762680, 0.420203 15.758973, 0.423529 15.755267, 0.426856 15.751560, 0.430182 15.747853, 0.433508 15.744146, 0.436833 15.740440, 0.440159 15.736733, 0.443484 15.733026, 0.446810 15.729319, 0.450135 15.725612, 0.453460 15.721905, 0.456785 15.718198, 0.460110 15.714490, 0.463435 15.710783, 0.466760 15.707076, 0.470084 15.703368, 0.473409 15.699661, 0.476733 15.695954, 0.480057 15.692246, 0.483381 15.688539, 0.486705 15.684831, 0.490029 15.681123, 0.493353 15.677416, 0.496677 15.673708, 0.500000 15.670000, 0.502019 15.665504, 0.504037 15.661009, 0.506056 15.656513, 0.508074 15.652017, 0.510092 15.647521, 0.512110 15.643025, 0.514128 15.638529, 0.516146 15.634034, 0.518164 15.629538, 0.520182 15.625042, 0.522200 15.620546, 0.524217 15.616050, 0.526235 15.611554, 0.528252 15.607058, 0.530270 15.602562, 0.532287 15.598066, 0.534304 15.593570, 0.536321 15.589074, 0.538338 15.584578, 0.540355 15.580082, 0.542372 15.575586, 0.544389 15.571090, 0.546405 15.566594, 0.548422 15.562097, 0.550438 15.557601, 0.552455 15.553105, 0.554471 15.548609, 0.556487 15.544113, 0.558503 15.539616, 0.560519 15.535120, 0.562535 15.530624, 0.564551 15.526127, 0.566567 15.521631, 0.568582 15.517135, 0.570598 15.512638, 0.572614 15.508142, 0.574629 15.503646, 0.576644 15.499149, 0.578660 15.494653, 0.580675 15.490156, 0.582690 15.485660, 0.584705 15.481163, 0.586720 15.476667, 0.588734 15.472170, 0.590749 15.467674, 0.592764 15.463177, 0.594778 15.458681, 0.596793 15.454184, 0.598807 15.449688, 0.600821 15.445191, 0.602836 15.440694, 0.604850 15.436198, 0.606864 15.431701, 0.608878 15.427204, 0.610891 15.422708, 0.612905 15.418211, 0.614919 15.413714, 0.616932 15.409217, 0.618946 15.404720, 0.620959 15.400224, 0.622973 15.395727, 0.624986 15.391230, 0.626999 15.386733, 0.629012 15.382236, 0.631025 15.377739, 0.633038 15.373242, 0.635051 15.368745, 0.637063 15.364249, 0.639076 15.359752, 0.641089 15.355255, 0.643101 15.350758, 0.645113 15.346261, 0.647126 15.341763, 0.649138 15.337266, 0.651150 15.332769, 0.653162 15.328272, 0.655174 15.323775, 0.657186 15.319278, 0.659197 15.314781, 0.661209 15.310284, 0.663221 15.305786, 0.665232 15.301289, 0.667244 15.296792, 0.669255 15.292295, 0.671266 15.287798, 0.673277 15.283300, 0.675288 15.278803, 0.677299 15.274306, 0.679310 15.269808, 0.681321 15.265311, 0.683332 15.260814, 0.685342 15.256316, 0.687353 15.251819, 0.689363 15.247321, 0.691374 15.242824, 0.693384 15.238326, 0.695394 15.233829, 0.697404 15.229332, 0.699414 15.224834, 0.701424 15.220336, 0.703434 15.215839, 0.705444 15.211341, 0.707454 15.206844, 0.709463 15.202346, 0.711473 15.197849, 0.713482 15.193351, 0.715492 15.188853, 0.717501 15.184356, 0.719510 15.179858, 0.721519 15.175360, 0.723528 15.170862, 0.725537 15.166365, 0.727546 15.161867, 0.729555 15.157369, 0.731563 15.152871, 0.733572 15.148374, 0.735580 15.143876, 0.737589 15.139378, 0.739597 15.134880, 0.741605 15.130382, 0.743613 15.125884, 0.745621 15.121386, 0.747629 15.116888, 0.749637 15.112390, 0.751645 15.107892, 0.753653 15.103394, 0.755660 15.098896, 0.757668 15.094398, 0.759676 15.089900, 0.761683 15.085402, 0.763690 15.080904, 0.765697 15.076406, 0.767705 15.071908, 0.769712 15.067410, 0.771719 15.062912, 0.773725 15.058414, 0.775732 15.053915, 0.777739 15.049417, 0.779746 15.044919, 0.781752 15.040421, 0.783758 15.035922, 0.785765 15.031424, 0.787771 15.026926, 0.789777 15.022428, 0.791783 15.017929, 0.793789 15.013431, 0.795795 15.008933, 0.797801 15.004434, 0.799807 14.999936, 0.801813 14.995437, 0.803818 14.990939, 0.805824 14.986440, 0.807829 14.981942, 0.809835 14.977444, 0.811840 14.972945, 0.813845 14.968446, 0.815850 14.963948, 0.817855 14.959449, 0.819860 14.954951, 0.821865 14.950452, 0.823870 14.945954, 0.825874 14.941455, 0.827879 14.936956, 0.829884 14.932458, 0.831888 14.927959, 0.833892 14.923460, 0.835897 14.918962, 0.837901 14.914463, 0.839905 14.909964, 0.841909 14.905465, 0.843913 14.900967, 0.845917 14.896468, 0.847920 14.891969, 0.849924 14.887470, 0.851928 14.882971, 0.853931 14.878472, 0.855934 14.873974, 0.857938 14.869475, 0.859941 14.864976, 0.861944 14.860477, 0.863947 14.855978, 0.865950 14.851479, 0.867953 14.846980, 0.869956 14.842481, 0.871959 14.837982, 0.873962 14.833483, 0.875964 14.828984, 0.877967 14.824485, 0.879969 14.819986, 0.881971 14.815486, 0.883974 14.810987, 0.885976 14.806488, 0.887978 14.801989, 0.889980 14.797490, 0.891982 14.792991, 0.893984 14.788491, 0.895985 14.783992, 0.897987 14.779493, 0.899989 14.774994, 0.901990 14.770494, 0.903992 14.765995, 0.905993 14.761496, 0.907994 14.756996, 0.909995 14.752497, 0.911996 14.747998, 0.913997 14.743498, 0.915998 14.738999, 0.917999 14.734499, 0.920000 14.730000, 0.923509 14.726460, 0.927017 14.722921, 0.930525 14.719381, 0.934033 14.715841, 0.937541 14.712301, 0.941049 14.708761, 0.944557 14.705221, 0.948065 14.701681, 0.951573 14.698141, 0.955080 14.694601, 0.958587 14.691060, 0.962095 14.687520, 0.965602 14.683980, 0.969109 14.680439, 0.972616 14.676899, 0.976123 14.673359, 0.979629 14.669818, 0.983136 14.666277, 0.986642 14.662737, 0.990149 14.659196, 0.993655 14.655655, 0.997161 14.652115, 1.000667 14.648574, 1.004173 14.645033, 1.007679 14.641492, 1.011185 14.637951, 1.014690 14.634410, 1.018196 14.630869, 1.021701 14.627328, 1.025206 14.623786, 1.028711 14.620245, 1.032216 14.616704, 1.035721 14.613162, 1.039226 14.609621, 1.042731 14.606079, 1.046235 14.602538, 1.049740 14.598996, 1.053244 14.595455, 1.056748 14.591913, 1.060252 14.588371, 1.063756 14.584829, 1.067260 14.581288, 1.070764 14.577746, 1.074268 14.574204, 1.077771 14.570662, 1.081274 14.567120, 1.084778 14.563578, 1.088281 14.560035, 1.091784 14.556493, 1.095287 14.552951, 1.098790 14.549409, 1.102293 14.545866, 1.105795 14.542324, 1.109298 14.538781, 1.112800 14.535239, 1.116303 14.531696, 1.119805 14.528154, 1.123307 14.524611, 1.126809 14.521068, 1.130311 14.517525, 1.133812 14.513983, 1.137314 14.510440, 1.140815 14.506897, 1.144317 14.503354, 1.147818 14.499811, 1.151319 14.496268, 1.154820 14.492724, 1.158321 14.489181, 1.161822 14.485638, 1.165323 14.482095, 1.168824 14.478551, 1.172324 14.475008, 1.175824 14.471465, 1.179325 14.467921, 1.182825 14.464377, 1.186325 14.460834, 1.189825 14.457290, 1.193325 14.453746, 1.196825 14.450203, 1.200324 14.446659, 1.203824 14.443115, 1.207323 14.439571, 1.210822 14.436027, 1.214321 14.432483, 1.217821 14.428939, 1.221319 14.425395, 1.224818 14.421851, 1.228317 14.418306, 1.231816 14.414762, 1.235314 14.411218, 1.238813 14.407673, 1.242311 14.404129, 1.245809 14.400585, 1.249307 14.397040, 1.252805 14.393495, 1.256303 14.389951, 1.259801 14.386406, 1.263298 14.382861, 1.266796 14.379316, 1.270293 14.375772, 1.273790 14.372227, 1.277287 14.368682, 1.280785 14.365137, 1.284281 14.361592, 1.287778 14.358047, 1.291275 14.354501, 1.294772 14.350956, 1.298268 14.347411, 1.301765 14.343866, 1.305261 14.340320, 1.308757 14.336775, 1.312253 14.333229, 1.315749 14.329684, 1.319245 14.326138, 1.322741 14.322593, 1.326236 14.319047, 1.329732 14.315501, 1.333227 14.311956, 1.336722 14.308410, 1.340218 14.304864, 1.343713 14.301318, 1.347208 14.297772, 1.350702 14.294226, 1.354197 14.290680, 1.357692 14.287134, 1.361186 14.283588, 1.364681 14.280041, 1.368175 14.276495, 1.371669 14.272949, 1.375163 14.269402, 1.378657 14.265856, 1.382151 14.262309, 1.385645 14.258763, 1.389138 14.255216, 1.392632 14.251670, 1.396125 14.248123, 1.399619 14.244576, 1.403112 14.241029, 1.406605 14.237483, 1.410098 14.233936, 1.413591 14.230389, 1.417084 14.226842, 1.420576 14.223295, 1.424069 14.219748, 1.427561 14.216200, 1.431053 14.212653, 1.434546 14.209106, 1.438038 14.205559, 1.441530 14.202011, 1.445022 14.198464, 1.448513 14.194917, 1.452005 14.191369, 1.455497 14.187821, 1.458988 14.184274, 1.462479 14.180726, 1.465971 14.177179, 1.469462 14.173631, 1.472953 14.170083, 1.476444 14.166535, 1.479934 14.162987, 1.483425 14.159439, 1.486916 14.155891, 1.490406 14.152343, 1.493897 14.148795, 1.497387 14.145247, 1.500877 14.141699, 1.504367 14.138150, 1.507857 14.134602, 1.511347 14.131054, 1.514836 14.127505, 1.518326 14.123957, 1.521815 14.120408, 1.525305 14.116860, 1.528794 14.113311, 1.532283 14.109763, 1.535772 14.106214, 1.539261 14.102665, 1.542750 14.099116, 1.546239 14.095567, 1.549727 14.092019, 1.553216 14.088470, 1.556704 14.084921, 1.560193 14.081372, 1.563681 14.077822, 1.567169 14.074273, 1.570657 14.070724, 1.574145 14.067175, 1.577632 14.063625, 1.581120 14.060076, 1.584607 14.056527, 1.588095 14.052977, 1.591582 14.049428, 1.595069 14.045878, 1.598557 14.042329, 1.602044 14.038779, 1.605530 14.035229, 1.609017 14.031679, 1.612504 14.028130, 1.615990 14.024580, 1.619477 14.021030, 1.622963 14.017480, 1.626449 14.013930, 1.629936 14.010380, 1.633422 14.006830, 1.636907 14.003280, 1.640393 13.999729, 1.643879 13.996179, 1.647365 13.992629, 1.650850 13.989078, 1.654335 13.985528, 1.657821 13.981978, 1.661306 13.978427, 1.664791 13.974876, 1.668276 13.971326, 1.671761 13.967775, 1.675245 13.964224, 1.678730 13.960674, 1.682214 13.957123, 1.685699 13.953572, 1.689183 13.950021, 1.692667 13.946470, 1.696151 13.942919, 1.699635 13.939368, 1.703119 13.935817, 1.706603 13.932266, 1.710087 13.928715, 1.713570 13.925163, 1.717054 13.921612, 1.720537 13.918061, 1.724020 13.914509, 1.727503 13.910958, 1.730986 13.907406, 1.734469 13.903855, 1.737952 13.900303, 1.741435 13.896752, 1.744917 13.893200, 1.748400 13.889648, 1.751882 13.886096, 1.755364 13.882545, 1.758847 13.878993, 1.762329 13.875441, 1.765811 13.871889, 1.769292 13.868337, 1.772774 13.864785, 1.776256 13.861232, 1.779737 13.857680, 1.783219 13.854128, 1.786700 13.850576, 1.790181 13.847023, 1.793662 13.843471, 1.797143 13.839919, 1.800624 13.836366, 1.804105 13.832814, 1.807586 13.829261, 1.811066 13.825708, 1.814547 13.822156, 1.818027 13.818603, 1.821507 13.815050, 1.824987 13.811497, 1.828467 13.807944, 1.831947 13.804392, 1.835427 13.800839, 1.838907 13.797286, 1.842386 13.793732, 1.845866 13.790179, 1.849345 13.786626, 1.852825 13.783073, 1.856304 13.779520, 1.859783 13.775966, 1.863262 13.772413, 1.866741 13.768860, 1.870219 13.765306, 1.873698 13.761753, 1.877177 13.758199, 1.880655 13.754645, 1.884133 13.751092, 1.887612 13.747538, 1.891090 13.743984, 1.894568 13.740430, 1.898046 13.736877, 1.901523 13.733323, 1.905001 13.729769, 1.908479 13.726215, 1.911956 13.722661, 1.915434 13.719107, 1.918911 13.715552, 1.922388 13.711998, 1.925865 13.708444, 1.929342 13.704890, 1.932819 13.701335, 1.936296 13.697781, 1.939772 13.694227, 1.943249 13.690672, 1.946725 13.687118, 1.950202 13.683563, 1.953678 13.680008, 1.957154 13.676454, 1.960630 13.672899, 1.964106 13.669344, 1.967582 13.665789, 1.971057 13.662234, 1.974533 13.658680, 1.978009 13.655125, 1.981484 13.651570, 1.984959 13.648014, 1.988434 13.644459, 1.991910 13.640904, 1.995384 13.637349, 1.998859 13.633794, 2.002334 13.630238, 2.005809 13.626683, 2.009283 13.623128, 2.012758 13.619572, 2.016232 13.616017, 2.019706 13.612461, 2.023180 13.608906, 2.026655 13.605350, 2.030128 13.601794, 2.033602 13.598238, 2.037076 13.594683, 2.040550 13.591127, 2.044023 13.587571, 2.047497 13.584015, 2.050970 13.580459, 2.054443 13.576903, 2.057916 13.573347, 2.061389 13.569791, 2.064862 13.566235, 2.068335 13.562678, 2.071807 13.559122, 2.075280 13.555566, 2.078752 13.552009, 2.082225 13.548453, 2.085697 13.544897, 2.089169 13.541340, 2.092641 13.537784, 2.096113 13.534227, 2.099585 13.530670, 2.103057 13.527114, 2.106528 13.523557, 2.110000 13.520000, 2.113159 13.516167, 2.116318 13.512335, 2.119476 13.508502, 2.122635 13.504669, 2.125793 13.500836, 2.128952 13.497003, 2.132110 13.493170, 2.135268 13.489337, 2.138426 13.485504, 2.141584 13.481671, 2.144742 13.477838, 2.147899 13.474005, 2.151057 13.470172, 2.154215 13.466339, 2.157372 13.462505, 2.160529 13.458672, 2.163687 13.454839, 2.166844 13.451005, 2.170001 13.447172, 2.173158 13.443338, 2.176315 13.439505, 2.179471 13.435671, 2.182628 13.431838, 2.185784 13.428004, 2.188941 13.424171, 2.192097 13.420337, 2.195253 13.416503, 2.198409 13.412669, 2.201566 13.408836, 2.204721 13.405002, 2.207877 13.401168, 2.211033 13.397334, 2.214189 13.393500, 2.217344 13.389666, 2.220500 13.385832, 2.223655 13.381998, 2.226810 13.378164, 2.229965 13.374329, 2.233120 13.370495, 2.236275 13.366661, 2.239430 13.362827, 2.242585 13.358992, 2.245739 13.355158, 2.248894 13.351324, 2.252048 13.347489, 2.255202 13.343655, 2.258357 13.339820, 2.261511 13.335986, 2.264665 13.332151, 2.267819 13.328316, 2.270972 13.324482, 2.274126 13.320647, 2.277280 13.316812, 2.280433 13.312978, 2.283587 13.309143, 2.286740 13.305308, 2.289893 13.301473, 2.293046 13.297638, 2.296199 13.293803, 2.299352 13.289968, 2.302505 13.286133, 2.305658 13.282298, 2.308810 13.278463, 2.311963 13.274628, 2.315115 13.270792, 2.318268 13.266957, 2.321420 13.263122, 2.324572 13.259287, 2.327724 13.255451, 2.330876 13.251616, 2.334028 13.247780, 2.337179 13.243945, 2.340331 13.240109, 2.343483 13.236274, 2.346634 13.232438, 2.349785 13.228602, 2.352937 13.224767, 2.356088 13.220931, 2.359239 13.217095, 2.362390 13.213260, 2.365540 13.209424, 2.368691 13.205588, 2.371842 13.201752, 2.374992 13.197916, 2.378143 13.194080, 2.381293 13.190244, 2.384443 13.186408, 2.387593 13.182572, 2.390743 13.178736, 2.393893 13.174900, 2.397043 13.171063, 2.400193 13.167227, 2.403343 13.163391, 2.406492 13.159554, 2.409642 13.155718, 2.412791 13.151882, 2.415940 13.148045, 2.419089 13.144209, 2.422238 13.140372, 2.425387 13.136536, 2.428536 13.132699, 2.431685 13.128862, 2.434834 13.125026, 2.437982 13.121189, 2.441131 13.117352, 2.444279 13.113515, 2.447427 13.109679, 2.450575 13.105842, 2.453723 13.102005, 2.456871 13.098168, 2.460019 13.094331, 2.463167 13.090494, 2.466315 13.086657, 2.469462 13.082820, 2.472610 13.078983, 2.475757 13.075145, 2.478904 13.071308, 2.482052 13.067471, 2.485199 13.063634, 2.488346 13.059796, 2.491493 13.055959, 2.494639 13.052122, 2.497786 13.048284, 2.500933 13.044447, 2.504079 13.040609, 2.507226 13.036772, 2.510372 13.032934, 2.513518 13.029096, 2.516664 13.025259, 2.519810 13.021421, 2.522956 13.017583, 2.526102 13.013746, 2.529248 13.009908, 2.532393 13.006070, 2.535539 13.002232, 2.538684 12.998394, 2.541829 12.994556, 2.544975 12.990718, 2.548120 12.986880, 2.551265 12.983042, 2.554410 12.979204, 2.557555 12.975366, 2.560699 12.971527, 2.563844 12.967689, 2.566989 12.963851, 2.570133 12.960013, 2.573277 12.956174, 2.576422 12.952336, 2.579566 12.948497, 2.582710 12.944659, 2.585854 12.940821, 2.588998 12.936982, 2.592142 12.933143, 2.595285 12.929305, 2.598429 12.925466, 2.601572 12.921627, 2.604716 12.917789, 2.607859 12.913950, 2.611002 12.910111, 2.614145 12.906272, 2.617288 12.902433, 2.620431 12.898595, 2.623574 12.894756, 2.626717 12.890917, 2.629859 12.887078, 2.633002 12.883239, 2.636144 12.879399, 2.639287 12.875560, 2.642429 12.871721, 2.645571 12.867882, 2.648713 12.864043, 2.651855 12.860203, 2.654997 12.856364, 2.658139 12.852525, 2.661280 12.848685, 2.664422 12.844846, 2.667563 12.841006, 2.670705 12.837167, 2.673846 12.833327, 2.676987 12.829488, 2.680128 12.825648, 2.683269 12.821808, 2.686410 12.817969, 2.689551 12.814129, 2.692691 12.810289, 2.695832 12.806449, 2.698973 12.802610, 2.702113 12.798770, 2.705253 12.794930, 2.708394 12.791090, 2.711534 12.787250, 2.714674 12.783410, 2.717814 12.779570, 2.720953 12.775730, 2.724093 12.771890, 2.727233 12.768049, 2.730372 12.764209, 2.733512 12.760369, 2.736651 12.756529, 2.739790 12.752688, 2.742930 12.748848, 2.746069 12.745007, 2.749208 12.741167, 2.752347 12.737327, 2.755485 12.733486, 2.758624 12.729645, 2.761763 12.725805, 2.764901 12.721964, 2.768040 12.718124, 2.771178 12.714283, 2.774316 12.710442, 2.777454 12.706601, 2.780592 12.702761, 2.783730 12.698920, 2.786868 12.695079, 2.790006 12.691238, 2.793143 12.687397, 2.796281 12.683556, 2.799418 12.679715, 2.802556 12.675874, 2.805693 12.672033, 2.808830 12.668192, 2.811967 12.664350, 2.815104 12.660509, 2.818241 12.656668, 2.821378 12.652827, 2.824515 12.648985, 2.827651 12.645144, 2.830788 12.641303, 2.833924 12.637461, 2.837061 12.633620, 2.840197 12.629778, 2.843333 12.625937, 2.846469 12.622095, 2.849605 12.618254, 2.852741 12.614412, 2.855877 12.610570, 2.859012 12.606728, 2.862148 12.602887, 2.865283 12.599045, 2.868419 12.595203, 2.871554 12.591361, 2.874689 12.587519, 2.877824 12.583677, 2.880959 12.579835, 2.884094 12.575993, 2.887229 12.572151, 2.890364 12.568309, 2.893498 12.564467, 2.896633 12.560625, 2.899767 12.556783, 2.902902 12.552940, 2.906036 12.549098, 2.909170 12.545256, 2.912304 12.541414, 2.915438 12.537571, 2.918572 12.533729, 2.921706 12.529886, 2.924839 12.526044, 2.927973 12.522201, 2.931107 12.518359, 2.934240 12.514516, 2.937373 12.510673, 2.940507 12.506831, 2.943640 12.502988, 2.946773 12.499145, 2.949906 12.495303, 2.953039 12.491460, 2.956171 12.487617, 2.959304 12.483774, 2.962437 12.479931, 2.965569 12.476088, 2.968701 12.472245, 2.971834 12.468402, 2.974966 12.464559, 2.978098 12.460716, 2.981230 12.456873, 2.984362 12.453030, 2.987494 12.449186, 2.990626 12.445343, 2.993757 12.441500, 2.996889 12.437656, 3.000020 12.433813, 3.003152 12.429970, 3.006283 12.426126, 3.009414 12.422283, 3.012545 12.418439, 3.015676 12.414596, 3.018807 12.410752, 3.021938 12.406909, 3.025069 12.403065, 3.028199 12.399221, 3.031330 12.395378, 3.034460 12.391534, 3.037591 12.387690, 3.040721 12.383846, 3.043851 12.380002, 3.046981 12.376158, 3.050111 12.372314, 3.053241 12.368471, 3.056371 12.364627, 3.059501 12.360782, 3.062630 12.356938, 3.065760 12.353094, 3.068889 12.349250, 3.072019 12.345406, 3.075148 12.341562, 3.078277 12.337717, 3.081406 12.333873, 3.084535 12.330029, 3.087664 12.326185, 3.090793 12.322340, 3.093921 12.318496, 3.097050 12.314651, 3.100178 12.310807, 3.103307 12.306962, 3.106435 12.303118, 3.109564 12.299273, 3.112692 12.295428, 3.115820 12.291584, 3.118948 12.287739, 3.122076 12.283894, 3.125203 12.280049, 3.128331 12.276205, 3.131459 12.272360, 3.134586 12.268515, 3.137714 12.264670, 3.140841 12.260825, 3.143968 12.256980, 3.147095 12.253135, 3.150222 12.249290, 3.153349 12.245445, 3.156476 12.241600, 3.159603 12.237754, 3.162730 12.233909, 3.165856 12.230064, 3.168983 12.226219, 3.172109 12.222373, 3.175236 12.218528, 3.178362 12.214683, 3.181488 12.210837, 3.184614 12.206992, 3.187740 12.203146, 3.190866 12.199301, 3.193992 12.195455, 3.197117 12.191609, 3.200243 12.187764, 3.203368 12.183918, 3.206494 12.180072, 3.209619 12.176227, 3.212744 12.172381, 3.215870 12.168535, 3.218995 12.164689, 3.222120 12.160843, 3.225244 12.156998, 3.228369 12.153152, 3.231494 12.149306, 3.234618 12.145460, 3.237743 12.141613, 3.240867 12.137767, 3.243992 12.133921, 3.247116 12.130075, 3.250240 12.126229, 3.253364 12.122383, 3.256488 12.118536, 3.259612 12.114690, 3.262736 12.110844, 3.265860 12.106997, 3.268983 12.103151, 3.272107 12.099305, 3.275230 12.095458, 3.278354 12.091612, 3.281477 12.087765, 3.284600 12.083918, 3.287723 12.080072, 3.290846 12.076225, 3.293969 12.072378, 3.297092 12.068532, 3.300214 12.064685, 3.303337 12.060838, 3.306460 12.056991, 3.309582 12.053145, 3.312704 12.049298, 3.315827 12.045451, 3.318949 12.041604, 3.322071 12.037757, 3.325193 12.033910, 3.328315 12.030063, 3.331437 12.026216, 3.334558 12.022368, 3.337680 12.018521, 3.340802 12.014674, 3.343923 12.010827, 3.347044 12.006979, 3.350166 12.003132, 3.353287 11.999285, 3.356408 11.995437, 3.359529 11.991590, 3.362650 11.987743, 3.365771 11.983895, 3.368892 11.980048, 3.372012 11.976200, 3.375133 11.972352, 3.378253 11.968505, 3.381374 11.964657, 3.384494 11.960809, 3.387614 11.956962, 3.390734 11.953114, 3.393854 11.949266, 3.396974 11.945418, 3.400094 11.941570, 3.403214 11.937723, 3.406334 11.933875, 3.409453 11.930027, 3.412573 11.926179, 3.415692 11.922331, 3.418812 11.918483, 3.421931 11.914634, 3.425050 11.910786, 3.428169 11.906938, 3.431288 11.903090, 3.434407 11.899242, 3.437526 11.895393, 3.440644 11.891545, 3.443763 11.887697, 3.446882 11.883848, 3.450000 11.880000, 3.452983 11.876048, 3.455967 11.872097, 3.458950 11.868145, 3.461933 11.864193, 3.464916 11.860241, 3.467899 11.856290, 3.470882 11.852338, 3.473864 11.848386, 3.476847 11.844434, 3.479829 11.840482, 3.482812 11.836530, 3.485794 11.832578, 3.488777 11.828626, 3.491759 11.824674, 3.494741 11.820722, 3.497723 11.816770, 3.500705 11.812818, 3.503687 11.808866, 3.506669 11.804913, 3.509650 11.800961, 3.512632 11.797009, 3.515613 11.793056, 3.518595 11.789104, 3.521576 11.785152, 3.524557 11.781199, 3.527539 11.777247, 3.530520 11.773294, 3.533501 11.769342, 3.536482 11.765389, 3.539462 11.761437, 3.542443 11.757484, 3.545424 11.753532, 3.548404 11.749579, 3.551385 11.745626, 3.554365 11.741674, 3.557346 11.737721, 3.560326 11.733768, 3.563306 11.729815, 3.566286 11.725863, 3.569266 11.721910, 3.572246 11.717957, 3.575226 11.714004, 3.578206 11.710051, 3.581185 11.706098, 3.584165 11.702145, 3.587144 11.698192, 3.590124 11.694239, 3.593103 11.690286, 3.596082 11.686333, 3.599061 11.682379, 3.602040 11.678426, 3.605019 11.674473, 3.607998 11.670520, 3.610977 11.666566, 3.613956 11.662613, 3.616934 11.658660, 3.619913 11.654706, 3.622891 11.650753, 3.625870 11.646799, 3.628848 11.642846, 3.631826 11.638892, 3.634804 11.634939, 3.637782 11.630985, 3.640760 11.627032, 3.643738 11.623078, 3.646716 11.619124, 3.649693 11.615171, 3.652671 11.611217, 3.655649 11.607263, 3.658626 11.603309, 3.661603 11.599356, 3.664581 11.595402, 3.667558 11.591448, 3.670535 11.587494, 3.673512 11.583540, 3.676489 11.579586, 3.679466 11.575632, 3.682442 11.571678, 3.685419 11.567724, 3.688396 11.563770, 3.691372 11.559816, 3.694349 11.555862, 3.697325 11.551908, 3.700301 11.547953, 3.703277 11.543999, 3.706253 11.540045, 3.709229 11.536091, 3.712205 11.532136, 3.715181 11.528182, 3.718157 11.524227, 3.721133 11.520273, 3.724108 11.516319, 3.727084 11.512364, 3.730059 11.508410, 3.733034 11.504455, 3.736010 11.500500, 3.738985 11.496546, 3.741960 11.492591, 3.744935 11.488637, 3.747910 11.484682, 3.750885 11.480727, 3.753859 11.476772, 3.756834 11.472818, 3.759809 11.468863, 3.762783 11.464908, 3.765758 11.460953, 3.768732 11.456998, 3.771706 11.453043, 3.774680 11.449088, 3.777654 11.445133, 3.780628 11.441178, 3.783602 11.437223, 3.786576 11.433268, 3.789550 11.429313, 3.792524 11.425358, 3.795497 11.421403, 3.798471 11.417448, 3.801444 11.413492, 3.804417 11.409537, 3.807391 11.405582, 3.810364 11.401626, 3.813337 11.397671, 3.816310 11.393716, 3.819283 11.389760, 3.822256 11.385805, 3.825229 11.381849, 3.828201 11.377894, 3.831174 11.373938, 3.834146 11.369983, 3.837119 11.366027, 3.840091 11.362072, 3.843063 11.358116, 3.846036 11.354160, 3.849008 11.350205, 3.851980 11.346249, 3.854952 11.342293, 3.857923 11.338337, 3.860895 11.334381, 3.863867 11.330426, 3.866838 11.326470, 3.869810 11.322514, 3.872781 11.318558, 3.875753 11.314602, 3.878724 11.310646, 3.881695 11.306690, 3.884666 11.302734, 3.887637 11.298778, 3.890608 11.294821, 3.893579 11.290865, 3.896550 11.286909, 3.899521 11.282953, 3.902491 11.278997, 3.905462 11.275040, 3.908432 11.271084, 3.911403 11.267128, 3.914373 11.263171, 3.917343 11.259215, 3.920313 11.255259, 3.923283 11.251302, 3.926253 11.247346, 3.929223 11.243389, 3.932193 11.239433, 3.935163 11.235476, 3.938132 11.231519, 3.941102 11.227563, 3.944071 11.223606, 3.947041 11.219649, 3.950010 11.215693, 3.952979 11.211736, 3.955948 11.207779, 3.958918 11.203822, 3.961887 11.199866, 3.964855 11.195909, 3.967824 11.191952, 3.970793 11.187995, 3.973762 11.184038, 3.976730 11.180081, 3.979699 11.176124, 3.982667 11.172167, 3.985636 11.168210, 3.988604 11.164253, 3.991572 11.160296, 3.994540 11.156338, 3.997508 11.152381, 4.000476 11.148424, 4.003444 11.144467, 4.006412 11.140510, 4.009379 11.136552, 4.012347 11.132595, 4.015314 11.128638, 4.018282 11.124680, 4.021249 11.120723, 4.024217 11.116765, 4.027184 11.112808, 4.030151 11.108850, 4.033118 11.104893, 4.036085 11.100935, 4.039052 11.096978, 4.042019 11.093020, 4.044985 11.089062, 4.047952 11.085105, 4.050919 11.081147, 4.053885 11.077189, 4.056851 11.073232, 4.059818 11.069274, 4.062784 11.065316, 4.065750 11.061358, 4.068716 11.057400, 4.071682 11.053442, 4.074648 11.049484, 4.077614 11.045526, 4.080580 11.041568, 4.083546 11.037610, 4.086511 11.033652, 4.089477 11.029694, 4.092442 11.025736, 4.095407 11.021778, 4.098373 11.017820, 4.101338 11.013862, 4.104303 11.009903, 4.107268 11.005945, 4.110233 11.001987, 4.113198 10.998028, 4.116163 10.994070, 4.119128 10.990112, 4.122092 10.986153, 4.125057 10.982195, 4.128021 10.978236, 4.130986 10.974278, 4.133950 10.970319, 4.136914 10.966361, 4.139878 10.962402, 4.142842 10.958444, 4.145806 10.954485, 4.148770 10.950526, 4.151734 10.946568, 4.154698 10.942609, 4.157662 10.938650, 4.160625 10.934692, 4.163589 10.930733, 4.166552 10.926774, 4.169516 10.922815, 4.172479 10.918856, 4.175442 10.914897, 4.178405 10.910938, 4.181368 10.906979, 4.184331 10.903020, 4.187294 10.899061, 4.190257 10.895102, 4.193220 10.891143, 4.196183 10.887184, 4.199145 10.883225, 4.202108 10.879266, 4.205070 10.875307, 4.208033 10.871347, 4.210995 10.867388, 4.213957 10.863429, 4.216919 10.859470, 4.219881 10.855510, 4.222843 10.851551, 4.225805 10.847591, 4.228767 10.843632, 4.231729 10.839673, 4.234690 10.835713, 4.237652 10.831754, 4.240613 10.827794, 4.243575 10.823834, 4.246536 10.819875, 4.249497 10.815915, 4.252458 10.811956, 4.255420 10.807996, 4.258381 10.804036, 4.261341 10.800076, 4.264302 10.796117, 4.267263 10.792157, 4.270224 10.788197, 4.273184 10.784237, 4.276145 10.780277, 4.279106 10.776317, 4.282066 10.772358, 4.285026 10.768398, 4.287986 10.764438, 4.290947 10.760478, 4.293907 10.756517, 4.296867 10.752557, 4.299827 10.748597, 4.302787 10.744637, 4.305746 10.740677, 4.308706 10.736717, 4.311666 10.732757, 4.314625 10.728796, 4.317585 10.724836, 4.320544 10.720876, 4.323503 10.716916, 4.326463 10.712955, 4.329422 10.708995, 4.332381 10.705034, 4.335340 10.701074, 4.338299 10.697113, 4.341258 10.693153, 4.344216 10.689192, 4.347175 10.685232, 4.350134 10.681271, 4.353092 10.677311, 4.356051 10.673350, 4.359009 10.669389, 4.361967 10.665429, 4.364926 10.661468, 4.367884 10.657507, 4.370842 10.653547, 4.373800 10.649586, 4.376758 10.645625, 4.379716 10.641664, 4.382673 10.637703, 4.385631 10.633742, 4.388589 10.629781, 4.391546 10.625820, 4.394504 10.621859, 4.397461 10.617898, 4.400418 10.613937, 4.403376 10.609976, 4.406333 10.606015, 4.409290 10.602054, 4.412247 10.598093, 4.415204 10.594132, 4.418161 10.590170, 4.421117 10.586209, 4.424074 10.582248, 4.427031 10.578287, 4.429987 10.574325, 4.432944 10.570364, 4.435900 10.566403, 4.438856 10.562441, 4.441813 10.558480, 4.444769 10.554518, 4.447725 10.550557, 4.450681 10.546595, 4.453637 10.542634, 4.456593 10.538672, 4.459548 10.534711, 4.462504 10.530749, 4.465460 10.526787, 4.468415 10.522826, 4.471371 10.518864, 4.474326 10.514902, 4.477282 10.510940, 4.480237 10.506979, 4.483192 10.503017, 4.486147 10.499055, 4.489102 10.495093, 4.492057 10.491131, 4.495012 10.487169, 4.497967 10.483207, 4.500921 10.479245, 4.503876 10.475283, 4.506831 10.471321, 4.509785 10.467359, 4.512740 10.463397, 4.515694 10.459435, 4.518648 10.455473, 4.521602 10.451511, 4.524556 10.447548, 4.527511 10.443586, 4.530464 10.439624, 4.533418 10.435662, 4.536372 10.431699, 4.539326 10.427737, 4.542280 10.423775, 4.545233 10.419812, 4.548187 10.415850, 4.551140 10.411887, 4.554093 10.407925, 4.557047 10.403963, 4.560000 10.400000, 4.560910 10.395227, 4.561819 10.390455, 4.562729 10.385682, 4.563639 10.380909, 4.564548 10.376137, 4.565458 10.371364, 4.566367 10.366591, 4.567277 10.361819, 4.568186 10.357046, 4.569096 10.352273, 4.570005 10.347500, 4.570914 10.342728, 4.571824 10.337955, 4.572733 10.333182, 4.573642 10.328410, 4.574552 10.323637, 4.575461 10.318864, 4.576370 10.314092, 4.577279 10.309319, 4.578188 10.304546, 4.579098 10.299773, 4.580007 10.295001, 4.580916 10.290228, 4.581825 10.285455, 4.582734 10.280682, 4.583643 10.275910, 4.584552 10.271137, 4.585461 10.266364, 4.586370 10.261591, 4.587278 10.256819, 4.588187 10.252046, 4.589096 10.247273, 4.590005 10.242500, 4.590914 10.237728, 4.591823 10.232955, 4.592731 10.228182, 4.593640 10.223409, 4.594549 10.218637, 4.595457 10.213864, 4.596366 10.209091, 4.597274 10.204318, 4.598183 10.199546, 4.599091 10.194773, 4.600000 10.190000)
