MULTILINESTRING ((-74.040000 40.690000, -74.039623 40.690849, -74.039246 40.691698, -74.038869 40.692547, -74.038493 40.693396, -74.038116 40.694246, -74.037739 40.695095, -74.037362 40.695944, -74.036985 40.696793, -74.036608 40.697642, -74.036231 40.698491, -74.035854 40.699340, -74.035477 40.700189, -74.035100 40.701038, -74.034723 40.701888, -74.034346 40.702737, -74.033969 40.703586, -74.033592 40.704435, -74.033215 40.705284, -74.032838 40.706133, -74.032461 40.706982, -74.032084 40.707831, -74.031707 40.708680, -74.031330 40.709529, -74.030953 40.710379, -74.030576 40.711228, -74.030199 40.712077, -74.029822 40.712926, -74.029444 40.713775, -74.029067 40.714624, -74.028690 40.715473, -74.028313 40.716322, -74.027936 40.717171, -74.027559 40.718020, -74.027182 40.718869, -74.026804 40.719719, -74.026427 40.720568, -74.026050 40.721417, -74.025673 40.722266, -74.025296 40.723115, -74.024918 40.723964, -74.024541 40.724813, -74.024164 40.725662, -74.023787 40.726511, -74.023409 40.727360, -74.023032 40.728209, -74.022655 40.729058, -74.022278 40.729907, -74.021900 40.730756, -74.021523 40.731605, -74.021146 40.732455, -74.020768 40.733304, -74.020391 40.734153, -74.020014 40.735002, -74.019636 40.735851, -74.019259 40.736700, -74.018881 40.737549, -74.018504 40.738398, -74.018127 40.739247, -74.017749 40.740096, -74.017372 40.740945, -74.016994 40.741794, -74.016617 40.742643, -74.016239 40.743492, -74.015862 40.744341, -74.015485 40.745190, -74.015107 40.746039, -74.014730 40.746888, -74.014352 40.747737, -74.013975 40.748586, -74.013597 40.749436, -74.013220 40.750285, -74.012842 40.751134, -74.012464 40.751983, -74.012087 40.752832, -74.011709 40.753681, -74.011332 40.754530, -74.010954 40.755379, -74.010577 40.756228, -74.010199 40.757077, -74.009821 40.757926, -74.009444 40.758775, -74.009066 40.759624, -74.008688 40.760473, -74.008311 40.761322, -74.007933 40.762171, -74.007555 40.763020, -74.007178 40.763869, -74.006800 40.764718, -74.006422 40.765567, -74.006045 40.766416, -74.005667 40.767265, -74.005289 40.768114, -74.004911 40.768963, -74.004534 40.769812, -74.004156 40.770661, -74.003778 40.771510, -74.003400 40.772359, -74.003023 40.773208, -74.002645 40.774057, -74.002267 40.774906, -74.001889 40.775755, -74.001511 40.776604, -74.001134 40.777453, -74.000756 40.778302, -74.000378 40.779151, -74.000000 40.780000, -73.999466 40.780802, -73.998933 40.781605, -73.998399 40.782407, -73.997866 40.783209, -73.997332 40.784012, -73.996798 40.784814, -73.996265 40.785617, -73.995731 40.786419, -73.995198 40.787221, -73.994664 40.788024, -73.994130 40.788826, -73.993596 40.789628, -73.993063 40.790431, -73.992529 40.791233, -73.991995 40.792035, -73.991462 40.792838, -73.990928 40.793640, -73.990394 40.794442, -73.989860 40.795245, -73.989326 40.796047, -73.988793 40.796849, -73.988259 40.797652, -73.987725 40.798454, -73.987191 40.799256, -73.986657 40.800058, -73.986123 40.800861, -73.985589 40.801663, -73.985056 40.802465, -73.984522 40.803268, -73.983988 40.804070, -73.983454 40.804872, -73.982920 40.805675, -73.982386 40.806477, -73.981852 40.807279, -73.981318 40.808081, -73.980784 40.808884, -73.980250 40.809686, -73.979716 40.810488, -73.979182 40.811291, -73.978648 40.812093, -73.978114 40.812895, -73.977580 40.813697, -73.977045 40.814500, -73.976511 40.815302, -73.975977 40.816104, -73.975443 40.816906, -73.974909 40.817709, -73.974375 40.818511, -73.973841 40.819313, -73.973306 40.820115, -73.972772 40.820918, -73.972238 40.821720, -73.971704 40.822522, -73.971169 40.823324, -73.970635 40.824127, -73.970101 40.824929, -73.969567 40.825731, -73.969032 40.826533, -73.968498 40.827336, -73.967964 40.828138, -73.967429 40.828940, -73.966895 40.829742, -73.966361 40.830544, -73.965826 40.831347, -73.965292 40.832149, -73.964758 40.832951, -73.964223 40.833753, -73.963689 40.834555, -73.963154 40.835358, -73.962620 40.836160, -73.962085 40.836962, -73.961551 40.837764, -73.961016 40.838566, -73.960482 40.839369, -73.959947 40.840171, -73.959413 40.840973, -73.958878 40.841775, -73.958344 40.842577, -73.957809 40.843380, -73.957275 40.844182, -73.956740 40.844984, -73.956205 40.845786, -73.955671 40.846588, -73.955136 40.847390, -73.954602 40.848193, -73.954067 40.848995, -73.953532 40.849797, -73.952998 40.850599, -73.952463 40.851401, -73.951928 40.852203, -73.951393 40.853005, -73.950859 40.853808, -73.950324 40.854610, -73.949789 40.855412, -73.949254 40.856214, -73.948720 40.857016, -73.948185 40.857818, -73.947650 40.858620, -73.947115 40.859423, -73.946580 40.860225, -73.946046 40.861027, -73.945511 40.861829, -73.944976 40.862631, -73.944441 40.863433, -73.943906 40.864235, -73.943371 40.865037, -73.942836 40.865839, -73.942301 40.866642, -73.941766 40.867444, -73.941231 40.868246, -73.940696 40.869048, -73.940161 40.869850, -73.939626 40.870652, -73.939091 40.871454, -73.938556 40.872256, -73.938021 40.873058, -73.937486 40.873860, -73.936951 40.874662, -73.936416 40.875465, -73.935881 40.876267, -73.935346 40.877069, -73.934811 40.877871, -73.934276 40.878673, -73.933740 40.879475, -73.933205 40.880277, -73.932670 40.881079, -73.932135 40.881881, -73.931600 40.882683, -73.931065 40.883485, -73.930529 40.884287, -73.929994 40.885089, -73.929459 40.885891, -73.928924 40.886693, -73.928388 40.887495, -73.927853 40.888297, -73.927318 40.889099, -73.926782 40.889902, -73.926247 40.890704, -73.925712 40.891506, -73.925176 40.892308, -73.924641 40.893110, -73.924106 40.893912, -73.923570 40.894714, -73.923035 40.895516, -73.922499 40.896318, -73.921964 40.897120, -73.921428 40.897922, -73.920893 40.898724, -73.920358 40.899526, -73.919822 40.900328, -73.919287 40.901130, -73.918751 40.901932, -73.918216 40.902734, -73.917680 40.903536, -73.917144 40.904338, -73.916609 40.905140, -73.916073 40.905942, -73.915538 40.906744, -73.915002 40.907546, -73.914467 40.908348, -73.913931 40.909150, -73.913395 40.909952, -73.912860 40.910753, -73.912324 40.911555, -73.911788 40.912357, -73.911253 40.913159, -73.910717 40.913961, -73.910181 40.914763, -73.909645 40.915565, -73.909110 40.916367, -73.908574 40.917169, -73.908038 40.917971, -73.907502 40.918773, -73.906967 40.919575, -73.906431 40.920377, -73.905895 40.921179, -73.905359 40.921981, -73.904823 40.922783, -73.904287 40.923585, -73.903751 40.924387, -73.903216 40.925189, -73.902680 40.925990, -73.902144 40.926792, -73.901608 40.927594, -73.901072 40.928396, -73.900536 40.929198, -73.900000 40.930000, -73.899767 40.930877, -73.899533 40.931754, -73.899300 40.932632, -73.899066 40.933509, -73.898833 40.934386, -73.898600 40.935263, -73.898366 40.936141, -73.898133 40.937018, -73.897899 40.937895, -73.897666 40.938772, -73.897432 40.939650, -73.897199 40.940527, -73.896965 40.941404, -73.896732 40.942281, -73.896499 40.943158, -73.896265 40.944036, -73.896032 40.944913, -73.895798 40.945790, -73.895565 40.946667, -73.895331 40.947545, -73.895098 40.948422, -73.894864 40.949299, -73.894630 40.950176, -73.894397 40.951053, -73.894163 40.951931, -73.893930 40.952808, -73.893696 40.953685, -73.893463 40.954562, -73.893229 40.955440, -73.892996 40.956317, -73.892762 40.957194, -73.892528 40.958071, -73.892295 40.958948, -73.892061 40.959826, -73.891828 40.960703, -73.891594 40.961580, -73.891360 40.962457, -73.891127 40.963335, -73.890893 40.964212, -73.890660 40.965089, -73.890426 40.965966, -73.890192 40.966843, -73.889959 40.967721, -73.889725 40.968598, -73.889491 40.969475, -73.889258 40.970352, -73.889024 40.971229, -73.888790 40.972107, -73.888557 40.972984, -73.888323 40.973861, -73.888089 40.974738, -73.887856 40.975615, -73.887622 40.976493, -73.887388 40.977370, -73.887154 40.978247, -73.886921 40.979124, -73.886687 40.980002, -73.886453 40.980879, -73.886219 40.981756, -73.885986 40.982633, -73.885752 40.983510, -73.885518 40.984388, -73.885284 40.985265, -73.885051 40.986142, -73.884817 40.987019, -73.884583 40.987896, -73.884349 40.988774, -73.884115 40.989651, -73.883882 40.990528, -73.883648 40.991405, -73.883414 40.992282, -73.883180 40.993160, -73.882946 40.994037, -73.882712 40.994914, -73.882479 40.995791, -73.882245 40.996668, -73.882011 40.997546, -73.881777 40.998423, -73.881543 40.999300, -73.881309 41.000177, -73.881075 41.001054, -73.880841 41.001932, -73.880608 41.002809, -73.880374 41.003686, -73.880140 41.004563, -73.879906 41.005440, -73.879672 41.006318, -73.879438 41.007195, -73.879204 41.008072, -73.878970 41.008949, -73.878736 41.009826, -73.878502 41.010703, -73.878268 41.011581, -73.878034 41.012458, -73.877800 41.013335, -73.877566 41.014212, -73.877332 41.015089, -73.877098 41.015967, -73.876864 41.016844, -73.876630 41.017721, -73.876396 41.018598, -73.876162 41.019475, -73.875928 41.020353, -73.875694 41.021230, -73.875460 41.022107, -73.875226 41.022984, -73.874992 41.023861, -73.874758 41.024738, -73.874524 41.025616, -73.874290 41.026493, -73.874056 41.027370, -73.873822 41.028247, -73.873588 41.029124, -73.873354 41.030002, -73.873119 41.030879, -73.872885 41.031756, -73.872651 41.032633, -73.872417 41.033510, -73.872183 41.034387, -73.871949 41.035265, -73.871715 41.036142, -73.871481 41.037019, -73.871246 41.037896, -73.871012 41.038773, -73.870778 41.039650, -73.870544 41.040528, -73.870310 41.041405, -73.870076 41.042282, -73.869841 41.043159, -73.869607 41.044036, -73.869373 41.044914, -73.869139 41.045791, -73.868905 41.046668, -73.868670 41.047545, -73.868436 41.048422, -73.868202 41.049299, -73.867968 41.050177, -73.867733 41.051054, -73.867499 41.051931, -73.867265 41.052808, -73.867031 41.053685, -73.866796 41.054562, -73.866562 41.055440, -73.866328 41.056317, -73.866094 41.057194, -73.865859 41.058071, -73.865625 41.058948, -73.865391 41.059825, -73.865156 41.060703, -73.864922 41.061580, -73.864688 41.062457, -73.864453 41.063334, -73.864219 41.064211, -73.863985 41.065088, -73.863750 41.065965, -73.863516 41.066843, -73.863282 41.067720, -73.863047 41.068597, -73.862813 41.069474, -73.862579 41.070351, -73.862344 41.071228, -73.862110 41.072106, -73.861875 41.072983, -73.861641 41.073860, -73.861407 41.074737, -73.861172 41.075614, -73.860938 41.076491, -73.860703 41.077369, -73.860469 41.078246, -73.860234 41.079123, -73.860000 41.080000, -73.860280 41.080873, -73.860561 41.081747, -73.860841 41.082620, -73.861121 41.083493, -73.861402 41.084367, -73.861682 41.085240, -73.861963 41.086114, -73.862243 41.086987, -73.862524 41.087860, -73.862804 41.088734, -73.863084 41.089607, -73.863365 41.090480, -73.863645 41.091354, -73.863926 41.092227, -73.864206 41.093100, -73.864487 41.093974, -73.864767 41.094847, -73.865048 41.095720, -73.865328 41.096594, -73.865609 41.097467, -73.865889 41.098340, -73.866170 41.099214, -73.866450 41.100087, -73.866731 41.100960, -73.867011 41.101834, -73.867292 41.102707, -73.867572 41.103580, -73.867853 41.104454, -73.868134 41.105327, -73.868414 41.106201, -73.868695 41.107074, -73.868975 41.107947, -73.869256 41.108821, -73.869537 41.109694, -73.869817 41.110567, -73.870098 41.111441, -73.870378 41.112314, -73.870659 41.113187, -73.870940 41.114061, -73.871220 41.114934, -73.871501 41.115807, -73.871782 41.116681, -73.872062 41.117554, -73.872343 41.118427, -73.872624 41.119301, -73.872904 41.120174, -73.873185 41.121047, -73.873466 41.121921, -73.873747 41.122794, -73.874027 41.123667, -73.874308 41.124541, -73.874589 41.125414, -73.874869 41.126287, -73.875150 41.127160, -73.875431 41.128034, -73.875712 41.128907, -73.875993 41.129780, -73.876273 41.130654, -73.876554 41.131527, -73.876835 41.132400, -73.877116 41.133274, -73.877397 41.134147, -73.877677 41.135020, -73.877958 41.135894, -73.878239 41.136767, -73.878520 41.137640, -73.878801 41.138514, -73.879082 41.139387, -73.879363 41.140260, -73.879643 41.141134, -73.879924 41.142007, -73.880205 41.142880, -73.880486 41.143754, -73.880767 41.144627, -73.881048 41.145500, -73.881329 41.146373, -73.881610 41.147247, -73.881891 41.148120, -73.882172 41.148993, -73.882453 41.149867, -73.882734 41.150740, -73.883015 41.151613, -73.883295 41.152487, -73.883576 41.153360, -73.883857 41.154233, -73.884138 41.155107, -73.884419 41.155980, -73.884700 41.156853, -73.884981 41.157726, -73.885263 41.158600, -73.885544 41.159473, -73.885825 41.160346, -73.886106 41.161220, -73.886387 41.162093, -73.886668 41.162966, -73.886949 41.163840, -73.887230 41.164713, -73.887511 41.165586, -73.887792 41.166459, -73.888073 41.167333, -73.888354 41.168206, -73.888635 41.169079, -73.888917 41.169953, -73.889198 41.170826, -73.889479 41.171699, -73.889760 41.172572, -73.890041 41.173446, -73.890322 41.174319, -73.890603 41.175192, -73.890885 41.176066, -73.891166 41.176939, -73.891447 41.177812, -73.891728 41.178685, -73.892009 41.179559, -73.892291 41.180432, -73.892572 41.181305, -73.892853 41.182179, -73.893134 41.183052, -73.893416 41.183925, -73.893697 41.184798, -73.893978 41.185672, -73.894259 41.186545, -73.894541 41.187418, -73.894822 41.188292, -73.895103 41.189165, -73.895384 41.190038, -73.895666 41.190911, -73.895947 41.191785, -73.896228 41.192658, -73.896510 41.193531, -73.896791 41.194404, -73.897072 41.195278, -73.897354 41.196151, -73.897635 41.197024, -73.897916 41.197898, -73.898198 41.198771, -73.898479 41.199644, -73.898761 41.200517, -73.899042 41.201391, -73.899323 41.202264, -73.899605 41.203137, -73.899886 41.204010, -73.900168 41.204884, -73.900449 41.205757, -73.900731 41.206630, -73.901012 41.207503, -73.901293 41.208377, -73.901575 41.209250, -73.901856 41.210123, -73.902138 41.210996, -73.902419 41.211870, -73.902701 41.212743, -73.902982 41.213616, -73.903264 41.214489, -73.903545 41.215363, -73.903827 41.216236, -73.904108 41.217109, -73.904390 41.217983, -73.904672 41.218856, -73.904953 41.219729, -73.905235 41.220602, -73.905516 41.221476, -73.905798 41.222349, -73.906079 41.223222, -73.906361 41.224095, -73.906643 41.224969, -73.906924 41.225842, -73.907206 41.226715, -73.907487 41.227588, -73.907769 41.228461, -73.908051 41.229335, -73.908332 41.230208, -73.908614 41.231081, -73.908896 41.231954, -73.909177 41.232828, -73.909459 41.233701, -73.909741 41.234574, -73.910022 41.235447, -73.910304 41.236321, -73.910586 41.237194, -73.910867 41.238067, -73.911149 41.238940, -73.911431 41.239814, -73.911713 41.240687, -73.911994 41.241560, -73.912276 41.242433, -73.912558 41.243307, -73.912840 41.244180, -73.913121 41.245053, -73.913403 41.245926, -73.913685 41.246799, -73.913967 41.247673, -73.914249 41.248546, -73.914530 41.249419, -73.914812 41.250292, -73.915094 41.251166, -73.915376 41.252039, -73.915658 41.252912, -73.915939 41.253785, -73.916221 41.254659, -73.916503 41.255532, -73.916785 41.256405, -73.917067 41.257278, -73.917349 41.258151, -73.917631 41.259025, -73.917913 41.259898, -73.918195 41.260771, -73.918476 41.261644, -73.918758 41.262518, -73.919040 41.263391, -73.919322 41.264264, -73.919604 41.265137, -73.919886 41.266010, -73.920168 41.266884, -73.920450 41.267757, -73.920732 41.268630, -73.921014 41.269503, -73.921296 41.270376, -73.921578 41.271250, -73.921860 41.272123, -73.922142 41.272996, -73.922424 41.273869, -73.922706 41.274743, -73.922988 41.275616, -73.923270 41.276489, -73.923552 41.277362, -73.923834 41.278235, -73.924116 41.279109, -73.924398 41.279982, -73.924680 41.280855, -73.924963 41.281728, -73.925245 41.282601, -73.925527 41.283475, -73.925809 41.284348, -73.926091 41.285221, -73.926373 41.286094, -73.926655 41.286967, -73.926937 41.287841, -73.927219 41.288714, -73.927502 41.289587, -73.927784 41.290460, -73.928066 41.291333, -73.928348 41.292207, -73.928630 41.293080, -73.928913 41.293953, -73.929195 41.294826, -73.929477 41.295699, -73.929759 41.296573, -73.930041 41.297446, -73.930324 41.298319, -73.930606 41.299192, -73.930888 41.300065, -73.931170 41.300938, -73.931453 41.301812, -73.931735 41.302685, -73.932017 41.303558, -73.932299 41.304431, -73.932582 41.305304, -73.932864 41.306178, -73.933146 41.307051, -73.933429 41.307924, -73.933711 41.308797, -73.933993 41.309670, -73.934276 41.310543, -73.934558 41.311417, -73.934840 41.312290, -73.935123 41.313163, -73.935405 41.314036, -73.935687 41.314909, -73.935970 41.315783, -73.936252 41.316656, -73.936535 41.317529, -73.936817 41.318402, -73.937099 41.319275, -73.937382 41.320148, -73.937664 41.321022, -73.937947 41.321895, -73.938229 41.322768, -73.938512 41.323641, -73.938794 41.324514, -73.939077 41.325387, -73.939359 41.326261, -73.939641 41.327134, -73.939924 41.328007, -73.940206 41.328880, -73.940489 41.329753, -73.940771 41.330626, -73.941054 41.331500, -73.941337 41.332373, -73.941619 41.333246, -73.941902 41.334119, -73.942184 41.334992, -73.942467 41.335865, -73.942749 41.336739, -73.943032 41.337612, -73.943314 41.338485, -73.943597 41.339358, -73.943880 41.340231, -73.944162 41.341104, -73.944445 41.341978, -73.944727 41.342851, -73.945010 41.343724, -73.945293 41.344597, -73.945575 41.345470, -73.945858 41.346343, -73.946141 41.347216, -73.946423 41.348090, -73.946706 41.348963, -73.946989 41.349836, -73.947271 41.350709, -73.947554 41.351582, -73.947837 41.352455, -73.948119 41.353328, -73.948402 41.354202, -73.948685 41.355075, -73.948968 41.355948, -73.949250 41.356821, -73.949533 41.357694, -73.949816 41.358567, -73.950099 41.359440, -73.950381 41.360314, -73.950664 41.361187, -73.950947 41.362060, -73.951230 41.362933, -73.951513 41.363806, -73.951795 41.364679, -73.952078 41.365552, -73.952361 41.366426, -73.952644 41.367299, -73.952927 41.368172, -73.953209 41.369045, -73.953492 41.369918, -73.953775 41.370791, -73.954058 41.371664, -73.954341 41.372538, -73.954624 41.373411, -73.954907 41.374284, -73.955190 41.375157, -73.955472 41.376030, -73.955755 41.376903, -73.956038 41.377776, -73.956321 41.378649, -73.956604 41.379523, -73.956887 41.380396, -73.957170 41.381269, -73.957453 41.382142, -73.957736 41.383015, -73.958019 41.383888, -73.958302 41.384761, -73.958585 41.385634, -73.958868 41.386508, -73.959151 41.387381, -73.959434 41.388254, -73.959717 41.389127, -73.960000 41.390000, -73.960384 41.390846, -73.960768 41.391692, -73.961152 41.392539, -73.961536 41.393385, -73.961920 41.394231, -73.962304 41.395077, -73.962688 41.395924, -73.963072 41.396770, -73.963456 41.397616, -73.963840 41.398462, -73.964224 41.399309, -73.964608 41.400155, -73.964992 41.401001, -73.965376 41.401847, -73.965761 41.402693, -73.966145 41.403540, -73.966529 41.404386, -73.966913 41.405232, -73.967297 41.406078, -73.967681 41.406924, -73.968065 41.407771, -73.968450 41.408617, -73.968834 41.409463, -73.969218 41.410309, -73.969602 41.411156, -73.969986 41.412002, -73.970371 41.412848, -73.970755 41.413694, -73.971139 41.414540, -73.971523 41.415387, -73.971908 41.416233, -73.972292 41.417079, -73.972676 41.417925, -73.973061 41.418771, -73.973445 41.419618, -73.973829 41.420464, -73.974214 41.421310, -73.974598 41.422156, -73.974982 41.423002, -73.975367 41.423848, -73.975751 41.424695, -73.976135 41.425541, -73.976520 41.426387, -73.976904 41.427233, -73.977289 41.428079, -73.977673 41.428926, -73.978057 41.429772, -73.978442 41.430618, -73.978826 41.431464, -73.979211 41.432310, -73.979595 41.433156, -73.979980 41.434003, -73.980364 41.434849, -73.980749 41.435695, -73.981133 41.436541, -73.981518 41.437387, -73.981902 41.438233, -73.982287 41.439080, -73.982671 41.439926, -73.983056 41.440772, -73.983440 41.441618, -73.983825 41.442464, -73.984210 41.443310, -73.984594 41.444157, -73.984979 41.445003, -73.985363 41.445849, -73.985748 41.446695, -73.986133 41.447541, -73.986517 41.448387, -73.986902 41.449233, -73.987287 41.450080, -73.987671 41.450926, -73.988056 41.451772, -73.988441 41.452618, -73.988825 41.453464, -73.989210 41.454310, -73.989595 41.455156, -73.989980 41.456003, -73.990364 41.456849, -73.990749 41.457695, -73.991134 41.458541, -73.991519 41.459387, -73.991904 41.460233, -73.992288 41.461079, -73.992673 41.461926, -73.993058 41.462772, -73.993443 41.463618, -73.993828 41.464464, -73.994212 41.465310, -73.994597 41.466156, -73.994982 41.467002, -73.995367 41.467848, -73.995752 41.468695, -73.996137 41.469541, -73.996522 41.470387, -73.996907 41.471233, -73.997292 41.472079, -73.997677 41.472925, -73.998062 41.473771, -73.998446 41.474617, -73.998831 41.475463, -73.999216 41.476310, -73.999601 41.477156, -73.999986 41.478002, -74.000371 41.478848, -74.000756 41.479694, -74.001141 41.480540, -74.001527 41.481386, -74.001912 41.482232, -74.002297 41.483078, -74.002682 41.483924, -74.003067 41.484771, -74.003452 41.485617, -74.003837 41.486463, -74.004222 41.487309, -74.004607 41.488155, -74.004992 41.489001, -74.005378 41.489847, -74.005763 41.490693, -74.006148 41.491539, -74.006533 41.492385, -74.006918 41.493231, -74.007303 41.494077, -74.007689 41.494924, -74.008074 41.495770, -74.008459 41.496616, -74.008844 41.497462, -74.009229 41.498308, -74.009615 41.499154, -74.010000 41.500000, -74.009697 41.500870, -74.009393 41.501739, -74.009090 41.502609, -74.008786 41.503479, -74.008483 41.504348, -74.008179 41.505218, -74.007876 41.506088, -74.007572 41.506957, -74.007269 41.507827, -74.006966 41.508697, -74.006662 41.509566, -74.006359 41.510436, -74.006055 41.511305, -74.005752 41.512175, -74.005448 41.513045, -74.005144 41.513914, -74.004841 41.514784, -74.004537 41.515654, -74.004234 41.516523, -74.003930 41.517393, -74.003627 41.518263, -74.003323 41.519132, -74.003019 41.520002, -74.002716 41.520872, -74.002412 41.521741, -74.002109 41.522611, -74.001805 41.523480, -74.001501 41.524350, -74.001198 41.525220, -74.000894 41.526089, -74.000590 41.526959, -74.000287 41.527829, -73.999983 41.528698, -73.999679 41.529568, -73.999376 41.530438, -73.999072 41.531307, -73.998768 41.532177, -73.998465 41.533046, -73.998161 41.533916, -73.997857 41.534786, -73.997553 41.535655, -73.997250 41.536525, -73.996946 41.537395, -73.996642 41.538264, -73.996338 41.539134, -73.996035 41.540003, -73.995731 41.540873, -73.995427 41.541743, -73.995123 41.542612, -73.994819 41.543482, -73.994516 41.544351, -73.994212 41.545221, -73.993908 41.546091, -73.993604 41.546960, -73.993300 41.547830, -73.992996 41.548700, -73.992693 41.549569, -73.992389 41.550439, -73.992085 41.551308, -73.991781 41.552178, -73.991477 41.553048, -73.991173 41.553917, -73.990869 41.554787, -73.990565 41.555656, -73.990261 41.556526, -73.989957 41.557396, -73.989653 41.558265, -73.989349 41.559135, -73.989046 41.560004, -73.988742 41.560874, -73.988438 41.561744, -73.988134 41.562613, -73.987830 41.563483, -73.987526 41.564352, -73.987222 41.565222, -73.986918 41.566092, -73.986613 41.566961, -73.986309 41.567831, -73.986005 41.568700, -73.985701 41.569570, -73.985397 41.570440, -73.985093 41.571309, -73.984789 41.572179, -73.984485 41.573048, -73.984181 41.573918, -73.983877 41.574788, -73.983573 41.575657, -73.983269 41.576527, -73.982964 41.577396, -73.982660 41.578266, -73.982356 41.579136, -73.982052 41.580005, -73.981748 41.580875, -73.981444 41.581744, -73.981140 41.582614, -73.980835 41.583483, -73.980531 41.584353, -73.980227 41.585223, -73.979923 41.586092, -73.979619 41.586962, -73.979314 41.587831, -73.979010 41.588701, -73.978706 41.589570, -73.978402 41.590440, -73.978097 41.591310, -73.977793 41.592179, -73.977489 41.593049, -73.977184 41.593918, -73.976880 41.594788, -73.976576 41.595657, -73.976272 41.596527, -73.975967 41.597397, -73.975663 41.598266, -73.975359 41.599136, -73.975054 41.600005, -73.974750 41.600875, -73.974446 41.601744, -73.974141 41.602614, -73.973837 41.603484, -73.973532 41.604353, -73.973228 41.605223, -73.972924 41.606092, -73.972619 41.606962, -73.972315 41.607831, -73.972010 41.608701, -73.971706 41.609570, -73.971401 41.610440, -73.971097 41.611310, -73.970793 41.612179, -73.970488 41.613049, -73.970184 41.613918, -73.969879 41.614788, -73.969575 41.615657, -73.969270 41.616527, -73.968966 41.617396, -73.968661 41.618266, -73.968357 41.619136, -73.968052 41.620005, -73.967748 41.620875, -73.967443 41.621744, -73.967138 41.622614, -73.966834 41.623483, -73.966529 41.624353, -73.966225 41.625222, -73.965920 41.626092, -73.965616 41.626961, -73.965311 41.627831, -73.965006 41.628701, -73.964702 41.629570, -73.964397 41.630440, -73.964092 41.631309, -73.963788 41.632179, -73.963483 41.633048, -73.963178 41.633918, -73.962874 41.634787, -73.962569 41.635657, -73.962264 41.636526, -73.961960 41.637396, -73.961655 41.638265, -73.961350 41.639135, -73.961046 41.640004, -73.960741 41.640874, -73.960436 41.641744, -73.960131 41.642613, -73.959827 41.643483, -73.959522 41.644352, -73.959217 41.645222, -73.958912 41.646091, -73.958608 41.646961, -73.958303 41.647830, -73.957998 41.648700, -73.957693 41.649569, -73.957388 41.650439, -73.957083 41.651308, -73.956779 41.652178, -73.956474 41.653047, -73.956169 41.653917, -73.955864 41.654786, -73.955559 41.655656, -73.955254 41.656525, -73.954949 41.657395, -73.954645 41.658264, -73.954340 41.659134, -73.954035 41.660003, -73.953730 41.660873, -73.953425 41.661742, -73.953120 41.662612, -73.952815 41.663481, -73.952510 41.664351, -73.952205 41.665220, -73.951900 41.666090, -73.951595 41.666959, -73.951290 41.667829, -73.950985 41.668698, -73.950680 41.669568, -73.950375 41.670437, -73.950070 41.671307, -73.949765 41.672176, -73.949460 41.673046, -73.949155 41.673915, -73.948850 41.674785, -73.948545 41.675654, -73.948240 41.676524, -73.947935 41.677393, -73.947630 41.678263, -73.947325 41.679132, -73.947020 41.680002, -73.946714 41.680871, -73.946409 41.681741, -73.946104 41.682610, -73.945799 41.683480, -73.945494 41.684349, -73.945189 41.685219, -73.944884 41.686088, -73.944578 41.686958, -73.944273 41.687827, -73.943968 41.688697, -73.943663 41.689566, -73.943358 41.690436, -73.943053 41.691305, -73.942747 41.692175, -73.942442 41.693044, -73.942137 41.693914, -73.941832 41.694783, -73.941526 41.695653, -73.941221 41.696522, -73.940916 41.697392, -73.940611 41.698261, -73.940305 41.699131, -73.940000 41.700000, -73.940078 41.700895, -73.940155 41.701790, -73.940233 41.702685, -73.940310 41.703580, -73.940388 41.704475, -73.940465 41.705370, -73.940543 41.706265, -73.940620 41.707160, -73.940698 41.708055, -73.940776 41.708949, -73.940853 41.709844, -73.940931 41.710739, -73.941008 41.711634, -73.941086 41.712529, -73.941163 41.713424, -73.941241 41.714319, -73.941319 41.715214, -73.941396 41.716109, -73.941474 41.717004, -73.941551 41.717899, -73.941629 41.718794, -73.941706 41.719689, -73.941784 41.720584, -73.941862 41.721479, -73.941939 41.722374, -73.942017 41.723269, -73.942094 41.724164, -73.942172 41.725059, -73.942250 41.725953, -73.942327 41.726848, -73.942405 41.727743, -73.942482 41.728638, -73.942560 41.729533, -73.942638 41.730428, -73.942715 41.731323, -73.942793 41.732218, -73.942871 41.733113, -73.942948 41.734008, -73.943026 41.734903, -73.943103 41.735798, -73.943181 41.736693, -73.943259 41.737588, -73.943336 41.738483, -73.943414 41.739378, -73.943492 41.740273, -73.943569 41.741168, -73.943647 41.742063, -73.943725 41.742957, -73.943802 41.743852, -73.943880 41.744747, -73.943957 41.745642, -73.944035 41.746537, -73.944113 41.747432, -73.944190 41.748327, -73.944268 41.749222, -73.944346 41.750117, -73.944423 41.751012, -73.944501 41.751907, -73.944579 41.752802, -73.944656 41.753697, -73.944734 41.754592, -73.944812 41.755487, -73.944889 41.756382, -73.944967 41.757277, -73.945045 41.758172, -73.945122 41.759066, -73.945200 41.759961, -73.945278 41.760856, -73.945356 41.761751, -73.945433 41.762646, -73.945511 41.763541, -73.945589 41.764436, -73.945666 41.765331, -73.945744 41.766226, -73.945822 41.767121, -73.945899 41.768016, -73.945977 41.768911, -73.946055 41.769806, -73.946133 41.770701, -73.946210 41.771596, -73.946288 41.772491, -73.946366 41.773386, -73.946443 41.774281, -73.946521 41.775175, -73.946599 41.776070, -73.946677 41.776965, -73.946754 41.777860, -73.946832 41.778755, -73.946910 41.779650, -73.946988 41.780545, -73.947065 41.781440, -73.947143 41.782335, -73.947221 41.783230, -73.947299 41.784125, -73.947376 41.785020, -73.947454 41.785915, -73.947532 41.786810, -73.947610 41.787705, -73.947687 41.788600, -73.947765 41.789495, -73.947843 41.790390, -73.947921 41.791284, -73.947998 41.792179, -73.948076 41.793074, -73.948154 41.793969, -73.948232 41.794864, -73.948309 41.795759, -73.948387 41.796654, -73.948465 41.797549, -73.948543 41.798444, -73.948621 41.799339, -73.948698 41.800234, -73.948776 41.801129, -73.948854 41.802024, -73.948932 41.802919, -73.949009 41.803814, -73.949087 41.804709, -73.949165 41.805604, -73.949243 41.806498, -73.949321 41.807393, -73.949398 41.808288, -73.949476 41.809183, -73.949554 41.810078, -73.949632 41.810973, -73.949710 41.811868, -73.949787 41.812763, -73.949865 41.813658, -73.949943 41.814553, -73.950021 41.815448, -73.950099 41.816343, -73.950177 41.817238, -73.950254 41.818133, -73.950332 41.819028, -73.950410 41.819923, -73.950488 41.820818, -73.950566 41.821712, -73.950644 41.822607, -73.950721 41.823502, -73.950799 41.824397, -73.950877 41.825292, -73.950955 41.826187, -73.951033 41.827082, -73.951111 41.827977, -73.951189 41.828872, -73.951266 41.829767, -73.951344 41.830662, -73.951422 41.831557, -73.951500 41.832452, -73.951578 41.833347, -73.951656 41.834242, -73.951734 41.835137, -73.951811 41.836032, -73.951889 41.836926, -73.951967 41.837821, -73.952045 41.838716, -73.952123 41.839611, -73.952201 41.840506, -73.952279 41.841401, -73.952357 41.842296, -73.952434 41.843191, -73.952512 41.844086, -73.952590 41.844981, -73.952668 41.845876, -73.952746 41.846771, -73.952824 41.847666, -73.952902 41.848561, -73.952980 41.849456, -73.953058 41.850351, -73.953136 41.851246, -73.953213 41.852140, -73.953291 41.853035, -73.953369 41.853930, -73.953447 41.854825, -73.953525 41.855720, -73.953603 41.856615, -73.953681 41.857510, -73.953759 41.858405, -73.953837 41.859300, -73.953915 41.860195, -73.953993 41.861090, -73.954071 41.861985, -73.954149 41.862880, -73.954227 41.863775, -73.954304 41.864670, -73.954382 41.865565, -73.954460 41.866459, -73.954538 41.867354, -73.954616 41.868249, -73.954694 41.869144, -73.954772 41.870039, -73.954850 41.870934, -73.954928 41.871829, -73.955006 41.872724, -73.955084 41.873619, -73.955162 41.874514, -73.955240 41.875409, -73.955318 41.876304, -73.955396 41.877199, -73.955474 41.878094, -73.955552 41.878989, -73.955630 41.879884, -73.955708 41.880779, -73.955786 41.881673, -73.955864 41.882568, -73.955942 41.883463, -73.956020 41.884358, -73.956098 41.885253, -73.956176 41.886148, -73.956254 41.887043, -73.956332 41.887938, -73.956410 41.888833, -73.956488 41.889728, -73.956566 41.890623, -73.956644 41.891518, -73.956722 41.892413, -73.956800 41.893308, -73.956878 41.894203, -73.956956 41.895097, -73.957034 41.895992, -73.957112 41.896887, -73.957190 41.897782, -73.957268 41.898677, -73.957346 41.899572, -73.957424 41.900467, -73.957502 41.901362, -73.957580 41.902257, -73.957658 41.903152, -73.957736 41.904047, -73.957814 41.904942, -73.957892 41.905837, -73.957970 41.906732, -73.958048 41.907627, -73.958126 41.908522, -73.958204 41.909416, -73.958282 41.910311, -73.958360 41.911206, -73.958438 41.912101, -73.958516 41.912996, -73.958595 41.913891, -73.958673 41.914786, -73.958751 41.915681, -73.958829 41.916576, -73.958907 41.917471, -73.958985 41.918366, -73.959063 41.919261, -73.959141 41.920156, -73.959219 41.921051, -73.959297 41.921946, -73.959375 41.922841, -73.959453 41.923735, -73.959531 41.924630, -73.959610 41.925525, -73.959688 41.926420, -73.959766 41.927315, -73.959844 41.928210, -73.959922 41.929105, -73.960000 41.930000, -73.959581 41.930842, -73.959162 41.931685, -73.958743 41.932527, -73.958324 41.933370, -73.957905 41.934212, -73.957486 41.935054, -73.957067 41.935897, -73.956648 41.936739, -73.956229 41.937582, -73.955810 41.938424, -73.955391 41.939266, -73.954972 41.940109, -73.954553 41.940951, -73.954134 41.941793, -73.953715 41.942636, -73.953296 41.943478, -73.952876 41.944321, -73.952457 41.945163, -73.952038 41.946005, -73.951619 41.946848, -73.951200 41.947690, -73.950781 41.948532, -73.950362 41.949375, -73.949942 41.950217, -73.949523 41.951059, -73.949104 41.951902, -73.948685 41.952744, -73.948265 41.953587, -73.947846 41.954429, -73.947427 41.955271, -73.947008 41.956114, -73.946588 41.956956, -73.946169 41.957798, -73.945750 41.958641, -73.945330 41.959483, -73.944911 41.960325, -73.944492 41.961168, -73.944072 41.962010, -73.943653 41.962852, -73.943234 41.963695, -73.942814 41.964537, -73.942395 41.965379, -73.941976 41.966222, -73.941556 41.967064, -73.941137 41.967906, -73.940717 41.968749, -73.940298 41.969591, -73.939878 41.970433, -73.939459 41.971276, -73.939039 41.972118, -73.938620 41.972960, -73.938200 41.973803, -73.937781 41.974645, -73.937361 41.975487, -73.936942 41.976330, -73.936522 41.977172, -73.936103 41.978014, -73.935683 41.978856, -73.935264 41.979699, -73.934844 41.980541, -73.934424 41.981383, -73.934005 41.982226, -73.933585 41.983068, -73.933165 41.983910, -73.932746 41.984753, -73.932326 41.985595, -73.931906 41.986437, -73.931487 41.987279, -73.931067 41.988122, -73.930647 41.988964, -73.930228 41.989806, -73.929808 41.990649, -73.929388 41.991491, -73.928968 41.992333, -73.928549 41.993175, -73.928129 41.994018, -73.927709 41.994860, -73.927289 41.995702, -73.926869 41.996545, -73.926450 41.997387, -73.926030 41.998229, -73.925610 41.999071, -73.925190 41.999914, -73.924770 42.000756, -73.924350 42.001598, -73.923931 42.002440, -73.923511 42.003283, -73.923091 42.004125, -73.922671 42.004967, -73.922251 42.005810, -73.921831 42.006652, -73.921411 42.007494, -73.920991 42.008336, -73.920571 42.009179, -73.920151 42.010021, -73.919731 42.010863, -73.919311 42.011705, -73.918891 42.012548, -73.918471 42.013390, -73.918051 42.014232, -73.917631 42.015074, -73.917211 42.015917, -73.916791 42.016759, -73.916371 42.017601, -73.915951 42.018443, -73.915531 42.019285, -73.915110 42.020128, -73.914690 42.020970, -73.914270 42.021812, -73.913850 42.022654, -73.913430 42.023497, -73.913010 42.024339, -73.912589 42.025181, -73.912169 42.026023, -73.911749 42.026866, -73.911329 42.027708, -73.910909 42.028550, -73.910488 42.029392, -73.910068 42.030234, -73.909648 42.031077, -73.909228 42.031919, -73.908807 42.032761, -73.908387 42.033603, -73.907967 42.034445, -73.907546 42.035288, -73.907126 42.036130, -73.906706 42.036972, -73.906285 42.037814, -73.905865 42.038656, -73.905445 42.039499, -73.905024 42.040341, -73.904604 42.041183, -73.904183 42.042025, -73.903763 42.042867, -73.903343 42.043710, -73.902922 42.044552, -73.902502 42.045394, -73.902081 42.046236, -73.901661 42.047078, -73.901240 42.047921, -73.900820 42.048763, -73.900399 42.049605, -73.899979 42.050447, -73.899558 42.051289, -73.899138 42.052131, -73.898717 42.052974, -73.898297 42.053816, -73.897876 42.054658, -73.897455 42.055500, -73.897035 42.056342, -73.896614 42.057184, -73.896194 42.058027, -73.895773 42.058869, -73.895352 42.059711, -73.894932 42.060553, -73.894511 42.061395, -73.894090 42.062237, -73.893670 42.063080, -73.893249 42.063922, -73.892828 42.064764, -73.892408 42.065606, -73.891987 42.066448, -73.891566 42.067290, -73.891145 42.068133, -73.890725 42.068975, -73.890304 42.069817, -73.889883 42.070659, -73.889462 42.071501, -73.889041 42.072343, -73.888621 42.073185, -73.888200 42.074027, -73.887779 42.074870, -73.887358 42.075712, -73.886937 42.076554, -73.886516 42.077396, -73.886095 42.078238, -73.885674 42.079080, -73.885254 42.079922, -73.884833 42.080765, -73.884412 42.081607, -73.883991 42.082449, -73.883570 42.083291, -73.883149 42.084133, -73.882728 42.084975, -73.882307 42.085817, -73.881886 42.086659, -73.881465 42.087501, -73.881044 42.088344, -73.880623 42.089186, -73.880202 42.090028, -73.879781 42.090870, -73.879360 42.091712, -73.878939 42.092554, -73.878518 42.093396, -73.878096 42.094238, -73.877675 42.095080, -73.877254 42.095922, -73.876833 42.096765, -73.876412 42.097607, -73.875991 42.098449, -73.875570 42.099291, -73.875148 42.100133, -73.874727 42.100975, -73.874306 42.101817, -73.873885 42.102659, -73.873464 42.103501, -73.873042 42.104343, -73.872621 42.105185, -73.872200 42.106028, -73.871779 42.106870, -73.871357 42.107712, -73.870936 42.108554, -73.870515 42.109396, -73.870093 42.110238, -73.869672 42.111080, -73.869251 42.111922, -73.868829 42.112764, -73.868408 42.113606, -73.867987 42.114448, -73.867565 42.115290, -73.867144 42.116132, -73.866722 42.116974, -73.866301 42.117816, -73.865880 42.118658, -73.865458 42.119501, -73.865037 42.120343, -73.864615 42.121185, -73.864194 42.122027, -73.863772 42.122869, -73.863351 42.123711, -73.862929 42.124553, -73.862508 42.125395, -73.862086 42.126237, -73.861665 42.127079, -73.861243 42.127921, -73.860822 42.128763, -73.860400 42.129605, -73.859979 42.130447, -73.859557 42.131289, -73.859135 42.132131, -73.858714 42.132973, -73.858292 42.133815, -73.857870 42.134657, -73.857449 42.135499, -73.857027 42.136341, -73.856605 42.137183, -73.856184 42.138025, -73.855762 42.138867, -73.855340 42.139709, -73.854919 42.140551, -73.854497 42.141393, -73.854075 42.142235, -73.853653 42.143077, -73.853232 42.143919, -73.852810 42.144761, -73.852388 42.145603, -73.851966 42.146445, -73.851545 42.147287, -73.851123 42.148129, -73.850701 42.148971, -73.850279 42.149813, -73.849857 42.150655, -73.849435 42.151497, -73.849014 42.152339, -73.848592 42.153181, -73.848170 42.154023, -73.847748 42.154865, -73.847326 42.155707, -73.846904 42.156549, -73.846482 42.157391, -73.846060 42.158233, -73.845638 42.159075, -73.845216 42.159917, -73.844794 42.160759, -73.844372 42.161601, -73.843950 42.162443, -73.843528 42.163285, -73.843106 42.164127, -73.842684 42.164969, -73.842262 42.165811, -73.841840 42.166653, -73.841418 42.167495, -73.840996 42.168337, -73.840574 42.169179, -73.840152 42.170021, -73.839729 42.170863, -73.839307 42.171705, -73.838885 42.172547, -73.838463 42.173389, -73.838041 42.174231, -73.837619 42.175073, -73.837197 42.175915, -73.836774 42.176756, -73.836352 42.177598, -73.835930 42.178440, -73.835508 42.179282, -73.835085 42.180124, -73.834663 42.180966, -73.834241 42.181808, -73.833819 42.182650, -73.833396 42.183492, -73.832974 42.184334, -73.832552 42.185176, -73.832129 42.186018, -73.831707 42.186860, -73.831285 42.187702, -73.830862 42.188544, -73.830440 42.189386, -73.830018 42.190227, -73.829595 42.191069, -73.829173 42.191911, -73.828750 42.192753, -73.828328 42.193595, -73.827906 42.194437, -73.827483 42.195279, -73.827061 42.196121, -73.826638 42.196963, -73.826216 42.197805, -73.825793 42.198647, -73.825371 42.199488, -73.824948 42.200330, -73.824526 42.201172, -73.824103 42.202014, -73.823681 42.202856, -73.823258 42.203698, -73.822835 42.204540, -73.822413 42.205382, -73.821990 42.206224, -73.821568 42.207066, -73.821145 42.207907, -73.820722 42.208749, -73.820300 42.209591, -73.819877 42.210433, -73.819455 42.211275, -73.819032 42.212117, -73.818609 42.212959, -73.818186 42.213801, -73.817764 42.214643, -73.817341 42.215484, -73.816918 42.216326, -73.816496 42.217168, -73.816073 42.218010, -73.815650 42.218852, -73.815227 42.219694, -73.814805 42.220536, -73.814382 42.221378, -73.813959 42.222219, -73.813536 42.223061, -73.813113 42.223903, -73.812690 42.224745, -73.812268 42.225587, -73.811845 42.226429, -73.811422 42.227271, -73.810999 42.228112, -73.810576 42.228954, -73.810153 42.229796, -73.809730 42.230638, -73.809307 42.231480, -73.808884 42.232322, -73.808461 42.233163, -73.808038 42.234005, -73.807615 42.234847, -73.807192 42.235689, -73.806769 42.236531, -73.806346 42.237373, -73.805923 42.238214, -73.805500 42.239056, -73.805077 42.239898, -73.804654 42.240740, -73.804231 42.241582, -73.803808 42.242424, -73.803385 42.243265, -73.802962 42.244107, -73.802539 42.244949, -73.802116 42.245791, -73.801693 42.246633, -73.801270 42.247475, -73.800846 42.248316, -73.800423 42.249158, -73.800000 42.250000, -73.799889 42.250895, -73.799778 42.251790, -73.799667 42.252685, -73.799555 42.253580, -73.799444 42.254474, -73.799333 42.255369, -73.799222 42.256264, -73.799111 42.257159, -73.799000 42.258054, -73.798888 42.258949, -73.798777 42.259844, -73.798666 42.260739, -73.798555 42.261633, -73.798444 42.262528, -73.798332 42.263423, -73.798221 42.264318, -73.798110 42.265213, -73.797999 42.266108, -73.797888 42.267003, -73.797776 42.267898, -73.797665 42.268792, -73.797554 42.269687, -73.797443 42.270582, -73.797332 42.271477, -73.797220 42.272372, -73.797109 42.273267, -73.796998 42.274162, -73.796887 42.275057, -73.796775 42.275951, -73.796664 42.276846, -73.796553 42.277741, -73.796442 42.278636, -73.796330 42.279531, -73.796219 42.280426, -73.796108 42.281321, -73.795997 42.282216, -73.795885 42.283110, -73.795774 42.284005, -73.795663 42.284900, -73.795552 42.285795, -73.795440 42.286690, -73.795329 42.287585, -73.795218 42.288480, -73.795107 42.289375, -73.794995 42.290269, -73.794884 42.291164, -73.794773 42.292059, -73.794661 42.292954, -73.794550 42.293849, -73.794439 42.294744, -73.794327 42.295639, -73.794216 42.296534, -73.794105 42.297428, -73.793994 42.298323, -73.793882 42.299218, -73.793771 42.300113, -73.793660 42.301008, -73.793548 42.301903, -73.793437 42.302798, -73.793326 42.303693, -73.793214 42.304587, -73.793103 42.305482, -73.792992 42.306377, -73.792880 42.307272, -73.792769 42.308167, -73.792658 42.309062, -73.792546 42.309957, -73.792435 42.310852, -73.792323 42.311746, -73.792212 42.312641, -73.792101 42.313536, -73.791989 42.314431, -73.791878 42.315326, -73.791767 42.316221, -73.791655 42.317116, -73.791544 42.318010, -73.791432 42.318905, -73.791321 42.319800, -73.791210 42.320695, -73.791098 42.321590, -73.790987 42.322485, -73.790875 42.323380, -73.790764 42.324275, -73.790653 42.325169, -73.790541 42.326064, -73.790430 42.326959, -73.790318 42.327854, -73.790207 42.328749, -73.790096 42.329644, -73.789984 42.330539, -73.789873 42.331434, -73.789761 42.332328, -73.789650 42.333223, -73.789538 42.334118, -73.789427 42.335013, -73.789315 42.335908, -73.789204 42.336803, -73.789093 42.337698, -73.788981 42.338592, -73.788870 42.339487, -73.788758 42.340382, -73.788647 42.341277, -73.788535 42.342172, -73.788424 42.343067, -73.788312 42.343962, -73.788201 42.344857, -73.788089 42.345751, -73.787978 42.346646, -73.787866 42.347541, -73.787755 42.348436, -73.787643 42.349331, -73.787532 42.350226, -73.787420 42.351121, -73.787309 42.352015, -73.787197 42.352910, -73.787086 42.353805, -73.786974 42.354700, -73.786863 42.355595, -73.786751 42.356490, -73.786640 42.357385, -73.786528 42.358280, -73.786417 42.359174, -73.786305 42.360069, -73.786194 42.360964, -73.786082 42.361859, -73.785971 42.362754, -73.785859 42.363649, -73.785747 42.364544, -73.785636 42.365438, -73.785524 42.366333, -73.785413 42.367228, -73.785301 42.368123, -73.785190 42.369018, -73.785078 42.369913, -73.784967 42.370808, -73.784855 42.371703, -73.784743 42.372597, -73.784632 42.373492, -73.784520 42.374387, -73.784409 42.375282, -73.784297 42.376177, -73.784185 42.377072, -73.784074 42.377967, -73.783962 42.378861, -73.783851 42.379756, -73.783739 42.380651, -73.783627 42.381546, -73.783516 42.382441, -73.783404 42.383336, -73.783293 42.384231, -73.783181 42.385125, -73.783069 42.386020, -73.782958 42.386915, -73.782846 42.387810, -73.782734 42.388705, -73.782623 42.389600, -73.782511 42.390495, -73.782399 42.391390, -73.782288 42.392284, -73.782176 42.393179, -73.782065 42.394074, -73.781953 42.394969, -73.781841 42.395864, -73.781730 42.396759, -73.781618 42.397654, -73.781506 42.398548, -73.781395 42.399443, -73.781283 42.400338, -73.781171 42.401233, -73.781060 42.402128, -73.780948 42.403023, -73.780836 42.403918, -73.780724 42.404812, -73.780613 42.405707, -73.780501 42.406602, -73.780389 42.407497, -73.780278 42.408392, -73.780166 42.409287, -73.780054 42.410182, -73.779943 42.411076, -73.779831 42.411971, -73.779719 42.412866, -73.779607 42.413761, -73.779496 42.414656, -73.779384 42.415551, -73.779272 42.416446, -73.779160 42.417340, -73.779049 42.418235, -73.778937 42.419130, -73.778825 42.420025, -73.778713 42.420920, -73.778602 42.421815, -73.778490 42.422710, -73.778378 42.423604, -73.778266 42.424499, -73.778155 42.425394, -73.778043 42.426289, -73.777931 42.427184, -73.777819 42.428079, -73.777708 42.428974, -73.777596 42.429868, -73.777484 42.430763, -73.777372 42.431658, -73.777260 42.432553, -73.777149 42.433448, -73.777037 42.434343, -73.776925 42.435238, -73.776813 42.436132, -73.776701 42.437027, -73.776590 42.437922, -73.776478 42.438817, -73.776366 42.439712, -73.776254 42.440607, -73.776142 42.441502, -73.776030 42.442396, -73.775919 42.443291, -73.775807 42.444186, -73.775695 42.445081, -73.775583 42.445976, -73.775471 42.446871, -73.775359 42.447766, -73.775248 42.448660, -73.775136 42.449555, -73.775024 42.450450, -73.774912 42.451345, -73.774800 42.452240, -73.774688 42.453135, -73.774576 42.454030, -73.774465 42.454924, -73.774353 42.455819, -73.774241 42.456714, -73.774129 42.457609, -73.774017 42.458504, -73.773905 42.459399, -73.773793 42.460294, -73.773681 42.461188, -73.773569 42.462083, -73.773458 42.462978, -73.773346 42.463873, -73.773234 42.464768, -73.773122 42.465663, -73.773010 42.466558, -73.772898 42.467452, -73.772786 42.468347, -73.772674 42.469242, -73.772562 42.470137, -73.772450 42.471032, -73.772338 42.471927, -73.772226 42.472821, -73.772115 42.473716, -73.772003 42.474611, -73.771891 42.475506, -73.771779 42.476401, -73.771667 42.477296, -73.771555 42.478191, -73.771443 42.479085, -73.771331 42.479980, -73.771219 42.480875, -73.771107 42.481770, -73.770995 42.482665, -73.770883 42.483560, -73.770771 42.484455, -73.770659 42.485349, -73.770547 42.486244, -73.770435 42.487139, -73.770323 42.488034, -73.770211 42.488929, -73.770099 42.489824, -73.769987 42.490718, -73.769875 42.491613, -73.769763 42.492508, -73.769651 42.493403, -73.769539 42.494298, -73.769427 42.495193, -73.769315 42.496088, -73.769203 42.496982, -73.769091 42.497877, -73.768979 42.498772, -73.768867 42.499667, -73.768755 42.500562, -73.768643 42.501457, -73.768531 42.502352, -73.768419 42.503246, -73.768307 42.504141, -73.768195 42.505036, -73.768083 42.505931, -73.767971 42.506826, -73.767859 42.507721, -73.767746 42.508615, -73.767634 42.509510, -73.767522 42.510405, -73.767410 42.511300, -73.767298 42.512195, -73.767186 42.513090, -73.767074 42.513985, -73.766962 42.514879, -73.766850 42.515774, -73.766738 42.516669, -73.766626 42.517564, -73.766514 42.518459, -73.766401 42.519354, -73.766289 42.520248, -73.766177 42.521143, -73.766065 42.522038, -73.765953 42.522933, -73.765841 42.523828, -73.765729 42.524723, -73.765617 42.525618, -73.765505 42.526512, -73.765392 42.527407, -73.765280 42.528302, -73.765168 42.529197, -73.765056 42.530092, -73.764944 42.530987, -73.764832 42.531881, -73.764720 42.532776, -73.764607 42.533671, -73.764495 42.534566, -73.764383 42.535461, -73.764271 42.536356, -73.764159 42.537251, -73.764047 42.538145, -73.763934 42.539040, -73.763822 42.539935, -73.763710 42.540830, -73.763598 42.541725, -73.763486 42.542620, -73.763373 42.543514, -73.763261 42.544409, -73.763149 42.545304, -73.763037 42.546199, -73.762925 42.547094, -73.762812 42.547989, -73.762700 42.548883, -73.762588 42.549778, -73.762476 42.550673, -73.762364 42.551568, -73.762251 42.552463, -73.762139 42.553358, -73.762027 42.554253, -73.761915 42.555147, -73.761802 42.556042, -73.761690 42.556937, -73.761578 42.557832, -73.761466 42.558727, -73.761354 42.559622, -73.761241 42.560516, -73.761129 42.561411, -73.761017 42.562306, -73.760905 42.563201, -73.760792 42.564096, -73.760680 42.564991, -73.760568 42.565885, -73.760455 42.566780, -73.760343 42.567675, -73.760231 42.568570, -73.760119 42.569465, -73.760006 42.570360, -73.759894 42.571255, -73.759782 42.572149, -73.759669 42.573044, -73.759557 42.573939, -73.759445 42.574834, -73.759333 42.575729, -73.759220 42.576624, -73.759108 42.577518, -73.758996 42.578413, -73.758883 42.579308, -73.758771 42.580203, -73.758659 42.581098, -73.758546 42.581993, -73.758434 42.582887, -73.758322 42.583782, -73.758209 42.584677, -73.758097 42.585572, -73.757985 42.586467, -73.757872 42.587362, -73.757760 42.588256, -73.757648 42.589151, -73.757535 42.590046, -73.757423 42.590941, -73.757310 42.591836, -73.757198 42.592731, -73.757086 42.593625, -73.756973 42.594520, -73.756861 42.595415, -73.756749 42.596310, -73.756636 42.597205, -73.756524 42.598100, -73.756411 42.598995, -73.756299 42.599889, -73.756187 42.600784, -73.756074 42.601679, -73.755962 42.602574, -73.755849 42.603469, -73.755737 42.604364, -73.755625 42.605258, -73.755512 42.606153, -73.755400 42.607048, -73.755287 42.607943, -73.755175 42.608838, -73.755063 42.609733, -73.754950 42.610627, -73.754838 42.611522, -73.754725 42.612417, -73.754613 42.613312, -73.754500 42.614207, -73.754388 42.615102, -73.754275 42.615996, -73.754163 42.616891, -73.754051 42.617786, -73.753938 42.618681, -73.753826 42.619576, -73.753713 42.620471, -73.753601 42.621365, -73.753488 42.622260, -73.753376 42.623155, -73.753263 42.624050, -73.753151 42.624945, -73.753038 42.625840, -73.752926 42.626734, -73.752813 42.627629, -73.752701 42.628524, -73.752588 42.629419, -73.752476 42.630314, -73.752363 42.631209, -73.752251 42.632103, -73.752138 42.632998, -73.752026 42.633893, -73.751913 42.634788, -73.751801 42.635683, -73.751688 42.636578, -73.751576 42.637472, -73.751463 42.638367, -73.751351 42.639262, -73.751238 42.640157, -73.751126 42.641052, -73.751013 42.641947, -73.750900 42.642841, -73.750788 42.643736, -73.750675 42.644631, -73.750563 42.645526, -73.750450 42.646421, -73.750338 42.647316, -73.750225 42.648210, -73.750113 42.649105, -73.750000 42.650000), (-73.750000 42.650000, -73.750113 42.649105, -73.750225 42.648210, -73.750338 42.647316, -73.750450 42.646421, -73.750563 42.645526, -73.750675 42.644631, -73.750788 42.643736, -73.750900 42.642841, -73.751013 42.641947, -73.751126 42.641052, -73.751238 42.640157, -73.751351 42.639262, -73.751463 42.638367, -73.751576 42.637472, -73.751688 42.636578, -73.751801 42.635683, -73.751913 42.634788, -73.752026 42.633893, -73.752138 42.632998, -73.752251 42.632103, -73.752363 42.631209, -73.752476 42.630314, -73.752588 42.629419, -73.752701 42.628524, -73.752813 42.627629, -73.752926 42.626734, -73.753038 42.625840, -73.753151 42.624945, -73.753263 42.624050, -73.753376 42.623155, -73.753488 42.622260, -73.753601 42.621365, -73.753713 42.620471, -73.753826 42.619576, -73.753938 42.618681, -73.754051 42.617786, -73.754163 42.616891, -73.754275 42.615996, -73.754388 42.615102, -73.754500 42.614207, -73.754613 42.613312, -73.754725 42.612417, -73.754838 42.611522, -73.754950 42.610627, -73.755063 42.609733, -73.755175 42.608838, -73.755287 42.607943, -73.755400 42.607048, -73.755512 42.606153, -73.755625 42.605258, -73.755737 42.604364, -73.755849 42.603469, -73.755962 42.602574, -73.756074 42.601679, -73.756187 42.600784, -73.756299 42.599889, -73.756411 42.598995, -73.756524 42.598100, -73.756636 42.597205, -73.756749 42.596310, -73.756861 42.595415, -73.756973 42.594520, -73.757086 42.593625, -73.757198 42.592731, -73.757310 42.591836, -73.757423 42.590941, -73.757535 42.590046, -73.757648 42.589151, -73.757760 42.588256, -73.757872 42.587362, -73.757985 42.586467, -73.758097 42.585572, -73.758209 42.584677, -73.758322 42.583782, -73.758434 42.582887, -73.758546 42.581993, -73.758659 42.581098, -73.758771 42.580203, -73.758883 42.579308, -73.758996 42.578413, -73.759108 42.577518, -73.759220 42.576624, -73.759333 42.575729, -73.759445 42.574834, -73.759557 42.573939, -73.759669 42.573044, -73.759782 42.572149, -73.759894 42.571255, -73.760006 42.570360, -73.760119 42.569465, -73.760231 42.568570, -73.760343 42.567675, -73.760455 42.566780, -73.760568 42.565885, -73.760680 42.564991, -73.760792 42.564096, -73.760905 42.563201, -73.761017 42.562306, -73.761129 42.561411, -73.761241 42.560516, -73.761354 42.559622, -73.761466 42.558727, -73.761578 42.557832, -73.761690 42.556937, -73.761802 42.556042, -73.761915 42.555147, -73.762027 42.554253, -73.762139 42.553358, -73.762251 42.552463, -73.762364 42.551568, -73.762476 42.550673, -73.762588 42.549778, -73.762700 42.548883, -73.762812 42.547989, -73.762925 42.547094, -73.763037 42.546199, -73.763149 42.545304, -73.763261 42.544409, -73.763373 42.543514, -73.763486 42.542620, -73.763598 42.541725, -73.763710 42.540830, -73.763822 42.539935, -73.763934 42.539040, -73.764047 42.538145, -73.764159 42.537251, -73.764271 42.536356, -73.764383 42.535461, -73.764495 42.534566, -73.764607 42.533671, -73.764720 42.532776, -73.764832 42.531881, -73.764944 42.530987, -73.765056 42.530092, -73.765168 42.529197, -73.765280 42.528302, -73.765392 42.527407, -73.765505 42.526512, -73.765617 42.525618, -73.765729 42.524723, -73.765841 42.523828, -73.765953 42.522933, -73.766065 42.522038, -73.766177 42.521143, -73.766289 42.520248, -73.766401 42.519354, -73.766514 42.518459, -73.766626 42.517564, -73.766738 42.516669, -73.766850 42.515774, -73.766962 42.514879, -73.767074 42.513985, -73.767186 42.513090, -73.767298 42.512195, -73.767410 42.511300, -73.767522 42.510405, -73.767634 42.509510, -73.767746 42.508615, -73.767859 42.507721, -73.767971 42.506826, -73.768083 42.505931, -73.768195 42.505036, -73.768307 42.504141, -73.768419 42.503246, -73.768531 42.502352, -73.768643 42.501457, -73.768755 42.500562, -73.768867 42.499667, -73.768979 42.498772, -73.769091 42.497877, -73.769203 42.496982, -73.769315 42.496088, -73.769427 42.495193, -73.769539 42.494298, -73.769651 42.493403, -73.769763 42.492508, -73.769875 42.491613, -73.769987 42.490718, -73.770099 42.489824, -73.770211 42.488929, -73.770323 42.488034, -73.770435 42.487139, -73.770547 42.486244, -73.770659 42.485349, -73.770771 42.484455, -73.770883 42.483560, -73.770995 42.482665, -73.771107 42.481770, -73.771219 42.480875, -73.771331 42.479980, -73.771443 42.479085, -73.771555 42.478191, -73.771667 42.477296, -73.771779 42.476401, -73.771891 42.475506, -73.772003 42.474611, -73.772115 42.473716, -73.772226 42.472821, -73.772338 42.471927, -73.772450 42.471032, -73.772562 42.470137, -73.772674 42.469242, -73.772786 42.468347, -73.772898 42.467452, -73.773010 42.466558, -73.773122 42.465663, -73.773234 42.464768, -73.773346 42.463873, -73.773458 42.462978, -73.773569 42.462083, -73.773681 42.461188, -73.773793 42.460294, -73.773905 42.459399, -73.774017 42.458504, -73.774129 42.457609, -73.774241 42.456714, -73.774353 42.455819, -73.774465 42.454924, -73.774576 42.454030, -73.774688 42.453135, -73.774800 42.452240, -73.774912 42.451345, -73.775024 42.450450, -73.775136 42.449555, -73.775248 42.448660, -73.775359 42.447766, -73.775471 42.446871, -73.775583 42.445976, -73.775695 42.445081, -73.775807 42.444186, -73.775919 42.443291, -73.776030 42.442396, -73.776142 42.441502, -73.776254 42.440607, -73.776366 42.439712, -73.776478 42.438817, -73.776590 42.437922, -73.776701 42.437027, -73.776813 42.436132, -73.776925 42.435238, -73.777037 42.434343, -73.777149 42.433448, -73.777260 42.432553, -73.777372 42.431658, -73.777484 42.430763, -73.777596 42.429868, -73.777708 42.428974, -73.777819 42.428079, -73.777931 42.427184, -73.778043 42.426289, -73.778155 42.425394, -73.778266 42.424499, -73.778378 42.423604, -73.778490 42.422710, -73.778602 42.421815, -73.778713 42.420920, -73.778825 42.420025, -73.778937 42.419130, -73.779049 42.418235, -73.779160 42.417340, -73.779272 42.416446, -73.779384 42.415551, -73.779496 42.414656, -73.779607 42.413761, -73.779719 42.412866, -73.779831 42.411971, -73.779943 42.411076, -73.780054 42.410182, -73.780166 42.409287, -73.780278 42.408392, -73.780389 42.407497, -73.780501 42.406602, -73.780613 42.405707, -73.780724 42.404812, -73.780836 42.403918, -73.780948 42.403023, -73.781060 42.402128, -73.781171 42.401233, -73.781283 42.400338, -73.781395 42.399443, -73.781506 42.398548, -73.781618 42.397654, -73.781730 42.396759, -73.781841 42.395864, -73.781953 42.394969, -73.782065 42.394074, -73.782176 42.393179, -73.782288 42.392284, -73.782399 42.391390, -73.782511 42.390495, -73.782623 42.389600, -73.782734 42.388705, -73.782846 42.387810, -73.782958 42.386915, -73.783069 42.386020, -73.783181 42.385125, -73.783293 42.384231, -73.783404 42.383336, -73.783516 42.382441, -73.783627 42.381546, -73.783739 42.380651, -73.783851 42.379756, -73.783962 42.378861, -73.784074 42.377967, -73.784185 42.377072, -73.784297 42.376177, -73.784409 42.375282, -73.784520 42.374387, -73.784632 42.373492, -73.784743 42.372597, -73.784855 42.371703, -73.784967 42.370808, -73.785078 42.369913, -73.785190 42.369018, -73.785301 42.368123, -73.785413 42.367228, -73.785524 42.366333, -73.785636 42.365438, -73.785747 42.364544, -73.785859 42.363649, -73.785971 42.362754, -73.786082 42.361859, -73.786194 42.360964, -73.786305 42.360069, -73.786417 42.359174, -73.786528 42.358280, -73.786640 42.357385, -73.786751 42.356490, -73.786863 42.355595, -73.786974 42.354700, -73.787086 42.353805, -73.787197 42.352910, -73.787309 42.352015, -73.787420 42.351121, -73.787532 42.350226, -73.787643 42.349331, -73.787755 42.348436, -73.787866 42.347541, -73.787978 42.346646, -73.788089 42.345751, -73.788201 42.344857, -73.788312 42.343962, -73.788424 42.343067, -73.788535 42.342172, -73.788647 42.341277, -73.788758 42.340382, -73.788870 42.339487, -73.788981 42.338592, -73.789093 42.337698, -73.789204 42.336803, -73.789315 42.335908, -73.789427 42.335013, -73.789538 42.334118, -73.789650 42.333223, -73.789761 42.332328, -73.789873 42.331434, -73.789984 42.330539, -73.790096 42.329644, -73.790207 42.328749, -73.790318 42.327854, -73.790430 42.326959, -73.790541 42.326064, -73.790653 42.325169, -73.790764 42.324275, -73.790875 42.323380, -73.790987 42.322485, -73.791098 42.321590, -73.791210 42.320695, -73.791321 42.319800, -73.791432 42.318905, -73.791544 42.318010, -73.791655 42.317116, -73.791767 42.316221, -73.791878 42.315326, -73.791989 42.314431, -73.792101 42.313536, -73.792212 42.312641, -73.792323 42.311746, -73.792435 42.310852, -73.792546 42.309957, -73.792658 42.309062, -73.792769 42.308167, -73.792880 42.307272, -73.792992 42.306377, -73.793103 42.305482, -73.793214 42.304587, -73.793326 42.303693, -73.793437 42.302798, -73.793548 42.301903, -73.793660 42.301008, -73.793771 42.300113, -73.793882 42.299218, -73.793994 42.298323, -73.794105 42.297428, -73.794216 42.296534, -73.794327 42.295639, -73.794439 42.294744, -73.794550 42.293849, -73.794661 42.292954, -73.794773 42.292059, -73.794884 42.291164, -73.794995 42.290269, -73.795107 42.289375, -73.795218 42.288480, -73.795329 42.287585, -73.795440 42.286690, -73.795552 42.285795, -73.795663 42.284900, -73.795774 42.284005, -73.795885 42.283110, -73.795997 42.282216, -73.796108 42.281321, -73.796219 42.280426, -73.796330 42.279531, -73.796442 42.278636, -73.796553 42.277741, -73.796664 42.276846, -73.796775 42.275951, -73.796887 42.275057, -73.796998 42.274162, -73.797109 42.273267, -73.797220 42.272372, -73.797332 42.271477, -73.797443 42.270582, -73.797554 42.269687, -73.797665 42.268792, -73.797776 42.267898, -73.797888 42.267003, -73.797999 42.266108, -73.798110 42.265213, -73.798221 42.264318, -73.798332 42.263423, -73.798444 42.262528, -73.798555 42.261633, -73.798666 42.260739, -73.798777 42.259844, -73.798888 42.258949, -73.799000 42.258054, -73.799111 42.257159, -73.799222 42.256264, -73.799333 42.255369, -73.799444 42.254474, -73.799555 42.253580, -73.799667 42.252685, -73.799778 42.251790, -73.799889 42.250895, -73.800000 42.250000, -73.800423 42.249158, -73.800846 42.248316, -73.801270 42.247475, -73.801693 42.246633, -73.802116 42.245791, -73.802539 42.244949, -73.802962 42.244107, -73.803385 42.243265, -73.803808 42.242424, -73.804231 42.241582, -73.804654 42.240740, -73.805077 42.239898, -73.805500 42.239056, -73.805923 42.238214, -73.806346 42.237373, -73.806769 42.236531, -73.807192 42.235689, -73.807615 42.234847, -73.808038 42.234005, -73.808461 42.233163, -73.808884 42.232322, -73.809307 42.231480, -73.809730 42.230638, -73.810153 42.229796, -73.810576 42.228954, -73.810999 42.228112, -73.811422 42.227271, -73.811845 42.226429, -73.812268 42.225587, -73.812690 42.224745, -73.813113 42.223903, -73.813536 42.223061, -73.813959 42.222219, -73.814382 42.221378, -73.814805 42.220536, -73.815227 42.219694, -73.815650 42.218852, -73.816073 42.218010, -73.816496 42.217168, -73.816918 42.216326, -73.817341 42.215484, -73.817764 42.214643, -73.818186 42.213801, -73.818609 42.212959, -73.819032 42.212117, -73.819455 42.211275, -73.819877 42.210433, -73.820300 42.209591, -73.820722 42.208749, -73.821145 42.207907, -73.821568 42.207066, -73.821990 42.206224, -73.822413 42.205382, -73.822835 42.204540, -73.823258 42.203698, -73.823681 42.202856, -73.824103 42.202014, -73.824526 42.201172, -73.824948 42.200330, -73.825371 42.199488, -73.825793 42.198647, -73.826216 42.197805, -73.826638 42.196963, -73.827061 42.196121, -73.827483 42.195279, -73.827906 42.194437, -73.828328 42.193595, -73.828750 42.192753, -73.829173 42.191911, -73.829595 42.191069, -73.830018 42.190227, -73.830440 42.189386, -73.830862 42.188544, -73.831285 42.187702, -73.831707 42.186860, -73.832129 42.186018, -73.832552 42.185176, -73.832974 42.184334, -73.833396 42.183492, -73.833819 42.182650, -73.834241 42.181808, -73.834663 42.180966, -73.835085 42.180124, -73.835508 42.179282, -73.835930 42.178440, -73.836352 42.177598, -73.836774 42.176756, -73.837197 42.175915, -73.837619 42.175073, -73.838041 42.174231, -73.838463 42.173389, -73.838885 42.172547, -73.839307 42.171705, -73.839729 42.170863, -73.840152 42.170021, -73.840574 42.169179, -73.840996 42.168337, -73.841418 42.167495, -73.841840 42.166653, -73.842262 42.165811, -73.842684 42.164969, -73.843106 42.164127, -73.843528 42.163285, -73.843950 42.162443, -73.844372 42.161601, -73.844794 42.160759, -73.845216 42.159917, -73.845638 42.159075, -73.846060 42.158233, -73.846482 42.157391, -73.846904 42.156549, -73.847326 42.155707, -73.847748 42.154865, -73.848170 42.154023, -73.848592 42.153181, -73.849014 42.152339, -73.849435 42.151497, -73.849857 42.150655, -73.850279 42.149813, -73.850701 42.148971, -73.851123 42.148129, -73.851545 42.147287, -73.851966 42.146445, -73.852388 42.145603, -73.852810 42.144761, -73.853232 42.143919, -73.853653 42.143077, -73.854075 42.142235, -73.854497 42.141393, -73.854919 42.140551, -73.855340 42.139709, -73.855762 42.138867, -73.856184 42.138025, -73.856605 42.137183, -73.857027 42.136341, -73.857449 42.135499, -73.857870 42.134657, -73.858292 42.133815, -73.858714 42.132973, -73.859135 42.132131, -73.859557 42.131289, -73.859979 42.130447, -73.860400 42.129605, -73.860822 42.128763, -73.861243 42.127921, -73.861665 42.127079, -73.862086 42.126237, -73.862508 42.125395, -73.862929 42.124553, -73.863351 42.123711, -73.863772 42.122869, -73.864194 42.122027, -73.864615 42.121185, -73.865037 42.120343, -73.865458 42.119501, -73.865880 42.118658, -73.866301 42.117816, -73.866722 42.116974, -73.867144 42.116132, -73.867565 42.115290, -73.867987 42.114448, -73.868408 42.113606, -73.868829 42.112764, -73.869251 42.111922, -73.869672 42.111080, -73.870093 42.110238, -73.870515 42.109396, -73.870936 42.108554, -73.871357 42.107712, -73.871779 42.106870, -73.872200 42.106028, -73.872621 42.105185, -73.873042 42.104343, -73.873464 42.103501, -73.873885 42.102659, -73.874306 42.101817, -73.874727 42.100975, -73.875148 42.100133, -73.875570 42.099291, -73.875991 42.098449, -73.876412 42.097607, -73.876833 42.096765, -73.877254 42.095922, -73.877675 42.095080, -73.878096 42.094238, -73.878518 42.093396, -73.878939 42.092554, -73.879360 42.091712, -73.879781 42.090870, -73.880202 42.090028, -73.880623 42.089186, -73.881044 42.088344, -73.881465 42.087501, -73.881886 42.086659, -73.882307 42.085817, -73.882728 42.084975, -73.883149 42.084133, -73.883570 42.083291, -73.883991 42.082449, -73.884412 42.081607, -73.884833 42.080765, -73.885254 42.079922, -73.885674 42.079080, -73.886095 42.078238, -73.886516 42.077396, -73.886937 42.076554, -73.887358 42.075712, -73.887779 42.074870, -73.888200 42.074027, -73.888621 42.073185, -73.889041 42.072343, -73.889462 42.071501, -73.889883 42.070659, -73.890304 42.069817, -73.890725 42.068975, -73.891145 42.068133, -73.891566 42.067290, -73.891987 42.066448, -73.892408 42.065606, -73.892828 42.064764, -73.893249 42.063922, -73.893670 42.063080, -73.894090 42.062237, -73.894511 42.061395, -73.894932 42.060553, -73.895352 42.059711, -73.895773 42.058869, -73.896194 42.058027, -73.896614 42.057184, -73.897035 42.056342, -73.897455 42.055500, -73.897876 42.054658, -73.898297 42.053816, -73.898717 42.052974, -73.899138 42.052131, -73.899558 42.051289, -73.899979 42.050447, -73.900399 42.049605, -73.900820 42.048763, -73.901240 42.047921, -73.901661 42.047078, -73.902081 42.046236, -73.902502 42.045394, -73.902922 42.044552, -73.903343 42.043710, -73.903763 42.042867, -73.904183 42.042025, -73.904604 42.041183, -73.905024 42.040341, -73.905445 42.039499, -73.905865 42.038656, -73.906285 42.037814, -73.906706 42.036972, -73.907126 42.036130, -73.907546 42.035288, -73.907967 42.034445, -73.908387 42.033603, -73.908807 42.032761, -73.909228 42.031919, -73.909648 42.031077, -73.910068 42.030234, -73.910488 42.029392, -73.910909 42.028550, -73.911329 42.027708, -73.911749 42.026866, -73.912169 42.026023, -73.912589 42.025181, -73.913010 42.024339, -73.913430 42.023497, -73.913850 42.022654, -73.914270 42.021812, -73.914690 42.020970, -73.915110 42.020128, -73.915531 42.019285, -73.915951 42.018443, -73.916371 42.017601, -73.916791 42.016759, -73.917211 42.015917, -73.917631 42.015074, -73.918051 42.014232, -73.918471 42.013390, -73.918891 42.012548, -73.919311 42.011705, -73.919731 42.010863, -73.920151 42.010021, -73.920571 42.009179, -73.920991 42.008336, -73.921411 42.007494, -73.921831 42.006652, -73.922251 42.005810, -73.922671 42.004967, -73.923091 42.004125, -73.923511 42.003283, -73.923931 42.002440, -73.924350 42.001598, -73.924770 42.000756, -73.925190 41.999914, -73.925610 41.999071, -73.926030 41.998229, -73.926450 41.997387, -73.926869 41.996545, -73.927289 41.995702, -73.927709 41.994860, -73.928129 41.994018, -73.928549 41.993175, -73.928968 41.992333, -73.929388 41.991491, -73.929808 41.990649, -73.930228 41.989806, -73.930647 41.988964, -73.931067 41.988122, -73.931487 41.987279, -73.931906 41.986437, -73.932326 41.985595, -73.932746 41.984753, -73.933165 41.983910, -73.933585 41.983068, -73.934005 41.982226, -73.934424 41.981383, -73.934844 41.980541, -73.935264 41.979699, -73.935683 41.978856, -73.936103 41.978014, -73.936522 41.977172, -73.936942 41.976330, -73.937361 41.975487, -73.937781 41.974645, -73.938200 41.973803, -73.938620 41.972960, -73.939039 41.972118, -73.939459 41.971276, -73.939878 41.970433, -73.940298 41.969591, -73.940717 41.968749, -73.941137 41.967906, -73.941556 41.967064, -73.941976 41.966222, -73.942395 41.965379, -73.942814 41.964537, -73.943234 41.963695, -73.943653 41.962852, -73.944072 41.962010, -73.944492 41.961168, -73.944911 41.960325, -73.945330 41.959483, -73.945750 41.958641, -73.946169 41.957798, -73.946588 41.956956, -73.947008 41.956114, -73.947427 41.955271, -73.947846 41.954429, -73.948265 41.953587, -73.948685 41.952744, -73.949104 41.951902, -73.949523 41.951059, -73.949942 41.950217, -73.950362 41.949375, -73.950781 41.948532, -73.951200 41.947690, -73.951619 41.946848, -73.952038 41.946005, -73.952457 41.945163, -73.952876 41.944321, -73.953296 41.943478, -73.953715 41.942636, -73.954134 41.941793, -73.954553 41.940951, -73.954972 41.940109, -73.955391 41.939266, -73.955810 41.938424, -73.956229 41.937582, -73.956648 41.936739, -73.957067 41.935897, -73.957486 41.935054, -73.957905 41.934212, -73.958324 41.933370, -73.958743 41.932527, -73.959162 41.931685, -73.959581 41.930842, -73.960000 41.930000, -73.959922 41.929105, -73.959844 41.928210, -73.959766 41.927315, -73.959688 41.926420, -73.959610 41.925525, -73.959531 41.924630, -73.959453 41.923735, -73.959375 41.922841, -73.959297 41.921946, -73.959219 41.921051, -73.959141 41.920156, -73.959063 41.919261, -73.958985 41.918366, -73.958907 41.917471, -73.958829 41.916576, -73.958751 41.915681, -73.958673 41.914786, -73.958595 41.913891, -73.958516 41.912996, -73.958438 41.912101, -73.958360 41.911206, -73.958282 41.910311, -73.958204 41.909416, -73.958126 41.908522, -73.958048 41.907627, -73.957970 41.906732, -73.957892 41.905837, -73.957814 41.904942, -73.957736 41.904047, -73.957658 41.903152, -73.957580 41.902257, -73.957502 41.901362, -73.957424 41.900467, -73.957346 41.899572, -73.957268 41.898677, -73.957190 41.897782, -73.957112 41.896887, -73.957034 41.895992, -73.956956 41.895097, -73.956878 41.894203, -73.956800 41.893308, -73.956722 41.892413, -73.956644 41.891518, -73.956566 41.890623, -73.956488 41.889728, -73.956410 41.888833, -73.956332 41.887938, -73.956254 41.887043, -73.956176 41.886148, -73.956098 41.885253, -73.956020 41.884358, -73.955942 41.883463, -73.955864 41.882568, -73.955786 41.881673, -73.955708 41.880779, -73.955630 41.879884, -73.955552 41.878989, -73.955474 41.878094, -73.955396 41.877199, -73.955318 41.876304, -73.955240 41.875409, -73.955162 41.874514, -73.955084 41.873619, -73.955006 41.872724, -73.954928 41.871829, -73.954850 41.870934, -73.954772 41.870039, -73.954694 41.869144, -73.954616 41.868249, -73.954538 41.867354, -73.954460 41.866459, -73.954382 41.865565, -73.954304 41.864670, -73.954227 41.863775, -73.954149 41.862880, -73.954071 41.861985, -73.953993 41.861090, -73.953915 41.860195, -73.953837 41.859300, -73.953759 41.858405, -73.953681 41.857510, -73.953603 41.856615, -73.953525 41.855720, -73.953447 41.854825, -73.953369 41.853930, -73.953291 41.853035, -73.953213 41.852140, -73.953136 41.851246, -73.953058 41.850351, -73.952980 41.849456, -73.952902 41.848561, -73.952824 41.847666, -73.952746 41.846771, -73.952668 41.845876, -73.952590 41.844981, -73.952512 41.844086, -73.952434 41.843191, -73.952357 41.842296, -73.952279 41.841401, -73.952201 41.840506, -73.952123 41.839611, -73.952045 41.838716, -73.951967 41.837821, -73.951889 41.836926, -73.951811 41.836032, -73.951734 41.835137, -73.951656 41.834242, -73.951578 41.833347, -73.951500 41.832452, -73.951422 41.831557, -73.951344 41.830662, -73.951266 41.829767, -73.951189 41.828872, -73.951111 41.827977, -73.951033 41.827082, -73.950955 41.826187, -73.950877 41.825292, -73.950799 41.824397, -73.950721 41.823502, -73.950644 41.822607, -73.950566 41.821712, -73.950488 41.820818, -73.950410 41.819923, -73.950332 41.819028, -73.950254 41.818133, -73.950177 41.817238, -73.950099 41.816343, -73.950021 41.815448, -73.949943 41.814553, -73.949865 41.813658, -73.949787 41.812763, -73.949710 41.811868, -73.949632 41.810973, -73.949554 41.810078, -73.949476 41.809183, -73.949398 41.808288, -73.949321 41.807393, -73.949243 41.806498, -73.949165 41.805604, -73.949087 41.804709, -73.949009 41.803814, -73.948932 41.802919, -73.948854 41.802024, -73.948776 41.801129, -73.948698 41.800234, -73.948621 41.799339, -73.948543 41.798444, -73.948465 41.797549, -73.948387 41.796654, -73.948309 41.795759, -73.948232 41.794864, -73.948154 41.793969, -73.948076 41.793074, -73.947998 41.792179, -73.947921 41.791284, -73.947843 41.790390, -73.947765 41.789495, -73.947687 41.788600, -73.947610 41.787705, -73.947532 41.786810, -73.947454 41.785915, -73.947376 41.785020, -73.947299 41.784125, -73.947221 41.783230, -73.947143 41.782335, -73.947065 41.781440, -73.946988 41.780545, -73.946910 41.779650, -73.946832 41.778755, -73.946754 41.777860, -73.946677 41.776965, -73.946599 41.776070, -73.946521 41.775175, -73.946443 41.774281, -73.946366 41.773386, -73.946288 41.772491, -73.946210 41.771596, -73.946133 41.770701, -73.946055 41.769806, -73.945977 41.768911, -73.945899 41.768016, -73.945822 41.767121, -73.945744 41.766226, -73.945666 41.765331, -73.945589 41.764436, -73.945511 41.763541, -73.945433 41.762646, -73.945356 41.761751, -73.945278 41.760856, -73.945200 41.759961, -73.945122 41.759066, -73.945045 41.758172, -73.944967 41.757277, -73.944889 41.756382, -73.944812 41.755487, -73.944734 41.754592, -73.944656 41.753697, -73.944579 41.752802, -73.944501 41.751907, -73.944423 41.751012, -73.944346 41.750117, -73.944268 41.749222, -73.944190 41.748327, -73.944113 41.747432, -73.944035 41.746537, -73.943957 41.745642, -73.943880 41.744747, -73.943802 41.743852, -73.943725 41.742957, -73.943647 41.742063, -73.943569 41.741168, -73.943492 41.740273, -73.943414 41.739378, -73.943336 41.738483, -73.943259 41.737588, -73.943181 41.736693, -73.943103 41.735798, -73.943026 41.734903, -73.942948 41.734008, -73.942871 41.733113, -73.942793 41.732218, -73.942715 41.731323, -73.942638 41.730428, -73.942560 41.729533, -73.942482 41.728638, -73.942405 41.727743, -73.942327 41.726848, -73.942250 41.725953, -73.942172 41.725059, -73.942094 41.724164, -73.942017 41.723269, -73.941939 41.722374, -73.941862 41.721479, -73.941784 41.720584, -73.941706 41.719689, -73.941629 41.718794, -73.941551 41.717899, -73.941474 41.717004, -73.941396 41.716109, -73.941319 41.715214, -73.941241 41.714319, -73.941163 41.713424, -73.941086 41.712529, -73.941008 41.711634, -73.940931 41.710739, -73.940853 41.709844, -73.940776 41.708949, -73.940698 41.708055, -73.940620 41.707160, -73.940543 41.706265, -73.940465 41.705370, -73.940388 41.704475, -73.940310 41.703580, -73.940233 41.702685, -73.940155 41.701790, -73.940078 41.700895, -73.940000 41.700000, -73.940058 41.699104, -73.940116 41.698208, -73.940174 41.697312, -73.940232 41.696416, -73.940290 41.695520, -73.940348 41.694624, -73.940407 41.693728, -73.940465 41.692832, -73.940523 41.691936, -73.940581 41.691041, -73.940639 41.690145, -73.940697 41.689249, -73.940755 41.688353, -73.940813 41.687457, -73.940871 41.686561, -73.940929 41.685665, -73.940987 41.684769, -73.941045 41.683873, -73.941103 41.682977, -73.941161 41.682081, -73.941219 41.681185, -73.941277 41.680289, -73.941335 41.679393, -73.941393 41.678497, -73.941452 41.677601, -73.941510 41.676705, -73.941568 41.675809, -73.941626 41.674913, -73.941684 41.674017, -73.941742 41.673122, -73.941800 41.672226, -73.941858 41.671330, -73.941916 41.670434, -73.941974 41.669538, -73.942032 41.668642, -73.942090 41.667746, -73.942148 41.666850, -73.942206 41.665954, -73.942264 41.665058, -73.942322 41.664162, -73.942380 41.663266, -73.942438 41.662370, -73.942496 41.661474, -73.942554 41.660578, -73.942612 41.659682, -73.942670 41.658786, -73.942728 41.657890, -73.942786 41.656994, -73.942844 41.656098, -73.942902 41.655203, -73.942960 41.654307, -73.943018 41.653411, -73.943076 41.652515, -73.943134 41.651619, -73.943192 41.650723, -73.943250 41.649827, -73.943308 41.648931, -73.943366 41.648035, -73.943424 41.647139, -73.943482 41.646243, -73.943540 41.645347, -73.943598 41.644451, -73.943656 41.643555, -73.943714 41.642659, -73.943772 41.641763, -73.943830 41.640867, -73.943888 41.639971, -73.943946 41.639075, -73.944004 41.638179, -73.944062 41.637284, -73.944120 41.636388, -73.944178 41.635492, -73.944236 41.634596, -73.944294 41.633700, -73.944352 41.632804, -73.944410 41.631908, -73.944467 41.631012, -73.944525 41.630116, -73.944583 41.629220, -73.944641 41.628324, -73.944699 41.627428, -73.944757 41.626532, -73.944815 41.625636, -73.944873 41.624740, -73.944931 41.623844, -73.944989 41.622948, -73.945047 41.622052, -73.945105 41.621156, -73.945163 41.620260, -73.945221 41.619364, -73.945279 41.618469, -73.945337 41.617573, -73.945395 41.616677, -73.945453 41.615781, -73.945510 41.614885, -73.945568 41.613989, -73.945626 41.613093, -73.945684 41.612197, -73.945742 41.611301, -73.945800 41.610405, -73.945858 41.609509, -73.945916 41.608613, -73.945974 41.607717, -73.946032 41.606821, -73.946090 41.605925, -73.946148 41.605029, -73.946205 41.604133, -73.946263 41.603237, -73.946321 41.602341, -73.946379 41.601445, -73.946437 41.600550, -73.946495 41.599654, -73.946553 41.598758, -73.946611 41.597862, -73.946669 41.596966, -73.946727 41.596070, -73.946784 41.595174, -73.946842 41.594278, -73.946900 41.593382, -73.946958 41.592486, -73.947016 41.591590, -73.947074 41.590694, -73.947132 41.589798, -73.947190 41.588902, -73.947248 41.588006, -73.947305 41.587110, -73.947363 41.586214, -73.947421 41.585318, -73.947479 41.584422, -73.947537 41.583526, -73.947595 41.582630, -73.947653 41.581735, -73.947711 41.580839, -73.947768 41.579943, -73.947826 41.579047, -73.947884 41.578151, -73.947942 41.577255, -73.948000 41.576359, -73.948058 41.575463, -73.948116 41.574567, -73.948173 41.573671, -73.948231 41.572775, -73.948289 41.571879, -73.948347 41.570983, -73.948405 41.570087, -73.948463 41.569191, -73.948521 41.568295, -73.948578 41.567399, -73.948636 41.566503, -73.948694 41.565607, -73.948752 41.564711, -73.948810 41.563815, -73.948868 41.562920, -73.948925 41.562024, -73.948983 41.561128, -73.949041 41.560232, -73.949099 41.559336, -73.949157 41.558440, -73.949215 41.557544, -73.949272 41.556648, -73.949330 41.555752, -73.949388 41.554856, -73.949446 41.553960, -73.949504 41.553064, -73.949561 41.552168, -73.949619 41.551272, -73.949677 41.550376, -73.949735 41.549480, -73.949793 41.548584, -73.949851 41.547688, -73.949908 41.546792, -73.949966 41.545896, -73.950024 41.545000, -73.950082 41.544104, -73.950140 41.543209, -73.950197 41.542313, -73.950255 41.541417, -73.950313 41.540521, -73.950371 41.539625, -73.950429 41.538729, -73.950486 41.537833, -73.950544 41.536937, -73.950602 41.536041, -73.950660 41.535145, -73.950717 41.534249, -73.950775 41.533353, -73.950833 41.532457, -73.950891 41.531561, -73.950949 41.530665, -73.951006 41.529769, -73.951064 41.528873, -73.951122 41.527977, -73.951180 41.527081, -73.951237 41.526185, -73.951295 41.525289, -73.951353 41.524393, -73.951411 41.523498, -73.951469 41.522602, -73.951526 41.521706, -73.951584 41.520810, -73.951642 41.519914, -73.951700 41.519018, -73.951757 41.518122, -73.951815 41.517226, -73.951873 41.516330, -73.951931 41.515434, -73.951988 41.514538, -73.952046 41.513642, -73.952104 41.512746, -73.952162 41.511850, -73.952219 41.510954, -73.952277 41.510058, -73.952335 41.509162, -73.952393 41.508266, -73.952450 41.507370, -73.952508 41.506474, -73.952566 41.505578, -73.952623 41.504682, -73.952681 41.503787, -73.952739 41.502891, -73.952797 41.501995, -73.952854 41.501099, -73.952912 41.500203, -73.952970 41.499307, -73.953028 41.498411, -73.953085 41.497515, -73.953143 41.496619, -73.953201 41.495723, -73.953258 41.494827, -73.953316 41.493931, -73.953374 41.493035, -73.953432 41.492139, -73.953489 41.491243, -73.953547 41.490347, -73.953605 41.489451, -73.953662 41.488555, -73.953720 41.487659, -73.953778 41.486763, -73.953835 41.485867, -73.953893 41.484971, -73.953951 41.484076, -73.954009 41.483180, -73.954066 41.482284, -73.954124 41.481388, -73.954182 41.480492, -73.954239 41.479596, -73.954297 41.478700, -73.954355 41.477804, -73.954412 41.476908, -73.954470 41.476012, -73.954528 41.475116, -73.954585 41.474220, -73.954643 41.473324, -73.954701 41.472428, -73.954758 41.471532, -73.954816 41.470636, -73.954874 41.469740, -73.954931 41.468844, -73.954989 41.467948, -73.955047 41.467052, -73.955104 41.466156, -73.955162 41.465260, -73.955220 41.464364, -73.955277 41.463469, -73.955335 41.462573, -73.955393 41.461677, -73.955450 41.460781, -73.955508 41.459885, -73.955566 41.458989, -73.955623 41.458093, -73.955681 41.457197, -73.955739 41.456301, -73.955796 41.455405, -73.955854 41.454509, -73.955912 41.453613, -73.955969 41.452717, -73.956027 41.451821, -73.956084 41.450925, -73.956142 41.450029, -73.956200 41.449133, -73.956257 41.448237, -73.956315 41.447341, -73.956373 41.446445, -73.956430 41.445549, -73.956488 41.444653, -73.956546 41.443757, -73.956603 41.442862, -73.956661 41.441966, -73.956718 41.441070, -73.956776 41.440174, -73.956834 41.439278, -73.956891 41.438382, -73.956949 41.437486, -73.957006 41.436590, -73.957064 41.435694, -73.957122 41.434798, -73.957179 41.433902, -73.957237 41.433006, -73.957294 41.432110, -73.957352 41.431214, -73.957410 41.430318, -73.957467 41.429422, -73.957525 41.428526, -73.957582 41.427630, -73.957640 41.426734, -73.957698 41.425838, -73.957755 41.424942, -73.957813 41.424046, -73.957870 41.423150, -73.957928 41.422254, -73.957986 41.421359, -73.958043 41.420463, -73.958101 41.419567, -73.958158 41.418671, -73.958216 41.417775, -73.958273 41.416879, -73.958331 41.415983, -73.958389 41.415087, -73.958446 41.414191, -73.958504 41.413295, -73.958561 41.412399, -73.958619 41.411503, -73.958676 41.410607, -73.958734 41.409711, -73.958792 41.408815, -73.958849 41.407919, -73.958907 41.407023, -73.958964 41.406127, -73.959022 41.405231, -73.959079 41.404335, -73.959137 41.403439, -73.959194 41.402543, -73.959252 41.401647, -73.959310 41.400752, -73.959367 41.399856, -73.959425 41.398960, -73.959482 41.398064, -73.959540 41.397168, -73.959597 41.396272, -73.959655 41.395376, -73.959712 41.394480, -73.959770 41.393584, -73.959827 41.392688, -73.959885 41.391792, -73.959942 41.390896, -73.960000 41.390000, -73.960103 41.389105, -73.960207 41.388210, -73.960310 41.387315, -73.960414 41.386420, -73.960517 41.385524, -73.960620 41.384629, -73.960724 41.383734, -73.960827 41.382839, -73.960930 41.381944, -73.961034 41.381049, -73.961137 41.380154, -73.961241 41.379259, -73.961344 41.378364, -73.961447 41.377469, -73.961551 41.376573, -73.961654 41.375678, -73.961757 41.374783, -73.961861 41.373888, -73.961964 41.372993, -73.962067 41.372098, -73.962171 41.371203, -73.962274 41.370308, -73.962377 41.369413, -73.962481 41.368517, -73.962584 41.367622, -73.962687 41.366727, -73.962791 41.365832, -73.962894 41.364937, -73.962997 41.364042, -73.963101 41.363147, -73.963204 41.362252, -73.963307 41.361357, -73.963411 41.360461, -73.963514 41.359566, -73.963617 41.358671, -73.963720 41.357776, -73.963824 41.356881, -73.963927 41.355986, -73.964030 41.355091, -73.964134 41.354196, -73.964237 41.353301, -73.964340 41.352406, -73.964443 41.351510, -73.964547 41.350615, -73.964650 41.349720, -73.964753 41.348825, -73.964857 41.347930, -73.964960 41.347035, -73.965063 41.346140, -73.965166 41.345245, -73.965270 41.344350, -73.965373 41.343454, -73.965476 41.342559, -73.965579 41.341664, -73.965683 41.340769, -73.965786 41.339874, -73.965889 41.338979, -73.965992 41.338084, -73.966096 41.337189, -73.966199 41.336294, -73.966302 41.335398, -73.966405 41.334503, -73.966508 41.333608, -73.966612 41.332713, -73.966715 41.331818, -73.966818 41.330923, -73.966921 41.330028, -73.967025 41.329133, -73.967128 41.328238, -73.967231 41.327342, -73.967334 41.326447, -73.967437 41.325552, -73.967540 41.324657, -73.967644 41.323762, -73.967747 41.322867, -73.967850 41.321972, -73.967953 41.321077, -73.968056 41.320182, -73.968160 41.319286, -73.968263 41.318391, -73.968366 41.317496, -73.968469 41.316601, -73.968572 41.315706, -73.968675 41.314811, -73.968779 41.313916, -73.968882 41.313021, -73.968985 41.312126, -73.969088 41.311230, -73.969191 41.310335, -73.969294 41.309440, -73.969397 41.308545, -73.969501 41.307650, -73.969604 41.306755, -73.969707 41.305860, -73.969810 41.304965, -73.969913 41.304069, -73.970016 41.303174, -73.970119 41.302279, -73.970222 41.301384, -73.970326 41.300489, -73.970429 41.299594, -73.970532 41.298699, -73.970635 41.297804, -73.970738 41.296909, -73.970841 41.296013, -73.970944 41.295118, -73.971047 41.294223, -73.971150 41.293328, -73.971254 41.292433, -73.971357 41.291538, -73.971460 41.290643, -73.971563 41.289748, -73.971666 41.288853, -73.971769 41.287957, -73.971872 41.287062, -73.971975 41.286167, -73.972078 41.285272, -73.972181 41.284377, -73.972284 41.283482, -73.972387 41.282587, -73.972490 41.281692, -73.972593 41.280796, -73.972696 41.279901, -73.972800 41.279006, -73.972903 41.278111, -73.973006 41.277216, -73.973109 41.276321, -73.973212 41.275426, -73.973315 41.274531, -73.973418 41.273636, -73.973521 41.272740, -73.973624 41.271845, -73.973727 41.270950, -73.973830 41.270055, -73.973933 41.269160, -73.974036 41.268265, -73.974139 41.267370, -73.974242 41.266475, -73.974345 41.265580, -73.974448 41.264684, -73.974551 41.263789, -73.974654 41.262894, -73.974757 41.261999, -73.974860 41.261104, -73.974963 41.260209, -73.975066 41.259314, -73.975169 41.258419, -73.975272 41.257523, -73.975375 41.256628, -73.975478 41.255733, -73.975581 41.254838, -73.975684 41.253943, -73.975787 41.253048, -73.975890 41.252153, -73.975993 41.251258, -73.976096 41.250362, -73.976199 41.249467, -73.976301 41.248572, -73.976404 41.247677, -73.976507 41.246782, -73.976610 41.245887, -73.976713 41.244992, -73.976816 41.244097, -73.976919 41.243202, -73.977022 41.242306, -73.977125 41.241411, -73.977228 41.240516, -73.977331 41.239621, -73.977434 41.238726, -73.977537 41.237831, -73.977640 41.236936, -73.977743 41.236041, -73.977845 41.235145, -73.977948 41.234250, -73.978051 41.233355, -73.978154 41.232460, -73.978257 41.231565, -73.978360 41.230670, -73.978463 41.229775, -73.978566 41.228880, -73.978669 41.227984, -73.978771 41.227089, -73.978874 41.226194, -73.978977 41.225299, -73.979080 41.224404, -73.979183 41.223509, -73.979286 41.222614, -73.979389 41.221719, -73.979492 41.220824, -73.979594 41.219928, -73.979697 41.219033, -73.979800 41.218138, -73.979903 41.217243, -73.980006 41.216348, -73.980109 41.215453, -73.980212 41.214558, -73.980314 41.213663, -73.980417 41.212767, -73.980520 41.211872, -73.980623 41.210977, -73.980726 41.210082, -73.980829 41.209187, -73.980931 41.208292, -73.981034 41.207397, -73.981137 41.206502, -73.981240 41.205606, -73.981343 41.204711, -73.981445 41.203816, -73.981548 41.202921, -73.981651 41.202026, -73.981754 41.201131, -73.981857 41.200236, -73.981959 41.199341, -73.982062 41.198445, -73.982165 41.197550, -73.982268 41.196655, -73.982371 41.195760, -73.982473 41.194865, -73.982576 41.193970, -73.982679 41.193075, -73.982782 41.192180, -73.982885 41.191284, -73.982987 41.190389, -73.983090 41.189494, -73.983193 41.188599, -73.983296 41.187704, -73.983398 41.186809, -73.983501 41.185914, -73.983604 41.185019, -73.983707 41.184123, -73.983809 41.183228, -73.983912 41.182333, -73.984015 41.181438, -73.984118 41.180543, -73.984220 41.179648, -73.984323 41.178753, -73.984426 41.177858, -73.984529 41.176962, -73.984631 41.176067, -73.984734 41.175172, -73.984837 41.174277, -73.984939 41.173382, -73.985042 41.172487, -73.985145 41.171592, -73.985248 41.170697, -73.985350 41.169801, -73.985453 41.168906, -73.985556 41.168011, -73.985658 41.167116, -73.985761 41.166221, -73.985864 41.165326, -73.985966 41.164431, -73.986069 41.163535, -73.986172 41.162640, -73.986274 41.161745, -73.986377 41.160850, -73.986480 41.159955, -73.986582 41.159060, -73.986685 41.158165, -73.986788 41.157270, -73.986890 41.156374, -73.986993 41.155479, -73.987096 41.154584, -73.987198 41.153689, -73.987301 41.152794, -73.987404 41.151899, -73.987506 41.151004, -73.987609 41.150109, -73.987712 41.149213, -73.987814 41.148318, -73.987917 41.147423, -73.988020 41.146528, -73.988122 41.145633, -73.988225 41.144738, -73.988327 41.143843, -73.988430 41.142948, -73.988533 41.142052, -73.988635 41.141157, -73.988738 41.140262, -73.988840 41.139367, -73.988943 41.138472, -73.989046 41.137577, -73.989148 41.136682, -73.989251 41.135786, -73.989353 41.134891, -73.989456 41.133996, -73.989559 41.133101, -73.989661 41.132206, -73.989764 41.131311, -73.989866 41.130416, -73.989969 41.129521, -73.990072 41.128625, -73.990174 41.127730, -73.990277 41.126835, -73.990379 41.125940, -73.990482 41.125045, -73.990584 41.124150, -73.990687 41.123255, -73.990790 41.122359, -73.990892 41.121464, -73.990995 41.120569, -73.991097 41.119674, -73.991200 41.118779, -73.991302 41.117884, -73.991405 41.116989, -73.991507 41.116094, -73.991610 41.115198, -73.991712 41.114303, -73.991815 41.113408, -73.991917 41.112513, -73.992020 41.111618, -73.992122 41.110723, -73.992225 41.109828, -73.992328 41.108932, -73.992430 41.108037, -73.992533 41.107142, -73.992635 41.106247, -73.992738 41.105352, -73.992840 41.104457, -73.992943 41.103562, -73.993045 41.102667, -73.993148 41.101771, -73.993250 41.100876, -73.993353 41.099981, -73.993455 41.099086, -73.993557 41.098191, -73.993660 41.097296, -73.993762 41.096401, -73.993865 41.095505, -73.993967 41.094610, -73.994070 41.093715, -73.994172 41.092820, -73.994275 41.091925, -73.994377 41.091030, -73.994480 41.090135, -73.994582 41.089240, -73.994685 41.088344, -73.994787 41.087449, -73.994889 41.086554, -73.994992 41.085659, -73.995094 41.084764, -73.995197 41.083869, -73.995299 41.082974, -73.995402 41.082078, -73.995504 41.081183, -73.995606 41.080288, -73.995709 41.079393, -73.995811 41.078498, -73.995914 41.077603, -73.996016 41.076708, -73.996119 41.075812, -73.996221 41.074917, -73.996323 41.074022, -73.996426 41.073127, -73.996528 41.072232, -73.996631 41.071337, -73.996733 41.070442, -73.996835 41.069547, -73.996938 41.068651, -73.997040 41.067756, -73.997143 41.066861, -73.997245 41.065966, -73.997347 41.065071, -73.997450 41.064176, -73.997552 41.063281, -73.997654 41.062385, -73.997757 41.061490, -73.997859 41.060595, -73.997961 41.059700, -73.998064 41.058805, -73.998166 41.057910, -73.998269 41.057015, -73.998371 41.056119, -73.998473 41.055224, -73.998576 41.054329, -73.998678 41.053434, -73.998780 41.052539, -73.998883 41.051644, -73.998985 41.050749, -73.999087 41.049853, -73.999190 41.048958, -73.999292 41.048063, -73.999394 41.047168, -73.999497 41.046273, -73.999599 41.045378, -73.999701 41.044483, -73.999803 41.043587, -73.999906 41.042692, -74.000008 41.041797, -74.000110 41.040902, -74.000213 41.040007, -74.000315 41.039112, -74.000417 41.038217, -74.000520 41.037321, -74.000622 41.036426, -74.000724 41.035531, -74.000826 41.034636, -74.000929 41.033741, -74.001031 41.032846, -74.001133 41.031951, -74.001236 41.031056, -74.001338 41.030160, -74.001440 41.029265, -74.001542 41.028370, -74.001645 41.027475, -74.001747 41.026580, -74.001849 41.025685, -74.001951 41.024790, -74.002054 41.023894, -74.002156 41.022999, -74.002258 41.022104, -74.002360 41.021209, -74.002463 41.020314, -74.002565 41.019419, -74.002667 41.018524, -74.002769 41.017628, -74.002872 41.016733, -74.002974 41.015838, -74.003076 41.014943, -74.003178 41.014048, -74.003280 41.013153, -74.003383 41.012258, -74.003485 41.011362, -74.003587 41.010467, -74.003689 41.009572, -74.003791 41.008677, -74.003894 41.007782, -74.003996 41.006887, -74.004098 41.005991, -74.004200 41.005096, -74.004302 41.004201, -74.004405 41.003306, -74.004507 41.002411, -74.004609 41.001516, -74.004711 41.000621, -74.004813 40.999725, -74.004915 40.998830, -74.005018 40.997935, -74.005120 40.997040, -74.005222 40.996145, -74.005324 40.995250, -74.005426 40.994355, -74.005528 40.993459, -74.005631 40.992564, -74.005733 40.991669, -74.005835 40.990774, -74.005937 40.989879, -74.006039 40.988984, -74.006141 40.988089, -74.006243 40.987193, -74.006346 40.986298, -74.006448 40.985403, -74.006550 40.984508, -74.006652 40.983613, -74.006754 40.982718, -74.006856 40.981823, -74.006958 40.980927, -74.007060 40.980032, -74.007163 40.979137, -74.007265 40.978242, -74.007367 40.977347, -74.007469 40.976452, -74.007571 40.975557, -74.007673 40.974661, -74.007775 40.973766, -74.007877 40.972871, -74.007979 40.971976, -74.008081 40.971081, -74.008183 40.970186, -74.008286 40.969291, -74.008388 40.968395, -74.008490 40.967500, -74.008592 40.966605, -74.008694 40.965710, -74.008796 40.964815, -74.008898 40.963920, -74.009000 40.963024, -74.009102 40.962129, -74.009204 40.961234, -74.009306 40.960339, -74.009408 40.959444, -74.009510 40.958549, -74.009612 40.957654, -74.009714 40.956758, -74.009816 40.955863, -74.009918 40.954968, -74.010020 40.954073, -74.010123 40.953178, -74.010225 40.952283, -74.010327 40.951388, -74.010429 40.950492, -74.010531 40.949597, -74.010633 40.948702, -74.010735 40.947807, -74.010837 40.946912, -74.010939 40.946017, -74.011041 40.945121, -74.011143 40.944226, -74.011245 40.943331, -74.011347 40.942436, -74.011449 40.941541, -74.011551 40.940646, -74.011653 40.939751, -74.011755 40.938855, -74.011857 40.937960, -74.011959 40.937065, -74.012061 40.936170, -74.012163 40.935275, -74.012265 40.934380, -74.012366 40.933485, -74.012468 40.932589, -74.012570 40.931694, -74.012672 40.930799, -74.012774 40.929904, -74.012876 40.929009, -74.012978 40.928114, -74.013080 40.927218, -74.013182 40.926323, -74.013284 40.925428, -74.013386 40.924533, -74.013488 40.923638, -74.013590 40.922743, -74.013692 40.921848, -74.013794 40.920952, -74.013896 40.920057, -74.013998 40.919162, -74.014100 40.918267, -74.014201 40.917372, -74.014303 40.916477, -74.014405 40.915581, -74.014507 40.914686, -74.014609 40.913791, -74.014711 40.912896, -74.014813 40.912001, -74.014915 40.911106, -74.015017 40.910211, -74.015119 40.909315, -74.015220 40.908420, -74.015322 40.907525, -74.015424 40.906630, -74.015526 40.905735, -74.015628 40.904840, -74.015730 40.903944, -74.015832 40.903049, -74.015934 40.902154, -74.016036 40.901259, -74.016137 40.900364, -74.016239 40.899469, -74.016341 40.898574, -74.016443 40.897678, -74.016545 40.896783, -74.016647 40.895888, -74.016749 40.894993, -74.016850 40.894098, -74.016952 40.893203, -74.017054 40.892307, -74.017156 40.891412, -74.017258 40.890517, -74.017360 40.889622, -74.017461 40.888727, -74.017563 40.887832, -74.017665 40.886937, -74.017767 40.886041, -74.017869 40.885146, -74.017971 40.884251, -74.018072 40.883356, -74.018174 40.882461, -74.018276 40.881566, -74.018378 40.880670, -74.018480 40.879775, -74.018581 40.878880, -74.018683 40.877985, -74.018785 40.877090, -74.018887 40.876195, -74.018989 40.875299, -74.019090 40.874404, -74.019192 40.873509, -74.019294 40.872614, -74.019396 40.871719, -74.019497 40.870824, -74.019599 40.869929, -74.019701 40.869033, -74.019803 40.868138, -74.019905 40.867243, -74.020006 40.866348, -74.020108 40.865453, -74.020210 40.864558, -74.020312 40.863662, -74.020413 40.862767, -74.020515 40.861872, -74.020617 40.860977, -74.020719 40.860082, -74.020820 40.859187, -74.020922 40.858291, -74.021024 40.857396, -74.021125 40.856501, -74.021227 40.855606, -74.021329 40.854711, -74.021431 40.853816, -74.021532 40.852921, -74.021634 40.852025, -74.021736 40.851130, -74.021838 40.850235, -74.021939 40.849340, -74.022041 40.848445, -74.022143 40.847550, -74.022244 40.846654, -74.022346 40.845759, -74.022448 40.844864, -74.022549 40.843969, -74.022651 40.843074, -74.022753 40.842179, -74.022855 40.841283, -74.022956 40.840388, -74.023058 40.839493, -74.023160 40.838598, -74.023261 40.837703, -74.023363 40.836808, -74.023465 40.835912, -74.023566 40.835017, -74.023668 40.834122, -74.023770 40.833227, -74.023871 40.832332, -74.023973 40.831437, -74.024075 40.830542, -74.024176 40.829646, -74.024278 40.828751, -74.024379 40.827856, -74.024481 40.826961, -74.024583 40.826066, -74.024684 40.825171, -74.024786 40.824275, -74.024888 40.823380, -74.024989 40.822485, -74.025091 40.821590, -74.025193 40.820695, -74.025294 40.819800, -74.025396 40.818904, -74.025497 40.818009, -74.025599 40.817114, -74.025701 40.816219, -74.025802 40.815324, -74.025904 40.814429, -74.026005 40.813533, -74.026107 40.812638, -74.026209 40.811743, -74.026310 40.810848, -74.026412 40.809953, -74.026513 40.809058, -74.026615 40.808162, -74.026717 40.807267, -74.026818 40.806372, -74.026920 40.805477, -74.027021 40.804582, -74.027123 40.803687, -74.027224 40.802791, -74.027326 40.801896, -74.027428 40.801001, -74.027529 40.800106, -74.027631 40.799211, -74.027732 40.798316, -74.027834 40.797420, -74.027935 40.796525, -74.028037 40.795630, -74.028138 40.794735, -74.028240 40.793840, -74.028341 40.792945, -74.028443 40.792049, -74.028545 40.791154, -74.028646 40.790259, -74.028748 40.789364, -74.028849 40.788469, -74.028951 40.787574, -74.029052 40.786678, -74.029154 40.785783, -74.029255 40.784888, -74.029357 40.783993, -74.029458 40.783098, -74.029560 40.782203, -74.029661 40.781307, -74.029763 40.780412, -74.029864 40.779517, -74.029966 40.778622, -74.030067 40.777727, -74.030169 40.776832, -74.030270 40.775936, -74.030372 40.775041, -74.030473 40.774146, -74.030575 40.773251, -74.030676 40.772356, -74.030778 40.771461, -74.030879 40.770565, -74.030980 40.769670, -74.031082 40.768775, -74.031183 40.767880, -74.031285 40.766985, -74.031386 40.766090, -74.031488 40.765194, -74.031589 40.764299, -74.031691 40.763404, -74.031792 40.762509, -74.031894 40.761614, -74.031995 40.760719, -74.032096 40.759823, -74.032198 40.758928, -74.032299 40.758033, -74.032401 40.757138, -74.032502 40.756243, -74.032604 40.755348, -74.032705 40.754452, -74.032806 40.753557, -74.032908 40.752662, -74.033009 40.751767, -74.033111 40.750872, -74.033212 40.749977, -74.033313 40.749081, -74.033415 40.748186, -74.033516 40.747291, -74.033618 40.746396, -74.033719 40.745501, -74.033820 40.744606, -74.033922 40.743710, -74.034023 40.742815, -74.034125 40.741920, -74.034226 40.741025, -74.034327 40.740130, -74.034429 40.739235, -74.034530 40.738339, -74.034631 40.737444, -74.034733 40.736549, -74.034834 40.735654, -74.034935 40.734759, -74.035037 40.733864, -74.035138 40.732968, -74.035240 40.732073, -74.035341 40.731178, -74.035442 40.730283, -74.035544 40.729388, -74.035645 40.728492, -74.035746 40.727597, -74.035848 40.726702, -74.035949 40.725807, -74.036050 40.724912, -74.036152 40.724017, -74.036253 40.723121, -74.036354 40.722226, -74.036456 40.721331, -74.036557 40.720436, -74.036658 40.719541, -74.036760 40.718646, -74.036861 40.717750, -74.036962 40.716855, -74.037063 40.715960, -74.037165 40.715065, -74.037266 40.714170, -74.037367 40.713275, -74.037469 40.712379, -74.037570 40.711484, -74.037671 40.710589, -74.037772 40.709694, -74.037874 40.708799, -74.037975 40.707903, -74.038076 40.707008, -74.038178 40.706113, -74.038279 40.705218, -74.038380 40.704323, -74.038481 40.703428, -74.038583 40.702532, -74.038684 40.701637, -74.038785 40.700742, -74.038886 40.699847, -74.038988 40.698952, -74.039089 40.698057, -74.039190 40.697161, -74.039291 40.696266, -74.039393 40.695371, -74.039494 40.694476, -74.039595 40.693581, -74.039696 40.692686, -74.039798 40.691790, -74.039899 40.690895, -74.040000 40.690000))
