LINESTRING (-60.950000 -12.520000, -60.949765 -12.518594, -60.949530 -12.517188, -60.949295 -12.515781, -60.949060 -12.514375, -60.948825 -12.512969, -60.948590 -12.511563, -60.948355 -12.510157, -60.948120 -12.508750, -60.947885 -12.507344, -60.947650 -12.505938, -60.947415 -12.504532, -60.947180 -12.503126, -60.946945 -12.501719, -60.946710 -12.500313, -60.946475 -12.498907, -60.946240 -12.497501, -60.946005 -12.496095, -60.945770 -12.494688, -60.945535 -12.493282, -60.945300 -12.491876, -60.945065 -12.490470, -60.944830 -12.489064, -60.944595 -12.487657, -60.944360 -12.486251, -60.944125 -12.484845, -60.943890 -12.483439, -60.943655 -12.482033, -60.943421 -12.480626, -60.943186 -12.479220, -60.942951 -12.477814, -60.942716 -12.476408, -60.942481 -12.475002, -60.942246 -12.473595, -60.942011 -12.472189, -60.941776 -12.470783, -60.941541 -12.469377, -60.941306 -12.467971, -60.941071 -12.466564, -60.940836 -12.465158, -60.940601 -12.463752, -60.940366 -12.462346, -60.940132 -12.460939, -60.939897 -12.459533, -60.939662 -12.458127, -60.939427 -12.456721, -60.939192 -12.455315, -60.938957 -12.453908, -60.938722 -12.452502, -60.938487 -12.451096, -60.938252 -12.449690, -60.938017 -12.448284, -60.937783 -12.446877, -60.937548 -12.445471, -60.937313 -12.444065, -60.937078 -12.442659, -60.936843 -12.441253, -60.936608 -12.439846, -60.936373 -12.438440, -60.936138 -12.437034, -60.935904 -12.435628, -60.935669 -12.434221, -60.935434 -12.432815, -60.935199 -12.431409, -60.934964 -12.430003, -60.934729 -12.428597, -60.934494 -12.427190, -60.934260 -12.425784, -60.934025 -12.424378, -60.933790 -12.422972, -60.933555 -12.421566, -60.933320 -12.420159, -60.933085 -12.418753, -60.932851 -12.417347, -60.932616 -12.415941, -60.932381 -12.414535, -60.932146 -12.413128, -60.931911 -12.411722, -60.931676 -12.410316, -60.931442 -12.408910, -60.931207 -12.407503, -60.930972 -12.406097, -60.930737 -12.404691, -60.930502 -12.403285, -60.930268 -12.401879, -60.930033 -12.400472, -60.929798 -12.399066, -60.929563 -12.397660, -60.929328 -12.396254, -60.929094 -12.394847, -60.928859 -12.393441, -60.928624 -12.392035, -60.928389 -12.390629, -60.928154 -12.389223, -60.927920 -12.387816, -60.927685 -12.386410, -60.927450 -12.385004, -60.927215 -12.383598, -60.926981 -12.382192, -60.926746 -12.380785, -60.926511 -12.379379, -60.926276 -12.377973, -60.926042 -12.376567, -60.925807 -12.375160, -60.925572 -12.373754, -60.925337 -12.372348, -60.925103 -12.370942, -60.924868 -12.369536, -60.924633 -12.368129, -60.924398 -12.366723, -60.924164 -12.365317, -60.923929 -12.363911, -60.923694 -12.362504, -60.923459 -12.361098, -60.923225 -12.359692, -60.922990 -12.358286, -60.922755 -12.356880, -60.922520 -12.355473, -60.922286 -12.354067, -60.922051 -12.352661, -60.921816 -12.351255, -60.921582 -12.349848, -60.921347 -12.348442, -60.921112 -12.347036, -60.920878 -12.345630, -60.920643 -12.344224, -60.920408 -12.342817, -60.920173 -12.341411, -60.919939 -12.340005, -60.919704 -12.338599, -60.919469 -12.337192, -60.919235 -12.335786, -60.919000 -12.334380, -60.918765 -12.332974, -60.918531 -12.331568, -60.918296 -12.330161, -60.918061 -12.328755, -60.917827 -12.327349, -60.917592 -12.325943, -60.917357 -12.324536, -60.917123 -12.323130, -60.916888 -12.321724, -60.916653 -12.320318, -60.916419 -12.318911, -60.916184 -12.317505, -60.915949 -12.316099, -60.915715 -12.314693, -60.915480 -12.313287, -60.915245 -12.311880, -60.915011 -12.310474, -60.914776 -12.309068, -60.914541 -12.307662, -60.914307 -12.306255, -60.914072 -12.304849, -60.913838 -12.303443, -60.913603 -12.302037, -60.913368 -12.300631, -60.913134 -12.299224, -60.912899 -12.297818, -60.912665 -12.296412, -60.912430 -12.295006, -60.912195 -12.293599, -60.911961 -12.292193, -60.911726 -12.290787, -60.911491 -12.289381, -60.911257 -12.287974, -60.911022 -12.286568, -60.910788 -12.285162, -60.910553 -12.283756, -60.910319 -12.282349, -60.910084 -12.280943, -60.909849 -12.279537, -60.909615 -12.278131, -60.909380 -12.276725, -60.909146 -12.275318, -60.908911 -12.273912, -60.908676 -12.272506, -60.908442 -12.271100, -60.908207 -12.269693, -60.907973 -12.268287, -60.907738 -12.266881, -60.907504 -12.265475, -60.907269 -12.264068, -60.907035 -12.262662, -60.906800 -12.261256, -60.906565 -12.259850, -60.906331 -12.258444, -60.906096 -12.257037, -60.905862 -12.255631, -60.905627 -12.254225, -60.905393 -12.252819, -60.905158 -12.251412, -60.904924 -12.250006, -60.904689 -12.248600, -60.904455 -12.247194, -60.904220 -12.245787, -60.903986 -12.244381, -60.903751 -12.242975, -60.903516 -12.241569, -60.903282 -12.240162, -60.903047 -12.238756, -60.902813 -12.237350, -60.902578 -12.235944, -60.902344 -12.234537, -60.902109 -12.233131, -60.901875 -12.231725, -60.901640 -12.230319, -60.901406 -12.228912, -60.901171 -12.227506, -60.900937 -12.226100, -60.900702 -12.224694, -60.900468 -12.223288, -60.900234 -12.221881, -60.899999 -12.220475, -60.899765 -12.219069, -60.899530 -12.217663, -60.899296 -12.216256, -60.899061 -12.214850, -60.898827 -12.213444, -60.898592 -12.212038, -60.898358 -12.210631, -60.898123 -12.209225, -60.897889 -12.207819, -60.897654 -12.206413, -60.897420 -12.205006, -60.897185 -12.203600, -60.896951 -12.202194, -60.896717 -12.200788, -60.896482 -12.199381, -60.896248 -12.197975, -60.896013 -12.196569, -60.895779 -12.195163, -60.895544 -12.193756, -60.895310 -12.192350, -60.895076 -12.190944, -60.894841 -12.189538, -60.894607 -12.188131, -60.894372 -12.186725, -60.894138 -12.185319, -60.893903 -12.183913, -60.893669 -12.182506, -60.893435 -12.181100, -60.893200 -12.179694, -60.892966 -12.178288, -60.892731 -12.176881, -60.892497 -12.175475, -60.892263 -12.174069, -60.892028 -12.172663, -60.891794 -12.171256, -60.891559 -12.169850, -60.891325 -12.168444, -60.891091 -12.167038, -60.890856 -12.165631, -60.890622 -12.164225, -60.890388 -12.162819, -60.890153 -12.161413, -60.889919 -12.160006, -60.889684 -12.158600, -60.889450 -12.157194, -60.889216 -12.155788, -60.888981 -12.154381, -60.888747 -12.152975, -60.888513 -12.151569, -60.888278 -12.150163, -60.888044 -12.148756, -60.887810 -12.147350, -60.887575 -12.145944, -60.887341 -12.144538, -60.887106 -12.143131, -60.886872 -12.141725, -60.886638 -12.140319, -60.886403 -12.138913, -60.886169 -12.137506, -60.885935 -12.136100, -60.885700 -12.134694, -60.885466 -12.133288, -60.885232 -12.131881, -60.884998 -12.130475, -60.884763 -12.129069, -60.884529 -12.127663, -60.884295 -12.126256, -60.884060 -12.124850, -60.883826 -12.123444, -60.883592 -12.122038, -60.883357 -12.120631, -60.883123 -12.119225, -60.882889 -12.117819, -60.882654 -12.116413, -60.882420 -12.115006, -60.882186 -12.113600, -60.881952 -12.112194, -60.881717 -12.110788, -60.881483 -12.109381, -60.881249 -12.107975, -60.881014 -12.106569, -60.880780 -12.105163, -60.880546 -12.103756, -60.880312 -12.102350, -60.880077 -12.100944, -60.879843 -12.099538, -60.879609 -12.098131, -60.879375 -12.096725, -60.879140 -12.095319, -60.878906 -12.093912, -60.878672 -12.092506, -60.878438 -12.091100, -60.878203 -12.089694, -60.877969 -12.088287, -60.877735 -12.086881, -60.877501 -12.085475, -60.877266 -12.084069, -60.877032 -12.082662, -60.876798 -12.081256, -60.876564 -12.079850, -60.876329 -12.078444, -60.876095 -12.077037, -60.875861 -12.075631, -60.875627 -12.074225, -60.875392 -12.072819, -60.875158 -12.071412, -60.874924 -12.070006, -60.874690 -12.068600, -60.874456 -12.067194, -60.874221 -12.065787, -60.873987 -12.064381, -60.873753 -12.062975, -60.873519 -12.061568, -60.873285 -12.060162, -60.873050 -12.058756, -60.872816 -12.057350, -60.872582 -12.055943, -60.872348 -12.054537, -60.872114 -12.053131, -60.871879 -12.051725, -60.871645 -12.050318, -60.871411 -12.048912, -60.871177 -12.047506, -60.870943 -12.046100, -60.870709 -12.044693, -60.870474 -12.043287, -60.870240 -12.041881, -60.870006 -12.040474, -60.869772 -12.039068, -60.869538 -12.037662, -60.869304 -12.036256, -60.869069 -12.034849, -60.868835 -12.033443, -60.868601 -12.032037, -60.868367 -12.030631, -60.868133 -12.029224, -60.867899 -12.027818, -60.867665 -12.026412, -60.867430 -12.025006, -60.867196 -12.023599, -60.866962 -12.022193, -60.866728 -12.020787, -60.866494 -12.019380, -60.866260 -12.017974, -60.866026 -12.016568, -60.865792 -12.015162, -60.865557 -12.013755, -60.865323 -12.012349, -60.865089 -12.010943, -60.864855 -12.009537, -60.864621 -12.008130, -60.864387 -12.006724, -60.864153 -12.005318, -60.863919 -12.003911, -60.863685 -12.002505, -60.863451 -12.001099, -60.863216 -11.999693, -60.862982 -11.998286, -60.862748 -11.996880, -60.862514 -11.995474, -60.862280 -11.994068, -60.862046 -11.992661, -60.861812 -11.991255, -60.861578 -11.989849, -60.861344 -11.988442, -60.861110 -11.987036, -60.860876 -11.985630, -60.860642 -11.984224, -60.860408 -11.982817, -60.860173 -11.981411, -60.859939 -11.980005, -60.859705 -11.978599, -60.859471 -11.977192, -60.859237 -11.975786, -60.859003 -11.974380, -60.858769 -11.972973, -60.858535 -11.971567, -60.858301 -11.970161, -60.858067 -11.968755, -60.857833 -11.967348, -60.857599 -11.965942, -60.857365 -11.964536, -60.857131 -11.963130, -60.856897 -11.961723, -60.856663 -11.960317, -60.856429 -11.958911, -60.856195 -11.957504, -60.855961 -11.956098, -60.855727 -11.954692, -60.855493 -11.953286, -60.855259 -11.951879, -60.855025 -11.950473, -60.854791 -11.949067, -60.854557 -11.947660, -60.854323 -11.946254, -60.854089 -11.944848, -60.853855 -11.943442, -60.853621 -11.942035, -60.853387 -11.940629, -60.853153 -11.939223, -60.852919 -11.937816, -60.852685 -11.936410, -60.852451 -11.935004, -60.852217 -11.933598, -60.851983 -11.932191, -60.851749 -11.930785, -60.851515 -11.929379, -60.851281 -11.927973, -60.851047 -11.926566, -60.850813 -11.925160, -60.850579 -11.923754, -60.850345 -11.922347, -60.850111 -11.920941, -60.849877 -11.919535, -60.849643 -11.918129, -60.849409 -11.916722, -60.849175 -11.915316, -60.848941 -11.913910, -60.848707 -11.912503, -60.848474 -11.911097, -60.848240 -11.909691, -60.848006 -11.908285, -60.847772 -11.906878, -60.847538 -11.905472, -60.847304 -11.904066, -60.847070 -11.902659, -60.846836 -11.901253, -60.846602 -11.899847, -60.846368 -11.898441, -60.846134 -11.897034, -60.845900 -11.895628, -60.845666 -11.894222, -60.845433 -11.892815, -60.845199 -11.891409, -60.844965 -11.890003, -60.844731 -11.888597, -60.844497 -11.887190, -60.844263 -11.885784, -60.844029 -11.884378, -60.843795 -11.882971, -60.843561 -11.881565, -60.843328 -11.880159, -60.843094 -11.878752, -60.842860 -11.877346, -60.842626 -11.875940, -60.842392 -11.874534, -60.842158 -11.873127, -60.841924 -11.871721, -60.841690 -11.870315, -60.841457 -11.868908, -60.841223 -11.867502, -60.840989 -11.866096, -60.840755 -11.864690, -60.840521 -11.863283, -60.840287 -11.861877, -60.840053 -11.860471, -60.839820 -11.859064, -60.839586 -11.857658, -60.839352 -11.856252, -60.839118 -11.854846, -60.838884 -11.853439, -60.838650 -11.852033, -60.838416 -11.850627, -60.838183 -11.849220, -60.837949 -11.847814, -60.837715 -11.846408, -60.837481 -11.845002, -60.837247 -11.843595, -60.837014 -11.842189, -60.836780 -11.840783, -60.836546 -11.839376, -60.836312 -11.837970, -60.836078 -11.836564, -60.835844 -11.835157, -60.835611 -11.833751, -60.835377 -11.832345, -60.835143 -11.830939, -60.834909 -11.829532, -60.834675 -11.828126, -60.834442 -11.826720, -60.834208 -11.825313, -60.833974 -11.823907, -60.833740 -11.822501, -60.833506 -11.821094, -60.833273 -11.819688, -60.833039 -11.818282, -60.832805 -11.816876, -60.832571 -11.815469, -60.832338 -11.814063, -60.832104 -11.812657, -60.831870 -11.811250, -60.831636 -11.809844, -60.831403 -11.808438, -60.831169 -11.807031, -60.830935 -11.805625, -60.830701 -11.804219, -60.830467 -11.802813, -60.830234 -11.801406, -60.830000 -11.800000, -60.830053 -11.798576, -60.830106 -11.797152, -60.830159 -11.795728, -60.830212 -11.794304, -60.830265 -11.792880, -60.830318 -11.791456, -60.830371 -11.790032, -60.830424 -11.788608, -60.830477 -11.787184, -60.830530 -11.785760, -60.830583 -11.784335, -60.830636 -11.782911, -60.830689 -11.781487, -60.830742 -11.780063, -60.830795 -11.778639, -60.830848 -11.777215, -60.830901 -11.775791, -60.830954 -11.774367, -60.831007 -11.772943, -60.831060 -11.771519, -60.831113 -11.770095, -60.831166 -11.768671, -60.831219 -11.767247, -60.831272 -11.765823, -60.831325 -11.764399, -60.831378 -11.762975, -60.831431 -11.761551, -60.831484 -11.760127, -60.831537 -11.758703, -60.831590 -11.757279, -60.831643 -11.755855, -60.831695 -11.754431, -60.831748 -11.753006, -60.831801 -11.751582, -60.831854 -11.750158, -60.831907 -11.748734, -60.831960 -11.747310, -60.832013 -11.745886, -60.832066 -11.744462, -60.832119 -11.743038, -60.832172 -11.741614, -60.832225 -11.740190, -60.832278 -11.738766, -60.832331 -11.737342, -60.832384 -11.735918, -60.832437 -11.734494, -60.832490 -11.733070, -60.832543 -11.731646, -60.832596 -11.730222, -60.832649 -11.728798, -60.832702 -11.727374, -60.832755 -11.725950, -60.832808 -11.724526, -60.832861 -11.723101, -60.832914 -11.721677, -60.832967 -11.720253, -60.833020 -11.718829, -60.833073 -11.717405, -60.833126 -11.715981, -60.833179 -11.714557, -60.833232 -11.713133, -60.833284 -11.711709, -60.833337 -11.710285, -60.833390 -11.708861, -60.833443 -11.707437, -60.833496 -11.706013, -60.833549 -11.704589, -60.833602 -11.703165, -60.833655 -11.701741, -60.833708 -11.700317, -60.833761 -11.698893, -60.833814 -11.697469, -60.833867 -11.696045, -60.833920 -11.694621, -60.833973 -11.693197, -60.834026 -11.691772, -60.834079 -11.690348, -60.834132 -11.688924, -60.834185 -11.687500, -60.834238 -11.686076, -60.834291 -11.684652, -60.834344 -11.683228, -60.834396 -11.681804, -60.834449 -11.680380, -60.834502 -11.678956, -60.834555 -11.677532, -60.834608 -11.676108, -60.834661 -11.674684, -60.834714 -11.673260, -60.834767 -11.671836, -60.834820 -11.670412, -60.834873 -11.668988, -60.834926 -11.667564, -60.834979 -11.666140, -60.835032 -11.664716, -60.835085 -11.663292, -60.835138 -11.661867, -60.835191 -11.660443, -60.835244 -11.659019, -60.835297 -11.657595, -60.835349 -11.656171, -60.835402 -11.654747, -60.835455 -11.653323, -60.835508 -11.651899, -60.835561 -11.650475, -60.835614 -11.649051, -60.835667 -11.647627, -60.835720 -11.646203, -60.835773 -11.644779, -60.835826 -11.643355, -60.835879 -11.641931, -60.835932 -11.640507, -60.835985 -11.639083, -60.836038 -11.637659, -60.836091 -11.636235, -60.836143 -11.634811, -60.836196 -11.633387, -60.836249 -11.631962, -60.836302 -11.630538, -60.836355 -11.629114, -60.836408 -11.627690, -60.836461 -11.626266, -60.836514 -11.624842, -60.836567 -11.623418, -60.836620 -11.621994, -60.836673 -11.620570, -60.836726 -11.619146, -60.836779 -11.617722, -60.836831 -11.616298, -60.836884 -11.614874, -60.836937 -11.613450, -60.836990 -11.612026, -60.837043 -11.610602, -60.837096 -11.609178, -60.837149 -11.607754, -60.837202 -11.606330, -60.837255 -11.604906, -60.837308 -11.603482, -60.837361 -11.602057, -60.837414 -11.600633, -60.837467 -11.599209, -60.837519 -11.597785, -60.837572 -11.596361, -60.837625 -11.594937, -60.837678 -11.593513, -60.837731 -11.592089, -60.837784 -11.590665, -60.837837 -11.589241, -60.837890 -11.587817, -60.837943 -11.586393, -60.837996 -11.584969, -60.838049 -11.583545, -60.838101 -11.582121, -60.838154 -11.580697, -60.838207 -11.579273, -60.838260 -11.577849, -60.838313 -11.576425, -60.838366 -11.575001, -60.838419 -11.573577, -60.838472 -11.572152, -60.838525 -11.570728, -60.838578 -11.569304, -60.838631 -11.567880, -60.838683 -11.566456, -60.838736 -11.565032, -60.838789 -11.563608, -60.838842 -11.562184, -60.838895 -11.560760, -60.838948 -11.559336, -60.839001 -11.557912, -60.839054 -11.556488, -60.839107 -11.555064, -60.839160 -11.553640, -60.839212 -11.552216, -60.839265 -11.550792, -60.839318 -11.549368, -60.839371 -11.547944, -60.839424 -11.546520, -60.839477 -11.545096, -60.839530 -11.543672, -60.839583 -11.542247, -60.839636 -11.540823, -60.839688 -11.539399, -60.839741 -11.537975, -60.839794 -11.536551, -60.839847 -11.535127, -60.839900 -11.533703, -60.839953 -11.532279, -60.840006 -11.530855, -60.840059 -11.529431, -60.840112 -11.528007, -60.840164 -11.526583, -60.840217 -11.525159, -60.840270 -11.523735, -60.840323 -11.522311, -60.840376 -11.520887, -60.840429 -11.519463, -60.840482 -11.518039, -60.840535 -11.516615, -60.840588 -11.515191, -60.840640 -11.513767, -60.840693 -11.512342, -60.840746 -11.510918, -60.840799 -11.509494, -60.840852 -11.508070, -60.840905 -11.506646, -60.840958 -11.505222, -60.841011 -11.503798, -60.841064 -11.502374, -60.841116 -11.500950, -60.841169 -11.499526, -60.841222 -11.498102, -60.841275 -11.496678, -60.841328 -11.495254, -60.841381 -11.493830, -60.841434 -11.492406, -60.841487 -11.490982, -60.841539 -11.489558, -60.841592 -11.488134, -60.841645 -11.486710, -60.841698 -11.485286, -60.841751 -11.483862, -60.841804 -11.482437, -60.841857 -11.481013, -60.841910 -11.479589, -60.841962 -11.478165, -60.842015 -11.476741, -60.842068 -11.475317, -60.842121 -11.473893, -60.842174 -11.472469, -60.842227 -11.471045, -60.842280 -11.469621, -60.842332 -11.468197, -60.842385 -11.466773, -60.842438 -11.465349, -60.842491 -11.463925, -60.842544 -11.462501, -60.842597 -11.461077, -60.842650 -11.459653, -60.842703 -11.458229, -60.842755 -11.456805, -60.842808 -11.455381, -60.842861 -11.453956, -60.842914 -11.452532, -60.842967 -11.451108, -60.843020 -11.449684, -60.843073 -11.448260, -60.843125 -11.446836, -60.843178 -11.445412, -60.843231 -11.443988, -60.843284 -11.442564, -60.843337 -11.441140, -60.843390 -11.439716, -60.843443 -11.438292, -60.843495 -11.436868, -60.843548 -11.435444, -60.843601 -11.434020, -60.843654 -11.432596, -60.843707 -11.431172, -60.843760 -11.429748, -60.843813 -11.428324, -60.843865 -11.426900, -60.843918 -11.425476, -60.843971 -11.424051, -60.844024 -11.422627, -60.844077 -11.421203, -60.844130 -11.419779, -60.844182 -11.418355, -60.844235 -11.416931, -60.844288 -11.415507, -60.844341 -11.414083, -60.844394 -11.412659, -60.844447 -11.411235, -60.844500 -11.409811, -60.844552 -11.408387, -60.844605 -11.406963, -60.844658 -11.405539, -60.844711 -11.404115, -60.844764 -11.402691, -60.844817 -11.401267, -60.844869 -11.399843, -60.844922 -11.398419, -60.844975 -11.396995, -60.845028 -11.395570, -60.845081 -11.394146, -60.845134 -11.392722, -60.845186 -11.391298, -60.845239 -11.389874, -60.845292 -11.388450, -60.845345 -11.387026, -60.845398 -11.385602, -60.845451 -11.384178, -60.845503 -11.382754, -60.845556 -11.381330, -60.845609 -11.379906, -60.845662 -11.378482, -60.845715 -11.377058, -60.845768 -11.375634, -60.845820 -11.374210, -60.845873 -11.372786, -60.845926 -11.371362, -60.845979 -11.369938, -60.846032 -11.368514, -60.846085 -11.367090, -60.846137 -11.365665, -60.846190 -11.364241, -60.846243 -11.362817, -60.846296 -11.361393, -60.846349 -11.359969, -60.846402 -11.358545, -60.846454 -11.357121, -60.846507 -11.355697, -60.846560 -11.354273, -60.846613 -11.352849, -60.846666 -11.351425, -60.846719 -11.350001, -60.846771 -11.348577, -60.846824 -11.347153, -60.846877 -11.345729, -60.846930 -11.344305, -60.846983 -11.342881, -60.847035 -11.341457, -60.847088 -11.340033, -60.847141 -11.338609, -60.847194 -11.337184, -60.847247 -11.335760, -60.847300 -11.334336, -60.847352 -11.332912, -60.847405 -11.331488, -60.847458 -11.330064, -60.847511 -11.328640, -60.847564 -11.327216, -60.847616 -11.325792, -60.847669 -11.324368, -60.847722 -11.322944, -60.847775 -11.321520, -60.847828 -11.320096, -60.847880 -11.318672, -60.847933 -11.317248, -60.847986 -11.315824, -60.848039 -11.314400, -60.848092 -11.312976, -60.848145 -11.311552, -60.848197 -11.310128, -60.848250 -11.308703, -60.848303 -11.307279, -60.848356 -11.305855, -60.848409 -11.304431, -60.848461 -11.303007, -60.848514 -11.301583, -60.848567 -11.300159, -60.848620 -11.298735, -60.848673 -11.297311, -60.848725 -11.295887, -60.848778 -11.294463, -60.848831 -11.293039, -60.848884 -11.291615, -60.848937 -11.290191, -60.848989 -11.288767, -60.849042 -11.287343, -60.849095 -11.285919, -60.849148 -11.284495, -60.849201 -11.283071, -60.849253 -11.281647, -60.849306 -11.280223, -60.849359 -11.278798, -60.849412 -11.277374, -60.849465 -11.275950, -60.849517 -11.274526, -60.849570 -11.273102, -60.849623 -11.271678, -60.849676 -11.270254, -60.849729 -11.268830, -60.849781 -11.267406, -60.849834 -11.265982, -60.849887 -11.264558, -60.849940 -11.263134, -60.849993 -11.261710, -60.850045 -11.260286, -60.850098 -11.258862, -60.850151 -11.257438, -60.850204 -11.256014, -60.850256 -11.254590, -60.850309 -11.253166, -60.850362 -11.251742, -60.850415 -11.250317, -60.850468 -11.248893, -60.850520 -11.247469, -60.850573 -11.246045, -60.850626 -11.244621, -60.850679 -11.243197, -60.850732 -11.241773, -60.850784 -11.240349, -60.850837 -11.238925, -60.850890 -11.237501, -60.850943 -11.236077, -60.850995 -11.234653, -60.851048 -11.233229, -60.851101 -11.231805, -60.851154 -11.230381, -60.851207 -11.228957, -60.851259 -11.227533, -60.851312 -11.226109, -60.851365 -11.224685, -60.851418 -11.223261, -60.851470 -11.221836, -60.851523 -11.220412, -60.851576 -11.218988, -60.851629 -11.217564, -60.851682 -11.216140, -60.851734 -11.214716, -60.851787 -11.213292, -60.851840 -11.211868, -60.851893 -11.210444, -60.851945 -11.209020, -60.851998 -11.207596, -60.852051 -11.206172, -60.852104 -11.204748, -60.852156 -11.203324, -60.852209 -11.201900, -60.852262 -11.200476, -60.852315 -11.199052, -60.852368 -11.197628, -60.852420 -11.196204, -60.852473 -11.194780, -60.852526 -11.193355, -60.852579 -11.191931, -60.852631 -11.190507, -60.852684 -11.189083, -60.852737 -11.187659, -60.852790 -11.186235, -60.852842 -11.184811, -60.852895 -11.183387, -60.852948 -11.181963, -60.853001 -11.180539, -60.853053 -11.179115, -60.853106 -11.177691, -60.853159 -11.176267, -60.853212 -11.174843, -60.853264 -11.173419, -60.853317 -11.171995, -60.853370 -11.170571, -60.853423 -11.169147, -60.853475 -11.167723, -60.853528 -11.166298, -60.853581 -11.164874, -60.853634 -11.163450, -60.853687 -11.162026, -60.853739 -11.160602, -60.853792 -11.159178, -60.853845 -11.157754, -60.853898 -11.156330, -60.853950 -11.154906, -60.854003 -11.153482, -60.854056 -11.152058, -60.854109 -11.150634, -60.854161 -11.149210, -60.854214 -11.147786, -60.854267 -11.146362, -60.854320 -11.144938, -60.854372 -11.143514, -60.854425 -11.142090, -60.854478 -11.140666, -60.854530 -11.139242, -60.854583 -11.137817, -60.854636 -11.136393, -60.854689 -11.134969, -60.854741 -11.133545, -60.854794 -11.132121, -60.854847 -11.130697, -60.854900 -11.129273, -60.854952 -11.127849, -60.855005 -11.126425, -60.855058 -11.125001, -60.855111 -11.123577, -60.855163 -11.122153, -60.855216 -11.120729, -60.855269 -11.119305, -60.855322 -11.117881, -60.855374 -11.116457, -60.855427 -11.115033, -60.855480 -11.113609, -60.855533 -11.112185, -60.855585 -11.110761, -60.855638 -11.109336, -60.855691 -11.107912, -60.855743 -11.106488, -60.855796 -11.105064, -60.855849 -11.103640, -60.855902 -11.102216, -60.855954 -11.100792, -60.856007 -11.099368, -60.856060 -11.097944, -60.856113 -11.096520, -60.856165 -11.095096, -60.856218 -11.093672, -60.856271 -11.092248, -60.856324 -11.090824, -60.856376 -11.089400, -60.856429 -11.087976, -60.856482 -11.086552, -60.856534 -11.085128, -60.856587 -11.083704, -60.856640 -11.082280, -60.856693 -11.080855, -60.856745 -11.079431, -60.856798 -11.078007, -60.856851 -11.076583, -60.856904 -11.075159, -60.856956 -11.073735, -60.857009 -11.072311, -60.857062 -11.070887, -60.857114 -11.069463, -60.857167 -11.068039, -60.857220 -11.066615, -60.857273 -11.065191, -60.857325 -11.063767, -60.857378 -11.062343, -60.857431 -11.060919, -60.857483 -11.059495, -60.857536 -11.058071, -60.857589 -11.056647, -60.857642 -11.055223, -60.857694 -11.053798, -60.857747 -11.052374, -60.857800 -11.050950, -60.857852 -11.049526, -60.857905 -11.048102, -60.857958 -11.046678, -60.858011 -11.045254, -60.858063 -11.043830, -60.858116 -11.042406, -60.858169 -11.040982, -60.858221 -11.039558, -60.858274 -11.038134, -60.858327 -11.036710, -60.858380 -11.035286, -60.858432 -11.033862, -60.858485 -11.032438, -60.858538 -11.031014, -60.858590 -11.029590, -60.858643 -11.028166, -60.858696 -11.026742, -60.858748 -11.025317, -60.858801 -11.023893, -60.858854 -11.022469, -60.858907 -11.021045, -60.858959 -11.019621, -60.859012 -11.018197, -60.859065 -11.016773, -60.859117 -11.015349, -60.859170 -11.013925, -60.859223 -11.012501, -60.859275 -11.011077, -60.859328 -11.009653, -60.859381 -11.008229, -60.859434 -11.006805, -60.859486 -11.005381, -60.859539 -11.003957, -60.859592 -11.002533, -60.859644 -11.001109, -60.859697 -10.999685, -60.859750 -10.998260, -60.859802 -10.996836, -60.859855 -10.995412, -60.859908 -10.993988, -60.859961 -10.992564, -60.860013 -10.991140, -60.860066 -10.989716, -60.860119 -10.988292, -60.860171 -10.986868, -60.860224 -10.985444, -60.860277 -10.984020, -60.860329 -10.982596, -60.860382 -10.981172, -60.860435 -10.979748, -60.860487 -10.978324, -60.860540 -10.976900, -60.860593 -10.975476, -60.860645 -10.974052, -60.860698 -10.972628, -60.860751 -10.971204, -60.860804 -10.969779, -60.860856 -10.968355, -60.860909 -10.966931, -60.860962 -10.965507, -60.861014 -10.964083, -60.861067 -10.962659, -60.861120 -10.961235, -60.861172 -10.959811, -60.861225 -10.958387, -60.861278 -10.956963, -60.861330 -10.955539, -60.861383 -10.954115, -60.861436 -10.952691, -60.861488 -10.951267, -60.861541 -10.949843, -60.861594 -10.948419, -60.861646 -10.946995, -60.861699 -10.945571, -60.861752 -10.944147, -60.861804 -10.942722, -60.861857 -10.941298, -60.861910 -10.939874, -60.861962 -10.938450, -60.862015 -10.937026, -60.862068 -10.935602, -60.862120 -10.934178, -60.862173 -10.932754, -60.862226 -10.931330, -60.862278 -10.929906, -60.862331 -10.928482, -60.862384 -10.927058, -60.862436 -10.925634, -60.862489 -10.924210, -60.862542 -10.922786, -60.862594 -10.921362, -60.862647 -10.919938, -60.862700 -10.918514, -60.862752 -10.917090, -60.862805 -10.915665, -60.862858 -10.914241, -60.862910 -10.912817, -60.862963 -10.911393, -60.863016 -10.909969, -60.863068 -10.908545, -60.863121 -10.907121, -60.863174 -10.905697, -60.863226 -10.904273, -60.863279 -10.902849, -60.863332 -10.901425, -60.863384 -10.900001, -60.863437 -10.898577, -60.863490 -10.897153, -60.863542 -10.895729, -60.863595 -10.894305, -60.863648 -10.892881, -60.863700 -10.891457, -60.863753 -10.890033, -60.863806 -10.888608, -60.863858 -10.887184, -60.863911 -10.885760, -60.863964 -10.884336, -60.864016 -10.882912, -60.864069 -10.881488, -60.864122 -10.880064, -60.864174 -10.878640, -60.864227 -10.877216, -60.864280 -10.875792, -60.864332 -10.874368, -60.864385 -10.872944, -60.864438 -10.871520, -60.864490 -10.870096, -60.864543 -10.868672, -60.864595 -10.867248, -60.864648 -10.865824, -60.864701 -10.864400, -60.864753 -10.862976, -60.864806 -10.861552, -60.864859 -10.860127, -60.864911 -10.858703, -60.864964 -10.857279, -60.865017 -10.855855, -60.865069 -10.854431, -60.865122 -10.853007, -60.865175 -10.851583, -60.865227 -10.850159, -60.865280 -10.848735, -60.865332 -10.847311, -60.865385 -10.845887, -60.865438 -10.844463, -60.865490 -10.843039, -60.865543 -10.841615, -60.865596 -10.840191, -60.865648 -10.838767, -60.865701 -10.837343, -60.865754 -10.835919, -60.865806 -10.834495, -60.865859 -10.833070, -60.865912 -10.831646, -60.865964 -10.830222, -60.866017 -10.828798, -60.866069 -10.827374, -60.866122 -10.825950, -60.866175 -10.824526, -60.866227 -10.823102, -60.866280 -10.821678, -60.866333 -10.820254, -60.866385 -10.818830, -60.866438 -10.817406, -60.866490 -10.815982, -60.866543 -10.814558, -60.866596 -10.813134, -60.866648 -10.811710, -60.866701 -10.810286, -60.866754 -10.808862, -60.866806 -10.807438, -60.866859 -10.806013, -60.866911 -10.804589, -60.866964 -10.803165, -60.867017 -10.801741, -60.867069 -10.800317, -60.867122 -10.798893, -60.867175 -10.797469, -60.867227 -10.796045, -60.867280 -10.794621, -60.867332 -10.793197, -60.867385 -10.791773, -60.867438 -10.790349, -60.867490 -10.788925, -60.867543 -10.787501, -60.867596 -10.786077, -60.867648 -10.784653, -60.867701 -10.783229, -60.867753 -10.781805, -60.867806 -10.780381, -60.867859 -10.778956, -60.867911 -10.777532, -60.867964 -10.776108, -60.868017 -10.774684, -60.868069 -10.773260, -60.868122 -10.771836, -60.868174 -10.770412, -60.868227 -10.768988, -60.868280 -10.767564, -60.868332 -10.766140, -60.868385 -10.764716, -60.868437 -10.763292, -60.868490 -10.761868, -60.868543 -10.760444, -60.868595 -10.759020, -60.868648 -10.757596, -60.868700 -10.756172, -60.868753 -10.754748, -60.868806 -10.753323, -60.868858 -10.751899, -60.868911 -10.750475, -60.868964 -10.749051, -60.869016 -10.747627, -60.869069 -10.746203, -60.869121 -10.744779, -60.869174 -10.743355, -60.869227 -10.741931, -60.869279 -10.740507, -60.869332 -10.739083, -60.869384 -10.737659, -60.869437 -10.736235, -60.869490 -10.734811, -60.869542 -10.733387, -60.869595 -10.731963, -60.869647 -10.730539, -60.869700 -10.729115, -60.869753 -10.727691, -60.869805 -10.726266, -60.869858 -10.724842, -60.869910 -10.723418, -60.869963 -10.721994, -60.870016 -10.720570, -60.870068 -10.719146, -60.870121 -10.717722, -60.870173 -10.716298, -60.870226 -10.714874, -60.870279 -10.713450, -60.870331 -10.712026, -60.870384 -10.710602, -60.870436 -10.709178, -60.870489 -10.707754, -60.870541 -10.706330, -60.870594 -10.704906, -60.870647 -10.703482, -60.870699 -10.702058, -60.870752 -10.700634, -60.870804 -10.699209, -60.870857 -10.697785, -60.870910 -10.696361, -60.870962 -10.694937, -60.871015 -10.693513, -60.871067 -10.692089, -60.871120 -10.690665, -60.871173 -10.689241, -60.871225 -10.687817, -60.871278 -10.686393, -60.871330 -10.684969, -60.871383 -10.683545, -60.871435 -10.682121, -60.871488 -10.680697, -60.871541 -10.679273, -60.871593 -10.677849, -60.871646 -10.676425, -60.871698 -10.675001, -60.871751 -10.673577, -60.871804 -10.672152, -60.871856 -10.670728, -60.871909 -10.669304, -60.871961 -10.667880, -60.872014 -10.666456, -60.872066 -10.665032, -60.872119 -10.663608, -60.872172 -10.662184, -60.872224 -10.660760, -60.872277 -10.659336, -60.872329 -10.657912, -60.872382 -10.656488, -60.872434 -10.655064, -60.872487 -10.653640, -60.872540 -10.652216, -60.872592 -10.650792, -60.872645 -10.649368, -60.872697 -10.647944, -60.872750 -10.646519, -60.872802 -10.645095, -60.872855 -10.643671, -60.872908 -10.642247, -60.872960 -10.640823, -60.873013 -10.639399, -60.873065 -10.637975, -60.873118 -10.636551, -60.873170 -10.635127, -60.873223 -10.633703, -60.873276 -10.632279, -60.873328 -10.630855, -60.873381 -10.629431, -60.873433 -10.628007, -60.873486 -10.626583, -60.873538 -10.625159, -60.873591 -10.623735, -60.873644 -10.622311, -60.873696 -10.620887, -60.873749 -10.619462, -60.873801 -10.618038, -60.873854 -10.616614, -60.873906 -10.615190, -60.873959 -10.613766, -60.874011 -10.612342, -60.874064 -10.610918, -60.874117 -10.609494, -60.874169 -10.608070, -60.874222 -10.606646, -60.874274 -10.605222, -60.874327 -10.603798, -60.874379 -10.602374, -60.874432 -10.600950, -60.874484 -10.599526, -60.874537 -10.598102, -60.874590 -10.596678, -60.874642 -10.595254, -60.874695 -10.593830, -60.874747 -10.592405, -60.874800 -10.590981, -60.874852 -10.589557, -60.874905 -10.588133, -60.874957 -10.586709, -60.875010 -10.585285, -60.875063 -10.583861, -60.875115 -10.582437, -60.875168 -10.581013, -60.875220 -10.579589, -60.875273 -10.578165, -60.875325 -10.576741, -60.875378 -10.575317, -60.875430 -10.573893, -60.875483 -10.572469, -60.875535 -10.571045, -60.875588 -10.569621, -60.875641 -10.568197, -60.875693 -10.566772, -60.875746 -10.565348, -60.875798 -10.563924, -60.875851 -10.562500, -60.875903 -10.561076, -60.875956 -10.559652, -60.876008 -10.558228, -60.876061 -10.556804, -60.876113 -10.555380, -60.876166 -10.553956, -60.876218 -10.552532, -60.876271 -10.551108, -60.876324 -10.549684, -60.876376 -10.548260, -60.876429 -10.546836, -60.876481 -10.545412, -60.876534 -10.543988, -60.876586 -10.542564, -60.876639 -10.541139, -60.876691 -10.539715, -60.876744 -10.538291, -60.876796 -10.536867, -60.876849 -10.535443, -60.876901 -10.534019, -60.876954 -10.532595, -60.877007 -10.531171, -60.877059 -10.529747, -60.877112 -10.528323, -60.877164 -10.526899, -60.877217 -10.525475, -60.877269 -10.524051, -60.877322 -10.522627, -60.877374 -10.521203, -60.877427 -10.519779, -60.877479 -10.518355, -60.877532 -10.516931, -60.877584 -10.515507, -60.877637 -10.514082, -60.877689 -10.512658, -60.877742 -10.511234, -60.877794 -10.509810, -60.877847 -10.508386, -60.877899 -10.506962, -60.877952 -10.505538, -60.878005 -10.504114, -60.878057 -10.502690, -60.878110 -10.501266, -60.878162 -10.499842, -60.878215 -10.498418, -60.878267 -10.496994, -60.878320 -10.495570, -60.878372 -10.494146, -60.878425 -10.492722, -60.878477 -10.491298, -60.878530 -10.489874, -60.878582 -10.488449, -60.878635 -10.487025, -60.878687 -10.485601, -60.878740 -10.484177, -60.878792 -10.482753, -60.878845 -10.481329, -60.878897 -10.479905, -60.878950 -10.478481, -60.879002 -10.477057, -60.879055 -10.475633, -60.879107 -10.474209, -60.879160 -10.472785, -60.879212 -10.471361, -60.879265 -10.469937, -60.879317 -10.468513, -60.879370 -10.467089, -60.879422 -10.465665, -60.879475 -10.464241, -60.879527 -10.462816, -60.879580 -10.461392, -60.879632 -10.459968, -60.879685 -10.458544, -60.879737 -10.457120, -60.879790 -10.455696, -60.879842 -10.454272, -60.879895 -10.452848, -60.879947 -10.451424, -60.880000 -10.450000, -60.880080 -10.448578, -60.880160 -10.447156, -60.880240 -10.445734, -60.880320 -10.444312, -60.880400 -10.442890, -60.880480 -10.441468, -60.880560 -10.440046, -60.880640 -10.438624, -60.880719 -10.437201, -60.880799 -10.435779, -60.880879 -10.434357, -60.880959 -10.432935, -60.881039 -10.431513, -60.881119 -10.430091, -60.881199 -10.428669, -60.881279 -10.427247, -60.881359 -10.425825, -60.881439 -10.424403, -60.881519 -10.422981, -60.881599 -10.421559, -60.881679 -10.420137, -60.881759 -10.418715, -60.881839 -10.417293, -60.881918 -10.415871, -60.881998 -10.414448, -60.882078 -10.413026, -60.882158 -10.411604, -60.882238 -10.410182, -60.882318 -10.408760, -60.882398 -10.407338, -60.882478 -10.405916, -60.882558 -10.404494, -60.882638 -10.403072, -60.882718 -10.401650, -60.882798 -10.400228, -60.882878 -10.398806, -60.882957 -10.397384, -60.883037 -10.395962, -60.883117 -10.394540, -60.883197 -10.393117, -60.883277 -10.391695, -60.883357 -10.390273, -60.883437 -10.388851, -60.883517 -10.387429, -60.883597 -10.386007, -60.883677 -10.384585, -60.883757 -10.383163, -60.883836 -10.381741, -60.883916 -10.380319, -60.883996 -10.378897, -60.884076 -10.377475, -60.884156 -10.376053, -60.884236 -10.374631, -60.884316 -10.373209, -60.884396 -10.371787, -60.884476 -10.370364, -60.884556 -10.368942, -60.884636 -10.367520, -60.884715 -10.366098, -60.884795 -10.364676, -60.884875 -10.363254, -60.884955 -10.361832, -60.885035 -10.360410, -60.885115 -10.358988, -60.885195 -10.357566, -60.885275 -10.356144, -60.885355 -10.354722, -60.885434 -10.353300, -60.885514 -10.351878, -60.885594 -10.350456, -60.885674 -10.349034, -60.885754 -10.347611, -60.885834 -10.346189, -60.885914 -10.344767, -60.885994 -10.343345, -60.886074 -10.341923, -60.886154 -10.340501, -60.886233 -10.339079, -60.886313 -10.337657, -60.886393 -10.336235, -60.886473 -10.334813, -60.886553 -10.333391, -60.886633 -10.331969, -60.886713 -10.330547, -60.886793 -10.329125, -60.886872 -10.327703, -60.886952 -10.326281, -60.887032 -10.324858, -60.887112 -10.323436, -60.887192 -10.322014, -60.887272 -10.320592, -60.887352 -10.319170, -60.887432 -10.317748, -60.887511 -10.316326, -60.887591 -10.314904, -60.887671 -10.313482, -60.887751 -10.312060, -60.887831 -10.310638, -60.887911 -10.309216, -60.887991 -10.307794, -60.888071 -10.306372, -60.888150 -10.304950, -60.888230 -10.303527, -60.888310 -10.302105, -60.888390 -10.300683, -60.888470 -10.299261, -60.888550 -10.297839, -60.888630 -10.296417, -60.888710 -10.294995, -60.888789 -10.293573, -60.888869 -10.292151, -60.888949 -10.290729, -60.889029 -10.289307, -60.889109 -10.287885, -60.889189 -10.286463, -60.889269 -10.285041, -60.889348 -10.283619, -60.889428 -10.282197, -60.889508 -10.280774, -60.889588 -10.279352, -60.889668 -10.277930, -60.889748 -10.276508, -60.889828 -10.275086, -60.889907 -10.273664, -60.889987 -10.272242, -60.890067 -10.270820, -60.890147 -10.269398, -60.890227 -10.267976, -60.890307 -10.266554, -60.890387 -10.265132, -60.890466 -10.263710, -60.890546 -10.262288, -60.890626 -10.260866, -60.890706 -10.259443, -60.890786 -10.258021, -60.890866 -10.256599, -60.890945 -10.255177, -60.891025 -10.253755, -60.891105 -10.252333, -60.891185 -10.250911, -60.891265 -10.249489, -60.891345 -10.248067, -60.891425 -10.246645, -60.891504 -10.245223, -60.891584 -10.243801, -60.891664 -10.242379, -60.891744 -10.240957, -60.891824 -10.239535, -60.891904 -10.238113, -60.891983 -10.236690, -60.892063 -10.235268, -60.892143 -10.233846, -60.892223 -10.232424, -60.892303 -10.231002, -60.892383 -10.229580, -60.892462 -10.228158, -60.892542 -10.226736, -60.892622 -10.225314, -60.892702 -10.223892, -60.892782 -10.222470, -60.892862 -10.221048, -60.892941 -10.219626, -60.893021 -10.218204, -60.893101 -10.216782, -60.893181 -10.215359, -60.893261 -10.213937, -60.893340 -10.212515, -60.893420 -10.211093, -60.893500 -10.209671, -60.893580 -10.208249, -60.893660 -10.206827, -60.893740 -10.205405, -60.893819 -10.203983, -60.893899 -10.202561, -60.893979 -10.201139, -60.894059 -10.199717, -60.894139 -10.198295, -60.894218 -10.196873, -60.894298 -10.195451, -60.894378 -10.194028, -60.894458 -10.192606, -60.894538 -10.191184, -60.894618 -10.189762, -60.894697 -10.188340, -60.894777 -10.186918, -60.894857 -10.185496, -60.894937 -10.184074, -60.895017 -10.182652, -60.895096 -10.181230, -60.895176 -10.179808, -60.895256 -10.178386, -60.895336 -10.176964, -60.895416 -10.175542, -60.895495 -10.174120, -60.895575 -10.172698, -60.895655 -10.171275, -60.895735 -10.169853, -60.895815 -10.168431, -60.895894 -10.167009, -60.895974 -10.165587, -60.896054 -10.164165, -60.896134 -10.162743, -60.896214 -10.161321, -60.896293 -10.159899, -60.896373 -10.158477, -60.896453 -10.157055, -60.896533 -10.155633, -60.896613 -10.154211, -60.896692 -10.152789, -60.896772 -10.151367, -60.896852 -10.149944, -60.896932 -10.148522, -60.897012 -10.147100, -60.897091 -10.145678, -60.897171 -10.144256, -60.897251 -10.142834, -60.897331 -10.141412, -60.897411 -10.139990, -60.897490 -10.138568, -60.897570 -10.137146, -60.897650 -10.135724, -60.897730 -10.134302, -60.897809 -10.132880, -60.897889 -10.131458, -60.897969 -10.130036, -60.898049 -10.128613, -60.898129 -10.127191, -60.898208 -10.125769, -60.898288 -10.124347, -60.898368 -10.122925, -60.898448 -10.121503, -60.898527 -10.120081, -60.898607 -10.118659, -60.898687 -10.117237, -60.898767 -10.115815, -60.898847 -10.114393, -60.898926 -10.112971, -60.899006 -10.111549, -60.899086 -10.110127, -60.899166 -10.108705, -60.899245 -10.107282, -60.899325 -10.105860, -60.899405 -10.104438, -60.899485 -10.103016, -60.899565 -10.101594, -60.899644 -10.100172, -60.899724 -10.098750, -60.899804 -10.097328, -60.899884 -10.095906, -60.899963 -10.094484, -60.900043 -10.093062, -60.900123 -10.091640, -60.900203 -10.090218, -60.900282 -10.088796, -60.900362 -10.087374, -60.900442 -10.085951, -60.900522 -10.084529, -60.900601 -10.083107, -60.900681 -10.081685, -60.900761 -10.080263, -60.900841 -10.078841, -60.900920 -10.077419, -60.901000 -10.075997, -60.901080 -10.074575, -60.901160 -10.073153, -60.901239 -10.071731, -60.901319 -10.070309, -60.901399 -10.068887, -60.901479 -10.067465, -60.901558 -10.066042, -60.901638 -10.064620, -60.901718 -10.063198, -60.901798 -10.061776, -60.901877 -10.060354, -60.901957 -10.058932, -60.902037 -10.057510, -60.902117 -10.056088, -60.902196 -10.054666, -60.902276 -10.053244, -60.902356 -10.051822, -60.902436 -10.050400, -60.902515 -10.048978, -60.902595 -10.047556, -60.902675 -10.046134, -60.902755 -10.044711, -60.902834 -10.043289, -60.902914 -10.041867, -60.902994 -10.040445, -60.903074 -10.039023, -60.903153 -10.037601, -60.903233 -10.036179, -60.903313 -10.034757, -60.903393 -10.033335, -60.903472 -10.031913, -60.903552 -10.030491, -60.903632 -10.029069, -60.903711 -10.027647, -60.903791 -10.026225, -60.903871 -10.024803, -60.903951 -10.023380, -60.904030 -10.021958, -60.904110 -10.020536, -60.904190 -10.019114, -60.904270 -10.017692, -60.904349 -10.016270, -60.904429 -10.014848, -60.904509 -10.013426, -60.904588 -10.012004, -60.904668 -10.010582, -60.904748 -10.009160, -60.904828 -10.007738, -60.904907 -10.006316, -60.904987 -10.004894, -60.905067 -10.003472, -60.905147 -10.002049, -60.905226 -10.000627, -60.905306 -9.999205, -60.905386 -9.997783, -60.905465 -9.996361, -60.905545 -9.994939, -60.905625 -9.993517, -60.905705 -9.992095, -60.905784 -9.990673, -60.905864 -9.989251, -60.905944 -9.987829, -60.906023 -9.986407, -60.906103 -9.984985, -60.906183 -9.983563, -60.906263 -9.982140, -60.906342 -9.980718, -60.906422 -9.979296, -60.906502 -9.977874, -60.906581 -9.976452, -60.906661 -9.975030, -60.906741 -9.973608, -60.906820 -9.972186, -60.906900 -9.970764, -60.906980 -9.969342, -60.907060 -9.967920, -60.907139 -9.966498, -60.907219 -9.965076, -60.907299 -9.963654, -60.907378 -9.962232, -60.907458 -9.960809, -60.907538 -9.959387, -60.907617 -9.957965, -60.907697 -9.956543, -60.907777 -9.955121, -60.907857 -9.953699, -60.907936 -9.952277, -60.908016 -9.950855, -60.908096 -9.949433, -60.908175 -9.948011, -60.908255 -9.946589, -60.908335 -9.945167, -60.908414 -9.943745, -60.908494 -9.942323, -60.908574 -9.940900, -60.908653 -9.939478, -60.908733 -9.938056, -60.908813 -9.936634, -60.908893 -9.935212, -60.908972 -9.933790, -60.909052 -9.932368, -60.909132 -9.930946, -60.909211 -9.929524, -60.909291 -9.928102, -60.909371 -9.926680, -60.909450 -9.925258, -60.909530 -9.923836, -60.909610 -9.922414, -60.909689 -9.920992, -60.909769 -9.919569, -60.909849 -9.918147, -60.909928 -9.916725, -60.910008 -9.915303, -60.910088 -9.913881, -60.910167 -9.912459, -60.910247 -9.911037, -60.910327 -9.909615, -60.910406 -9.908193, -60.910486 -9.906771, -60.910566 -9.905349, -60.910645 -9.903927, -60.910725 -9.902505, -60.910805 -9.901083, -60.910884 -9.899660, -60.910964 -9.898238, -60.911044 -9.896816, -60.911123 -9.895394, -60.911203 -9.893972, -60.911283 -9.892550, -60.911362 -9.891128, -60.911442 -9.889706, -60.911522 -9.888284, -60.911601 -9.886862, -60.911681 -9.885440, -60.911761 -9.884018, -60.911840 -9.882596, -60.911920 -9.881174, -60.912000 -9.879752, -60.912079 -9.878329, -60.912159 -9.876907, -60.912239 -9.875485, -60.912318 -9.874063, -60.912398 -9.872641, -60.912478 -9.871219, -60.912557 -9.869797, -60.912637 -9.868375, -60.912717 -9.866953, -60.912796 -9.865531, -60.912876 -9.864109, -60.912956 -9.862687, -60.913035 -9.861265, -60.913115 -9.859843, -60.913195 -9.858420, -60.913274 -9.856998, -60.913354 -9.855576, -60.913434 -9.854154, -60.913513 -9.852732, -60.913593 -9.851310, -60.913672 -9.849888, -60.913752 -9.848466, -60.913832 -9.847044, -60.913911 -9.845622, -60.913991 -9.844200, -60.914071 -9.842778, -60.914150 -9.841356, -60.914230 -9.839934, -60.914310 -9.838511, -60.914389 -9.837089, -60.914469 -9.835667, -60.914548 -9.834245, -60.914628 -9.832823, -60.914708 -9.831401, -60.914787 -9.829979, -60.914867 -9.828557, -60.914947 -9.827135, -60.915026 -9.825713, -60.915106 -9.824291, -60.915186 -9.822869, -60.915265 -9.821447, -60.915345 -9.820025, -60.915424 -9.818602, -60.915504 -9.817180, -60.915584 -9.815758, -60.915663 -9.814336, -60.915743 -9.812914, -60.915823 -9.811492, -60.915902 -9.810070, -60.915982 -9.808648, -60.916061 -9.807226, -60.916141 -9.805804, -60.916221 -9.804382, -60.916300 -9.802960, -60.916380 -9.801538, -60.916460 -9.800116, -60.916539 -9.798693, -60.916619 -9.797271, -60.916698 -9.795849, -60.916778 -9.794427, -60.916858 -9.793005, -60.916937 -9.791583, -60.917017 -9.790161, -60.917097 -9.788739, -60.917176 -9.787317, -60.917256 -9.785895, -60.917335 -9.784473, -60.917415 -9.783051, -60.917495 -9.781629, -60.917574 -9.780207, -60.917654 -9.778784, -60.917733 -9.777362, -60.917813 -9.775940, -60.917893 -9.774518, -60.917972 -9.773096, -60.918052 -9.771674, -60.918131 -9.770252, -60.918211 -9.768830, -60.918291 -9.767408, -60.918370 -9.765986, -60.918450 -9.764564, -60.918529 -9.763142, -60.918609 -9.761720, -60.918689 -9.760298, -60.918768 -9.758875, -60.918848 -9.757453, -60.918927 -9.756031, -60.919007 -9.754609, -60.919087 -9.753187, -60.919166 -9.751765, -60.919246 -9.750343, -60.919325 -9.748921, -60.919405 -9.747499, -60.919485 -9.746077, -60.919564 -9.744655, -60.919644 -9.743233, -60.919723 -9.741811, -60.919803 -9.740389, -60.919883 -9.738966, -60.919962 -9.737544, -60.920042 -9.736122, -60.920121 -9.734700, -60.920201 -9.733278, -60.920281 -9.731856, -60.920360 -9.730434, -60.920440 -9.729012, -60.920519 -9.727590, -60.920599 -9.726168, -60.920679 -9.724746, -60.920758 -9.723324, -60.920838 -9.721902, -60.920917 -9.720480, -60.920997 -9.719057, -60.921076 -9.717635, -60.921156 -9.716213, -60.921236 -9.714791, -60.921315 -9.713369, -60.921395 -9.711947, -60.921474 -9.710525, -60.921554 -9.709103, -60.921633 -9.707681, -60.921713 -9.706259, -60.921793 -9.704837, -60.921872 -9.703415, -60.921952 -9.701993, -60.922031 -9.700571, -60.922111 -9.699148, -60.922191 -9.697726, -60.922270 -9.696304, -60.922350 -9.694882, -60.922429 -9.693460, -60.922509 -9.692038, -60.922588 -9.690616, -60.922668 -9.689194, -60.922747 -9.687772, -60.922827 -9.686350, -60.922907 -9.684928, -60.922986 -9.683506, -60.923066 -9.682084, -60.923145 -9.680662, -60.923225 -9.679239, -60.923304 -9.677817, -60.923384 -9.676395, -60.923464 -9.674973, -60.923543 -9.673551, -60.923623 -9.672129, -60.923702 -9.670707, -60.923782 -9.669285, -60.923861 -9.667863, -60.923941 -9.666441, -60.924020 -9.665019, -60.924100 -9.663597, -60.924180 -9.662175, -60.924259 -9.660753, -60.924339 -9.659330, -60.924418 -9.657908, -60.924498 -9.656486, -60.924577 -9.655064, -60.924657 -9.653642, -60.924736 -9.652220, -60.924816 -9.650798, -60.924896 -9.649376, -60.924975 -9.647954, -60.925055 -9.646532, -60.925134 -9.645110, -60.925214 -9.643688, -60.925293 -9.642266, -60.925373 -9.640843, -60.925452 -9.639421, -60.925532 -9.637999, -60.925611 -9.636577, -60.925691 -9.635155, -60.925771 -9.633733, -60.925850 -9.632311, -60.925930 -9.630889, -60.926009 -9.629467, -60.926089 -9.628045, -60.926168 -9.626623, -60.926248 -9.625201, -60.926327 -9.623779, -60.926407 -9.622357, -60.926486 -9.620934, -60.926566 -9.619512, -60.926645 -9.618090, -60.926725 -9.616668, -60.926805 -9.615246, -60.926884 -9.613824, -60.926964 -9.612402, -60.927043 -9.610980, -60.927123 -9.609558, -60.927202 -9.608136, -60.927282 -9.606714, -60.927361 -9.605292, -60.927441 -9.603870, -60.927520 -9.602448, -60.927600 -9.601025, -60.927679 -9.599603, -60.927759 -9.598181, -60.927838 -9.596759, -60.927918 -9.595337, -60.927997 -9.593915, -60.928077 -9.592493, -60.928156 -9.591071, -60.928236 -9.589649, -60.928316 -9.588227, -60.928395 -9.586805, -60.928475 -9.585383, -60.928554 -9.583961, -60.928634 -9.582538, -60.928713 -9.581116, -60.928793 -9.579694, -60.928872 -9.578272, -60.928952 -9.576850, -60.929031 -9.575428, -60.929111 -9.574006, -60.929190 -9.572584, -60.929270 -9.571162, -60.929349 -9.569740, -60.929429 -9.568318, -60.929508 -9.566896, -60.929588 -9.565474, -60.929667 -9.564052, -60.929747 -9.562629, -60.929826 -9.561207, -60.929906 -9.559785, -60.929985 -9.558363, -60.930065 -9.556941, -60.930144 -9.555519, -60.930224 -9.554097, -60.930303 -9.552675, -60.930383 -9.551253, -60.930462 -9.549831, -60.930542 -9.548409, -60.930621 -9.546987, -60.930701 -9.545565, -60.930780 -9.544142, -60.930860 -9.542720, -60.930939 -9.541298, -60.931019 -9.539876, -60.931098 -9.538454, -60.931178 -9.537032, -60.931257 -9.535610, -60.931337 -9.534188, -60.931416 -9.532766, -60.931496 -9.531344, -60.931575 -9.529922, -60.931655 -9.528500, -60.931734 -9.527078, -60.931814 -9.525656, -60.931893 -9.524233, -60.931973 -9.522811, -60.932052 -9.521389, -60.932132 -9.519967, -60.932211 -9.518545, -60.932291 -9.517123, -60.932370 -9.515701, -60.932450 -9.514279, -60.932529 -9.512857, -60.932609 -9.511435, -60.932688 -9.510013, -60.932768 -9.508591, -60.932847 -9.507169, -60.932927 -9.505746, -60.933006 -9.504324, -60.933086 -9.502902, -60.933165 -9.501480, -60.933244 -9.500058, -60.933324 -9.498636, -60.933403 -9.497214, -60.933483 -9.495792, -60.933562 -9.494370, -60.933642 -9.492948, -60.933721 -9.491526, -60.933801 -9.490104, -60.933880 -9.488682, -60.933960 -9.487260, -60.934039 -9.485837, -60.934119 -9.484415, -60.934198 -9.482993, -60.934278 -9.481571, -60.934357 -9.480149, -60.934437 -9.478727, -60.934516 -9.477305, -60.934596 -9.475883, -60.934675 -9.474461, -60.934754 -9.473039, -60.934834 -9.471617, -60.934913 -9.470195, -60.934993 -9.468773, -60.935072 -9.467350, -60.935152 -9.465928, -60.935231 -9.464506, -60.935311 -9.463084, -60.935390 -9.461662, -60.935470 -9.460240, -60.935549 -9.458818, -60.935629 -9.457396, -60.935708 -9.455974, -60.935787 -9.454552, -60.935867 -9.453130, -60.935946 -9.451708, -60.936026 -9.450286, -60.936105 -9.448863, -60.936185 -9.447441, -60.936264 -9.446019, -60.936344 -9.444597, -60.936423 -9.443175, -60.936503 -9.441753, -60.936582 -9.440331, -60.936661 -9.438909, -60.936741 -9.437487, -60.936820 -9.436065, -60.936900 -9.434643, -60.936979 -9.433221, -60.937059 -9.431799, -60.937138 -9.430376, -60.937218 -9.428954, -60.937297 -9.427532, -60.937377 -9.426110, -60.937456 -9.424688, -60.937535 -9.423266, -60.937615 -9.421844, -60.937694 -9.420422, -60.937774 -9.419000, -60.937853 -9.417578, -60.937933 -9.416156, -60.938012 -9.414734, -60.938091 -9.413312, -60.938171 -9.411890, -60.938250 -9.410467, -60.938330 -9.409045, -60.938409 -9.407623, -60.938489 -9.406201, -60.938568 -9.404779, -60.938648 -9.403357, -60.938727 -9.401935, -60.938806 -9.400513, -60.938886 -9.399091, -60.938965 -9.397669, -60.939045 -9.396247, -60.939124 -9.394825, -60.939204 -9.393403, -60.939283 -9.391980, -60.939362 -9.390558, -60.939442 -9.389136, -60.939521 -9.387714, -60.939601 -9.386292, -60.939680 -9.384870, -60.939760 -9.383448, -60.939839 -9.382026, -60.939918 -9.380604, -60.939998 -9.379182, -60.940077 -9.377760, -60.940157 -9.376338, -60.940236 -9.374916, -60.940316 -9.373493, -60.940395 -9.372071, -60.940474 -9.370649, -60.940554 -9.369227, -60.940633 -9.367805, -60.940713 -9.366383, -60.940792 -9.364961, -60.940871 -9.363539, -60.940951 -9.362117, -60.941030 -9.360695, -60.941110 -9.359273, -60.941189 -9.357851, -60.941269 -9.356429, -60.941348 -9.355006, -60.941427 -9.353584, -60.941507 -9.352162, -60.941586 -9.350740, -60.941666 -9.349318, -60.941745 -9.347896, -60.941824 -9.346474, -60.941904 -9.345052, -60.941983 -9.343630, -60.942063 -9.342208, -60.942142 -9.340786, -60.942221 -9.339364, -60.942301 -9.337942, -60.942380 -9.336519, -60.942460 -9.335097, -60.942539 -9.333675, -60.942618 -9.332253, -60.942698 -9.330831, -60.942777 -9.329409, -60.942857 -9.327987, -60.942936 -9.326565, -60.943015 -9.325143, -60.943095 -9.323721, -60.943174 -9.322299, -60.943254 -9.320877, -60.943333 -9.319455, -60.943412 -9.318032, -60.943492 -9.316610, -60.943571 -9.315188, -60.943651 -9.313766, -60.943730 -9.312344, -60.943809 -9.310922, -60.943889 -9.309500, -60.943968 -9.308078, -60.944048 -9.306656, -60.944127 -9.305234, -60.944206 -9.303812, -60.944286 -9.302390, -60.944365 -9.300968, -60.944444 -9.299545, -60.944524 -9.298123, -60.944603 -9.296701, -60.944683 -9.295279, -60.944762 -9.293857, -60.944841 -9.292435, -60.944921 -9.291013, -60.945000 -9.289591, -60.945080 -9.288169, -60.945159 -9.286747, -60.945238 -9.285325, -60.945318 -9.283903, -60.945397 -9.282481, -60.945476 -9.281058, -60.945556 -9.279636, -60.945635 -9.278214, -60.945715 -9.276792, -60.945794 -9.275370, -60.945873 -9.273948, -60.945953 -9.272526, -60.946032 -9.271104, -60.946111 -9.269682, -60.946191 -9.268260, -60.946270 -9.266838, -60.946350 -9.265416, -60.946429 -9.263994, -60.946508 -9.262571, -60.946588 -9.261149, -60.946667 -9.259727, -60.946746 -9.258305, -60.946826 -9.256883, -60.946905 -9.255461, -60.946985 -9.254039, -60.947064 -9.252617, -60.947143 -9.251195, -60.947223 -9.249773, -60.947302 -9.248351, -60.947381 -9.246929, -60.947461 -9.245507, -60.947540 -9.244084, -60.947619 -9.242662, -60.947699 -9.241240, -60.947778 -9.239818, -60.947858 -9.238396, -60.947937 -9.236974, -60.948016 -9.235552, -60.948096 -9.234130, -60.948175 -9.232708, -60.948254 -9.231286, -60.948334 -9.229864, -60.948413 -9.228442, -60.948492 -9.227019, -60.948572 -9.225597, -60.948651 -9.224175, -60.948730 -9.222753, -60.948810 -9.221331, -60.948889 -9.219909, -60.948969 -9.218487, -60.949048 -9.217065, -60.949127 -9.215643, -60.949207 -9.214221, -60.949286 -9.212799, -60.949365 -9.211377, -60.949445 -9.209955, -60.949524 -9.208532, -60.949603 -9.207110, -60.949683 -9.205688, -60.949762 -9.204266, -60.949841 -9.202844, -60.949921 -9.201422, -60.950000 -9.200000, -60.949821 -9.198586, -60.949643 -9.197173, -60.949464 -9.195759, -60.949285 -9.194346, -60.949107 -9.192932, -60.948928 -9.191519, -60.948749 -9.190105, -60.948571 -9.188691, -60.948392 -9.187278, -60.948214 -9.185864, -60.948035 -9.184451, -60.947856 -9.183037, -60.947678 -9.181624, -60.947499 -9.180210, -60.947320 -9.178796, -60.947142 -9.177383, -60.946963 -9.175969, -60.946784 -9.174556, -60.946606 -9.173142, -60.946427 -9.171729, -60.946249 -9.170315, -60.946070 -9.168901, -60.945891 -9.167488, -60.945713 -9.166074, -60.945534 -9.164661, -60.945355 -9.163247, -60.945177 -9.161834, -60.944998 -9.160420, -60.944820 -9.159006, -60.944641 -9.157593, -60.944462 -9.156179, -60.944284 -9.154766, -60.944105 -9.153352, -60.943926 -9.151938, -60.943748 -9.150525, -60.943569 -9.149111, -60.943391 -9.147698, -60.943212 -9.146284, -60.943033 -9.144871, -60.942855 -9.143457, -60.942676 -9.142043, -60.942498 -9.140630, -60.942319 -9.139216, -60.942140 -9.137803, -60.941962 -9.136389, -60.941783 -9.134976, -60.941605 -9.133562, -60.941426 -9.132148, -60.941248 -9.130735, -60.941069 -9.129321, -60.940890 -9.127908, -60.940712 -9.126494, -60.940533 -9.125081, -60.940355 -9.123667, -60.940176 -9.122253, -60.939997 -9.120840, -60.939819 -9.119426, -60.939640 -9.118013, -60.939462 -9.116599, -60.939283 -9.115185, -60.939105 -9.113772, -60.938926 -9.112358, -60.938747 -9.110945, -60.938569 -9.109531, -60.938390 -9.108118, -60.938212 -9.106704, -60.938033 -9.105290, -60.937855 -9.103877, -60.937676 -9.102463, -60.937498 -9.101050, -60.937319 -9.099636, -60.937140 -9.098223, -60.936962 -9.096809, -60.936783 -9.095395, -60.936605 -9.093982, -60.936426 -9.092568, -60.936248 -9.091155, -60.936069 -9.089741, -60.935891 -9.088327, -60.935712 -9.086914, -60.935533 -9.085500, -60.935355 -9.084087, -60.935176 -9.082673, -60.934998 -9.081260, -60.934819 -9.079846, -60.934641 -9.078432, -60.934462 -9.077019, -60.934284 -9.075605, -60.934105 -9.074192, -60.933927 -9.072778, -60.933748 -9.071365, -60.933570 -9.069951, -60.933391 -9.068537, -60.933213 -9.067124, -60.933034 -9.065710, -60.932855 -9.064297, -60.932677 -9.062883, -60.932498 -9.061469, -60.932320 -9.060056, -60.932141 -9.058642, -60.931963 -9.057229, -60.931784 -9.055815, -60.931606 -9.054402, -60.931427 -9.052988, -60.931249 -9.051574, -60.931070 -9.050161, -60.930892 -9.048747, -60.930713 -9.047334, -60.930535 -9.045920, -60.930356 -9.044506, -60.930178 -9.043093, -60.929999 -9.041679, -60.929821 -9.040266, -60.929642 -9.038852, -60.929464 -9.037439, -60.929285 -9.036025, -60.929107 -9.034611, -60.928928 -9.033198, -60.928750 -9.031784, -60.928571 -9.030371, -60.928393 -9.028957, -60.928214 -9.027543, -60.928036 -9.026130, -60.927857 -9.024716, -60.927679 -9.023303, -60.927500 -9.021889, -60.927322 -9.020476, -60.927144 -9.019062, -60.926965 -9.017648, -60.926787 -9.016235, -60.926608 -9.014821, -60.926430 -9.013408, -60.926251 -9.011994, -60.926073 -9.010580, -60.925894 -9.009167, -60.925716 -9.007753, -60.925537 -9.006340, -60.925359 -9.004926, -60.925180 -9.003513, -60.925002 -9.002099, -60.924823 -9.000685, -60.924645 -8.999272, -60.924467 -8.997858, -60.924288 -8.996445, -60.924110 -8.995031, -60.923931 -8.993617, -60.923753 -8.992204, -60.923574 -8.990790, -60.923396 -8.989377, -60.923217 -8.987963, -60.923039 -8.986550, -60.922861 -8.985136, -60.922682 -8.983722, -60.922504 -8.982309, -60.922325 -8.980895, -60.922147 -8.979482, -60.921968 -8.978068, -60.921790 -8.976654, -60.921611 -8.975241, -60.921433 -8.973827, -60.921255 -8.972414, -60.921076 -8.971000, -60.920898 -8.969586, -60.920719 -8.968173, -60.920541 -8.966759, -60.920362 -8.965346, -60.920184 -8.963932, -60.920006 -8.962519, -60.919827 -8.961105, -60.919649 -8.959691, -60.919470 -8.958278, -60.919292 -8.956864, -60.919114 -8.955451, -60.918935 -8.954037, -60.918757 -8.952623, -60.918578 -8.951210, -60.918400 -8.949796, -60.918221 -8.948383, -60.918043 -8.946969, -60.917865 -8.945555, -60.917686 -8.944142, -60.917508 -8.942728, -60.917329 -8.941315, -60.917151 -8.939901, -60.916973 -8.938488, -60.916794 -8.937074, -60.916616 -8.935660, -60.916437 -8.934247, -60.916259 -8.932833, -60.916081 -8.931420, -60.915902 -8.930006, -60.915724 -8.928592, -60.915546 -8.927179, -60.915367 -8.925765, -60.915189 -8.924352, -60.915010 -8.922938, -60.914832 -8.921524, -60.914654 -8.920111, -60.914475 -8.918697, -60.914297 -8.917284, -60.914118 -8.915870, -60.913940 -8.914457, -60.913762 -8.913043, -60.913583 -8.911629, -60.913405 -8.910216, -60.913227 -8.908802, -60.913048 -8.907389, -60.912870 -8.905975, -60.912692 -8.904561, -60.912513 -8.903148, -60.912335 -8.901734, -60.912156 -8.900321, -60.911978 -8.898907, -60.911800 -8.897493, -60.911621 -8.896080, -60.911443 -8.894666, -60.911265 -8.893253, -60.911086 -8.891839, -60.910908 -8.890425, -60.910730 -8.889012, -60.910551 -8.887598, -60.910373 -8.886185, -60.910195 -8.884771, -60.910016 -8.883358, -60.909838 -8.881944, -60.909660 -8.880530, -60.909481 -8.879117, -60.909303 -8.877703, -60.909125 -8.876290, -60.908946 -8.874876, -60.908768 -8.873462, -60.908590 -8.872049, -60.908411 -8.870635, -60.908233 -8.869222, -60.908055 -8.867808, -60.907876 -8.866394, -60.907698 -8.864981, -60.907520 -8.863567, -60.907341 -8.862154, -60.907163 -8.860740, -60.906985 -8.859326, -60.906806 -8.857913, -60.906628 -8.856499, -60.906450 -8.855086, -60.906271 -8.853672, -60.906093 -8.852258, -60.905915 -8.850845, -60.905736 -8.849431, -60.905558 -8.848018, -60.905380 -8.846604, -60.905201 -8.845191, -60.905023 -8.843777, -60.904845 -8.842363, -60.904667 -8.840950, -60.904488 -8.839536, -60.904310 -8.838123, -60.904132 -8.836709, -60.903953 -8.835295, -60.903775 -8.833882, -60.903597 -8.832468, -60.903419 -8.831055, -60.903240 -8.829641, -60.903062 -8.828227, -60.902884 -8.826814, -60.902705 -8.825400, -60.902527 -8.823987, -60.902349 -8.822573, -60.902170 -8.821159, -60.901992 -8.819746, -60.901814 -8.818332, -60.901636 -8.816919, -60.901457 -8.815505, -60.901279 -8.814091, -60.901101 -8.812678, -60.900923 -8.811264, -60.900744 -8.809851, -60.900566 -8.808437, -60.900388 -8.807023, -60.900209 -8.805610, -60.900031 -8.804196, -60.899853 -8.802783, -60.899675 -8.801369, -60.899496 -8.799955, -60.899318 -8.798542, -60.899140 -8.797128, -60.898962 -8.795715, -60.898783 -8.794301, -60.898605 -8.792887, -60.898427 -8.791474, -60.898249 -8.790060, -60.898070 -8.788647, -60.897892 -8.787233, -60.897714 -8.785819, -60.897536 -8.784406, -60.897357 -8.782992, -60.897179 -8.781579, -60.897001 -8.780165, -60.896823 -8.778751, -60.896644 -8.777338, -60.896466 -8.775924, -60.896288 -8.774511, -60.896110 -8.773097, -60.895931 -8.771683, -60.895753 -8.770270, -60.895575 -8.768856, -60.895397 -8.767443, -60.895219 -8.766029, -60.895040 -8.764615, -60.894862 -8.763202, -60.894684 -8.761788, -60.894506 -8.760375, -60.894327 -8.758961, -60.894149 -8.757547, -60.893971 -8.756134, -60.893793 -8.754720, -60.893614 -8.753307, -60.893436 -8.751893, -60.893258 -8.750479, -60.893080 -8.749066, -60.892902 -8.747652, -60.892723 -8.746239, -60.892545 -8.744825, -60.892367 -8.743411, -60.892189 -8.741998, -60.892011 -8.740584, -60.891832 -8.739171, -60.891654 -8.737757, -60.891476 -8.736343, -60.891298 -8.734930, -60.891120 -8.733516, -60.890941 -8.732103, -60.890763 -8.730689, -60.890585 -8.729275, -60.890407 -8.727862, -60.890229 -8.726448, -60.890050 -8.725035, -60.889872 -8.723621, -60.889694 -8.722207, -60.889516 -8.720794, -60.889338 -8.719380, -60.889159 -8.717967, -60.888981 -8.716553, -60.888803 -8.715139, -60.888625 -8.713726, -60.888447 -8.712312, -60.888269 -8.710899, -60.888090 -8.709485, -60.887912 -8.708071, -60.887734 -8.706658, -60.887556 -8.705244, -60.887378 -8.703831, -60.887200 -8.702417, -60.887021 -8.701003, -60.886843 -8.699590, -60.886665 -8.698176, -60.886487 -8.696763, -60.886309 -8.695349, -60.886131 -8.693935, -60.885952 -8.692522, -60.885774 -8.691108, -60.885596 -8.689695, -60.885418 -8.688281, -60.885240 -8.686867, -60.885062 -8.685454, -60.884883 -8.684040, -60.884705 -8.682627, -60.884527 -8.681213, -60.884349 -8.679799, -60.884171 -8.678386, -60.883993 -8.676972, -60.883815 -8.675559, -60.883636 -8.674145, -60.883458 -8.672731, -60.883280 -8.671318, -60.883102 -8.669904, -60.882924 -8.668491, -60.882746 -8.667077, -60.882568 -8.665663, -60.882389 -8.664250, -60.882211 -8.662836, -60.882033 -8.661423, -60.881855 -8.660009, -60.881677 -8.658595, -60.881499 -8.657182, -60.881321 -8.655768, -60.881143 -8.654355, -60.880964 -8.652941, -60.880786 -8.651527, -60.880608 -8.650114, -60.880430 -8.648700, -60.880252 -8.647286, -60.880074 -8.645873, -60.879896 -8.644459, -60.879718 -8.643046, -60.879540 -8.641632, -60.879361 -8.640218, -60.879183 -8.638805, -60.879005 -8.637391, -60.878827 -8.635978, -60.878649 -8.634564, -60.878471 -8.633150, -60.878293 -8.631737, -60.878115 -8.630323, -60.877937 -8.628910, -60.877758 -8.627496, -60.877580 -8.626082, -60.877402 -8.624669, -60.877224 -8.623255, -60.877046 -8.621842, -60.876868 -8.620428, -60.876690 -8.619014, -60.876512 -8.617601, -60.876334 -8.616187, -60.876156 -8.614774, -60.875978 -8.613360, -60.875799 -8.611946, -60.875621 -8.610533, -60.875443 -8.609119, -60.875265 -8.607705, -60.875087 -8.606292, -60.874909 -8.604878, -60.874731 -8.603465, -60.874553 -8.602051, -60.874375 -8.600637, -60.874197 -8.599224, -60.874019 -8.597810, -60.873841 -8.596397, -60.873663 -8.594983, -60.873485 -8.593569, -60.873306 -8.592156, -60.873128 -8.590742, -60.872950 -8.589329, -60.872772 -8.587915, -60.872594 -8.586501, -60.872416 -8.585088, -60.872238 -8.583674, -60.872060 -8.582261, -60.871882 -8.580847, -60.871704 -8.579433, -60.871526 -8.578020, -60.871348 -8.576606, -60.871170 -8.575192, -60.870992 -8.573779, -60.870814 -8.572365, -60.870636 -8.570952, -60.870458 -8.569538, -60.870280 -8.568124, -60.870102 -8.566711, -60.869923 -8.565297, -60.869745 -8.563884, -60.869567 -8.562470, -60.869389 -8.561056, -60.869211 -8.559643, -60.869033 -8.558229, -60.868855 -8.556816, -60.868677 -8.555402, -60.868499 -8.553988, -60.868321 -8.552575, -60.868143 -8.551161, -60.867965 -8.549747, -60.867787 -8.548334, -60.867609 -8.546920, -60.867431 -8.545507, -60.867253 -8.544093, -60.867075 -8.542679, -60.866897 -8.541266, -60.866719 -8.539852, -60.866541 -8.538439, -60.866363 -8.537025, -60.866185 -8.535611, -60.866007 -8.534198, -60.865829 -8.532784, -60.865651 -8.531371, -60.865473 -8.529957, -60.865295 -8.528543, -60.865117 -8.527130, -60.864939 -8.525716, -60.864761 -8.524302, -60.864583 -8.522889, -60.864405 -8.521475, -60.864227 -8.520062, -60.864049 -8.518648, -60.863871 -8.517234, -60.863693 -8.515821, -60.863515 -8.514407, -60.863337 -8.512994, -60.863159 -8.511580, -60.862981 -8.510166, -60.862803 -8.508753, -60.862625 -8.507339, -60.862447 -8.505925, -60.862269 -8.504512, -60.862091 -8.503098, -60.861913 -8.501685, -60.861735 -8.500271, -60.861557 -8.498857, -60.861379 -8.497444, -60.861201 -8.496030, -60.861023 -8.494617, -60.860845 -8.493203, -60.860667 -8.491789, -60.860489 -8.490376, -60.860311 -8.488962, -60.860133 -8.487548, -60.859955 -8.486135, -60.859777 -8.484721, -60.859599 -8.483308, -60.859421 -8.481894, -60.859243 -8.480480, -60.859066 -8.479067, -60.858888 -8.477653, -60.858710 -8.476240, -60.858532 -8.474826, -60.858354 -8.473412, -60.858176 -8.471999, -60.857998 -8.470585, -60.857820 -8.469171, -60.857642 -8.467758, -60.857464 -8.466344, -60.857286 -8.464931, -60.857108 -8.463517, -60.856930 -8.462103, -60.856752 -8.460690, -60.856574 -8.459276, -60.856396 -8.457863, -60.856218 -8.456449, -60.856040 -8.455035, -60.855862 -8.453622, -60.855685 -8.452208, -60.855507 -8.450794, -60.855329 -8.449381, -60.855151 -8.447967, -60.854973 -8.446554, -60.854795 -8.445140, -60.854617 -8.443726, -60.854439 -8.442313, -60.854261 -8.440899, -60.854083 -8.439486, -60.853905 -8.438072, -60.853727 -8.436658, -60.853549 -8.435245, -60.853372 -8.433831, -60.853194 -8.432417, -60.853016 -8.431004, -60.852838 -8.429590, -60.852660 -8.428177, -60.852482 -8.426763, -60.852304 -8.425349, -60.852126 -8.423936, -60.851948 -8.422522, -60.851770 -8.421108, -60.851592 -8.419695, -60.851414 -8.418281, -60.851237 -8.416868, -60.851059 -8.415454, -60.850881 -8.414040, -60.850703 -8.412627, -60.850525 -8.411213, -60.850347 -8.409800, -60.850169 -8.408386, -60.849991 -8.406972, -60.849813 -8.405559, -60.849636 -8.404145, -60.849458 -8.402731, -60.849280 -8.401318, -60.849102 -8.399904, -60.848924 -8.398491, -60.848746 -8.397077, -60.848568 -8.395663, -60.848390 -8.394250, -60.848212 -8.392836, -60.848035 -8.391422, -60.847857 -8.390009, -60.847679 -8.388595, -60.847501 -8.387182, -60.847323 -8.385768, -60.847145 -8.384354, -60.846967 -8.382941, -60.846789 -8.381527, -60.846612 -8.380113, -60.846434 -8.378700, -60.846256 -8.377286, -60.846078 -8.375873, -60.845900 -8.374459, -60.845722 -8.373045, -60.845544 -8.371632, -60.845367 -8.370218, -60.845189 -8.368805, -60.845011 -8.367391, -60.844833 -8.365977, -60.844655 -8.364564, -60.844477 -8.363150, -60.844299 -8.361736, -60.844122 -8.360323, -60.843944 -8.358909, -60.843766 -8.357496, -60.843588 -8.356082, -60.843410 -8.354668, -60.843232 -8.353255, -60.843054 -8.351841, -60.842877 -8.350427, -60.842699 -8.349014, -60.842521 -8.347600, -60.842343 -8.346187, -60.842165 -8.344773, -60.841987 -8.343359, -60.841810 -8.341946, -60.841632 -8.340532, -60.841454 -8.339118, -60.841276 -8.337705, -60.841098 -8.336291, -60.840920 -8.334878, -60.840743 -8.333464, -60.840565 -8.332050, -60.840387 -8.330637, -60.840209 -8.329223, -60.840031 -8.327809, -60.839854 -8.326396, -60.839676 -8.324982, -60.839498 -8.323569, -60.839320 -8.322155, -60.839142 -8.320741, -60.838964 -8.319328, -60.838787 -8.317914, -60.838609 -8.316500, -60.838431 -8.315087, -60.838253 -8.313673, -60.838075 -8.312260, -60.837898 -8.310846, -60.837720 -8.309432, -60.837542 -8.308019, -60.837364 -8.306605, -60.837186 -8.305191, -60.837009 -8.303778, -60.836831 -8.302364, -60.836653 -8.300951, -60.836475 -8.299537, -60.836297 -8.298123, -60.836120 -8.296710, -60.835942 -8.295296, -60.835764 -8.293882, -60.835586 -8.292469, -60.835408 -8.291055, -60.835231 -8.289642, -60.835053 -8.288228, -60.834875 -8.286814, -60.834697 -8.285401, -60.834520 -8.283987, -60.834342 -8.282573, -60.834164 -8.281160, -60.833986 -8.279746, -60.833808 -8.278333, -60.833631 -8.276919, -60.833453 -8.275505, -60.833275 -8.274092, -60.833097 -8.272678, -60.832920 -8.271264, -60.832742 -8.269851, -60.832564 -8.268437, -60.832386 -8.267024, -60.832209 -8.265610, -60.832031 -8.264196, -60.831853 -8.262783, -60.831675 -8.261369, -60.831497 -8.259955, -60.831320 -8.258542, -60.831142 -8.257128, -60.830964 -8.255714, -60.830786 -8.254301, -60.830609 -8.252887, -60.830431 -8.251474, -60.830253 -8.250060, -60.830075 -8.248646, -60.829898 -8.247233, -60.829720 -8.245819, -60.829542 -8.244405, -60.829364 -8.242992, -60.829187 -8.241578, -60.829009 -8.240165, -60.828831 -8.238751, -60.828653 -8.237337, -60.828476 -8.235924, -60.828298 -8.234510, -60.828120 -8.233096, -60.827943 -8.231683, -60.827765 -8.230269, -60.827587 -8.228856, -60.827409 -8.227442, -60.827232 -8.226028, -60.827054 -8.224615, -60.826876 -8.223201, -60.826698 -8.221787, -60.826521 -8.220374, -60.826343 -8.218960, -60.826165 -8.217546, -60.825988 -8.216133, -60.825810 -8.214719, -60.825632 -8.213306, -60.825454 -8.211892, -60.825277 -8.210478, -60.825099 -8.209065, -60.824921 -8.207651, -60.824744 -8.206237, -60.824566 -8.204824, -60.824388 -8.203410, -60.824210 -8.201997, -60.824033 -8.200583, -60.823855 -8.199169, -60.823677 -8.197756, -60.823500 -8.196342, -60.823322 -8.194928, -60.823144 -8.193515, -60.822966 -8.192101, -60.822789 -8.190688, -60.822611 -8.189274, -60.822433 -8.187860, -60.822256 -8.186447, -60.822078 -8.185033, -60.821900 -8.183619, -60.821723 -8.182206, -60.821545 -8.180792, -60.821367 -8.179378, -60.821190 -8.177965, -60.821012 -8.176551, -60.820834 -8.175138, -60.820657 -8.173724, -60.820479 -8.172310, -60.820301 -8.170897, -60.820123 -8.169483, -60.819946 -8.168069, -60.819768 -8.166656, -60.819590 -8.165242, -60.819413 -8.163828, -60.819235 -8.162415, -60.819057 -8.161001, -60.818880 -8.159588, -60.818702 -8.158174, -60.818524 -8.156760, -60.818347 -8.155347, -60.818169 -8.153933, -60.817991 -8.152519, -60.817814 -8.151106, -60.817636 -8.149692, -60.817458 -8.148279, -60.817281 -8.146865, -60.817103 -8.145451, -60.816925 -8.144038, -60.816748 -8.142624, -60.816570 -8.141210, -60.816393 -8.139797, -60.816215 -8.138383, -60.816037 -8.136969, -60.815860 -8.135556, -60.815682 -8.134142, -60.815504 -8.132729, -60.815327 -8.131315, -60.815149 -8.129901, -60.814971 -8.128488, -60.814794 -8.127074, -60.814616 -8.125660, -60.814438 -8.124247, -60.814261 -8.122833, -60.814083 -8.121419, -60.813906 -8.120006, -60.813728 -8.118592, -60.813550 -8.117179, -60.813373 -8.115765, -60.813195 -8.114351, -60.813017 -8.112938, -60.812840 -8.111524, -60.812662 -8.110110, -60.812485 -8.108697, -60.812307 -8.107283, -60.812129 -8.105869, -60.811952 -8.104456, -60.811774 -8.103042, -60.811596 -8.101629, -60.811419 -8.100215, -60.811241 -8.098801, -60.811064 -8.097388, -60.810886 -8.095974, -60.810708 -8.094560, -60.810531 -8.093147, -60.810353 -8.091733, -60.810175 -8.090319, -60.809998 -8.088906, -60.809820 -8.087492, -60.809643 -8.086079, -60.809465 -8.084665, -60.809287 -8.083251, -60.809110 -8.081838, -60.808932 -8.080424, -60.808755 -8.079010, -60.808577 -8.077597, -60.808399 -8.076183, -60.808222 -8.074769, -60.808044 -8.073356, -60.807867 -8.071942, -60.807689 -8.070529, -60.807512 -8.069115, -60.807334 -8.067701, -60.807156 -8.066288, -60.806979 -8.064874, -60.806801 -8.063460, -60.806624 -8.062047, -60.806446 -8.060633, -60.806268 -8.059219, -60.806091 -8.057806, -60.805913 -8.056392, -60.805736 -8.054978, -60.805558 -8.053565, -60.805381 -8.052151, -60.805203 -8.050738, -60.805025 -8.049324, -60.804848 -8.047910, -60.804670 -8.046497, -60.804493 -8.045083, -60.804315 -8.043669, -60.804138 -8.042256, -60.803960 -8.040842, -60.803782 -8.039428, -60.803605 -8.038015, -60.803427 -8.036601, -60.803250 -8.035188, -60.803072 -8.033774, -60.802895 -8.032360, -60.802717 -8.030947, -60.802540 -8.029533, -60.802362 -8.028119, -60.802184 -8.026706, -60.802007 -8.025292, -60.801829 -8.023878, -60.801652 -8.022465, -60.801474 -8.021051, -60.801297 -8.019637, -60.801119 -8.018224, -60.800942 -8.016810, -60.800764 -8.015397, -60.800586 -8.013983, -60.800409 -8.012569, -60.800231 -8.011156, -60.800054 -8.009742, -60.799876 -8.008328, -60.799699 -8.006915, -60.799521 -8.005501, -60.799344 -8.004087, -60.799166 -8.002674, -60.798989 -8.001260, -60.798811 -7.999847, -60.798634 -7.998433, -60.798456 -7.997019, -60.798279 -7.995606, -60.798101 -7.994192, -60.797924 -7.992778, -60.797746 -7.991365, -60.797568 -7.989951, -60.797391 -7.988537, -60.797213 -7.987124, -60.797036 -7.985710, -60.796858 -7.984296, -60.796681 -7.982883, -60.796503 -7.981469, -60.796326 -7.980056, -60.796148 -7.978642, -60.795971 -7.977228, -60.795793 -7.975815, -60.795616 -7.974401, -60.795438 -7.972987, -60.795261 -7.971574, -60.795083 -7.970160, -60.794906 -7.968746, -60.794728 -7.967333, -60.794551 -7.965919, -60.794373 -7.964505, -60.794196 -7.963092, -60.794018 -7.961678, -60.793841 -7.960264, -60.793663 -7.958851, -60.793486 -7.957437, -60.793308 -7.956024, -60.793131 -7.954610, -60.792953 -7.953196, -60.792776 -7.951783, -60.792598 -7.950369, -60.792421 -7.948955, -60.792243 -7.947542, -60.792066 -7.946128, -60.791888 -7.944714, -60.791711 -7.943301, -60.791534 -7.941887, -60.791356 -7.940473, -60.791179 -7.939060, -60.791001 -7.937646, -60.790824 -7.936233, -60.790646 -7.934819, -60.790469 -7.933405, -60.790291 -7.931992, -60.790114 -7.930578, -60.789936 -7.929164, -60.789759 -7.927751, -60.789581 -7.926337, -60.789404 -7.924923, -60.789226 -7.923510, -60.789049 -7.922096, -60.788871 -7.920682, -60.788694 -7.919269, -60.788517 -7.917855, -60.788339 -7.916441, -60.788162 -7.915028, -60.787984 -7.913614, -60.787807 -7.912201, -60.787629 -7.910787, -60.787452 -7.909373, -60.787274 -7.907960, -60.787097 -7.906546, -60.786919 -7.905132, -60.786742 -7.903719, -60.786565 -7.902305, -60.786387 -7.900891, -60.786210 -7.899478, -60.786032 -7.898064, -60.785855 -7.896650, -60.785677 -7.895237, -60.785500 -7.893823, -60.785323 -7.892409, -60.785145 -7.890996, -60.784968 -7.889582, -60.784790 -7.888169, -60.784613 -7.886755, -60.784435 -7.885341, -60.784258 -7.883928, -60.784081 -7.882514, -60.783903 -7.881100, -60.783726 -7.879687, -60.783548 -7.878273, -60.783371 -7.876859, -60.783193 -7.875446, -60.783016 -7.874032, -60.782839 -7.872618, -60.782661 -7.871205, -60.782484 -7.869791, -60.782306 -7.868377, -60.782129 -7.866964, -60.781951 -7.865550, -60.781774 -7.864136, -60.781597 -7.862723, -60.781419 -7.861309, -60.781242 -7.859896, -60.781064 -7.858482, -60.780887 -7.857068, -60.780710 -7.855655, -60.780532 -7.854241, -60.780355 -7.852827, -60.780177 -7.851414, -60.780000 -7.850000, -60.779480 -7.848678, -60.778961 -7.847356, -60.778441 -7.846034, -60.777922 -7.844712, -60.777402 -7.843390, -60.776883 -7.842068, -60.776363 -7.840746, -60.775844 -7.839424, -60.775324 -7.838102, -60.774804 -7.836779, -60.774285 -7.835457, -60.773765 -7.834135, -60.773246 -7.832813, -60.772726 -7.831491, -60.772207 -7.830169, -60.771687 -7.828847, -60.771168 -7.827525, -60.770648 -7.826203, -60.770129 -7.824881, -60.769609 -7.823559, -60.769090 -7.822237, -60.768570 -7.820915, -60.768051 -7.819593, -60.767531 -7.818271, -60.767012 -7.816949, -60.766492 -7.815626, -60.765973 -7.814304, -60.765453 -7.812982, -60.764934 -7.811660, -60.764414 -7.810338, -60.763895 -7.809016, -60.763375 -7.807694, -60.762856 -7.806372, -60.762337 -7.805050, -60.761817 -7.803728, -60.761298 -7.802406, -60.760778 -7.801084, -60.760259 -7.799762, -60.759739 -7.798440, -60.759220 -7.797117, -60.758700 -7.795795, -60.758181 -7.794473, -60.757662 -7.793151, -60.757142 -7.791829, -60.756623 -7.790507, -60.756103 -7.789185, -60.755584 -7.787863, -60.755064 -7.786541, -60.754545 -7.785219, -60.754026 -7.783897, -60.753506 -7.782575, -60.752987 -7.781253, -60.752467 -7.779930, -60.751948 -7.778608, -60.751429 -7.777286, -60.750909 -7.775964, -60.750390 -7.774642, -60.749870 -7.773320, -60.749351 -7.771998, -60.748832 -7.770676, -60.748312 -7.769354, -60.747793 -7.768032, -60.747274 -7.766710, -60.746754 -7.765388, -60.746235 -7.764065, -60.745716 -7.762743, -60.745196 -7.761421, -60.744677 -7.760099, -60.744157 -7.758777, -60.743638 -7.757455, -60.743119 -7.756133, -60.742599 -7.754811, -60.742080 -7.753489, -60.741561 -7.752167, -60.741041 -7.750844, -60.740522 -7.749522, -60.740003 -7.748200, -60.739484 -7.746878, -60.738964 -7.745556, -60.738445 -7.744234, -60.737926 -7.742912, -60.737406 -7.741590, -60.736887 -7.740268, -60.736368 -7.738946, -60.735848 -7.737623, -60.735329 -7.736301, -60.734810 -7.734979, -60.734291 -7.733657, -60.733771 -7.732335, -60.733252 -7.731013, -60.732733 -7.729691, -60.732213 -7.728369, -60.731694 -7.727047, -60.731175 -7.725725, -60.730656 -7.724402, -60.730136 -7.723080, -60.729617 -7.721758, -60.729098 -7.720436, -60.728579 -7.719114, -60.728059 -7.717792, -60.727540 -7.716470, -60.727021 -7.715148, -60.726502 -7.713825, -60.725982 -7.712503, -60.725463 -7.711181, -60.724944 -7.709859, -60.724425 -7.708537, -60.723906 -7.707215, -60.723386 -7.705893, -60.722867 -7.704571, -60.722348 -7.703249, -60.721829 -7.701926, -60.721310 -7.700604, -60.720790 -7.699282, -60.720271 -7.697960, -60.719752 -7.696638, -60.719233 -7.695316, -60.718714 -7.693994, -60.718194 -7.692672, -60.717675 -7.691349, -60.717156 -7.690027, -60.716637 -7.688705, -60.716118 -7.687383, -60.715599 -7.686061, -60.715079 -7.684739, -60.714560 -7.683417, -60.714041 -7.682095, -60.713522 -7.680772, -60.713003 -7.679450, -60.712484 -7.678128, -60.711964 -7.676806, -60.711445 -7.675484, -60.710926 -7.674162, -60.710407 -7.672840, -60.709888 -7.671518, -60.709369 -7.670195, -60.708850 -7.668873, -60.708331 -7.667551, -60.707811 -7.666229, -60.707292 -7.664907, -60.706773 -7.663585, -60.706254 -7.662263, -60.705735 -7.660940, -60.705216 -7.659618, -60.704697 -7.658296, -60.704178 -7.656974, -60.703659 -7.655652, -60.703139 -7.654330, -60.702620 -7.653008, -60.702101 -7.651685, -60.701582 -7.650363, -60.701063 -7.649041, -60.700544 -7.647719, -60.700025 -7.646397, -60.699506 -7.645075, -60.698987 -7.643753, -60.698468 -7.642430, -60.697949 -7.641108, -60.697430 -7.639786, -60.696911 -7.638464, -60.696392 -7.637142, -60.695873 -7.635820, -60.695354 -7.634497, -60.694834 -7.633175, -60.694315 -7.631853, -60.693796 -7.630531, -60.693277 -7.629209, -60.692758 -7.627887, -60.692239 -7.626565, -60.691720 -7.625242, -60.691201 -7.623920, -60.690682 -7.622598, -60.690163 -7.621276, -60.689644 -7.619954, -60.689125 -7.618632, -60.688606 -7.617309, -60.688087 -7.615987, -60.687568 -7.614665, -60.687049 -7.613343, -60.686530 -7.612021, -60.686011 -7.610699, -60.685492 -7.609376, -60.684973 -7.608054, -60.684454 -7.606732, -60.683935 -7.605410, -60.683416 -7.604088, -60.682898 -7.602766, -60.682379 -7.601443, -60.681860 -7.600121, -60.681341 -7.598799, -60.680822 -7.597477, -60.680303 -7.596155, -60.679784 -7.594833, -60.679265 -7.593510, -60.678746 -7.592188, -60.678227 -7.590866, -60.677708 -7.589544, -60.677189 -7.588222, -60.676670 -7.586900, -60.676151 -7.585577, -60.675632 -7.584255, -60.675113 -7.582933, -60.674595 -7.581611, -60.674076 -7.580289, -60.673557 -7.578967, -60.673038 -7.577644, -60.672519 -7.576322, -60.672000 -7.575000)
